{"type":"FeatureCollection","features":[{"type":"Feature","id":"w124108806","properties":{"type":"yes","residential":true,"residents_est":32,"h3_10":"8a1e2e79965ffff","h3_11":"8b1e2e79965efff"},"geometry":{"type":"Polygon","coordinates":[[[19.940112,50.108723],[19.940127,50.108637],[19.940157,50.10864],[19.940177,50.108522],[19.940149,50.10852],[19.940164,50.108435],[19.940192,50.108437],[19.94022,50.108275],[19.940407,50.108288],[19.940379,50.108449],[19.940404,50.108451],[19.940389,50.108539],[19.940362,50.108536],[19.940342,50.108652],[19.940367,50.108654],[19.940352,50.10874],[19.940327,50.108738],[19.940299,50.1089],[19.940114,50.108887],[19.940141,50.108725],[19.940112,50.108723]]]}},{"type":"Feature","id":"w124108809","properties":{"type":"yes","residential":true,"residents_est":11,"h3_10":"8a1e2e799647fff","h3_11":"8b1e2e799644fff"},"geometry":{"type":"Polygon","coordinates":[[[19.939953,50.109893],[19.939992,50.109641],[19.940159,50.109651],[19.94012,50.109903],[19.939953,50.109893]]]}},{"type":"Feature","id":"w124108810","properties":{"type":"yes","residential":true,"residents_est":31,"h3_10":"8a1e2e799647fff","h3_11":"8b1e2e799642fff"},"geometry":{"type":"Polygon","coordinates":[[[19.939992,50.109585],[19.940057,50.109222],[19.940026,50.109219],[19.940042,50.10913],[19.940071,50.109132],[19.9401,50.108973],[19.940289,50.108987],[19.94026,50.109146],[19.940284,50.109148],[19.940268,50.109238],[19.940244,50.109236],[19.940223,50.10935],[19.940248,50.109351],[19.940232,50.109438],[19.940209,50.109436],[19.94018,50.109599],[19.939992,50.109585]]]}},{"type":"Feature","id":"w124108811","properties":{"type":"yes","residential":true,"residents_est":2,"h3_10":"8a1e2e79966ffff","h3_11":"8b1e2e79966afff"},"geometry":{"type":"Polygon","coordinates":[[[19.941342,50.110172],[19.941372,50.109997],[19.941467,50.110003],[19.941436,50.110179],[19.941342,50.110172]]]}},{"type":"Feature","id":"w124108813","properties":{"type":"yes","residential":true,"residents_est":2,"h3_10":"8a1e2e79966ffff","h3_11":"8b1e2e79966afff"},"geometry":{"type":"Polygon","coordinates":[[[19.94149,50.109991],[19.941504,50.109919],[19.94172,50.109936],[19.94171,50.10999],[19.941558,50.109978],[19.941554,50.109996],[19.94149,50.109991]]]}},{"type":"Feature","id":"w124108814","properties":{"type":"yes","residential":true,"residents_est":29,"h3_10":"8a1e2e79964ffff","h3_11":"8b1e2e79964efff"},"geometry":{"type":"Polygon","coordinates":[[[19.941426,50.10969],[19.941472,50.109427],[19.941443,50.109425],[19.941457,50.109342],[19.941483,50.109344],[19.941529,50.10908],[19.941712,50.109093],[19.941606,50.109703],[19.941426,50.10969]]]}},{"type":"Feature","id":"w124108815","properties":{"type":"yes","residential":true,"residents_est":11,"h3_10":"8a1e2e79965ffff","h3_11":"8b1e2e79965bfff"},"geometry":{"type":"Polygon","coordinates":[[[19.940807,50.108205],[19.940822,50.108118],[19.940985,50.10813],[19.940988,50.108121],[19.94114,50.108132],[19.941139,50.108142],[19.941302,50.108154],[19.941286,50.108241],[19.940807,50.108205]]]}},{"type":"Feature","id":"w124108818","properties":{"type":"yes","residential":true,"residents_est":3,"h3_10":"8a1e2e79966ffff","h3_11":"8b1e2e799668fff"},"geometry":{"type":"Polygon","coordinates":[[[19.941656,50.110248],[19.941701,50.110015],[19.941803,50.110023],[19.941758,50.110256],[19.941656,50.110248]]]}},{"type":"Feature","id":"w124108820","properties":{"type":"yes","residential":false,"residents_est":0,"h3_10":"8a1e2e799667fff","h3_11":"8b1e2e799663fff"},"geometry":{"type":"Polygon","coordinates":[[[19.939948,50.110281],[19.94011,50.110202],[19.940096,50.11019],[19.940134,50.110171],[19.94018,50.1102],[19.940264,50.110281],[19.940224,50.1103],[19.94021,50.110288],[19.940049,50.110367],[19.940022,50.110345],[19.939995,50.110342],[19.93997,50.110321],[19.939974,50.110302],[19.939948,50.110281]]]}},{"type":"Feature","id":"w124108822","properties":{"type":"yes","residential":true,"residents_est":15,"h3_10":"8a1e2e799667fff","h3_11":"8b1e2e799660fff"},"geometry":{"type":"Polygon","coordinates":[[[19.939553,50.110621],[19.93958,50.110468],[19.939966,50.110498],[19.939936,50.11065],[19.939553,50.110621]]]}},{"type":"Feature","id":"w124108825","properties":{"type":"yes","residential":true,"residents_est":8,"h3_10":"8a1e2e79965ffff","h3_11":"8b1e2e79965afff"},"geometry":{"type":"Polygon","coordinates":[[[19.940075,50.108171],[19.940091,50.108082],[19.940436,50.108108],[19.940433,50.108125],[19.940475,50.108132],[19.940469,50.10817],[19.940452,50.10817],[19.94045,50.10818],[19.940424,50.108178],[19.940421,50.108196],[19.940075,50.108171]]]}},{"type":"Feature","id":"w124108826","properties":{"type":"service","residential":false,"residents_est":0,"h3_10":"8a1e2e799647fff","h3_11":"8b1e2e799644fff"},"geometry":{"type":"Polygon","coordinates":[[[19.939943,50.110022],[19.939954,50.10996],[19.940128,50.109972],[19.940118,50.110034],[19.939943,50.110022]]]}},{"type":"Feature","id":"w124108827","properties":{"type":"yes","residential":true,"residents_est":22,"h3_10":"8a1e2e799647fff","h3_11":"8b1e2e799641fff"},"geometry":{"type":"Polygon","coordinates":[[[19.940419,50.109778],[19.940443,50.109634],[19.941038,50.109675],[19.941013,50.109819],[19.940419,50.109778]]]}},{"type":"Feature","id":"w124108830","properties":{"type":"yes","residential":true,"residents_est":52,"h3_10":"8a1e2e799667fff","h3_11":"8b1e2e799661fff"},"geometry":{"type":"Polygon","coordinates":[[[19.940364,50.11068],[19.940434,50.110293],[19.941109,50.110343],[19.941039,50.110728],[19.940824,50.110712],[19.940869,50.110466],[19.940628,50.110448],[19.940583,50.110696],[19.940364,50.11068]]]}},{"type":"Feature","id":"w229206752","properties":{"type":"yes","address":"Nowa Górka 34","residential":true,"residents_est":2,"h3_10":"8a1e2e7996cffff","h3_11":"8b1e2e7996cbfff"},"geometry":{"type":"Polygon","coordinates":[[[19.939881,50.10621],[19.939963,50.106157],[19.939999,50.10618],[19.940012,50.106172],[19.940062,50.106205],[19.94005,50.106213],[19.940085,50.106236],[19.940003,50.106288],[19.939881,50.10621]]]}},{"type":"Feature","id":"w323163859","properties":{"type":"yes","address":"Długopolska 6","residential":true,"residents_est":2,"h3_10":"8a1e2e7996b7fff","h3_11":"8b1e2e7996b6fff"},"geometry":{"type":"Polygon","coordinates":[[[19.929941,50.107477],[19.929993,50.107472],[19.930008,50.107457],[19.930026,50.107455],[19.930048,50.107465],[19.9301,50.107459],[19.930121,50.107535],[19.930086,50.107539],[19.93009,50.107552],[19.929966,50.107567],[19.929941,50.107477]]]}},{"type":"Feature","id":"w323163869","properties":{"type":"yes","residential":true,"residents_est":1,"h3_10":"8a1e2e7996b7fff","h3_11":"8b1e2e7996b6fff"},"geometry":{"type":"Polygon","coordinates":[[[19.930198,50.107329],[19.930299,50.107317],[19.93031,50.107356],[19.930349,50.107352],[19.930362,50.107399],[19.930324,50.107404],[19.93033,50.107429],[19.930248,50.107438],[19.930225,50.107357],[19.930206,50.10736],[19.930198,50.107329]]]}},{"type":"Feature","id":"w323163925","properties":{"type":"yes","address":"Długopolska 1","residential":true,"residents_est":12,"h3_10":"8a1e2e7996b7fff","h3_11":"8b1e2e7996b4fff"},"geometry":{"type":"Polygon","coordinates":[[[19.930178,50.107765],[19.93032,50.10775],[19.930372,50.107756],[19.930588,50.107807],[19.930626,50.107956],[19.930473,50.10797],[19.930468,50.107951],[19.930495,50.107948],[19.930473,50.10786],[19.930362,50.107839],[19.930365,50.107818],[19.930337,50.107818],[19.930346,50.107852],[19.930303,50.107856],[19.930298,50.107838],[19.930199,50.107848],[19.930178,50.107765]]]}},{"type":"Feature","id":"w323163928","properties":{"type":"yes","residential":true,"residents_est":94,"h3_10":"8a1e2e79979ffff","h3_11":"8b1e2e79979efff"},"geometry":{"type":"Polygon","coordinates":[[[19.92972,50.108735],[19.930046,50.108445],[19.930067,50.108423],[19.93004,50.10841],[19.93007,50.108384],[19.930099,50.108397],[19.930109,50.108388],[19.930197,50.108429],[19.930186,50.108439],[19.930768,50.108709],[19.930321,50.109106],[19.929868,50.108895],[19.930261,50.108545],[19.93024,50.108536],[19.929914,50.108825],[19.92983,50.108786],[19.930156,50.108496],[19.930133,50.108486],[19.929807,50.108776],[19.92972,50.108735]]]}},{"type":"Feature","id":"w323163971","properties":{"type":"yes","address":"Długopolska 4","residential":true,"residents_est":2,"h3_10":"8a1e2e7996b7fff","h3_11":"8b1e2e7996b6fff"},"geometry":{"type":"Polygon","coordinates":[[[19.93041,50.107419],[19.930567,50.1074],[19.930593,50.10749],[19.930436,50.107509],[19.93041,50.107419]]]}},{"type":"Feature","id":"w323163995","properties":{"type":"yes","address":"Długopolska 2","residential":true,"residents_est":1,"h3_10":"8a1e2e7996b7fff","h3_11":"8b1e2e7996b0fff"},"geometry":{"type":"Polygon","coordinates":[[[19.930689,50.107389],[19.930833,50.107371],[19.930858,50.107456],[19.930713,50.107473],[19.930689,50.107389]]]}},{"type":"Feature","id":"w323164137","properties":{"type":"yes","residential":true,"residents_est":3,"h3_10":"8a1e2e79979ffff","h3_11":"8b1e2e79979afff"},"geometry":{"type":"Polygon","coordinates":[[[19.929947,50.108105],[19.930048,50.108006],[19.930101,50.108028],[19.930155,50.107975],[19.930229,50.108006],[19.930074,50.108158],[19.929947,50.108105]]]}},{"type":"Feature","id":"w323270615","properties":{"type":"service","residential":false,"residents_est":0,"h3_10":"8a1e2e799667fff","h3_11":"8b1e2e799665fff"},"geometry":{"type":"Polygon","coordinates":[[[19.940484,50.110945],[19.940493,50.110895],[19.940638,50.110908],[19.940625,50.110955],[19.940484,50.110945]]]}},{"type":"Feature","id":"w441979629","properties":{"type":"yes","address":"Zielone Wzgórze 34B","residential":true,"residents_est":2,"h3_10":"8a1e2e799797fff","h3_11":"8b1e2e799796fff"},"geometry":{"type":"Polygon","coordinates":[[[19.928011,50.108834],[19.928041,50.108755],[19.928221,50.108778],[19.928186,50.10886],[19.928011,50.108834]]]}},{"type":"Feature","id":"w441979635","properties":{"type":"yes","residential":true,"residents_est":1,"h3_10":"8a1e2e799797fff","h3_11":"8b1e2e799792fff"},"geometry":{"type":"Polygon","coordinates":[[[19.928496,50.108292],[19.928522,50.108218],[19.92865,50.108236],[19.928622,50.108312],[19.928496,50.108292]]]}},{"type":"Feature","id":"w706379914","properties":{"type":"yes","residential":true,"residents_est":2,"h3_10":"8a1e2e799797fff","h3_11":"8b1e2e799792fff"},"geometry":{"type":"Polygon","coordinates":[[[19.928604,50.10836],[19.928653,50.108229],[19.928767,50.108247],[19.928718,50.108377],[19.928604,50.10836]]]}},{"type":"Feature","id":"w706379917","properties":{"type":"yes","residential":true,"residents_est":1,"h3_10":"8a1e2e799797fff","h3_11":"8b1e2e799792fff"},"geometry":{"type":"Polygon","coordinates":[[[19.928478,50.108341],[19.928496,50.108292],[19.928622,50.108312],[19.928604,50.10836],[19.928478,50.108341]]]}},{"type":"Feature","id":"w706379918","properties":{"type":"yes","residential":true,"residents_est":1,"h3_10":"8a1e2e799797fff","h3_11":"8b1e2e799792fff"},"geometry":{"type":"Polygon","coordinates":[[[19.928265,50.108406],[19.928306,50.108323],[19.928377,50.108337],[19.928359,50.108373],[19.928374,50.108376],[19.928358,50.10841],[19.928336,50.108418],[19.928265,50.108406]]]}},{"type":"Feature","id":"w893660143","properties":{"type":"farm_auxiliary","levels":1.0,"residential":false,"residents_est":0,"h3_10":"8a1e2e7996b7fff","h3_11":"8b1e2e7996b4fff"},"geometry":{"type":"Polygon","coordinates":[[[19.930577,50.107719],[19.930787,50.107693],[19.930839,50.107872],[19.930629,50.107897],[19.930577,50.107719]]]}},{"type":"Feature","id":"w1006835256","properties":{"type":"yes","residential":true,"residents_est":10,"h3_10":"8a1e2e7996b7fff","h3_11":"8b1e2e7996b5fff"},"geometry":{"type":"Polygon","coordinates":[[[19.930935,50.107697],[19.931222,50.107664],[19.93126,50.107799],[19.930973,50.107832],[19.930935,50.107697]]]}},{"type":"Feature","id":"w1437000924","properties":{"type":"yes","residential":true,"residents_est":41,"h3_10":"8a1e2e79964ffff","h3_11":"8b1e2e79964afff"},"geometry":{"type":"Polygon","coordinates":[[[19.941543,50.108827],[19.941558,50.108742],[19.941588,50.108744],[19.941609,50.108626],[19.941581,50.108624],[19.941595,50.10854],[19.941623,50.108542],[19.941651,50.10838],[19.941837,50.108393],[19.941805,50.108576],[19.941889,50.108582],[19.941894,50.108551],[19.942225,50.108574],[19.942208,50.108675],[19.941848,50.108649],[19.941853,50.108619],[19.941797,50.108615],[19.941773,50.108756],[19.941798,50.108758],[19.941783,50.108844],[19.941757,50.108842],[19.94173,50.109004],[19.941545,50.108991],[19.941572,50.108829],[19.941543,50.108827]]]}}]}