{"type":"FeatureCollection","features":[{"type":"Feature","id":"w337889623","properties":{"type":"yes","residential":true,"residents_est":2,"h3_10":"8a1e2e6f53a7fff","h3_11":"8b1e2e6f53a1fff"},"geometry":{"type":"Polygon","coordinates":[[[20.183536,50.080833],[20.183611,50.080772],[20.183716,50.080825],[20.18364,50.080884],[20.183536,50.080833]]]}},{"type":"Feature","id":"w337889636","properties":{"type":"yes","residential":true,"residents_est":5,"h3_10":"8a1e2e6f53a7fff","h3_11":"8b1e2e6f53a6fff"},"geometry":{"type":"Polygon","coordinates":[[[20.182337,50.08079],[20.182409,50.080718],[20.182539,50.080769],[20.182555,50.080752],[20.182643,50.080787],[20.182556,50.080877],[20.182337,50.08079]]]}},{"type":"Feature","id":"w337889652","properties":{"type":"yes","residential":true,"residents_est":3,"h3_10":"8a1e2e6f53affff","h3_11":"8b1e2e6f53acfff"},"geometry":{"type":"Polygon","coordinates":[[[20.183928,50.080865],[20.183979,50.080791],[20.184027,50.080805],[20.18404,50.080788],[20.184077,50.080799],[20.184065,50.080816],[20.184114,50.08083],[20.184062,50.080904],[20.183928,50.080865]]]}},{"type":"Feature","id":"w337889668","properties":{"type":"yes","residential":true,"residents_est":7,"h3_10":"8a1e2e6f531ffff","h3_11":"8b1e2e6f5318fff"},"geometry":{"type":"Polygon","coordinates":[[[20.186027,50.0814],[20.186134,50.081239],[20.18619,50.081254],[20.186137,50.081332],[20.186208,50.081352],[20.186235,50.081313],[20.186321,50.081337],[20.186242,50.081458],[20.186027,50.0814]]]}},{"type":"Feature","id":"w337889681","properties":{"type":"yes","residential":true,"residents_est":2,"h3_10":"8a1e2e6f53affff","h3_11":"8b1e2e6f53abfff"},"geometry":{"type":"Polygon","coordinates":[[[20.184809,50.079867],[20.184871,50.079795],[20.184949,50.079823],[20.184888,50.079895],[20.184809,50.079867]]]}},{"type":"Feature","id":"w337889746","properties":{"type":"yes","residential":true,"residents_est":3,"h3_10":"8a1e2e6f531ffff","h3_11":"8b1e2e6f531bfff"},"geometry":{"type":"Polygon","coordinates":[[[20.186695,50.080682],[20.186705,50.080576],[20.186817,50.080581],[20.186806,50.080688],[20.186695,50.080682]]]}},{"type":"Feature","id":"w337889751","properties":{"type":"yes","residential":true,"residents_est":5,"h3_10":"8a1e2e6f53affff","h3_11":"8b1e2e6f53adfff"},"geometry":{"type":"Polygon","coordinates":[[[20.184957,50.080818],[20.184984,50.080779],[20.18502,50.08079],[20.185028,50.080777],[20.184989,50.080766],[20.185014,50.080731],[20.185054,50.080743],[20.185073,50.080716],[20.185256,50.08077],[20.18521,50.080833],[20.185102,50.080801],[20.185067,50.08085],[20.184957,50.080818]]]}},{"type":"Feature","id":"w337889754","properties":{"type":"yes","residential":true,"residents_est":4,"h3_10":"8a1e2e6f531ffff","h3_11":"8b1e2e6f531afff"},"geometry":{"type":"Polygon","coordinates":[[[20.185655,50.080853],[20.185704,50.08077],[20.18587,50.08081],[20.185821,50.080894],[20.185771,50.080882],[20.185761,50.080899],[20.185716,50.080888],[20.185719,50.080885],[20.185684,50.080876],[20.185692,50.080862],[20.185655,50.080853]]]}},{"type":"Feature","id":"w337889760","properties":{"type":"yes","residential":true,"residents_est":80,"h3_10":"8a1e2e6f52a7fff","h3_11":"8b1e2e6f52a5fff"},"geometry":{"type":"Polygon","coordinates":[[[20.185751,50.078466],[20.185836,50.078308],[20.186717,50.078505],[20.186604,50.078716],[20.186005,50.078583],[20.186046,50.078505],[20.185853,50.078462],[20.18584,50.078486],[20.185751,50.078466]]]}},{"type":"Feature","id":"w337889779","properties":{"type":"yes","residential":true,"residents_est":6,"h3_10":"8a1e2e6f53a7fff","h3_11":"8b1e2e6f53a0fff"},"geometry":{"type":"Polygon","coordinates":[[[20.183113,50.080824],[20.183208,50.080736],[20.183353,50.0808],[20.183372,50.080783],[20.183428,50.080808],[20.183305,50.080919],[20.183207,50.080875],[20.183183,50.080897],[20.18313,50.080871],[20.183154,50.080851],[20.183161,50.080854],[20.183167,50.080849],[20.183113,50.080824]]]}},{"type":"Feature","id":"w337889795","properties":{"type":"yes","residential":true,"residents_est":5,"h3_10":"8a1e2e6f53a7fff","h3_11":"8b1e2e6f53a1fff"},"geometry":{"type":"Polygon","coordinates":[[[20.183255,50.080685],[20.183376,50.080584],[20.183406,50.080599],[20.183488,50.080529],[20.183621,50.080593],[20.183538,50.080664],[20.18348,50.080636],[20.183473,50.080642],[20.183444,50.080628],[20.183452,50.080621],[20.183441,50.080616],[20.183331,50.080711],[20.183284,50.080688],[20.183275,50.080695],[20.183255,50.080685]]]}},{"type":"Feature","id":"w337889796","properties":{"type":"yes","residential":true,"residents_est":5,"h3_10":"8a1e2e6f5387fff","h3_11":"8b1e2e6f5386fff"},"geometry":{"type":"Polygon","coordinates":[[[20.182402,50.079847],[20.182467,50.079778],[20.182443,50.079769],[20.182536,50.07967],[20.182552,50.079676],[20.182547,50.079681],[20.182601,50.079702],[20.182548,50.079759],[20.182555,50.079761],[20.182537,50.079781],[20.182572,50.079795],[20.182556,50.079811],[20.182603,50.079829],[20.182538,50.0799],[20.182402,50.079847]]]}},{"type":"Feature","id":"w337889822","properties":{"type":"yes","residential":true,"residents_est":6,"h3_10":"8a1e2e6f5227fff","h3_11":"8b1e2e6f5226fff"},"geometry":{"type":"Polygon","coordinates":[[[20.186964,50.08079],[20.186968,50.08075],[20.186995,50.080752],[20.186998,50.080726],[20.187012,50.080727],[20.187011,50.080732],[20.187275,50.080745],[20.187276,50.080739],[20.187289,50.08074],[20.187283,50.080789],[20.187308,50.08079],[20.187305,50.080817],[20.187279,50.080816],[20.187276,50.080835],[20.186996,50.080821],[20.186999,50.080791],[20.186964,50.08079]]]}},{"type":"Feature","id":"w337889827","properties":{"type":"yes","residential":true,"residents_est":3,"h3_10":"8a1e2e6f53affff","h3_11":"8b1e2e6f53acfff"},"geometry":{"type":"Polygon","coordinates":[[[20.184211,50.080827],[20.184259,50.08075],[20.18442,50.080793],[20.184372,50.08087],[20.184211,50.080827]]]}},{"type":"Feature","id":"w337889837","properties":{"type":"yes","residential":true,"residents_est":5,"h3_10":"8a1e2e6f53affff","h3_11":"8b1e2e6f53aafff"},"geometry":{"type":"Polygon","coordinates":[[[20.184494,50.08002],[20.18455,50.079957],[20.184617,50.079981],[20.184599,50.080001],[20.184645,50.080017],[20.184652,50.08001],[20.184737,50.080041],[20.184728,50.080051],[20.184771,50.080067],[20.184708,50.080138],[20.184663,50.080122],[20.184653,50.080133],[20.184573,50.080103],[20.184585,50.08009],[20.184525,50.080068],[20.18455,50.080041],[20.184494,50.08002]]]}},{"type":"Feature","id":"w337889870","properties":{"type":"yes","residential":true,"residents_est":4,"h3_10":"8a1e2e6f531ffff","h3_11":"8b1e2e6f531bfff"},"geometry":{"type":"Polygon","coordinates":[[[20.186407,50.080976],[20.186457,50.080891],[20.186647,50.080936],[20.186596,50.081023],[20.186407,50.080976]]]}},{"type":"Feature","id":"w337889922","properties":{"type":"yes","residential":true,"residents_est":4,"h3_10":"8a1e2e6f5227fff","h3_11":"8b1e2e6f5220fff"},"geometry":{"type":"Polygon","coordinates":[[[20.187632,50.080639],[20.187654,50.080546],[20.187843,50.080565],[20.187821,50.080658],[20.187632,50.080639]]]}},{"type":"Feature","id":"w337889959","properties":{"type":"yes","residential":true,"residents_est":3,"h3_10":"8a1e2e6f5227fff","h3_11":"8b1e2e6f5221fff"},"geometry":{"type":"Polygon","coordinates":[[[20.188638,50.080883],[20.188776,50.080855],[20.188819,50.080943],[20.188681,50.080971],[20.188638,50.080883]]]}},{"type":"Feature","id":"w337889986","properties":{"type":"yes","residential":true,"residents_est":2,"h3_10":"8a1e2e6f53b7fff","h3_11":"8b1e2e6f53b1fff"},"geometry":{"type":"Polygon","coordinates":[[[20.18214,50.079788],[20.182204,50.079716],[20.182324,50.07976],[20.18226,50.079832],[20.18214,50.079788]]]}},{"type":"Feature","id":"w337890000","properties":{"type":"yes","residential":true,"residents_est":2,"h3_10":"8a1e2e6f522ffff","h3_11":"8b1e2e6f522cfff"},"geometry":{"type":"Polygon","coordinates":[[[20.189067,50.080888],[20.189178,50.080867],[20.189181,50.080873],[20.189205,50.080868],[20.189232,50.080925],[20.189207,50.08093],[20.18921,50.080939],[20.1891,50.08096],[20.189067,50.080888]]]}},{"type":"Feature","id":"w337890013","properties":{"type":"yes","residential":true,"residents_est":2,"h3_10":"8a1e2e6f531ffff","h3_11":"8b1e2e6f531efff"},"geometry":{"type":"Polygon","coordinates":[[[20.185471,50.081057],[20.185534,50.080999],[20.185662,50.081052],[20.185603,50.081111],[20.185471,50.081057]]]}},{"type":"Feature","id":"w337890027","properties":{"type":"yes","residential":true,"residents_est":4,"h3_10":"8a1e2e6f53affff","h3_11":"8b1e2e6f53abfff"},"geometry":{"type":"Polygon","coordinates":[[[20.184888,50.079801],[20.184952,50.079726],[20.185136,50.079792],[20.185073,50.079867],[20.184888,50.079801]]]}},{"type":"Feature","id":"w337890049","properties":{"type":"yes","residential":true,"residents_est":2,"h3_10":"8a1e2e6f5227fff","h3_11":"8b1e2e6f5224fff"},"geometry":{"type":"Polygon","coordinates":[[[20.187222,50.081272],[20.187237,50.081214],[20.187376,50.081228],[20.187361,50.081286],[20.187222,50.081272]]]}},{"type":"Feature","id":"w337890082","properties":{"type":"yes","residential":true,"residents_est":3,"h3_10":"8a1e2e6f5237fff","h3_11":"8b1e2e6f5236fff"},"geometry":{"type":"Polygon","coordinates":[[[20.185418,50.080043],[20.18548,50.079971],[20.185601,50.080016],[20.18554,50.080087],[20.185418,50.080043]]]}},{"type":"Feature","id":"w337890127","properties":{"type":"yes","residential":true,"residents_est":3,"h3_10":"8a1e2e6f5227fff","h3_11":"8b1e2e6f5224fff"},"geometry":{"type":"Polygon","coordinates":[[[20.187359,50.081027],[20.187492,50.081],[20.187536,50.08109],[20.187404,50.081117],[20.187359,50.081027]]]}},{"type":"Feature","id":"w337890164","properties":{"type":"yes","residential":true,"residents_est":3,"h3_10":"8a1e2e6f53affff","h3_11":"8b1e2e6f53abfff"},"geometry":{"type":"Polygon","coordinates":[[[20.185116,50.080012],[20.185186,50.079937],[20.18531,50.079985],[20.18524,50.08006],[20.185116,50.080012]]]}},{"type":"Feature","id":"w337890170","properties":{"type":"yes","residential":true,"residents_est":3,"h3_10":"8a1e2e6f5387fff","h3_11":"8b1e2e6f5385fff"},"geometry":{"type":"Polygon","coordinates":[[[20.183513,50.079946],[20.183584,50.079863],[20.183707,50.079907],[20.183636,50.07999],[20.183513,50.079946]]]}},{"type":"Feature","id":"w337890190","properties":{"type":"yes","residential":true,"residents_est":3,"h3_10":"8a1e2e6f53b7fff","h3_11":"8b1e2e6f53b4fff"},"geometry":{"type":"Polygon","coordinates":[[[20.181046,50.080607],[20.181126,50.080524],[20.181245,50.080572],[20.181165,50.080655],[20.181046,50.080607]]]}},{"type":"Feature","id":"w337890192","properties":{"type":"yes","residential":true,"residents_est":3,"h3_10":"8a1e2e6f5227fff","h3_11":"8b1e2e6f5225fff"},"geometry":{"type":"Polygon","coordinates":[[[20.188053,50.080949],[20.188191,50.080937],[20.188198,50.080969],[20.18823,50.080974],[20.188234,50.080997],[20.188205,50.081006],[20.18821,50.081029],[20.188072,50.081041],[20.188053,50.080949]]]}},{"type":"Feature","id":"w337890212","properties":{"type":"yes","residential":true,"residents_est":2,"h3_10":"8a1e2e6f538ffff","h3_11":"8b1e2e6f538dfff"},"geometry":{"type":"Polygon","coordinates":[[[20.185377,50.079829],[20.185429,50.079772],[20.185564,50.079823],[20.185512,50.07988],[20.185377,50.079829]]]}},{"type":"Feature","id":"w337890232","properties":{"type":"yes","residential":true,"residents_est":1,"h3_10":"8a1e2e6f5217fff","h3_11":"8b1e2e6f5210fff"},"geometry":{"type":"Polygon","coordinates":[[[20.186803,50.07881],[20.18684,50.078741],[20.186915,50.078757],[20.186878,50.078827],[20.186803,50.07881]]]}},{"type":"Feature","id":"w337890245","properties":{"type":"yes","residential":true,"residents_est":1,"h3_10":"8a1e2e6f53affff","h3_11":"8b1e2e6f53aafff"},"geometry":{"type":"Polygon","coordinates":[[[20.184292,50.079853],[20.184337,50.079802],[20.184437,50.079839],[20.184393,50.079889],[20.184292,50.079853]]]}},{"type":"Feature","id":"w337890252","properties":{"type":"yes","residential":true,"residents_est":3,"h3_10":"8a1e2e6f531ffff","h3_11":"8b1e2e6f5319fff"},"geometry":{"type":"Polygon","coordinates":[[[20.186672,50.081016],[20.186701,50.080939],[20.186865,50.080965],[20.186833,50.081045],[20.186672,50.081016]]]}},{"type":"Feature","id":"w337890272","properties":{"type":"yes","residential":true,"residents_est":2,"h3_10":"8a1e2e6f5227fff","h3_11":"8b1e2e6f5224fff"},"geometry":{"type":"Polygon","coordinates":[[[20.187489,50.08111],[20.187585,50.081107],[20.187588,50.081214],[20.187491,50.081202],[20.187489,50.08111]]]}},{"type":"Feature","id":"w337890311","properties":{"type":"yes","residential":false,"residents_est":0,"h3_10":"8a1e2e6f53b7fff","h3_11":"8b1e2e6f53b4fff"},"geometry":{"type":"Polygon","coordinates":[[[20.181126,50.080524],[20.181154,50.080495],[20.181271,50.080542],[20.181245,50.080572],[20.181126,50.080524]]]}},{"type":"Feature","id":"w337890330","properties":{"type":"yes","residential":true,"residents_est":3,"h3_10":"8a1e2e6f5387fff","h3_11":"8b1e2e6f5385fff"},"geometry":{"type":"Polygon","coordinates":[[[20.183707,50.080102],[20.183735,50.08001],[20.183894,50.080029],[20.183867,50.080121],[20.183707,50.080102]]]}},{"type":"Feature","id":"w337890339","properties":{"type":"yes","residential":true,"residents_est":1,"h3_10":"8a1e2e6f5317fff","h3_11":"8b1e2e6f5313fff"},"geometry":{"type":"Polygon","coordinates":[[[20.184931,50.080978],[20.184975,50.080917],[20.185063,50.080943],[20.185018,50.081004],[20.184931,50.080978]]]}},{"type":"Feature","id":"w337890360","properties":{"type":"yes","address":"Brzeska 2","name":"SINOMA","residential":true,"residents_est":16,"h3_10":"8a1e2e6f52affff","h3_11":"8b1e2e6f52acfff"},"geometry":{"type":"Polygon","coordinates":[[[20.186817,50.078356],[20.186929,50.07815],[20.187096,50.078187],[20.186984,50.078394],[20.186817,50.078356]]]}},{"type":"Feature","id":"w337890366","properties":{"type":"yes","residential":true,"residents_est":2,"h3_10":"8a1e2e6f531ffff","h3_11":"8b1e2e6f531cfff"},"geometry":{"type":"Polygon","coordinates":[[[20.185767,50.081602],[20.185832,50.081534],[20.185936,50.081575],[20.185872,50.081643],[20.185767,50.081602]]]}},{"type":"Feature","id":"w337890367","properties":{"type":"yes","residential":false,"residents_est":0,"h3_10":"8a1e2e6f5387fff","h3_11":"8b1e2e6f5381fff"},"geometry":{"type":"Polygon","coordinates":[[[20.183927,50.079788],[20.183957,50.079752],[20.184064,50.079788],[20.184036,50.079824],[20.183927,50.079788]]]}},{"type":"Feature","id":"w337890373","properties":{"type":"yes","residential":true,"residents_est":2,"h3_10":"8a1e2e6f5217fff","h3_11":"8b1e2e6f5216fff"},"geometry":{"type":"Polygon","coordinates":[[[20.185813,50.078774],[20.18584,50.07872],[20.185976,50.078749],[20.185948,50.078802],[20.185813,50.078774]]]}},{"type":"Feature","id":"w337890381","properties":{"type":"yes","residential":true,"residents_est":3,"h3_10":"8a1e2e6f53a7fff","h3_11":"8b1e2e6f53a1fff"},"geometry":{"type":"Polygon","coordinates":[[[20.183736,50.080715],[20.18382,50.080631],[20.183939,50.08068],[20.183855,50.080765],[20.183736,50.080715]]]}},{"type":"Feature","id":"w337890396","properties":{"type":"yes","residential":true,"residents_est":3,"h3_10":"8a1e2e6f52affff","h3_11":"8b1e2e6f52acfff"},"geometry":{"type":"Polygon","coordinates":[[[20.18694,50.078133],[20.18697,50.078076],[20.187164,50.078119],[20.187134,50.078175],[20.18694,50.078133]]]}},{"type":"Feature","id":"w337890397","properties":{"type":"yes","residential":true,"residents_est":5,"h3_10":"8a1e2e6f5387fff","h3_11":"8b1e2e6f5380fff"},"geometry":{"type":"Polygon","coordinates":[[[20.182949,50.079769],[20.183022,50.079688],[20.183259,50.079776],[20.18318,50.079873],[20.183119,50.079851],[20.183133,50.079835],[20.182949,50.079769]]]}},{"type":"Feature","id":"w337890414","properties":{"type":"yes","residential":true,"residents_est":2,"h3_10":"8a1e2e6f5317fff","h3_11":"8b1e2e6f5312fff"},"geometry":{"type":"Polygon","coordinates":[[[20.18386,50.081035],[20.183923,50.080978],[20.18405,50.081035],[20.183988,50.081093],[20.18386,50.081035]]]}},{"type":"Feature","id":"w337890425","properties":{"type":"yes","residential":true,"residents_est":1,"h3_10":"8a1e2e6f52a7fff","h3_11":"8b1e2e6f52a1fff"},"geometry":{"type":"Polygon","coordinates":[[[20.186295,50.078182],[20.186327,50.078124],[20.186432,50.078148],[20.1864,50.078206],[20.186295,50.078182]]]}},{"type":"Feature","id":"w337890468","properties":{"type":"yes","residential":true,"residents_est":2,"h3_10":"8a1e2e6f52affff","h3_11":"8b1e2e6f52acfff"},"geometry":{"type":"Polygon","coordinates":[[[20.186522,50.078246],[20.18657,50.078171],[20.186682,50.078201],[20.186634,50.078276],[20.186522,50.078246]]]}},{"type":"Feature","id":"w337890485","properties":{"type":"yes","residential":true,"residents_est":1,"h3_10":"8a1e2e6f53b7fff","h3_11":"8b1e2e6f53b2fff"},"geometry":{"type":"Polygon","coordinates":[[[20.18102,50.079655],[20.181096,50.079543],[20.181142,50.079556],[20.181066,50.079668],[20.18102,50.079655]]]}},{"type":"Feature","id":"w337890492","properties":{"type":"yes","residential":true,"residents_est":2,"h3_10":"8a1e2e6f5357fff","h3_11":"8b1e2e6f5352fff"},"geometry":{"type":"Polygon","coordinates":[[[20.188695,50.081062],[20.188835,50.081025],[20.188871,50.081083],[20.188731,50.081119],[20.188695,50.081062]]]}},{"type":"Feature","id":"w337890503","properties":{"type":"yes","residential":true,"residents_est":2,"h3_10":"8a1e2e6f53affff","h3_11":"8b1e2e6f53adfff"},"geometry":{"type":"Polygon","coordinates":[[[20.18483,50.080869],[20.184883,50.080798],[20.184994,50.080832],[20.18494,50.080903],[20.18483,50.080869]]]}},{"type":"Feature","id":"w337890528","properties":{"type":"commercial","residential":false,"residents_est":0,"h3_10":"8a1e2e6f5217fff","h3_11":"8b1e2e6f5213fff"},"geometry":{"type":"Polygon","coordinates":[[[20.186871,50.078679],[20.186933,50.078559],[20.186995,50.078573],[20.186932,50.078692],[20.186871,50.078679]]]}},{"type":"Feature","id":"w337890530","properties":{"type":"yes","residential":true,"residents_est":4,"h3_10":"8a1e2e6f5387fff","h3_11":"8b1e2e6f5380fff"},"geometry":{"type":"Polygon","coordinates":[[[20.183405,50.079701],[20.183469,50.079631],[20.183653,50.0797],[20.183589,50.07977],[20.183405,50.079701]]]}},{"type":"Feature","id":"w337890569","properties":{"type":"yes","residential":false,"residents_est":0,"h3_10":"8a1e2e6f5217fff","h3_11":"8b1e2e6f5211fff"},"geometry":{"type":"Polygon","coordinates":[[[20.187431,50.078859],[20.187443,50.078812],[20.187498,50.078818],[20.187489,50.078864],[20.187431,50.078859]]]}},{"type":"Feature","id":"w337890618","properties":{"type":"yes","residential":true,"residents_est":2,"h3_10":"8a1e2e6f5387fff","h3_11":"8b1e2e6f5384fff"},"geometry":{"type":"Polygon","coordinates":[[[20.183132,50.080014],[20.183202,50.079939],[20.183217,50.079945],[20.183212,50.07995],[20.18328,50.079976],[20.183215,50.080046],[20.183132,50.080014]]]}},{"type":"Feature","id":"w337890630","properties":{"type":"yes","residential":true,"residents_est":2,"h3_10":"8a1e2e6f5217fff","h3_11":"8b1e2e6f5216fff"},"geometry":{"type":"Polygon","coordinates":[[[20.185799,50.078878],[20.185844,50.07879],[20.185966,50.078816],[20.185951,50.078845],[20.185898,50.078834],[20.185868,50.078892],[20.185799,50.078878]]]}},{"type":"Feature","id":"w337890632","properties":{"type":"yes","residential":true,"residents_est":5,"h3_10":"8a1e2e6f53a7fff","h3_11":"8b1e2e6f53a0fff"},"geometry":{"type":"Polygon","coordinates":[[[20.182672,50.080894],[20.182728,50.080825],[20.182962,50.080903],[20.182882,50.081002],[20.182746,50.080957],[20.182771,50.080926],[20.182672,50.080894]]]}},{"type":"Feature","id":"w337890653","properties":{"type":"yes","residential":true,"residents_est":2,"h3_10":"8a1e2e6f5387fff","h3_11":"8b1e2e6f5386fff"},"geometry":{"type":"Polygon","coordinates":[[[20.182682,50.079619],[20.182736,50.079559],[20.18282,50.079591],[20.182766,50.079651],[20.182682,50.079619]]]}},{"type":"Feature","id":"w337890654","properties":{"type":"yes","residential":true,"residents_est":4,"h3_10":"8a1e2e6f5227fff","h3_11":"8b1e2e6f5220fff"},"geometry":{"type":"Polygon","coordinates":[[[20.187529,50.080761],[20.187759,50.08073],[20.187783,50.080805],[20.187553,50.080835],[20.187529,50.080761]]]}},{"type":"Feature","id":"w337890677","properties":{"type":"yes","residential":true,"residents_est":3,"h3_10":"8a1e2e6f53a7fff","h3_11":"8b1e2e6f53a5fff"},"geometry":{"type":"Polygon","coordinates":[[[20.183008,50.081017],[20.183092,50.080947],[20.183148,50.08097],[20.183169,50.080948],[20.183221,50.08097],[20.183117,50.081066],[20.183008,50.081017]]]}},{"type":"Feature","id":"w337890792","properties":{"type":"yes","residential":true,"residents_est":1,"h3_10":"8a1e2e6f53a7fff","h3_11":"8b1e2e6f53a4fff"},"geometry":{"type":"Polygon","coordinates":[[[20.182734,50.081256],[20.18278,50.081218],[20.182872,50.081261],[20.182866,50.081266],[20.182879,50.081272],[20.182838,50.081307],[20.182734,50.081256]]]}},{"type":"Feature","id":"w337890826","properties":{"type":"yes","residential":true,"residents_est":4,"h3_10":"8a1e2e6f53affff","h3_11":"8b1e2e6f53acfff"},"geometry":{"type":"Polygon","coordinates":[[[20.184514,50.080801],[20.184569,50.080725],[20.184764,50.080785],[20.184709,50.08086],[20.184514,50.080801]]]}},{"type":"Feature","id":"w337890828","properties":{"type":"yes","residential":true,"residents_est":3,"h3_10":"8a1e2e6f53b7fff","h3_11":"8b1e2e6f53b2fff"},"geometry":{"type":"Polygon","coordinates":[[[20.180866,50.079757],[20.180894,50.079708],[20.180878,50.079704],[20.180903,50.079659],[20.181031,50.079689],[20.180978,50.079783],[20.180866,50.079757]]]}},{"type":"Feature","id":"w337890847","properties":{"type":"yes","residential":true,"residents_est":4,"h3_10":"8a1e2e6f5227fff","h3_11":"8b1e2e6f5226fff"},"geometry":{"type":"Polygon","coordinates":[[[20.187376,50.08066],[20.187438,50.080561],[20.187406,50.080552],[20.187441,50.080504],[20.187556,50.080533],[20.187462,50.080682],[20.187376,50.08066]]]}},{"type":"Feature","id":"w337890850","properties":{"type":"yes","residential":true,"residents_est":2,"h3_10":"8a1e2e6f531ffff","h3_11":"8b1e2e6f531efff"},"geometry":{"type":"Polygon","coordinates":[[[20.18514,50.081038],[20.185181,50.080978],[20.185289,50.081008],[20.185248,50.081069],[20.18514,50.081038]]]}},{"type":"Feature","id":"w337890910","properties":{"type":"yes","residential":true,"residents_est":3,"h3_10":"8a1e2e6f53affff","h3_11":"8b1e2e6f53aafff"},"geometry":{"type":"Polygon","coordinates":[[[20.184133,50.080037],[20.184219,50.079938],[20.184295,50.079965],[20.184251,50.080016],[20.184303,50.080034],[20.18426,50.080084],[20.184133,50.080037]]]}},{"type":"Feature","id":"w337890912","properties":{"type":"yes","residential":true,"residents_est":2,"h3_10":"8a1e2e6f531ffff","h3_11":"8b1e2e6f5319fff"},"geometry":{"type":"Polygon","coordinates":[[[20.186939,50.081043],[20.186947,50.081017],[20.186963,50.081019],[20.186974,50.080981],[20.187117,50.080999],[20.187093,50.081077],[20.186949,50.081059],[20.186953,50.081045],[20.186939,50.081043]]]}},{"type":"Feature","id":"w337890945","properties":{"type":"yes","residential":true,"residents_est":3,"h3_10":"8a1e2e6f531ffff","h3_11":"8b1e2e6f5318fff"},"geometry":{"type":"Polygon","coordinates":[[[20.186269,50.081209],[20.186317,50.081128],[20.186477,50.081173],[20.18643,50.08125],[20.186374,50.081235],[20.186363,50.081252],[20.186303,50.081237],[20.186313,50.08122],[20.186269,50.081209]]]}},{"type":"Feature","id":"w337891012","properties":{"type":"yes","residential":true,"residents_est":3,"h3_10":"8a1e2e6f53a7fff","h3_11":"8b1e2e6f53a0fff"},"geometry":{"type":"Polygon","coordinates":[[[20.182937,50.08068],[20.183022,50.080602],[20.183131,50.080652],[20.183103,50.080678],[20.183129,50.08069],[20.18307,50.08074],[20.182937,50.08068]]]}},{"type":"Feature","id":"w337891035","properties":{"type":"yes","residential":true,"residents_est":6,"h3_10":"8a1e2e6f535ffff","h3_11":"8b1e2e6f535cfff"},"geometry":{"type":"Polygon","coordinates":[[[20.190522,50.081415],[20.190573,50.081342],[20.190599,50.081349],[20.190623,50.081315],[20.190565,50.081298],[20.190621,50.081218],[20.190763,50.08126],[20.190633,50.081447],[20.190522,50.081415]]]}},{"type":"Feature","id":"w337891178","properties":{"type":"yes","residential":true,"residents_est":2,"h3_10":"8a1e2e6f5217fff","h3_11":"8b1e2e6f5211fff"},"geometry":{"type":"Polygon","coordinates":[[[20.187463,50.07875],[20.187479,50.078687],[20.187601,50.078699],[20.187587,50.078734],[20.187592,50.078735],[20.187585,50.078763],[20.187463,50.07875]]]}},{"type":"Feature","id":"w337891194","properties":{"type":"yes","residential":true,"residents_est":3,"h3_10":"8a1e2e6f531ffff","h3_11":"8b1e2e6f531efff"},"geometry":{"type":"Polygon","coordinates":[[[20.185328,50.08087],[20.185379,50.080793],[20.185538,50.080837],[20.185486,50.080914],[20.185429,50.080899],[20.185416,50.080917],[20.185373,50.080905],[20.185385,50.080886],[20.185328,50.08087]]]}},{"type":"Feature","id":"w337891200","properties":{"type":"yes","residential":true,"residents_est":5,"h3_10":"8a1e2e6f5387fff","h3_11":"8b1e2e6f5383fff"},"geometry":{"type":"Polygon","coordinates":[[[20.183233,50.079411],[20.183287,50.079347],[20.183556,50.079443],[20.183501,50.079506],[20.183233,50.079411]]]}},{"type":"Feature","id":"w337891212","properties":{"type":"yes","residential":true,"residents_est":2,"h3_10":"8a1e2e6f531ffff","h3_11":"8b1e2e6f531bfff"},"geometry":{"type":"Polygon","coordinates":[[[20.186227,50.080922],[20.186257,50.080894],[20.186304,50.080875],[20.186387,50.080875],[20.186342,50.08095],[20.186227,50.080922]]]}},{"type":"Feature","id":"w337891213","properties":{"type":"yes","residential":true,"residents_est":17,"h3_10":"8a1e2e6f5307fff","h3_11":"8b1e2e6f5303fff"},"geometry":{"type":"Polygon","coordinates":[[[20.186069,50.081893],[20.186107,50.081845],[20.186134,50.081854],[20.186225,50.081746],[20.186411,50.081811],[20.186283,50.081962],[20.186069,50.081893]]]}},{"type":"Feature","id":"w385505298","properties":{"type":"yes","residential":true,"residents_est":4,"h3_10":"8a1e2e6f534ffff","h3_11":"8b1e2e6f534bfff"},"geometry":{"type":"Polygon","coordinates":[[[20.192517,50.081436],[20.192566,50.081385],[20.192734,50.081453],[20.192698,50.081489],[20.19272,50.081498],[20.192681,50.081539],[20.192614,50.081513],[20.192603,50.081524],[20.192517,50.08149],[20.192555,50.081451],[20.192517,50.081436]]]}},{"type":"Feature","id":"w385505489","properties":{"type":"yes","residential":true,"residents_est":3,"h3_10":"8a1e2e6f534ffff","h3_11":"8b1e2e6f534bfff"},"geometry":{"type":"Polygon","coordinates":[[[20.192988,50.081582],[20.193096,50.081474],[20.193186,50.081511],[20.193078,50.081619],[20.192988,50.081582]]]}},{"type":"Feature","id":"w385505495","properties":{"type":"yes","residential":true,"residents_est":2,"h3_10":"8a1e2e6f534ffff","h3_11":"8b1e2e6f534efff"},"geometry":{"type":"Polygon","coordinates":[[[20.19195,50.081715],[20.192026,50.08164],[20.192086,50.081665],[20.192009,50.08174],[20.19195,50.081715]]]}},{"type":"Feature","id":"w385505877","properties":{"type":"yes","residential":true,"residents_est":2,"h3_10":"8a1e2e6f535ffff","h3_11":"8b1e2e6f535dfff"},"geometry":{"type":"Polygon","coordinates":[[[20.191516,50.081659],[20.191584,50.081613],[20.191664,50.081661],[20.191596,50.081708],[20.191516,50.081659]]]}},{"type":"Feature","id":"w385505997","properties":{"type":"yes","residential":true,"residents_est":5,"h3_10":"8a1e2e6f534ffff","h3_11":"8b1e2e6f5348fff"},"geometry":{"type":"Polygon","coordinates":[[[20.192432,50.081993],[20.192535,50.081895],[20.192679,50.081958],[20.192576,50.082056],[20.192432,50.081993]]]}},{"type":"Feature","id":"w385506623","properties":{"type":"yes","residential":true,"residents_est":3,"h3_10":"8a1e2e6f534ffff","h3_11":"8b1e2e6f534bfff"},"geometry":{"type":"Polygon","coordinates":[[[20.192711,50.081556],[20.192839,50.081409],[20.192917,50.081438],[20.192789,50.081584],[20.192711,50.081556]]]}},{"type":"Feature","id":"w385506920","properties":{"type":"yes","residential":true,"residents_est":2,"h3_10":"8a1e2e6f534ffff","h3_11":"8b1e2e6f5349fff"},"geometry":{"type":"Polygon","coordinates":[[[20.193539,50.081743],[20.193607,50.081677],[20.19372,50.081724],[20.193652,50.08179],[20.193539,50.081743]]]}},{"type":"Feature","id":"w385507114","properties":{"type":"yes","residential":true,"residents_est":3,"h3_10":"8a1e2e6f534ffff","h3_11":"8b1e2e6f534efff"},"geometry":{"type":"Polygon","coordinates":[[[20.191646,50.081706],[20.191726,50.081637],[20.191772,50.081658],[20.191779,50.081651],[20.191863,50.08169],[20.19178,50.081767],[20.191646,50.081706]]]}},{"type":"Feature","id":"w385507491","properties":{"type":"yes","residential":true,"residents_est":3,"h3_10":"8a1e2e6f534ffff","h3_11":"8b1e2e6f5348fff"},"geometry":{"type":"Polygon","coordinates":[[[20.192149,50.081853],[20.192213,50.081783],[20.192381,50.081843],[20.192338,50.08189],[20.192306,50.081877],[20.192281,50.081904],[20.192149,50.081853]]]}},{"type":"Feature","id":"w654964568","properties":{"type":"yes","residential":true,"residents_est":4,"h3_10":"8a1e2e6f5337fff","h3_11":"8b1e2e6f5332fff"},"geometry":{"type":"Polygon","coordinates":[[[20.18391,50.082208],[20.183984,50.082148],[20.184046,50.082179],[20.184056,50.082172],[20.184153,50.082219],[20.184061,50.082295],[20.183995,50.082262],[20.184003,50.082255],[20.18391,50.082208]]]}},{"type":"Feature","id":"w720903121","properties":{"type":"yes","residential":true,"residents_est":4,"h3_10":"8a1e2e6f534ffff","h3_11":"8b1e2e6f534cfff"},"geometry":{"type":"Polygon","coordinates":[[[20.192336,50.082414],[20.192427,50.082253],[20.19254,50.08228],[20.19245,50.08244],[20.192336,50.082414]]]}},{"type":"Feature","id":"w720903122","properties":{"type":"yes","residential":true,"residents_est":21,"h3_10":"8a1e2e6f534ffff","h3_11":"8b1e2e6f534cfff"},"geometry":{"type":"Polygon","coordinates":[[[20.191916,50.082239],[20.191967,50.08214],[20.192404,50.082234],[20.192352,50.082332],[20.191916,50.082239]]]}},{"type":"Feature","id":"w720971902","properties":{"type":"yes","residential":false,"residents_est":0,"h3_10":"8a1e2e6f5387fff","h3_11":"8b1e2e6f5386fff"},"geometry":{"type":"Polygon","coordinates":[[[20.182314,50.079579],[20.182334,50.079556],[20.182406,50.079582],[20.182386,50.079606],[20.182314,50.079579]]]}},{"type":"Feature","id":"w720971903","properties":{"type":"yes","residential":false,"residents_est":0,"h3_10":"8a1e2e6f5387fff","h3_11":"8b1e2e6f5386fff"},"geometry":{"type":"Polygon","coordinates":[[[20.182246,50.079639],[20.182281,50.0796],[20.182319,50.079614],[20.182284,50.079653],[20.182246,50.079639]]]}},{"type":"Feature","id":"w720971904","properties":{"type":"yes","residential":true,"residents_est":1,"h3_10":"8a1e2e6f5387fff","h3_11":"8b1e2e6f5386fff"},"geometry":{"type":"Polygon","coordinates":[[[20.18238,50.079744],[20.182417,50.079701],[20.182426,50.079704],[20.182468,50.079654],[20.182482,50.07966],[20.182477,50.079667],[20.182504,50.079677],[20.182431,50.079762],[20.18238,50.079744]]]}},{"type":"Feature","id":"w720971905","properties":{"type":"yes","residential":false,"residents_est":0,"h3_10":"8a1e2e6f5387fff","h3_11":"8b1e2e6f5380fff"},"geometry":{"type":"Polygon","coordinates":[[[20.183283,50.079583],[20.183327,50.079534],[20.183382,50.079555],[20.183338,50.079603],[20.183283,50.079583]]]}},{"type":"Feature","id":"w720971906","properties":{"type":"yes","residential":true,"residents_est":1,"h3_10":"8a1e2e6f53affff","h3_11":"8b1e2e6f53aafff"},"geometry":{"type":"Polygon","coordinates":[[[20.184252,50.080015],[20.184296,50.079965],[20.18429,50.079963],[20.184299,50.079952],[20.184372,50.079979],[20.184319,50.080043],[20.184252,50.080015]]]}},{"type":"Feature","id":"w720971907","properties":{"type":"yes","residential":true,"residents_est":2,"h3_10":"8a1e2e6f53affff","h3_11":"8b1e2e6f53aafff"},"geometry":{"type":"Polygon","coordinates":[[[20.184584,50.079902],[20.184619,50.079864],[20.184777,50.079924],[20.184742,50.079962],[20.184584,50.079902]]]}},{"type":"Feature","id":"w720971908","properties":{"type":"yes","residential":true,"residents_est":1,"h3_10":"8a1e2e6f5237fff","h3_11":"8b1e2e6f5236fff"},"geometry":{"type":"Polygon","coordinates":[[[20.18548,50.079971],[20.185512,50.079934],[20.185634,50.079978],[20.185601,50.080016],[20.18548,50.079971]]]}},{"type":"Feature","id":"w720971909","properties":{"type":"yes","residential":true,"residents_est":1,"h3_10":"8a1e2e6f53affff","h3_11":"8b1e2e6f53abfff"},"geometry":{"type":"Polygon","coordinates":[[[20.185073,50.079867],[20.185136,50.079792],[20.185205,50.079817],[20.185141,50.079891],[20.185073,50.079867]]]}},{"type":"Feature","id":"w720971910","properties":{"type":"yes","residential":true,"residents_est":1,"h3_10":"8a1e2e6f538ffff","h3_11":"8b1e2e6f538cfff"},"geometry":{"type":"Polygon","coordinates":[[[20.184835,50.079782],[20.184899,50.079708],[20.184952,50.079726],[20.184888,50.079801],[20.184835,50.079782]]]}},{"type":"Feature","id":"w720971914","properties":{"type":"yes","residential":true,"residents_est":3,"h3_10":"8a1e2e6f5237fff","h3_11":"8b1e2e6f5235fff"},"geometry":{"type":"Polygon","coordinates":[[[20.186539,50.080568],[20.186668,50.080443],[20.186721,50.080453],[20.186705,50.080576],[20.186539,50.080568]]]}},{"type":"Feature","id":"w720971915","properties":{"type":"yes","residential":true,"residents_est":5,"h3_10":"8a1e2e6f531ffff","h3_11":"8b1e2e6f531bfff"},"geometry":{"type":"Polygon","coordinates":[[[20.186496,50.080667],[20.186502,50.080609],[20.186535,50.080611],[20.186539,50.080568],[20.186705,50.080576],[20.186692,50.080708],[20.186622,50.080705],[20.186625,50.080677],[20.186496,50.080667]]]}},{"type":"Feature","id":"w720971916","properties":{"type":"yes","residential":false,"residents_est":0,"h3_10":"8a1e2e6f531ffff","h3_11":"8b1e2e6f531bfff"},"geometry":{"type":"Polygon","coordinates":[[[20.186806,50.080688],[20.186815,50.080606],[20.18684,50.080607],[20.186833,50.080689],[20.186806,50.080688]]]}},{"type":"Feature","id":"w720971917","properties":{"type":"yes","residential":false,"residents_est":0,"h3_10":"8a1e2e6f5227fff","h3_11":"8b1e2e6f5226fff"},"geometry":{"type":"Polygon","coordinates":[[[20.186919,50.080592],[20.186935,50.080571],[20.187027,50.0806],[20.187011,50.080621],[20.186919,50.080592]]]}},{"type":"Feature","id":"w720971918","properties":{"type":"yes","residential":false,"residents_est":0,"h3_10":"8a1e2e6f5227fff","h3_11":"8b1e2e6f5226fff"},"geometry":{"type":"Polygon","coordinates":[[[20.186994,50.08065],[20.18704,50.080599],[20.187081,50.080614],[20.187035,50.080666],[20.186994,50.08065]]]}},{"type":"Feature","id":"w720971919","properties":{"type":"yes","residential":false,"residents_est":0,"h3_10":"8a1e2e6f5227fff","h3_11":"8b1e2e6f5226fff"},"geometry":{"type":"Polygon","coordinates":[[[20.187282,50.080733],[20.18729,50.080671],[20.187356,50.080675],[20.187349,50.080723],[20.187364,50.080724],[20.187362,50.080737],[20.187282,50.080733]]]}},{"type":"Feature","id":"w720971920","properties":{"type":"yes","residential":false,"residents_est":0,"h3_10":"8a1e2e6f5227fff","h3_11":"8b1e2e6f5226fff"},"geometry":{"type":"Polygon","coordinates":[[[20.187368,50.080607],[20.187406,50.080552],[20.187437,50.080562],[20.187402,50.080616],[20.187368,50.080607]]]}},{"type":"Feature","id":"w720971921","properties":{"type":"yes","residential":true,"residents_est":2,"h3_10":"8a1e2e6f5227fff","h3_11":"8b1e2e6f5220fff"},"geometry":{"type":"Polygon","coordinates":[[[20.187757,50.080722],[20.187845,50.08071],[20.187872,50.080793],[20.187783,50.080805],[20.187757,50.080722]]]}},{"type":"Feature","id":"w720971923","properties":{"type":"yes","residential":true,"residents_est":4,"h3_10":"8a1e2e6f5227fff","h3_11":"8b1e2e6f5224fff"},"geometry":{"type":"Polygon","coordinates":[[[20.187717,50.081035],[20.18773,50.081034],[20.187724,50.081004],[20.187838,50.080995],[20.187836,50.080989],[20.187897,50.080984],[20.187913,50.081072],[20.187861,50.081076],[20.187864,50.081089],[20.187742,50.081099],[20.187736,50.081068],[20.187724,50.081069],[20.187717,50.081035]]]}},{"type":"Feature","id":"w720971924","properties":{"type":"yes","residential":false,"residents_est":0,"h3_10":"8a1e2e6f5227fff","h3_11":"8b1e2e6f5225fff"},"geometry":{"type":"Polygon","coordinates":[[[20.188013,50.080952],[20.188053,50.080949],[20.188072,50.081041],[20.188032,50.081044],[20.188013,50.080952]]]}},{"type":"Feature","id":"w720971926","properties":{"type":"yes","residential":true,"residents_est":1,"h3_10":"8a1e2e6f5357fff","h3_11":"8b1e2e6f5352fff"},"geometry":{"type":"Polygon","coordinates":[[[20.188933,50.080914],[20.189017,50.080899],[20.189048,50.080969],[20.188964,50.080984],[20.188933,50.080914]]]}},{"type":"Feature","id":"w720971927","properties":{"type":"yes","residential":false,"residents_est":0,"h3_10":"8a1e2e6f53a7fff","h3_11":"8b1e2e6f53a0fff"},"geometry":{"type":"Polygon","coordinates":[[[20.182901,50.080664],[20.182982,50.08059],[20.183017,50.080606],[20.182937,50.08068],[20.182901,50.080664]]]}},{"type":"Feature","id":"w720971928","properties":{"type":"yes","residential":true,"residents_est":2,"h3_10":"8a1e2e6f53a7fff","h3_11":"8b1e2e6f53a6fff"},"geometry":{"type":"Polygon","coordinates":[[[20.182416,50.08072],[20.182486,50.080646],[20.18256,50.080675],[20.182489,50.080749],[20.182416,50.08072]]]}},{"type":"Feature","id":"w720971930","properties":{"type":"yes","residential":false,"residents_est":0,"h3_10":"8a1e2e6f53a7fff","h3_11":"8b1e2e6f53a5fff"},"geometry":{"type":"Polygon","coordinates":[[[20.183487,50.080962],[20.183515,50.080938],[20.183566,50.080961],[20.183539,50.080986],[20.183487,50.080962]]]}},{"type":"Feature","id":"w720971931","properties":{"type":"yes","residential":true,"residents_est":1,"h3_10":"8a1e2e6f53a7fff","h3_11":"8b1e2e6f53a1fff"},"geometry":{"type":"Polygon","coordinates":[[[20.18364,50.080884],[20.183716,50.080825],[20.183771,50.080854],[20.183683,50.080918],[20.183666,50.080909],[20.183675,50.080902],[20.18364,50.080884]]]}},{"type":"Feature","id":"w720971932","properties":{"type":"yes","residential":false,"residents_est":0,"h3_10":"8a1e2e6f5317fff","h3_11":"8b1e2e6f5312fff"},"geometry":{"type":"Polygon","coordinates":[[[20.183826,50.080914],[20.183846,50.080886],[20.183909,50.080906],[20.183889,50.080933],[20.183826,50.080914]]]}},{"type":"Feature","id":"w720971933","properties":{"type":"yes","residential":false,"residents_est":0,"h3_10":"8a1e2e6f5317fff","h3_11":"8b1e2e6f5312fff"},"geometry":{"type":"Polygon","coordinates":[[[20.184062,50.080904],[20.184097,50.080855],[20.184148,50.08087],[20.184114,50.080919],[20.184062,50.080904]]]}},{"type":"Feature","id":"w720971934","properties":{"type":"yes","residential":false,"residents_est":0,"h3_10":"8a1e2e6f53affff","h3_11":"8b1e2e6f53acfff"},"geometry":{"type":"Polygon","coordinates":[[[20.184372,50.08087],[20.184414,50.080805],[20.184465,50.080818],[20.184424,50.080883],[20.184372,50.08087]]]}},{"type":"Feature","id":"w720971935","properties":{"type":"yes","residential":true,"residents_est":3,"h3_10":"8a1e2e6f53affff","h3_11":"8b1e2e6f53acfff"},"geometry":{"type":"Polygon","coordinates":[[[20.184202,50.080967],[20.184222,50.080934],[20.184216,50.080932],[20.184259,50.080865],[20.184245,50.080862],[20.184259,50.08084],[20.184372,50.08087],[20.184317,50.080956],[20.184333,50.08096],[20.18431,50.080995],[20.184202,50.080967]]]}},{"type":"Feature","id":"w720971936","properties":{"type":"yes","residential":false,"residents_est":0,"h3_10":"8a1e2e6f5317fff","h3_11":"8b1e2e6f5313fff"},"geometry":{"type":"Polygon","coordinates":[[[20.185018,50.081004],[20.185063,50.080943],[20.185103,50.080955],[20.185058,50.081016],[20.185018,50.081004]]]}},{"type":"Feature","id":"w720971937","properties":{"type":"yes","residential":false,"residents_est":0,"h3_10":"8a1e2e6f531ffff","h3_11":"8b1e2e6f531efff"},"geometry":{"type":"Polygon","coordinates":[[[20.185242,50.0811],[20.18526,50.081073],[20.185319,50.081089],[20.1853,50.081117],[20.185242,50.0811]]]}},{"type":"Feature","id":"w720971938","properties":{"type":"yes","residential":true,"residents_est":1,"h3_10":"8a1e2e6f531ffff","h3_11":"8b1e2e6f531efff"},"geometry":{"type":"Polygon","coordinates":[[[20.185248,50.081069],[20.185289,50.081008],[20.18536,50.081028],[20.185319,50.081089],[20.185248,50.081069]]]}},{"type":"Feature","id":"w720971939","properties":{"type":"yes","residential":true,"residents_est":3,"h3_10":"8a1e2e6f531ffff","h3_11":"8b1e2e6f531cfff"},"geometry":{"type":"Polygon","coordinates":[[[20.185953,50.08138],[20.186047,50.081236],[20.186121,50.081256],[20.186027,50.0814],[20.185953,50.08138]]]}},{"type":"Feature","id":"w720971940","properties":{"type":"yes","residential":false,"residents_est":0,"h3_10":"8a1e2e6f531ffff","h3_11":"8b1e2e6f531efff"},"geometry":{"type":"Polygon","coordinates":[[[20.185364,50.081124],[20.185387,50.081095],[20.185443,50.081114],[20.18542,50.081143],[20.185364,50.081124]]]}},{"type":"Feature","id":"w720971941","properties":{"type":"yes","residential":true,"residents_est":2,"h3_10":"8a1e2e6f531ffff","h3_11":"8b1e2e6f531efff"},"geometry":{"type":"Polygon","coordinates":[[[20.185603,50.081111],[20.185662,50.081052],[20.185753,50.08109],[20.185694,50.081149],[20.185603,50.081111]]]}},{"type":"Feature","id":"w720971942","properties":{"type":"yes","residential":true,"residents_est":2,"h3_10":"8a1e2e6f531ffff","h3_11":"8b1e2e6f531afff"},"geometry":{"type":"Polygon","coordinates":[[[20.185559,50.080937],[20.185613,50.080844],[20.185691,50.080863],[20.185637,50.080956],[20.185559,50.080937]]]}},{"type":"Feature","id":"w720971944","properties":{"type":"yes","residential":false,"residents_est":0,"h3_10":"8a1e2e6f531ffff","h3_11":"8b1e2e6f531efff"},"geometry":{"type":"Polygon","coordinates":[[[20.18537,50.080977],[20.185398,50.080941],[20.185466,50.080964],[20.185437,50.080999],[20.18537,50.080977]]]}},{"type":"Feature","id":"w720971946","properties":{"type":"yes","residential":true,"residents_est":2,"h3_10":"8a1e2e6f5307fff","h3_11":"8b1e2e6f5303fff"},"geometry":{"type":"Polygon","coordinates":[[[20.186057,50.081946],[20.186092,50.081901],[20.186283,50.081962],[20.18624,50.082011],[20.186057,50.081946]]]}},{"type":"Feature","id":"w720971947","properties":{"type":"yes","address":"Kościelnicka 1e","residential":true,"residents_est":2,"h3_10":"8a1e2e6f5317fff","h3_11":"8b1e2e6f5315fff"},"geometry":{"type":"Polygon","coordinates":[[[20.184809,50.081796],[20.184821,50.081796],[20.18484,50.081776],[20.184832,50.081773],[20.184873,50.081729],[20.184963,50.081764],[20.184959,50.081768],[20.18497,50.081773],[20.184949,50.081795],[20.184938,50.08179],[20.184899,50.081831],[20.184809,50.081796]]]}},{"type":"Feature","id":"w720971948","properties":{"type":"yes","address":"Kościelnicka 1ea","residential":true,"residents_est":2,"h3_10":"8a1e2e6f5317fff","h3_11":"8b1e2e6f5315fff"},"geometry":{"type":"Polygon","coordinates":[[[20.184745,50.081864],[20.184787,50.08182],[20.184795,50.081823],[20.184814,50.081803],[20.184806,50.0818],[20.184809,50.081796],[20.184899,50.081831],[20.184859,50.081873],[20.184871,50.081877],[20.18485,50.081899],[20.184835,50.081899],[20.184745,50.081864]]]}},{"type":"Feature","id":"w720971949","properties":{"type":"yes","address":"Kościelnicka 1eb","residential":true,"residents_est":2,"h3_10":"8a1e2e6f5337fff","h3_11":"8b1e2e6f5333fff"},"geometry":{"type":"Polygon","coordinates":[[[20.184514,50.082115],[20.184538,50.082091],[20.184533,50.082088],[20.184598,50.082023],[20.184686,50.082059],[20.184592,50.082147],[20.184514,50.082115]]]}},{"type":"Feature","id":"w720971950","properties":{"type":"yes","address":"Kościelnicka 1ec","residential":true,"residents_est":2,"h3_10":"8a1e2e6f5337fff","h3_11":"8b1e2e6f5333fff"},"geometry":{"type":"Polygon","coordinates":[[[20.18442,50.082203],[20.184514,50.082115],[20.184592,50.082147],[20.184508,50.082239],[20.18442,50.082203]]]}},{"type":"Feature","id":"w720971951","properties":{"type":"yes","address":"Kościelnicka 1ed","residential":true,"residents_est":2,"h3_10":"8a1e2e6f5337fff","h3_11":"8b1e2e6f5333fff"},"geometry":{"type":"Polygon","coordinates":[[[20.184206,50.082394],[20.184306,50.082309],[20.184386,50.082351],[20.184278,50.082431],[20.184206,50.082394]]]}},{"type":"Feature","id":"w720971952","properties":{"type":"yes","address":"Kościelnicka 1ee","residential":true,"residents_est":2,"h3_10":"8a1e2e6f5337fff","h3_11":"8b1e2e6f5330fff"},"geometry":{"type":"Polygon","coordinates":[[[20.184097,50.082474],[20.184206,50.082394],[20.184278,50.082431],[20.184178,50.082517],[20.184097,50.082474]]]}},{"type":"Feature","id":"w720971953","properties":{"type":"yes","residential":true,"residents_est":24,"h3_10":"8a1e2e6f5307fff","h3_11":"8b1e2e6f5306fff"},"geometry":{"type":"Polygon","coordinates":[[[20.185042,50.082302],[20.185177,50.082166],[20.185277,50.082207],[20.185246,50.082238],[20.185533,50.082355],[20.18544,50.082449],[20.185153,50.082332],[20.185142,50.082343],[20.185042,50.082302]]]}},{"type":"Feature","id":"w721193563","properties":{"type":"yes","residential":false,"residents_est":0,"h3_10":"8a1e2e6f52affff","h3_11":"8b1e2e6f52aefff"},"geometry":{"type":"Polygon","coordinates":[[[20.186627,50.077875],[20.186661,50.077815],[20.186709,50.077824],[20.186674,50.077886],[20.186627,50.077875]]]}},{"type":"Feature","id":"w721193564","properties":{"type":"yes","residential":false,"residents_est":0,"h3_10":"8a1e2e6f52a7fff","h3_11":"8b1e2e6f52a5fff"},"geometry":{"type":"Polygon","coordinates":[[[20.185421,50.078692],[20.185443,50.078653],[20.185506,50.078668],[20.185484,50.078707],[20.185421,50.078692]]]}},{"type":"Feature","id":"w721193565","properties":{"type":"yes","residential":true,"residents_est":29,"h3_10":"8a1e2e6f52a7fff","h3_11":"8b1e2e6f52a5fff"},"geometry":{"type":"Polygon","coordinates":[[[20.185514,50.078496],[20.185679,50.078186],[20.185877,50.07823],[20.18571,50.078539],[20.185514,50.078496]]]}},{"type":"Feature","id":"w721209740","properties":{"type":"yes","residential":false,"residents_est":0,"h3_10":"8a1e2e6f522ffff","h3_11":"8b1e2e6f522cfff"},"geometry":{"type":"Polygon","coordinates":[[[20.189441,50.080812],[20.189464,50.08078],[20.189519,50.080796],[20.189496,50.080828],[20.189441,50.080812]]]}},{"type":"Feature","id":"w721209757","properties":{"type":"greenhouse","residential":false,"residents_est":0,"h3_10":"8a1e2e6f538ffff","h3_11":"8b1e2e6f5389fff"},"geometry":{"type":"Polygon","coordinates":[[[20.185569,50.079192],[20.185804,50.078943],[20.185853,50.078962],[20.185619,50.079211],[20.185569,50.079192]]]}},{"type":"Feature","id":"w721209758","properties":{"type":"greenhouse","residential":false,"residents_est":0,"h3_10":"8a1e2e6f538ffff","h3_11":"8b1e2e6f5389fff"},"geometry":{"type":"Polygon","coordinates":[[[20.185637,50.079217],[20.185867,50.078967],[20.185915,50.078985],[20.185684,50.079235],[20.185637,50.079217]]]}},{"type":"Feature","id":"w721209759","properties":{"type":"greenhouse","residential":false,"residents_est":0,"h3_10":"8a1e2e6f538ffff","h3_11":"8b1e2e6f5389fff"},"geometry":{"type":"Polygon","coordinates":[[[20.185702,50.079239],[20.185931,50.07899],[20.185981,50.079009],[20.185752,50.079258],[20.185702,50.079239]]]}},{"type":"Feature","id":"w721209760","properties":{"type":"greenhouse","residential":false,"residents_est":0,"h3_10":"8a1e2e6f538ffff","h3_11":"8b1e2e6f5389fff"},"geometry":{"type":"Polygon","coordinates":[[[20.185333,50.079452],[20.18556,50.079204],[20.185609,50.079223],[20.185382,50.07947],[20.185333,50.079452]]]}},{"type":"Feature","id":"w721209761","properties":{"type":"greenhouse","residential":false,"residents_est":0,"h3_10":"8a1e2e6f538ffff","h3_11":"8b1e2e6f5389fff"},"geometry":{"type":"Polygon","coordinates":[[[20.185398,50.079476],[20.185626,50.079224],[20.185678,50.079243],[20.18545,50.079495],[20.185398,50.079476]]]}},{"type":"Feature","id":"w721209762","properties":{"type":"greenhouse","residential":false,"residents_est":0,"h3_10":"8a1e2e6f538ffff","h3_11":"8b1e2e6f5389fff"},"geometry":{"type":"Polygon","coordinates":[[[20.185463,50.079502],[20.185694,50.079249],[20.185747,50.079269],[20.185516,50.079522],[20.185463,50.079502]]]}},{"type":"Feature","id":"w721209763","properties":{"type":"greenhouse","residential":false,"residents_est":0,"h3_10":"8a1e2e6f538ffff","h3_11":"8b1e2e6f538dfff"},"geometry":{"type":"Polygon","coordinates":[[[20.185095,50.079717],[20.185325,50.079467],[20.185373,50.079485],[20.185143,50.079735],[20.185095,50.079717]]]}},{"type":"Feature","id":"w721209764","properties":{"type":"greenhouse","residential":false,"residents_est":0,"h3_10":"8a1e2e6f538ffff","h3_11":"8b1e2e6f538dfff"},"geometry":{"type":"Polygon","coordinates":[[[20.185158,50.07974],[20.185391,50.079487],[20.185439,50.079505],[20.185206,50.079758],[20.185158,50.07974]]]}},{"type":"Feature","id":"w721209765","properties":{"type":"greenhouse","residential":false,"residents_est":0,"h3_10":"8a1e2e6f538ffff","h3_11":"8b1e2e6f538dfff"},"geometry":{"type":"Polygon","coordinates":[[[20.185225,50.079755],[20.185453,50.079512],[20.185514,50.079536],[20.185287,50.079779],[20.185225,50.079755]]]}},{"type":"Feature","id":"w721238941","properties":{"type":"yes","residential":false,"residents_est":0,"h3_10":"8a1e2e6f538ffff","h3_11":"8b1e2e6f538cfff"},"geometry":{"type":"Polygon","coordinates":[[[20.184495,50.079685],[20.184521,50.079652],[20.184567,50.079667],[20.184542,50.0797],[20.184495,50.079685]]]}},{"type":"Feature","id":"w1047643281","properties":{"type":"outbuilding","levels":1.0,"residential":false,"residents_est":0,"h3_10":"8a1e2e6f5227fff","h3_11":"8b1e2e6f5226fff"},"geometry":{"type":"Polygon","coordinates":[[[20.187418,50.080775],[20.187528,50.08076],[20.187552,50.080836],[20.187442,50.08085],[20.187418,50.080775]]]}},{"type":"Feature","id":"w1047643283","properties":{"type":"outbuilding","levels":1.0,"residential":false,"residents_est":0,"h3_10":"8a1e2e6f5317fff","h3_11":"8b1e2e6f5313fff"},"geometry":{"type":"Polygon","coordinates":[[[20.184571,50.080924],[20.184629,50.080846],[20.184693,50.080865],[20.184636,50.080943],[20.184571,50.080924]]]}},{"type":"Feature","id":"w1047643286","properties":{"type":"outbuilding","levels":1.0,"residential":false,"residents_est":0,"h3_10":"8a1e2e6f52a7fff","h3_11":"8b1e2e6f52a5fff"},"geometry":{"type":"Polygon","coordinates":[[[20.185449,50.078611],[20.185511,50.078499],[20.185564,50.078511],[20.185502,50.078623],[20.185449,50.078611]]]}},{"type":"Feature","id":"w1047643338","properties":{"type":"outbuilding","levels":1.0,"residential":false,"residents_est":0,"h3_10":"8a1e2e6f5307fff","h3_11":"8b1e2e6f5304fff"},"geometry":{"type":"Polygon","coordinates":[[[20.18513,50.08257],[20.185244,50.08248],[20.185454,50.082589],[20.185341,50.082679],[20.18513,50.08257]]]}},{"type":"Feature","id":"w1047643340","properties":{"type":"warehouse","levels":1.0,"residential":false,"residents_est":0,"h3_10":"8a1e2e6f536ffff","h3_11":"8b1e2e6f536efff"},"geometry":{"type":"Polygon","coordinates":[[[20.191388,50.083136],[20.191442,50.083019],[20.191989,50.083123],[20.191934,50.083241],[20.191388,50.083136]]]}},{"type":"Feature","id":"w1047643342","properties":{"type":"detached","levels":2.0,"residential":true,"residents_est":4,"h3_10":"8a1e2e6f534ffff","h3_11":"8b1e2e6f534dfff"},"geometry":{"type":"Polygon","coordinates":[[[20.192843,50.082212],[20.192911,50.082134],[20.193022,50.082175],[20.192954,50.082253],[20.192843,50.082212]]]}},{"type":"Feature","id":"w1047643348","properties":{"type":"outbuilding","levels":1.0,"residential":false,"residents_est":0,"h3_10":"8a1e2e6f5227fff","h3_11":"8b1e2e6f5224fff"},"geometry":{"type":"Polygon","coordinates":[[[20.187361,50.081286],[20.187376,50.081228],[20.187428,50.081233],[20.187413,50.081292],[20.187361,50.081286]]]}},{"type":"Feature","id":"w1047643360","properties":{"type":"yes","levels":1.0,"residential":true,"residents_est":1,"h3_10":"8a1e2e6f534ffff","h3_11":"8b1e2e6f534dfff"},"geometry":{"type":"Polygon","coordinates":[[[20.19265,50.082115],[20.192735,50.082042],[20.192781,50.082064],[20.192696,50.082137],[20.19265,50.082115]]]}},{"type":"Feature","id":"w1047643361","properties":{"type":"outbuilding","levels":1.0,"residential":false,"residents_est":0,"h3_10":"8a1e2e6f534ffff","h3_11":"8b1e2e6f534efff"},"geometry":{"type":"Polygon","coordinates":[[[20.192125,50.081963],[20.192179,50.081919],[20.192258,50.081959],[20.192204,50.082003],[20.192125,50.081963]]]}},{"type":"Feature","id":"w1347555840","properties":{"type":"house","residential":true,"residents_est":14,"h3_10":"8a1e2e6f5337fff","h3_11":"8b1e2e6f5334fff"},"geometry":{"type":"Polygon","coordinates":[[[20.183234,50.082949],[20.183299,50.082909],[20.183272,50.082891],[20.18339,50.08282],[20.183538,50.08292],[20.183504,50.082941],[20.18351,50.082949],[20.183422,50.083003],[20.183394,50.082984],[20.183337,50.083019],[20.183234,50.082949]]]}}]}