{"type":"FeatureCollection","features":[{"type":"Feature","id":"r286802","properties":{"type":"school","levels":3.0,"address":"Osiedle Szkolne 37","residential":false,"residents_est":0,"h3_10":"8a1e2e6ae2c7fff","h3_11":"8b1e2e6ae2c6fff"},"geometry":{"type":"Polygon","coordinates":[[[20.050098,50.076841],[20.050123,50.076802],[20.050113,50.076799],[20.050384,50.076379],[20.050393,50.076381],[20.05042,50.076339],[20.050812,50.076443],[20.050828,50.076418],[20.051077,50.076484],[20.051062,50.076507],[20.051453,50.076611],[20.051428,50.07665],[20.051439,50.076653],[20.051164,50.07708],[20.051154,50.077077],[20.051128,50.077117],[20.051051,50.077097],[20.051033,50.077126],[20.050992,50.077115],[20.05101,50.077086],[20.050839,50.077034],[20.05076,50.077156],[20.05031,50.077037],[20.050389,50.076913],[20.050098,50.076841]],[[20.050377,50.076807],[20.050445,50.076825],[20.050451,50.076815],[20.050903,50.076934],[20.050898,50.076942],[20.050962,50.07696],[20.051167,50.076641],[20.050583,50.076486],[20.050377,50.076807]]]}},{"type":"Feature","id":"w54569651","properties":{"type":"school","levels":2.0,"address":"Bulwarowa 33","residential":false,"residents_est":0,"h3_10":"8a1e2e6ae307fff","h3_11":"8b1e2e6ae301fff"},"geometry":{"type":"Polygon","coordinates":[[[20.046469,50.081996],[20.047318,50.081628],[20.047271,50.081582],[20.047358,50.081544],[20.047406,50.08159],[20.047531,50.081535],[20.047633,50.081633],[20.047508,50.081687],[20.047598,50.081773],[20.047741,50.081711],[20.047845,50.08181],[20.047546,50.08194],[20.047442,50.081841],[20.047454,50.081836],[20.047447,50.081829],[20.047501,50.081806],[20.047418,50.081727],[20.046692,50.082042],[20.046738,50.082085],[20.046822,50.082048],[20.046971,50.08219],[20.046783,50.082271],[20.046635,50.08213],[20.046667,50.082116],[20.046641,50.082091],[20.046592,50.082113],[20.046469,50.081996]]]}},{"type":"Feature","id":"w83198161","properties":{"type":"civic","address":"Osiedle Szkolne 26a","residential":false,"residents_est":0,"h3_10":"8a1e2e6ae21ffff","h3_11":"8b1e2e6ae21afff"},"geometry":{"type":"Polygon","coordinates":[[[20.048956,50.077919],[20.04917,50.077588],[20.049261,50.077613],[20.049254,50.077623],[20.049283,50.077632],[20.04929,50.077622],[20.049385,50.077646],[20.049173,50.077975],[20.049079,50.077952],[20.049086,50.077941],[20.049055,50.077933],[20.049048,50.077944],[20.048956,50.077919]]]}},{"type":"Feature","id":"w83198162","properties":{"type":"yes","address":"Osiedle Szkolne 27","name":"Zespół Placówek Opiekuńczo - Wychowawczych nr 1","residential":false,"residents_est":0,"h3_10":"8a1e2e6ae2affff","h3_11":"8b1e2e6ae2aafff"},"geometry":{"type":"Polygon","coordinates":[[[20.047125,50.0771],[20.047205,50.076963],[20.047442,50.077022],[20.047459,50.076998],[20.047701,50.077059],[20.047687,50.077085],[20.047924,50.077143],[20.04784,50.077275],[20.047125,50.0771]]]}},{"type":"Feature","id":"w83198163","properties":{"type":"garages","address":"Osiedle Szkolne 28a","residential":false,"residents_est":0,"h3_10":"8a1e2e6ae2f7fff","h3_11":"8b1e2e6ae2f4fff"},"geometry":{"type":"Polygon","coordinates":[[[20.049302,50.077409],[20.049502,50.077094],[20.049594,50.077119],[20.049393,50.077433],[20.049302,50.077409]]]}},{"type":"Feature","id":"w83198164","properties":{"type":"civic","levels":1.0,"address":"Osiedle Szkolne 25","residential":false,"residents_est":0,"h3_10":"8a1e2e6ae217fff","h3_11":"8b1e2e6ae213fff"},"geometry":{"type":"Polygon","coordinates":[[[20.047728,50.078301],[20.047928,50.077989],[20.048924,50.078251],[20.048725,50.078563],[20.047728,50.078301]]]}},{"type":"Feature","id":"w83198167","properties":{"type":"yes","residential":false,"residents_est":0,"h3_10":"8a1e2e6ae287fff","h3_11":"8b1e2e6ae283fff"},"geometry":{"type":"Polygon","coordinates":[[[20.046773,50.076451],[20.046799,50.076412],[20.046888,50.076437],[20.046862,50.076476],[20.046773,50.076451]]]}},{"type":"Feature","id":"w83198168","properties":{"type":"school","levels":3.0,"address":"Osiedle Szkolne 26","residential":false,"residents_est":0,"h3_10":"8a1e2e6ae2affff","h3_11":"8b1e2e6ae2adfff"},"geometry":{"type":"Polygon","coordinates":[[[20.048141,50.078045],[20.04819,50.077971],[20.048168,50.077964],[20.048298,50.077773],[20.048263,50.077764],[20.048378,50.077585],[20.048408,50.077591],[20.048528,50.077401],[20.048748,50.077459],[20.048737,50.077481],[20.048772,50.077489],[20.048793,50.077454],[20.049155,50.077551],[20.049119,50.077608],[20.049151,50.077617],[20.049089,50.077714],[20.048661,50.077599],[20.048389,50.078025],[20.048354,50.078015],[20.04831,50.07809],[20.048141,50.078045]]]}},{"type":"Feature","id":"w107196654","properties":{"type":"school","levels":4.0,"address":"Osiedle Szkolne 18","residential":false,"residents_est":0,"h3_10":"8a1e2e6ae237fff","h3_11":"8b1e2e6ae235fff"},"geometry":{"type":"Polygon","coordinates":[[[20.04724,50.0799],[20.047241,50.079893],[20.047536,50.079761],[20.047671,50.079886],[20.047559,50.079929],[20.047974,50.080331],[20.048082,50.080278],[20.048208,50.080404],[20.047905,50.080535],[20.047664,50.080301],[20.04757,50.080342],[20.047557,50.080329],[20.047586,50.080316],[20.047431,50.080164],[20.047403,50.080175],[20.047393,50.080164],[20.047486,50.080121],[20.047296,50.079944],[20.047292,50.079946],[20.04724,50.0799]]]}},{"type":"Feature","id":"w107196663","properties":{"type":"kindergarten","levels":2.0,"address":"Osiedle Zielone 28","residential":false,"residents_est":0,"h3_10":"8a1e2e6ae3b7fff","h3_11":"8b1e2e6ae3b5fff"},"geometry":{"type":"Polygon","coordinates":[[[20.042498,50.07979],[20.043091,50.079714],[20.043121,50.079812],[20.042529,50.079888],[20.042498,50.07979]]]}},{"type":"Feature","id":"w107196667","properties":{"type":"kindergarten","levels":2.0,"address":"Osiedle Zielone 27","residential":false,"residents_est":0,"h3_10":"8a1e2e6ae3b7fff","h3_11":"8b1e2e6ae3b4fff"},"geometry":{"type":"Polygon","coordinates":[[[20.041684,50.079784],[20.041873,50.07976],[20.041893,50.079824],[20.04188,50.079825],[20.041931,50.07999],[20.041756,50.080013],[20.041684,50.079784]]]}},{"type":"Feature","id":"w107196673","properties":{"type":"industrial","levels":2.0,"residential":false,"residents_est":0,"h3_10":"8a1e2e6ae237fff","h3_11":"8b1e2e6ae233fff"},"geometry":{"type":"Polygon","coordinates":[[[20.047807,50.079285],[20.047952,50.079222],[20.048122,50.079387],[20.047978,50.07945],[20.047807,50.079285]]]}},{"type":"Feature","id":"w127326956","properties":{"type":"garages","address":"Osiedle Zielone 7a","residential":false,"residents_est":0,"h3_10":"8a1e2e6ae3a7fff","h3_11":"8b1e2e6ae3a2fff"},"geometry":{"type":"Polygon","coordinates":[[[20.043534,50.079881],[20.043618,50.079846],[20.04386,50.080082],[20.043777,50.080118],[20.043534,50.079881]]]}},{"type":"Feature","id":"w127623487","properties":{"type":"garages","address":"Osiedle Szkolne 20a","residential":false,"residents_est":0,"h3_10":"8a1e2e6ae38ffff","h3_11":"8b1e2e6ae389fff"},"geometry":{"type":"Polygon","coordinates":[[[20.046156,50.078865],[20.046576,50.078681],[20.046627,50.078729],[20.046206,50.078912],[20.046156,50.078865]]]}},{"type":"Feature","id":"w127630758","properties":{"type":"garages","address":"Osiedle Zielone 18a","residential":false,"residents_est":0,"h3_10":"8a1e2e6ae387fff","h3_11":"8b1e2e6ae380fff"},"geometry":{"type":"Polygon","coordinates":[[[20.04369,50.079243],[20.043772,50.079232],[20.043846,50.079471],[20.043757,50.079482],[20.043694,50.079294],[20.043707,50.079293],[20.04369,50.079243]]]}},{"type":"Feature","id":"w128504975","properties":{"type":"civic","levels":2.0,"address":"Bulwarowa 43","name":"Dom Wędkarza","residential":false,"residents_est":0,"h3_10":"8a1e2e6ae2e7fff","h3_11":"8b1e2e6ae2e5fff"},"geometry":{"type":"Polygon","coordinates":[[[20.051179,50.078257],[20.051329,50.078054],[20.051588,50.078133],[20.051437,50.078336],[20.051179,50.078257]]]}},{"type":"Feature","id":"w128614856","properties":{"type":"hotel","levels":1.0,"address":"Bulwarowa 37","name":"Dom Wycieczkowy PTTK","residential":false,"residents_est":0,"h3_10":"8a1e2e6ae30ffff","h3_11":"8b1e2e6ae30afff"},"geometry":{"type":"Polygon","coordinates":[[[20.048038,50.08112],[20.048156,50.081052],[20.048496,50.081297],[20.048377,50.081367],[20.048038,50.08112]]]}},{"type":"Feature","id":"w128616573","properties":{"type":"yes","address":"Bulwarowa 35b","residential":true,"residents_est":7,"h3_10":"8a1e2e6ae32ffff","h3_11":"8b1e2e6ae32bfff"},"geometry":{"type":"Polygon","coordinates":[[[20.048205,50.08215],[20.048407,50.082038],[20.048402,50.082022],[20.048516,50.081959],[20.048552,50.081986],[20.048576,50.081972],[20.048639,50.082019],[20.048678,50.081997],[20.04877,50.082067],[20.048677,50.082117],[20.04869,50.082127],[20.048581,50.082188],[20.048537,50.082154],[20.048505,50.082171],[20.048424,50.082111],[20.048267,50.082197],[20.048205,50.08215]]]}},{"type":"Feature","id":"w128616574","properties":{"type":"garages","residential":false,"residents_est":0,"h3_10":"8a1e2e6ae32ffff","h3_11":"8b1e2e6ae32bfff"},"geometry":{"type":"Polygon","coordinates":[[[20.04815,50.082346],[20.048168,50.082304],[20.048195,50.082274],[20.048236,50.082246],[20.048287,50.082225],[20.048345,50.082213],[20.048406,50.082211],[20.048465,50.082218],[20.048535,50.082242],[20.04847,50.082297],[20.048432,50.082287],[20.048366,50.082285],[20.048334,50.082291],[20.048282,50.082319],[20.048258,50.082358],[20.048258,50.08238],[20.048266,50.082401],[20.048282,50.08242],[20.048334,50.082447],[20.048366,50.082453],[20.048399,50.082455],[20.048462,50.082442],[20.048508,50.082411],[20.04852,50.082391],[20.048524,50.082369],[20.048508,50.082328],[20.048608,50.082297],[20.048625,50.082327],[20.048632,50.082365],[20.048625,50.082404],[20.048602,50.08244],[20.048567,50.082472],[20.04852,50.082496],[20.048465,50.082513],[20.048406,50.08252],[20.048345,50.082518],[20.048287,50.082506],[20.048236,50.082485],[20.048195,50.082457],[20.048165,50.082422],[20.04815,50.082385],[20.04815,50.082346]]]}},{"type":"Feature","id":"w172479249","properties":{"type":"yes","address":"Osiedle Szkolne 28","name":"Dom Pomocy Społecznej","residential":false,"residents_est":0,"h3_10":"8a1e2e6ae2affff","h3_11":"8b1e2e6ae2abfff"},"geometry":{"type":"Polygon","coordinates":[[[20.048367,50.077154],[20.048386,50.077124],[20.04838,50.077123],[20.04845,50.07701],[20.048539,50.077034],[20.048533,50.077045],[20.048823,50.07712],[20.04883,50.077109],[20.048919,50.077131],[20.048823,50.077275],[20.048743,50.077252],[20.048759,50.077223],[20.048471,50.077148],[20.04845,50.077175],[20.048367,50.077154]]]}},{"type":"Feature","id":"w172479250","properties":{"type":"residential","levels":4.0,"address":"Osiedle Szkolne 19","residential":true,"residents_est":29,"h3_10":"8a1e2e6ae237fff","h3_11":"8b1e2e6ae230fff"},"geometry":{"type":"Polygon","coordinates":[[[20.046925,50.079667],[20.047716,50.079324],[20.04783,50.079432],[20.047039,50.079776],[20.046925,50.079667]]]}},{"type":"Feature","id":"w172479255","properties":{"type":"apartments","levels":4.0,"address":"Osiedle Szkolne 10","residential":true,"residents_est":19,"h3_10":"8a1e2e6ae2a7fff","h3_11":"8b1e2e6ae2a3fff"},"geometry":{"type":"Polygon","coordinates":[[[20.045854,50.077294],[20.045898,50.07722],[20.045953,50.077235],[20.04596,50.077225],[20.046602,50.077396],[20.046527,50.077511],[20.0463,50.077453],[20.046311,50.077434],[20.045898,50.077324],[20.045907,50.07731],[20.045854,50.077294]]]}},{"type":"Feature","id":"w172479256","properties":{"type":"civic","levels":2.0,"address":"Osiedle Zielone 10","residential":false,"residents_est":0,"h3_10":"8a1e2e6ae387fff","h3_11":"8b1e2e6ae385fff"},"geometry":{"type":"Polygon","coordinates":[[[20.044376,50.079685],[20.044404,50.079673],[20.04439,50.07966],[20.04459,50.079577],[20.044601,50.079588],[20.044624,50.079578],[20.044843,50.079793],[20.044593,50.079898],[20.044376,50.079685]]]}},{"type":"Feature","id":"w172479258","properties":{"type":"apartments","levels":5.0,"address":"Osiedle Szkolne 11","residential":true,"residents_est":7,"h3_10":"8a1e2e6ae2a7fff","h3_11":"8b1e2e6ae2a2fff"},"geometry":{"type":"Polygon","coordinates":[[[20.045655,50.07729],[20.045737,50.077164],[20.045904,50.077211],[20.04583,50.077333],[20.045655,50.07729]]]}},{"type":"Feature","id":"w172479259","properties":{"type":"apartments","levels":3.0,"address":"Osiedle Zielone 11","residential":true,"residents_est":18,"h3_10":"8a1e2e6ae3affff","h3_11":"8b1e2e6ae3aefff"},"geometry":{"type":"Polygon","coordinates":[[[20.044689,50.079986],[20.045463,50.079649],[20.04556,50.07974],[20.044785,50.080077],[20.044689,50.079986]]]}},{"type":"Feature","id":"w172479261","properties":{"type":"apartments","levels":4.0,"address":"Osiedle Szkolne 12","residential":true,"residents_est":23,"h3_10":"8a1e2e6ae2a7fff","h3_11":"8b1e2e6ae2a2fff"},"geometry":{"type":"Polygon","coordinates":[[[20.045388,50.077701],[20.045418,50.077651],[20.045397,50.077645],[20.045576,50.077356],[20.045598,50.07736],[20.045622,50.077328],[20.045666,50.077338],[20.045689,50.077298],[20.045786,50.077322],[20.045758,50.077363],[20.045791,50.077372],[20.045762,50.077419],[20.045797,50.077428],[20.04562,50.077707],[20.045587,50.077699],[20.045554,50.077746],[20.045388,50.077701]]]}},{"type":"Feature","id":"w172479262","properties":{"type":"apartments","levels":3.0,"address":"Osiedle Zielone 12","residential":true,"residents_est":9,"h3_10":"8a1e2e6ae387fff","h3_11":"8b1e2e6ae381fff"},"geometry":{"type":"Polygon","coordinates":[[[20.044643,50.079474],[20.045034,50.07931],[20.045129,50.079404],[20.044739,50.079568],[20.044643,50.079474]]]}},{"type":"Feature","id":"w172479265","properties":{"type":"apartments","levels":5.0,"address":"Osiedle Szkolne 13","residential":true,"residents_est":19,"h3_10":"8a1e2e6ae2a7fff","h3_11":"8b1e2e6ae2a6fff"},"geometry":{"type":"Polygon","coordinates":[[[20.045223,50.077855],[20.045304,50.077728],[20.045407,50.077755],[20.045432,50.077713],[20.04552,50.077737],[20.045495,50.077778],[20.045715,50.077837],[20.045634,50.077965],[20.045223,50.077855]]]}},{"type":"Feature","id":"w172479266","properties":{"type":"apartments","levels":4.0,"address":"Osiedle Zielone 13","residential":true,"residents_est":26,"h3_10":"8a1e2e6ae38ffff","h3_11":"8b1e2e6ae38cfff"},"geometry":{"type":"Polygon","coordinates":[[[20.045155,50.079179],[20.045253,50.079136],[20.045285,50.079167],[20.045301,50.07916],[20.04579,50.079621],[20.045655,50.07968],[20.045642,50.079673],[20.045537,50.079719],[20.045463,50.079649],[20.045566,50.079605],[20.04516,50.079222],[20.045188,50.07921],[20.045155,50.079179]]]}},{"type":"Feature","id":"w172479269","properties":{"type":"apartments","levels":4.0,"address":"Osiedle Szkolne 14","residential":true,"residents_est":41,"h3_10":"8a1e2e6ae38ffff","h3_11":"8b1e2e6ae38afff"},"geometry":{"type":"Polygon","coordinates":[[[20.045128,50.078397],[20.045437,50.077912],[20.045591,50.077954],[20.045343,50.078351],[20.045323,50.078346],[20.045306,50.078375],[20.045668,50.078724],[20.045694,50.078713],[20.045786,50.078803],[20.045628,50.078871],[20.045128,50.078397]]]}},{"type":"Feature","id":"w172479270","properties":{"type":"apartments","levels":3.0,"address":"Osiedle Zielone 14","residential":true,"residents_est":9,"h3_10":"8a1e2e6ae387fff","h3_11":"8b1e2e6ae380fff"},"geometry":{"type":"Polygon","coordinates":[[[20.044127,50.079158],[20.044296,50.079136],[20.044389,50.079438],[20.044223,50.079461],[20.044127,50.079158]]]}},{"type":"Feature","id":"w172479272","properties":{"type":"apartments","levels":4.0,"address":"Osiedle Szkolne 15","residential":true,"residents_est":28,"h3_10":"8a1e2e6ae38ffff","h3_11":"8b1e2e6ae38bfff"},"geometry":{"type":"Polygon","coordinates":[[[20.045713,50.078731],[20.045815,50.078689],[20.045801,50.078675],[20.046105,50.078546],[20.046136,50.078525],[20.046318,50.078237],[20.046289,50.078229],[20.046346,50.078139],[20.046546,50.07819],[20.046484,50.078283],[20.046458,50.078275],[20.046267,50.078576],[20.046221,50.078613],[20.045887,50.07876],[20.045876,50.078749],[20.045773,50.07879],[20.045713,50.078731]]]}},{"type":"Feature","id":"w172479273","properties":{"type":"service","address":"Osiedle Zielone 15","residential":false,"residents_est":0,"h3_10":"8a1e2e6ae387fff","h3_11":"8b1e2e6ae380fff"},"geometry":{"type":"Polygon","coordinates":[[[20.044112,50.078985],[20.044504,50.078933],[20.044551,50.079084],[20.044246,50.079126],[20.044252,50.079142],[20.044183,50.079151],[20.044177,50.079135],[20.044165,50.079137],[20.044112,50.078985]]]}},{"type":"Feature","id":"w172479274","properties":{"type":"apartments","levels":4.0,"address":"Osiedle Szkolne 16","residential":true,"residents_est":9,"h3_10":"8a1e2e6ae38ffff","h3_11":"8b1e2e6ae388fff"},"geometry":{"type":"Polygon","coordinates":[[[20.045732,50.07897],[20.045874,50.07891],[20.046073,50.079098],[20.045933,50.079157],[20.045918,50.079149],[20.045732,50.07897]]]}},{"type":"Feature","id":"w172479275","properties":{"type":"apartments","levels":4.0,"address":"Osiedle Zielone 16","residential":true,"residents_est":42,"h3_10":"8a1e2e6ae387fff","h3_11":"8b1e2e6ae383fff"},"geometry":{"type":"Polygon","coordinates":[[[20.043912,50.078692],[20.044562,50.078606],[20.04456,50.078601],[20.044703,50.078581],[20.045237,50.079097],[20.045219,50.079105],[20.045253,50.079136],[20.045155,50.079179],[20.045118,50.079143],[20.045095,50.079153],[20.044626,50.078704],[20.043948,50.078794],[20.043912,50.078692]]]}},{"type":"Feature","id":"w172479276","properties":{"type":"apartments","levels":4.0,"address":"Osiedle Szkolne 17","residential":true,"residents_est":43,"h3_10":"8a1e2e6ae237fff","h3_11":"8b1e2e6ae236fff"},"geometry":{"type":"Polygon","coordinates":[[[20.045933,50.079157],[20.046097,50.079088],[20.046446,50.079427],[20.046431,50.079433],[20.046449,50.07945],[20.046457,50.079447],[20.04648,50.079469],[20.046505,50.079494],[20.046497,50.079497],[20.046505,50.079505],[20.046514,50.079513],[20.046535,50.079504],[20.046816,50.079776],[20.04685,50.079762],[20.046923,50.079833],[20.046719,50.07992],[20.045933,50.079157]]]}},{"type":"Feature","id":"w172479278","properties":{"type":"apartments","levels":5.0,"address":"Osiedle Zielone 17","residential":true,"residents_est":12,"h3_10":"8a1e2e6ae387fff","h3_11":"8b1e2e6ae382fff"},"geometry":{"type":"Polygon","coordinates":[[[20.043715,50.07858],[20.043866,50.078558],[20.043953,50.078814],[20.043794,50.078837],[20.043715,50.07858]]]}},{"type":"Feature","id":"w172479279","properties":{"type":"apartments","levels":3.0,"address":"Osiedle Zielone 18","residential":true,"residents_est":26,"h3_10":"8a1e2e6ae387fff","h3_11":"8b1e2e6ae386fff"},"geometry":{"type":"Polygon","coordinates":[[[20.042712,50.078976],[20.042876,50.078954],[20.042959,50.079206],[20.04342,50.079144],[20.043335,50.078887],[20.043497,50.078865],[20.043592,50.079153],[20.043434,50.079175],[20.043458,50.079246],[20.042984,50.07931],[20.042961,50.079239],[20.042806,50.07926],[20.042712,50.078976]]]}},{"type":"Feature","id":"w172479280","properties":{"type":"apartments","levels":4.0,"address":"Osiedle Zielone 19","residential":true,"residents_est":32,"h3_10":"8a1e2e6ae397fff","h3_11":"8b1e2e6ae395fff"},"geometry":{"type":"Polygon","coordinates":[[[20.042441,50.078767],[20.043599,50.078625],[20.043602,50.078633],[20.043725,50.078615],[20.043751,50.078697],[20.043626,50.078713],[20.04363,50.078727],[20.04248,50.078879],[20.042441,50.078767]]]}},{"type":"Feature","id":"w172479282","properties":{"type":"apartments","levels":6.0,"address":"Osiedle Szkolne 2","residential":true,"residents_est":81,"h3_10":"8a1e2e6ae29ffff","h3_11":"8b1e2e6ae298fff"},"geometry":{"type":"Polygon","coordinates":[[[20.046397,50.076138],[20.046487,50.075988],[20.046507,50.075992],[20.046529,50.075959],[20.046474,50.075944],[20.046569,50.075794],[20.046582,50.075797],[20.046603,50.075765],[20.04659,50.075761],[20.046685,50.075613],[20.046698,50.075615],[20.046718,50.075584],[20.046708,50.075581],[20.046804,50.075431],[20.046812,50.075433],[20.046834,50.075401],[20.046825,50.075398],[20.046918,50.075251],[20.046974,50.075263],[20.047011,50.075209],[20.047124,50.07524],[20.047088,50.075294],[20.047137,50.075308],[20.047042,50.075455],[20.047031,50.075452],[20.047012,50.075488],[20.04702,50.07549],[20.046924,50.075642],[20.046912,50.075639],[20.04689,50.075672],[20.0469,50.075675],[20.046809,50.07582],[20.046795,50.075818],[20.046775,50.07585],[20.046785,50.075853],[20.046691,50.076001],[20.046678,50.075999],[20.046658,50.076031],[20.046669,50.076034],[20.046632,50.076095],[20.046658,50.076103],[20.046656,50.076108],[20.04677,50.076135],[20.046717,50.076218],[20.046603,50.076187],[20.046599,50.076193],[20.046397,50.076138]]]}},{"type":"Feature","id":"w172479284","properties":{"type":"apartments","address":"Osiedle Zielone 20","residential":true,"residents_est":41,"h3_10":"8a1e2e6ae397fff","h3_11":"8b1e2e6ae394fff"},"geometry":{"type":"Polygon","coordinates":[[[20.041217,50.07893],[20.042345,50.078779],[20.042352,50.078804],[20.04245,50.078789],[20.04247,50.078849],[20.04236,50.078865],[20.04237,50.078894],[20.041256,50.079045],[20.041217,50.07893]]]}},{"type":"Feature","id":"w172479285","properties":{"type":"civic","levels":2.0,"address":"Osiedle Szkolne 20","residential":false,"residents_est":0,"h3_10":"8a1e2e6ae38ffff","h3_11":"8b1e2e6ae389fff"},"geometry":{"type":"Polygon","coordinates":[[[20.0463,50.079001],[20.046678,50.078839],[20.046884,50.079037],[20.046508,50.079201],[20.046467,50.079162],[20.046441,50.079172],[20.046314,50.07905],[20.046339,50.079039],[20.0463,50.079001]]]}},{"type":"Feature","id":"w172479286","properties":{"type":"apartments","levels":3.0,"address":"Osiedle Zielone 21","residential":true,"residents_est":26,"h3_10":"8a1e2e6ae3b7fff","h3_11":"8b1e2e6ae3b2fff"},"geometry":{"type":"Polygon","coordinates":[[[20.041466,50.07914],[20.041626,50.079118],[20.041712,50.079376],[20.042176,50.079312],[20.042091,50.079058],[20.042249,50.079036],[20.042345,50.079324],[20.042192,50.079345],[20.042216,50.079417],[20.041733,50.079484],[20.041707,50.079408],[20.041562,50.079428],[20.041466,50.07914]]]}},{"type":"Feature","id":"w172479287","properties":{"type":"office","levels":4.0,"address":"Osiedle Szkolne 21","residential":false,"residents_est":0,"h3_10":"8a1e2e6ae217fff","h3_11":"8b1e2e6ae214fff"},"geometry":{"type":"Polygon","coordinates":[[[20.046851,50.078761],[20.047041,50.07868],[20.04762,50.079234],[20.04743,50.079316],[20.046851,50.078761]]]}},{"type":"Feature","id":"w172479289","properties":{"type":"apartments","levels":4.0,"address":"Osiedle Szkolne 22","residential":true,"residents_est":17,"h3_10":"8a1e2e6ae217fff","h3_11":"8b1e2e6ae212fff"},"geometry":{"type":"Polygon","coordinates":[[[20.04647,50.077997],[20.046534,50.077899],[20.047109,50.078051],[20.047092,50.078077],[20.047243,50.07812],[20.047211,50.07817],[20.04706,50.078128],[20.047046,50.078149],[20.04647,50.077997]]]}},{"type":"Feature","id":"w172479291","properties":{"type":"apartments","levels":4.0,"address":"Osiedle Szkolne 23","residential":true,"residents_est":24,"h3_10":"8a1e2e6ae2a7fff","h3_11":"8b1e2e6ae2a1fff"},"geometry":{"type":"Polygon","coordinates":[[[20.046539,50.077493],[20.046583,50.077426],[20.046712,50.077458],[20.046721,50.077444],[20.047471,50.077644],[20.047466,50.077652],[20.047533,50.077669],[20.04749,50.077733],[20.047424,50.077715],[20.047407,50.077743],[20.046658,50.077542],[20.046669,50.077527],[20.046539,50.077493]]]}},{"type":"Feature","id":"w172479293","properties":{"type":"apartments","levels":4.0,"address":"Osiedle Szkolne 24","residential":true,"residents_est":24,"h3_10":"8a1e2e6ae217fff","h3_11":"8b1e2e6ae212fff"},"geometry":{"type":"Polygon","coordinates":[[[20.047197,50.078191],[20.047248,50.078112],[20.047275,50.078119],[20.047514,50.077748],[20.047485,50.07774],[20.047537,50.077663],[20.047723,50.077712],[20.047386,50.078238],[20.047197,50.078191]]]}},{"type":"Feature","id":"w172479300","properties":{"type":"apartments","levels":5.0,"address":"Osiedle Szkolne 29","residential":true,"residents_est":9,"h3_10":"8a1e2e6ae2f7fff","h3_11":"8b1e2e6ae2f6fff"},"geometry":{"type":"Polygon","coordinates":[[[20.048962,50.077312],[20.049069,50.077148],[20.04923,50.077188],[20.04912,50.077354],[20.048962,50.077312]]]}},{"type":"Feature","id":"w172479302","properties":{"type":"apartments","levels":5.0,"address":"Osiedle Szkolne 3","residential":true,"residents_est":25,"h3_10":"8a1e2e6ae287fff","h3_11":"8b1e2e6ae283fff"},"geometry":{"type":"Polygon","coordinates":[[[20.046711,50.076226],[20.046778,50.076121],[20.047469,50.076304],[20.047391,50.076426],[20.04721,50.076377],[20.047224,50.076355],[20.046711,50.076226]]]}},{"type":"Feature","id":"w172479304","properties":{"type":"apartments","levels":5.0,"address":"Osiedle Szkolne 30","residential":true,"residents_est":25,"h3_10":"8a1e2e6ae28ffff","h3_11":"8b1e2e6ae28dfff"},"geometry":{"type":"Polygon","coordinates":[[[20.048378,50.076688],[20.048457,50.076567],[20.04915,50.076752],[20.049133,50.07678],[20.049163,50.076788],[20.049129,50.076839],[20.0491,50.076831],[20.049086,50.076852],[20.048567,50.076712],[20.048552,50.076734],[20.048378,50.076688]]]}},{"type":"Feature","id":"w172479305","properties":{"type":"kindergarten","levels":4.0,"address":"Osiedle Szkolne 31","residential":false,"residents_est":0,"h3_10":"8a1e2e6ae28ffff","h3_11":"8b1e2e6ae288fff"},"geometry":{"type":"Polygon","coordinates":[[[20.047794,50.076237],[20.047859,50.076144],[20.048331,50.076263],[20.048329,50.076267],[20.048361,50.076277],[20.048302,50.076367],[20.047794,50.076237]]]}},{"type":"Feature","id":"w172479306","properties":{"type":"apartments","levels":5.0,"address":"Osiedle Szkolne 32","residential":true,"residents_est":22,"h3_10":"8a1e2e6ae28ffff","h3_11":"8b1e2e6ae289fff"},"geometry":{"type":"Polygon","coordinates":[[[20.048645,50.076564],[20.048902,50.076171],[20.049053,50.07621],[20.048797,50.076603],[20.048768,50.076596],[20.048737,50.076642],[20.04865,50.076618],[20.04868,50.076573],[20.048645,50.076564]]]}},{"type":"Feature","id":"w172479307","properties":{"type":"apartments","levels":5.0,"address":"Osiedle Szkolne 33","residential":true,"residents_est":57,"h3_10":"8a1e2e6ae2f7fff","h3_11":"8b1e2e6ae2f2fff"},"geometry":{"type":"Polygon","coordinates":[[[20.049106,50.077156],[20.049154,50.077078],[20.049133,50.077072],[20.049789,50.076039],[20.049817,50.076045],[20.049867,50.075965],[20.049963,50.07599],[20.049913,50.076069],[20.04994,50.076076],[20.04928,50.077112],[20.049254,50.077105],[20.049207,50.077182],[20.049106,50.077156]]]}},{"type":"Feature","id":"w172479308","properties":{"type":"apartments","levels":5.0,"address":"Osiedle Szkolne 34","residential":true,"residents_est":20,"h3_10":"8a1e2e6ae28ffff","h3_11":"8b1e2e6ae289fff"},"geometry":{"type":"Polygon","coordinates":[[[20.048892,50.076113],[20.048971,50.075996],[20.049429,50.076115],[20.049351,50.076233],[20.04905,50.076153],[20.049019,50.076201],[20.048908,50.076172],[20.048938,50.076126],[20.048892,50.076113]]]}},{"type":"Feature","id":"w172479310","properties":{"type":"apartments","levels":7.0,"address":"Osiedle Szkolne 36","residential":true,"residents_est":52,"h3_10":"8a1e2e6ae2d7fff","h3_11":"8b1e2e6ae2d6fff"},"geometry":{"type":"Polygon","coordinates":[[[20.048979,50.075719],[20.049027,50.075642],[20.049163,50.075678],[20.049202,50.075619],[20.05009,50.075849],[20.049989,50.075997],[20.049853,50.075961],[20.049883,50.075913],[20.04927,50.075755],[20.049244,50.075792],[20.049113,50.075757],[20.049116,50.075752],[20.048979,50.075719]]]}},{"type":"Feature","id":"w172479311","properties":{"type":"yes","address":"Osiedle Szkolne 39","residential":true,"residents_est":7,"h3_10":"8a1e2e6ae207fff","h3_11":"8b1e2e6ae206fff"},"geometry":{"type":"Polygon","coordinates":[[[20.048216,50.079125],[20.048266,50.079105],[20.04825,50.07909],[20.048323,50.079061],[20.048339,50.079075],[20.048385,50.079053],[20.048368,50.079038],[20.048542,50.078966],[20.048614,50.079034],[20.048511,50.079209],[20.048419,50.079248],[20.048407,50.079237],[20.048355,50.079259],[20.048216,50.079125]]]}},{"type":"Feature","id":"w172479313","properties":{"type":"apartments","levels":5.0,"address":"Osiedle Szkolne 4","residential":true,"residents_est":22,"h3_10":"8a1e2e6ae29ffff","h3_11":"8b1e2e6ae29dfff"},"geometry":{"type":"Polygon","coordinates":[[[20.047179,50.076178],[20.047431,50.075787],[20.047584,50.075828],[20.047333,50.076218],[20.047299,50.076209],[20.047274,50.076252],[20.047184,50.076228],[20.047208,50.076186],[20.047179,50.076178]]]}},{"type":"Feature","id":"w172479316","properties":{"type":"apartments","levels":5.0,"address":"Osiedle Szkolne 5","residential":true,"residents_est":18,"h3_10":"8a1e2e6ae29ffff","h3_11":"8b1e2e6ae299fff"},"geometry":{"type":"Polygon","coordinates":[[[20.047231,50.07567],[20.047304,50.075557],[20.047732,50.075672],[20.047655,50.075785],[20.047609,50.075772],[20.047577,50.075825],[20.04747,50.075796],[20.047504,50.075742],[20.047231,50.07567]]]}},{"type":"Feature","id":"w172479317","properties":{"type":"apartments","levels":3.0,"address":"Osiedle Zielone 5","residential":true,"residents_est":22,"h3_10":"8a1e2e6ae3a7fff","h3_11":"8b1e2e6ae3a6fff"},"geometry":{"type":"Polygon","coordinates":[[[20.042417,50.080202],[20.042677,50.080132],[20.042739,50.080224],[20.0426,50.080262],[20.042719,50.08062],[20.042869,50.0806],[20.042914,50.080697],[20.042748,50.080719],[20.042757,50.080743],[20.042595,50.080763],[20.042417,50.080202]]]}},{"type":"Feature","id":"w172479319","properties":{"type":"apartments","levels":5.0,"address":"Osiedle Szkolne 6","residential":true,"residents_est":13,"h3_10":"8a1e2e6ae287fff","h3_11":"8b1e2e6ae282fff"},"geometry":{"type":"Polygon","coordinates":[[[20.046188,50.076476],[20.046303,50.076285],[20.046537,50.076345],[20.046446,50.076491],[20.046341,50.076465],[20.046314,50.076508],[20.046188,50.076476]]]}},{"type":"Feature","id":"w172479320","properties":{"type":"apartments","levels":3.0,"address":"Osiedle Zielone 6","residential":true,"residents_est":19,"h3_10":"8a1e2e6ae3a7fff","h3_11":"8b1e2e6ae3a4fff"},"geometry":{"type":"Polygon","coordinates":[[[20.042857,50.080576],[20.043163,50.080507],[20.043485,50.080406],[20.043601,50.080537],[20.043416,50.0806],[20.043235,50.080653],[20.042924,50.080724],[20.042857,50.080576]]]}},{"type":"Feature","id":"w172479323","properties":{"type":"apartments","levels":5.0,"address":"Osiedle Szkolne 7","residential":true,"residents_est":15,"h3_10":"8a1e2e6ae287fff","h3_11":"8b1e2e6ae280fff"},"geometry":{"type":"Polygon","coordinates":[[[20.046001,50.076758],[20.046179,50.076473],[20.046333,50.076513],[20.046156,50.076797],[20.046001,50.076758]]]}},{"type":"Feature","id":"w172479324","properties":{"type":"apartments","levels":3.0,"address":"Osiedle Zielone 7","residential":true,"residents_est":23,"h3_10":"8a1e2e6ae3a7fff","h3_11":"8b1e2e6ae3a0fff"},"geometry":{"type":"Polygon","coordinates":[[[20.043116,50.080006],[20.043384,50.079931],[20.043887,50.080413],[20.043745,50.080475],[20.043722,50.080455],[20.043581,50.080515],[20.043505,50.080428],[20.043633,50.080374],[20.043318,50.080069],[20.04318,50.080106],[20.043116,50.080006]]]}},{"type":"Feature","id":"w172479326","properties":{"type":"apartments","levels":5.0,"address":"Osiedle Szkolne 8","residential":true,"residents_est":24,"h3_10":"8a1e2e6ae287fff","h3_11":"8b1e2e6ae284fff"},"geometry":{"type":"Polygon","coordinates":[[[20.045893,50.076931],[20.045972,50.076803],[20.045983,50.076806],[20.046011,50.07676],[20.046137,50.076793],[20.046109,50.076838],[20.046142,50.076847],[20.046118,50.076886],[20.046155,50.076895],[20.046162,50.076884],[20.046522,50.076976],[20.046542,50.076945],[20.046594,50.076958],[20.046515,50.077085],[20.045893,50.076931]]]}},{"type":"Feature","id":"w172479327","properties":{"type":"apartments","levels":3.0,"address":"Osiedle Zielone 8","residential":true,"residents_est":10,"h3_10":"8a1e2e6ae3a7fff","h3_11":"8b1e2e6ae3a1fff"},"geometry":{"type":"Polygon","coordinates":[[[20.043982,50.080291],[20.044428,50.080099],[20.044521,50.080189],[20.044076,50.080381],[20.043982,50.080291]]]}},{"type":"Feature","id":"w172479329","properties":{"type":"yes","levels":4.0,"address":"Osiedle Szkolne 9","residential":false,"residents_est":0,"h3_10":"8a1e2e6ae287fff","h3_11":"8b1e2e6ae280fff"},"geometry":{"type":"Polygon","coordinates":[[[20.046542,50.076945],[20.046739,50.076638],[20.04694,50.07669],[20.046743,50.076999],[20.046542,50.076945]]]}},{"type":"Feature","id":"w172479330","properties":{"type":"industrial","levels":2.0,"address":"Osiedle Zielone 9","residential":false,"residents_est":0,"h3_10":"8a1e2e6ae387fff","h3_11":"8b1e2e6ae384fff"},"geometry":{"type":"Polygon","coordinates":[[[20.043626,50.079699],[20.043844,50.079606],[20.043873,50.079634],[20.043936,50.079607],[20.044065,50.079732],[20.044006,50.079757],[20.04429,50.08003],[20.044069,50.080125],[20.043626,50.079699]]]}},{"type":"Feature","id":"w172722638","properties":{"type":"apartments","levels":7.0,"address":"Osiedle Szklane Domy 6","residential":true,"residents_est":13,"h3_10":"8a1e2e6ae2b7fff","h3_11":"8b1e2e6ae2b3fff"},"geometry":{"type":"Polygon","coordinates":[[[20.044969,50.076628],[20.045051,50.0765],[20.045268,50.076557],[20.045186,50.076685],[20.044969,50.076628]]]}},{"type":"Feature","id":"w172725473","properties":{"type":"apartments","levels":4.0,"address":"Osiedle Słoneczne 11","residential":true,"residents_est":30,"h3_10":"8a1e2e6ae397fff","h3_11":"8b1e2e6ae393fff"},"geometry":{"type":"Polygon","coordinates":[[[20.042696,50.078028],[20.042874,50.078007],[20.042894,50.07808],[20.043703,50.077973],[20.043737,50.078083],[20.043726,50.078084],[20.043734,50.078111],[20.043598,50.07813],[20.043591,50.078102],[20.042755,50.078215],[20.042696,50.078028]]]}},{"type":"Feature","id":"w172725490","properties":{"type":"apartments","levels":4.0,"address":"Osiedle Słoneczne 7","residential":true,"residents_est":19,"h3_10":"8a1e2e6ae2b7fff","h3_11":"8b1e2e6ae2b6fff"},"geometry":{"type":"Polygon","coordinates":[[[20.043683,50.076755],[20.043745,50.076659],[20.044456,50.076846],[20.044393,50.076944],[20.043683,50.076755]]]}},{"type":"Feature","id":"w172725491","properties":{"type":"apartments","levels":5.0,"address":"Osiedle Słoneczne 8","residential":true,"residents_est":42,"h3_10":"8a1e2e6ae2b7fff","h3_11":"8b1e2e6ae2b4fff"},"geometry":{"type":"Polygon","coordinates":[[[20.044448,50.077663],[20.044849,50.077037],[20.044726,50.077003],[20.044794,50.0769],[20.045002,50.076955],[20.044937,50.077056],[20.045009,50.077077],[20.044671,50.077608],[20.044705,50.077618],[20.044653,50.077704],[20.044617,50.077694],[20.044609,50.077705],[20.044448,50.077663]]]}},{"type":"Feature","id":"w172725492","properties":{"type":"apartments","levels":7.0,"address":"Osiedle Słoneczne 9","residential":true,"residents_est":37,"h3_10":"8a1e2e6ae39ffff","h3_11":"8b1e2e6ae39afff"},"geometry":{"type":"Polygon","coordinates":[[[20.043712,50.077894],[20.044322,50.077627],[20.044432,50.077728],[20.043821,50.077996],[20.043712,50.077894]]]}},{"type":"Feature","id":"w172725508","properties":{"type":"garages","address":"Osiedle Słoneczne 8a","residential":false,"residents_est":0,"h3_10":"8a1e2e6ae2b7fff","h3_11":"8b1e2e6ae2b4fff"},"geometry":{"type":"Polygon","coordinates":[[[20.044141,50.077313],[20.044257,50.077124],[20.044345,50.077147],[20.044229,50.077335],[20.044141,50.077313]]]}},{"type":"Feature","id":"w172739992","properties":{"type":"apartments","levels":2.0,"address":"Osiedle Sportowe 10","residential":true,"residents_est":6,"h3_10":"8a1e2e6ae317fff","h3_11":"8b1e2e6ae315fff"},"geometry":{"type":"Polygon","coordinates":[[[20.045374,50.081487],[20.045738,50.081332],[20.045837,50.081424],[20.045469,50.081581],[20.045374,50.081487]]]}},{"type":"Feature","id":"w172739995","properties":{"type":"apartments","levels":2.0,"address":"Osiedle Sportowe 11","residential":true,"residents_est":6,"h3_10":"8a1e2e6ae317fff","h3_11":"8b1e2e6ae311fff"},"geometry":{"type":"Polygon","coordinates":[[[20.045859,50.081278],[20.046218,50.081123],[20.046316,50.081215],[20.045956,50.08137],[20.045859,50.081278]]]}},{"type":"Feature","id":"w172739998","properties":{"type":"apartments","levels":3.0,"address":"Osiedle Sportowe 12","residential":true,"residents_est":15,"h3_10":"8a1e2e6ae31ffff","h3_11":"8b1e2e6ae31cfff"},"geometry":{"type":"Polygon","coordinates":[[[20.046375,50.081053],[20.046483,50.081006],[20.046503,50.081025],[20.046886,50.08086],[20.046866,50.08084],[20.046981,50.08079],[20.047099,50.080903],[20.046489,50.081162],[20.046375,50.081053]]]}},{"type":"Feature","id":"w172740016","properties":{"type":"apartments","levels":2.0,"address":"Osiedle Sportowe 18","residential":true,"residents_est":3,"h3_10":"8a1e2e6ae337fff","h3_11":"8b1e2e6ae332fff"},"geometry":{"type":"Polygon","coordinates":[[[20.044194,50.081581],[20.044333,50.081531],[20.044448,50.081662],[20.044309,50.081712],[20.044194,50.081581]]]}},{"type":"Feature","id":"w172740019","properties":{"type":"apartments","levels":2.0,"address":"Osiedle Sportowe 19","residential":true,"residents_est":3,"h3_10":"8a1e2e6ae317fff","h3_11":"8b1e2e6ae314fff"},"geometry":{"type":"Polygon","coordinates":[[[20.044541,50.08144],[20.044674,50.081381],[20.044807,50.081507],[20.044674,50.081565],[20.044541,50.08144]]]}},{"type":"Feature","id":"w172740026","properties":{"type":"apartments","levels":2.0,"address":"Osiedle Sportowe 20","residential":true,"residents_est":3,"h3_10":"8a1e2e6ae317fff","h3_11":"8b1e2e6ae314fff"},"geometry":{"type":"Polygon","coordinates":[[[20.044877,50.081294],[20.045019,50.081234],[20.045148,50.081362],[20.045006,50.081421],[20.044877,50.081294]]]}},{"type":"Feature","id":"w172740028","properties":{"type":"apartments","levels":2.0,"address":"Osiedle Sportowe 21","residential":true,"residents_est":6,"h3_10":"8a1e2e6ae31ffff","h3_11":"8b1e2e6ae31efff"},"geometry":{"type":"Polygon","coordinates":[[[20.046085,50.080819],[20.046443,50.080662],[20.04654,50.080753],[20.046182,50.080911],[20.046085,50.080819]]]}},{"type":"Feature","id":"w172740030","properties":{"type":"apartments","levels":4.0,"address":"Osiedle Sportowe 22","residential":true,"residents_est":43,"h3_10":"8a1e2e6ae31ffff","h3_11":"8b1e2e6ae31afff"},"geometry":{"type":"Polygon","coordinates":[[[20.045908,50.079938],[20.046059,50.079876],[20.046959,50.080741],[20.04692,50.080757],[20.046961,50.080799],[20.046866,50.08084],[20.046578,50.080572],[20.046585,50.080569],[20.046543,50.080528],[20.046535,50.080531],[20.04636,50.080365],[20.046325,50.080331],[20.046333,50.080329],[20.046287,50.080284],[20.04628,50.080288],[20.046114,50.080131],[20.04607,50.080088],[20.046077,50.080086],[20.046025,50.080037],[20.046018,50.080039],[20.045908,50.079938]]]}},{"type":"Feature","id":"w172740033","properties":{"type":"apartments","levels":3.0,"address":"Osiedle Sportowe 23","residential":true,"residents_est":25,"h3_10":"8a1e2e6ae3affff","h3_11":"8b1e2e6ae3acfff"},"geometry":{"type":"Polygon","coordinates":[[[20.045021,50.080301],[20.045803,50.079964],[20.045822,50.079985],[20.045914,50.079943],[20.045996,50.080018],[20.045262,50.080336],[20.045342,50.080414],[20.045359,50.080407],[20.045415,50.080464],[20.045261,50.080529],[20.045021,50.080301]]]}},{"type":"Feature","id":"w172740036","properties":{"type":"apartments","levels":3.0,"address":"Osiedle Sportowe 24","residential":true,"residents_est":34,"h3_10":"8a1e2e6ae3a7fff","h3_11":"8b1e2e6ae3a5fff"},"geometry":{"type":"Polygon","coordinates":[[[20.043816,50.08081],[20.044751,50.080411],[20.044988,50.080639],[20.044826,50.080708],[20.044784,50.080665],[20.044805,50.080656],[20.044714,50.080568],[20.044017,50.080866],[20.044089,50.080935],[20.044117,50.080923],[20.044185,50.080988],[20.044008,50.081063],[20.043837,50.080898],[20.043886,50.080877],[20.043816,50.08081]]]}},{"type":"Feature","id":"w172740055","properties":{"type":"apartments","levels":2.0,"address":"Osiedle Sportowe 32","residential":true,"residents_est":3,"h3_10":"8a1e2e6ae317fff","h3_11":"8b1e2e6ae316fff"},"geometry":{"type":"Polygon","coordinates":[[[20.044233,50.081148],[20.044369,50.08109],[20.044497,50.081216],[20.044362,50.081274],[20.044233,50.081148]]]}},{"type":"Feature","id":"w172740057","properties":{"type":"apartments","levels":2.0,"address":"Osiedle Sportowe 33","residential":true,"residents_est":3,"h3_10":"8a1e2e6ae317fff","h3_11":"8b1e2e6ae316fff"},"geometry":{"type":"Polygon","coordinates":[[[20.044577,50.081],[20.044711,50.080943],[20.04484,50.081068],[20.044706,50.081125],[20.044577,50.081]]]}},{"type":"Feature","id":"w172740059","properties":{"type":"apartments","levels":2.0,"address":"Osiedle Sportowe 34","residential":true,"residents_est":3,"h3_10":"8a1e2e6ae317fff","h3_11":"8b1e2e6ae310fff"},"geometry":{"type":"Polygon","coordinates":[[[20.044918,50.080848],[20.045054,50.080791],[20.04518,50.080915],[20.045045,50.080972],[20.044918,50.080848]]]}},{"type":"Feature","id":"w172740061","properties":{"type":"apartments","levels":2.0,"address":"Osiedle Sportowe 35","residential":true,"residents_est":3,"h3_10":"8a1e2e6ae317fff","h3_11":"8b1e2e6ae313fff"},"geometry":{"type":"Polygon","coordinates":[[[20.045443,50.080631],[20.045579,50.080572],[20.045708,50.080696],[20.045572,50.080754],[20.045443,50.080631]]]}},{"type":"Feature","id":"w172740063","properties":{"type":"apartments","levels":2.0,"address":"Osiedle Sportowe 36","residential":true,"residents_est":6,"h3_10":"8a1e2e6ae3affff","h3_11":"8b1e2e6ae3adfff"},"geometry":{"type":"Polygon","coordinates":[[[20.045782,50.08053],[20.046147,50.080374],[20.046243,50.080466],[20.045877,50.080622],[20.045782,50.08053]]]}},{"type":"Feature","id":"w172740077","properties":{"type":"apartments","levels":2.0,"address":"Osiedle Sportowe 5","residential":true,"residents_est":3,"h3_10":"8a1e2e6ae337fff","h3_11":"8b1e2e6ae336fff"},"geometry":{"type":"Polygon","coordinates":[[[20.043959,50.082027],[20.044183,50.081962],[20.044248,50.082054],[20.044024,50.082119],[20.043959,50.082027]]]}},{"type":"Feature","id":"w172740080","properties":{"type":"apartments","levels":2.0,"address":"Osiedle Sportowe 6","residential":true,"residents_est":3,"h3_10":"8a1e2e6ae337fff","h3_11":"8b1e2e6ae332fff"},"geometry":{"type":"Polygon","coordinates":[[[20.044338,50.081909],[20.044551,50.081837],[20.044624,50.081927],[20.044411,50.081998],[20.044338,50.081909]]]}},{"type":"Feature","id":"w172740083","properties":{"type":"apartments","levels":2.0,"address":"Osiedle Sportowe 7","residential":true,"residents_est":3,"h3_10":"8a1e2e6ae337fff","h3_11":"8b1e2e6ae332fff"},"geometry":{"type":"Polygon","coordinates":[[[20.044699,50.08178],[20.044904,50.081697],[20.044983,50.081779],[20.044778,50.081861],[20.044699,50.08178]]]}},{"type":"Feature","id":"w172740087","properties":{"type":"apartments","levels":2.0,"address":"Osiedle Sportowe 8","residential":true,"residents_est":3,"h3_10":"8a1e2e6ae337fff","h3_11":"8b1e2e6ae333fff"},"geometry":{"type":"Polygon","coordinates":[[[20.045041,50.081632],[20.045248,50.081544],[20.045334,50.081627],[20.045128,50.081715],[20.045041,50.081632]]]}},{"type":"Feature","id":"w172740090","properties":{"type":"residential","levels":2.0,"address":"Osiedle Sportowe 9","residential":true,"residents_est":6,"h3_10":"8a1e2e6ae317fff","h3_11":"8b1e2e6ae311fff"},"geometry":{"type":"Polygon","coordinates":[[[20.045396,50.081099],[20.045501,50.081053],[20.045466,50.081018],[20.045559,50.080978],[20.045594,50.081013],[20.045742,50.080945],[20.045838,50.081037],[20.045602,50.081141],[20.045618,50.081156],[20.045589,50.081168],[20.045581,50.081161],[20.045554,50.081172],[20.045527,50.081184],[20.045536,50.081192],[20.045506,50.081204],[20.045396,50.081099]]]}},{"type":"Feature","id":"w181917485","properties":{"type":"roof","residential":false,"residents_est":0,"h3_10":"8a1e2e6ae307fff","h3_11":"8b1e2e6ae300fff"},"geometry":{"type":"Polygon","coordinates":[[[20.046347,50.081776],[20.046574,50.081677],[20.046621,50.081723],[20.046395,50.081821],[20.046347,50.081776]]]}},{"type":"Feature","id":"w181917486","properties":{"type":"commercial","levels":2.0,"residential":false,"residents_est":0,"h3_10":"8a1e2e6ae307fff","h3_11":"8b1e2e6ae306fff"},"geometry":{"type":"Polygon","coordinates":[[[20.04596,50.081905],[20.046247,50.081778],[20.046349,50.081877],[20.046061,50.082001],[20.04596,50.081905]]]}},{"type":"Feature","id":"w181917487","properties":{"type":"industrial","levels":1.0,"residential":false,"residents_est":0,"h3_10":"8a1e2e6ae307fff","h3_11":"8b1e2e6ae303fff"},"geometry":{"type":"Polygon","coordinates":[[[20.046694,50.081564],[20.046824,50.081509],[20.046839,50.081474],[20.046797,50.081435],[20.046943,50.081374],[20.047087,50.081511],[20.046775,50.081643],[20.046694,50.081564]]]}},{"type":"Feature","id":"w203367042","properties":{"type":"church","address":"Osiedle Szklane Domy 7","name":"Kościół pw. Matki Boskiej Częstochowskiej","residential":false,"residents_est":0,"h3_10":"8a1e2e6ae297fff","h3_11":"8b1e2e6ae293fff"},"geometry":{"type":"Polygon","coordinates":[[[20.045063,50.075646],[20.045211,50.075416],[20.045251,50.075334],[20.045287,50.075326],[20.045745,50.075447],[20.04576,50.075471],[20.045558,50.075773],[20.045063,50.075646]]]}},{"type":"Feature","id":"w222817882","properties":{"type":"residential","levels":4.0,"address":"Bulwarowa 35d","residential":true,"residents_est":39,"h3_10":"8a1e2e6ae32ffff","h3_11":"8b1e2e6ae329fff"},"geometry":{"type":"Polygon","coordinates":[[[20.048704,50.082568],[20.048713,50.082509],[20.048768,50.082511],[20.048776,50.082454],[20.048831,50.082456],[20.048839,50.0824],[20.048895,50.082402],[20.048902,50.082345],[20.048925,50.082346],[20.048827,50.082278],[20.048972,50.082192],[20.049352,50.082458],[20.049342,50.082516],[20.049399,50.08252],[20.049388,50.082577],[20.049444,50.082581],[20.049436,50.082639],[20.049491,50.082642],[20.049482,50.082701],[20.049295,50.08269],[20.049297,50.082679],[20.049219,50.082674],[20.049218,50.082685],[20.049029,50.082674],[20.049038,50.082615],[20.049094,50.082617],[20.049102,50.08256],[20.049157,50.082566],[20.049164,50.082507],[20.049044,50.082426],[20.048869,50.082577],[20.048704,50.082568]]]}},{"type":"Feature","id":"w222817883","properties":{"type":"apartments","levels":5.0,"address":"Bulwarowa 31","name":"bulevar-verde","residential":true,"residents_est":24,"h3_10":"8a1e2e6ae337fff","h3_11":"8b1e2e6ae331fff"},"geometry":{"type":"Polygon","coordinates":[[[20.045476,50.082165],[20.045876,50.082006],[20.046021,50.082157],[20.045621,50.082316],[20.045476,50.082165]]]}},{"type":"Feature","id":"w222817892","properties":{"type":"apartments","levels":5.0,"residential":true,"residents_est":34,"h3_10":"8a1e2e6ae327fff","h3_11":"8b1e2e6ae322fff"},"geometry":{"type":"Polygon","coordinates":[[[20.045881,50.082352],[20.046118,50.082261],[20.046458,50.082626],[20.046221,50.082717],[20.045881,50.082352]]]}},{"type":"Feature","id":"w273128314","properties":{"type":"apartments","levels":5.0,"residential":true,"residents_est":34,"h3_10":"8a1e2e6ae327fff","h3_11":"8b1e2e6ae320fff"},"geometry":{"type":"Polygon","coordinates":[[[20.046014,50.082923],[20.04658,50.082702],[20.046723,50.082854],[20.046157,50.083075],[20.046014,50.082923]]]}},{"type":"Feature","id":"w307510492","properties":{"type":"yes","residential":true,"residents_est":0,"h3_10":"8a1e2e6ae327fff","h3_11":"8b1e2e6ae325fff"},"geometry":{"type":"Polygon","coordinates":[[[20.046702,50.083297],[20.046833,50.083283],[20.046844,50.083326],[20.046713,50.08334],[20.046702,50.083297]]]}},{"type":"Feature","id":"w338010181","properties":{"type":"yes","residential":true,"residents_est":1,"h3_10":"8a1e2e6ae24ffff","h3_11":"8b1e2e6ae249fff"},"geometry":{"type":"Polygon","coordinates":[[[20.056291,50.079022],[20.056372,50.078952],[20.056468,50.078999],[20.056497,50.078974],[20.056571,50.079009],[20.05646,50.079104],[20.056291,50.079022]]]}},{"type":"Feature","id":"w338010264","properties":{"type":"yes","residential":true,"residents_est":1,"h3_10":"8a1e2e6ae26ffff","h3_11":"8b1e2e6ae26bfff"},"geometry":{"type":"Polygon","coordinates":[[[20.056036,50.079709],[20.056127,50.07964],[20.056244,50.079704],[20.056153,50.079772],[20.056036,50.079709]]]}},{"type":"Feature","id":"w338010309","properties":{"type":"yes","residential":true,"residents_est":0,"h3_10":"8a1e2e6ae26ffff","h3_11":"8b1e2e6ae26bfff"},"geometry":{"type":"Polygon","coordinates":[[[20.055864,50.079743],[20.055921,50.0797],[20.056,50.079742],[20.055944,50.079786],[20.055864,50.079743]]]}},{"type":"Feature","id":"w338010446","properties":{"type":"yes","residential":true,"residents_est":0,"h3_10":"8a1e2e6ae26ffff","h3_11":"8b1e2e6ae269fff"},"geometry":{"type":"Polygon","coordinates":[[[20.056325,50.080098],[20.056346,50.080043],[20.056459,50.080061],[20.056438,50.080116],[20.056325,50.080098]]]}},{"type":"Feature","id":"w338010559","properties":{"type":"yes","residential":true,"residents_est":0,"h3_10":"8a1e2e6ae26ffff","h3_11":"8b1e2e6ae26bfff"},"geometry":{"type":"Polygon","coordinates":[[[20.055766,50.079838],[20.055796,50.079802],[20.055923,50.079847],[20.055892,50.079882],[20.055766,50.079838]]]}},{"type":"Feature","id":"w338010595","properties":{"type":"yes","residential":true,"residents_est":1,"h3_10":"8a1e2e6ae26ffff","h3_11":"8b1e2e6ae269fff"},"geometry":{"type":"Polygon","coordinates":[[[20.056156,50.07993],[20.056203,50.079841],[20.056386,50.07988],[20.056341,50.079974],[20.056209,50.079949],[20.056212,50.079941],[20.056156,50.07993]]]}},{"type":"Feature","id":"w338010682","properties":{"type":"yes","residential":true,"residents_est":1,"h3_10":"8a1e2e6ae26ffff","h3_11":"8b1e2e6ae269fff"},"geometry":{"type":"Polygon","coordinates":[[[20.055888,50.080064],[20.055918,50.079985],[20.056005,50.079999],[20.056009,50.079989],[20.056242,50.080027],[20.056221,50.080082],[20.056102,50.080063],[20.056089,50.080096],[20.055888,50.080064]]]}},{"type":"Feature","id":"w338010729","properties":{"type":"yes","residential":true,"residents_est":1,"h3_10":"8a1e2e6ae24ffff","h3_11":"8b1e2e6ae248fff"},"geometry":{"type":"Polygon","coordinates":[[[20.055881,50.07897],[20.055941,50.078915],[20.056159,50.079015],[20.056092,50.079074],[20.055881,50.07897]]]}},{"type":"Feature","id":"r1723393","properties":{"type":"school","address":"Osiedle Szklane Domy 7","name":"Męskie Liceum Ogólnokształcące św. Bernarda OO Cystersów","residential":false,"residents_est":0,"h3_10":"8a1e2e6ae297fff","h3_11":"8b1e2e6ae290fff"},"geometry":{"type":"Polygon","coordinates":[[[20.04446,50.075838],[20.044484,50.0758],[20.044461,50.075794],[20.044485,50.075753],[20.04451,50.075759],[20.044654,50.075538],[20.045558,50.075773],[20.045588,50.075729],[20.045687,50.07576],[20.045707,50.07578],[20.045606,50.075931],[20.045392,50.075874],[20.045273,50.076054],[20.044875,50.075947],[20.044865,50.075962],[20.044804,50.075947],[20.044813,50.075931],[20.044774,50.075921],[20.044762,50.075905],[20.044766,50.075896],[20.044732,50.075888],[20.044699,50.075901],[20.04446,50.075838]],[[20.044627,50.075793],[20.044801,50.07584],[20.044885,50.075705],[20.044711,50.075657],[20.044627,50.075793]],[[20.04503,50.075898],[20.045202,50.075945],[20.045278,50.075833],[20.045103,50.075786],[20.04503,50.075898]]]}},{"type":"Feature","id":"w340209133","properties":{"type":"retail","residential":false,"residents_est":0,"h3_10":"8a1e2e6ae297fff","h3_11":"8b1e2e6ae295fff"},"geometry":{"type":"Polygon","coordinates":[[[20.045387,50.076402],[20.045415,50.07636],[20.045461,50.076373],[20.045434,50.076416],[20.045387,50.076402]]]}},{"type":"Feature","id":"w340391711","properties":{"type":"kiosk","residential":false,"residents_est":0,"h3_10":"8a1e2e6ae29ffff","h3_11":"8b1e2e6ae29bfff"},"geometry":{"type":"Polygon","coordinates":[[[20.046974,50.075061],[20.046997,50.075025],[20.047049,50.075039],[20.047026,50.075075],[20.046974,50.075061]]]}},{"type":"Feature","id":"w430416979","properties":{"type":"roof","residential":false,"residents_est":0,"h3_10":"8a1e2e6ae357fff","h3_11":"8b1e2e6ae350fff"},"geometry":{"type":"Polygon","coordinates":[[[20.049926,50.081068],[20.049995,50.081035],[20.050046,50.081083],[20.049977,50.081116],[20.049926,50.081068]]]}},{"type":"Feature","id":"w430416982","properties":{"type":"yes","residential":false,"residents_est":0,"h3_10":"8a1e2e6ae347fff","h3_11":"8b1e2e6ae346fff"},"geometry":{"type":"Polygon","coordinates":[[[20.050787,50.081695],[20.050902,50.081647],[20.050949,50.081693],[20.050834,50.081741],[20.050787,50.081695]]]}},{"type":"Feature","id":"w430416984","properties":{"type":"yes","residential":false,"residents_est":0,"h3_10":"8a1e2e6ae357fff","h3_11":"8b1e2e6ae352fff"},"geometry":{"type":"Polygon","coordinates":[[[20.050075,50.080819],[20.050116,50.080801],[20.050158,50.080841],[20.050117,50.080858],[20.050075,50.080819]]]}},{"type":"Feature","id":"w430416985","properties":{"type":"yes","address":"Bulwarowa 39","residential":true,"residents_est":5,"h3_10":"8a1e2e6ae357fff","h3_11":"8b1e2e6ae354fff"},"geometry":{"type":"Polygon","coordinates":[[[20.049387,50.081303],[20.04961,50.081206],[20.049765,50.081352],[20.049543,50.081448],[20.049387,50.081303]]]}},{"type":"Feature","id":"w430419222","properties":{"type":"yes","residential":false,"residents_est":0,"h3_10":"8a1e2e6ae357fff","h3_11":"8b1e2e6ae350fff"},"geometry":{"type":"Polygon","coordinates":[[[20.049727,50.081011],[20.049987,50.080898],[20.050141,50.081042],[20.050046,50.081083],[20.049945,50.080989],[20.049875,50.081019],[20.049977,50.081116],[20.049884,50.081155],[20.049727,50.081011]]]}},{"type":"Feature","id":"w430419225","properties":{"type":"yes","residential":false,"residents_est":0,"h3_10":"8a1e2e6ae30ffff","h3_11":"8b1e2e6ae30bfff"},"geometry":{"type":"Polygon","coordinates":[[[20.048798,50.08116],[20.04884,50.081142],[20.048893,50.081193],[20.04885,50.081211],[20.048798,50.08116]]]}},{"type":"Feature","id":"w430419226","properties":{"type":"yes","residential":true,"residents_est":1,"h3_10":"8a1e2e6ae30ffff","h3_11":"8b1e2e6ae308fff"},"geometry":{"type":"Polygon","coordinates":[[[20.048579,50.081294],[20.04864,50.081262],[20.048905,50.081477],[20.048845,50.081508],[20.048579,50.081294]]]}},{"type":"Feature","id":"w552922530","properties":{"type":"residential","levels":3.0,"residential":true,"residents_est":1,"h3_10":"8a1e2e6ae337fff","h3_11":"8b1e2e6ae334fff"},"geometry":{"type":"Polygon","coordinates":[[[20.044275,50.082598],[20.044397,50.082533],[20.044445,50.082571],[20.044323,50.082635],[20.044275,50.082598]]]}},{"type":"Feature","id":"w552922531","properties":{"type":"residential","levels":3.0,"residential":true,"residents_est":1,"h3_10":"8a1e2e6ae337fff","h3_11":"8b1e2e6ae334fff"},"geometry":{"type":"Polygon","coordinates":[[[20.0444,50.082725],[20.044547,50.082687],[20.044575,50.082732],[20.044428,50.082769],[20.0444,50.082725]]]}},{"type":"Feature","id":"w553128319","properties":{"type":"yes","residential":true,"residents_est":1,"h3_10":"8a1e2e6ae32ffff","h3_11":"8b1e2e6ae328fff"},"geometry":{"type":"Polygon","coordinates":[[[20.047795,50.082521],[20.047928,50.082493],[20.047963,50.082568],[20.047928,50.082576],[20.047938,50.082597],[20.0479,50.082605],[20.04789,50.082584],[20.047836,50.082597],[20.047795,50.082521]]]}},{"type":"Feature","id":"w553128321","properties":{"type":"yes","residential":false,"residents_est":0,"h3_10":"8a1e2e6ae32ffff","h3_11":"8b1e2e6ae32efff"},"geometry":{"type":"Polygon","coordinates":[[[20.047208,50.082703],[20.047249,50.082689],[20.047288,50.082742],[20.047247,50.082754],[20.047208,50.082703]]]}},{"type":"Feature","id":"w553128323","properties":{"type":"yes","residential":true,"residents_est":1,"h3_10":"8a1e2e6ae32ffff","h3_11":"8b1e2e6ae32efff"},"geometry":{"type":"Polygon","coordinates":[[[20.04698,50.082658],[20.047125,50.082605],[20.047183,50.082676],[20.047038,50.082727],[20.04698,50.082658]]]}},{"type":"Feature","id":"w553128325","properties":{"type":"yes","residential":false,"residents_est":0,"h3_10":"8a1e2e6ae327fff","h3_11":"8b1e2e6ae321fff"},"geometry":{"type":"Polygon","coordinates":[[[20.046935,50.082764],[20.046979,50.082747],[20.047025,50.082797],[20.04698,50.082814],[20.046935,50.082764]]]}},{"type":"Feature","id":"w553128327","properties":{"type":"yes","residential":true,"residents_est":0,"h3_10":"8a1e2e6ae327fff","h3_11":"8b1e2e6ae321fff"},"geometry":{"type":"Polygon","coordinates":[[[20.046742,50.082741],[20.046858,50.082697],[20.046912,50.082755],[20.046895,50.082762],[20.046905,50.082774],[20.04686,50.082791],[20.046849,50.08278],[20.046796,50.0828],[20.046742,50.082741]]]}},{"type":"Feature","id":"w705941326","properties":{"type":"yes","residential":true,"residents_est":0,"h3_10":"8a1e2e6ae32ffff","h3_11":"8b1e2e6ae328fff"},"geometry":{"type":"Polygon","coordinates":[[[20.047887,50.082471],[20.047968,50.082454],[20.048022,50.082559],[20.047965,50.082571],[20.047928,50.082493],[20.0479,50.082498],[20.047887,50.082471]]]}},{"type":"Feature","id":"w705941329","properties":{"type":"yes","residential":false,"residents_est":0,"h3_10":"8a1e2e6ae327fff","h3_11":"8b1e2e6ae321fff"},"geometry":{"type":"Polygon","coordinates":[[[20.046847,50.082684],[20.046902,50.082663],[20.046965,50.082731],[20.04691,50.082751],[20.046847,50.082684]]]}},{"type":"Feature","id":"w705941330","properties":{"type":"yes","residential":false,"residents_est":0,"h3_10":"8a1e2e6ae32ffff","h3_11":"8b1e2e6ae32efff"},"geometry":{"type":"Polygon","coordinates":[[[20.047249,50.082689],[20.047297,50.082675],[20.047338,50.082728],[20.047288,50.082742],[20.047249,50.082689]]]}},{"type":"Feature","id":"w705941331","properties":{"type":"yes","residential":true,"residents_est":0,"h3_10":"8a1e2e6ae32ffff","h3_11":"8b1e2e6ae32efff"},"geometry":{"type":"Polygon","coordinates":[[[20.047266,50.082372],[20.047407,50.08231],[20.047456,50.082357],[20.047314,50.082418],[20.047266,50.082372]]]}},{"type":"Feature","id":"w705941332","properties":{"type":"yes","residential":false,"residents_est":0,"h3_10":"8a1e2e6ae30ffff","h3_11":"8b1e2e6ae30cfff"},"geometry":{"type":"Polygon","coordinates":[[[20.047794,50.08167],[20.047817,50.081643],[20.047872,50.081662],[20.047849,50.081689],[20.047794,50.08167]]]}},{"type":"Feature","id":"w705941416","properties":{"type":"residential","levels":3.0,"residential":true,"residents_est":1,"h3_10":"8a1e2e6ae337fff","h3_11":"8b1e2e6ae334fff"},"geometry":{"type":"Polygon","coordinates":[[[20.044372,50.08268],[20.044519,50.082642],[20.044547,50.082687],[20.0444,50.082725],[20.044372,50.08268]]]}},{"type":"Feature","id":"w725910389","properties":{"type":"yes","residential":true,"residents_est":4,"h3_10":"8a1e2e6ae367fff","h3_11":"8b1e2e6ae364fff"},"geometry":{"type":"Polygon","coordinates":[[[20.050905,50.083079],[20.05101,50.083025],[20.051268,50.083238],[20.051167,50.083288],[20.050905,50.083079]]]}},{"type":"Feature","id":"w725910463","properties":{"type":"yes","residential":false,"residents_est":0,"h3_10":"8a1e2e6ae26ffff","h3_11":"8b1e2e6ae26bfff"},"geometry":{"type":"Polygon","coordinates":[[[20.05575,50.079726],[20.055786,50.079685],[20.055847,50.079707],[20.055811,50.079748],[20.05575,50.079726]]]}},{"type":"Feature","id":"w725910471","properties":{"type":"yes","residential":true,"residents_est":1,"h3_10":"8a1e2e6ae24ffff","h3_11":"8b1e2e6ae249fff"},"geometry":{"type":"Polygon","coordinates":[[[20.056372,50.078952],[20.056424,50.078903],[20.056432,50.078907],[20.056483,50.078863],[20.056571,50.078905],[20.056522,50.078948],[20.056528,50.078951],[20.056501,50.078976],[20.056468,50.078999],[20.056372,50.078952]]]}},{"type":"Feature","id":"w725910472","properties":{"type":"yes","residential":false,"residents_est":0,"h3_10":"8a1e2e6ae24ffff","h3_11":"8b1e2e6ae24bfff"},"geometry":{"type":"Polygon","coordinates":[[[20.056121,50.078606],[20.056162,50.078556],[20.05619,50.078566],[20.05618,50.078579],[20.056194,50.078584],[20.056163,50.07862],[20.056121,50.078606]]]}},{"type":"Feature","id":"w820919454","properties":{"type":"yes","name":"Nowohucka Tężnia Solankowa","residential":true,"residents_est":1,"h3_10":"8a1e2e6ae347fff","h3_11":"8b1e2e6ae342fff"},"geometry":{"type":"Polygon","coordinates":[[[20.051406,50.081309],[20.051422,50.081284],[20.051467,50.081295],[20.051541,50.081301],[20.051606,50.081291],[20.051654,50.081273],[20.051678,50.081295],[20.051631,50.081317],[20.051588,50.081357],[20.051578,50.081403],[20.05158,50.08143],[20.051539,50.081432],[20.051535,50.081404],[20.05151,50.08136],[20.051455,50.081322],[20.051406,50.081309]]]}},{"type":"Feature","id":"w833843483","properties":{"type":"hotel","levels":4.0,"address":"Bulwarowa 35A","name":"Ibis","residential":false,"residents_est":0,"h3_10":"8a1e2e6ae30ffff","h3_11":"8b1e2e6ae30cfff"},"geometry":{"type":"Polygon","coordinates":[[[20.047981,50.081682],[20.04816,50.081578],[20.048534,50.08184],[20.048355,50.081945],[20.047981,50.081682]]]}},{"type":"Feature","id":"w989757389","properties":{"type":"garages","residential":false,"residents_est":0,"h3_10":"8a1e2e6ae2a7fff","h3_11":"8b1e2e6ae2a5fff"},"geometry":{"type":"Polygon","coordinates":[[[20.046743,50.078267],[20.046776,50.078218],[20.046999,50.07828],[20.046966,50.078329],[20.046743,50.078267]]]}},{"type":"Feature","id":"w991784643","properties":{"type":"industrial","levels":1.0,"residential":false,"residents_est":0,"h3_10":"8a1e2e6ae2b7fff","h3_11":"8b1e2e6ae2b4fff"},"geometry":{"type":"Polygon","coordinates":[[[20.044014,50.077386],[20.044123,50.077208],[20.044194,50.077226],[20.044141,50.077313],[20.044229,50.077335],[20.044173,50.077427],[20.044014,50.077386]]]}},{"type":"Feature","id":"w991784644","properties":{"type":"industrial","levels":1.0,"residential":false,"residents_est":0,"h3_10":"8a1e2e6ae2b7fff","h3_11":"8b1e2e6ae2b4fff"},"geometry":{"type":"Polygon","coordinates":[[[20.04396,50.077474],[20.044014,50.077386],[20.044189,50.077431],[20.044135,50.077518],[20.04396,50.077474]]]}},{"type":"Feature","id":"w991784645","properties":{"type":"yes","residential":false,"residents_est":0,"h3_10":"8a1e2e6ae2b7fff","h3_11":"8b1e2e6ae2b6fff"},"geometry":{"type":"Polygon","coordinates":[[[20.044282,50.077117],[20.044299,50.077089],[20.044367,50.077106],[20.044349,50.077135],[20.044282,50.077117]]]}},{"type":"Feature","id":"w991784648","properties":{"type":"warehouse","levels":1.0,"residential":false,"residents_est":0,"h3_10":"8a1e2e6ae20ffff","h3_11":"8b1e2e6ae20efff"},"geometry":{"type":"Polygon","coordinates":[[[20.050111,50.07911],[20.050175,50.079012],[20.050253,50.079033],[20.050189,50.079131],[20.050111,50.07911]]]}},{"type":"Feature","id":"w1084200731","properties":{"type":"yes","residential":true,"residents_est":1,"h3_10":"8a1e2e6ae267fff","h3_11":"8b1e2e6ae262fff"},"geometry":{"type":"Polygon","coordinates":[[[20.053174,50.079951],[20.053276,50.079887],[20.053399,50.079967],[20.053297,50.080031],[20.053174,50.079951]]]}},{"type":"Feature","id":"w1090959357","properties":{"type":"yes","residential":false,"residents_est":0,"h3_10":"8a1e2e6ae357fff","h3_11":"8b1e2e6ae353fff"},"geometry":{"type":"Polygon","coordinates":[[[20.050257,50.080852],[20.050289,50.080836],[20.050343,50.080881],[20.05031,50.080897],[20.050257,50.080852]]]}},{"type":"Feature","id":"w1090959358","properties":{"type":"yes","name":"Papa Gelato","residential":false,"residents_est":0,"h3_10":"8a1e2e6ae357fff","h3_11":"8b1e2e6ae351fff"},"geometry":{"type":"Polygon","coordinates":[[[20.050992,50.081258],[20.051026,50.081239],[20.051086,50.081283],[20.051052,50.081302],[20.050992,50.081258]]]}},{"type":"Feature","id":"w1091161654","properties":{"type":"warehouse","residential":false,"residents_est":0,"h3_10":"8a1e2e6ae20ffff","h3_11":"8b1e2e6ae208fff"},"geometry":{"type":"Polygon","coordinates":[[[20.050851,50.078869],[20.050888,50.078819],[20.050925,50.07883],[20.050888,50.07888],[20.050851,50.078869]]]}},{"type":"Feature","id":"w1091161655","properties":{"type":"yes","name":"Grill maNHattan","residential":false,"residents_est":0,"h3_10":"8a1e2e6ae20ffff","h3_11":"8b1e2e6ae208fff"},"geometry":{"type":"Polygon","coordinates":[[[20.050906,50.07879],[20.050917,50.078771],[20.050947,50.078762],[20.050975,50.078769],[20.05099,50.078788],[20.050979,50.078807],[20.05095,50.078816],[20.050921,50.07881],[20.050906,50.07879]]]}},{"type":"Feature","id":"w1092043560","properties":{"type":"retail","levels":1.0,"residential":false,"residents_est":0,"h3_10":"8a1e2e6ae357fff","h3_11":"8b1e2e6ae352fff"},"geometry":{"type":"Polygon","coordinates":[[[20.049844,50.080556],[20.049915,50.080512],[20.049972,50.08055],[20.049901,50.080594],[20.049844,50.080556]]]}},{"type":"Feature","id":"w1204677882","properties":{"type":"yes","residential":false,"residents_est":0,"h3_10":"8a1e2e6ae29ffff","h3_11":"8b1e2e6ae29dfff"},"geometry":{"type":"Polygon","coordinates":[[[20.046944,50.075865],[20.046978,50.075807],[20.047031,50.075819],[20.046997,50.075877],[20.046944,50.075865]]]}},{"type":"Feature","id":"w1211593029","properties":{"type":"service","residential":false,"residents_est":0,"h3_10":"8a1e2e6ae207fff","h3_11":"8b1e2e6ae202fff"},"geometry":{"type":"Polygon","coordinates":[[[20.048581,50.078765],[20.048609,50.078721],[20.048681,50.07874],[20.048653,50.078784],[20.048581,50.078765]]]}},{"type":"Feature","id":"w1212601713","properties":{"type":"yes","residential":false,"residents_est":0,"h3_10":"8a1e2e6ae397fff","h3_11":"8b1e2e6ae395fff"},"geometry":{"type":"Polygon","coordinates":[[[20.043135,50.078955],[20.043216,50.078944],[20.043226,50.078973],[20.043145,50.078984],[20.043135,50.078955]]]}},{"type":"Feature","id":"w1212601714","properties":{"type":"yes","residential":false,"residents_est":0,"h3_10":"8a1e2e6ae3b7fff","h3_11":"8b1e2e6ae3b2fff"},"geometry":{"type":"Polygon","coordinates":[[[20.04176,50.079136],[20.041845,50.079125],[20.041855,50.079158],[20.04177,50.079169],[20.04176,50.079136]]]}},{"type":"Feature","id":"w1264332584","properties":{"type":"service","residential":false,"residents_est":0,"h3_10":"8a1e2e6ae347fff","h3_11":"8b1e2e6ae340fff"},"geometry":{"type":"Polygon","coordinates":[[[20.051652,50.081713],[20.051715,50.081676],[20.051767,50.081712],[20.051704,50.081749],[20.051652,50.081713]]]}},{"type":"Feature","id":"w1298194862","properties":{"type":"residential","levels":4.0,"address":"Bulwarowa 35","residential":true,"residents_est":10,"h3_10":"8a1e2e6ae30ffff","h3_11":"8b1e2e6ae30efff"},"geometry":{"type":"Polygon","coordinates":[[[20.047625,50.081418],[20.047845,50.081289],[20.047985,50.081387],[20.047923,50.081423],[20.047936,50.081435],[20.047775,50.081525],[20.047625,50.081418]]]}},{"type":"Feature","id":"r18107837","properties":{"type":"yes","address":"Osiedle Szklane Domy 7","residential":true,"residents_est":10,"h3_10":"8a1e2e6ae297fff","h3_11":"8b1e2e6ae292fff"},"geometry":{"type":"Polygon","coordinates":[[[20.044654,50.075538],[20.044802,50.075308],[20.045211,50.075416],[20.045063,50.075646],[20.044654,50.075538]],[[20.044782,50.075533],[20.044968,50.075583],[20.045043,50.075467],[20.044863,50.075416],[20.044782,50.075533]]]}},{"type":"Feature","id":"w1365268226","properties":{"type":"yes","residential":false,"residents_est":0,"h3_10":"8a1e2e6ae3affff","h3_11":"8b1e2e6ae3adfff"},"geometry":{"type":"Polygon","coordinates":[[[20.045954,50.080216],[20.046015,50.08019],[20.046038,50.080212],[20.045976,50.080238],[20.045954,50.080216]]]}},{"type":"Feature","id":"w1416261776","properties":{"type":"yes","residential":false,"residents_est":0,"h3_10":"8a1e2e6ae3affff","h3_11":"8b1e2e6ae3aafff"},"geometry":{"type":"Polygon","coordinates":[[[20.045174,50.079626],[20.045247,50.079595],[20.045273,50.07962],[20.045199,50.079651],[20.045174,50.079626]]]}},{"type":"Feature","id":"w1416261812","properties":{"type":"kiosk","residential":false,"residents_est":0,"h3_10":"8a1e2e6ae39ffff","h3_11":"8b1e2e6ae39dfff"},"geometry":{"type":"Polygon","coordinates":[[[20.044588,50.078448],[20.044642,50.078424],[20.044669,50.078449],[20.044615,50.078473],[20.044588,50.078448]]]}},{"type":"Feature","id":"w1416407979","properties":{"type":"warehouse","levels":1.0,"residential":false,"residents_est":0,"h3_10":"8a1e2e6ae22ffff","h3_11":"8b1e2e6ae22afff"},"geometry":{"type":"Polygon","coordinates":[[[20.049785,50.0795],[20.04993,50.079357],[20.050002,50.079387],[20.049857,50.07953],[20.049785,50.0795]]]}},{"type":"Feature","id":"w1416474400","properties":{"type":"shed","residential":false,"residents_est":0,"h3_10":"8a1e2e6ae38ffff","h3_11":"8b1e2e6ae38dfff"},"geometry":{"type":"Polygon","coordinates":[[[20.046311,50.07917],[20.046382,50.079139],[20.046435,50.079188],[20.046364,50.079219],[20.046311,50.07917]]]}},{"type":"Feature","id":"w1416915931","properties":{"type":"yes","residential":false,"residents_est":0,"h3_10":"8a1e2e6ae2c7fff","h3_11":"8b1e2e6ae2c4fff"},"geometry":{"type":"Polygon","coordinates":[[[20.051094,50.077196],[20.051122,50.077158],[20.051185,50.077177],[20.051157,50.077216],[20.051094,50.077196]]]}},{"type":"Feature","id":"w1419036334","properties":{"type":"yes","residential":false,"residents_est":0,"h3_10":"8a1e2e6ae38ffff","h3_11":"8b1e2e6ae38afff"},"geometry":{"type":"Polygon","coordinates":[[[20.045636,50.078555],[20.045704,50.078524],[20.045732,50.078549],[20.045663,50.07858],[20.045636,50.078555]]]}},{"type":"Feature","id":"w1419721882","properties":{"type":"yes","residential":false,"residents_est":0,"h3_10":"8a1e2e6ae29ffff","h3_11":"8b1e2e6ae299fff"},"geometry":{"type":"Polygon","coordinates":[[[20.047268,50.075438],[20.047288,50.075404],[20.047355,50.075421],[20.047334,50.075454],[20.047268,50.075438]]]}},{"type":"Feature","id":"w1419721899","properties":{"type":"yes","residential":false,"residents_est":0,"h3_10":"8a1e2e6ae28ffff","h3_11":"8b1e2e6ae28cfff"},"geometry":{"type":"Polygon","coordinates":[[[20.048039,50.076576],[20.048062,50.076541],[20.048126,50.076558],[20.048103,50.076593],[20.048039,50.076576]]]}},{"type":"Feature","id":"w1419721932","properties":{"type":"yes","residential":false,"residents_est":0,"h3_10":"8a1e2e6ae2a7fff","h3_11":"8b1e2e6ae2a4fff"},"geometry":{"type":"Polygon","coordinates":[[[20.045771,50.077938],[20.045804,50.077888],[20.045878,50.077909],[20.045845,50.077958],[20.045771,50.077938]]]}},{"type":"Feature","id":"w1419899419","properties":{"type":"yes","residential":false,"residents_est":0,"h3_10":"8a1e2e6ae387fff","h3_11":"8b1e2e6ae381fff"},"geometry":{"type":"Polygon","coordinates":[[[20.044501,50.079188],[20.044549,50.079182],[20.044565,50.079236],[20.044517,50.079242],[20.044501,50.079188]]]}},{"type":"Feature","id":"w1422257932","properties":{"type":"yes","residential":false,"residents_est":0,"h3_10":"8a1e2e6ae2d7fff","h3_11":"8b1e2e6ae2d6fff"},"geometry":{"type":"Polygon","coordinates":[[[20.049094,50.075905],[20.049115,50.075874],[20.049173,50.075889],[20.049153,50.075921],[20.049094,50.075905]]]}},{"type":"Feature","id":"w1428228273","properties":{"type":"yes","residential":false,"residents_est":0,"h3_10":"8a1e2e6ae31ffff","h3_11":"8b1e2e6ae31efff"},"geometry":{"type":"Polygon","coordinates":[[[20.046262,50.080555],[20.046301,50.080537],[20.046349,50.080581],[20.04631,50.080599],[20.046262,50.080555]]]}},{"type":"Feature","id":"w1451905120","properties":{"type":"yes","residential":false,"residents_est":0,"h3_10":"8a1e2e6ae3a7fff","h3_11":"8b1e2e6ae3a6fff"},"geometry":{"type":"Polygon","coordinates":[[[20.043317,50.080328],[20.043379,50.080307],[20.043402,50.080334],[20.04334,50.080356],[20.043317,50.080328]]]}},{"type":"Feature","id":"w1460708192","properties":{"type":"yes","residential":false,"residents_est":0,"h3_10":"8a1e2e6ae2affff","h3_11":"8b1e2e6ae2acfff"},"geometry":{"type":"Polygon","coordinates":[[[20.047216,50.077801],[20.047236,50.077763],[20.047282,50.077774],[20.047262,50.077812],[20.047216,50.077801]]]}},{"type":"Feature","id":"w1469451805","properties":{"type":"yes","residential":true,"residents_est":1,"h3_10":"8a1e2e6ae32ffff","h3_11":"8b1e2e6ae328fff"},"geometry":{"type":"Polygon","coordinates":[[[20.04801,50.082415],[20.048094,50.082397],[20.048146,50.082499],[20.048169,50.082495],[20.048212,50.08258],[20.048105,50.082602],[20.04801,50.082415]]]}},{"type":"Feature","id":"w1470837841","properties":{"type":"yes","residential":false,"residents_est":0,"h3_10":"8a1e2e6ae2a7fff","h3_11":"8b1e2e6ae2a2fff"},"geometry":{"type":"Polygon","coordinates":[[[20.046093,50.077509],[20.046119,50.07747],[20.046164,50.077482],[20.046139,50.077521],[20.046093,50.077509]]]}},{"type":"Feature","id":"w1558266899","properties":{"type":"retail","name":"ABC Alkohole","residential":false,"residents_est":0,"h3_10":"8a1e2e6ae2b7fff","h3_11":"8b1e2e6ae2b1fff"},"geometry":{"type":"Polygon","coordinates":[[[20.045155,50.077012],[20.045167,50.076992],[20.045179,50.076985],[20.045233,50.076998],[20.045213,50.077027],[20.045155,50.077012]]]}}]}