{"type":"FeatureCollection","features":[{"type":"Feature","id":"w233371765","properties":{"type":"yes","residential":true,"residents_est":1,"h3_10":"8a1e05b59baffff","h3_11":"8b1e05b59babfff"},"geometry":{"type":"Polygon","coordinates":[[[19.815481,49.996382],[19.815527,49.996337],[19.815571,49.996356],[19.815627,49.996302],[19.81568,49.996324],[19.81559,49.996412],[19.815537,49.996389],[19.815525,49.996401],[19.815481,49.996382]]]}},{"type":"Feature","id":"w233372134","properties":{"type":"yes","address":"Bogucianka 140","residential":true,"residents_est":2,"h3_10":"8a1e05b59b27fff","h3_11":"8b1e05b59b21fff"},"geometry":{"type":"Polygon","coordinates":[[[19.816917,49.999857],[19.816929,49.999819],[19.817086,49.99984],[19.817081,49.999856],[19.81711,49.99986],[19.817104,49.999877],[19.817113,49.999878],[19.8171,49.999917],[19.81693,49.999895],[19.816941,49.99986],[19.816917,49.999857]]]}},{"type":"Feature","id":"w233372181","properties":{"type":"yes","address":"Bogucianka 190","residential":true,"residents_est":2,"h3_10":"8a1e05b59a37fff","h3_11":"8b1e05b59a36fff"},"geometry":{"type":"Polygon","coordinates":[[[19.81671,49.996448],[19.816765,49.996367],[19.816824,49.996383],[19.816819,49.996391],[19.816888,49.996411],[19.816831,49.996498],[19.816754,49.996476],[19.816763,49.996462],[19.81671,49.996448]]]}},{"type":"Feature","id":"w233372310","properties":{"type":"yes","residential":true,"residents_est":4,"h3_10":"8a1e05b59a27fff","h3_11":"8b1e05b59a24fff"},"geometry":{"type":"Polygon","coordinates":[[[19.81828,49.997612],[19.818311,49.997515],[19.818444,49.997533],[19.818432,49.997573],[19.818562,49.997585],[19.818551,49.997622],[19.818542,49.997621],[19.818525,49.997673],[19.818397,49.997656],[19.818406,49.997629],[19.81828,49.997612]]]}},{"type":"Feature","id":"w233372416","properties":{"type":"yes","address":"Bogucianka 153","residential":true,"residents_est":2,"h3_10":"8a1e05b59b2ffff","h3_11":"8b1e05b59b29fff"},"geometry":{"type":"Polygon","coordinates":[[[19.818364,49.999401],[19.818371,49.999329],[19.818496,49.999334],[19.818491,49.999391],[19.818534,49.999393],[19.818531,49.999422],[19.818417,49.999417],[19.818419,49.999403],[19.818364,49.999401]]]}},{"type":"Feature","id":"w233372861","properties":{"type":"yes","residential":true,"residents_est":2,"h3_10":"8a1e05b59bb7fff","h3_11":"8b1e05b59bb2fff"},"geometry":{"type":"Polygon","coordinates":[[[19.811834,49.996124],[19.811836,49.996112],[19.811881,49.996115],[19.811884,49.996102],[19.811934,49.996105],[19.811937,49.996091],[19.812012,49.996097],[19.812009,49.996136],[19.812024,49.996137],[19.812012,49.996186],[19.811867,49.996176],[19.811871,49.996154],[19.811847,49.996152],[19.811852,49.996126],[19.811834,49.996124]]]}},{"type":"Feature","id":"w233373492","properties":{"type":"yes","address":"Wielogórska 70","residential":true,"residents_est":2,"h3_10":"8a1e05b59b4ffff","h3_11":"8b1e05b59b49fff"},"geometry":{"type":"Polygon","coordinates":[[[19.824074,49.99827],[19.824248,49.998261],[19.824258,49.998341],[19.824085,49.998351],[19.824074,49.99827]]]}},{"type":"Feature","id":"w233373620","properties":{"type":"yes","residential":true,"residents_est":1,"h3_10":"8a1e05b59b0ffff","h3_11":"8b1e05b59b0cfff"},"geometry":{"type":"Polygon","coordinates":[[[19.817635,49.998719],[19.817657,49.998649],[19.817773,49.998665],[19.817751,49.998735],[19.817635,49.998719]]]}},{"type":"Feature","id":"w233373645","properties":{"type":"yes","residential":false,"residents_est":0,"h3_10":"8a1e05b59a27fff","h3_11":"8b1e05b59a24fff"},"geometry":{"type":"Polygon","coordinates":[[[19.818211,49.997435],[19.81822,49.997408],[19.818357,49.997427],[19.818348,49.997454],[19.818211,49.997435]]]}},{"type":"Feature","id":"w233373816","properties":{"type":"yes","residential":true,"residents_est":1,"h3_10":"8a1e05b59b2ffff","h3_11":"8b1e05b59b29fff"},"geometry":{"type":"Polygon","coordinates":[[[19.818637,49.999394],[19.818639,49.999313],[19.81875,49.999314],[19.818747,49.999395],[19.818637,49.999394]]]}},{"type":"Feature","id":"w233374069","properties":{"type":"yes","residential":true,"residents_est":2,"h3_10":"8a1e05b59a27fff","h3_11":"8b1e05b59a20fff"},"geometry":{"type":"Polygon","coordinates":[[[19.818253,49.99724],[19.818275,49.997186],[19.818517,49.997227],[19.818495,49.997281],[19.818253,49.99724]]]}},{"type":"Feature","id":"w233374304","properties":{"type":"yes","residential":true,"residents_est":2,"h3_10":"8a1e05b59a27fff","h3_11":"8b1e05b59a24fff"},"geometry":{"type":"Polygon","coordinates":[[[19.81822,49.997408],[19.818247,49.997323],[19.818384,49.997341],[19.818357,49.997427],[19.81822,49.997408]]]}},{"type":"Feature","id":"w233374723","properties":{"type":"yes","residential":false,"residents_est":0,"h3_10":"8a1e05b59baffff","h3_11":"8b1e05b59babfff"},"geometry":{"type":"Polygon","coordinates":[[[19.815616,49.996386],[19.815656,49.996347],[19.815692,49.996363],[19.815653,49.996401],[19.815616,49.996386]]]}},{"type":"Feature","id":"w233375650","properties":{"type":"yes","residential":true,"residents_est":1,"h3_10":"8a1e05b59a27fff","h3_11":"8b1e05b59a24fff"},"geometry":{"type":"Polygon","coordinates":[[[19.818209,49.997318],[19.818223,49.997275],[19.818398,49.997298],[19.818384,49.997341],[19.818209,49.997318]]]}},{"type":"Feature","id":"w233375811","properties":{"type":"yes","address":"Bogucianka 149","residential":true,"residents_est":1,"h3_10":"8a1e05b59b2ffff","h3_11":"8b1e05b59b2dfff"},"geometry":{"type":"Polygon","coordinates":[[[19.818508,49.99958],[19.818627,49.999578],[19.81863,49.999656],[19.818511,49.999658],[19.818508,49.99958]]]}},{"type":"Feature","id":"w233376343","properties":{"type":"yes","address":"Bogucianka 198","residential":true,"residents_est":3,"h3_10":"8a1e05b59b8ffff","h3_11":"8b1e05b59b8cfff"},"geometry":{"type":"Polygon","coordinates":[[[19.814984,49.995901],[19.815089,49.995879],[19.815112,49.99593],[19.815247,49.995902],[19.815275,49.995959],[19.815261,49.995968],[19.815143,49.995993],[19.815133,49.995974],[19.815028,49.995995],[19.814984,49.995901]]]}},{"type":"Feature","id":"w233377052","properties":{"type":"yes","address":"Bogucianka 142","residential":true,"residents_est":2,"h3_10":"8a1e05b59b27fff","h3_11":"8b1e05b59b21fff"},"geometry":{"type":"Polygon","coordinates":[[[19.816813,49.999803],[19.816838,49.999731],[19.816952,49.999748],[19.816944,49.999772],[19.816976,49.999777],[19.81696,49.999823],[19.816813,49.999803]]]}},{"type":"Feature","id":"w233377076","properties":{"type":"yes","address":"Bogucianka 196","residential":true,"residents_est":1,"h3_10":"8a1e05b59b8ffff","h3_11":"8b1e05b59b8dfff"},"geometry":{"type":"Polygon","coordinates":[[[19.815743,49.996124],[19.815813,49.99606],[19.815942,49.996118],[19.815894,49.996162],[19.815806,49.996121],[19.815782,49.996142],[19.815743,49.996124]]]}},{"type":"Feature","id":"w233377156","properties":{"type":"yes","address":"Bogucianka 180","residential":true,"residents_est":2,"h3_10":"8a1e05b59a27fff","h3_11":"8b1e05b59a20fff"},"geometry":{"type":"Polygon","coordinates":[[[19.818589,49.997386],[19.818606,49.997282],[19.818747,49.997297],[19.818726,49.997398],[19.818589,49.997386]]]}},{"type":"Feature","id":"w337641739","properties":{"type":"yes","address":"Podgórki 18A","residential":true,"residents_est":2,"h3_10":"8a1e05b59a77fff","h3_11":"8b1e05b59a72fff"},"geometry":{"type":"Polygon","coordinates":[[[19.821787,49.996021],[19.821872,49.995989],[19.821897,49.996015],[19.821905,49.996012],[19.821972,49.996083],[19.821945,49.996094],[19.821959,49.99611],[19.821912,49.996128],[19.821898,49.996112],[19.82187,49.996123],[19.821804,49.996051],[19.821812,49.996048],[19.821787,49.996021]]]}},{"type":"Feature","id":"w337641875","properties":{"type":"yes","residential":true,"residents_est":1,"h3_10":"8a1e05b59a0ffff","h3_11":"8b1e05b59a0dfff"},"geometry":{"type":"Polygon","coordinates":[[[19.821097,49.996189],[19.821097,49.996154],[19.82129,49.996155],[19.821289,49.99619],[19.821097,49.996189]]]}},{"type":"Feature","id":"w337641882","properties":{"type":"yes","address":"Podgórki 5","residential":true,"residents_est":2,"h3_10":"8a1e05b59a07fff","h3_11":"8b1e05b59a01fff"},"geometry":{"type":"Polygon","coordinates":[[[19.819619,49.995939],[19.819743,49.995913],[19.819799,49.996026],[19.819675,49.996052],[19.819619,49.995939]]]}},{"type":"Feature","id":"w337641897","properties":{"type":"yes","address":"Podgórki 7","residential":true,"residents_est":2,"h3_10":"8a1e05b59a0ffff","h3_11":"8b1e05b59a08fff"},"geometry":{"type":"Polygon","coordinates":[[[19.820683,49.995798],[19.82072,49.995728],[19.82091,49.995771],[19.820872,49.995841],[19.820683,49.995798]]]}},{"type":"Feature","id":"w337641953","properties":{"type":"yes","address":"Podgórki 10","residential":true,"residents_est":1,"h3_10":"8a1e05b59a0ffff","h3_11":"8b1e05b59a0efff"},"geometry":{"type":"Polygon","coordinates":[[[19.819706,49.995648],[19.819838,49.995637],[19.819852,49.995709],[19.81972,49.99572],[19.819706,49.995648]]]}},{"type":"Feature","id":"w337642048","properties":{"type":"yes","residential":true,"residents_est":1,"h3_10":"8a1e05b59a07fff","h3_11":"8b1e05b59a03fff"},"geometry":{"type":"Polygon","coordinates":[[[19.819562,49.995736],[19.819664,49.995716],[19.819691,49.995775],[19.819589,49.995795],[19.819562,49.995736]]]}},{"type":"Feature","id":"w337642051","properties":{"type":"yes","address":"Tyniecka 96","residential":true,"residents_est":3,"h3_10":"8a1e05b59a07fff","h3_11":"8b1e05b59a06fff"},"geometry":{"type":"Polygon","coordinates":[[[19.818221,49.996062],[19.818246,49.995984],[19.818445,49.99601],[19.818421,49.996088],[19.818221,49.996062]]]}},{"type":"Feature","id":"w337642062","properties":{"type":"yes","address":"Podgórki 28","residential":true,"residents_est":2,"h3_10":"8a1e05b59a2ffff","h3_11":"8b1e05b59a29fff"},"geometry":{"type":"Polygon","coordinates":[[[19.820656,49.996774],[19.820791,49.996753],[19.820825,49.996839],[19.820689,49.996861],[19.820656,49.996774]]]}},{"type":"Feature","id":"w337642075","properties":{"type":"yes","residential":true,"residents_est":2,"h3_10":"8a1e05b59a07fff","h3_11":"8b1e05b59a01fff"},"geometry":{"type":"Polygon","coordinates":[[[19.819467,49.9963],[19.819492,49.996163],[19.8196,49.996171],[19.819575,49.996308],[19.819467,49.9963]]]}},{"type":"Feature","id":"w337642101","properties":{"type":"yes","address":"Tyniecka 35A","residential":true,"residents_est":2,"h3_10":"8a1e05b59b8ffff","h3_11":"8b1e05b59b8bfff"},"geometry":{"type":"Polygon","coordinates":[[[19.81576,49.995321],[19.815776,49.995232],[19.815915,49.995243],[19.815898,49.995332],[19.81576,49.995321]]]}},{"type":"Feature","id":"w337642129","properties":{"type":"yes","address":"Podgórki 8","residential":true,"residents_est":2,"h3_10":"8a1e05b59a07fff","h3_11":"8b1e05b59a03fff"},"geometry":{"type":"Polygon","coordinates":[[[19.819355,49.995663],[19.819364,49.995578],[19.819506,49.995585],[19.819496,49.995669],[19.819355,49.995663]]]}},{"type":"Feature","id":"w337642137","properties":{"type":"yes","residential":true,"residents_est":1,"h3_10":"8a1e05b59a07fff","h3_11":"8b1e05b59a01fff"},"geometry":{"type":"Polygon","coordinates":[[[19.819814,49.995994],[19.819901,49.995976],[19.819927,49.99603],[19.819841,49.996048],[19.819814,49.995994]]]}},{"type":"Feature","id":"w337642161","properties":{"type":"house","address":"Podgórki 32","residential":true,"residents_est":6,"h3_10":"8a1e05b59a2ffff","h3_11":"8b1e05b59a2efff"},"geometry":{"type":"Polygon","coordinates":[[[19.819422,49.996891],[19.819664,49.99687],[19.819681,49.996946],[19.819438,49.996967],[19.819422,49.996891]]]}},{"type":"Feature","id":"w337642165","properties":{"type":"yes","residential":true,"residents_est":1,"h3_10":"8a1e05b59a57fff","h3_11":"8b1e05b59a50fff"},"geometry":{"type":"Polygon","coordinates":[[[19.822571,49.995238],[19.822683,49.995236],[19.822685,49.995313],[19.822573,49.995315],[19.822571,49.995238]]]}},{"type":"Feature","id":"w337642179","properties":{"type":"yes","address":"Podgórki 3","residential":true,"residents_est":3,"h3_10":"8a1e05b59a07fff","h3_11":"8b1e05b59a05fff"},"geometry":{"type":"Polygon","coordinates":[[[19.819162,49.996198],[19.819354,49.996195],[19.819357,49.996285],[19.819165,49.996288],[19.819162,49.996198]]]}},{"type":"Feature","id":"w337642206","properties":{"type":"yes","address":"Tyniecka 35","residential":true,"residents_est":2,"h3_10":"8a1e05b59b8ffff","h3_11":"8b1e05b59b88fff"},"geometry":{"type":"Polygon","coordinates":[[[19.815747,49.99553],[19.815761,49.99544],[19.815907,49.99545],[19.815893,49.995539],[19.815747,49.99553]]]}},{"type":"Feature","id":"w337642244","properties":{"type":"yes","residential":true,"residents_est":1,"h3_10":"8a1e05b59a57fff","h3_11":"8b1e05b59a54fff"},"geometry":{"type":"Polygon","coordinates":[[[19.821903,49.995704],[19.821906,49.995639],[19.82199,49.99564],[19.821986,49.995705],[19.821903,49.995704]]]}},{"type":"Feature","id":"w337642252","properties":{"type":"yes","residential":true,"residents_est":1,"h3_10":"8a1e05b59a07fff","h3_11":"8b1e05b59a06fff"},"geometry":{"type":"Polygon","coordinates":[[[19.818495,49.996096],[19.818534,49.996004],[19.818609,49.996017],[19.818571,49.996109],[19.818495,49.996096]]]}},{"type":"Feature","id":"w337642256","properties":{"type":"yes","address":"Podgórki 13","residential":true,"residents_est":1,"h3_10":"8a1e05b59a2ffff","h3_11":"8b1e05b59a28fff"},"geometry":{"type":"Polygon","coordinates":[[[19.820237,49.9966],[19.820244,49.996524],[19.820372,49.996529],[19.820364,49.996604],[19.820237,49.9966]]]}},{"type":"Feature","id":"w337642263","properties":{"type":"yes","residential":true,"residents_est":2,"h3_10":"8a1e05b59a07fff","h3_11":"8b1e05b59a00fff"},"geometry":{"type":"Polygon","coordinates":[[[19.818678,49.995947],[19.818738,49.995825],[19.818769,49.995831],[19.818786,49.995797],[19.818846,49.99581],[19.81877,49.995966],[19.818678,49.995947]]]}},{"type":"Feature","id":"w337642265","properties":{"type":"yes","residential":true,"residents_est":2,"h3_10":"8a1e05b59b8ffff","h3_11":"8b1e05b59b8afff"},"geometry":{"type":"Polygon","coordinates":[[[19.815509,49.995449],[19.815525,49.995384],[19.815659,49.995397],[19.815629,49.99552],[19.815548,49.99551],[19.815561,49.995454],[19.815509,49.995449]]]}},{"type":"Feature","id":"w337642282","properties":{"type":"yes","address":"Podgórki 2","residential":true,"residents_est":3,"h3_10":"8a1e05b59a07fff","h3_11":"8b1e05b59a00fff"},"geometry":{"type":"Polygon","coordinates":[[[19.818729,49.996136],[19.818746,49.99606],[19.818978,49.996082],[19.818969,49.996122],[19.818939,49.996119],[19.818931,49.996155],[19.818729,49.996136]]]}},{"type":"Feature","id":"w337642295","properties":{"type":"yes","residential":true,"residents_est":3,"h3_10":"8a1e05b59a07fff","h3_11":"8b1e05b59a05fff"},"geometry":{"type":"Polygon","coordinates":[[[19.819275,49.996672],[19.81929,49.996492],[19.819407,49.996496],[19.819406,49.996509],[19.819387,49.996508],[19.819373,49.996676],[19.819275,49.996672]]]}},{"type":"Feature","id":"w337642302","properties":{"type":"yes","residential":true,"residents_est":2,"h3_10":"8a1e05b59a07fff","h3_11":"8b1e05b59a01fff"},"geometry":{"type":"Polygon","coordinates":[[[19.819268,49.996023],[19.819466,49.99597],[19.819495,49.996016],[19.819528,49.996007],[19.819536,49.99602],[19.819306,49.996081],[19.819268,49.996023]]]}},{"type":"Feature","id":"w337642320","properties":{"type":"yes","address":"Tyniecka 94","residential":true,"residents_est":2,"h3_10":"8a1e05b59b8ffff","h3_11":"8b1e05b59b89fff"},"geometry":{"type":"Polygon","coordinates":[[[19.816307,49.995531],[19.816312,49.995438],[19.816513,49.995443],[19.816511,49.995488],[19.816454,49.995486],[19.816451,49.995534],[19.816307,49.995531]]]}},{"type":"Feature","id":"w337642338","properties":{"type":"yes","address":"Podgórki 15","residential":true,"residents_est":3,"h3_10":"8a1e05b59a2ffff","h3_11":"8b1e05b59a2afff"},"geometry":{"type":"Polygon","coordinates":[[[19.819706,49.996537],[19.81983,49.996531],[19.819835,49.996576],[19.819903,49.996573],[19.819909,49.996629],[19.819718,49.996638],[19.819706,49.996537]]]}},{"type":"Feature","id":"w337642345","properties":{"type":"yes","address":"Podgórki 9","residential":true,"residents_est":1,"h3_10":"8a1e05b59a77fff","h3_11":"8b1e05b59a72fff"},"geometry":{"type":"Polygon","coordinates":[[[19.821399,49.995982],[19.821444,49.995933],[19.821497,49.995954],[19.82149,49.995961],[19.82156,49.995989],[19.821521,49.996029],[19.821399,49.995982]]]}},{"type":"Feature","id":"w337642351","properties":{"type":"yes","address":"Podgórki 1","residential":true,"residents_est":3,"h3_10":"8a1e05b59a07fff","h3_11":"8b1e05b59a05fff"},"geometry":{"type":"Polygon","coordinates":[[[19.819046,49.996625],[19.819059,49.996508],[19.819187,49.996514],[19.819179,49.996582],[19.819229,49.996585],[19.819223,49.996634],[19.819046,49.996625]]]}},{"type":"Feature","id":"w337642362","properties":{"type":"yes","residential":true,"residents_est":3,"h3_10":"8a1e05b59a77fff","h3_11":"8b1e05b59a74fff"},"geometry":{"type":"Polygon","coordinates":[[[19.821682,49.996703],[19.821863,49.996567],[19.821952,49.996617],[19.82176,49.99676],[19.821695,49.996724],[19.821706,49.996716],[19.821682,49.996703]]]}},{"type":"Feature","id":"w337642383","properties":{"type":"yes","residential":true,"residents_est":1,"h3_10":"8a1e05b59a77fff","h3_11":"8b1e05b59a73fff"},"geometry":{"type":"Polygon","coordinates":[[[19.822176,49.996172],[19.822194,49.996118],[19.822277,49.99613],[19.822272,49.996145],[19.822296,49.996148],[19.822282,49.996187],[19.822176,49.996172]]]}},{"type":"Feature","id":"w337642400","properties":{"type":"yes","address":"Podgórki 14","residential":true,"residents_est":3,"h3_10":"8a1e05b59a0ffff","h3_11":"8b1e05b59a09fff"},"geometry":{"type":"Polygon","coordinates":[[[19.821167,49.995869],[19.82123,49.995801],[19.821421,49.995874],[19.821365,49.995935],[19.82132,49.995917],[19.821313,49.995925],[19.821167,49.995869]]]}},{"type":"Feature","id":"w337642402","properties":{"type":"yes","residential":false,"residents_est":0,"h3_10":"8a1e05b59a77fff","h3_11":"8b1e05b59a70fff"},"geometry":{"type":"Polygon","coordinates":[[[19.821894,49.996572],[19.821928,49.996548],[19.821954,49.996563],[19.821981,49.996544],[19.822031,49.996572],[19.82197,49.996616],[19.821894,49.996572]]]}},{"type":"Feature","id":"w337642421","properties":{"type":"yes","address":"Podgórki 10A","residential":true,"residents_est":2,"h3_10":"8a1e05b59a0ffff","h3_11":"8b1e05b59a0efff"},"geometry":{"type":"Polygon","coordinates":[[[19.819724,49.995533],[19.819861,49.995523],[19.819859,49.995512],[19.819865,49.995512],[19.819881,49.995606],[19.819738,49.995616],[19.819724,49.995533]]]}},{"type":"Feature","id":"w337642424","properties":{"type":"yes","address":"Podgórki 20","residential":true,"residents_est":2,"h3_10":"8a1e05b59a77fff","h3_11":"8b1e05b59a76fff"},"geometry":{"type":"Polygon","coordinates":[[[19.821435,49.996566],[19.821451,49.996494],[19.821615,49.996509],[19.821595,49.996603],[19.821496,49.996594],[19.821501,49.996572],[19.821435,49.996566]]]}},{"type":"Feature","id":"w337642442","properties":{"type":"yes","address":"Podgórki 18","residential":true,"residents_est":3,"h3_10":"8a1e05b59a77fff","h3_11":"8b1e05b59a72fff"},"geometry":{"type":"Polygon","coordinates":[[[19.821502,49.996137],[19.821688,49.996128],[19.821693,49.996177],[19.821655,49.996178],[19.821661,49.996228],[19.821554,49.996232],[19.821552,49.996211],[19.82151,49.996213],[19.821502,49.996137]]]}},{"type":"Feature","id":"w337642448","properties":{"type":"yes","residential":true,"residents_est":3,"h3_10":"8a1e05b59a0ffff","h3_11":"8b1e05b59a0dfff"},"geometry":{"type":"Polygon","coordinates":[[[19.820899,49.996096],[19.820965,49.995975],[19.821026,49.995989],[19.821017,49.996005],[19.821194,49.996046],[19.821153,49.996121],[19.820939,49.996072],[19.820922,49.996102],[19.820899,49.996096]]]}},{"type":"Feature","id":"w337642461","properties":{"type":"yes","residential":true,"residents_est":1,"h3_10":"8a1e05b59a07fff","h3_11":"8b1e05b59a03fff"},"geometry":{"type":"Polygon","coordinates":[[[19.819274,49.995745],[19.819277,49.99568],[19.819323,49.99568],[19.819323,49.995746],[19.819347,49.995746],[19.819343,49.995811],[19.819287,49.995809],[19.819292,49.995746],[19.819274,49.995745]]]}},{"type":"Feature","id":"w337642477","properties":{"type":"yes","address":"Podgórki 6","residential":true,"residents_est":2,"h3_10":"8a1e05b59a07fff","h3_11":"8b1e05b59a03fff"},"geometry":{"type":"Polygon","coordinates":[[[19.819036,49.995815],[19.819059,49.995726],[19.819064,49.995726],[19.819061,49.995736],[19.819188,49.99575],[19.81919,49.99574],[19.819195,49.99574],[19.819172,49.99583],[19.819036,49.995815]]]}},{"type":"Feature","id":"w337642517","properties":{"type":"yes","residential":true,"residents_est":1,"h3_10":"8a1e05b59a17fff","h3_11":"8b1e05b59a16fff"},"geometry":{"type":"Polygon","coordinates":[[[19.816656,49.995498],[19.816659,49.995448],[19.816739,49.99545],[19.81674,49.99544],[19.816787,49.995441],[19.816785,49.995477],[19.816738,49.995476],[19.816737,49.9955],[19.816656,49.995498]]]}},{"type":"Feature","id":"w337642558","properties":{"type":"yes","address":"Podgórki 11","residential":true,"residents_est":3,"h3_10":"8a1e05b59a77fff","h3_11":"8b1e05b59a76fff"},"geometry":{"type":"Polygon","coordinates":[[[19.821037,49.996305],[19.821076,49.996245],[19.821275,49.996298],[19.821234,49.996361],[19.821191,49.99635],[19.821177,49.99637],[19.821092,49.996347],[19.821108,49.996324],[19.821037,49.996305]]]}},{"type":"Feature","id":"w432997425","properties":{"type":"yes","residential":true,"residents_est":1,"h3_10":"8a1e05b59aeffff","h3_11":"8b1e05b59aecfff"},"geometry":{"type":"Polygon","coordinates":[[[19.822068,49.994678],[19.822072,49.994625],[19.822216,49.994629],[19.822212,49.994683],[19.822068,49.994678]]]}},{"type":"Feature","id":"w432997426","properties":{"type":"yes","residential":true,"residents_est":1,"h3_10":"8a1e05b59aeffff","h3_11":"8b1e05b59aeefff"},"geometry":{"type":"Polygon","coordinates":[[[19.822028,49.994475],[19.822037,49.994425],[19.822183,49.994436],[19.822173,49.994486],[19.822028,49.994475]]]}},{"type":"Feature","id":"w458969897","properties":{"type":"house","residential":true,"residents_est":6,"h3_10":"8a1e05b59aa7fff","h3_11":"8b1e05b59aa0fff"},"geometry":{"type":"Polygon","coordinates":[[[19.815767,49.994506],[19.815784,49.994505],[19.815774,49.994465],[19.815866,49.994456],[19.815873,49.994487],[19.815894,49.994484],[19.815902,49.994514],[19.815922,49.994512],[19.815933,49.994559],[19.81591,49.994561],[19.815917,49.994592],[19.815791,49.994605],[19.815767,49.994506]]]}},{"type":"Feature","id":"w458969899","properties":{"type":"yes","residential":true,"residents_est":1,"h3_10":"8a1e05b59a2ffff","h3_11":"8b1e05b59a2efff"},"geometry":{"type":"Polygon","coordinates":[[[19.819761,49.996905],[19.819851,49.996889],[19.819877,49.996952],[19.819788,49.996968],[19.819761,49.996905]]]}},{"type":"Feature","id":"w458969900","properties":{"type":"house","address":"Podgórki 13A","residential":true,"residents_est":5,"h3_10":"8a1e05b59a2ffff","h3_11":"8b1e05b59a2bfff"},"geometry":{"type":"Polygon","coordinates":[[[19.820481,49.996593],[19.82049,49.996496],[19.82064,49.996502],[19.82063,49.996599],[19.820481,49.996593]]]}},{"type":"Feature","id":"w458969902","properties":{"type":"yes","address":"Bogucianka 189","residential":true,"residents_est":1,"h3_10":"8a1e05b59b57fff","h3_11":"8b1e05b59b56fff"},"geometry":{"type":"Polygon","coordinates":[[[19.819236,49.99767],[19.819349,49.997661],[19.819365,49.997737],[19.819251,49.997746],[19.819236,49.99767]]]}},{"type":"Feature","id":"w719259754","properties":{"type":"yes","residential":false,"residents_est":0,"h3_10":"8a1e05b59a47fff","h3_11":"8b1e05b59a45fff"},"geometry":{"type":"Polygon","coordinates":[[[19.824227,49.996572],[19.82428,49.996567],[19.824291,49.996614],[19.824238,49.996619],[19.824227,49.996572]]]}},{"type":"Feature","id":"w719259755","properties":{"type":"yes","address":"Wielogórska 81","residential":true,"residents_est":2,"h3_10":"8a1e05b59a67fff","h3_11":"8b1e05b59a63fff"},"geometry":{"type":"Polygon","coordinates":[[[19.823969,49.996796],[19.823971,49.996676],[19.824096,49.996677],[19.824095,49.996756],[19.824108,49.996756],[19.824108,49.996798],[19.823969,49.996796]]]}},{"type":"Feature","id":"w719259776","properties":{"type":"yes","residential":false,"residents_est":0,"h3_10":"8a1e05b59b4ffff","h3_11":"8b1e05b59b49fff"},"geometry":{"type":"Polygon","coordinates":[[[19.823987,49.998421],[19.824062,49.998414],[19.824069,49.998446],[19.823994,49.998453],[19.823987,49.998421]]]}},{"type":"Feature","id":"w719259784","properties":{"type":"yes","address":"Bogucianka 159j","residential":true,"residents_est":2,"h3_10":"8a1e05b59b47fff","h3_11":"8b1e05b59b44fff"},"geometry":{"type":"Polygon","coordinates":[[[19.820944,49.998866],[19.82109,49.998835],[19.821129,49.99891],[19.821053,49.998926],[19.82106,49.998939],[19.820989,49.998954],[19.820944,49.998866]]]}},{"type":"Feature","id":"w719259785","properties":{"type":"yes","address":"Bogucianka 159h","residential":true,"residents_est":2,"h3_10":"8a1e05b59b47fff","h3_11":"8b1e05b59b44fff"},"geometry":{"type":"Polygon","coordinates":[[[19.820798,49.998897],[19.820944,49.998866],[19.820989,49.998954],[19.820919,49.998969],[19.820913,49.998956],[19.820836,49.998972],[19.820798,49.998897]]]}},{"type":"Feature","id":"w719259786","properties":{"type":"yes","address":"Bogucianka 159g","residential":true,"residents_est":2,"h3_10":"8a1e05b59b77fff","h3_11":"8b1e05b59b71fff"},"geometry":{"type":"Polygon","coordinates":[[[19.820442,49.998974],[19.820587,49.998944],[19.820626,49.999019],[19.820551,49.999035],[19.820557,49.999048],[19.820487,49.999063],[19.820442,49.998974]]]}},{"type":"Feature","id":"w719259787","properties":{"type":"yes","address":"Bogucianka 159f","residential":true,"residents_est":2,"h3_10":"8a1e05b59b77fff","h3_11":"8b1e05b59b71fff"},"geometry":{"type":"Polygon","coordinates":[[[19.820296,49.999005],[19.820442,49.998974],[19.820487,49.999063],[19.820417,49.999077],[19.82041,49.999064],[19.820334,49.99908],[19.820296,49.999005]]]}},{"type":"Feature","id":"w719259788","properties":{"type":"yes","address":"Bogucianka 159e","residential":true,"residents_est":2,"h3_10":"8a1e05b59b77fff","h3_11":"8b1e05b59b70fff"},"geometry":{"type":"Polygon","coordinates":[[[19.819925,49.999041],[19.820076,49.999034],[19.820086,49.999113],[19.820007,49.999116],[19.820009,49.999131],[19.819936,49.999134],[19.819925,49.999041]]]}},{"type":"Feature","id":"w719259789","properties":{"type":"yes","address":"Bogucianka 159d","residential":true,"residents_est":2,"h3_10":"8a1e05b59b77fff","h3_11":"8b1e05b59b70fff"},"geometry":{"type":"Polygon","coordinates":[[[19.819773,49.999049],[19.819925,49.999041],[19.819936,49.999134],[19.819863,49.999138],[19.819861,49.999124],[19.819782,49.999128],[19.819773,49.999049]]]}},{"type":"Feature","id":"w719259790","properties":{"type":"yes","address":"Bogucianka 159c","residential":true,"residents_est":2,"h3_10":"8a1e05b59b77fff","h3_11":"8b1e05b59b70fff"},"geometry":{"type":"Polygon","coordinates":[[[19.819351,49.999061],[19.819505,49.999055],[19.819507,49.999135],[19.819353,49.999136],[19.819351,49.999061]]]}},{"type":"Feature","id":"w719259791","properties":{"type":"yes","address":"Bogucianka 159b","residential":true,"residents_est":2,"h3_10":"8a1e05b59b77fff","h3_11":"8b1e05b59b76fff"},"geometry":{"type":"Polygon","coordinates":[[[19.819197,49.999058],[19.819351,49.999061],[19.819353,49.999136],[19.819199,49.999138],[19.819197,49.999058]]]}},{"type":"Feature","id":"w719259792","properties":{"type":"yes","residential":false,"residents_est":0,"h3_10":"8a1e05b59b2ffff","h3_11":"8b1e05b59b29fff"},"geometry":{"type":"Polygon","coordinates":[[[19.818531,49.999429],[19.818536,49.999379],[19.818597,49.999382],[19.818592,49.999431],[19.818531,49.999429]]]}},{"type":"Feature","id":"w719259798","properties":{"type":"yes","residential":false,"residents_est":0,"h3_10":"8a1e05b59b27fff","h3_11":"8b1e05b59b20fff"},"geometry":{"type":"Polygon","coordinates":[[[19.816386,49.999821],[19.816398,49.999774],[19.816446,49.999779],[19.816433,49.999826],[19.816386,49.999821]]]}},{"type":"Feature","id":"w719259799","properties":{"type":"yes","address":"Bogucianka 159","residential":true,"residents_est":2,"h3_10":"8a1e05b59b77fff","h3_11":"8b1e05b59b76fff"},"geometry":{"type":"Polygon","coordinates":[[[19.818609,49.999134],[19.818612,49.999054],[19.818766,49.999061],[19.818763,49.999136],[19.818609,49.999134]]]}},{"type":"Feature","id":"w719259800","properties":{"type":"yes","address":"Bogucianka 159a","residential":true,"residents_est":2,"h3_10":"8a1e05b59b77fff","h3_11":"8b1e05b59b76fff"},"geometry":{"type":"Polygon","coordinates":[[[19.818763,49.999136],[19.818766,49.999061],[19.818919,49.999059],[19.818917,49.999138],[19.818763,49.999136]]]}},{"type":"Feature","id":"w719259801","properties":{"type":"yes","residential":false,"residents_est":0,"h3_10":"8a1e05b59b77fff","h3_11":"8b1e05b59b74fff"},"geometry":{"type":"Polygon","coordinates":[[[19.81895,49.999391],[19.819027,49.999389],[19.819029,49.999424],[19.818952,49.999426],[19.81895,49.999391]]]}},{"type":"Feature","id":"w719259802","properties":{"type":"yes","address":"Bogucianka 160","residential":true,"residents_est":2,"h3_10":"8a1e05b59b2ffff","h3_11":"8b1e05b59b2bfff"},"geometry":{"type":"Polygon","coordinates":[[[19.817869,49.998897],[19.817895,49.998818],[19.818044,49.998839],[19.818018,49.998918],[19.817869,49.998897]]]}},{"type":"Feature","id":"w719259803","properties":{"type":"yes","address":"Bogucianka 160a","residential":true,"residents_est":2,"h3_10":"8a1e05b59b2ffff","h3_11":"8b1e05b59b2afff"},"geometry":{"type":"Polygon","coordinates":[[[19.817715,49.998883],[19.817741,49.998805],[19.817892,49.998825],[19.817866,49.998904],[19.817715,49.998883]]]}},{"type":"Feature","id":"w719259804","properties":{"type":"yes","address":"Bogucianka 160b","residential":true,"residents_est":2,"h3_10":"8a1e05b59b2ffff","h3_11":"8b1e05b59b2afff"},"geometry":{"type":"Polygon","coordinates":[[[19.817378,49.998829],[19.817405,49.99875],[19.817556,49.998772],[19.817529,49.99885],[19.817378,49.998829]]]}},{"type":"Feature","id":"w719259805","properties":{"type":"yes","address":"Bogucianka 160c","residential":true,"residents_est":2,"h3_10":"8a1e05b59b07fff","h3_11":"8b1e05b59b01fff"},"geometry":{"type":"Polygon","coordinates":[[[19.817224,49.998815],[19.817251,49.998737],[19.817401,49.998758],[19.817375,49.998837],[19.817224,49.998815]]]}},{"type":"Feature","id":"w719259806","properties":{"type":"yes","address":"Bogucianka 160d","residential":true,"residents_est":2,"h3_10":"8a1e05b59b07fff","h3_11":"8b1e05b59b01fff"},"geometry":{"type":"Polygon","coordinates":[[[19.81689,49.998762],[19.816914,49.998683],[19.817065,49.998704],[19.81704,49.998783],[19.81689,49.998762]]]}},{"type":"Feature","id":"w719259807","properties":{"type":"yes","address":"Bogucianka 160e","residential":true,"residents_est":2,"h3_10":"8a1e05b59b07fff","h3_11":"8b1e05b59b00fff"},"geometry":{"type":"Polygon","coordinates":[[[19.816738,49.998742],[19.816764,49.998663],[19.816914,49.998683],[19.81689,49.998762],[19.816738,49.998742]]]}},{"type":"Feature","id":"w719259808","properties":{"type":"yes","address":"Bogucianka 160f","residential":true,"residents_est":2,"h3_10":"8a1e05b59b07fff","h3_11":"8b1e05b59b00fff"},"geometry":{"type":"Polygon","coordinates":[[[19.816383,49.998693],[19.81641,49.998614],[19.81656,49.998635],[19.816534,49.998714],[19.816383,49.998693]]]}},{"type":"Feature","id":"w719259809","properties":{"type":"yes","address":"Bogucianka 160g","residential":true,"residents_est":2,"h3_10":"8a1e05b59b07fff","h3_11":"8b1e05b59b00fff"},"geometry":{"type":"Polygon","coordinates":[[[19.816233,49.998672],[19.816259,49.998593],[19.81641,49.998614],[19.816383,49.998693],[19.816233,49.998672]]]}},{"type":"Feature","id":"w719259810","properties":{"type":"yes","address":"Bogucianka 158","residential":true,"residents_est":2,"h3_10":"8a1e05b59b2ffff","h3_11":"8b1e05b59b2afff"},"geometry":{"type":"Polygon","coordinates":[[[19.817695,49.999124],[19.817724,49.999046],[19.817873,49.999069],[19.817844,49.999147],[19.817695,49.999124]]]}},{"type":"Feature","id":"w719259811","properties":{"type":"yes","address":"Bogucianka 158a","residential":true,"residents_est":2,"h3_10":"8a1e05b59b2ffff","h3_11":"8b1e05b59b2afff"},"geometry":{"type":"Polygon","coordinates":[[[19.817547,49.999093],[19.817576,49.999015],[19.817726,49.999039],[19.817697,49.999116],[19.817547,49.999093]]]}},{"type":"Feature","id":"w719259812","properties":{"type":"yes","address":"Bogucianka 158b","residential":true,"residents_est":2,"h3_10":"8a1e05b59b2ffff","h3_11":"8b1e05b59b2afff"},"geometry":{"type":"Polygon","coordinates":[[[19.817211,49.999048],[19.817239,49.99897],[19.81739,49.998993],[19.81736,49.999071],[19.817211,49.999048]]]}},{"type":"Feature","id":"w719259813","properties":{"type":"yes","address":"Bogucianka 158c","residential":true,"residents_est":2,"h3_10":"8a1e05b59b07fff","h3_11":"8b1e05b59b05fff"},"geometry":{"type":"Polygon","coordinates":[[[19.817063,49.999017],[19.817092,49.99894],[19.817241,49.998963],[19.817213,49.99904],[19.817063,49.999017]]]}},{"type":"Feature","id":"w719259814","properties":{"type":"yes","address":"Bogucianka 158d","residential":true,"residents_est":2,"h3_10":"8a1e05b59b07fff","h3_11":"8b1e05b59b05fff"},"geometry":{"type":"Polygon","coordinates":[[[19.816715,49.998971],[19.816744,49.998893],[19.816895,49.998916],[19.816865,49.998994],[19.816715,49.998971]]]}},{"type":"Feature","id":"w719259815","properties":{"type":"yes","address":"Bogucianka 158e","residential":true,"residents_est":2,"h3_10":"8a1e05b59b07fff","h3_11":"8b1e05b59b05fff"},"geometry":{"type":"Polygon","coordinates":[[[19.816566,49.998948],[19.816594,49.99887],[19.816744,49.998893],[19.816715,49.998971],[19.816566,49.998948]]]}},{"type":"Feature","id":"w719259816","properties":{"type":"yes","address":"Bogucianka 158f","residential":true,"residents_est":2,"h3_10":"8a1e05b59b07fff","h3_11":"8b1e05b59b04fff"},"geometry":{"type":"Polygon","coordinates":[[[19.816207,49.998893],[19.816237,49.998814],[19.816389,49.998838],[19.81636,49.998917],[19.816207,49.998893]]]}},{"type":"Feature","id":"w719259817","properties":{"type":"yes","address":"Bogucianka 158g","residential":true,"residents_est":2,"h3_10":"8a1e05b59b07fff","h3_11":"8b1e05b59b04fff"},"geometry":{"type":"Polygon","coordinates":[[[19.816057,49.99887],[19.816086,49.998791],[19.816237,49.998814],[19.816207,49.998893],[19.816057,49.99887]]]}},{"type":"Feature","id":"w719264896","properties":{"type":"yes","residential":false,"residents_est":0,"h3_10":"8a1e05b59a37fff","h3_11":"8b1e05b59a30fff"},"geometry":{"type":"Polygon","coordinates":[[[19.816831,49.996498],[19.816869,49.996443],[19.816915,49.996455],[19.816877,49.996511],[19.816831,49.996498]]]}},{"type":"Feature","id":"w719264897","properties":{"type":"yes","address":"Bogucianka 192","residential":true,"residents_est":2,"h3_10":"8a1e05b59a37fff","h3_11":"8b1e05b59a36fff"},"geometry":{"type":"Polygon","coordinates":[[[19.816167,49.996297],[19.816222,49.996232],[19.816259,49.996245],[19.816316,49.996179],[19.816392,49.996205],[19.816333,49.996273],[19.816324,49.99627],[19.81627,49.996333],[19.816167,49.996297]]]}},{"type":"Feature","id":"w719264898","properties":{"type":"yes","residential":false,"residents_est":0,"h3_10":"8a1e05b59b8ffff","h3_11":"8b1e05b59b8dfff"},"geometry":{"type":"Polygon","coordinates":[[[19.815766,49.996158],[19.815806,49.996121],[19.815894,49.996162],[19.815854,49.996199],[19.815766,49.996158]]]}},{"type":"Feature","id":"w719264899","properties":{"type":"yes","residential":true,"residents_est":2,"h3_10":"8a1e05b59b87fff","h3_11":"8b1e05b59b81fff"},"geometry":{"type":"Polygon","coordinates":[[[19.814678,49.995973],[19.81479,49.995956],[19.814796,49.995971],[19.814837,49.995964],[19.814835,49.995959],[19.814841,49.995958],[19.814872,49.996038],[19.814818,49.996047],[19.814815,49.99604],[19.81471,49.996057],[19.8147,49.99603],[19.814684,49.996023],[19.814679,49.996011],[19.814689,49.996],[19.814678,49.995973]]]}},{"type":"Feature","id":"w719264900","properties":{"type":"yes","residential":true,"residents_est":2,"h3_10":"8a1e05b59b87fff","h3_11":"8b1e05b59b80fff"},"geometry":{"type":"Polygon","coordinates":[[[19.814193,49.996094],[19.814249,49.996085],[19.814245,49.996075],[19.814295,49.996068],[19.814299,49.996077],[19.814356,49.996069],[19.814366,49.996097],[19.814347,49.9961],[19.814358,49.996129],[19.814393,49.996124],[19.814407,49.996161],[19.814285,49.99618],[19.814273,49.996148],[19.814217,49.996157],[19.814193,49.996094]]]}},{"type":"Feature","id":"w719264902","properties":{"type":"yes","residential":false,"residents_est":0,"h3_10":"8a1e05b59bb7fff","h3_11":"8b1e05b59bb0fff"},"geometry":{"type":"Polygon","coordinates":[[[19.812108,49.996199],[19.812111,49.99618],[19.812141,49.996182],[19.812145,49.996158],[19.812156,49.996159],[19.81216,49.996131],[19.812202,49.996134],[19.812189,49.996204],[19.812108,49.996199]]]}},{"type":"Feature","id":"w719264917","properties":{"type":"yes","residential":false,"residents_est":0,"h3_10":"8a1e05b59b0ffff","h3_11":"8b1e05b59b0efff"},"geometry":{"type":"Polygon","coordinates":[[[19.817454,49.998453],[19.817462,49.998425],[19.817529,49.998433],[19.817521,49.998461],[19.817454,49.998453]]]}},{"type":"Feature","id":"w719264921","properties":{"type":"yes","residential":false,"residents_est":0,"h3_10":"8a1e05b59a27fff","h3_11":"8b1e05b59a26fff"},"geometry":{"type":"Polygon","coordinates":[[[19.81791,49.997221],[19.817981,49.99722],[19.817982,49.997257],[19.817912,49.997258],[19.81791,49.997221]]]}},{"type":"Feature","id":"w719264922","properties":{"type":"yes","residential":false,"residents_est":0,"h3_10":"8a1e05b59b57fff","h3_11":"8b1e05b59b52fff"},"geometry":{"type":"Polygon","coordinates":[[[19.819622,49.997577],[19.819694,49.997568],[19.819712,49.997627],[19.81964,49.997636],[19.819622,49.997577]]]}},{"type":"Feature","id":"w719264923","properties":{"type":"yes","residential":true,"residents_est":1,"h3_10":"8a1e05b59b57fff","h3_11":"8b1e05b59b52fff"},"geometry":{"type":"Polygon","coordinates":[[[19.819417,49.997648],[19.819503,49.997641],[19.819514,49.9977],[19.819428,49.997706],[19.819417,49.997648]]]}},{"type":"Feature","id":"w719264924","properties":{"type":"yes","residential":false,"residents_est":0,"h3_10":"8a1e05b59a27fff","h3_11":"8b1e05b59a20fff"},"geometry":{"type":"Polygon","coordinates":[[[19.818541,49.997324],[19.818552,49.997277],[19.818606,49.997282],[19.818595,49.99733],[19.818541,49.997324]]]}},{"type":"Feature","id":"w719282109","properties":{"type":"yes","residential":false,"residents_est":0,"h3_10":"8a1e05b59aa7fff","h3_11":"8b1e05b59aa2fff"},"geometry":{"type":"Polygon","coordinates":[[[19.815576,49.994364],[19.815639,49.994359],[19.815647,49.994398],[19.815584,49.994403],[19.815576,49.994364]]]}},{"type":"Feature","id":"w719282110","properties":{"type":"yes","residential":true,"residents_est":3,"h3_10":"8a1e05b59aa7fff","h3_11":"8b1e05b59aa6fff"},"geometry":{"type":"Polygon","coordinates":[[[19.815316,49.994492],[19.81543,49.994484],[19.815454,49.994628],[19.815341,49.994636],[19.815316,49.994492]]]}},{"type":"Feature","id":"w719282119","properties":{"type":"yes","residential":true,"residents_est":18,"h3_10":"8a1e05b59aa7fff","h3_11":"8b1e05b59aa4fff"},"geometry":{"type":"Polygon","coordinates":[[[19.815659,49.995147],[19.815722,49.994775],[19.815875,49.994785],[19.815813,49.995158],[19.815659,49.995147]]]}},{"type":"Feature","id":"w895209618","properties":{"type":"yes","residential":true,"residents_est":3,"h3_10":"8a1e05b59a67fff","h3_11":"8b1e05b59a65fff"},"geometry":{"type":"Polygon","coordinates":[[[19.824117,49.997603],[19.824297,49.997592],[19.824306,49.997656],[19.824278,49.997658],[19.824281,49.997677],[19.824229,49.99768],[19.824234,49.99771],[19.824133,49.997716],[19.824117,49.997603]]]}},{"type":"Feature","id":"w895209621","properties":{"type":"yes","address":"Bogucianka 143","residential":true,"residents_est":3,"h3_10":"8a1e05b59b2ffff","h3_11":"8b1e05b59b2dfff"},"geometry":{"type":"Polygon","coordinates":[[[19.818227,49.999797],[19.818228,49.999714],[19.818399,49.999715],[19.818399,49.99972],[19.818446,49.999721],[19.818445,49.999794],[19.818337,49.999797],[19.818337,49.999814],[19.818286,49.999813],[19.818287,49.999797],[19.818227,49.999797]]]}},{"type":"Feature","id":"w1038753232","properties":{"type":"detached","levels":2.0,"address":"Bogucianka 139C","residential":true,"residents_est":4,"h3_10":"8a1e05b59b67fff","h3_11":"8b1e05b59b66fff"},"geometry":{"type":"Polygon","coordinates":[[[19.820394,49.999916],[19.820542,49.999892],[19.820575,49.999978],[19.820426,50.000002],[19.820394,49.999916]]]}},{"type":"Feature","id":"w1038753243","properties":{"type":"bungalow","levels":1.0,"residential":true,"residents_est":1,"h3_10":"8a1e05b59a57fff","h3_11":"8b1e05b59a54fff"},"geometry":{"type":"Polygon","coordinates":[[[19.822181,49.995538],[19.822264,49.995537],[19.822265,49.995613],[19.822182,49.995614],[19.822181,49.995538]]]}},{"type":"Feature","id":"w1038753244","properties":{"type":"bungalow","levels":1.0,"residential":true,"residents_est":1,"h3_10":"8a1e05b59a5ffff","h3_11":"8b1e05b59a5afff"},"geometry":{"type":"Polygon","coordinates":[[[19.824006,49.994764],[19.824021,49.994688],[19.824138,49.994697],[19.824123,49.994773],[19.824006,49.994764]]]}},{"type":"Feature","id":"w1038753245","properties":{"type":"outbuilding","levels":1.0,"residential":false,"residents_est":0,"h3_10":"8a1e05b59b8ffff","h3_11":"8b1e05b59b89fff"},"geometry":{"type":"Polygon","coordinates":[[[19.81668,49.995565],[19.816682,49.995515],[19.816763,49.995516],[19.816763,49.995507],[19.816811,49.995508],[19.816809,49.995543],[19.816761,49.995542],[19.81676,49.995566],[19.81668,49.995565]]]}},{"type":"Feature","id":"w1038753250","properties":{"type":"outbuilding","levels":1.0,"residential":false,"residents_est":0,"h3_10":"8a1e05b59a5ffff","h3_11":"8b1e05b59a5bfff"},"geometry":{"type":"Polygon","coordinates":[[[19.824434,49.994489],[19.824444,49.994432],[19.82455,49.994439],[19.824541,49.994496],[19.824434,49.994489]]]}},{"type":"Feature","id":"w1038753255","properties":{"type":"outbuilding","levels":1.0,"residential":false,"residents_est":0,"h3_10":"8a1e05b59a4ffff","h3_11":"8b1e05b59a4cfff"},"geometry":{"type":"Polygon","coordinates":[[[19.825124,49.996197],[19.825126,49.996129],[19.825219,49.99613],[19.825217,49.996198],[19.825124,49.996197]]]}},{"type":"Feature","id":"w1038753256","properties":{"type":"outbuilding","levels":1.0,"residential":false,"residents_est":0,"h3_10":"8a1e05b59a4ffff","h3_11":"8b1e05b59a4dfff"},"geometry":{"type":"Polygon","coordinates":[[[19.826131,49.99612],[19.826217,49.996114],[19.826227,49.996183],[19.82614,49.996188],[19.826131,49.99612]]]}},{"type":"Feature","id":"w1038753257","properties":{"type":"outbuilding","levels":1.0,"residential":false,"residents_est":0,"h3_10":"8a1e05b59a47fff","h3_11":"8b1e05b59a41fff"},"geometry":{"type":"Polygon","coordinates":[[[19.824495,49.996086],[19.82459,49.996082],[19.824596,49.996147],[19.824501,49.99615],[19.824495,49.996086]]]}},{"type":"Feature","id":"w1038753258","properties":{"type":"outbuilding","levels":1.0,"residential":false,"residents_est":0,"h3_10":"8a1e05b59a47fff","h3_11":"8b1e05b59a40fff"},"geometry":{"type":"Polygon","coordinates":[[[19.823832,49.996179],[19.823953,49.996176],[19.823957,49.996234],[19.823836,49.996237],[19.823832,49.996179]]]}},{"type":"Feature","id":"w1038753259","properties":{"type":"outbuilding","levels":1.0,"residential":false,"residents_est":0,"h3_10":"8a1e05b59a47fff","h3_11":"8b1e05b59a42fff"},"geometry":{"type":"Polygon","coordinates":[[[19.823383,49.995928],[19.823384,49.995859],[19.823463,49.99586],[19.823461,49.995928],[19.823383,49.995928]]]}},{"type":"Feature","id":"w1038753260","properties":{"type":"outbuilding","levels":1.0,"residential":false,"residents_est":0,"h3_10":"8a1e05b59a4ffff","h3_11":"8b1e05b59a48fff"},"geometry":{"type":"Polygon","coordinates":[[[19.825528,49.995827],[19.825662,49.995825],[19.825664,49.995888],[19.82553,49.99589],[19.825528,49.995827]]]}},{"type":"Feature","id":"w1038753261","properties":{"type":"outbuilding","levels":1.0,"residential":false,"residents_est":0,"h3_10":"8a1e05b59a4ffff","h3_11":"8b1e05b59a49fff"},"geometry":{"type":"Polygon","coordinates":[[[19.826105,49.995772],[19.826248,49.995769],[19.826251,49.99582],[19.826108,49.995824],[19.826105,49.995772]]]}},{"type":"Feature","id":"w1038753266","properties":{"type":"outbuilding","levels":1.0,"residential":false,"residents_est":0,"h3_10":"8a1e05b59a5ffff","h3_11":"8b1e05b59a5bfff"},"geometry":{"type":"Polygon","coordinates":[[[19.824865,49.994515],[19.824887,49.994456],[19.824974,49.99447],[19.824952,49.994529],[19.824865,49.994515]]]}},{"type":"Feature","id":"w1038753277","properties":{"type":"yes","levels":2.0,"residential":true,"residents_est":2,"h3_10":"8a1e05b59b8ffff","h3_11":"8b1e05b59b8afff"},"geometry":{"type":"Polygon","coordinates":[[[19.815171,49.995147],[19.815295,49.995129],[19.815327,49.995223],[19.815203,49.995241],[19.815171,49.995147]]]}},{"type":"Feature","id":"w1038753281","properties":{"type":"detached","levels":2.0,"residential":true,"residents_est":4,"h3_10":"8a1e05b59a07fff","h3_11":"8b1e05b59a05fff"},"geometry":{"type":"Polygon","coordinates":[[[19.819545,49.996402],[19.819559,49.996315],[19.819714,49.996326],[19.8197,49.996413],[19.819545,49.996402]]]}},{"type":"Feature","id":"w1038753286","properties":{"type":"detached","levels":2.0,"residential":true,"residents_est":4,"h3_10":"8a1e05b59a07fff","h3_11":"8b1e05b59a04fff"},"geometry":{"type":"Polygon","coordinates":[[[19.818735,49.996293],[19.818811,49.99623],[19.818924,49.996286],[19.818848,49.99635],[19.818735,49.996293]]]}},{"type":"Feature","id":"w1092719424","properties":{"type":"yes","address":"Bogucianka 159s","residential":true,"residents_est":2,"h3_10":"8a1e05b59b4ffff","h3_11":"8b1e05b59b4cfff"},"geometry":{"type":"Polygon","coordinates":[[[19.822798,49.998541],[19.822947,49.998514],[19.822986,49.998604],[19.822915,49.998617],[19.822909,49.998603],[19.822832,49.998617],[19.822798,49.998541]]]}},{"type":"Feature","id":"w1092719425","properties":{"type":"yes","address":"Bogucianka 159t","residential":true,"residents_est":2,"h3_10":"8a1e05b59b4ffff","h3_11":"8b1e05b59b4cfff"},"geometry":{"type":"Polygon","coordinates":[[[19.822947,49.998514],[19.823094,49.998487],[19.823128,49.998563],[19.823051,49.998577],[19.823057,49.998591],[19.822986,49.998604],[19.822947,49.998514]]]}},{"type":"Feature","id":"w1092719426","properties":{"type":"yes","address":"Bogucianka 159p","residential":true,"residents_est":2,"h3_10":"8a1e05b59b47fff","h3_11":"8b1e05b59b41fff"},"geometry":{"type":"Polygon","coordinates":[[[19.822306,49.998624],[19.822455,49.998597],[19.822494,49.998687],[19.822423,49.9987],[19.822417,49.998687],[19.82234,49.998701],[19.822306,49.998624]]]}},{"type":"Feature","id":"w1092719427","properties":{"type":"yes","address":"Bogucianka 159r","residential":true,"residents_est":2,"h3_10":"8a1e05b59b4ffff","h3_11":"8b1e05b59b4cfff"},"geometry":{"type":"Polygon","coordinates":[[[19.822455,49.998597],[19.822602,49.99857],[19.822636,49.998647],[19.82256,49.998661],[19.822565,49.998674],[19.822494,49.998687],[19.822455,49.998597]]]}},{"type":"Feature","id":"w1092719428","properties":{"type":"yes","address":"Bogucianka 159n","residential":true,"residents_est":2,"h3_10":"8a1e05b59b47fff","h3_11":"8b1e05b59b41fff"},"geometry":{"type":"Polygon","coordinates":[[[19.821969,49.99868],[19.822117,49.998653],[19.82215,49.99873],[19.822074,49.998744],[19.82208,49.998757],[19.822008,49.99877],[19.821969,49.99868]]]}},{"type":"Feature","id":"w1092719429","properties":{"type":"yes","address":"Bogucianka 159m","residential":true,"residents_est":2,"h3_10":"8a1e05b59b47fff","h3_11":"8b1e05b59b41fff"},"geometry":{"type":"Polygon","coordinates":[[[19.821821,49.998707],[19.821969,49.99868],[19.822008,49.99877],[19.821938,49.998783],[19.821932,49.998769],[19.821854,49.998784],[19.821821,49.998707]]]}},{"type":"Feature","id":"w1092719430","properties":{"type":"yes","address":"Bogucianka 159l","residential":true,"residents_est":2,"h3_10":"8a1e05b59b47fff","h3_11":"8b1e05b59b40fff"},"geometry":{"type":"Polygon","coordinates":[[[19.82146,49.998767],[19.821607,49.998739],[19.821642,49.998816],[19.821566,49.99883],[19.821572,49.998843],[19.8215,49.998857],[19.82146,49.998767]]]}},{"type":"Feature","id":"w1092719431","properties":{"type":"yes","address":"Bogucianka 159k","residential":true,"residents_est":2,"h3_10":"8a1e05b59b47fff","h3_11":"8b1e05b59b40fff"},"geometry":{"type":"Polygon","coordinates":[[[19.821312,49.998795],[19.82146,49.998767],[19.8215,49.998857],[19.82143,49.99887],[19.821424,49.998857],[19.821347,49.998871],[19.821312,49.998795]]]}},{"type":"Feature","id":"w1184883374","properties":{"type":"yes","residential":true,"residents_est":3,"h3_10":"8a1e05b59b67fff","h3_11":"8b1e05b59b66fff"},"geometry":{"type":"Polygon","coordinates":[[[19.820646,49.999588],[19.820818,49.999553],[19.820862,49.999644],[19.82069,49.999678],[19.820646,49.999588]]]}},{"type":"Feature","id":"w1184883375","properties":{"type":"yes","address":"Bogucianka 147C","residential":true,"residents_est":3,"h3_10":"8a1e05b59b67fff","h3_11":"8b1e05b59b63fff"},"geometry":{"type":"Polygon","coordinates":[[[19.821201,49.999484],[19.821385,49.999447],[19.821426,49.999534],[19.821242,49.99957],[19.821201,49.999484]]]}},{"type":"Feature","id":"w1184883376","properties":{"type":"yes","address":"Bogucianka 147D","residential":true,"residents_est":2,"h3_10":"8a1e05b59b67fff","h3_11":"8b1e05b59b63fff"},"geometry":{"type":"Polygon","coordinates":[[[19.821727,49.999387],[19.8219,49.999357],[19.821937,49.999445],[19.821764,49.999475],[19.821727,49.999387]]]}},{"type":"Feature","id":"w1184883377","properties":{"type":"yes","residential":true,"residents_est":3,"h3_10":"8a1e05b59b67fff","h3_11":"8b1e05b59b61fff"},"geometry":{"type":"Polygon","coordinates":[[[19.821791,49.999684],[19.821976,49.999654],[19.822011,49.999742],[19.821826,49.999772],[19.821791,49.999684]]]}},{"type":"Feature","id":"w1184883378","properties":{"type":"yes","address":"Bogucianka 139E","residential":true,"residents_est":3,"h3_10":"8a1e05b59b67fff","h3_11":"8b1e05b59b60fff"},"geometry":{"type":"Polygon","coordinates":[[[19.821317,49.999738],[19.821503,49.999697],[19.821552,49.999787],[19.821365,49.999829],[19.821317,49.999738]]]}},{"type":"Feature","id":"w1257776861","properties":{"type":"yes","residential":true,"residents_est":2,"h3_10":"8a1e05b59a87fff","h3_11":"8b1e05b59a84fff"},"geometry":{"type":"Polygon","coordinates":[[[19.815982,49.993939],[19.816105,49.993895],[19.816191,49.993993],[19.816068,49.994038],[19.815982,49.993939]]]}},{"type":"Feature","id":"w1264203176","properties":{"type":"house","residential":true,"residents_est":6,"h3_10":"8a1e05b59b0ffff","h3_11":"8b1e05b59b0efff"},"geometry":{"type":"Polygon","coordinates":[[[19.817399,49.998259],[19.817425,49.998145],[19.817592,49.998161],[19.817566,49.998275],[19.817399,49.998259]]]}},{"type":"Feature","id":"w1264203177","properties":{"type":"house","residential":true,"residents_est":6,"h3_10":"8a1e05b59b0ffff","h3_11":"8b1e05b59b0efff"},"geometry":{"type":"Polygon","coordinates":[[[19.817777,49.998304],[19.817809,49.998195],[19.817969,49.998214],[19.817937,49.998323],[19.817777,49.998304]]]}},{"type":"Feature","id":"w1308410307","properties":{"type":"yes","residential":false,"residents_est":0,"h3_10":"8a1e05b59b27fff","h3_11":"8b1e05b59b20fff"},"geometry":{"type":"Polygon","coordinates":[[[19.816334,49.99971],[19.816349,49.99967],[19.816435,49.999683],[19.816419,49.999724],[19.816334,49.99971]]]}},{"type":"Feature","id":"w1459242314","properties":{"type":"yes","residential":true,"residents_est":1,"h3_10":"8a1e05b59a57fff","h3_11":"8b1e05b59a52fff"},"geometry":{"type":"Polygon","coordinates":[[[19.822053,49.994887],[19.82206,49.994825],[19.822164,49.99483],[19.822157,49.994892],[19.822053,49.994887]]]}},{"type":"Feature","id":"w1459242315","properties":{"type":"yes","residential":true,"residents_est":1,"h3_10":"8a1e05b59aeffff","h3_11":"8b1e05b59aecfff"},"geometry":{"type":"Polygon","coordinates":[[[19.822387,49.99469],[19.822398,49.994611],[19.822494,49.994617],[19.822483,49.994695],[19.822387,49.99469]]]}},{"type":"Feature","id":"w1459242318","properties":{"type":"yes","residential":true,"residents_est":1,"h3_10":"8a1e05b59a5ffff","h3_11":"8b1e05b59a5afff"},"geometry":{"type":"Polygon","coordinates":[[[19.823773,49.994705],[19.82379,49.994624],[19.823852,49.994629],[19.823836,49.99471],[19.823773,49.994705]]]}},{"type":"Feature","id":"w1459242319","properties":{"type":"yes","residential":true,"residents_est":2,"h3_10":"8a1e05b59a5ffff","h3_11":"8b1e05b59a5efff"},"geometry":{"type":"Polygon","coordinates":[[[19.823735,49.994957],[19.823748,49.994914],[19.823863,49.994929],[19.82385,49.994971],[19.823735,49.994957]]]}},{"type":"Feature","id":"w1459242320","properties":{"type":"yes","residential":false,"residents_est":0,"h3_10":"8a1e05b59aeffff","h3_11":"8b1e05b59aecfff"},"geometry":{"type":"Polygon","coordinates":[[[19.822685,49.994697],[19.822696,49.994642],[19.822766,49.994648],[19.822755,49.994703],[19.822685,49.994697]]]}},{"type":"Feature","id":"w1459242321","properties":{"type":"yes","residential":true,"residents_est":1,"h3_10":"8a1e05b59aeffff","h3_11":"8b1e05b59aecfff"},"geometry":{"type":"Polygon","coordinates":[[[19.822212,49.994588],[19.82222,49.994513],[19.822299,49.994517],[19.822291,49.994592],[19.822212,49.994588]]]}},{"type":"Feature","id":"w1459255680","properties":{"type":"house","residential":true,"residents_est":4,"h3_10":"8a1e05b59a37fff","h3_11":"8b1e05b59a34fff"},"geometry":{"type":"Polygon","coordinates":[[[19.816939,49.996747],[19.816997,49.996671],[19.81715,49.99672],[19.817093,49.996795],[19.816939,49.996747]]]}}]}