{"type":"FeatureCollection","features":[{"type":"Feature","id":"w48306888","properties":{"type":"retail","levels":2.0,"address":"Generała Henryka Kamieńskiego 11","name":"Bonarka City Center","residential":false,"residents_est":0,"h3_10":"8a1e2e695077fff","h3_11":"8b1e2e695076fff"},"geometry":{"type":"Polygon","coordinates":[[[19.94853,50.028771],[19.948601,50.028417],[19.948646,50.028421],[19.948659,50.028358],[19.948613,50.028354],[19.948693,50.027948],[19.948583,50.02794],[19.948644,50.027604],[19.948649,50.027604],[19.948763,50.027035],[19.949323,50.027083],[19.949296,50.027218],[19.949402,50.027227],[19.949399,50.027237],[19.949452,50.027242],[19.94948,50.027096],[19.94983,50.027125],[19.949825,50.02715],[19.949982,50.027163],[19.949974,50.0272],[19.950087,50.027209],[19.9501,50.027148],[19.950326,50.027167],[19.950343,50.027075],[19.950454,50.027084],[19.950459,50.027061],[19.95049,50.027063],[19.950504,50.026995],[19.950361,50.026984],[19.950393,50.026806],[19.95051,50.026816],[19.950481,50.02696],[19.950703,50.026977],[19.950701,50.026987],[19.950689,50.026986],[19.950684,50.02701],[19.950717,50.027014],[19.950729,50.027],[19.95076,50.026993],[19.95079,50.027007],[19.950793,50.02702],[19.950835,50.027024],[19.950839,50.027005],[19.950856,50.02698],[19.950878,50.026969],[19.950907,50.026968],[19.950929,50.026978],[19.950945,50.026994],[19.950962,50.027034],[19.951013,50.027039],[19.951026,50.027037],[19.95103,50.027014],[19.951018,50.027013],[19.95102,50.027003],[19.951241,50.027023],[19.95127,50.026879],[19.95217,50.026954],[19.9521,50.02731],[19.952875,50.027374],[19.952749,50.028005],[19.953416,50.028246],[19.953489,50.028161],[19.953587,50.028196],[19.953552,50.028237],[19.953599,50.028238],[19.953645,50.028249],[19.953699,50.028284],[19.953901,50.028702],[19.953569,50.028767],[19.953561,50.028752],[19.953512,50.028762],[19.953509,50.028779],[19.953489,50.02879],[19.953463,50.028791],[19.953439,50.028776],[19.953306,50.028802],[19.953359,50.028947],[19.953312,50.028952],[19.953347,50.029091],[19.95338,50.029088],[19.953379,50.029083],[19.953392,50.029081],[19.953401,50.029128],[19.953345,50.029133],[19.953294,50.028927],[19.953039,50.028977],[19.952997,50.028973],[19.953,50.028959],[19.952964,50.028956],[19.952946,50.029044],[19.95287,50.029038],[19.952872,50.02903],[19.952744,50.029018],[19.952708,50.028995],[19.952701,50.028978],[19.952668,50.028976],[19.952653,50.029049],[19.951594,50.028963],[19.95159,50.028983],[19.951729,50.028995],[19.951719,50.029063],[19.95152,50.029046],[19.95154,50.028958],[19.950579,50.02888],[19.950563,50.028956],[19.950533,50.028953],[19.950526,50.028987],[19.950515,50.029006],[19.950488,50.029023],[19.95045,50.029031],[19.95013,50.029005],[19.950106,50.028998],[19.950083,50.028982],[19.950071,50.028957],[19.950093,50.02884],[19.949871,50.028821],[19.949885,50.02875],[19.949125,50.028687],[19.94911,50.028758],[19.949057,50.028754],[19.949048,50.028753],[19.949063,50.028682],[19.948787,50.028659],[19.948775,50.028721],[19.948831,50.028729],[19.948824,50.028763],[19.94873,50.028756],[19.948723,50.028788],[19.94853,50.028771]]]}},{"type":"Feature","id":"w139505587","properties":{"type":"train_station","address":"Księdza Józefa Tischnera 12","name":"Dworzec PKP Kraków Bonarka","residential":false,"residents_est":0,"h3_10":"8a1e2e695117fff","h3_11":"8b1e2e695111fff"},"geometry":{"type":"Polygon","coordinates":[[[19.945388,50.029317],[19.945509,50.029261],[19.945687,50.029421],[19.945566,50.029478],[19.945512,50.029428],[19.945486,50.02944],[19.945414,50.029376],[19.945442,50.029364],[19.945388,50.029317]]]}},{"type":"Feature","id":"w150077027","properties":{"type":"office","levels":7.0,"address":"Puszkarska 7g","name":"Budynek B","residential":false,"residents_est":0,"h3_10":"8a1e2e6950e7fff","h3_11":"8b1e2e6950e5fff"},"geometry":{"type":"Polygon","coordinates":[[[19.950628,50.026227],[19.950672,50.026003],[19.951431,50.026066],[19.951391,50.026266],[19.951195,50.02625],[19.951175,50.02626],[19.951165,50.026257],[19.951161,50.026247],[19.950976,50.026232],[19.950971,50.026256],[19.950628,50.026227]]]}},{"type":"Feature","id":"w150077028","properties":{"type":"office","levels":7.0,"address":"Puszkarska 7f","name":"Budynek A","residential":false,"residents_est":0,"h3_10":"8a1e2e6950e7fff","h3_11":"8b1e2e6950e4fff"},"geometry":{"type":"Polygon","coordinates":[[[19.949682,50.02632],[19.949721,50.026121],[19.950437,50.026181],[19.950398,50.02638],[19.950243,50.026367],[19.950224,50.026377],[19.950212,50.026372],[19.950209,50.026364],[19.949682,50.02632]]]}},{"type":"Feature","id":"w150648436","properties":{"type":"roof","name":"Auchan","residential":false,"residents_est":0,"h3_10":"8a1e2e69506ffff","h3_11":"8b1e2e69506cfff"},"geometry":{"type":"Polygon","coordinates":[[[19.954614,50.028719],[19.954722,50.028699],[19.954858,50.028998],[19.954751,50.029018],[19.954614,50.028719]]]}},{"type":"Feature","id":"w154786350","properties":{"type":"garage","residential":false,"residents_est":0,"h3_10":"8a1e2e695137fff","h3_11":"8b1e2e695130fff"},"geometry":{"type":"Polygon","coordinates":[[[19.944525,50.030231],[19.944665,50.030206],[19.944768,50.030452],[19.944629,50.030476],[19.944525,50.030231]]]}},{"type":"Feature","id":"w154786576","properties":{"type":"yes","residential":true,"residents_est":3,"h3_10":"8a1e2e695137fff","h3_11":"8b1e2e695130fff"},"geometry":{"type":"Polygon","coordinates":[[[19.944359,50.030542],[19.944569,50.030509],[19.944601,50.030592],[19.94439,50.030625],[19.944359,50.030542]]]}},{"type":"Feature","id":"w154857950","properties":{"type":"office","address":"Łagiewnicka 60","name":"TAURON Obsługa Klienta - POK Kraków Podgórze","residential":false,"residents_est":0,"h3_10":"8a1e2e695137fff","h3_11":"8b1e2e695136fff"},"geometry":{"type":"Polygon","coordinates":[[[19.943071,50.030454],[19.943135,50.030315],[19.943276,50.030342],[19.943306,50.030251],[19.943315,50.030253],[19.943312,50.030263],[19.943405,50.03028],[19.943409,50.030271],[19.943419,50.030273],[19.943355,50.030412],[19.943472,50.030434],[19.943441,50.030351],[19.943613,50.030324],[19.943669,50.03047],[19.9437,50.030476],[19.943684,50.030511],[19.943754,50.030697],[19.94373,50.0307],[19.94374,50.030725],[19.943719,50.030729],[19.943722,50.030741],[19.943689,50.030746],[19.943685,50.030734],[19.943616,50.030744],[19.943607,50.03072],[19.943583,50.030724],[19.943513,50.030539],[19.943314,50.030502],[19.943275,50.030589],[19.943265,50.030587],[19.94327,50.030578],[19.943177,50.03056],[19.943171,50.03057],[19.943162,50.030568],[19.943213,50.030481],[19.943071,50.030454]]]}},{"type":"Feature","id":"w155475449","properties":{"type":"yes","levels":4.0,"residential":true,"residents_est":11,"h3_10":"8a1e2e695157fff","h3_11":"8b1e2e695156fff"},"geometry":{"type":"Polygon","coordinates":[[[19.948878,50.02934],[19.948935,50.029268],[19.949013,50.029294],[19.94902,50.029285],[19.949279,50.029372],[19.949217,50.02945],[19.948878,50.02934]]]}},{"type":"Feature","id":"w155475451","properties":{"type":"yes","levels":3.0,"address":"Puszkarska 3","residential":true,"residents_est":6,"h3_10":"8a1e2e69510ffff","h3_11":"8b1e2e69510efff"},"geometry":{"type":"Polygon","coordinates":[[[19.946983,50.0295],[19.947188,50.02944],[19.947252,50.02953],[19.947047,50.02959],[19.946983,50.0295]]]}},{"type":"Feature","id":"w155475452","properties":{"type":"yes","levels":2.0,"address":"Puszkarska 3a","residential":true,"residents_est":4,"h3_10":"8a1e2e69510ffff","h3_11":"8b1e2e69510afff"},"geometry":{"type":"Polygon","coordinates":[[[19.947206,50.029215],[19.947412,50.029159],[19.947474,50.029251],[19.947268,50.029308],[19.947206,50.029215]]]}},{"type":"Feature","id":"w155475479","properties":{"type":"chimney","residential":false,"residents_est":0,"h3_10":"8a1e2e695057fff","h3_11":"8b1e2e695052fff"},"geometry":{"type":"Polygon","coordinates":[[[19.951902,50.026441],[19.951905,50.026428],[19.951919,50.026415],[19.95195,50.026406],[19.951995,50.02642],[19.952005,50.026442],[19.951988,50.026463],[19.951951,50.026471],[19.951916,50.026461],[19.951902,50.026441]]]}},{"type":"Feature","id":"w191119459","properties":{"type":"yes","residential":true,"residents_est":12,"h3_10":"8a1e2e695097fff","h3_11":"8b1e2e695094fff"},"geometry":{"type":"Polygon","coordinates":[[[19.943948,50.024361],[19.944061,50.024352],[19.944066,50.024379],[19.944102,50.024377],[19.944107,50.024401],[19.944137,50.024399],[19.944133,50.024374],[19.94422,50.024368],[19.944241,50.024501],[19.943955,50.024522],[19.943953,50.024514],[19.943959,50.024519],[19.94398,50.024517],[19.943948,50.024361]]]}},{"type":"Feature","id":"w191119462","properties":{"type":"yes","address":"Aleksandra Fredry 14 B c d e","residential":true,"residents_est":13,"h3_10":"8a1e2e695097fff","h3_11":"8b1e2e695096fff"},"geometry":{"type":"Polygon","coordinates":[[[19.943934,50.024087],[19.944199,50.024083],[19.944204,50.024217],[19.944116,50.024218],[19.944115,50.024193],[19.944085,50.024194],[19.944086,50.024219],[19.944049,50.024219],[19.94405,50.024246],[19.943937,50.024248],[19.943934,50.024087]]]}},{"type":"Feature","id":"w191119465","properties":{"type":"yes","residential":true,"residents_est":12,"h3_10":"8a1e2e695097fff","h3_11":"8b1e2e695090fff"},"geometry":{"type":"Polygon","coordinates":[[[19.944464,50.024079],[19.944751,50.024075],[19.944756,50.024203],[19.94469,50.024203],[19.94469,50.024191],[19.944466,50.024196],[19.944464,50.024079]]]}},{"type":"Feature","id":"w191119467","properties":{"type":"yes","residential":true,"residents_est":11,"h3_10":"8a1e2e695097fff","h3_11":"8b1e2e695090fff"},"geometry":{"type":"Polygon","coordinates":[[[19.944485,50.024364],[19.944707,50.024348],[19.944706,50.024338],[19.94477,50.024333],[19.944793,50.024455],[19.944813,50.024454],[19.944816,50.024448],[19.944818,50.024457],[19.94451,50.02448],[19.944493,50.024371],[19.944485,50.024364]]]}},{"type":"Feature","id":"w191191309","properties":{"type":"yes","address":"Aleksandra Fredry 4b","residential":true,"residents_est":12,"h3_10":"8a1e2e695197fff","h3_11":"8b1e2e695191fff"},"geometry":{"type":"Polygon","coordinates":[[[19.942867,50.026663],[19.942884,50.026607],[19.94342,50.02667],[19.943423,50.026659],[19.943447,50.026662],[19.943431,50.026734],[19.942867,50.026663]]]}},{"type":"Feature","id":"w191191310","properties":{"type":"yes","address":"Aleksandra Fredry 2a","residential":true,"residents_est":143,"h3_10":"8a1e2e695197fff","h3_11":"8b1e2e695195fff"},"geometry":{"type":"Polygon","coordinates":[[[19.94201,50.027181],[19.942152,50.026776],[19.94315,50.026916],[19.943012,50.027323],[19.94201,50.027181]]]}},{"type":"Feature","id":"w191191403","properties":{"type":"yes","residential":true,"residents_est":1,"h3_10":"8a1e2e6951b7fff","h3_11":"8b1e2e6951b4fff"},"geometry":{"type":"Polygon","coordinates":[[[19.941549,50.028086],[19.941582,50.028033],[19.941689,50.028061],[19.941654,50.028117],[19.941549,50.028086]]]}},{"type":"Feature","id":"w191191410","properties":{"type":"yes","address":"Aleksandra Fredry 4a","residential":true,"residents_est":14,"h3_10":"8a1e2e69519ffff","h3_11":"8b1e2e69519cfff"},"geometry":{"type":"Polygon","coordinates":[[[19.943818,50.026783],[19.943866,50.026619],[19.943832,50.026614],[19.943842,50.026582],[19.943876,50.026587],[19.943904,50.026496],[19.94404,50.026513],[19.943956,50.0268],[19.943818,50.026783]]]}},{"type":"Feature","id":"w191191447","properties":{"type":"yes","address":"Aleksandra Fredry 2","residential":true,"residents_est":15,"h3_10":"8a1e2e695197fff","h3_11":"8b1e2e695196fff"},"geometry":{"type":"Polygon","coordinates":[[[19.941573,50.027036],[19.941644,50.026812],[19.941638,50.026811],[19.941646,50.026782],[19.941654,50.026783],[19.941659,50.026767],[19.94168,50.026769],[19.941697,50.026714],[19.941811,50.026729],[19.941707,50.027054],[19.941573,50.027036]]]}},{"type":"Feature","id":"w191191449","properties":{"type":"retail","levels":1.0,"residential":false,"residents_est":0,"h3_10":"8a1e2e6951b7fff","h3_11":"8b1e2e6951b6fff"},"geometry":{"type":"Polygon","coordinates":[[[19.941026,50.027987],[19.941033,50.027938],[19.941089,50.027934],[19.941108,50.028047],[19.941037,50.028051],[19.941026,50.027987]]]}},{"type":"Feature","id":"w198237544","properties":{"type":"office","levels":7.0,"address":"Puszkarska 7i","name":"Budynek D","residential":false,"residents_est":0,"h3_10":"8a1e2e695057fff","h3_11":"8b1e2e695053fff"},"geometry":{"type":"Polygon","coordinates":[[[19.952426,50.026701],[19.952534,50.026156],[19.952849,50.026182],[19.952741,50.026726],[19.952426,50.026701]]]}},{"type":"Feature","id":"w198237545","properties":{"type":"office","levels":7.0,"address":"Puszkarska 7h","name":"Budynek C","residential":false,"residents_est":0,"h3_10":"8a1e2e695057fff","h3_11":"8b1e2e695052fff"},"geometry":{"type":"Polygon","coordinates":[[[19.951546,50.026279],[19.951586,50.026079],[19.952344,50.026142],[19.952304,50.026341],[19.951889,50.026307],[19.951884,50.026331],[19.951625,50.02631],[19.951629,50.026286],[19.951546,50.026279]]]}},{"type":"Feature","id":"w309101003","properties":{"type":"yes","residential":true,"residents_est":2,"h3_10":"8a1e2e69516ffff","h3_11":"8b1e2e69516afff"},"geometry":{"type":"Polygon","coordinates":[[[19.952353,50.030538],[19.952365,50.030501],[19.952383,50.030503],[19.952393,50.030474],[19.952494,50.030487],[19.952461,50.030589],[19.95236,50.030575],[19.952371,50.030541],[19.952353,50.030538]]]}},{"type":"Feature","id":"w309101012","properties":{"type":"service","residential":false,"residents_est":0,"h3_10":"8a1e2e695147fff","h3_11":"8b1e2e695145fff"},"geometry":{"type":"Polygon","coordinates":[[[19.95159,50.030327],[19.951658,50.030311],[19.951683,50.030355],[19.951615,50.030371],[19.95159,50.030327]]]}},{"type":"Feature","id":"w309101015","properties":{"type":"yes","residential":true,"residents_est":4,"h3_10":"8a1e2e69514ffff","h3_11":"8b1e2e69514cfff"},"geometry":{"type":"Polygon","coordinates":[[[19.952385,50.030328],[19.952413,50.030237],[19.952634,50.030263],[19.952606,50.03036],[19.952385,50.030328]]]}},{"type":"Feature","id":"w309101017","properties":{"type":"yes","residential":true,"residents_est":3,"h3_10":"8a1e2e69516ffff","h3_11":"8b1e2e69516bfff"},"geometry":{"type":"Polygon","coordinates":[[[19.952596,50.030404],[19.95266,50.030276],[19.952758,50.030296],[19.952694,50.030425],[19.952596,50.030404]]]}},{"type":"Feature","id":"w309380741","properties":{"type":"yes","levels":1.0,"residential":true,"residents_est":6,"h3_10":"8a1e2e695047fff","h3_11":"8b1e2e695041fff"},"geometry":{"type":"Polygon","coordinates":[[[19.953763,50.027626],[19.953808,50.027573],[19.954063,50.027664],[19.954089,50.027634],[19.954474,50.027774],[19.95438,50.027884],[19.953993,50.027746],[19.954017,50.027718],[19.953763,50.027626]]]}},{"type":"Feature","id":"w309380743","properties":{"type":"yes","levels":1.0,"residential":true,"residents_est":10,"h3_10":"8a1e2e695047fff","h3_11":"8b1e2e695045fff"},"geometry":{"type":"Polygon","coordinates":[[[19.953291,50.027829],[19.95346,50.027635],[19.953962,50.027813],[19.953895,50.027891],[19.953774,50.027848],[19.953745,50.027883],[19.953862,50.02793],[19.953796,50.028008],[19.953291,50.027829]]]}},{"type":"Feature","id":"w309380748","properties":{"type":"yes","levels":3.0,"residential":true,"residents_est":115,"h3_10":"8a1e2e69500ffff","h3_11":"8b1e2e69500efff"},"geometry":{"type":"Polygon","coordinates":[[[19.949206,50.027071],[19.949277,50.026714],[19.950393,50.026807],[19.950361,50.026984],[19.950504,50.026995],[19.95049,50.027063],[19.950459,50.027061],[19.950454,50.027084],[19.950343,50.027075],[19.950326,50.027167],[19.9501,50.027148],[19.950087,50.027209],[19.949974,50.0272],[19.949982,50.027163],[19.949825,50.02715],[19.94983,50.027125],[19.94948,50.027096],[19.949452,50.027242],[19.949399,50.027237],[19.949402,50.027227],[19.949296,50.027218],[19.949323,50.027083],[19.949206,50.027071]]]}},{"type":"Feature","id":"w309380750","properties":{"type":"yes","levels":1.0,"residential":true,"residents_est":4,"h3_10":"8a1e2e69515ffff","h3_11":"8b1e2e695159fff"},"geometry":{"type":"Polygon","coordinates":[[[19.95159,50.028983],[19.951594,50.028963],[19.952551,50.029042],[19.952539,50.029086],[19.952461,50.02908],[19.952458,50.029096],[19.952409,50.029113],[19.952374,50.029073],[19.952103,50.029051],[19.95209,50.029111],[19.951948,50.0291],[19.951892,50.029033],[19.951792,50.029025],[19.951783,50.029054],[19.95179,50.029023],[19.951724,50.029018],[19.951729,50.028995],[19.95159,50.028983]]]}},{"type":"Feature","id":"w309380753","properties":{"type":"yes","levels":3.0,"residential":true,"residents_est":22,"h3_10":"8a1e2e695047fff","h3_11":"8b1e2e695044fff"},"geometry":{"type":"Polygon","coordinates":[[[19.952749,50.028005],[19.952769,50.027901],[19.952796,50.027911],[19.952805,50.027901],[19.9535,50.02815],[19.953416,50.028246],[19.952749,50.028005]]]}},{"type":"Feature","id":"w309380758","properties":{"type":"yes","levels":1.0,"residential":true,"residents_est":1,"h3_10":"8a1e2e69515ffff","h3_11":"8b1e2e69515efff"},"geometry":{"type":"Polygon","coordinates":[[[19.950646,50.028914],[19.950651,50.028885],[19.950869,50.028903],[19.95074,50.02898],[19.950646,50.028914]]]}},{"type":"Feature","id":"w309380760","properties":{"type":"yes","levels":1.0,"residential":true,"residents_est":1,"h3_10":"8a1e2e69515ffff","h3_11":"8b1e2e69515dfff"},"geometry":{"type":"Polygon","coordinates":[[[19.951776,50.029423],[19.95186,50.029269],[19.951944,50.029289],[19.951859,50.029442],[19.951776,50.029423]]]}},{"type":"Feature","id":"w309380762","properties":{"type":"yes","levels":1.0,"residential":true,"residents_est":1,"h3_10":"8a1e2e69514ffff","h3_11":"8b1e2e69514afff"},"geometry":{"type":"Polygon","coordinates":[[[19.952676,50.029471],[19.952703,50.029418],[19.952909,50.029457],[19.952883,50.029511],[19.952676,50.029471]]]}},{"type":"Feature","id":"w309380767","properties":{"type":"yes","levels":1.0,"residential":false,"residents_est":0,"h3_10":"8a1e2e69514ffff","h3_11":"8b1e2e69514afff"},"geometry":{"type":"Polygon","coordinates":[[[19.952486,50.029389],[19.952497,50.029365],[19.95264,50.029391],[19.952629,50.029415],[19.952486,50.029389]]]}},{"type":"Feature","id":"w309380768","properties":{"type":"roof","residential":false,"residents_est":0,"h3_10":"8a1e2e69500ffff","h3_11":"8b1e2e695009fff"},"geometry":{"type":"Polygon","coordinates":[[[19.950684,50.02701],[19.950689,50.026986],[19.950701,50.026987],[19.950703,50.026977],[19.950691,50.026976],[19.950704,50.026905],[19.951047,50.026933],[19.951032,50.027004],[19.95102,50.027003],[19.951018,50.027013],[19.95103,50.027014],[19.951026,50.027037],[19.950962,50.027034],[19.950959,50.027018],[19.950938,50.026986],[19.950919,50.026972],[19.950892,50.026966],[19.950856,50.02698],[19.950839,50.027005],[19.950835,50.027024],[19.950793,50.02702],[19.95079,50.027007],[19.95076,50.026993],[19.950729,50.027],[19.950717,50.027014],[19.950684,50.02701]]]}},{"type":"Feature","id":"w309380769","properties":{"type":"yes","levels":1.0,"residential":true,"residents_est":2,"h3_10":"8a1e2e695047fff","h3_11":"8b1e2e695045fff"},"geometry":{"type":"Polygon","coordinates":[[[19.953694,50.027667],[19.953737,50.027617],[19.954017,50.027718],[19.953975,50.027767],[19.953694,50.027667]]]}},{"type":"Feature","id":"w309380770","properties":{"type":"roof","residential":false,"residents_est":0,"h3_10":"8a1e2e6950e7fff","h3_11":"8b1e2e6950e4fff"},"geometry":{"type":"Polygon","coordinates":[[[19.950186,50.026448],[19.950189,50.026431],[19.950196,50.026432],[19.950205,50.026388],[19.950236,50.02639],[19.950224,50.026451],[19.950186,50.026448]]]}},{"type":"Feature","id":"w309380772","properties":{"type":"yes","levels":1.0,"residential":true,"residents_est":2,"h3_10":"8a1e2e69515ffff","h3_11":"8b1e2e695158fff"},"geometry":{"type":"Polygon","coordinates":[[[19.950951,50.028942],[19.950958,50.028909],[19.95154,50.028958],[19.951528,50.029003],[19.95097,50.028956],[19.950951,50.028942]]]}},{"type":"Feature","id":"w309380778","properties":{"type":"roof","residential":false,"residents_est":0,"h3_10":"8a1e2e69506ffff","h3_11":"8b1e2e69506cfff"},"geometry":{"type":"Polygon","coordinates":[[[19.954855,50.028668],[19.954923,50.028655],[19.95495,50.028715],[19.954937,50.028718],[19.954926,50.028696],[19.954885,50.028703],[19.954896,50.028726],[19.954882,50.028728],[19.954855,50.028668]]]}},{"type":"Feature","id":"w309380780","properties":{"type":"yes","levels":3.0,"residential":false,"residents_est":0,"h3_10":"8a1e2e695067fff","h3_11":"8b1e2e695064fff"},"geometry":{"type":"Polygon","coordinates":[[[19.952526,50.029137],[19.952541,50.029074],[19.952588,50.029078],[19.952575,50.029141],[19.952526,50.029137]]]}},{"type":"Feature","id":"w309382253","properties":{"type":"yes","residential":false,"residents_est":0,"h3_10":"8a1e2e695157fff","h3_11":"8b1e2e695151fff"},"geometry":{"type":"Polygon","coordinates":[[[19.950426,50.029195],[19.950452,50.029139],[19.950497,50.029148],[19.950471,50.029204],[19.950426,50.029195]]]}},{"type":"Feature","id":"w309382254","properties":{"type":"garage","residential":false,"residents_est":0,"h3_10":"8a1e2e69511ffff","h3_11":"8b1e2e69511dfff"},"geometry":{"type":"Polygon","coordinates":[[[19.946853,50.029344],[19.946919,50.029327],[19.946934,50.029352],[19.946868,50.029369],[19.946853,50.029344]]]}},{"type":"Feature","id":"w309382256","properties":{"type":"garage","residential":false,"residents_est":0,"h3_10":"8a1e2e69511ffff","h3_11":"8b1e2e69511dfff"},"geometry":{"type":"Polygon","coordinates":[[[19.946798,50.029271],[19.946869,50.029241],[19.946893,50.029265],[19.946822,50.029294],[19.946798,50.029271]]]}},{"type":"Feature","id":"w309382259","properties":{"type":"garage","residential":false,"residents_est":0,"h3_10":"8a1e2e69511ffff","h3_11":"8b1e2e69511dfff"},"geometry":{"type":"Polygon","coordinates":[[[19.946824,50.029298],[19.946901,50.029277],[19.946917,50.029302],[19.94684,50.029322],[19.946824,50.029298]]]}},{"type":"Feature","id":"w309382261","properties":{"type":"garage","residential":false,"residents_est":0,"h3_10":"8a1e2e69511ffff","h3_11":"8b1e2e69511dfff"},"geometry":{"type":"Polygon","coordinates":[[[19.946877,50.029382],[19.946954,50.029361],[19.946971,50.029385],[19.946894,50.029407],[19.946877,50.029382]]]}},{"type":"Feature","id":"w309639282","properties":{"type":"roof","residential":false,"residents_est":0,"h3_10":"8a1e2e6951b7fff","h3_11":"8b1e2e6951b6fff"},"geometry":{"type":"Polygon","coordinates":[[[19.9411,50.027995],[19.941151,50.027993],[19.941138,50.027906],[19.94115,50.027898],[19.941326,50.027945],[19.941354,50.028115],[19.941108,50.028047],[19.9411,50.027995]]]}},{"type":"Feature","id":"w309654836","properties":{"type":"yes","residential":false,"residents_est":0,"h3_10":"8a1e2e6951b7fff","h3_11":"8b1e2e6951b6fff"},"geometry":{"type":"Polygon","coordinates":[[[19.941095,50.027716],[19.941129,50.027662],[19.941192,50.027678],[19.941159,50.027732],[19.941095,50.027716]]]}},{"type":"Feature","id":"w340949441","properties":{"type":"yes","residential":true,"residents_est":3,"h3_10":"8a1e2e695097fff","h3_11":"8b1e2e695094fff"},"geometry":{"type":"Polygon","coordinates":[[[19.944232,50.024444],[19.944501,50.024426],[19.94451,50.02448],[19.944241,50.024501],[19.944232,50.024444]]]}},{"type":"Feature","id":"w340949451","properties":{"type":"yes","residential":true,"residents_est":2,"h3_10":"8a1e2e695187fff","h3_11":"8b1e2e695180fff"},"geometry":{"type":"Polygon","coordinates":[[[19.943887,50.02761],[19.943937,50.027451],[19.944005,50.02746],[19.943955,50.027619],[19.943887,50.02761]]]}},{"type":"Feature","id":"w340949467","properties":{"type":"yes","residential":true,"residents_est":2,"h3_10":"8a1e2e695187fff","h3_11":"8b1e2e695185fff"},"geometry":{"type":"Polygon","coordinates":[[[19.943814,50.027669],[19.943834,50.027615],[19.943999,50.027639],[19.943983,50.027692],[19.943814,50.027669]]]}},{"type":"Feature","id":"w340949536","properties":{"type":"yes","residential":true,"residents_est":3,"h3_10":"8a1e2e69519ffff","h3_11":"8b1e2e69519dfff"},"geometry":{"type":"Polygon","coordinates":[[[19.944099,50.026709],[19.944168,50.02647],[19.944236,50.026478],[19.944168,50.026717],[19.944099,50.026709]]]}},{"type":"Feature","id":"w340949564","properties":{"type":"yes","residential":false,"residents_est":0,"h3_10":"8a1e2e69519ffff","h3_11":"8b1e2e69519cfff"},"geometry":{"type":"Polygon","coordinates":[[[19.943279,50.026752],[19.94329,50.026717],[19.943361,50.026725],[19.943351,50.02676],[19.943279,50.026752]]]}},{"type":"Feature","id":"w340949597","properties":{"type":"yes","address":"Aleksandra Fredry 4f","residential":true,"residents_est":49,"h3_10":"8a1e2e6950b7fff","h3_11":"8b1e2e6950b3fff"},"geometry":{"type":"Polygon","coordinates":[[[19.944138,50.025006],[19.944145,50.024966],[19.944166,50.024968],[19.944179,50.024885],[19.944173,50.024885],[19.94418,50.02488],[19.944195,50.024788],[19.944382,50.024796],[19.944444,50.024805],[19.944432,50.024877],[19.944411,50.024875],[19.944406,50.024909],[19.944427,50.02491],[19.944422,50.024938],[19.944376,50.024935],[19.944369,50.024981],[19.94446,50.024987],[19.944471,50.024981],[19.944491,50.024982],[19.944492,50.024976],[19.944538,50.024979],[19.944537,50.024985],[19.944647,50.024992],[19.944651,50.024965],[19.944666,50.024966],[19.944669,50.024947],[19.944623,50.024944],[19.944637,50.024864],[19.944761,50.024868],[19.944757,50.024894],[19.944858,50.0249],[19.944833,50.025024],[19.94482,50.025022],[19.944815,50.025047],[19.944828,50.025047],[19.944816,50.025106],[19.944795,50.025104],[19.944791,50.025126],[19.944667,50.025117],[19.944669,50.025107],[19.944604,50.025102],[19.944601,50.025118],[19.944593,50.025118],[19.944595,50.025102],[19.944544,50.025098],[19.944541,50.025114],[19.944484,50.025111],[19.944485,50.025105],[19.944444,50.025103],[19.944438,50.025108],[19.944439,50.025099],[19.944414,50.025097],[19.944406,50.025105],[19.944368,50.025102],[19.944371,50.025087],[19.944306,50.025083],[19.944304,50.025093],[19.944168,50.025084],[19.944171,50.025062],[19.94415,50.025061],[19.944159,50.025008],[19.944138,50.025006]]]}},{"type":"Feature","id":"w340949601","properties":{"type":"yes","residential":true,"residents_est":3,"h3_10":"8a1e2e695187fff","h3_11":"8b1e2e695182fff"},"geometry":{"type":"Polygon","coordinates":[[[19.943012,50.027323],[19.943085,50.027107],[19.943163,50.027118],[19.94309,50.027335],[19.943012,50.027323]]]}},{"type":"Feature","id":"w340949607","properties":{"type":"yes","residential":true,"residents_est":25,"h3_10":"8a1e2e695197fff","h3_11":"8b1e2e695194fff"},"geometry":{"type":"Polygon","coordinates":[[[19.941716,50.02703],[19.941747,50.026939],[19.941988,50.026972],[19.942027,50.026848],[19.941784,50.026816],[19.941811,50.026729],[19.942152,50.026776],[19.942048,50.027074],[19.941716,50.02703]]]}},{"type":"Feature","id":"w454454777","properties":{"type":"office","levels":8.0,"address":"Puszkarska 7j","name":"Budynek E","residential":false,"residents_est":0,"h3_10":"8a1e2e69505ffff","h3_11":"8b1e2e69505cfff"},"geometry":{"type":"Polygon","coordinates":[[[19.953094,50.026719],[19.953136,50.026507],[19.95393,50.026572],[19.953888,50.026784],[19.953094,50.026719]]]}},{"type":"Feature","id":"w491342428","properties":{"type":"office","levels":8.0,"address":"Puszkarska 7k","name":"Budynek F","residential":false,"residents_est":0,"h3_10":"8a1e2e69505ffff","h3_11":"8b1e2e69505dfff"},"geometry":{"type":"Polygon","coordinates":[[[19.954099,50.026801],[19.954139,50.026589],[19.954939,50.026652],[19.954898,50.026864],[19.954099,50.026801]]]}},{"type":"Feature","id":"w491342429","properties":{"type":"office","levels":8.0,"address":"Puszkarska 7l","name":"Budynek G","residential":false,"residents_est":0,"h3_10":"8a1e2e69505ffff","h3_11":"8b1e2e69505bfff"},"geometry":{"type":"Polygon","coordinates":[[[19.953859,50.026301],[19.953894,50.026135],[19.953907,50.026116],[19.953937,50.026107],[19.95464,50.02617],[19.954681,50.026181],[19.954688,50.026205],[19.954654,50.026363],[19.954636,50.02638],[19.954512,50.026374],[19.954387,50.026349],[19.954323,50.026344],[19.95431,50.026359],[19.953896,50.026328],[19.953875,50.026319],[19.953859,50.026301]]]}},{"type":"Feature","id":"w491342433","properties":{"type":"office","levels":8.0,"name":"Budynek H","residential":false,"residents_est":0,"h3_10":"8a1e2e6950effff","h3_11":"8b1e2e6950e8fff"},"geometry":{"type":"Polygon","coordinates":[[[19.95174,50.025809],[19.951783,50.025596],[19.95258,50.025662],[19.952542,50.025854],[19.952206,50.025826],[19.952202,50.025847],[19.95174,50.025809]]]}},{"type":"Feature","id":"w693328870","properties":{"type":"yes","residential":false,"residents_est":0,"h3_10":"8a1e2e695127fff","h3_11":"8b1e2e695120fff"},"geometry":{"type":"Polygon","coordinates":[[[19.946089,50.031176],[19.946117,50.031124],[19.946184,50.031139],[19.946156,50.031191],[19.946089,50.031176]]]}},{"type":"Feature","id":"w693328872","properties":{"type":"yes","residential":false,"residents_est":0,"h3_10":"8a1e2e695117fff","h3_11":"8b1e2e695111fff"},"geometry":{"type":"Polygon","coordinates":[[[19.945417,50.029193],[19.945479,50.029163],[19.945531,50.029208],[19.945469,50.029237],[19.945417,50.029193]]]}},{"type":"Feature","id":"w693328873","properties":{"type":"yes","residential":true,"residents_est":0,"h3_10":"8a1e2e695117fff","h3_11":"8b1e2e695111fff"},"geometry":{"type":"Polygon","coordinates":[[[19.945256,50.029161],[19.945342,50.029119],[19.94539,50.029159],[19.945304,50.029201],[19.945256,50.029161]]]}},{"type":"Feature","id":"w697298218","properties":{"type":"yes","address":"Księdza Józefa Tischnera 14","residential":true,"residents_est":24,"h3_10":"8a1e2e695107fff","h3_11":"8b1e2e695102fff"},"geometry":{"type":"Polygon","coordinates":[[[19.945708,50.029452],[19.945768,50.029424],[19.945839,50.029487],[19.945846,50.029484],[19.94599,50.029649],[19.946055,50.029737],[19.946216,50.029987],[19.946107,50.030016],[19.94597,50.029794],[19.945906,50.029704],[19.945832,50.029617],[19.945806,50.029626],[19.945723,50.029533],[19.945774,50.029513],[19.945708,50.029452]]]}},{"type":"Feature","id":"w709591224","properties":{"type":"yes","residential":true,"residents_est":2,"h3_10":"8a1e2e69516ffff","h3_11":"8b1e2e69516bfff"},"geometry":{"type":"Polygon","coordinates":[[[19.952786,50.030549],[19.95282,50.03047],[19.952981,50.030498],[19.952948,50.030577],[19.952786,50.030549]]]}},{"type":"Feature","id":"w709591225","properties":{"type":"yes","residential":true,"residents_est":2,"h3_10":"8a1e2e69516ffff","h3_11":"8b1e2e69516afff"},"geometry":{"type":"Polygon","coordinates":[[[19.952385,50.030441],[19.952398,50.030404],[19.952415,50.030406],[19.952427,50.030372],[19.952528,50.030386],[19.952494,50.030487],[19.952393,50.030474],[19.952403,50.030444],[19.952385,50.030441]]]}},{"type":"Feature","id":"w742643469","properties":{"type":"yes","name":"Kraków Bonarka KB","residential":true,"residents_est":4,"h3_10":"8a1e2e69511ffff","h3_11":"8b1e2e695118fff"},"geometry":{"type":"Polygon","coordinates":[[[19.946327,50.029098],[19.946369,50.029079],[19.946364,50.029075],[19.946387,50.029064],[19.946392,50.029068],[19.946433,50.029049],[19.946608,50.029207],[19.946567,50.029226],[19.946572,50.02923],[19.946502,50.029256],[19.946437,50.029197],[19.94642,50.029205],[19.946375,50.029165],[19.946392,50.029157],[19.946327,50.029098]]]}},{"type":"Feature","id":"w895492881","properties":{"type":"apartments","residential":true,"residents_est":92,"h3_10":"8a1e2e6950b7fff","h3_11":"8b1e2e6950b6fff"},"geometry":{"type":"Polygon","coordinates":[[[19.943259,50.02542],[19.943302,50.0252],[19.943509,50.025219],[19.943489,50.025341],[19.943698,50.025353],[19.943725,50.025231],[19.943921,50.025249],[19.943882,50.025462],[19.943259,50.02542]]]}},{"type":"Feature","id":"w900499854","properties":{"type":"garage","levels":1.0,"residential":false,"residents_est":0,"h3_10":"8a1e2e695127fff","h3_11":"8b1e2e695124fff"},"geometry":{"type":"Polygon","coordinates":[[[19.945132,50.031434],[19.945189,50.031425],[19.945283,50.031669],[19.945226,50.031679],[19.945132,50.031434]]]}},{"type":"Feature","id":"w900499897","properties":{"type":"warehouse","levels":1.0,"residential":false,"residents_est":0,"h3_10":"8a1e2e695127fff","h3_11":"8b1e2e695126fff"},"geometry":{"type":"Polygon","coordinates":[[[19.944942,50.031162],[19.945,50.031153],[19.94504,50.031258],[19.944982,50.031267],[19.944942,50.031162]]]}},{"type":"Feature","id":"w980453695","properties":{"type":"apartments","levels":8.0,"address":"Przyjaźni Polsko-Węgierskiej 6A","name":"R4Rent apartments","residential":true,"residents_est":154,"h3_10":"8a1e2e6951affff","h3_11":"8b1e2e6951abfff"},"geometry":{"type":"Polygon","coordinates":[[[19.945153,50.027889],[19.945365,50.027464],[19.945381,50.027468],[19.945406,50.027418],[19.945609,50.02746],[19.945374,50.027934],[19.945153,50.027889]]]}},{"type":"Feature","id":"w980453696","properties":{"type":"apartments","levels":8.0,"address":"Przyjaźni Polsko-Węgierskiej 6","residential":true,"residents_est":230,"h3_10":"8a1e2e6951affff","h3_11":"8b1e2e6951a9fff"},"geometry":{"type":"Polygon","coordinates":[[[19.945709,50.028367],[19.945733,50.028317],[19.945762,50.028323],[19.945786,50.028276],[19.945759,50.028271],[19.945876,50.028038],[19.945895,50.028041],[19.945919,50.027993],[19.9459,50.027989],[19.945947,50.027895],[19.945969,50.0279],[19.945993,50.027852],[19.945973,50.027848],[19.946096,50.027602],[19.946302,50.027645],[19.946109,50.028032],[19.946085,50.028027],[19.946061,50.028076],[19.946084,50.028081],[19.94592,50.02841],[19.945709,50.028367]]]}},{"type":"Feature","id":"w980453697","properties":{"type":"residential","levels":8.0,"address":"Przyjaźni Polsko-Węgierskiej 4A","residential":true,"residents_est":298,"h3_10":"8a1e2e695037fff","h3_11":"8b1e2e695034fff"},"geometry":{"type":"Polygon","coordinates":[[[19.946441,50.028755],[19.946626,50.028384],[19.946648,50.028389],[19.946671,50.02834],[19.946645,50.028335],[19.946643,50.028299],[19.946667,50.0283],[19.946669,50.028252],[19.946644,50.028252],[19.946652,50.027949],[19.946677,50.02795],[19.946678,50.027903],[19.946653,50.027902],[19.946656,50.027759],[19.946877,50.027805],[19.946866,50.02838],[19.946837,50.028375],[19.946814,50.028423],[19.946838,50.028428],[19.946655,50.028798],[19.946441,50.028755]]]}},{"type":"Feature","id":"w980453698","properties":{"type":"residential","levels":8.0,"address":"Przyjaźni Polsko-Węgierskiej 4","residential":true,"residents_est":249,"h3_10":"8a1e2e695027fff","h3_11":"8b1e2e695026fff"},"geometry":{"type":"Polygon","coordinates":[[[19.947008,50.028871],[19.947076,50.028734],[19.947286,50.028777],[19.947438,50.028473],[19.947462,50.028478],[19.947485,50.028432],[19.94746,50.028427],[19.94755,50.02825],[19.94776,50.028294],[19.947429,50.028958],[19.947008,50.028871]]]}},{"type":"Feature","id":"w1033998846","properties":{"type":"apartments","residential":true,"residents_est":31,"h3_10":"8a1e2e6950b7fff","h3_11":"8b1e2e6950b4fff"},"geometry":{"type":"Polygon","coordinates":[[[19.943629,50.025724],[19.943652,50.025561],[19.943877,50.025574],[19.943854,50.025737],[19.943629,50.025724]]]}},{"type":"Feature","id":"w1033998847","properties":{"type":"apartments","levels":5.0,"address":"Aleksandra Fredry 6M","residential":true,"residents_est":102,"h3_10":"8a1e2e69519ffff","h3_11":"8b1e2e69519afff"},"geometry":{"type":"Polygon","coordinates":[[[19.94316,50.026017],[19.943191,50.025836],[19.943211,50.025838],[19.943218,50.025794],[19.943421,50.025808],[19.9434,50.025925],[19.943613,50.025937],[19.943629,50.025823],[19.943827,50.025837],[19.943819,50.025883],[19.943842,50.025884],[19.943811,50.026063],[19.94316,50.026017]]]}},{"type":"Feature","id":"w1171297153","properties":{"type":"industrial","residential":false,"residents_est":0,"h3_10":"8a1e2e695187fff","h3_11":"8b1e2e695183fff"},"geometry":{"type":"Polygon","coordinates":[[[19.943796,50.027177],[19.943862,50.02712],[19.944146,50.027256],[19.944122,50.027277],[19.94418,50.027305],[19.944124,50.027353],[19.943993,50.02729],[19.944008,50.027278],[19.943796,50.027177]]]}},{"type":"Feature","id":"w1191273524","properties":{"type":"ruins","levels":2.0,"name":"Wapiennik","residential":false,"residents_est":0,"h3_10":"8a1e2e695037fff","h3_11":"8b1e2e695035fff"},"geometry":{"type":"Polygon","coordinates":[[[19.947257,50.028211],[19.947267,50.028184],[19.947304,50.028168],[19.947345,50.028175],[19.947369,50.0282],[19.947359,50.028228],[19.94732,50.028242],[19.94728,50.028236],[19.947257,50.028211]]]}},{"type":"Feature","id":"w1209189402","properties":{"type":"yes","residential":false,"residents_est":0,"h3_10":"8a1e2e6950effff","h3_11":"8b1e2e6950e8fff"},"geometry":{"type":"Polygon","coordinates":[[[19.952355,50.025635],[19.952368,50.025571],[19.953257,50.025646],[19.953191,50.025947],[19.952549,50.0259],[19.952593,50.025656],[19.952355,50.025635]]]}},{"type":"Feature","id":"w1211071225","properties":{"type":"service","residential":false,"residents_est":0,"h3_10":"8a1e2e69505ffff","h3_11":"8b1e2e69505efff"},"geometry":{"type":"Polygon","coordinates":[[[19.953453,50.026314],[19.953467,50.026246],[19.953561,50.026254],[19.953547,50.026322],[19.953453,50.026314]]]}},{"type":"Feature","id":"w1213124850","properties":{"type":"service","residential":false,"residents_est":0,"h3_10":"8a1e2e69518ffff","h3_11":"8b1e2e69518dfff"},"geometry":{"type":"Polygon","coordinates":[[[19.945781,50.027552],[19.945808,50.027499],[19.945845,50.027507],[19.945818,50.02756],[19.945781,50.027552]]]}},{"type":"Feature","id":"w1283583070","properties":{"type":"apartments","residential":true,"residents_est":48,"h3_10":"8a1e2e695197fff","h3_11":"8b1e2e695192fff"},"geometry":{"type":"Polygon","coordinates":[[[19.941756,50.026297],[19.941834,50.026084],[19.94209,50.026122],[19.942012,50.026335],[19.941756,50.026297]]]}},{"type":"Feature","id":"w1283583071","properties":{"type":"apartments","residential":true,"residents_est":121,"h3_10":"8a1e2e695197fff","h3_11":"8b1e2e695193fff"},"geometry":{"type":"Polygon","coordinates":[[[19.941974,50.026423],[19.94203,50.026357],[19.942194,50.026409],[19.942283,50.026305],[19.942638,50.026333],[19.942664,50.026205],[19.942978,50.026226],[19.942937,50.026452],[19.942395,50.026414],[19.942304,50.02653],[19.941974,50.026423]]]}},{"type":"Feature","id":"w1283583072","properties":{"type":"apartments","residential":true,"residents_est":96,"h3_10":"8a1e2e69519ffff","h3_11":"8b1e2e69519efff"},"geometry":{"type":"Polygon","coordinates":[[[19.943089,50.026464],[19.943132,50.02624],[19.943336,50.026253],[19.943313,50.02638],[19.943518,50.026395],[19.94354,50.026266],[19.943746,50.026281],[19.943704,50.026509],[19.943089,50.026464]]]}},{"type":"Feature","id":"w1283583073","properties":{"type":"apartments","residential":true,"residents_est":58,"h3_10":"8a1e2e69519ffff","h3_11":"8b1e2e695198fff"},"geometry":{"type":"Polygon","coordinates":[[[19.943972,50.026409],[19.944001,50.026255],[19.944519,50.026292],[19.944486,50.026434],[19.944331,50.026428],[19.94434,50.02638],[19.944149,50.026367],[19.944135,50.026422],[19.943972,50.026409]]]}},{"type":"Feature","id":"w1283583074","properties":{"type":"apartments","levels":5.0,"address":"Aleksandra Fredry 6S","residential":true,"residents_est":76,"h3_10":"8a1e2e69519ffff","h3_11":"8b1e2e69519bfff"},"geometry":{"type":"Polygon","coordinates":[[[19.94406,50.026078],[19.944101,50.025855],[19.9443,50.025871],[19.944276,50.025993],[19.944481,50.026009],[19.944509,50.025892],[19.944628,50.025901],[19.944568,50.026115],[19.94406,50.026078]]]}},{"type":"Feature","id":"w1283583075","properties":{"type":"apartments","address":"Aleksandra Fredry 6T","residential":true,"residents_est":79,"h3_10":"8a1e2e6950b7fff","h3_11":"8b1e2e6950b5fff"},"geometry":{"type":"Polygon","coordinates":[[[19.944114,50.02576],[19.944159,50.025536],[19.944347,50.025549],[19.944326,50.025674],[19.94457,50.025691],[19.9446,50.025569],[19.944717,50.025577],[19.944651,50.0258],[19.944114,50.02576]]]}},{"type":"Feature","id":"w1283583076","properties":{"type":"apartments","address":"Aleksandra Fredry 6U","residential":true,"residents_est":79,"h3_10":"8a1e2e6950b7fff","h3_11":"8b1e2e6950b0fff"},"geometry":{"type":"Polygon","coordinates":[[[19.944165,50.025431],[19.944205,50.025212],[19.944408,50.025234],[19.94438,50.025348],[19.944643,50.025368],[19.94467,50.025245],[19.944783,50.025255],[19.944728,50.025473],[19.944165,50.025431]]]}},{"type":"Feature","id":"w1487579797","properties":{"type":"apartments","levels":10.0,"residential":true,"residents_est":132,"h3_10":"8a1e2e6950effff","h3_11":"8b1e2e6950e9fff"},"geometry":{"type":"Polygon","coordinates":[[[19.953281,50.025982],[19.953301,50.025886],[19.953323,50.025887],[19.953327,50.025866],[19.953305,50.025864],[19.953318,50.0258],[19.95334,50.025802],[19.953344,50.025783],[19.953322,50.025781],[19.953344,50.025672],[19.953541,50.025688],[19.953503,50.025875],[19.95364,50.025887],[19.953616,50.02601],[19.953281,50.025982]]]}},{"type":"Feature","id":"w1487579799","properties":{"type":"apartments","levels":10.0,"residential":true,"residents_est":140,"h3_10":"8a1e2e6950effff","h3_11":"8b1e2e6950ebfff"},"geometry":{"type":"Polygon","coordinates":[[[19.95241,50.025336],[19.952632,50.025291],[19.95267,50.025369],[19.952662,50.02541],[19.952959,50.025435],[19.952934,50.025562],[19.952753,50.025547],[19.952756,50.025533],[19.952747,50.025532],[19.952719,50.02553],[19.952717,50.025544],[19.952615,50.025535],[19.952618,50.025522],[19.952581,50.025519],[19.952578,50.025532],[19.952437,50.02552],[19.952462,50.025397],[19.952447,50.025367],[19.952427,50.025371],[19.95241,50.025336]]]}},{"type":"Feature","id":"w1559048178","properties":{"type":"roof","residential":false,"residents_est":0,"h3_10":"8a1e2e695107fff","h3_11":"8b1e2e695100fff"},"geometry":{"type":"Polygon","coordinates":[[[19.945995,50.030055],[19.946405,50.02995],[19.946398,50.029939],[19.94643,50.029931],[19.946437,50.029942],[19.946617,50.029896],[19.946519,50.029736],[19.946553,50.029727],[19.946651,50.029888],[19.946828,50.029843],[19.946821,50.029832],[19.946853,50.029823],[19.94686,50.029834],[19.946891,50.029826],[19.946951,50.029935],[19.946891,50.02995],[19.946851,50.029885],[19.946672,50.02993],[19.946679,50.02994],[19.946645,50.029949],[19.946639,50.029939],[19.946462,50.029984],[19.946548,50.030149],[19.946512,50.030157],[19.946427,50.029993],[19.946142,50.030066],[19.94615,50.030079],[19.946134,50.030084],[19.946118,50.030088],[19.946109,50.030074],[19.946092,50.030079],[19.946135,50.030147],[19.946069,50.030163],[19.946028,50.030095],[19.946021,50.030096],[19.945995,50.030055]]]}},{"type":"Feature","id":"w1559048180","properties":{"type":"service","residential":false,"residents_est":0,"h3_10":"8a1e2e69511ffff","h3_11":"8b1e2e695118fff"},"geometry":{"type":"Polygon","coordinates":[[[19.946171,50.028936],[19.946246,50.028902],[19.946266,50.02892],[19.946191,50.028954],[19.946171,50.028936]]]}}]}