{"type":"FeatureCollection","features":[{"type":"Feature","id":"w231216319","properties":{"type":"yes","address":"Stanisława Brzozowskiego 40","name":"Fort 41a \"Mydlniki\"","residential":true,"residents_est":94,"h3_10":"8a1e05b698d7fff","h3_11":"8b1e05b698d3fff"},"geometry":{"type":"Polygon","coordinates":[[[19.861501,50.08491],[19.861504,50.084806],[19.861638,50.084807],[19.861636,50.08484],[19.861756,50.08484],[19.861757,50.084817],[19.861814,50.084816],[19.861812,50.084616],[19.861917,50.084618],[19.861917,50.084782],[19.862003,50.084782],[19.862016,50.084799],[19.862002,50.084817],[19.861919,50.084817],[19.86192,50.0851],[19.861815,50.085099],[19.861815,50.084902],[19.861756,50.0849],[19.861756,50.084879],[19.861634,50.084878],[19.861632,50.084912],[19.861501,50.08491]]]}},{"type":"Feature","id":"w231216324","properties":{"type":"yes","residential":false,"residents_est":0,"h3_10":"8a1e05b6982ffff","h3_11":"8b1e05b6982bfff"},"geometry":{"type":"Polygon","coordinates":[[[19.862079,50.088898],[19.862145,50.088884],[19.862173,50.088938],[19.862145,50.088944],[19.862153,50.08896],[19.862139,50.088963],[19.862143,50.088971],[19.862122,50.088976],[19.862079,50.088898]]]}},{"type":"Feature","id":"w231216342","properties":{"type":"yes","address":"Na Nowinach 4","residential":true,"residents_est":10,"h3_10":"8a1e05b69897fff","h3_11":"8b1e05b69894fff"},"geometry":{"type":"Polygon","coordinates":[[[19.856056,50.085529],[19.856176,50.085501],[19.856221,50.085588],[19.856187,50.085596],[19.856204,50.085631],[19.856148,50.085643],[19.856143,50.085634],[19.856085,50.085646],[19.856072,50.085619],[19.8561,50.085612],[19.856056,50.085529]]]}},{"type":"Feature","id":"w231216346","properties":{"type":"yes","address":"Generała Bolesława Wieniawy-Długoszowskiego 142C","residential":true,"residents_est":8,"h3_10":"8a1e05b69897fff","h3_11":"8b1e05b69890fff"},"geometry":{"type":"Polygon","coordinates":[[[19.856199,50.085191],[19.856318,50.085166],[19.856331,50.085192],[19.856351,50.085188],[19.856363,50.085214],[19.856343,50.085218],[19.856368,50.08527],[19.856303,50.085283],[19.85628,50.085273],[19.856242,50.085281],[19.856199,50.085191]]]}},{"type":"Feature","id":"w231216354","properties":{"type":"yes","address":"Generała Bolesława Wieniawy-Długoszowskiego 142a","residential":true,"residents_est":11,"h3_10":"8a1e05b69897fff","h3_11":"8b1e05b69895fff"},"geometry":{"type":"Polygon","coordinates":[[[19.856488,50.085772],[19.856636,50.085743],[19.856679,50.085826],[19.856662,50.085829],[19.856681,50.085873],[19.856635,50.085882],[19.856623,50.085861],[19.856603,50.085865],[19.856601,50.085877],[19.856545,50.085889],[19.856488,50.085772]]]}},{"type":"Feature","id":"w231216392","properties":{"type":"yes","address":"Generała Bolesława Wieniawy-Długoszowskiego 128","residential":true,"residents_est":6,"h3_10":"8a1e05b6989ffff","h3_11":"8b1e05b6989efff"},"geometry":{"type":"Polygon","coordinates":[[[19.857258,50.085137],[19.857309,50.085127],[19.857304,50.085115],[19.85733,50.085109],[19.857336,50.085122],[19.857378,50.085114],[19.85741,50.085183],[19.857374,50.08519],[19.857381,50.085202],[19.857344,50.085209],[19.857338,50.085196],[19.857291,50.085206],[19.857258,50.085137]]]}},{"type":"Feature","id":"w231216471","properties":{"type":"yes","residential":true,"residents_est":3,"h3_10":"8a1e05b69877fff","h3_11":"8b1e05b69874fff"},"geometry":{"type":"Polygon","coordinates":[[[19.862929,50.089463],[19.863008,50.089447],[19.863041,50.089512],[19.862962,50.089528],[19.862929,50.089463]]]}},{"type":"Feature","id":"w231216544","properties":{"type":"yes","residential":true,"residents_est":3,"h3_10":"8a1e05b69857fff","h3_11":"8b1e05b69855fff"},"geometry":{"type":"Polygon","coordinates":[[[19.864041,50.088474],[19.864047,50.088409],[19.864132,50.088412],[19.864126,50.088477],[19.864041,50.088474]]]}},{"type":"Feature","id":"w231216565","properties":{"type":"yes","address":"Na Nowinach 6","residential":true,"residents_est":7,"h3_10":"8a1e05b69897fff","h3_11":"8b1e05b69894fff"},"geometry":{"type":"Polygon","coordinates":[[[19.856151,50.08572],[19.856275,50.085696],[19.856318,50.085786],[19.856195,50.08581],[19.856151,50.08572]]]}},{"type":"Feature","id":"w231216573","properties":{"type":"yes","address":"Generała Bolesława Wieniawy-Długoszowskiego 114","residential":true,"residents_est":8,"h3_10":"8a1e05b6988ffff","h3_11":"8b1e05b6988efff"},"geometry":{"type":"Polygon","coordinates":[[[19.858997,50.085833],[19.859133,50.085807],[19.859174,50.085895],[19.859039,50.08592],[19.858997,50.085833]]]}},{"type":"Feature","id":"w231216581","properties":{"type":"yes","address":"Generała Bolesława Wieniawy-Długoszowskiego 140","residential":true,"residents_est":8,"h3_10":"8a1e05b69897fff","h3_11":"8b1e05b69890fff"},"geometry":{"type":"Polygon","coordinates":[[[19.856575,50.085488],[19.85669,50.085464],[19.856737,50.085563],[19.856623,50.085586],[19.856575,50.085488]]]}},{"type":"Feature","id":"w231216644","properties":{"type":"yes","residential":false,"residents_est":0,"h3_10":"8a1e05b69887fff","h3_11":"8b1e05b69883fff"},"geometry":{"type":"Polygon","coordinates":[[[19.857945,50.085554],[19.858002,50.085543],[19.858041,50.085619],[19.857984,50.085631],[19.857945,50.085554]]]}},{"type":"Feature","id":"w231216675","properties":{"type":"yes","residential":true,"residents_est":4,"h3_10":"8a1e05b6982ffff","h3_11":"8b1e05b69829fff"},"geometry":{"type":"Polygon","coordinates":[[[19.86256,50.089536],[19.862664,50.089516],[19.862691,50.089575],[19.862587,50.089595],[19.86256,50.089536]]]}},{"type":"Feature","id":"w231216719","properties":{"type":"yes","residential":false,"residents_est":0,"h3_10":"8a1e05b69807fff","h3_11":"8b1e05b69801fff"},"geometry":{"type":"Polygon","coordinates":[[[19.861204,50.088498],[19.861243,50.08849],[19.861298,50.088606],[19.861259,50.088613],[19.861204,50.088498]]]}},{"type":"Feature","id":"w231216742","properties":{"type":"yes","address":"Generała Bolesława Wieniawy-Długoszowskiego 138","residential":true,"residents_est":7,"h3_10":"8a1e05b69897fff","h3_11":"8b1e05b69890fff"},"geometry":{"type":"Polygon","coordinates":[[[19.856627,50.0853],[19.856731,50.085278],[19.856778,50.085379],[19.856675,50.0854],[19.856627,50.0853]]]}},{"type":"Feature","id":"w231216746","properties":{"type":"yes","address":"Generała Bolesława Wieniawy-Długoszowskiego 130","residential":true,"residents_est":8,"h3_10":"8a1e05b69897fff","h3_11":"8b1e05b69891fff"},"geometry":{"type":"Polygon","coordinates":[[[19.857017,50.085177],[19.857127,50.085155],[19.857176,50.085258],[19.857063,50.085279],[19.857017,50.085177]]]}},{"type":"Feature","id":"w231216753","properties":{"type":"yes","residential":false,"residents_est":0,"h3_10":"8a1e05b69897fff","h3_11":"8b1e05b69891fff"},"geometry":{"type":"Polygon","coordinates":[[[19.857115,50.085394],[19.857163,50.085386],[19.857185,50.085436],[19.857138,50.085445],[19.857115,50.085394]]]}},{"type":"Feature","id":"w231216754","properties":{"type":"yes","address":"Generała Bolesława Wieniawy-Długoszowskiego 126a","residential":true,"residents_est":5,"h3_10":"8a1e05b6989ffff","h3_11":"8b1e05b6989cfff"},"geometry":{"type":"Polygon","coordinates":[[[19.857876,50.085472],[19.857955,50.085455],[19.858002,50.085543],[19.857919,50.08556],[19.857876,50.085472]]]}},{"type":"Feature","id":"w231216761","properties":{"type":"yes","address":"Generała Bolesława Wieniawy-Długoszowskiego 116","residential":true,"residents_est":8,"h3_10":"8a1e05b6988ffff","h3_11":"8b1e05b6988cfff"},"geometry":{"type":"Polygon","coordinates":[[[19.858837,50.086077],[19.858967,50.086051],[19.859007,50.086134],[19.858862,50.086165],[19.858842,50.086126],[19.85886,50.086122],[19.858837,50.086077]]]}},{"type":"Feature","id":"w231216770","properties":{"type":"yes","residential":false,"residents_est":0,"h3_10":"8a1e05b698b7fff","h3_11":"8b1e05b698b3fff"},"geometry":{"type":"Polygon","coordinates":[[[19.856248,50.085997],[19.856281,50.085991],[19.856293,50.086018],[19.856335,50.086009],[19.85635,50.08604],[19.856275,50.086055],[19.856248,50.085997]]]}},{"type":"Feature","id":"w231216772","properties":{"type":"yes","residential":true,"residents_est":6,"h3_10":"8a1e05b6988ffff","h3_11":"8b1e05b6988cfff"},"geometry":{"type":"Polygon","coordinates":[[[19.859156,50.086079],[19.85922,50.086064],[19.859295,50.086206],[19.859225,50.086225],[19.859156,50.086079]]]}},{"type":"Feature","id":"w231216790","properties":{"type":"yes","address":"Na Nowinach 8","residential":true,"residents_est":7,"h3_10":"8a1e05b698b7fff","h3_11":"8b1e05b698b3fff"},"geometry":{"type":"Polygon","coordinates":[[[19.856255,50.085937],[19.856378,50.085911],[19.856417,50.085992],[19.856293,50.086018],[19.856255,50.085937]]]}},{"type":"Feature","id":"w231216800","properties":{"type":"yes","residential":true,"residents_est":5,"h3_10":"8a1e05b6989ffff","h3_11":"8b1e05b6989efff"},"geometry":{"type":"Polygon","coordinates":[[[19.857393,50.085147],[19.857412,50.085144],[19.857396,50.085111],[19.85749,50.085092],[19.857522,50.085162],[19.85741,50.085183],[19.857393,50.085147]]]}},{"type":"Feature","id":"w231216808","properties":{"type":"yes","address":"Generała Bolesława Wieniawy-Długoszowskiego 132","residential":true,"residents_est":7,"h3_10":"8a1e05b69897fff","h3_11":"8b1e05b69891fff"},"geometry":{"type":"Polygon","coordinates":[[[19.856921,50.085207],[19.857021,50.085186],[19.857069,50.08529],[19.856969,50.085309],[19.856921,50.085207]]]}},{"type":"Feature","id":"w231216823","properties":{"type":"yes","residential":true,"residents_est":5,"h3_10":"8a1e05b69887fff","h3_11":"8b1e05b69882fff"},"geometry":{"type":"Polygon","coordinates":[[[19.8573,50.085513],[19.85736,50.085502],[19.857411,50.085616],[19.85735,50.085627],[19.8573,50.085513]]]}},{"type":"Feature","id":"w231216836","properties":{"type":"yes","address":"Generała Bolesława Wieniawy-Długoszowskiego 136","residential":true,"residents_est":7,"h3_10":"8a1e05b69897fff","h3_11":"8b1e05b69891fff"},"geometry":{"type":"Polygon","coordinates":[[[19.856727,50.085268],[19.856829,50.08525],[19.856876,50.08535],[19.856774,50.08537],[19.856727,50.085268]]]}},{"type":"Feature","id":"w231216842","properties":{"type":"allotment_house","residential":false,"residents_est":0,"h3_10":"8a1e05b6980ffff","h3_11":"8b1e05b69809fff"},"geometry":{"type":"Polygon","coordinates":[[[19.862921,50.088414],[19.863002,50.088413],[19.863004,50.088481],[19.862923,50.088482],[19.862921,50.088414]]]}},{"type":"Feature","id":"w231216844","properties":{"type":"yes","residential":true,"residents_est":3,"h3_10":"8a1e05b69897fff","h3_11":"8b1e05b69891fff"},"geometry":{"type":"Polygon","coordinates":[[[19.857109,50.085517],[19.857151,50.085509],[19.857205,50.085617],[19.85716,50.085626],[19.857109,50.085517]]]}},{"type":"Feature","id":"w231216851","properties":{"type":"yes","address":"Generała Bolesława Wieniawy-Długoszowskiego 134","residential":true,"residents_est":7,"h3_10":"8a1e05b69897fff","h3_11":"8b1e05b69891fff"},"geometry":{"type":"Polygon","coordinates":[[[19.856823,50.085237],[19.856927,50.08522],[19.856974,50.08532],[19.856871,50.08534],[19.856823,50.085237]]]}},{"type":"Feature","id":"w231216870","properties":{"type":"yes","residential":true,"residents_est":3,"h3_10":"8a1e05b69867fff","h3_11":"8b1e05b69866fff"},"geometry":{"type":"Polygon","coordinates":[[[19.863919,50.089821],[19.864018,50.089784],[19.86406,50.08983],[19.864013,50.089848],[19.864004,50.089838],[19.863952,50.089858],[19.863919,50.089821]]]}},{"type":"Feature","id":"w231216874","properties":{"type":"yes","residential":true,"residents_est":4,"h3_10":"8a1e05b69897fff","h3_11":"8b1e05b69891fff"},"geometry":{"type":"Polygon","coordinates":[[[19.857043,50.085571],[19.857086,50.085562],[19.857068,50.085526],[19.857109,50.085517],[19.85715,50.085605],[19.857068,50.085622],[19.857043,50.085571]]]}},{"type":"Feature","id":"w231216883","properties":{"type":"yes","address":"Generała Bolesława Wieniawy-Długoszowskiego 142","residential":true,"residents_est":5,"h3_10":"8a1e05b69897fff","h3_11":"8b1e05b69890fff"},"geometry":{"type":"Polygon","coordinates":[[[19.856291,50.085474],[19.856395,50.085452],[19.856421,50.0855],[19.856396,50.085505],[19.856411,50.085537],[19.856328,50.085553],[19.856291,50.085474]]]}},{"type":"Feature","id":"w231216891","properties":{"type":"yes","residential":true,"residents_est":4,"h3_10":"8a1e05b698affff","h3_11":"8b1e05b698aafff"},"geometry":{"type":"Polygon","coordinates":[[[19.858989,50.086297],[19.859068,50.086281],[19.859106,50.086357],[19.859025,50.086372],[19.858989,50.086297]]]}},{"type":"Feature","id":"w231216900","properties":{"type":"yes","residential":true,"residents_est":6,"h3_10":"8a1e05b69897fff","h3_11":"8b1e05b69890fff"},"geometry":{"type":"Polygon","coordinates":[[[19.856328,50.085553],[19.856411,50.085537],[19.856429,50.085572],[19.856474,50.085562],[19.856497,50.085606],[19.856366,50.085634],[19.856328,50.085553]]]}},{"type":"Feature","id":"w231216913","properties":{"type":"yes","address":"Generała Bolesława Wieniawy-Długoszowskiego 130a","residential":true,"residents_est":7,"h3_10":"8a1e05b69887fff","h3_11":"8b1e05b69884fff"},"geometry":{"type":"Polygon","coordinates":[[[19.857509,50.08626],[19.857621,50.086239],[19.857642,50.086287],[19.857667,50.086282],[19.857685,50.08632],[19.857574,50.086341],[19.857568,50.086328],[19.857542,50.086333],[19.857509,50.08626]]]}},{"type":"Feature","id":"w231216954","properties":{"type":"yes","address":"Generała Bolesława Wieniawy-Długoszowskiego 128a","residential":true,"residents_est":10,"h3_10":"8a1e05b69887fff","h3_11":"8b1e05b69880fff"},"geometry":{"type":"Polygon","coordinates":[[[19.857796,50.086157],[19.857941,50.086128],[19.857988,50.086228],[19.857948,50.086236],[19.857954,50.086249],[19.857859,50.086266],[19.857853,50.086254],[19.857841,50.086256],[19.857796,50.086157]]]}},{"type":"Feature","id":"w231216960","properties":{"type":"yes","address":"Generała Bolesława Wieniawy-Długoszowskiego 142b","residential":true,"residents_est":10,"h3_10":"8a1e05b698b7fff","h3_11":"8b1e05b698b3fff"},"geometry":{"type":"Polygon","coordinates":[[[19.856565,50.085977],[19.856697,50.085951],[19.856719,50.085996],[19.856711,50.085997],[19.85674,50.086059],[19.8566,50.086087],[19.856566,50.086015],[19.856582,50.086012],[19.856565,50.085977]]]}},{"type":"Feature","id":"w231216970","properties":{"type":"yes","residential":true,"residents_est":6,"h3_10":"8a1e05b69897fff","h3_11":"8b1e05b69891fff"},"geometry":{"type":"Polygon","coordinates":[[[19.857346,50.085281],[19.857416,50.085267],[19.857472,50.085388],[19.857402,50.085402],[19.857346,50.085281]]]}},{"type":"Feature","id":"w335276498","properties":{"type":"yes","residential":false,"residents_est":0,"h3_10":"8a1e05b698affff","h3_11":"8b1e05b698aefff"},"geometry":{"type":"Polygon","coordinates":[[[19.858515,50.087085],[19.858572,50.087075],[19.858594,50.087127],[19.858538,50.087137],[19.858515,50.087085]]]}},{"type":"Feature","id":"w335276500","properties":{"type":"yes","residential":false,"residents_est":0,"h3_10":"8a1e05b698e7fff","h3_11":"8b1e05b698e2fff"},"geometry":{"type":"Polygon","coordinates":[[[19.861787,50.086963],[19.861847,50.086951],[19.861867,50.086992],[19.861807,50.087004],[19.861787,50.086963]]]}},{"type":"Feature","id":"w335276501","properties":{"type":"yes","residential":false,"residents_est":0,"h3_10":"8a1e05b69867fff","h3_11":"8b1e05b69864fff"},"geometry":{"type":"Polygon","coordinates":[[[19.864397,50.090332],[19.864472,50.090325],[19.864484,50.090378],[19.86441,50.090385],[19.864397,50.090332]]]}},{"type":"Feature","id":"w335276502","properties":{"type":"yes","residential":false,"residents_est":0,"h3_10":"8a1e05b6981ffff","h3_11":"8b1e05b6981cfff"},"geometry":{"type":"Polygon","coordinates":[[[19.860444,50.088109],[19.860546,50.088088],[19.860568,50.088133],[19.860467,50.088154],[19.860444,50.088109]]]}},{"type":"Feature","id":"w335276513","properties":{"type":"yes","residential":false,"residents_est":0,"h3_10":"8a1e05b698a7fff","h3_11":"8b1e05b698a2fff"},"geometry":{"type":"Polygon","coordinates":[[[19.856964,50.086698],[19.857032,50.086678],[19.857049,50.086702],[19.85698,50.086722],[19.856964,50.086698]]]}},{"type":"Feature","id":"w706439095","properties":{"type":"yes","residential":true,"residents_est":11,"h3_10":"8a1e05b6994ffff","h3_11":"8b1e05b69949fff"},"geometry":{"type":"Polygon","coordinates":[[[19.865201,50.091013],[19.865379,50.090988],[19.865412,50.091088],[19.865234,50.091113],[19.865201,50.091013]]]}},{"type":"Feature","id":"w1050471649","properties":{"type":"outbuilding","levels":1.0,"residential":false,"residents_est":0,"h3_10":"8a1e05b6999ffff","h3_11":"8b1e05b6999dfff"},"geometry":{"type":"Polygon","coordinates":[[[19.855891,50.087893],[19.855925,50.087795],[19.856139,50.087825],[19.856062,50.088038],[19.85591,50.088017],[19.855952,50.087902],[19.855891,50.087893]]]}},{"type":"Feature","id":"w1050471677","properties":{"type":"outbuilding","levels":1.0,"residential":false,"residents_est":0,"h3_10":"8a1e05b6999ffff","h3_11":"8b1e05b69998fff"},"geometry":{"type":"Polygon","coordinates":[[[19.855971,50.087653],[19.855995,50.087583],[19.856137,50.087601],[19.856111,50.087672],[19.855971,50.087653]]]}},{"type":"Feature","id":"w1183689208","properties":{"type":"yes","residential":true,"residents_est":13,"h3_10":"8a1e05b698b7fff","h3_11":"8b1e05b698b1fff"},"geometry":{"type":"Polygon","coordinates":[[[19.85675,50.086321],[19.856905,50.086292],[19.856964,50.086419],[19.856809,50.086449],[19.85675,50.086321]]]}},{"type":"Feature","id":"w1183689209","properties":{"type":"yes","residential":true,"residents_est":10,"h3_10":"8a1e05b698b7fff","h3_11":"8b1e05b698b3fff"},"geometry":{"type":"Polygon","coordinates":[[[19.856647,50.086207],[19.856845,50.086166],[19.856884,50.086243],[19.856686,50.086284],[19.856647,50.086207]]]}}]}