{"type":"FeatureCollection","features":[{"type":"Feature","id":"w110323271","properties":{"type":"service","residential":false,"residents_est":0,"h3_10":"8a1e2e6a8037fff","h3_11":"8b1e2e6a8033fff"},"geometry":{"type":"Polygon","coordinates":[[[20.069638,50.081881],[20.069734,50.081834],[20.069788,50.081878],[20.069693,50.081926],[20.069638,50.081881]]]}},{"type":"Feature","id":"w110323280","properties":{"type":"yes","residential":true,"residents_est":12,"h3_10":"8a1e2e6a80effff","h3_11":"8b1e2e6a80ecfff"},"geometry":{"type":"Polygon","coordinates":[[[20.074674,50.080233],[20.074777,50.080141],[20.075403,50.080439],[20.075302,50.080526],[20.074674,50.080233]]]}},{"type":"Feature","id":"w110323286","properties":{"type":"yes","residential":true,"residents_est":1,"h3_10":"8a1e2e6a8037fff","h3_11":"8b1e2e6a8036fff"},"geometry":{"type":"Polygon","coordinates":[[[20.06867,50.082211],[20.068845,50.082057],[20.068915,50.08209],[20.06874,50.082245],[20.06867,50.082211]]]}},{"type":"Feature","id":"w110323290","properties":{"type":"yes","residential":true,"residents_est":13,"h3_10":"8a1e2e6a8007fff","h3_11":"8b1e2e6a8002fff"},"geometry":{"type":"Polygon","coordinates":[[[20.070804,50.081502],[20.071019,50.081313],[20.071363,50.081482],[20.07116,50.081659],[20.070804,50.081502]]]}},{"type":"Feature","id":"w110323293","properties":{"type":"yes","residential":true,"residents_est":2,"h3_10":"8a1e2e6a8017fff","h3_11":"8b1e2e6a8011fff"},"geometry":{"type":"Polygon","coordinates":[[[20.070546,50.081068],[20.07077,50.080869],[20.070863,50.080913],[20.070638,50.081112],[20.070546,50.081068]]]}},{"type":"Feature","id":"w110323307","properties":{"type":"industrial","name":"EKOENERGIA","residential":false,"residents_est":0,"h3_10":"8a1e2e6a8057fff","h3_11":"8b1e2e6a8055fff"},"geometry":{"type":"Polygon","coordinates":[[[20.074578,50.081511],[20.074683,50.081424],[20.074664,50.081415],[20.074691,50.08139],[20.074784,50.081432],[20.07483,50.081393],[20.074753,50.081359],[20.074904,50.081227],[20.074818,50.08118],[20.074844,50.081161],[20.075007,50.081234],[20.075049,50.081195],[20.074975,50.081163],[20.075066,50.081081],[20.076005,50.081514],[20.07593,50.081581],[20.076298,50.081755],[20.076305,50.081753],[20.07596,50.082061],[20.075954,50.082059],[20.075879,50.082124],[20.075547,50.081968],[20.07553,50.081984],[20.075417,50.081932],[20.075433,50.081916],[20.074578,50.081511]]]}},{"type":"Feature","id":"w110323314","properties":{"type":"yes","address":"Mrozowa 4","name":"Zakładowa Straż Pożarna ArcelorMittal Poland S.A.","residential":false,"residents_est":0,"h3_10":"8a1e2e6a818ffff","h3_11":"8b1e2e6a818dfff"},"geometry":{"type":"Polygon","coordinates":[[[20.068055,50.081767],[20.068253,50.081591],[20.068713,50.081803],[20.068512,50.081981],[20.068055,50.081767]]]}},{"type":"Feature","id":"w110323317","properties":{"type":"yes","residential":true,"residents_est":4,"h3_10":"8a1e2e6a8037fff","h3_11":"8b1e2e6a8036fff"},"geometry":{"type":"Polygon","coordinates":[[[20.069129,50.082386],[20.069245,50.082274],[20.069362,50.082174],[20.06939,50.082155],[20.069403,50.082163],[20.069424,50.082143],[20.069414,50.082137],[20.069456,50.082099],[20.069513,50.082123],[20.069394,50.082239],[20.06941,50.082248],[20.069336,50.082316],[20.069327,50.082312],[20.069218,50.082413],[20.069197,50.082403],[20.069186,50.082412],[20.069129,50.082386]]]}},{"type":"Feature","id":"r1558815","properties":{"type":"office","levels":4.0,"residential":false,"residents_est":0,"h3_10":"8a1e2e6a80b7fff","h3_11":"8b1e2e6a80b4fff"},"geometry":{"type":"Polygon","coordinates":[[[20.06644,50.080207],[20.066447,50.080138],[20.066468,50.080139],[20.066505,50.079718],[20.066486,50.079717],[20.066492,50.07965],[20.066598,50.079654],[20.066597,50.079668],[20.067259,50.079692],[20.067261,50.079678],[20.067362,50.079682],[20.067356,50.079751],[20.067333,50.07975],[20.067296,50.08017],[20.067313,50.080171],[20.067307,50.080236],[20.067207,50.080232],[20.067208,50.080223],[20.067051,50.080217],[20.067045,50.080275],[20.066681,50.080261],[20.066686,50.0802],[20.066567,50.080195],[20.066566,50.080211],[20.06644,50.080207]],[[20.066659,50.080047],[20.0667,50.080085],[20.066747,50.080085],[20.066749,50.080078],[20.067014,50.080088],[20.067011,50.080097],[20.067055,50.080097],[20.067103,50.080068],[20.067105,50.080041],[20.067096,50.08004],[20.067118,50.079871],[20.06713,50.079872],[20.067132,50.079838],[20.06709,50.079807],[20.067044,50.079804],[20.067045,50.079811],[20.066781,50.079801],[20.066782,50.079794],[20.066738,50.079794],[20.066677,50.079822],[20.066674,50.079851],[20.066686,50.07985],[20.066674,50.08002],[20.066662,50.080019],[20.066659,50.080047]]]}},{"type":"Feature","id":"w110323323","properties":{"type":"yes","residential":true,"residents_est":36,"h3_10":"8a1e2e6a8007fff","h3_11":"8b1e2e6a8006fff"},"geometry":{"type":"Polygon","coordinates":[[[20.070398,50.081864],[20.070604,50.081679],[20.07156,50.082145],[20.071364,50.082317],[20.070398,50.081864]]]}},{"type":"Feature","id":"w110323324","properties":{"type":"yes","residential":true,"residents_est":37,"h3_10":"8a1e2e6a8007fff","h3_11":"8b1e2e6a8003fff"},"geometry":{"type":"Polygon","coordinates":[[[20.071019,50.081313],[20.071222,50.081135],[20.072191,50.081585],[20.071901,50.081843],[20.071894,50.081841],[20.071978,50.081769],[20.071363,50.081482],[20.071019,50.081313]]]}},{"type":"Feature","id":"w110323334","properties":{"type":"yes","residential":true,"residents_est":18,"h3_10":"8a1e2e6a80e7fff","h3_11":"8b1e2e6a80e1fff"},"geometry":{"type":"Polygon","coordinates":[[[20.074037,50.080304],[20.074193,50.080166],[20.074614,50.080361],[20.074564,50.080405],[20.074864,50.080541],[20.074756,50.080634],[20.074037,50.080304]]]}},{"type":"Feature","id":"w110323337","properties":{"type":"yes","residential":true,"residents_est":7,"h3_10":"8a1e2e6a8037fff","h3_11":"8b1e2e6a8036fff"},"geometry":{"type":"Polygon","coordinates":[[[20.06888,50.082343],[20.069295,50.081976],[20.069385,50.082018],[20.06897,50.082384],[20.06888,50.082343]]]}},{"type":"Feature","id":"w110323345","properties":{"type":"yes","residential":true,"residents_est":8,"h3_10":"8a1e2e6a8017fff","h3_11":"8b1e2e6a8013fff"},"geometry":{"type":"Polygon","coordinates":[[[20.070291,50.080996],[20.070406,50.080894],[20.070353,50.080864],[20.070378,50.080841],[20.070429,50.080865],[20.070543,50.080764],[20.070703,50.080838],[20.070524,50.080996],[20.070546,50.081007],[20.070521,50.08103],[20.070497,50.081019],[20.070444,50.081067],[20.070291,50.080996]]]}},{"type":"Feature","id":"w110323350","properties":{"type":"yes","name":"CKiS ob.166","residential":true,"residents_est":31,"h3_10":"8a1e2e6a802ffff","h3_11":"8b1e2e6a8028fff"},"geometry":{"type":"Polygon","coordinates":[[[20.072304,50.082506],[20.072585,50.08226],[20.073199,50.082547],[20.07292,50.082794],[20.072304,50.082506]]]}},{"type":"Feature","id":"w110323351","properties":{"type":"yes","residential":true,"residents_est":38,"h3_10":"8a1e2e6a8007fff","h3_11":"8b1e2e6a8000fff"},"geometry":{"type":"Polygon","coordinates":[[[20.070604,50.081679],[20.070804,50.081502],[20.07116,50.081659],[20.071775,50.081948],[20.071858,50.081874],[20.071863,50.081876],[20.07156,50.082145],[20.070604,50.081679]]]}},{"type":"Feature","id":"w110323352","properties":{"type":"yes","residential":true,"residents_est":6,"h3_10":"8a1e2e6a80e7fff","h3_11":"8b1e2e6a80e3fff"},"geometry":{"type":"Polygon","coordinates":[[[20.073503,50.080029],[20.073604,50.079939],[20.073694,50.07998],[20.073714,50.079962],[20.073907,50.080052],[20.073784,50.080161],[20.073503,50.080029]]]}},{"type":"Feature","id":"w110323363","properties":{"type":"yes","residential":true,"residents_est":15,"h3_10":"8a1e2e6a8027fff","h3_11":"8b1e2e6a8020fff"},"geometry":{"type":"Polygon","coordinates":[[[20.070676,50.082935],[20.070854,50.082777],[20.071284,50.082979],[20.071235,50.083022],[20.071271,50.083039],[20.07119,50.08311],[20.071154,50.083093],[20.071106,50.083137],[20.070676,50.082935]]]}},{"type":"Feature","id":"r1558814","properties":{"type":"office","levels":4.0,"address":"Ujastek 1","name":"Budynek S","residential":false,"residents_est":0,"h3_10":"8a1e2e6a8097fff","h3_11":"8b1e2e6a8096fff"},"geometry":{"type":"Polygon","coordinates":[[[20.066568,50.078749],[20.066574,50.078684],[20.066598,50.078685],[20.066636,50.078269],[20.066625,50.078268],[20.066631,50.078199],[20.066727,50.078202],[20.066726,50.078213],[20.066879,50.078218],[20.066887,50.078139],[20.067247,50.078152],[20.06724,50.078231],[20.067387,50.078237],[20.067388,50.078223],[20.067488,50.078226],[20.067483,50.07829],[20.067464,50.07829],[20.067426,50.078714],[20.067446,50.078714],[20.06744,50.07878],[20.06733,50.078776],[20.067331,50.078766],[20.066669,50.078741],[20.066668,50.078753],[20.066568,50.078749]],[[20.066795,50.078593],[20.066838,50.078631],[20.06688,50.078632],[20.066886,50.078624],[20.067147,50.078634],[20.067147,50.07864],[20.067189,50.078643],[20.067236,50.078609],[20.067239,50.078582],[20.067228,50.078582],[20.067241,50.078412],[20.067253,50.078412],[20.067254,50.078384],[20.067212,50.078347],[20.06717,50.078347],[20.06717,50.078352],[20.066905,50.078344],[20.066906,50.078336],[20.066863,50.078335],[20.066814,50.078367],[20.066812,50.078396],[20.066822,50.078396],[20.066809,50.078568],[20.0668,50.078568],[20.066795,50.078593]]]}},{"type":"Feature","id":"w110323368","properties":{"type":"industrial","name":"EKOENERGIA","residential":false,"residents_est":0,"h3_10":"8a1e2e6a80e7fff","h3_11":"8b1e2e6a80e5fff"},"geometry":{"type":"Polygon","coordinates":[[[20.073586,50.080674],[20.073761,50.08052],[20.074692,50.080956],[20.074638,50.080999],[20.074642,50.081002],[20.074635,50.081],[20.074588,50.08104],[20.074594,50.081044],[20.074576,50.081039],[20.074503,50.081104],[20.073586,50.080674]]]}},{"type":"Feature","id":"w110323373","properties":{"type":"yes","residential":true,"residents_est":16,"h3_10":"8a1e2e6a802ffff","h3_11":"8b1e2e6a802bfff"},"geometry":{"type":"Polygon","coordinates":[[[20.072707,50.082148],[20.072946,50.081936],[20.073038,50.081978],[20.073031,50.081984],[20.073324,50.082122],[20.073331,50.082116],[20.073424,50.082158],[20.073217,50.082343],[20.073127,50.082301],[20.073202,50.082232],[20.073156,50.08221],[20.073115,50.082248],[20.072911,50.082152],[20.072952,50.082115],[20.072906,50.082094],[20.072797,50.08219],[20.072707,50.082148]]]}},{"type":"Feature","id":"w110323375","properties":{"type":"yes","residential":true,"residents_est":8,"h3_10":"8a1e2e6a8027fff","h3_11":"8b1e2e6a8025fff"},"geometry":{"type":"Polygon","coordinates":[[[20.071501,50.083241],[20.071617,50.083139],[20.072016,50.083323],[20.071898,50.083424],[20.071501,50.083241]]]}},{"type":"Feature","id":"w110323380","properties":{"type":"yes","residential":true,"residents_est":2,"h3_10":"8a1e2e6a802ffff","h3_11":"8b1e2e6a802cfff"},"geometry":{"type":"Polygon","coordinates":[[[20.072134,50.08297],[20.072188,50.082922],[20.072358,50.082992],[20.072454,50.083047],[20.072401,50.083094],[20.072229,50.083023],[20.072134,50.08297]]]}},{"type":"Feature","id":"w110460096","properties":{"type":"yes","residential":true,"residents_est":2,"h3_10":"8a1e2e6a8147fff","h3_11":"8b1e2e6a8142fff"},"geometry":{"type":"Polygon","coordinates":[[[20.073507,50.084011],[20.073586,50.083942],[20.073574,50.083936],[20.073594,50.083918],[20.073606,50.083924],[20.073618,50.083913],[20.073805,50.084001],[20.073694,50.084099],[20.073507,50.084011]]]}},{"type":"Feature","id":"w110460100","properties":{"type":"yes","residential":true,"residents_est":19,"h3_10":"8a1e2e6a81affff","h3_11":"8b1e2e6a81adfff"},"geometry":{"type":"Polygon","coordinates":[[[20.067885,50.082758],[20.068087,50.08258],[20.0686,50.082819],[20.068398,50.083002],[20.068086,50.082859],[20.068089,50.082856],[20.067885,50.082758]]]}},{"type":"Feature","id":"w110460101","properties":{"type":"yes","residential":true,"residents_est":33,"h3_10":"8a1e2e6a8157fff","h3_11":"8b1e2e6a8155fff"},"geometry":{"type":"Polygon","coordinates":[[[20.072568,50.084024],[20.072966,50.083673],[20.073421,50.083885],[20.073023,50.084237],[20.072568,50.084024]]]}},{"type":"Feature","id":"w110460102","properties":{"type":"yes","address":"Blokowa 5","residential":true,"residents_est":1,"h3_10":"8a1e2e6a8167fff","h3_11":"8b1e2e6a8163fff"},"geometry":{"type":"Polygon","coordinates":[[[20.073949,50.085371],[20.073955,50.085366],[20.073972,50.085374],[20.074007,50.085343],[20.073996,50.085338],[20.074067,50.085274],[20.074176,50.085325],[20.074065,50.085424],[20.073949,50.085371]]]}},{"type":"Feature","id":"w110460103","properties":{"type":"commercial","levels":2.0,"address":"Ujastek 7","name":"7 Ujastek - Budynek \"C\"","residential":false,"residents_est":0,"h3_10":"8a1e2e6a81a7fff","h3_11":"8b1e2e6a81a5fff"},"geometry":{"type":"Polygon","coordinates":[[[20.066535,50.08352],[20.066552,50.083323],[20.066696,50.083329],[20.066678,50.083525],[20.066535,50.08352]]]}},{"type":"Feature","id":"w110460105","properties":{"type":"yes","residential":true,"residents_est":8,"h3_10":"8a1e2e6a8177fff","h3_11":"8b1e2e6a8171fff"},"geometry":{"type":"Polygon","coordinates":[[[20.072487,50.084646],[20.072571,50.08457],[20.072895,50.084721],[20.072688,50.084905],[20.072559,50.084845],[20.072681,50.084736],[20.072487,50.084646]]]}},{"type":"Feature","id":"w110460107","properties":{"type":"yes","residential":true,"residents_est":11,"h3_10":"8a1e2e6a815ffff","h3_11":"8b1e2e6a815bfff"},"geometry":{"type":"Polygon","coordinates":[[[20.074618,50.083166],[20.075053,50.082788],[20.075195,50.082855],[20.074759,50.083233],[20.074618,50.083166]]]}},{"type":"Feature","id":"w110460109","properties":{"type":"yes","residential":true,"residents_est":11,"h3_10":"8a1e2e6a8177fff","h3_11":"8b1e2e6a8170fff"},"geometry":{"type":"Polygon","coordinates":[[[20.071906,50.084985],[20.072048,50.084861],[20.072087,50.084879],[20.07226,50.084726],[20.072401,50.084792],[20.072242,50.084933],[20.07228,50.084951],[20.07219,50.085031],[20.072151,50.085013],[20.07206,50.085093],[20.072072,50.085099],[20.07205,50.085119],[20.072015,50.085102],[20.072032,50.085088],[20.071913,50.085032],[20.071945,50.085004],[20.071906,50.084985]]]}},{"type":"Feature","id":"w110460111","properties":{"type":"yes","residential":true,"residents_est":25,"h3_10":"8a1e2e6a812ffff","h3_11":"8b1e2e6a812cfff"},"geometry":{"type":"Polygon","coordinates":[[[20.069284,50.085052],[20.069387,50.084959],[20.070526,50.085494],[20.070557,50.085467],[20.070696,50.085532],[20.070561,50.085651],[20.07053,50.085636],[20.070524,50.085641],[20.070318,50.085543],[20.070322,50.085539],[20.069284,50.085052]]]}},{"type":"Feature","id":"w110460113","properties":{"type":"yes","residential":true,"residents_est":17,"h3_10":"8a1e2e6a81a7fff","h3_11":"8b1e2e6a81a3fff"},"geometry":{"type":"Polygon","coordinates":[[[20.066253,50.082768],[20.066258,50.082701],[20.066326,50.082703],[20.066339,50.082538],[20.06677,50.082553],[20.066749,50.08283],[20.066317,50.082816],[20.066321,50.08277],[20.066253,50.082768]]]}},{"type":"Feature","id":"w110460114","properties":{"type":"yes","residential":true,"residents_est":12,"h3_10":"8a1e2e6a815ffff","h3_11":"8b1e2e6a815efff"},"geometry":{"type":"Polygon","coordinates":[[[20.073036,50.083315],[20.073115,50.083248],[20.073895,50.083606],[20.073815,50.083682],[20.073036,50.083315]]]}},{"type":"Feature","id":"w110460119","properties":{"type":"yes","residential":true,"residents_est":1,"h3_10":"8a1e2e6a81affff","h3_11":"8b1e2e6a81a8fff"},"geometry":{"type":"Polygon","coordinates":[[[20.068142,50.082533],[20.068176,50.082502],[20.068383,50.082599],[20.068348,50.08263],[20.068142,50.082533]]]}},{"type":"Feature","id":"w110460121","properties":{"type":"yes","residential":true,"residents_est":28,"h3_10":"8a1e2e6a8117fff","h3_11":"8b1e2e6a8110fff"},"geometry":{"type":"Polygon","coordinates":[[[20.067059,50.083496],[20.067158,50.083408],[20.068691,50.084127],[20.068593,50.084215],[20.067059,50.083496]]]}},{"type":"Feature","id":"w110460124","properties":{"type":"yes","residential":true,"residents_est":1,"h3_10":"8a1e2e6a8167fff","h3_11":"8b1e2e6a8164fff"},"geometry":{"type":"Polygon","coordinates":[[[20.073196,50.085899],[20.073243,50.085857],[20.073456,50.085956],[20.073408,50.085998],[20.073196,50.085899]]]}},{"type":"Feature","id":"w110460129","properties":{"type":"yes","address":"Mrozowa 14","residential":true,"residents_est":10,"h3_10":"8a1e2e6a815ffff","h3_11":"8b1e2e6a815afff"},"geometry":{"type":"Polygon","coordinates":[[[20.073501,50.082845],[20.07363,50.082731],[20.074042,50.082926],[20.073913,50.083039],[20.073501,50.082845]]]}},{"type":"Feature","id":"w110460132","properties":{"type":"yes","address":"Ujastek 7A","residential":true,"residents_est":4,"h3_10":"8a1e2e6a8117fff","h3_11":"8b1e2e6a8116fff"},"geometry":{"type":"Polygon","coordinates":[[[20.066796,50.083733],[20.066968,50.083578],[20.067108,50.083641],[20.066934,50.083798],[20.066796,50.083733]]]}},{"type":"Feature","id":"w110460133","properties":{"type":"industrial","name":"Metalodlew","residential":false,"residents_est":0,"h3_10":"8a1e2e6a806ffff","h3_11":"8b1e2e6a806efff"},"geometry":{"type":"Polygon","coordinates":[[[20.076028,50.082629],[20.07616,50.082512],[20.076364,50.082607],[20.076422,50.082555],[20.076316,50.082506],[20.076782,50.082094],[20.076888,50.082144],[20.076981,50.082061],[20.077079,50.082106],[20.077203,50.081996],[20.077445,50.08211],[20.07732,50.08222],[20.077336,50.082227],[20.077361,50.082204],[20.077735,50.082379],[20.077708,50.082402],[20.077787,50.082439],[20.077815,50.082414],[20.078535,50.082752],[20.078505,50.082777],[20.078978,50.082997],[20.078231,50.083659],[20.076461,50.082832],[20.076423,50.082867],[20.076071,50.082703],[20.07611,50.082669],[20.076028,50.082629]]]}},{"type":"Feature","id":"w110460138","properties":{"type":"yes","residential":true,"residents_est":6,"h3_10":"8a1e2e6a815ffff","h3_11":"8b1e2e6a815efff"},"geometry":{"type":"Polygon","coordinates":[[[20.073816,50.083347],[20.074031,50.083158],[20.07417,50.083223],[20.073956,50.083412],[20.073816,50.083347]]]}},{"type":"Feature","id":"w110460139","properties":{"type":"yes","address":"Ujastek 5b","residential":true,"residents_est":11,"h3_10":"8a1e2e6a81a7fff","h3_11":"8b1e2e6a81a0fff"},"geometry":{"type":"Polygon","coordinates":[[[20.066016,50.083005],[20.066044,50.082637],[20.066266,50.082643],[20.066261,50.082644],[20.066236,50.083015],[20.066016,50.083005]]]}},{"type":"Feature","id":"w110460140","properties":{"type":"yes","residential":true,"residents_est":4,"h3_10":"8a1e2e6a811ffff","h3_11":"8b1e2e6a811dfff"},"geometry":{"type":"Polygon","coordinates":[[[20.069311,50.083821],[20.069402,50.083741],[20.069682,50.08387],[20.069591,50.083953],[20.069311,50.083821]]]}},{"type":"Feature","id":"w110460141","properties":{"type":"commercial","levels":3.0,"address":"Mrozowa 3","name":"ME Polska - Metal Engineering Polska","residential":false,"residents_est":0,"h3_10":"8a1e2e6a811ffff","h3_11":"8b1e2e6a811efff"},"geometry":{"type":"Polygon","coordinates":[[[20.068165,50.083323],[20.068227,50.083267],[20.068194,50.083252],[20.068224,50.083225],[20.068257,50.08324],[20.068718,50.082826],[20.068928,50.082924],[20.06878,50.083057],[20.068869,50.083099],[20.068823,50.083139],[20.068916,50.083182],[20.068609,50.083457],[20.06843,50.083374],[20.068378,50.083421],[20.068165,50.083323]]]}},{"type":"Feature","id":"w110460145","properties":{"type":"yes","name":"SED-HUT Ochrona","residential":true,"residents_est":6,"h3_10":"8a1e2e6a802ffff","h3_11":"8b1e2e6a802dfff"},"geometry":{"type":"Polygon","coordinates":[[[20.073284,50.083099],[20.073405,50.082995],[20.073658,50.083115],[20.07354,50.083219],[20.073284,50.083099]]]}},{"type":"Feature","id":"w110460146","properties":{"type":"yes","residential":true,"residents_est":11,"h3_10":"8a1e2e6a8177fff","h3_11":"8b1e2e6a8172fff"},"geometry":{"type":"Polygon","coordinates":[[[20.071493,50.08422],[20.071588,50.084135],[20.072221,50.084427],[20.072125,50.084512],[20.071493,50.08422]]]}},{"type":"Feature","id":"w110460148","properties":{"type":"yes","address":"Blokowa 2","residential":true,"residents_est":8,"h3_10":"8a1e2e6a8167fff","h3_11":"8b1e2e6a8161fff"},"geometry":{"type":"Polygon","coordinates":[[[20.074335,50.08552],[20.074443,50.085425],[20.074862,50.085622],[20.074753,50.085717],[20.074335,50.08552]]]}},{"type":"Feature","id":"w110460155","properties":{"type":"yes","address":"Blokowa 3","residential":true,"residents_est":2,"h3_10":"8a1e2e6a8167fff","h3_11":"8b1e2e6a8164fff"},"geometry":{"type":"Polygon","coordinates":[[[20.073414,50.085784],[20.073472,50.085732],[20.073574,50.085779],[20.073566,50.085786],[20.073584,50.085795],[20.073678,50.085714],[20.073768,50.085755],[20.073628,50.085887],[20.073414,50.085784]]]}},{"type":"Feature","id":"w110460159","properties":{"type":"yes","residential":true,"residents_est":7,"h3_10":"8a1e2e6a8177fff","h3_11":"8b1e2e6a8175fff"},"geometry":{"type":"Polygon","coordinates":[[[20.072333,50.085181],[20.072429,50.085091],[20.072844,50.085274],[20.072747,50.085364],[20.072333,50.085181]]]}},{"type":"Feature","id":"w110460160","properties":{"type":"yes","residential":true,"residents_est":14,"h3_10":"8a1e2e6a8067fff","h3_11":"8b1e2e6a8066fff"},"geometry":{"type":"Polygon","coordinates":[[[20.074943,50.083298],[20.075195,50.083075],[20.075256,50.083104],[20.075406,50.082967],[20.075568,50.083043],[20.07516,50.083396],[20.074943,50.083298]]]}},{"type":"Feature","id":"w110460161","properties":{"type":"yes","residential":true,"residents_est":24,"h3_10":"8a1e2e6a8117fff","h3_11":"8b1e2e6a8114fff"},"geometry":{"type":"Polygon","coordinates":[[[20.067138,50.083846],[20.067287,50.083715],[20.068178,50.084134],[20.06803,50.084265],[20.067138,50.083846]]]}},{"type":"Feature","id":"w110460162","properties":{"type":"yes","name":"Metalodlew","residential":true,"residents_est":181,"h3_10":"8a1e2e6a804ffff","h3_11":"8b1e2e6a804cfff"},"geometry":{"type":"Polygon","coordinates":[[[20.077191,50.081728],[20.077268,50.08166],[20.077375,50.081711],[20.077443,50.081651],[20.077341,50.081603],[20.077891,50.081117],[20.077993,50.081166],[20.077929,50.081222],[20.078292,50.081392],[20.07832,50.081367],[20.078374,50.081392],[20.078358,50.081405],[20.07837,50.08141],[20.078385,50.081397],[20.078433,50.081419],[20.078406,50.081444],[20.079517,50.081964],[20.07896,50.082454],[20.078442,50.082212],[20.078415,50.082235],[20.078345,50.082203],[20.078373,50.082179],[20.07834,50.082164],[20.078313,50.082188],[20.078243,50.082155],[20.078269,50.082132],[20.077914,50.081966],[20.077866,50.082009],[20.0777,50.081932],[20.077674,50.081954],[20.077191,50.081728]]]}},{"type":"Feature","id":"w110460166","properties":{"type":"yes","name":"Dawniej stołówka","residential":true,"residents_est":11,"h3_10":"8a1e2e6a815ffff","h3_11":"8b1e2e6a815dfff"},"geometry":{"type":"Polygon","coordinates":[[[20.07412,50.083642],[20.074224,50.08355],[20.074776,50.083807],[20.07467,50.0839],[20.07412,50.083642]]]}},{"type":"Feature","id":"w110460167","properties":{"type":"yes","residential":true,"residents_est":39,"h3_10":"8a1e2e6a8127fff","h3_11":"8b1e2e6a8121fff"},"geometry":{"type":"Polygon","coordinates":[[[20.068834,50.085504],[20.069041,50.085322],[20.07007,50.085804],[20.069865,50.085986],[20.068834,50.085504]]]}},{"type":"Feature","id":"w110460168","properties":{"type":"yes","residential":true,"residents_est":15,"h3_10":"8a1e2e6a815ffff","h3_11":"8b1e2e6a815cfff"},"geometry":{"type":"Polygon","coordinates":[[[20.073823,50.083781],[20.07393,50.083687],[20.074714,50.084058],[20.074608,50.084151],[20.073823,50.083781]]]}},{"type":"Feature","id":"w110460171","properties":{"type":"yes","residential":true,"residents_est":2,"h3_10":"8a1e2e6a8177fff","h3_11":"8b1e2e6a8175fff"},"geometry":{"type":"Polygon","coordinates":[[[20.07243,50.085086],[20.072574,50.08495],[20.072716,50.085012],[20.072572,50.085148],[20.07243,50.085086]]]}},{"type":"Feature","id":"w110460178","properties":{"type":"yes","address":"Mrozowa 1","residential":true,"residents_est":14,"h3_10":"8a1e2e6a81affff","h3_11":"8b1e2e6a81aefff"},"geometry":{"type":"Polygon","coordinates":[[[20.067336,50.082314],[20.067441,50.082222],[20.06796,50.082465],[20.06784,50.082572],[20.067602,50.082461],[20.067569,50.08249],[20.067584,50.082497],[20.067577,50.082502],[20.067624,50.082524],[20.067543,50.082598],[20.067494,50.082575],[20.067487,50.082582],[20.067473,50.082575],[20.067425,50.082617],[20.067381,50.082597],[20.067436,50.082548],[20.067374,50.082519],[20.067456,50.082446],[20.067517,50.082474],[20.067573,50.082426],[20.067336,50.082314]]]}},{"type":"Feature","id":"w110460179","properties":{"type":"yes","residential":true,"residents_est":16,"h3_10":"8a1e2e6a8167fff","h3_11":"8b1e2e6a8162fff"},"geometry":{"type":"Polygon","coordinates":[[[20.072824,50.085184],[20.072912,50.085107],[20.072972,50.085135],[20.073003,50.085108],[20.072997,50.085105],[20.073017,50.085087],[20.073023,50.08509],[20.073045,50.085071],[20.073019,50.085059],[20.073043,50.085038],[20.073068,50.08505],[20.073091,50.08503],[20.073255,50.085106],[20.073206,50.08515],[20.073447,50.085263],[20.07349,50.085224],[20.073533,50.085244],[20.073332,50.085422],[20.072824,50.085184]]]}},{"type":"Feature","id":"w110460182","properties":{"type":"yes","address":"Blokowa 2a","residential":true,"residents_est":5,"h3_10":"8a1e2e6a816ffff","h3_11":"8b1e2e6a816cfff"},"geometry":{"type":"Polygon","coordinates":[[[20.07485,50.085758],[20.07496,50.085661],[20.075191,50.085769],[20.075081,50.085866],[20.07485,50.085758]]]}},{"type":"Feature","id":"w110460191","properties":{"type":"yes","residential":true,"residents_est":9,"h3_10":"8a1e2e6a8177fff","h3_11":"8b1e2e6a8171fff"},"geometry":{"type":"Polygon","coordinates":[[[20.072899,50.084811],[20.072976,50.084743],[20.073747,50.085101],[20.073682,50.085159],[20.073068,50.084874],[20.073057,50.084884],[20.072899,50.084811]]]}},{"type":"Feature","id":"w161585550","properties":{"type":"industrial","levels":1.0,"address":"Ujastek 11","name":"Autoryzowany Serwis MAN i Neoplan","residential":false,"residents_est":0,"h3_10":"8a1e2e6a8137fff","h3_11":"8b1e2e6a8135fff"},"geometry":{"type":"Polygon","coordinates":[[[20.066805,50.08531],[20.066881,50.084533],[20.067704,50.084563],[20.067651,50.085219],[20.067541,50.085219],[20.06769,50.085281],[20.067595,50.085375],[20.067491,50.085332],[20.066805,50.08531]]]}},{"type":"Feature","id":"w161585555","properties":{"type":"yes","residential":true,"residents_est":11,"h3_10":"8a1e2e6a8007fff","h3_11":"8b1e2e6a8005fff"},"geometry":{"type":"Polygon","coordinates":[[[20.071634,50.082357],[20.072032,50.082006],[20.072153,50.082063],[20.071956,50.082239],[20.072007,50.082264],[20.071806,50.082439],[20.071782,50.082427],[20.071771,50.082437],[20.071743,50.082424],[20.071753,50.082414],[20.071634,50.082357]]]}},{"type":"Feature","id":"w161585568","properties":{"type":"commercial","levels":1.0,"residential":false,"residents_est":0,"h3_10":"8a1e2e6a8137fff","h3_11":"8b1e2e6a8134fff"},"geometry":{"type":"Polygon","coordinates":[[[20.066806,50.085343],[20.06688,50.084525],[20.066725,50.08452],[20.066651,50.085377],[20.06673,50.085379],[20.066734,50.085341],[20.066806,50.085343]]]}},{"type":"Feature","id":"w161585570","properties":{"type":"yes","residential":true,"residents_est":1,"h3_10":"8a1e2e6a8007fff","h3_11":"8b1e2e6a8005fff"},"geometry":{"type":"Polygon","coordinates":[[[20.071755,50.082484],[20.071867,50.08239],[20.072016,50.082459],[20.071909,50.082554],[20.071755,50.082484]]]}},{"type":"Feature","id":"w241225193","properties":{"type":"yes","residential":true,"residents_est":0,"h3_10":"8a1e2e6a819ffff","h3_11":"8b1e2e6a819afff"},"geometry":{"type":"Polygon","coordinates":[[[20.066361,50.080478],[20.066363,50.080426],[20.066465,50.080427],[20.066463,50.08048],[20.066361,50.080478]]]}},{"type":"Feature","id":"w298767642","properties":{"type":"commercial","levels":1.0,"address":"Ujastek 11","name":"Bosch Diesel Centrum","residential":false,"residents_est":0,"h3_10":"8a1e2e6a8127fff","h3_11":"8b1e2e6a8126fff"},"geometry":{"type":"Polygon","coordinates":[[[20.067984,50.085634],[20.067986,50.085608],[20.06802,50.085609],[20.068036,50.085416],[20.068064,50.085416],[20.068066,50.085398],[20.068258,50.085405],[20.068248,50.085523],[20.068286,50.085525],[20.068276,50.085644],[20.067984,50.085634]]]}},{"type":"Feature","id":"w338036450","properties":{"type":"yes","residential":true,"residents_est":1,"h3_10":"8a1e2e6a8167fff","h3_11":"8b1e2e6a8161fff"},"geometry":{"type":"Polygon","coordinates":[[[20.074231,50.085613],[20.074275,50.085576],[20.074517,50.085698],[20.074465,50.08574],[20.07433,50.085673],[20.074338,50.085666],[20.0743,50.085647],[20.074276,50.085667],[20.074232,50.085645],[20.074256,50.085625],[20.074231,50.085613]]]}},{"type":"Feature","id":"w338036522","properties":{"type":"yes","residential":true,"residents_est":6,"h3_10":"8a1e2e6a8167fff","h3_11":"8b1e2e6a8166fff"},"geometry":{"type":"Polygon","coordinates":[[[20.072851,50.085524],[20.072933,50.08545],[20.073181,50.085566],[20.073142,50.0856],[20.073154,50.085606],[20.073208,50.085555],[20.073261,50.08558],[20.073253,50.085586],[20.073362,50.085636],[20.073291,50.0857],[20.073182,50.08565],[20.073174,50.085658],[20.073131,50.085639],[20.073122,50.085649],[20.072851,50.085524]]]}},{"type":"Feature","id":"w338036548","properties":{"type":"yes","residential":true,"residents_est":10,"h3_10":"8a1e2e6a8107fff","h3_11":"8b1e2e6a8106fff"},"geometry":{"type":"Polygon","coordinates":[[[20.067969,50.084524],[20.068162,50.084456],[20.068407,50.084745],[20.068213,50.084813],[20.067969,50.084524]]]}},{"type":"Feature","id":"w338036564","properties":{"type":"yes","residential":true,"residents_est":2,"h3_10":"8a1e2e6a8107fff","h3_11":"8b1e2e6a8100fff"},"geometry":{"type":"Polygon","coordinates":[[[20.068836,50.084315],[20.068901,50.084258],[20.069239,50.084416],[20.069174,50.084473],[20.068836,50.084315]]]}},{"type":"Feature","id":"w338036612","properties":{"type":"warehouse","residential":false,"residents_est":0,"h3_10":"8a1e2e6a8127fff","h3_11":"8b1e2e6a8124fff"},"geometry":{"type":"Polygon","coordinates":[[[20.067929,50.086317],[20.067984,50.085634],[20.068276,50.085644],[20.068221,50.086326],[20.067929,50.086317]]]}},{"type":"Feature","id":"w338036630","properties":{"type":"yes","residential":true,"residents_est":2,"h3_10":"8a1e2e6a811ffff","h3_11":"8b1e2e6a811cfff"},"geometry":{"type":"Polygon","coordinates":[[[20.06902,50.083675],[20.069215,50.083498],[20.069306,50.08354],[20.069111,50.083717],[20.06902,50.083675]]]}},{"type":"Feature","id":"w338036733","properties":{"type":"yes","residential":true,"residents_est":1,"h3_10":"8a1e2e6a8137fff","h3_11":"8b1e2e6a8133fff"},"geometry":{"type":"Polygon","coordinates":[[[20.067296,50.084479],[20.067303,50.084407],[20.067471,50.084412],[20.067463,50.084486],[20.067296,50.084479]]]}},{"type":"Feature","id":"w338036758","properties":{"type":"yes","residential":true,"residents_est":5,"h3_10":"8a1e2e6a8117fff","h3_11":"8b1e2e6a8114fff"},"geometry":{"type":"Polygon","coordinates":[[[20.066773,50.084224],[20.066783,50.084114],[20.067083,50.084124],[20.067072,50.084234],[20.066773,50.084224]]]}},{"type":"Feature","id":"w338036803","properties":{"type":"yes","residential":true,"residents_est":11,"h3_10":"8a1e2e6a8137fff","h3_11":"8b1e2e6a8132fff"},"geometry":{"type":"Polygon","coordinates":[[[20.066719,50.084367],[20.066726,50.084259],[20.067473,50.084278],[20.067466,50.084386],[20.066719,50.084367]]]}},{"type":"Feature","id":"w338036847","properties":{"type":"yes","residential":true,"residents_est":1,"h3_10":"8a1e2e6a8127fff","h3_11":"8b1e2e6a8122fff"},"geometry":{"type":"Polygon","coordinates":[[[20.068418,50.085178],[20.068536,50.085068],[20.068614,50.085103],[20.068495,50.085216],[20.068418,50.085178]]]}},{"type":"Feature","id":"w338036875","properties":{"type":"yes","residential":true,"residents_est":5,"h3_10":"8a1e2e6a811ffff","h3_11":"8b1e2e6a811dfff"},"geometry":{"type":"Polygon","coordinates":[[[20.069756,50.083981],[20.070055,50.083713],[20.070142,50.083753],[20.069843,50.084021],[20.069756,50.083981]]]}},{"type":"Feature","id":"w338036918","properties":{"type":"yes","residential":true,"residents_est":0,"h3_10":"8a1e2e6a8127fff","h3_11":"8b1e2e6a8121fff"},"geometry":{"type":"Polygon","coordinates":[[[20.069596,50.085408],[20.069678,50.08534],[20.069744,50.085373],[20.069662,50.085441],[20.069596,50.085408]]]}},{"type":"Feature","id":"w338037029","properties":{"type":"yes","residential":true,"residents_est":15,"h3_10":"8a1e2e6a8107fff","h3_11":"8b1e2e6a8106fff"},"geometry":{"type":"Polygon","coordinates":[[[20.068011,50.084291],[20.068196,50.084131],[20.06864,50.084342],[20.068455,50.084502],[20.068011,50.084291]]]}},{"type":"Feature","id":"w338037072","properties":{"type":"yes","residential":true,"residents_est":1,"h3_10":"8a1e2e6a8137fff","h3_11":"8b1e2e6a8133fff"},"geometry":{"type":"Polygon","coordinates":[[[20.067653,50.084475],[20.067665,50.084294],[20.067744,50.084296],[20.067732,50.084478],[20.067653,50.084475]]]}},{"type":"Feature","id":"w338037073","properties":{"type":"yes","residential":true,"residents_est":1,"h3_10":"8a1e2e6a8167fff","h3_11":"8b1e2e6a8160fff"},"geometry":{"type":"Polygon","coordinates":[[[20.073349,50.085463],[20.073382,50.085442],[20.07352,50.085512],[20.073557,50.085484],[20.073594,50.0855],[20.07353,50.085552],[20.073349,50.085463]]]}},{"type":"Feature","id":"w338037208","properties":{"type":"yes","residential":true,"residents_est":1,"h3_10":"8a1e2e6a8137fff","h3_11":"8b1e2e6a8131fff"},"geometry":{"type":"Polygon","coordinates":[[[20.06806,50.085107],[20.068076,50.084899],[20.068183,50.084903],[20.068167,50.085111],[20.06806,50.085107]]]}},{"type":"Feature","id":"w369543530","properties":{"type":"roof","residential":false,"residents_est":0,"h3_10":"8a1e2e6a80b7fff","h3_11":"8b1e2e6a80b1fff"},"geometry":{"type":"Polygon","coordinates":[[[20.06763,50.079729],[20.067646,50.079562],[20.067696,50.079564],[20.06768,50.079732],[20.06763,50.079729]]]}},{"type":"Feature","id":"w609417467","properties":{"type":"industrial","levels":2.0,"name":"ZA","residential":false,"residents_est":0,"h3_10":"8a1e2e6a801ffff","h3_11":"8b1e2e6a801afff"},"geometry":{"type":"Polygon","coordinates":[[[20.071164,50.080451],[20.071469,50.080181],[20.07157,50.080228],[20.071824,50.080005],[20.071997,50.080087],[20.071851,50.080217],[20.072061,50.080315],[20.07216,50.080229],[20.072436,50.080359],[20.072089,50.080667],[20.07181,50.080538],[20.071932,50.080429],[20.071723,50.080331],[20.071595,50.080444],[20.071494,50.080397],[20.071339,50.080532],[20.071164,50.080451]]]}},{"type":"Feature","id":"w609417476","properties":{"type":"yes","levels":8.0,"name":"AM FCE","residential":true,"residents_est":24,"h3_10":"8a1e2e6a8077fff","h3_11":"8b1e2e6a8074fff"},"geometry":{"type":"Polygon","coordinates":[[[20.073869,50.08256],[20.074161,50.082301],[20.074343,50.082386],[20.074284,50.082438],[20.074333,50.08246],[20.0741,50.082667],[20.073869,50.08256]]]}},{"type":"Feature","id":"w705948492","properties":{"type":"yes","residential":true,"residents_est":2,"h3_10":"8a1e2e6a8067fff","h3_11":"8b1e2e6a8061fff"},"geometry":{"type":"Polygon","coordinates":[[[20.076682,50.082988],[20.07672,50.082954],[20.077174,50.083165],[20.077138,50.0832],[20.076682,50.082988]]]}},{"type":"Feature","id":"w705948493","properties":{"type":"yes","residential":true,"residents_est":0,"h3_10":"8a1e2e6a804ffff","h3_11":"8b1e2e6a804afff"},"geometry":{"type":"Polygon","coordinates":[[[20.077931,50.081222],[20.077993,50.081166],[20.07803,50.081185],[20.078005,50.081207],[20.078046,50.081226],[20.078008,50.081258],[20.077931,50.081222]]]}},{"type":"Feature","id":"w705948498","properties":{"type":"yes","residential":false,"residents_est":0,"h3_10":"8a1e2e6a806ffff","h3_11":"8b1e2e6a8069fff"},"geometry":{"type":"Polygon","coordinates":[[[20.078795,50.082754],[20.078814,50.082736],[20.078985,50.082815],[20.078964,50.082833],[20.078795,50.082754]]]}},{"type":"Feature","id":"w705948500","properties":{"type":"yes","residential":false,"residents_est":0,"h3_10":"8a1e2e6a8057fff","h3_11":"8b1e2e6a8054fff"},"geometry":{"type":"Polygon","coordinates":[[[20.074441,50.081571],[20.074476,50.081534],[20.074521,50.081551],[20.074483,50.081589],[20.074441,50.081571]]]}},{"type":"Feature","id":"w705948501","properties":{"type":"yes","residential":false,"residents_est":0,"h3_10":"8a1e2e6a8057fff","h3_11":"8b1e2e6a8054fff"},"geometry":{"type":"Polygon","coordinates":[[[20.074474,50.081599],[20.0745,50.081572],[20.07458,50.081612],[20.074552,50.081637],[20.074474,50.081599]]]}},{"type":"Feature","id":"w705948502","properties":{"type":"yes","residential":true,"residents_est":8,"h3_10":"8a1e2e6a8057fff","h3_11":"8b1e2e6a8054fff"},"geometry":{"type":"Polygon","coordinates":[[[20.074552,50.081637],[20.074653,50.081549],[20.07507,50.081747],[20.074971,50.081834],[20.074552,50.081637]]]}},{"type":"Feature","id":"w705948503","properties":{"type":"yes","residential":true,"residents_est":1,"h3_10":"8a1e2e6a80e7fff","h3_11":"8b1e2e6a80e2fff"},"geometry":{"type":"Polygon","coordinates":[[[20.073331,50.079948],[20.073382,50.079901],[20.073556,50.07998],[20.073503,50.080029],[20.073331,50.079948]]]}},{"type":"Feature","id":"w705948504","properties":{"type":"yes","residential":true,"residents_est":0,"h3_10":"8a1e2e6a80effff","h3_11":"8b1e2e6a80ecfff"},"geometry":{"type":"Polygon","coordinates":[[[20.074759,50.080632],[20.074837,50.080565],[20.074907,50.080598],[20.074827,50.080666],[20.074759,50.080632]]]}},{"type":"Feature","id":"w705948505","properties":{"type":"yes","residential":false,"residents_est":0,"h3_10":"8a1e2e6a80e7fff","h3_11":"8b1e2e6a80e1fff"},"geometry":{"type":"Polygon","coordinates":[[[20.074565,50.080405],[20.074614,50.080361],[20.074689,50.080397],[20.074643,50.08044],[20.074565,50.080405]]]}},{"type":"Feature","id":"w705948506","properties":{"type":"yes","residential":true,"residents_est":0,"h3_10":"8a1e2e6a8057fff","h3_11":"8b1e2e6a8056fff"},"geometry":{"type":"Polygon","coordinates":[[[20.074029,50.081313],[20.074056,50.081289],[20.074206,50.081359],[20.074179,50.081382],[20.074029,50.081313]]]}},{"type":"Feature","id":"w705948507","properties":{"type":"yes","residential":true,"residents_est":1,"h3_10":"8a1e2e6a8057fff","h3_11":"8b1e2e6a8056fff"},"geometry":{"type":"Polygon","coordinates":[[[20.0741,50.081309],[20.074153,50.081263],[20.074258,50.081312],[20.074206,50.081359],[20.0741,50.081309]]]}},{"type":"Feature","id":"w705948508","properties":{"type":"yes","residential":true,"residents_est":1,"h3_10":"8a1e2e6a8057fff","h3_11":"8b1e2e6a8056fff"},"geometry":{"type":"Polygon","coordinates":[[[20.074057,50.081288],[20.074197,50.081166],[20.074346,50.081238],[20.074258,50.081312],[20.074153,50.081263],[20.0741,50.081309],[20.074057,50.081288]]]}},{"type":"Feature","id":"w705948509","properties":{"type":"yes","residential":true,"residents_est":1,"h3_10":"8a1e2e6a8057fff","h3_11":"8b1e2e6a8056fff"},"geometry":{"type":"Polygon","coordinates":[[[20.073926,50.081156],[20.074011,50.08108],[20.07409,50.081117],[20.073974,50.081218],[20.073926,50.081156]]]}},{"type":"Feature","id":"w705948510","properties":{"type":"yes","residential":false,"residents_est":0,"h3_10":"8a1e2e6a800ffff","h3_11":"8b1e2e6a800bfff"},"geometry":{"type":"Polygon","coordinates":[[[20.073778,50.081012],[20.073829,50.080971],[20.073895,50.081005],[20.073843,50.081047],[20.073778,50.081012]]]}},{"type":"Feature","id":"w705948512","properties":{"type":"yes","residential":true,"residents_est":0,"h3_10":"8a1e2e6a800ffff","h3_11":"8b1e2e6a800afff"},"geometry":{"type":"Polygon","coordinates":[[[20.073015,50.081253],[20.073097,50.081178],[20.073155,50.081205],[20.073073,50.08128],[20.073015,50.081253]]]}},{"type":"Feature","id":"w705948514","properties":{"type":"yes","residential":false,"residents_est":0,"h3_10":"8a1e2e6a800ffff","h3_11":"8b1e2e6a800afff"},"geometry":{"type":"Polygon","coordinates":[[[20.072722,50.081276],[20.072769,50.081232],[20.072837,50.081263],[20.07279,50.081307],[20.072722,50.081276]]]}},{"type":"Feature","id":"w705948515","properties":{"type":"yes","residential":false,"residents_est":0,"h3_10":"8a1e2e6a800ffff","h3_11":"8b1e2e6a800afff"},"geometry":{"type":"Polygon","coordinates":[[[20.072651,50.081165],[20.072692,50.081129],[20.072782,50.081171],[20.072741,50.081207],[20.072651,50.081165]]]}},{"type":"Feature","id":"w705948516","properties":{"type":"yes","residential":false,"residents_est":0,"h3_10":"8a1e2e6a801ffff","h3_11":"8b1e2e6a801dfff"},"geometry":{"type":"Polygon","coordinates":[[[20.07242,50.081128],[20.072466,50.081087],[20.072646,50.081172],[20.072599,50.081212],[20.07242,50.081128]]]}},{"type":"Feature","id":"w705948525","properties":{"type":"yes","residential":true,"residents_est":1,"h3_10":"8a1e2e6a809ffff","h3_11":"8b1e2e6a809efff"},"geometry":{"type":"Polygon","coordinates":[[[20.068356,50.078229],[20.068411,50.078181],[20.068564,50.078252],[20.068485,50.078322],[20.068413,50.078287],[20.068438,50.078266],[20.068356,50.078229]]]}},{"type":"Feature","id":"w705948527","properties":{"type":"yes","residential":true,"residents_est":1,"h3_10":"8a1e2e6a809ffff","h3_11":"8b1e2e6a809dfff"},"geometry":{"type":"Polygon","coordinates":[[[20.069315,50.078694],[20.069369,50.078646],[20.069486,50.0787],[20.069431,50.078749],[20.069315,50.078694]]]}},{"type":"Feature","id":"w705948528","properties":{"type":"roof","residential":false,"residents_est":0,"h3_10":"8a1e2e6a8097fff","h3_11":"8b1e2e6a8095fff"},"geometry":{"type":"Polygon","coordinates":[[[20.067691,50.078921],[20.067702,50.078757],[20.067713,50.07875],[20.067766,50.078752],[20.067776,50.078759],[20.067765,50.078922],[20.067754,50.078929],[20.067702,50.078928],[20.067691,50.078921]]]}},{"type":"Feature","id":"w705948529","properties":{"type":"yes","residential":true,"residents_est":0,"h3_10":"8a1e2e6a80f7fff","h3_11":"8b1e2e6a80f5fff"},"geometry":{"type":"Polygon","coordinates":[[[20.07218,50.079991],[20.072197,50.079965],[20.072238,50.079954],[20.072279,50.079965],[20.072296,50.079991],[20.072279,50.080018],[20.072238,50.080028],[20.072197,50.080017],[20.07218,50.079991]]]}},{"type":"Feature","id":"w705948530","properties":{"type":"yes","residential":false,"residents_est":0,"h3_10":"8a1e2e6a801ffff","h3_11":"8b1e2e6a801bfff"},"geometry":{"type":"Polygon","coordinates":[[[20.07239,50.08057],[20.072429,50.08053],[20.072489,50.080553],[20.072449,50.080594],[20.07239,50.08057]]]}},{"type":"Feature","id":"w705948531","properties":{"type":"yes","residential":false,"residents_est":0,"h3_10":"8a1e2e6a801ffff","h3_11":"8b1e2e6a8019fff"},"geometry":{"type":"Polygon","coordinates":[[[20.072345,50.080618],[20.072383,50.080578],[20.072454,50.080606],[20.072435,50.080626],[20.072424,50.080622],[20.072405,50.080641],[20.072345,50.080618]]]}},{"type":"Feature","id":"w705948532","properties":{"type":"yes","residential":true,"residents_est":1,"h3_10":"8a1e2e6a801ffff","h3_11":"8b1e2e6a8019fff"},"geometry":{"type":"Polygon","coordinates":[[[20.072188,50.080805],[20.072224,50.080767],[20.072208,50.080761],[20.072339,50.080622],[20.072399,50.080646],[20.072233,50.080822],[20.072188,50.080805]]]}},{"type":"Feature","id":"w705948533","properties":{"type":"yes","residential":false,"residents_est":0,"h3_10":"8a1e2e6a801ffff","h3_11":"8b1e2e6a801afff"},"geometry":{"type":"Polygon","coordinates":[[[20.071512,50.080615],[20.071546,50.080586],[20.071618,50.080619],[20.071584,50.080649],[20.071512,50.080615]]]}},{"type":"Feature","id":"w705948534","properties":{"type":"yes","residential":false,"residents_est":0,"h3_10":"8a1e2e6a80affff","h3_11":"8b1e2e6a80acfff"},"geometry":{"type":"Polygon","coordinates":[[[20.070186,50.080513],[20.070239,50.080465],[20.070286,50.080487],[20.070232,50.080534],[20.070186,50.080513]]]}},{"type":"Feature","id":"w705948537","properties":{"type":"yes","residential":true,"residents_est":0,"h3_10":"8a1e2e6a80affff","h3_11":"8b1e2e6a80acfff"},"geometry":{"type":"Polygon","coordinates":[[[20.07024,50.080532],[20.07028,50.080497],[20.07042,50.080563],[20.070379,50.080599],[20.07024,50.080532]]]}},{"type":"Feature","id":"w705948539","properties":{"type":"yes","residential":true,"residents_est":1,"h3_10":"8a1e2e6a801ffff","h3_11":"8b1e2e6a801efff"},"geometry":{"type":"Polygon","coordinates":[[[20.070695,50.080743],[20.07074,50.080703],[20.070916,50.080784],[20.070872,50.080824],[20.070695,50.080743]]]}},{"type":"Feature","id":"w705948540","properties":{"type":"yes","residential":true,"residents_est":1,"h3_10":"8a1e2e6a801ffff","h3_11":"8b1e2e6a801efff"},"geometry":{"type":"Polygon","coordinates":[[[20.070831,50.080942],[20.070863,50.080913],[20.070848,50.080905],[20.070863,50.080892],[20.07088,50.080899],[20.070915,50.080868],[20.070861,50.080841],[20.070925,50.080789],[20.070978,50.080816],[20.070968,50.080825],[20.071018,50.080848],[20.070881,50.080966],[20.070831,50.080942]]]}},{"type":"Feature","id":"w705948541","properties":{"type":"yes","residential":true,"residents_est":1,"h3_10":"8a1e2e6a80a7fff","h3_11":"8b1e2e6a80a0fff"},"geometry":{"type":"Polygon","coordinates":[[[20.068441,50.080274],[20.068449,50.080196],[20.068634,50.080203],[20.068626,50.080282],[20.068441,50.080274]]]}},{"type":"Feature","id":"w705948543","properties":{"type":"yes","residential":false,"residents_est":0,"h3_10":"8a1e2e6a80a7fff","h3_11":"8b1e2e6a80a4fff"},"geometry":{"type":"Polygon","coordinates":[[[20.068144,50.080946],[20.068147,50.08091],[20.068227,50.080912],[20.068224,50.080949],[20.068144,50.080946]]]}},{"type":"Feature","id":"w705948544","properties":{"type":"yes","residential":true,"residents_est":7,"h3_10":"8a1e2e6a80a7fff","h3_11":"8b1e2e6a80a4fff"},"geometry":{"type":"Polygon","coordinates":[[[20.068062,50.080578],[20.068203,50.080569],[20.068231,50.080663],[20.068313,50.080665],[20.068301,50.080756],[20.068347,50.080759],[20.068343,50.080789],[20.068298,50.080787],[20.068296,50.080804],[20.068336,50.080805],[20.068334,50.080849],[20.068295,50.080847],[20.068292,50.08087],[20.068243,50.080868],[20.068244,50.080857],[20.068229,50.080857],[20.068229,50.080848],[20.068152,50.080845],[20.068161,50.080725],[20.068084,50.080727],[20.068063,50.080676],[20.068062,50.080578]]]}},{"type":"Feature","id":"w705948545","properties":{"type":"yes","residential":true,"residents_est":1,"h3_10":"8a1e2e6a8017fff","h3_11":"8b1e2e6a8014fff"},"geometry":{"type":"Polygon","coordinates":[[[20.069882,50.081627],[20.069895,50.081493],[20.070043,50.081498],[20.070031,50.081632],[20.069882,50.081627]]]}},{"type":"Feature","id":"w705948546","properties":{"type":"yes","residential":false,"residents_est":0,"h3_10":"8a1e2e6a80a7fff","h3_11":"8b1e2e6a80a5fff"},"geometry":{"type":"Polygon","coordinates":[[[20.068759,50.080681],[20.068767,50.080669],[20.06878,50.080667],[20.068825,50.080668],[20.068846,50.080681],[20.068822,50.080696],[20.068801,50.080698],[20.068781,50.080695],[20.068759,50.080681]]]}},{"type":"Feature","id":"r1558816","properties":{"type":"hospital","address":"Ujastek 3","residential":false,"residents_est":0,"h3_10":"8a1e2e6a8017fff","h3_11":"8b1e2e6a8016fff"},"geometry":{"type":"Polygon","coordinates":[[[20.068296,50.080804],[20.068298,50.080787],[20.068343,50.080789],[20.068347,50.080759],[20.068301,50.080756],[20.068313,50.080665],[20.068744,50.080679],[20.068736,50.080769],[20.068795,50.080771],[20.068804,50.080804],[20.068867,50.080808],[20.068909,50.080536],[20.069097,50.080548],[20.069083,50.08064],[20.069216,50.080648],[20.069232,50.080557],[20.069416,50.080569],[20.069375,50.080838],[20.069511,50.080847],[20.069553,50.080578],[20.069948,50.080604],[20.06993,50.080768],[20.069712,50.080756],[20.069697,50.080858],[20.069752,50.080862],[20.069758,50.080818],[20.070236,50.080834],[20.070223,50.080967],[20.069939,50.08095],[20.069883,50.081624],[20.069371,50.081607],[20.069379,50.081517],[20.069244,50.081513],[20.069238,50.081602],[20.069204,50.081601],[20.069199,50.081663],[20.069297,50.081666],[20.069287,50.081782],[20.068975,50.081771],[20.068985,50.081656],[20.069083,50.081659],[20.069088,50.081598],[20.069009,50.081595],[20.069012,50.081562],[20.069021,50.081562],[20.069026,50.081505],[20.068887,50.0815],[20.068876,50.081622],[20.068659,50.081615],[20.068669,50.081493],[20.068348,50.081484],[20.068359,50.081355],[20.068351,50.081354],[20.068354,50.081328],[20.068361,50.081327],[20.068396,50.080882],[20.068389,50.080881],[20.06839,50.080851],[20.068334,50.080849],[20.068336,50.080805],[20.068296,50.080804]],[[20.068536,50.081457],[20.068672,50.081462],[20.06872,50.080864],[20.068584,50.080859],[20.068536,50.081457]],[[20.068887,50.081469],[20.069026,50.081474],[20.069074,50.080874],[20.068937,50.080869],[20.068887,50.081469]],[[20.069057,50.08082],[20.069187,50.080829],[20.069202,50.080712],[20.069074,50.080703],[20.069057,50.08082]],[[20.069249,50.081482],[20.06938,50.081485],[20.069433,50.080885],[20.069299,50.080883],[20.069249,50.081482]],[[20.06957,50.081489],[20.069704,50.081494],[20.069749,50.080959],[20.069616,50.080953],[20.06957,50.081489]]]}},{"type":"Feature","id":"w705948548","properties":{"type":"yes","residential":false,"residents_est":0,"h3_10":"8a1e2e6a818ffff","h3_11":"8b1e2e6a818cfff"},"geometry":{"type":"Polygon","coordinates":[[[20.067721,50.081847],[20.067786,50.081789],[20.067832,50.08181],[20.067767,50.081868],[20.067721,50.081847]]]}},{"type":"Feature","id":"w705948549","properties":{"type":"yes","residential":true,"residents_est":1,"h3_10":"8a1e2e6a818ffff","h3_11":"8b1e2e6a818cfff"},"geometry":{"type":"Polygon","coordinates":[[[20.067743,50.081767],[20.067848,50.081673],[20.067938,50.081715],[20.067832,50.08181],[20.067743,50.081767]]]}},{"type":"Feature","id":"w705948550","properties":{"type":"yes","residential":false,"residents_est":0,"h3_10":"8a1e2e6a8037fff","h3_11":"8b1e2e6a8032fff"},"geometry":{"type":"Polygon","coordinates":[[[20.069497,50.082043],[20.06952,50.082022],[20.069583,50.082051],[20.06956,50.082072],[20.069497,50.082043]]]}},{"type":"Feature","id":"w705948552","properties":{"type":"yes","residential":false,"residents_est":0,"h3_10":"8a1e2e6a8027fff","h3_11":"8b1e2e6a8024fff"},"geometry":{"type":"Polygon","coordinates":[[[20.070614,50.083297],[20.070646,50.083268],[20.07069,50.083288],[20.070656,50.083319],[20.070614,50.083297]]]}},{"type":"Feature","id":"w705948553","properties":{"type":"yes","residential":false,"residents_est":0,"h3_10":"8a1e2e6a8027fff","h3_11":"8b1e2e6a8026fff"},"geometry":{"type":"Polygon","coordinates":[[[20.070217,50.083086],[20.070243,50.083062],[20.070316,50.083096],[20.070289,50.08312],[20.070217,50.083086]]]}},{"type":"Feature","id":"w705948554","properties":{"type":"yes","residential":false,"residents_est":0,"h3_10":"8a1e2e6a8027fff","h3_11":"8b1e2e6a8026fff"},"geometry":{"type":"Polygon","coordinates":[[[20.070631,50.082974],[20.070676,50.082935],[20.070754,50.082972],[20.070709,50.08301],[20.070631,50.082974]]]}},{"type":"Feature","id":"w705948555","properties":{"type":"yes","residential":true,"residents_est":55,"h3_10":"8a1e2e6a8037fff","h3_11":"8b1e2e6a8035fff"},"geometry":{"type":"Polygon","coordinates":[[[20.069651,50.082518],[20.069876,50.082319],[20.070854,50.082777],[20.070631,50.082974],[20.070575,50.082948],[20.070468,50.083042],[20.069714,50.082692],[20.069821,50.082597],[20.069651,50.082518]]]}},{"type":"Feature","id":"w705948556","properties":{"type":"yes","residential":false,"residents_est":0,"h3_10":"8a1e2e6a8007fff","h3_11":"8b1e2e6a8006fff"},"geometry":{"type":"Polygon","coordinates":[[[20.070352,50.081807],[20.070402,50.081762],[20.070473,50.081793],[20.070423,50.08184],[20.070352,50.081807]]]}},{"type":"Feature","id":"w705948558","properties":{"type":"yes","residential":true,"residents_est":0,"h3_10":"8a1e2e6a8017fff","h3_11":"8b1e2e6a8015fff"},"geometry":{"type":"Polygon","coordinates":[[[20.070533,50.081646],[20.070609,50.08158],[20.07068,50.081611],[20.070604,50.081679],[20.070533,50.081646]]]}},{"type":"Feature","id":"w705948559","properties":{"type":"yes","residential":true,"residents_est":1,"h3_10":"8a1e2e6a8007fff","h3_11":"8b1e2e6a8002fff"},"geometry":{"type":"Polygon","coordinates":[[[20.070664,50.08153],[20.070812,50.081399],[20.070884,50.081431],[20.070735,50.081563],[20.070664,50.08153]]]}},{"type":"Feature","id":"w705948560","properties":{"type":"yes","residential":true,"residents_est":1,"h3_10":"8a1e2e6a8017fff","h3_11":"8b1e2e6a8011fff"},"geometry":{"type":"Polygon","coordinates":[[[20.070869,50.081349],[20.071019,50.081216],[20.071089,50.081249],[20.07094,50.081381],[20.070869,50.081349]]]}},{"type":"Feature","id":"w705948561","properties":{"type":"yes","residential":false,"residents_est":0,"h3_10":"8a1e2e6a801ffff","h3_11":"8b1e2e6a801cfff"},"geometry":{"type":"Polygon","coordinates":[[[20.071075,50.081167],[20.071125,50.081122],[20.071196,50.081155],[20.071146,50.0812],[20.071075,50.081167]]]}},{"type":"Feature","id":"w705948562","properties":{"type":"yes","residential":true,"residents_est":1,"h3_10":"8a1e2e6a8037fff","h3_11":"8b1e2e6a8033fff"},"geometry":{"type":"Polygon","coordinates":[[[20.070008,50.082028],[20.070088,50.081957],[20.070253,50.082043],[20.070168,50.082068],[20.070137,50.082093],[20.070008,50.082028]]]}},{"type":"Feature","id":"w705948563","properties":{"type":"yes","residential":true,"residents_est":13,"h3_10":"8a1e2e6a8037fff","h3_11":"8b1e2e6a8031fff"},"geometry":{"type":"Polygon","coordinates":[[[20.070169,50.082068],[20.070316,50.082026],[20.071213,50.082448],[20.071067,50.082489],[20.070169,50.082068]]]}},{"type":"Feature","id":"w705948564","properties":{"type":"yes","residential":false,"residents_est":0,"h3_10":"8a1e2e6a802ffff","h3_11":"8b1e2e6a802afff"},"geometry":{"type":"Polygon","coordinates":[[[20.072241,50.082271],[20.072271,50.082246],[20.072327,50.082273],[20.0723,50.082299],[20.072241,50.082271]]]}},{"type":"Feature","id":"w705948565","properties":{"type":"yes","residential":true,"residents_est":0,"h3_10":"8a1e2e6a802ffff","h3_11":"8b1e2e6a802afff"},"geometry":{"type":"Polygon","coordinates":[[[20.072163,50.082314],[20.072182,50.082296],[20.072199,50.082304],[20.072241,50.082271],[20.072299,50.082298],[20.072225,50.082363],[20.072166,50.082335],[20.07218,50.082322],[20.072163,50.082314]]]}},{"type":"Feature","id":"w705948566","properties":{"type":"yes","residential":true,"residents_est":0,"h3_10":"8a1e2e6a802ffff","h3_11":"8b1e2e6a802afff"},"geometry":{"type":"Polygon","coordinates":[[[20.0723,50.082299],[20.072327,50.082273],[20.072359,50.082287],[20.072409,50.082254],[20.072451,50.082279],[20.072384,50.082338],[20.0723,50.082299]]]}},{"type":"Feature","id":"w705948567","properties":{"type":"yes","residential":true,"residents_est":6,"h3_10":"8a1e2e6a8007fff","h3_11":"8b1e2e6a8001fff"},"geometry":{"type":"Polygon","coordinates":[[[20.07206,50.082147],[20.072165,50.082054],[20.072136,50.082039],[20.072179,50.082003],[20.072421,50.082117],[20.072271,50.082246],[20.07206,50.082147]]]}},{"type":"Feature","id":"w705948568","properties":{"type":"yes","residential":true,"residents_est":6,"h3_10":"8a1e2e6a802ffff","h3_11":"8b1e2e6a802afff"},"geometry":{"type":"Polygon","coordinates":[[[20.07216,50.082535],[20.072452,50.082279],[20.072418,50.082259],[20.072521,50.082175],[20.072625,50.082223],[20.072304,50.082506],[20.072263,50.082487],[20.072248,50.082499],[20.072259,50.082508],[20.072202,50.082558],[20.07216,50.082535]]]}},{"type":"Feature","id":"w705948569","properties":{"type":"yes","residential":true,"residents_est":6,"h3_10":"8a1e2e6a802ffff","h3_11":"8b1e2e6a802afff"},"geometry":{"type":"Polygon","coordinates":[[[20.072647,50.082202],[20.072707,50.082148],[20.073188,50.082369],[20.073124,50.082426],[20.072647,50.082202]]]}},{"type":"Feature","id":"w705948570","properties":{"type":"service","residential":false,"residents_est":0,"h3_10":"8a1e2e6a802ffff","h3_11":"8b1e2e6a802cfff"},"geometry":{"type":"Polygon","coordinates":[[[20.07258,50.082883],[20.072663,50.082806],[20.072787,50.08286],[20.072749,50.082894],[20.072775,50.082906],[20.072721,50.082953],[20.07258,50.082883]]]}},{"type":"Feature","id":"w705948571","properties":{"type":"yes","residential":true,"residents_est":1,"h3_10":"8a1e2e6a8157fff","h3_11":"8b1e2e6a8152fff"},"geometry":{"type":"Polygon","coordinates":[[[20.072203,50.08329],[20.07229,50.083215],[20.072321,50.083229],[20.072385,50.083173],[20.072449,50.083203],[20.072298,50.083335],[20.072203,50.08329]]]}},{"type":"Feature","id":"w705948572","properties":{"type":"yes","residential":true,"residents_est":6,"h3_10":"8a1e2e6a8157fff","h3_11":"8b1e2e6a8155fff"},"geometry":{"type":"Polygon","coordinates":[[[20.072491,50.084184],[20.072572,50.084112],[20.072936,50.084282],[20.072854,50.084355],[20.072491,50.084184]]]}},{"type":"Feature","id":"w705948574","properties":{"type":"yes","residential":true,"residents_est":0,"h3_10":"8a1e2e6a8147fff","h3_11":"8b1e2e6a8142fff"},"geometry":{"type":"Polygon","coordinates":[[[20.073846,50.084171],[20.073919,50.084107],[20.07401,50.08415],[20.073992,50.084143],[20.073924,50.084204],[20.073947,50.084218],[20.073846,50.084171]]]}},{"type":"Feature","id":"w705948576","properties":{"type":"yes","residential":true,"residents_est":0,"h3_10":"8a1e2e6a8157fff","h3_11":"8b1e2e6a8153fff"},"geometry":{"type":"Polygon","coordinates":[[[20.072714,50.083411],[20.072776,50.083356],[20.072841,50.083386],[20.072775,50.083441],[20.072714,50.083411]]]}},{"type":"Feature","id":"w705948577","properties":{"type":"yes","residential":true,"residents_est":1,"h3_10":"8a1e2e6a815ffff","h3_11":"8b1e2e6a815efff"},"geometry":{"type":"Polygon","coordinates":[[[20.073565,50.083223],[20.073613,50.083182],[20.073771,50.083255],[20.073723,50.083296],[20.073565,50.083223]]]}},{"type":"Feature","id":"w705948578","properties":{"type":"yes","residential":true,"residents_est":1,"h3_10":"8a1e2e6a8067fff","h3_11":"8b1e2e6a8066fff"},"geometry":{"type":"Polygon","coordinates":[[[20.075177,50.082981],[20.075267,50.082902],[20.075347,50.082939],[20.075259,50.083019],[20.075177,50.082981]]]}},{"type":"Feature","id":"w705948579","properties":{"type":"yes","residential":true,"residents_est":7,"h3_10":"8a1e2e6a815ffff","h3_11":"8b1e2e6a8159fff"},"geometry":{"type":"Polygon","coordinates":[[[20.074807,50.083373],[20.074909,50.083283],[20.07516,50.083396],[20.075252,50.083444],[20.07515,50.083534],[20.074807,50.083373]]]}},{"type":"Feature","id":"w705948581","properties":{"type":"yes","residential":false,"residents_est":0,"h3_10":"8a1e2e6a8067fff","h3_11":"8b1e2e6a8065fff"},"geometry":{"type":"Polygon","coordinates":[[[20.076528,50.083586],[20.076613,50.083512],[20.07665,50.08353],[20.076566,50.083604],[20.076528,50.083586]]]}},{"type":"Feature","id":"w705948582","properties":{"type":"yes","residential":false,"residents_est":0,"h3_10":"8a1e2e6a814ffff","h3_11":"8b1e2e6a814afff"},"geometry":{"type":"Polygon","coordinates":[[[20.075546,50.083666],[20.075558,50.083647],[20.075587,50.083639],[20.075616,50.083646],[20.075629,50.083665],[20.075617,50.083684],[20.075588,50.083693],[20.075558,50.083685],[20.075546,50.083666]]]}},{"type":"Feature","id":"w705948583","properties":{"type":"yes","residential":true,"residents_est":0,"h3_10":"8a1e2e6a814ffff","h3_11":"8b1e2e6a814afff"},"geometry":{"type":"Polygon","coordinates":[[[20.07536,50.083694],[20.075375,50.08367],[20.075412,50.08366],[20.07545,50.08367],[20.075465,50.083694],[20.07545,50.083717],[20.075412,50.083727],[20.075375,50.083718],[20.07536,50.083694]]]}},{"type":"Feature","id":"w705948584","properties":{"type":"yes","residential":false,"residents_est":0,"h3_10":"8a1e2e6a814ffff","h3_11":"8b1e2e6a814afff"},"geometry":{"type":"Polygon","coordinates":[[[20.075455,50.08374],[20.07547,50.083717],[20.075506,50.083708],[20.075541,50.083717],[20.075556,50.08374],[20.075541,50.083763],[20.075506,50.083772],[20.07547,50.083763],[20.075455,50.08374]]]}},{"type":"Feature","id":"w893415613","properties":{"type":"yes","residential":true,"residents_est":1,"h3_10":"8a1e2e6a812ffff","h3_11":"8b1e2e6a8129fff"},"geometry":{"type":"Polygon","coordinates":[[[20.070868,50.085094],[20.070993,50.084984],[20.071069,50.08502],[20.071046,50.08504],[20.071076,50.085054],[20.070974,50.085144],[20.070868,50.085094]]]}},{"type":"Feature","id":"w893415614","properties":{"type":"yes","residential":false,"residents_est":0,"h3_10":"8a1e2e6a812ffff","h3_11":"8b1e2e6a812cfff"},"geometry":{"type":"Polygon","coordinates":[[[20.07036,50.085416],[20.070406,50.085375],[20.070465,50.085403],[20.070419,50.085444],[20.07036,50.085416]]]}},{"type":"Feature","id":"w893415615","properties":{"type":"yes","residential":true,"residents_est":1,"h3_10":"8a1e2e6a812ffff","h3_11":"8b1e2e6a812dfff"},"geometry":{"type":"Polygon","coordinates":[[[20.070419,50.085444],[20.07048,50.085391],[20.070585,50.08544],[20.070526,50.085494],[20.070419,50.085444]]]}},{"type":"Feature","id":"w893415616","properties":{"type":"yes","residential":true,"residents_est":1,"h3_10":"8a1e2e6a812ffff","h3_11":"8b1e2e6a812dfff"},"geometry":{"type":"Polygon","coordinates":[[[20.070561,50.085651],[20.070668,50.085559],[20.070835,50.085639],[20.070732,50.08573],[20.070561,50.085651]]]}},{"type":"Feature","id":"w893415621","properties":{"type":"yes","residential":true,"residents_est":1,"h3_10":"8a1e2e6a8127fff","h3_11":"8b1e2e6a8120fff"},"geometry":{"type":"Polygon","coordinates":[[[20.068641,50.085446],[20.068736,50.085368],[20.068896,50.085443],[20.068805,50.085522],[20.068641,50.085446]]]}},{"type":"Feature","id":"w893415630","properties":{"type":"yes","residential":true,"residents_est":1,"h3_10":"8a1e2e6a8137fff","h3_11":"8b1e2e6a8131fff"},"geometry":{"type":"Polygon","coordinates":[[[20.0677,50.084711],[20.067705,50.08462],[20.067787,50.084622],[20.06778,50.084715],[20.0677,50.084711]]]}},{"type":"Feature","id":"w893415631","properties":{"type":"yes","residential":false,"residents_est":0,"h3_10":"8a1e2e6a8137fff","h3_11":"8b1e2e6a8133fff"},"geometry":{"type":"Polygon","coordinates":[[[20.067597,50.084409],[20.067603,50.084303],[20.067646,50.084303],[20.06764,50.08441],[20.067597,50.084409]]]}},{"type":"Feature","id":"w893415637","properties":{"type":"yes","residential":true,"residents_est":1,"h3_10":"8a1e2e6a811ffff","h3_11":"8b1e2e6a811afff"},"geometry":{"type":"Polygon","coordinates":[[[20.068725,50.08282],[20.068769,50.082782],[20.068859,50.082811],[20.068939,50.082855],[20.068997,50.08291],[20.069027,50.082969],[20.068939,50.082946],[20.06895,50.082934],[20.068728,50.08283],[20.068735,50.082824],[20.068725,50.08282]]]}},{"type":"Feature","id":"w893415638","properties":{"type":"yes","residential":true,"residents_est":1,"h3_10":"8a1e2e6a81affff","h3_11":"8b1e2e6a81adfff"},"geometry":{"type":"Polygon","coordinates":[[[20.068233,50.083131],[20.068347,50.083033],[20.068407,50.083063],[20.068295,50.083159],[20.068233,50.083131]]]}},{"type":"Feature","id":"w893415639","properties":{"type":"yes","residential":true,"residents_est":5,"h3_10":"8a1e2e6a81affff","h3_11":"8b1e2e6a81a9fff"},"geometry":{"type":"Polygon","coordinates":[[[20.068395,50.082724],[20.068485,50.082645],[20.068732,50.082762],[20.068456,50.083005],[20.068416,50.082986],[20.0686,50.082819],[20.068395,50.082724]]]}},{"type":"Feature","id":"w893415640","properties":{"type":"yes","residential":true,"residents_est":1,"h3_10":"8a1e2e6a81affff","h3_11":"8b1e2e6a81acfff"},"geometry":{"type":"Polygon","coordinates":[[[20.067725,50.082905],[20.067774,50.082861],[20.067934,50.082936],[20.067884,50.08298],[20.067725,50.082905]]]}},{"type":"Feature","id":"w893415641","properties":{"type":"yes","residential":true,"residents_est":0,"h3_10":"8a1e2e6a81affff","h3_11":"8b1e2e6a81acfff"},"geometry":{"type":"Polygon","coordinates":[[[20.067561,50.082819],[20.067653,50.082738],[20.067672,50.082747],[20.067654,50.082765],[20.067683,50.082779],[20.067612,50.082841],[20.067561,50.082819]]]}},{"type":"Feature","id":"w893415642","properties":{"type":"yes","residential":true,"residents_est":4,"h3_10":"8a1e2e6a81affff","h3_11":"8b1e2e6a81a8fff"},"geometry":{"type":"Polygon","coordinates":[[[20.06744,50.082604],[20.067473,50.082575],[20.067487,50.082582],[20.067494,50.082575],[20.067543,50.082598],[20.067624,50.082524],[20.067799,50.082606],[20.067778,50.082624],[20.067792,50.082631],[20.067691,50.082721],[20.06744,50.082604]]]}},{"type":"Feature","id":"w893415643","properties":{"type":"yes","residential":true,"residents_est":0,"h3_10":"8a1e2e6a81affff","h3_11":"8b1e2e6a81aefff"},"geometry":{"type":"Polygon","coordinates":[[[20.066881,50.082525],[20.066911,50.082485],[20.067059,50.082531],[20.067028,50.082572],[20.066881,50.082525]]]}},{"type":"Feature","id":"w893415644","properties":{"type":"yes","residential":true,"residents_est":10,"h3_10":"8a1e2e6a81affff","h3_11":"8b1e2e6a81aefff"},"geometry":{"type":"Polygon","coordinates":[[[20.06704,50.082577],[20.067142,50.082487],[20.067425,50.082617],[20.06744,50.082604],[20.067679,50.082714],[20.067559,50.08282],[20.06704,50.082577]]]}},{"type":"Feature","id":"w893415645","properties":{"type":"service","residential":false,"residents_est":0,"h3_10":"8a1e2e6a81a7fff","h3_11":"8b1e2e6a81a5fff"},"geometry":{"type":"Polygon","coordinates":[[[20.066743,50.083252],[20.066745,50.083207],[20.066816,50.083209],[20.066813,50.083254],[20.066743,50.083252]]]}},{"type":"Feature","id":"w893415646","properties":{"type":"service","residential":false,"residents_est":0,"h3_10":"8a1e2e6a81a7fff","h3_11":"8b1e2e6a81a5fff"},"geometry":{"type":"Polygon","coordinates":[[[20.066217,50.083232],[20.066222,50.083166],[20.066365,50.083171],[20.066361,50.083237],[20.066217,50.083232]]]}},{"type":"Feature","id":"w893415647","properties":{"type":"yes","residential":false,"residents_est":0,"h3_10":"8a1e2e6a81a7fff","h3_11":"8b1e2e6a81a4fff"},"geometry":{"type":"Polygon","coordinates":[[[20.066066,50.083282],[20.066069,50.083252],[20.066168,50.083257],[20.066167,50.083286],[20.066066,50.083282]]]}},{"type":"Feature","id":"w1037934977","properties":{"type":"outbuilding","levels":1.0,"residential":false,"residents_est":0,"h3_10":"8a1e2e6a8017fff","h3_11":"8b1e2e6a8013fff"},"geometry":{"type":"Polygon","coordinates":[[[20.070532,50.080659],[20.07057,50.080628],[20.070717,50.080701],[20.070679,50.080733],[20.070532,50.080659]]]}},{"type":"Feature","id":"w1037935011","properties":{"type":"warehouse","levels":1.0,"residential":false,"residents_est":0,"h3_10":"8a1e2e6a8177fff","h3_11":"8b1e2e6a8172fff"},"geometry":{"type":"Polygon","coordinates":[[[20.071241,50.084449],[20.071377,50.084329],[20.072007,50.084624],[20.071871,50.084744],[20.071241,50.084449]]]}},{"type":"Feature","id":"w1347973254","properties":{"type":"yes","residential":false,"residents_est":0,"h3_10":"8a1e2e6a8137fff","h3_11":"8b1e2e6a8133fff"},"geometry":{"type":"Polygon","coordinates":[[[20.067866,50.084554],[20.067871,50.084502],[20.067948,50.084505],[20.067943,50.084558],[20.067866,50.084554]]]}}]}