{"type":"FeatureCollection","features":[{"type":"Feature","id":"w133509815","properties":{"type":"yes","residential":true,"residents_est":59,"h3_10":"8a1e2e6f01a7fff","h3_11":"8b1e2e6f01a6fff"},"geometry":{"type":"Polygon","coordinates":[[[20.151722,50.065402],[20.151722,50.065288],[20.15249,50.065289],[20.152489,50.065443],[20.152189,50.065442],[20.15219,50.065403],[20.151722,50.065402]]]}},{"type":"Feature","id":"w133509819","properties":{"type":"yes","address":"Rzepakowa 7","residential":true,"residents_est":4,"h3_10":"8a1e2e6f01a7fff","h3_11":"8b1e2e6f01a1fff"},"geometry":{"type":"Polygon","coordinates":[[[20.153211,50.065463],[20.153223,50.065383],[20.15339,50.065393],[20.153377,50.065473],[20.153211,50.065463]]]}},{"type":"Feature","id":"w337889637","properties":{"type":"yes","residential":true,"residents_est":3,"h3_10":"8a1e2e6f0187fff","h3_11":"8b1e2e6f0180fff"},"geometry":{"type":"Polygon","coordinates":[[[20.153351,50.064092],[20.153415,50.06409],[20.153414,50.064081],[20.153448,50.06408],[20.153454,50.064175],[20.153355,50.064177],[20.153351,50.064092]]]}},{"type":"Feature","id":"w337890302","properties":{"type":"yes","residential":true,"residents_est":7,"h3_10":"8a1e2e6f01a7fff","h3_11":"8b1e2e6f01a4fff"},"geometry":{"type":"Polygon","coordinates":[[[20.152462,50.065844],[20.152474,50.065666],[20.152613,50.065669],[20.152602,50.065848],[20.152462,50.065844]]]}},{"type":"Feature","id":"w337891091","properties":{"type":"yes","residential":true,"residents_est":4,"h3_10":"8a1e2e6f0187fff","h3_11":"8b1e2e6f0183fff"},"geometry":{"type":"Polygon","coordinates":[[[20.153356,50.063984],[20.153364,50.063888],[20.153486,50.063892],[20.153484,50.063922],[20.153498,50.063932],[20.153496,50.06395],[20.153481,50.063959],[20.153478,50.063989],[20.153356,50.063984]]]}},{"type":"Feature","id":"w443251263","properties":{"type":"yes","residential":true,"residents_est":5,"h3_10":"8a1e2e6f0097fff","h3_11":"8b1e2e6f0092fff"},"geometry":{"type":"Polygon","coordinates":[[[20.153461,50.060628],[20.153515,50.060543],[20.153522,50.060544],[20.15355,50.060501],[20.153643,50.060526],[20.153624,50.060557],[20.153612,50.060554],[20.153604,50.060566],[20.153623,50.060573],[20.153608,50.060598],[20.153617,50.06061],[20.153608,50.060625],[20.153588,50.06063],[20.153565,50.060625],[20.153549,50.060651],[20.153461,50.060628]]]}},{"type":"Feature","id":"w722622923","properties":{"type":"yes","residential":false,"residents_est":0,"h3_10":"8a1e2e6f0187fff","h3_11":"8b1e2e6f0180fff"},"geometry":{"type":"Polygon","coordinates":[[[20.153298,50.064107],[20.153351,50.064106],[20.153354,50.064172],[20.153301,50.064173],[20.153298,50.064107]]]}},{"type":"Feature","id":"w722622925","properties":{"type":"yes","residential":false,"residents_est":0,"h3_10":"8a1e2e6f0187fff","h3_11":"8b1e2e6f0185fff"},"geometry":{"type":"Polygon","coordinates":[[[20.153455,50.064495],[20.153457,50.064447],[20.153547,50.064447],[20.153547,50.064496],[20.153455,50.064495]]]}},{"type":"Feature","id":"w722622927","properties":{"type":"yes","residential":false,"residents_est":0,"h3_10":"8a1e2e6f01a7fff","h3_11":"8b1e2e6f01a5fff"},"geometry":{"type":"Polygon","coordinates":[[[20.153434,50.065691],[20.153452,50.065618],[20.153499,50.06562],[20.153491,50.065694],[20.153434,50.065691]]]}},{"type":"Feature","id":"w1047643327","properties":{"type":"detached","levels":2.0,"residential":true,"residents_est":10,"h3_10":"8a1e2e6f0187fff","h3_11":"8b1e2e6f0181fff"},"geometry":{"type":"Polygon","coordinates":[[[20.153464,50.064265],[20.153646,50.064263],[20.153649,50.06436],[20.153466,50.064361],[20.153464,50.064265]]]}}]}