{"type":"FeatureCollection","features":[{"type":"Feature","id":"w336578948","properties":{"type":"yes","address":"Golkowice 231","residential":true,"residents_est":0,"h3_10":"8a1e05a6d257fff","h3_11":"8b1e05a6d255fff"},"geometry":{"type":"Polygon","coordinates":[[[19.980844,49.970686],[19.98102,49.97068],[19.981026,49.970749],[19.98085,49.970756],[19.980844,49.970686]]]}},{"type":"Feature","id":"w337472308","properties":{"type":"yes","address":"Golkowice 335","residential":true,"residents_est":0,"h3_10":"8a1e05a6d257fff","h3_11":"8b1e05a6d254fff"},"geometry":{"type":"Polygon","coordinates":[[[19.980488,49.970856],[19.980609,49.970854],[19.980611,49.970883],[19.980637,49.970883],[19.980639,49.970917],[19.98063,49.970917],[19.980632,49.970956],[19.980503,49.970959],[19.980499,49.970892],[19.98049,49.970892],[19.980488,49.970856]]]}},{"type":"Feature","id":"w337472319","properties":{"type":"yes","address":"Golkowice 300","residential":true,"residents_est":0,"h3_10":"8a1e05a6d267fff","h3_11":"8b1e05a6d262fff"},"geometry":{"type":"Polygon","coordinates":[[[19.981531,49.97186],[19.981562,49.971859],[19.981557,49.971796],[19.981629,49.971794],[19.981629,49.971802],[19.981766,49.971797],[19.981772,49.971879],[19.981636,49.971883],[19.981637,49.971898],[19.981534,49.971901],[19.981531,49.97186]]]}},{"type":"Feature","id":"w337472431","properties":{"type":"yes","address":"Golkowice 483","residential":true,"residents_est":0,"h3_10":"8a1e05a6d277fff","h3_11":"8b1e05a6d273fff"},"geometry":{"type":"Polygon","coordinates":[[[19.980863,49.97112],[19.981121,49.971102],[19.981136,49.971159],[19.981129,49.971159],[19.981133,49.971184],[19.980874,49.971195],[19.980863,49.97112]]]}},{"type":"Feature","id":"w337472569","properties":{"type":"yes","address":"Golkowice 313","residential":true,"residents_est":0,"h3_10":"8a1e05a6d247fff","h3_11":"8b1e05a6d244fff"},"geometry":{"type":"Polygon","coordinates":[[[19.982069,49.97148],[19.98221,49.97148],[19.982211,49.971562],[19.98207,49.971563],[19.982069,49.97148]]]}},{"type":"Feature","id":"w337472583","properties":{"type":"yes","residential":true,"residents_est":0,"h3_10":"8a1e05a6d26ffff","h3_11":"8b1e05a6d26dfff"},"geometry":{"type":"Polygon","coordinates":[[[19.984165,49.972073],[19.98425,49.972069],[19.984264,49.972186],[19.984178,49.972191],[19.984165,49.972073]]]}},{"type":"Feature","id":"w337472586","properties":{"type":"yes","residential":true,"residents_est":0,"h3_10":"8a1e05a6d26ffff","h3_11":"8b1e05a6d269fff"},"geometry":{"type":"Polygon","coordinates":[[[19.984318,49.972063],[19.984471,49.972054],[19.984483,49.972133],[19.98433,49.972144],[19.984318,49.972063]]]}},{"type":"Feature","id":"w337472617","properties":{"type":"yes","address":"Golkowice 488","residential":true,"residents_est":0,"h3_10":"8a1e05a6d36ffff","h3_11":"8b1e05a6d36dfff"},"geometry":{"type":"Polygon","coordinates":[[[19.981439,49.97467],[19.981575,49.974635],[19.981597,49.974671],[19.981615,49.974666],[19.981629,49.974688],[19.98161,49.974693],[19.981629,49.974723],[19.981494,49.974758],[19.981439,49.97467]]]}},{"type":"Feature","id":"w337473000","properties":{"type":"yes","address":"Golkowice 253","residential":true,"residents_est":0,"h3_10":"8a1e05a6d277fff","h3_11":"8b1e05a6d272fff"},"geometry":{"type":"Polygon","coordinates":[[[19.980305,49.971179],[19.980478,49.971178],[19.98048,49.971262],[19.980307,49.971263],[19.980305,49.971179]]]}},{"type":"Feature","id":"w337473037","properties":{"type":"yes","address":"Golkowice 315","residential":true,"residents_est":0,"h3_10":"8a1e05a6d277fff","h3_11":"8b1e05a6d275fff"},"geometry":{"type":"Polygon","coordinates":[[[19.980687,49.971868],[19.980823,49.971864],[19.980829,49.971953],[19.980693,49.971957],[19.980687,49.971868]]]}},{"type":"Feature","id":"w337473137","properties":{"type":"yes","residential":true,"residents_est":0,"h3_10":"8a1e05a6d247fff","h3_11":"8b1e05a6d245fff"},"geometry":{"type":"Polygon","coordinates":[[[19.982247,49.971384],[19.982249,49.971279],[19.982377,49.97128],[19.982376,49.971385],[19.982247,49.971384]]]}},{"type":"Feature","id":"w337473139","properties":{"type":"yes","address":"Golkowice 510","residential":true,"residents_est":0,"h3_10":"8a1e05a6d247fff","h3_11":"8b1e05a6d242fff"},"geometry":{"type":"Polygon","coordinates":[[[19.981839,49.970869],[19.981982,49.970849],[19.982013,49.970944],[19.98187,49.970964],[19.981839,49.970869]]]}},{"type":"Feature","id":"w337473166","properties":{"type":"yes","residential":true,"residents_est":0,"h3_10":"8a1e05a6d247fff","h3_11":"8b1e05a6d245fff"},"geometry":{"type":"Polygon","coordinates":[[[19.982383,49.97156],[19.982386,49.971483],[19.982476,49.971485],[19.982473,49.971562],[19.982383,49.97156]]]}},{"type":"Feature","id":"w337473260","properties":{"type":"yes","residential":true,"residents_est":0,"h3_10":"8a1e05a6d277fff","h3_11":"8b1e05a6d273fff"},"geometry":{"type":"Polygon","coordinates":[[[19.98059,49.97117],[19.980622,49.971169],[19.98062,49.971135],[19.980671,49.971134],[19.980679,49.971246],[19.980595,49.971249],[19.98059,49.97117]]]}},{"type":"Feature","id":"w337473270","properties":{"type":"detached","address":"Golkowice 321","residential":true,"residents_est":0,"h3_10":"8a1e05a6d267fff","h3_11":"8b1e05a6d260fff"},"geometry":{"type":"Polygon","coordinates":[[[19.981505,49.972286],[19.98165,49.972277],[19.981664,49.97236],[19.98162,49.972364],[19.981621,49.972384],[19.981522,49.972391],[19.981505,49.972286]]]}},{"type":"Feature","id":"w337473395","properties":{"type":"yes","residential":true,"residents_est":0,"h3_10":"8a1e05a6d267fff","h3_11":"8b1e05a6d263fff"},"geometry":{"type":"Polygon","coordinates":[[[19.981956,49.971831],[19.981983,49.971829],[19.981975,49.971774],[19.982075,49.971768],[19.982091,49.971873],[19.981964,49.971881],[19.981956,49.971831]]]}},{"type":"Feature","id":"w337473396","properties":{"type":"yes","address":"Golkowice 342","residential":true,"residents_est":0,"h3_10":"8a1e05a6d26ffff","h3_11":"8b1e05a6d26dfff"},"geometry":{"type":"Polygon","coordinates":[[[19.983598,49.972269],[19.983731,49.972261],[19.983738,49.972313],[19.983758,49.972312],[19.983763,49.972344],[19.983611,49.972352],[19.983598,49.972269]]]}},{"type":"Feature","id":"w337473415","properties":{"type":"yes","residential":true,"residents_est":0,"h3_10":"8a1e05a6d35ffff","h3_11":"8b1e05a6d35bfff"},"geometry":{"type":"Polygon","coordinates":[[[19.980365,49.972273],[19.980484,49.972267],[19.980492,49.972329],[19.980401,49.972334],[19.980398,49.972311],[19.98037,49.972312],[19.980365,49.972273]]]}},{"type":"Feature","id":"w337473498","properties":{"type":"yes","address":"Golkowice 290","residential":true,"residents_est":0,"h3_10":"8a1e05a6d277fff","h3_11":"8b1e05a6d271fff"},"geometry":{"type":"Polygon","coordinates":[[[19.980748,49.97145],[19.980874,49.971441],[19.980882,49.971474],[19.980896,49.971474],[19.980902,49.971497],[19.980886,49.971499],[19.98089,49.971522],[19.980764,49.971531],[19.980748,49.97145]]]}},{"type":"Feature","id":"w337473506","properties":{"type":"yes","address":"Golkowice 378","residential":true,"residents_est":0,"h3_10":"8a1e05a6d247fff","h3_11":"8b1e05a6d244fff"},"geometry":{"type":"Polygon","coordinates":[[[19.981741,49.971282],[19.981882,49.97128],[19.981883,49.971301],[19.981915,49.971301],[19.981917,49.971354],[19.981881,49.971354],[19.981882,49.971372],[19.981742,49.971371],[19.981741,49.971282]]]}},{"type":"Feature","id":"w337473535","properties":{"type":"yes","address":"Golkowice 346","residential":true,"residents_est":0,"h3_10":"8a1e05a6d277fff","h3_11":"8b1e05a6d275fff"},"geometry":{"type":"Polygon","coordinates":[[[19.980845,49.971647],[19.980984,49.971642],[19.980991,49.971739],[19.980944,49.97174],[19.980945,49.971757],[19.980905,49.971758],[19.980904,49.971743],[19.980852,49.971745],[19.980845,49.971647]]]}},{"type":"Feature","id":"w337473602","properties":{"type":"yes","address":"Golkowice 394","residential":true,"residents_est":0,"h3_10":"8a1e05a6d35ffff","h3_11":"8b1e05a6d35bfff"},"geometry":{"type":"Polygon","coordinates":[[[19.9806,49.972254],[19.980725,49.972252],[19.98073,49.972324],[19.980696,49.972323],[19.980698,49.972347],[19.980637,49.972347],[19.980637,49.972324],[19.9806,49.972328],[19.9806,49.972254]]]}},{"type":"Feature","id":"w337473728","properties":{"type":"yes","residential":true,"residents_est":2,"h3_10":"8a1e05a6d277fff","h3_11":"8b1e05a6d274fff"},"geometry":{"type":"Polygon","coordinates":[[[19.980371,49.971869],[19.980526,49.971861],[19.980537,49.971918],[19.980456,49.971921],[19.980459,49.971941],[19.980407,49.971941],[19.980403,49.971905],[19.980375,49.971906],[19.980371,49.971869]]]}},{"type":"Feature","id":"w708547023","properties":{"type":"yes","address":"Elżbiety Drużbackiej 104","residential":true,"residents_est":0,"h3_10":"8a1e05a6d34ffff","h3_11":"8b1e05a6d34dfff"},"geometry":{"type":"Polygon","coordinates":[[[19.982111,49.973626],[19.982199,49.973607],[19.982212,49.973633],[19.982228,49.97363],[19.982272,49.973726],[19.98224,49.973732],[19.982234,49.973742],[19.982169,49.973746],[19.982111,49.973626]]]}},{"type":"Feature","id":"w708547024","properties":{"type":"yes","address":"Elżbiety Drużbackiej 106","residential":true,"residents_est":0,"h3_10":"8a1e05a6d34ffff","h3_11":"8b1e05a6d34dfff"},"geometry":{"type":"Polygon","coordinates":[[[19.982052,49.973503],[19.982083,49.973497],[19.982092,49.973487],[19.982109,49.973484],[19.982125,49.973489],[19.982156,49.973483],[19.982203,49.973578],[19.982187,49.973581],[19.982199,49.973607],[19.982111,49.973626],[19.982052,49.973503]]]}},{"type":"Feature","id":"w708547025","properties":{"type":"yes","address":"Elżbiety Drużbackiej 110","residential":true,"residents_est":0,"h3_10":"8a1e05a6d34ffff","h3_11":"8b1e05a6d34dfff"},"geometry":{"type":"Polygon","coordinates":[[[19.981884,49.973671],[19.981899,49.973668],[19.981885,49.973641],[19.981971,49.973623],[19.982034,49.973745],[19.982003,49.973751],[19.981995,49.973761],[19.981979,49.973765],[19.981963,49.973759],[19.981932,49.973766],[19.981884,49.973671]]]}},{"type":"Feature","id":"w708547026","properties":{"type":"yes","address":"Elżbiety Drużbackiej 108","residential":true,"residents_est":0,"h3_10":"8a1e05a6d34ffff","h3_11":"8b1e05a6d34dfff"},"geometry":{"type":"Polygon","coordinates":[[[19.981807,49.973522],[19.981837,49.973516],[19.981846,49.973506],[19.981862,49.973502],[19.981879,49.973507],[19.98191,49.973501],[19.981971,49.973623],[19.981885,49.973641],[19.981871,49.973614],[19.981855,49.973618],[19.981807,49.973522]]]}},{"type":"Feature","id":"w1050475330","properties":{"type":"detached","levels":2.0,"residential":true,"residents_est":0,"h3_10":"8a1e05a6d22ffff","h3_11":"8b1e05a6d229fff"},"geometry":{"type":"Polygon","coordinates":[[[19.97933,49.971959],[19.979331,49.971899],[19.979384,49.971899],[19.979384,49.97189],[19.97948,49.97189],[19.97948,49.971898],[19.979495,49.971907],[19.979495,49.971919],[19.97948,49.971929],[19.97948,49.971964],[19.97933,49.971959]]]}},{"type":"Feature","id":"w1050475335","properties":{"type":"outbuilding","levels":1.0,"residential":false,"residents_est":0,"h3_10":"8a1e05a6d26ffff","h3_11":"8b1e05a6d26dfff"},"geometry":{"type":"Polygon","coordinates":[[[19.983837,49.972156],[19.983909,49.972148],[19.983932,49.972229],[19.983859,49.972238],[19.983837,49.972156]]]}},{"type":"Feature","id":"w1050475338","properties":{"type":"outbuilding","levels":1.0,"residential":false,"residents_est":0,"h3_10":"8a1e05a6d277fff","h3_11":"8b1e05a6d271fff"},"geometry":{"type":"Polygon","coordinates":[[[19.981005,49.971432],[19.98107,49.971422],[19.981092,49.971481],[19.981029,49.971492],[19.981005,49.971432]]]}},{"type":"Feature","id":"w1050475340","properties":{"type":"detached","levels":2.0,"residential":true,"residents_est":0,"h3_10":"8a1e05a6d247fff","h3_11":"8b1e05a6d240fff"},"geometry":{"type":"Polygon","coordinates":[[[19.982446,49.971128],[19.982587,49.971127],[19.982588,49.971147],[19.98262,49.971147],[19.982655,49.971159],[19.982654,49.971219],[19.982447,49.971218],[19.982446,49.971128]]]}},{"type":"Feature","id":"w1050475407","properties":{"type":"construction","levels":2.0,"residential":false,"residents_est":0,"h3_10":"8a1e05a6d35ffff","h3_11":"8b1e05a6d35afff"},"geometry":{"type":"Polygon","coordinates":[[[19.979731,49.972262],[19.979811,49.972262],[19.97981,49.972244],[19.979943,49.972243],[19.979944,49.972347],[19.979811,49.972347],[19.979811,49.972337],[19.979731,49.972338],[19.979731,49.972262]]]}},{"type":"Feature","id":"w1312812398","properties":{"type":"yes","residential":false,"residents_est":0,"h3_10":"8a1e05a6d36ffff","h3_11":"8b1e05a6d368fff"},"geometry":{"type":"Polygon","coordinates":[[[19.98152,49.974465],[19.981561,49.974455],[19.981589,49.974498],[19.981548,49.974509],[19.98152,49.974465]]]}},{"type":"Feature","id":"w1312812400","properties":{"type":"yes","residential":true,"residents_est":0,"h3_10":"8a1e05a6d36ffff","h3_11":"8b1e05a6d368fff"},"geometry":{"type":"Polygon","coordinates":[[[19.981223,49.974447],[19.98133,49.974414],[19.981379,49.974481],[19.981391,49.974477],[19.981417,49.974513],[19.981297,49.974549],[19.981275,49.974518],[19.981259,49.974522],[19.981227,49.97448],[19.981243,49.974474],[19.981223,49.974447]]]}},{"type":"Feature","id":"w1312812401","properties":{"type":"yes","address":"Golkowice 551","residential":true,"residents_est":0,"h3_10":"8a1e05a6d36ffff","h3_11":"8b1e05a6d36dfff"},"geometry":{"type":"Polygon","coordinates":[[[19.98147,49.974875],[19.981492,49.974869],[19.981475,49.974843],[19.981578,49.974815],[19.981606,49.974856],[19.981662,49.97484],[19.9817,49.974898],[19.981518,49.974947],[19.98147,49.974875]]]}},{"type":"Feature","id":"w1312812414","properties":{"type":"yes","address":"Elżbiety Drużbackiej 122","residential":true,"residents_est":0,"h3_10":"8a1e05a6d36ffff","h3_11":"8b1e05a6d36bfff"},"geometry":{"type":"Polygon","coordinates":[[[19.981658,49.97388],[19.981764,49.973872],[19.981783,49.973969],[19.981676,49.973977],[19.981658,49.97388]]]}},{"type":"Feature","id":"w1312812415","properties":{"type":"yes","address":"Elżbiety Drużbackiej 126","residential":true,"residents_est":0,"h3_10":"8a1e05a6d34ffff","h3_11":"8b1e05a6d348fff"},"geometry":{"type":"Polygon","coordinates":[[[19.981471,49.973469],[19.981573,49.973448],[19.981621,49.973541],[19.981518,49.973562],[19.981471,49.973469]]]}},{"type":"Feature","id":"w1312812416","properties":{"type":"yes","address":"Elżbiety Drużbackiej 124","residential":true,"residents_est":0,"h3_10":"8a1e05a6d34ffff","h3_11":"8b1e05a6d34dfff"},"geometry":{"type":"Polygon","coordinates":[[[19.981548,49.973621],[19.981651,49.973599],[19.981697,49.973692],[19.981595,49.973714],[19.981548,49.973621]]]}},{"type":"Feature","id":"w1312812417","properties":{"type":"yes","address":"Elżbiety Drużbackiej 116","residential":true,"residents_est":0,"h3_10":"8a1e05a6d36ffff","h3_11":"8b1e05a6d369fff"},"geometry":{"type":"Polygon","coordinates":[[[19.982015,49.974286],[19.982028,49.974278],[19.982024,49.974257],[19.982179,49.974246],[19.982181,49.974257],[19.982221,49.974255],[19.98223,49.974312],[19.982036,49.974326],[19.982032,49.974306],[19.982018,49.9743],[19.982015,49.974286]]]}},{"type":"Feature","id":"w1312812430","properties":{"type":"yes","residential":false,"residents_est":0,"h3_10":"8a1e05a6d347fff","h3_11":"8b1e05a6d342fff"},"geometry":{"type":"Polygon","coordinates":[[[19.979239,49.97345],[19.979309,49.973443],[19.979319,49.973489],[19.97925,49.973495],[19.979239,49.97345]]]}},{"type":"Feature","id":"w1312812431","properties":{"type":"yes","residential":false,"residents_est":0,"h3_10":"8a1e05a6d347fff","h3_11":"8b1e05a6d346fff"},"geometry":{"type":"Polygon","coordinates":[[[19.97925,49.973495],[19.979319,49.973489],[19.979332,49.973544],[19.979262,49.97355],[19.97925,49.973495]]]}},{"type":"Feature","id":"w1466416056","properties":{"type":"retail","address":"Golkowice 698","name":"Netto","residential":false,"residents_est":0,"h3_10":"8a1e05a6d35ffff","h3_11":"8b1e05a6d35cfff"},"geometry":{"type":"Polygon","coordinates":[[[19.979966,49.972771],[19.980579,49.972759],[19.980587,49.97293],[19.979974,49.972942],[19.979966,49.972771]]]}}]}