{"type":"FeatureCollection","features":[{"type":"Feature","id":"w40719353","properties":{"type":"parking","levels":3.0,"residential":false,"residents_est":0,"h3_10":"8a1e2e685d47fff","h3_11":"8b1e2e685d44fff"},"geometry":{"type":"Polygon","coordinates":[[[20.008755,50.069154],[20.008777,50.069118],[20.008798,50.069104],[20.008832,50.069091],[20.008882,50.069087],[20.008939,50.069098],[20.008963,50.069111],[20.008992,50.069145],[20.008995,50.069179],[20.009104,50.069173],[20.009178,50.069713],[20.008933,50.069727],[20.00893,50.069704],[20.008834,50.06971],[20.008755,50.069154]]]}},{"type":"Feature","id":"w40719354","properties":{"type":"office","levels":6.0,"address":"Aleja Pokoju 78","name":"Azbud","residential":false,"residents_est":0,"h3_10":"8a1e2e685d6ffff","h3_11":"8b1e2e685d6afff"},"geometry":{"type":"Polygon","coordinates":[[[20.009233,50.069154],[20.009738,50.069124],[20.009933,50.069123],[20.010073,50.069137],[20.010169,50.069154],[20.010427,50.069221],[20.010326,50.069227],[20.010328,50.069242],[20.0103,50.069243],[20.010308,50.069303],[20.010233,50.069307],[20.010258,50.069508],[20.009295,50.069568],[20.009233,50.069154]]]}},{"type":"Feature","id":"w40719991","properties":{"type":"residential","levels":5.0,"address":"Centralna 32","residential":true,"residents_est":85,"h3_10":"8a1e2e685c67fff","h3_11":"8b1e2e685c65fff"},"geometry":{"type":"Polygon","coordinates":[[[20.011564,50.068115],[20.011627,50.067494],[20.011833,50.067503],[20.011769,50.068124],[20.011564,50.068115]]]}},{"type":"Feature","id":"w40748517","properties":{"type":"yes","address":"Centralna 60","name":"Liga Obrony Kraju","residential":true,"residents_est":17,"h3_10":"8a1e2e685caffff","h3_11":"8b1e2e685caafff"},"geometry":{"type":"Polygon","coordinates":[[[20.005301,50.063881],[20.005554,50.063881],[20.005554,50.064132],[20.005301,50.064132],[20.005301,50.063881]]]}},{"type":"Feature","id":"w79707696","properties":{"type":"yes","levels":3.0,"address":"Centralna 53","name":"Zarząd Dróg Miasta Krakowa","residential":true,"residents_est":32,"h3_10":"8a1e2e685cd7fff","h3_11":"8b1e2e685cd5fff"},"geometry":{"type":"Polygon","coordinates":[[[20.007131,50.063538],[20.007141,50.063423],[20.00776,50.063443],[20.007756,50.063492],[20.008035,50.063501],[20.008038,50.063453],[20.008669,50.063474],[20.00866,50.063592],[20.008017,50.063571],[20.008018,50.063556],[20.007753,50.063547],[20.007753,50.063559],[20.007131,50.063538]]]}},{"type":"Feature","id":"w79707697","properties":{"type":"dormitory","levels":3.0,"address":"Kamionka 11","name":"Dom studencki Uniwersytetu Jagiellońskiego","residential":true,"residents_est":19,"h3_10":"8a1e2e685caffff","h3_11":"8b1e2e685ca9fff"},"geometry":{"type":"Polygon","coordinates":[[[20.005919,50.064759],[20.005949,50.064456],[20.006107,50.064463],[20.006078,50.064765],[20.005919,50.064759]]]}},{"type":"Feature","id":"w79707698","properties":{"type":"yes","address":"Aleja Pokoju 78","name":"Market Point","residential":true,"residents_est":49,"h3_10":"8a1e2e685d6ffff","h3_11":"8b1e2e685d68fff"},"geometry":{"type":"Polygon","coordinates":[[[20.010233,50.069307],[20.010308,50.069303],[20.0103,50.069243],[20.010599,50.069228],[20.010661,50.069727],[20.010288,50.069747],[20.010233,50.069307]]]}},{"type":"Feature","id":"w79759314","properties":{"type":"residential","levels":11.0,"address":"Centralna 38A","residential":true,"residents_est":131,"h3_10":"8a1e2e685c67fff","h3_11":"8b1e2e685c61fff"},"geometry":{"type":"Polygon","coordinates":[[[20.011406,50.06716],[20.011415,50.067055],[20.011761,50.067068],[20.01176,50.067081],[20.011845,50.067084],[20.011846,50.067071],[20.012178,50.067083],[20.012174,50.067124],[20.012201,50.067124],[20.012194,50.067198],[20.012073,50.067194],[20.012071,50.067214],[20.01199,50.067211],[20.011992,50.067181],[20.011838,50.067176],[20.011835,50.067205],[20.011754,50.067202],[20.011757,50.067173],[20.011606,50.067167],[20.011603,50.067196],[20.011522,50.067193],[20.011525,50.067164],[20.011406,50.06716]]]}},{"type":"Feature","id":"w79759327","properties":{"type":"residential","levels":5.0,"address":"Aleja Pokoju 89","residential":true,"residents_est":60,"h3_10":"8a1e2e685d4ffff","h3_11":"8b1e2e685d49fff"},"geometry":{"type":"Polygon","coordinates":[[[20.011415,50.068528],[20.011419,50.068492],[20.011592,50.068498],[20.011592,50.068487],[20.011751,50.068493],[20.011751,50.068503],[20.011808,50.068505],[20.011809,50.068495],[20.011971,50.068501],[20.01197,50.068511],[20.012028,50.068513],[20.012029,50.068503],[20.012187,50.068509],[20.012186,50.068519],[20.012305,50.068523],[20.012297,50.068617],[20.012203,50.068614],[20.012202,50.068626],[20.012165,50.068625],[20.012166,50.068613],[20.01199,50.068606],[20.011989,50.068618],[20.011954,50.068617],[20.011955,50.068605],[20.011768,50.068598],[20.011767,50.06861],[20.011727,50.068609],[20.011728,50.068596],[20.011548,50.06859],[20.011547,50.068602],[20.011511,50.068601],[20.011512,50.068589],[20.011422,50.068585],[20.011427,50.068528],[20.011415,50.068528]]]}},{"type":"Feature","id":"w79759331","properties":{"type":"residential","levels":5.0,"address":"Aleja Pokoju 87","residential":true,"residents_est":56,"h3_10":"8a1e2e685d4ffff","h3_11":"8b1e2e685d4afff"},"geometry":{"type":"Polygon","coordinates":[[[20.01019,50.06826],[20.010198,50.068165],[20.011075,50.068194],[20.011067,50.068289],[20.01019,50.06826]]]}},{"type":"Feature","id":"w79759346","properties":{"type":"residential","levels":5.0,"address":"Centralna 34","residential":true,"residents_est":82,"h3_10":"8a1e2e685c67fff","h3_11":"8b1e2e685c60fff"},"geometry":{"type":"Polygon","coordinates":[[[20.011008,50.067883],[20.011066,50.067241],[20.011258,50.067248],[20.0112,50.06789],[20.011008,50.067883]]]}},{"type":"Feature","id":"w79793008","properties":{"type":"residential","address":"Centralna 45","residential":true,"residents_est":7,"h3_10":"8a1e2e685c6ffff","h3_11":"8b1e2e685c6efff"},"geometry":{"type":"Polygon","coordinates":[[[20.012438,50.067093],[20.012457,50.067089],[20.012439,50.067047],[20.012556,50.067026],[20.012604,50.067131],[20.012486,50.067153],[20.012471,50.067117],[20.01245,50.067121],[20.012438,50.067093]]]}},{"type":"Feature","id":"w79793011","properties":{"type":"residential","address":"Centralna 49","residential":true,"residents_est":12,"h3_10":"8a1e2e685c47fff","h3_11":"8b1e2e685c41fff"},"geometry":{"type":"Polygon","coordinates":[[[20.012218,50.066382],[20.012459,50.06637],[20.01247,50.066464],[20.012229,50.066475],[20.012218,50.066382]]]}},{"type":"Feature","id":"w79793013","properties":{"type":"detached","levels":2.0,"address":"Centralna 47","residential":true,"residents_est":4,"h3_10":"8a1e2e685c6ffff","h3_11":"8b1e2e685c6afff"},"geometry":{"type":"Polygon","coordinates":[[[20.012289,50.06681],[20.012513,50.066762],[20.01254,50.066814],[20.012317,50.066862],[20.012289,50.06681]]]}},{"type":"Feature","id":"w79793015","properties":{"type":"yes","address":"Centralna 50","residential":true,"residents_est":1,"h3_10":"8a1e2e685c47fff","h3_11":"8b1e2e685c45fff"},"geometry":{"type":"Polygon","coordinates":[[[20.011584,50.066804],[20.011611,50.066722],[20.011656,50.066729],[20.011651,50.066746],[20.011695,50.066752],[20.011674,50.066816],[20.011584,50.066804]]]}},{"type":"Feature","id":"w79794439","properties":{"type":"apartments","levels":3.0,"address":"Kamionka 3","residential":true,"residents_est":21,"h3_10":"8a1e2e685ce7fff","h3_11":"8b1e2e685ce5fff"},"geometry":{"type":"Polygon","coordinates":[[[20.008806,50.065098],[20.008823,50.064791],[20.008994,50.064795],[20.008977,50.065101],[20.008806,50.065098]]]}},{"type":"Feature","id":"w79794441","properties":{"type":"apartments","levels":2.0,"address":"Kamionka 8","residential":true,"residents_est":14,"h3_10":"8a1e2e685cf7fff","h3_11":"8b1e2e685cf4fff"},"geometry":{"type":"Polygon","coordinates":[[[20.006972,50.064592],[20.006996,50.064293],[20.007169,50.064299],[20.007146,50.064598],[20.006972,50.064592]]]}},{"type":"Feature","id":"w79794443","properties":{"type":"apartments","levels":3.0,"address":"Kamionka 7","residential":true,"residents_est":21,"h3_10":"8a1e2e685c1ffff","h3_11":"8b1e2e685c19fff"},"geometry":{"type":"Polygon","coordinates":[[[20.007572,50.065074],[20.0076,50.064767],[20.00777,50.064774],[20.007742,50.065081],[20.007572,50.065074]]]}},{"type":"Feature","id":"w79794445","properties":{"type":"garage","residential":false,"residents_est":0,"h3_10":"8a1e2e685ce7fff","h3_11":"8b1e2e685ce5fff"},"geometry":{"type":"Polygon","coordinates":[[[20.009042,50.065271],[20.009047,50.065197],[20.009662,50.065214],[20.009657,50.065288],[20.009042,50.065271]]]}},{"type":"Feature","id":"w79794446","properties":{"type":"apartments","levels":2.0,"address":"Kamionka 10","residential":true,"residents_est":14,"h3_10":"8a1e2e685cf7fff","h3_11":"8b1e2e685cf4fff"},"geometry":{"type":"Polygon","coordinates":[[[20.006391,50.064567],[20.006414,50.064268],[20.006588,50.064274],[20.006564,50.064573],[20.006391,50.064567]]]}},{"type":"Feature","id":"w79794447","properties":{"type":"apartments","levels":2.0,"address":"Kamionka 1","residential":true,"residents_est":14,"h3_10":"8a1e2e685c57fff","h3_11":"8b1e2e685c52fff"},"geometry":{"type":"Polygon","coordinates":[[[20.00942,50.065121],[20.009447,50.064816],[20.009616,50.064822],[20.009588,50.065127],[20.00942,50.065121]]]}},{"type":"Feature","id":"w79794449","properties":{"type":"garage","residential":false,"residents_est":0,"h3_10":"8a1e2e685c57fff","h3_11":"8b1e2e685c56fff"},"geometry":{"type":"Polygon","coordinates":[[[20.009039,50.065432],[20.009044,50.065358],[20.009632,50.065375],[20.009626,50.065449],[20.009039,50.065432]]]}},{"type":"Feature","id":"w79794450","properties":{"type":"apartments","levels":3.0,"address":"Kamionka 5","residential":true,"residents_est":21,"h3_10":"8a1e2e685ce7fff","h3_11":"8b1e2e685ce4fff"},"geometry":{"type":"Polygon","coordinates":[[[20.008184,50.065073],[20.008211,50.064765],[20.008382,50.064771],[20.008355,50.065079],[20.008184,50.065073]]]}},{"type":"Feature","id":"w79794451","properties":{"type":"apartments","levels":3.0,"address":"Kamionka 4","residential":true,"residents_est":21,"h3_10":"8a1e2e685ce7fff","h3_11":"8b1e2e685ce2fff"},"geometry":{"type":"Polygon","coordinates":[[[20.008371,50.064652],[20.008395,50.064353],[20.008568,50.064359],[20.008545,50.064658],[20.008371,50.064652]]]}},{"type":"Feature","id":"w79794453","properties":{"type":"apartments","levels":3.0,"address":"Kamionka 9","residential":true,"residents_est":20,"h3_10":"8a1e2e685c1ffff","h3_11":"8b1e2e685c1bfff"},"geometry":{"type":"Polygon","coordinates":[[[20.006965,50.065052],[20.006992,50.064745],[20.007158,50.064751],[20.00713,50.065058],[20.006965,50.065052]]]}},{"type":"Feature","id":"w79794454","properties":{"type":"yes","levels":3.0,"address":"Kamionka 6","residential":true,"residents_est":10,"h3_10":"8a1e2e685cf7fff","h3_11":"8b1e2e685cf5fff"},"geometry":{"type":"Polygon","coordinates":[[[20.007599,50.064472],[20.007607,50.064336],[20.007987,50.064345],[20.007979,50.064481],[20.007599,50.064472]]]}},{"type":"Feature","id":"w79794459","properties":{"type":"apartments","levels":2.0,"address":"Kamionka 2","residential":true,"residents_est":13,"h3_10":"8a1e2e685ce7fff","h3_11":"8b1e2e685ce3fff"},"geometry":{"type":"Polygon","coordinates":[[[20.008997,50.064661],[20.00902,50.064365],[20.009175,50.06437],[20.009173,50.064396],[20.009181,50.064397],[20.009162,50.064639],[20.009154,50.064639],[20.009152,50.064666],[20.008997,50.064661]]]}},{"type":"Feature","id":"w79794460","properties":{"type":"apartments","levels":3.0,"address":"Kamionka 11A","residential":true,"residents_est":21,"h3_10":"8a1e2e685c1ffff","h3_11":"8b1e2e685c1afff"},"geometry":{"type":"Polygon","coordinates":[[[20.006342,50.065024],[20.006367,50.064718],[20.006537,50.064724],[20.006511,50.06503],[20.006342,50.065024]]]}},{"type":"Feature","id":"w79814113","properties":{"type":"yes","residential":true,"residents_est":2,"h3_10":"8a1e2e685c6ffff","h3_11":"8b1e2e685c6afff"},"geometry":{"type":"Polygon","coordinates":[[[20.012622,50.066675],[20.01272,50.066654],[20.012774,50.066758],[20.012679,50.06678],[20.012622,50.066675]]]}},{"type":"Feature","id":"w79814116","properties":{"type":"yes","levels":2.0,"residential":true,"residents_est":118,"h3_10":"8a1e2e685d77fff","h3_11":"8b1e2e685d70fff"},"geometry":{"type":"Polygon","coordinates":[[[20.00703,50.068973],[20.007931,50.068911],[20.008094,50.069882],[20.007193,50.069945],[20.00703,50.068973]]]}},{"type":"Feature","id":"w79814119","properties":{"type":"yes","levels":2.0,"residential":true,"residents_est":8,"h3_10":"8a1e2e685d2ffff","h3_11":"8b1e2e685d28fff"},"geometry":{"type":"Polygon","coordinates":[[[20.005443,50.069222],[20.005612,50.069211],[20.005665,50.069557],[20.005497,50.069568],[20.005443,50.069222]]]}},{"type":"Feature","id":"w79814120","properties":{"type":"yes","levels":1.0,"residential":true,"residents_est":5,"h3_10":"8a1e2e685d47fff","h3_11":"8b1e2e685d46fff"},"geometry":{"type":"Polygon","coordinates":[[[20.008273,50.06862],[20.008536,50.06861],[20.00856,50.068866],[20.008298,50.068884],[20.008273,50.06862]]]}},{"type":"Feature","id":"w79814121","properties":{"type":"yes","levels":3.0,"residential":true,"residents_est":10,"h3_10":"8a1e2e685d2ffff","h3_11":"8b1e2e685d2bfff"},"geometry":{"type":"Polygon","coordinates":[[[20.005865,50.06918],[20.006205,50.069161],[20.006225,50.069308],[20.005885,50.069326],[20.005865,50.06918]]]}},{"type":"Feature","id":"w79814137","properties":{"type":"yes","residential":false,"residents_est":0,"h3_10":"8a1e2e685caffff","h3_11":"8b1e2e685cadfff"},"geometry":{"type":"Polygon","coordinates":[[[20.005949,50.064892],[20.005997,50.06489],[20.005996,50.064921],[20.006028,50.064921],[20.006027,50.064949],[20.005951,50.064949],[20.005949,50.064892]]]}},{"type":"Feature","id":"w79814140","properties":{"type":"yes","levels":2.0,"address":"Nowohucka 1A","residential":true,"residents_est":49,"h3_10":"8a1e2e685d2ffff","h3_11":"8b1e2e685d2dfff"},"geometry":{"type":"Polygon","coordinates":[[[20.005506,50.069577],[20.005665,50.069567],[20.005673,50.069617],[20.006097,50.069588],[20.006088,50.069534],[20.006264,50.069522],[20.00634,50.069981],[20.005772,50.07002],[20.005805,50.070217],[20.005614,50.07023],[20.005506,50.069577]]]}},{"type":"Feature","id":"w79814144","properties":{"type":"garages","residential":false,"residents_est":0,"h3_10":"8a1e2e685d47fff","h3_11":"8b1e2e685d44fff"},"geometry":{"type":"Polygon","coordinates":[[[20.008274,50.068885],[20.008567,50.068866],[20.008722,50.069835],[20.008429,50.069854],[20.008274,50.068885]]]}},{"type":"Feature","id":"w79814147","properties":{"type":"yes","levels":2.0,"residential":true,"residents_est":5,"h3_10":"8a1e2e685d2ffff","h3_11":"8b1e2e685d29fff"},"geometry":{"type":"Polygon","coordinates":[[[20.006039,50.069322],[20.00623,50.069311],[20.00626,50.069517],[20.006069,50.069528],[20.006039,50.069322]]]}},{"type":"Feature","id":"w79814150","properties":{"type":"residential","residential":true,"residents_est":9,"h3_10":"8a1e2e685c6ffff","h3_11":"8b1e2e685c68fff"},"geometry":{"type":"Polygon","coordinates":[[[20.012797,50.067023],[20.012837,50.067013],[20.01281,50.066969],[20.012949,50.066934],[20.013003,50.067019],[20.012909,50.067044],[20.012916,50.067055],[20.012831,50.067077],[20.012797,50.067023]]]}},{"type":"Feature","id":"w79814158","properties":{"type":"yes","residential":true,"residents_est":1,"h3_10":"8a1e2e685c6ffff","h3_11":"8b1e2e685c6afff"},"geometry":{"type":"Polygon","coordinates":[[[20.012457,50.066559],[20.012475,50.066558],[20.012459,50.066479],[20.012545,50.066471],[20.012569,50.066586],[20.012464,50.066595],[20.012457,50.066559]]]}},{"type":"Feature","id":"w79818123","properties":{"type":"garages","residential":false,"residents_est":0,"h3_10":"8a1e2e685cc7fff","h3_11":"8b1e2e685cc0fff"},"geometry":{"type":"Polygon","coordinates":[[[20.008768,50.063604],[20.008775,50.063533],[20.009373,50.063556],[20.009367,50.063628],[20.008768,50.063604]]]}},{"type":"Feature","id":"w79818124","properties":{"type":"retail","address":"Centralna 51AA","name":"Thai Fun","residential":false,"residents_est":0,"h3_10":"8a1e2e685ceffff","h3_11":"8b1e2e685cedfff"},"geometry":{"type":"Polygon","coordinates":[[[20.01075,50.065022],[20.01087,50.064965],[20.010889,50.064982],[20.010899,50.064977],[20.010914,50.06499],[20.010904,50.064995],[20.01092,50.065009],[20.010853,50.065034],[20.010849,50.06503],[20.010789,50.065058],[20.01075,50.065022]]]}},{"type":"Feature","id":"w79818136","properties":{"type":"garages","residential":false,"residents_est":0,"h3_10":"8a1e2e685cc7fff","h3_11":"8b1e2e685cc3fff"},"geometry":{"type":"Polygon","coordinates":[[[20.008648,50.063464],[20.008654,50.063401],[20.009419,50.063432],[20.009413,50.063495],[20.008648,50.063464]]]}},{"type":"Feature","id":"w79825851","properties":{"type":"detached","levels":1.0,"address":"Na Łąkach 7","residential":true,"residents_est":2,"h3_10":"8a1e2e685c07fff","h3_11":"8b1e2e685c05fff"},"geometry":{"type":"Polygon","coordinates":[[[20.006724,50.066628],[20.006775,50.066534],[20.006951,50.066577],[20.0069,50.066667],[20.006724,50.066628]]]}},{"type":"Feature","id":"w79825852","properties":{"type":"yes","address":"Na Łąkach 18","residential":true,"residents_est":2,"h3_10":"8a1e2e685c27fff","h3_11":"8b1e2e685c23fff"},"geometry":{"type":"Polygon","coordinates":[[[20.006542,50.066945],[20.006575,50.066863],[20.00671,50.066885],[20.006677,50.066967],[20.006542,50.066945]]]}},{"type":"Feature","id":"w79873202","properties":{"type":"yes","address":"Na Łąkach 20","residential":true,"residents_est":10,"h3_10":"8a1e2e685c27fff","h3_11":"8b1e2e685c22fff"},"geometry":{"type":"Polygon","coordinates":[[[20.005806,50.066855],[20.005821,50.066738],[20.006131,50.066755],[20.006116,50.066872],[20.005806,50.066855]]]}},{"type":"Feature","id":"w79873203","properties":{"type":"service","address":"Nowohucka 8T","residential":false,"residents_est":0,"h3_10":"8a1e2e685d17fff","h3_11":"8b1e2e685d11fff"},"geometry":{"type":"Polygon","coordinates":[[[20.003148,50.067953],[20.003562,50.067924],[20.00358,50.068035],[20.003227,50.068059],[20.003221,50.068025],[20.00316,50.06803],[20.003148,50.067953]]]}},{"type":"Feature","id":"w80624906","properties":{"type":"yes","levels":2.0,"residential":true,"residents_est":9,"h3_10":"8a1e2e685d67fff","h3_11":"8b1e2e685d65fff"},"geometry":{"type":"Polygon","coordinates":[[[20.008936,50.069878],[20.009083,50.069869],[20.009141,50.070244],[20.0092,50.07024],[20.009208,50.070293],[20.009149,50.070297],[20.009156,50.070347],[20.009073,50.070352],[20.009058,50.070249],[20.008994,50.070253],[20.008936,50.069878]]]}},{"type":"Feature","id":"w80967834","properties":{"type":"garage","residential":false,"residents_est":0,"h3_10":"8a1e2e685c8ffff","h3_11":"8b1e2e685c88fff"},"geometry":{"type":"Polygon","coordinates":[[[20.00501,50.063439],[20.005016,50.063382],[20.005858,50.063416],[20.005852,50.063473],[20.00501,50.063439]]]}},{"type":"Feature","id":"w80967881","properties":{"type":"yes","residential":true,"residents_est":20,"h3_10":"8a1e2e685c8ffff","h3_11":"8b1e2e685c8efff"},"geometry":{"type":"Polygon","coordinates":[[[20.00473,50.063246],[20.004737,50.063181],[20.005866,50.06323],[20.005859,50.063296],[20.00473,50.063246]]]}},{"type":"Feature","id":"w81026428","properties":{"type":"yes","residential":true,"residents_est":1,"h3_10":"8a1e2e685c27fff","h3_11":"8b1e2e685c23fff"},"geometry":{"type":"Polygon","coordinates":[[[20.006577,50.067122],[20.006584,50.067071],[20.006729,50.067079],[20.006722,50.06713],[20.006577,50.067122]]]}},{"type":"Feature","id":"w81026444","properties":{"type":"yes","address":"Na Łąkach 24","residential":true,"residents_est":2,"h3_10":"8a1e2e685c37fff","h3_11":"8b1e2e685c31fff"},"geometry":{"type":"Polygon","coordinates":[[[20.005281,50.066714],[20.005303,50.066602],[20.005407,50.06661],[20.005385,50.066722],[20.005281,50.066714]]]}},{"type":"Feature","id":"w81026466","properties":{"type":"yes","residential":true,"residents_est":1,"h3_10":"8a1e2e685c27fff","h3_11":"8b1e2e685c21fff"},"geometry":{"type":"Polygon","coordinates":[[[20.006532,50.067251],[20.006544,50.067197],[20.006675,50.067209],[20.006663,50.067264],[20.006532,50.067251]]]}},{"type":"Feature","id":"w130862570","properties":{"type":"yes","levels":1.0,"residential":true,"residents_est":2,"h3_10":"8a1e2e685d67fff","h3_11":"8b1e2e685d61fff"},"geometry":{"type":"Polygon","coordinates":[[[20.009412,50.070004],[20.009758,50.069984],[20.009773,50.070088],[20.009427,50.070108],[20.009412,50.070004]]]}},{"type":"Feature","id":"w130862576","properties":{"type":"yes","levels":1.0,"residential":true,"residents_est":1,"h3_10":"8a1e2e685d6ffff","h3_11":"8b1e2e685d6cfff"},"geometry":{"type":"Polygon","coordinates":[[[20.009847,50.069956],[20.010072,50.069941],[20.010082,50.070006],[20.009992,50.070012],[20.010001,50.070068],[20.009946,50.070071],[20.009937,50.070016],[20.009857,50.070021],[20.009847,50.069956]]]}},{"type":"Feature","id":"w154607166","properties":{"type":"residential","levels":11.0,"address":"Centralna 51A","residential":true,"residents_est":146,"h3_10":"8a1e2e685c5ffff","h3_11":"8b1e2e685c5afff"},"geometry":{"type":"Polygon","coordinates":[[[20.010974,50.065055],[20.010983,50.064949],[20.011086,50.064952],[20.011087,50.06494],[20.011263,50.064946],[20.011262,50.064959],[20.011337,50.064962],[20.011338,50.064949],[20.011455,50.064954],[20.011453,50.064966],[20.01152,50.064968],[20.011521,50.064956],[20.011709,50.064963],[20.011707,50.064976],[20.0118,50.064979],[20.01179,50.065086],[20.011693,50.065082],[20.011692,50.0651],[20.011574,50.065096],[20.011576,50.065078],[20.011443,50.065073],[20.011441,50.065091],[20.011321,50.065086],[20.011323,50.065069],[20.011187,50.065063],[20.011185,50.065081],[20.011074,50.065077],[20.011076,50.065059],[20.010974,50.065055]]]}},{"type":"Feature","id":"w156971062","properties":{"type":"yes","levels":2.0,"name":"Pływalnia AKF","residential":true,"residents_est":61,"h3_10":"8a1e2e685d37fff","h3_11":"8b1e2e685d34fff"},"geometry":{"type":"Polygon","coordinates":[[[20.001281,50.069576],[20.001304,50.069401],[20.001382,50.069405],[20.001418,50.069121],[20.002329,50.069169],[20.002311,50.069306],[20.002349,50.069308],[20.002343,50.069347],[20.002306,50.069345],[20.002292,50.069452],[20.00236,50.069456],[20.002337,50.069632],[20.002073,50.069618],[20.00207,50.069637],[20.001792,50.069623],[20.001553,50.06961],[20.001555,50.069591],[20.001281,50.069576]]]}},{"type":"Feature","id":"w158566197","properties":{"type":"residential","levels":7.0,"address":"Sołtysowska 11C","residential":true,"residents_est":43,"h3_10":"8a1e2e685c4ffff","h3_11":"8b1e2e685c4afff"},"geometry":{"type":"Polygon","coordinates":[[[20.012845,50.065641],[20.012856,50.065641],[20.012853,50.065561],[20.012938,50.06556],[20.012938,50.065546],[20.013032,50.065545],[20.013032,50.065559],[20.013102,50.065559],[20.013103,50.065616],[20.013087,50.065616],[20.013089,50.065674],[20.013105,50.065674],[20.013107,50.065738],[20.013037,50.065738],[20.013037,50.065747],[20.012943,50.065748],[20.012943,50.065739],[20.012858,50.06574],[20.012856,50.065676],[20.012846,50.065676],[20.012845,50.065641]]]}},{"type":"Feature","id":"w158566210","properties":{"type":"residential","levels":5.0,"address":"Sołtysowska 11","residential":true,"residents_est":53,"h3_10":"8a1e2e685c5ffff","h3_11":"8b1e2e685c59fff"},"geometry":{"type":"Polygon","coordinates":[[[20.012418,50.065039],[20.012494,50.065038],[20.012494,50.065047],[20.01257,50.065046],[20.012571,50.065108],[20.012586,50.065108],[20.012588,50.065162],[20.012573,50.065162],[20.012576,50.065272],[20.012591,50.065272],[20.012592,50.065325],[20.012577,50.065325],[20.01258,50.065439],[20.012595,50.065439],[20.012597,50.065492],[20.012581,50.065492],[20.012583,50.065551],[20.012431,50.06556],[20.012418,50.065039]]]}},{"type":"Feature","id":"w163405062","properties":{"type":"yes","residential":true,"residents_est":1,"h3_10":"8a1e2e685c6ffff","h3_11":"8b1e2e685c6afff"},"geometry":{"type":"Polygon","coordinates":[[[20.012476,50.066594],[20.012569,50.066586],[20.012581,50.066644],[20.012488,50.066651],[20.012476,50.066594]]]}},{"type":"Feature","id":"w164332320","properties":{"type":"roof","residential":false,"residents_est":0,"h3_10":"8a1e2e685d9ffff","h3_11":"8b1e2e685d9bfff"},"geometry":{"type":"Polygon","coordinates":[[[20.001748,50.064756],[20.001789,50.064754],[20.001927,50.064641],[20.002217,50.064627],[20.002224,50.064683],[20.001956,50.064697],[20.001846,50.064785],[20.001752,50.06479],[20.001748,50.064756]]]}},{"type":"Feature","id":"w166666207","properties":{"type":"residential","levels":5.0,"address":"Centralna 43A","name":"Centra","residential":true,"residents_est":41,"h3_10":"8a1e2e685c6ffff","h3_11":"8b1e2e685c6dfff"},"geometry":{"type":"Polygon","coordinates":[[[20.012679,50.067445],[20.012782,50.067422],[20.012787,50.06743],[20.012899,50.067405],[20.012894,50.067396],[20.013401,50.067286],[20.013443,50.067367],[20.013343,50.067389],[20.013336,50.067375],[20.013211,50.067403],[20.013218,50.067416],[20.012729,50.067523],[20.012704,50.067475],[20.012696,50.067476],[20.012679,50.067445]]]}},{"type":"Feature","id":"w213926628","properties":{"type":"yes","residential":false,"residents_est":0,"h3_10":"8a1e2e685c67fff","h3_11":"8b1e2e685c61fff"},"geometry":{"type":"Polygon","coordinates":[[[20.011722,50.067393],[20.011728,50.067343],[20.011788,50.067346],[20.011782,50.067396],[20.011722,50.067393]]]}},{"type":"Feature","id":"w288479478","properties":{"type":"commercial","levels":2.0,"address":"Centralna 62","residential":false,"residents_est":0,"h3_10":"8a1e2e685c87fff","h3_11":"8b1e2e685c85fff"},"geometry":{"type":"Polygon","coordinates":[[[20.0045,50.06405],[20.004719,50.064032],[20.004773,50.064309],[20.004554,50.064327],[20.0045,50.06405]]]}},{"type":"Feature","id":"w305061308","properties":{"type":"yes","levels":1.0,"residential":true,"residents_est":1,"h3_10":"8a1e2e685d6ffff","h3_11":"8b1e2e685d6cfff"},"geometry":{"type":"Polygon","coordinates":[[[20.010165,50.069938],[20.010256,50.069934],[20.010263,50.070002],[20.010173,50.070006],[20.010165,50.069938]]]}},{"type":"Feature","id":"w305303865","properties":{"type":"service","residential":false,"residents_est":0,"h3_10":"8a1e2e685c67fff","h3_11":"8b1e2e685c61fff"},"geometry":{"type":"Polygon","coordinates":[[[20.011627,50.067393],[20.011632,50.067346],[20.011699,50.06735],[20.011693,50.067397],[20.011627,50.067393]]]}},{"type":"Feature","id":"w305303866","properties":{"type":"garage","residential":false,"residents_est":0,"h3_10":"8a1e2e685d1ffff","h3_11":"8b1e2e685d1dfff"},"geometry":{"type":"Polygon","coordinates":[[[20.004964,50.068052],[20.005046,50.068045],[20.005082,50.068238],[20.005,50.068245],[20.004964,50.068052]]]}},{"type":"Feature","id":"w305303868","properties":{"type":"garage","residential":false,"residents_est":0,"h3_10":"8a1e2e685d0ffff","h3_11":"8b1e2e685d0efff"},"geometry":{"type":"Polygon","coordinates":[[[20.004991,50.068281],[20.005075,50.068275],[20.005094,50.06838],[20.005107,50.068379],[20.005126,50.068486],[20.005028,50.068493],[20.004991,50.068281]]]}},{"type":"Feature","id":"w345410471","properties":{"type":"service","residential":false,"residents_est":0,"h3_10":"8a1e2e685d07fff","h3_11":"8b1e2e685d01fff"},"geometry":{"type":"Polygon","coordinates":[[[20.004935,50.068695],[20.005018,50.068691],[20.005024,50.068738],[20.004941,50.068742],[20.004935,50.068695]]]}},{"type":"Feature","id":"w345410472","properties":{"type":"service","residential":false,"residents_est":0,"h3_10":"8a1e2e685d1ffff","h3_11":"8b1e2e685d1cfff"},"geometry":{"type":"Polygon","coordinates":[[[20.003887,50.06797],[20.003947,50.067945],[20.003984,50.067984],[20.003923,50.068008],[20.003887,50.06797]]]}},{"type":"Feature","id":"w375848660","properties":{"type":"roof","residential":false,"residents_est":0,"h3_10":"8a1e2e685d8ffff","h3_11":"8b1e2e685d8cfff"},"geometry":{"type":"Polygon","coordinates":[[[20.002748,50.065999],[20.002849,50.065993],[20.002873,50.066169],[20.002771,50.066174],[20.002748,50.065999]]]}},{"type":"Feature","id":"w375848662","properties":{"type":"yes","residential":true,"residents_est":1,"h3_10":"8a1e2e685c6ffff","h3_11":"8b1e2e685c6afff"},"geometry":{"type":"Polygon","coordinates":[[[20.01264,50.066789],[20.012783,50.066756],[20.012803,50.066791],[20.012659,50.066824],[20.01264,50.066789]]]}},{"type":"Feature","id":"w375848663","properties":{"type":"yes","residential":true,"residents_est":1,"h3_10":"8a1e2e685c37fff","h3_11":"8b1e2e685c35fff"},"geometry":{"type":"Polygon","coordinates":[[[20.005287,50.066892],[20.005294,50.066833],[20.005319,50.066834],[20.005322,50.066806],[20.005384,50.066809],[20.005373,50.066897],[20.005287,50.066892]]]}},{"type":"Feature","id":"w376024863","properties":{"type":"yes","residential":true,"residents_est":12,"h3_10":"8a1e2e685c9ffff","h3_11":"8b1e2e685c9dfff"},"geometry":{"type":"Polygon","coordinates":[[[20.004783,50.063047],[20.004797,50.062882],[20.004805,50.062882],[20.004808,50.062856],[20.004895,50.062858],[20.004893,50.062888],[20.005058,50.062894],[20.005047,50.063013],[20.005057,50.063013],[20.005053,50.063057],[20.004783,50.063047]]]}},{"type":"Feature","id":"w376024866","properties":{"type":"yes","residential":true,"residents_est":14,"h3_10":"8a1e2e685c8ffff","h3_11":"8b1e2e685c8efff"},"geometry":{"type":"Polygon","coordinates":[[[20.004502,50.06346],[20.004513,50.063359],[20.004632,50.063363],[20.004638,50.063335],[20.004666,50.063327],[20.00469,50.063327],[20.004721,50.063366],[20.005016,50.06338],[20.005007,50.063479],[20.004836,50.063472],[20.004839,50.06344],[20.0048,50.063439],[20.004797,50.06347],[20.004502,50.06346]]]}},{"type":"Feature","id":"w376024867","properties":{"type":"yes","levels":5.0,"residential":true,"residents_est":10,"h3_10":"8a1e2e685c9ffff","h3_11":"8b1e2e685c99fff"},"geometry":{"type":"Polygon","coordinates":[[[20.004852,50.062531],[20.004867,50.062366],[20.005042,50.062372],[20.005025,50.062539],[20.004852,50.062531]]]}},{"type":"Feature","id":"w376024869","properties":{"type":"yes","residential":true,"residents_est":1,"h3_10":"8a1e2e685c8ffff","h3_11":"8b1e2e685c88fff"},"geometry":{"type":"Polygon","coordinates":[[[20.005958,50.063503],[20.005962,50.063463],[20.006,50.063465],[20.006002,50.063447],[20.006093,50.063451],[20.006087,50.06351],[20.005958,50.063503]]]}},{"type":"Feature","id":"w376024874","properties":{"type":"yes","residential":true,"residents_est":16,"h3_10":"8a1e2e685c8ffff","h3_11":"8b1e2e685c8afff"},"geometry":{"type":"Polygon","coordinates":[[[20.004919,50.063174],[20.004927,50.063095],[20.005691,50.063128],[20.005676,50.063209],[20.004919,50.063174]]]}},{"type":"Feature","id":"w376026256","properties":{"type":"yes","residential":true,"residents_est":3,"h3_10":"8a1e2e685ccffff","h3_11":"8b1e2e685cc8fff"},"geometry":{"type":"Polygon","coordinates":[[[20.010618,50.063406],[20.010634,50.063247],[20.010778,50.063251],[20.010767,50.063412],[20.010618,50.063406]]]}},{"type":"Feature","id":"w446315126","properties":{"type":"apartments","levels":8.0,"address":"Galicyjska 3C","residential":true,"residents_est":185,"h3_10":"8a1e2e685cdffff","h3_11":"8b1e2e685cdbfff"},"geometry":{"type":"Polygon","coordinates":[[[20.008704,50.06245],[20.008712,50.062341],[20.009398,50.062363],[20.009411,50.062198],[20.009392,50.062198],[20.009414,50.061895],[20.009602,50.061901],[20.009563,50.06242],[20.009501,50.062418],[20.009497,50.062474],[20.008704,50.06245]]]}},{"type":"Feature","id":"w461121493","properties":{"type":"apartments","address":"Galicyjska 3A","residential":true,"residents_est":82,"h3_10":"8a1e2e685cdffff","h3_11":"8b1e2e685cdcfff"},"geometry":{"type":"Polygon","coordinates":[[[20.009074,50.063167],[20.009105,50.062733],[20.0093,50.062739],[20.009273,50.063124],[20.009542,50.063132],[20.009534,50.063239],[20.009092,50.063226],[20.009096,50.063168],[20.009074,50.063167]]]}},{"type":"Feature","id":"w491950789","properties":{"type":"apartments","levels":4.0,"address":"Centralna 43C","residential":true,"residents_est":29,"h3_10":"8a1e2e685c6ffff","h3_11":"8b1e2e685c68fff"},"geometry":{"type":"Polygon","coordinates":[[[20.012549,50.067182],[20.012812,50.067125],[20.012819,50.067138],[20.012849,50.067131],[20.012842,50.067118],[20.012948,50.067095],[20.012951,50.067101],[20.012939,50.067103],[20.013004,50.067228],[20.013016,50.067226],[20.013018,50.067231],[20.012825,50.067273],[20.012817,50.067257],[20.012767,50.067268],[20.012775,50.067283],[20.012767,50.067285],[20.012759,50.06727],[20.012612,50.067302],[20.012549,50.067182]]]}},{"type":"Feature","id":"w516258684","properties":{"type":"yes","residential":true,"residents_est":3,"h3_10":"8a1e2e685c67fff","h3_11":"8b1e2e685c61fff"},"geometry":{"type":"Polygon","coordinates":[[[20.012004,50.067395],[20.012159,50.067338],[20.012271,50.067462],[20.012116,50.06752],[20.012004,50.067395]]]}},{"type":"Feature","id":"w523721544","properties":{"type":"office","address":"Galicyjska 1","residential":false,"residents_est":0,"h3_10":"8a1e2e685cd7fff","h3_11":"8b1e2e685cd0fff"},"geometry":{"type":"Polygon","coordinates":[[[20.007609,50.063244],[20.007664,50.062726],[20.008018,50.062741],[20.007964,50.06326],[20.007609,50.063244]]]}},{"type":"Feature","id":"w526280243","properties":{"type":"apartments","address":"Aleja Pokoju 83","residential":true,"residents_est":146,"h3_10":"8a1e2e685d5ffff","h3_11":"8b1e2e685d5cfff"},"geometry":{"type":"Polygon","coordinates":[[[20.008466,50.067773],[20.00856,50.06764],[20.009924,50.068036],[20.00983,50.068169],[20.008466,50.067773]]]}},{"type":"Feature","id":"w526280246","properties":{"type":"apartments","address":"Aleja Pokoju 83A","residential":true,"residents_est":96,"h3_10":"8a1e2e685d5ffff","h3_11":"8b1e2e685d5afff"},"geometry":{"type":"Polygon","coordinates":[[[20.008718,50.067454],[20.009042,50.066994],[20.009266,50.067059],[20.009213,50.067134],[20.009261,50.067148],[20.009009,50.067507],[20.008961,50.067493],[20.008943,50.067519],[20.008718,50.067454]]]}},{"type":"Feature","id":"w526280248","properties":{"type":"apartments","address":"Aleja Pokoju 83B","residential":true,"residents_est":96,"h3_10":"8a1e2e685d5ffff","h3_11":"8b1e2e685d5bfff"},"geometry":{"type":"Polygon","coordinates":[[[20.009246,50.067607],[20.00957,50.067147],[20.009794,50.067213],[20.009741,50.067288],[20.009788,50.067301],[20.009536,50.06766],[20.009488,50.067646],[20.00947,50.067672],[20.009246,50.067607]]]}},{"type":"Feature","id":"w526280251","properties":{"type":"apartments","address":"Aleja Pokoju 83C","residential":true,"residents_est":96,"h3_10":"8a1e2e685d5ffff","h3_11":"8b1e2e685d59fff"},"geometry":{"type":"Polygon","coordinates":[[[20.009774,50.067761],[20.010097,50.067301],[20.010321,50.067366],[20.010269,50.067441],[20.010315,50.067454],[20.010064,50.067813],[20.010017,50.067799],[20.009998,50.067825],[20.009774,50.067761]]]}},{"type":"Feature","id":"w550178526","properties":{"type":"yes","residential":true,"residents_est":1,"h3_10":"8a1e2e685c6ffff","h3_11":"8b1e2e685c68fff"},"geometry":{"type":"Polygon","coordinates":[[[20.012714,50.067041],[20.012797,50.067023],[20.012831,50.067077],[20.012747,50.067097],[20.012714,50.067041]]]}},{"type":"Feature","id":"w595924707","properties":{"type":"yes","address":"Boguszówka 5","residential":true,"residents_est":1,"h3_10":"8a1e2e685d27fff","h3_11":"8b1e2e685d24fff"},"geometry":{"type":"Polygon","coordinates":[[[20.003639,50.070264],[20.003734,50.070236],[20.003777,50.070292],[20.003681,50.070321],[20.003639,50.070264]]]}},{"type":"Feature","id":"w621448880","properties":{"type":"apartments","levels":4.0,"address":"Sołtysowska 1","name":"Sołtysowska Perła","residential":true,"residents_est":21,"h3_10":"8a1e2e685c47fff","h3_11":"8b1e2e685c43fff"},"geometry":{"type":"Polygon","coordinates":[[[20.011679,50.06579],[20.011682,50.065725],[20.01169,50.065718],[20.011823,50.065729],[20.011821,50.065743],[20.011885,50.065748],[20.011884,50.06576],[20.011997,50.065769],[20.011985,50.065816],[20.012023,50.06582],[20.012012,50.065869],[20.011839,50.065856],[20.011837,50.065868],[20.011795,50.065865],[20.01178,50.06587],[20.01168,50.06586],[20.011691,50.065791],[20.011679,50.06579]]]}},{"type":"Feature","id":"w675559916","properties":{"type":"yes","residential":true,"residents_est":1,"h3_10":"8a1e2e685d27fff","h3_11":"8b1e2e685d25fff"},"geometry":{"type":"Polygon","coordinates":[[[20.003826,50.07018],[20.003914,50.070151],[20.003963,50.070212],[20.003976,50.070208],[20.003984,50.070219],[20.003884,50.070253],[20.003826,50.07018]]]}},{"type":"Feature","id":"w713440268","properties":{"type":"yes","residential":false,"residents_est":0,"h3_10":"8a1e2e685c87fff","h3_11":"8b1e2e685c81fff"},"geometry":{"type":"Polygon","coordinates":[[[20.004499,50.063501],[20.004502,50.06346],[20.004598,50.063465],[20.004594,50.063506],[20.004499,50.063501]]]}},{"type":"Feature","id":"w713440269","properties":{"type":"yes","residential":true,"residents_est":0,"h3_10":"8a1e2e685c8ffff","h3_11":"8b1e2e685c8bfff"},"geometry":{"type":"Polygon","coordinates":[[[20.005723,50.062875],[20.005728,50.062802],[20.005799,50.062804],[20.005795,50.062877],[20.005723,50.062875]]]}},{"type":"Feature","id":"w713440271","properties":{"type":"yes","residential":true,"residents_est":18,"h3_10":"8a1e2e685c8ffff","h3_11":"8b1e2e685c8afff"},"geometry":{"type":"Polygon","coordinates":[[[20.005224,50.063107],[20.005231,50.063016],[20.005484,50.063025],[20.005482,50.063036],[20.00553,50.063038],[20.005531,50.063028],[20.005553,50.063029],[20.005552,50.063039],[20.005619,50.063042],[20.00562,50.063031],[20.005666,50.063033],[20.005675,50.062934],[20.005691,50.062935],[20.005693,50.062919],[20.005677,50.062918],[20.005674,50.062874],[20.005795,50.062877],[20.005769,50.063138],[20.00569,50.063135],[20.005691,50.063128],[20.005224,50.063107]]]}},{"type":"Feature","id":"w713440277","properties":{"type":"yes","residential":true,"residents_est":11,"h3_10":"8a1e2e685c8ffff","h3_11":"8b1e2e685c8afff"},"geometry":{"type":"Polygon","coordinates":[[[20.005315,50.063019],[20.00533,50.062904],[20.005693,50.062919],[20.005691,50.062935],[20.005675,50.062934],[20.005666,50.063033],[20.00562,50.063031],[20.005619,50.063042],[20.005552,50.063039],[20.005553,50.063028],[20.005531,50.063027],[20.00553,50.063038],[20.005482,50.063036],[20.005484,50.063025],[20.005315,50.063019]]]}},{"type":"Feature","id":"w713440278","properties":{"type":"yes","residential":true,"residents_est":1,"h3_10":"8a1e2e685c8ffff","h3_11":"8b1e2e685c8afff"},"geometry":{"type":"Polygon","coordinates":[[[20.005231,50.063016],[20.005239,50.062902],[20.005328,50.062905],[20.005315,50.063019],[20.005231,50.063016]]]}},{"type":"Feature","id":"w713440279","properties":{"type":"yes","residential":true,"residents_est":1,"h3_10":"8a1e2e685c8ffff","h3_11":"8b1e2e685c8afff"},"geometry":{"type":"Polygon","coordinates":[[[20.005139,50.063013],[20.005147,50.062899],[20.005239,50.062902],[20.005231,50.063016],[20.005139,50.063013]]]}},{"type":"Feature","id":"w713440280","properties":{"type":"yes","residential":true,"residents_est":1,"h3_10":"8a1e2e685c8ffff","h3_11":"8b1e2e685c8afff"},"geometry":{"type":"Polygon","coordinates":[[[20.005129,50.063103],[20.005139,50.063013],[20.005231,50.063016],[20.005224,50.063107],[20.005129,50.063103]]]}},{"type":"Feature","id":"w713440281","properties":{"type":"yes","residential":true,"residents_est":1,"h3_10":"8a1e2e685c8ffff","h3_11":"8b1e2e685c8afff"},"geometry":{"type":"Polygon","coordinates":[[[20.005048,50.063009],[20.005058,50.062894],[20.005147,50.062899],[20.005139,50.063013],[20.005048,50.063009]]]}},{"type":"Feature","id":"w713440283","properties":{"type":"yes","residential":true,"residents_est":2,"h3_10":"8a1e2e685c87fff","h3_11":"8b1e2e685c83fff"},"geometry":{"type":"Polygon","coordinates":[[[20.004519,50.063301],[20.004524,50.063266],[20.004545,50.063266],[20.004544,50.063237],[20.004622,50.063175],[20.004684,50.063178],[20.004675,50.063268],[20.004547,50.063303],[20.004519,50.063301]]]}},{"type":"Feature","id":"w713440306","properties":{"type":"yes","residential":false,"residents_est":0,"h3_10":"8a1e2e685c9ffff","h3_11":"8b1e2e685c99fff"},"geometry":{"type":"Polygon","coordinates":[[[20.005092,50.062592],[20.005096,50.062552],[20.005175,50.062554],[20.00517,50.062595],[20.005092,50.062592]]]}},{"type":"Feature","id":"w713440307","properties":{"type":"yes","residential":true,"residents_est":1,"h3_10":"8a1e2e685c9ffff","h3_11":"8b1e2e685c99fff"},"geometry":{"type":"Polygon","coordinates":[[[20.00517,50.062595],[20.005175,50.062554],[20.005298,50.062559],[20.005295,50.062601],[20.00517,50.062595]]]}},{"type":"Feature","id":"w713440308","properties":{"type":"yes","residential":true,"residents_est":2,"h3_10":"8a1e2e685c9ffff","h3_11":"8b1e2e685c99fff"},"geometry":{"type":"Polygon","coordinates":[[[20.005085,50.062651],[20.005092,50.062592],[20.005295,50.062601],[20.005289,50.062658],[20.005085,50.062651]]]}},{"type":"Feature","id":"w713440309","properties":{"type":"yes","residential":true,"residents_est":2,"h3_10":"8a1e2e685c9ffff","h3_11":"8b1e2e685c99fff"},"geometry":{"type":"Polygon","coordinates":[[[20.005149,50.062737],[20.005155,50.062654],[20.005382,50.062663],[20.005377,50.06272],[20.00532,50.062717],[20.005318,50.062744],[20.005149,50.062737]]]}},{"type":"Feature","id":"w713440310","properties":{"type":"yes","residential":true,"residents_est":4,"h3_10":"8a1e2e685c9ffff","h3_11":"8b1e2e685c99fff"},"geometry":{"type":"Polygon","coordinates":[[[20.00477,50.062681],[20.004776,50.062613],[20.004801,50.062614],[20.004804,50.062586],[20.004982,50.062593],[20.004967,50.06276],[20.004892,50.062756],[20.004894,50.062735],[20.004796,50.062731],[20.004801,50.062683],[20.00477,50.062681]]]}},{"type":"Feature","id":"w713440311","properties":{"type":"yes","residential":true,"residents_est":1,"h3_10":"8a1e2e685c9ffff","h3_11":"8b1e2e685c99fff"},"geometry":{"type":"Polygon","coordinates":[[[20.00498,50.062593],[20.004986,50.062538],[20.005026,50.06254],[20.005029,50.062515],[20.005068,50.062517],[20.005059,50.062595],[20.00498,50.062593]]]}},{"type":"Feature","id":"w713440312","properties":{"type":"yes","residential":true,"residents_est":4,"h3_10":"8a1e2e685c9ffff","h3_11":"8b1e2e685c99fff"},"geometry":{"type":"Polygon","coordinates":[[[20.005103,50.062549],[20.005113,50.062438],[20.005389,50.062449],[20.005378,50.062559],[20.005103,50.062549]]]}},{"type":"Feature","id":"w713440313","properties":{"type":"yes","residential":true,"residents_est":2,"h3_10":"8a1e2e685c9ffff","h3_11":"8b1e2e685c99fff"},"geometry":{"type":"Polygon","coordinates":[[[20.004732,50.062486],[20.004745,50.06236],[20.004867,50.062366],[20.004853,50.062514],[20.004746,50.06251],[20.004747,50.062487],[20.004732,50.062486]]]}},{"type":"Feature","id":"w713440314","properties":{"type":"service","residential":false,"residents_est":0,"h3_10":"8a1e2e685c9ffff","h3_11":"8b1e2e685c9bfff"},"geometry":{"type":"Polygon","coordinates":[[[20.004758,50.062277],[20.004766,50.062234],[20.004832,50.062239],[20.004825,50.06228],[20.004758,50.062277]]]}},{"type":"Feature","id":"w713440315","properties":{"type":"yes","residential":true,"residents_est":1,"h3_10":"8a1e2e685c9ffff","h3_11":"8b1e2e685c9bfff"},"geometry":{"type":"Polygon","coordinates":[[[20.004832,50.062279],[20.004838,50.062223],[20.004973,50.062225],[20.004974,50.062262],[20.004832,50.062279]]]}},{"type":"Feature","id":"w713440316","properties":{"type":"yes","residential":true,"residents_est":3,"h3_10":"8a1e2e685c9ffff","h3_11":"8b1e2e685c9bfff"},"geometry":{"type":"Polygon","coordinates":[[[20.004705,50.062205],[20.004713,50.062114],[20.004985,50.062124],[20.004975,50.062215],[20.004705,50.062205]]]}},{"type":"Feature","id":"w719277249","properties":{"type":"commercial","levels":5.0,"address":"Aleja Pokoju 81","residential":false,"residents_est":0,"h3_10":"8a1e2e685c2ffff","h3_11":"8b1e2e685c2cfff"},"geometry":{"type":"Polygon","coordinates":[[[20.006871,50.067271],[20.006943,50.06717],[20.007399,50.067305],[20.007451,50.067233],[20.007724,50.067314],[20.007719,50.067321],[20.007899,50.067375],[20.007852,50.06744],[20.007878,50.067448],[20.007802,50.067553],[20.006968,50.067306],[20.006971,50.067301],[20.006871,50.067271]]]}},{"type":"Feature","id":"w719277250","properties":{"type":"apartments","levels":6.0,"address":"Aleja Pokoju 81A","residential":true,"residents_est":88,"h3_10":"8a1e2e685c2ffff","h3_11":"8b1e2e685c28fff"},"geometry":{"type":"Polygon","coordinates":[[[20.007882,50.066987],[20.007905,50.066955],[20.007944,50.066967],[20.00799,50.066903],[20.008121,50.066944],[20.008112,50.066957],[20.008241,50.066996],[20.008302,50.066914],[20.008281,50.066907],[20.008413,50.066731],[20.00861,50.066772],[20.008462,50.066974],[20.00844,50.066967],[20.008372,50.067058],[20.008394,50.067065],[20.008366,50.0671],[20.008278,50.067073],[20.008245,50.067116],[20.008153,50.067088],[20.008143,50.067101],[20.007899,50.067025],[20.007919,50.066999],[20.007882,50.066987]]]}},{"type":"Feature","id":"w719277251","properties":{"type":"apartments","levels":5.0,"address":"Aleja Pokoju 81B","residential":true,"residents_est":68,"h3_10":"8a1e2e685c2ffff","h3_11":"8b1e2e685c2afff"},"geometry":{"type":"Polygon","coordinates":[[[20.007259,50.066767],[20.007354,50.066512],[20.007557,50.066554],[20.007518,50.06666],[20.007557,50.066666],[20.007546,50.066697],[20.007506,50.066692],[20.007489,50.066737],[20.007512,50.066741],[20.007501,50.06677],[20.007625,50.066806],[20.007634,50.066794],[20.007765,50.066835],[20.007717,50.066897],[20.007755,50.06691],[20.007732,50.06694],[20.007693,50.066929],[20.007675,50.066955],[20.007429,50.06688],[20.007439,50.066867],[20.00732,50.066832],[20.007357,50.066782],[20.007259,50.066767]]]}},{"type":"Feature","id":"w721086776","properties":{"type":"apartments","levels":5.0,"address":"Aleja Pokoju 81C","residential":true,"residents_est":81,"h3_10":"8a1e2e685c0ffff","h3_11":"8b1e2e685c0cfff"},"geometry":{"type":"Polygon","coordinates":[[[20.007426,50.066345],[20.007453,50.066315],[20.007429,50.06631],[20.007528,50.066046],[20.007756,50.066082],[20.00768,50.066286],[20.007902,50.066331],[20.007909,50.066318],[20.008035,50.066342],[20.008001,50.066409],[20.008044,50.066417],[20.008013,50.066479],[20.0076,50.066397],[20.007607,50.066383],[20.007426,50.066345]]]}},{"type":"Feature","id":"w721086777","properties":{"type":"apartments","levels":5.0,"address":"Aleja Pokoju 81D","residential":true,"residents_est":83,"h3_10":"8a1e2e685c0ffff","h3_11":"8b1e2e685c0dfff"},"geometry":{"type":"Polygon","coordinates":[[[20.008168,50.066512],[20.008202,50.06645],[20.008241,50.066455],[20.008272,50.06639],[20.008397,50.066416],[20.008391,50.066431],[20.008626,50.066479],[20.008666,50.066422],[20.00865,50.066413],[20.008794,50.066218],[20.009007,50.066244],[20.008848,50.066453],[20.008828,50.066447],[20.008759,50.06654],[20.008781,50.066545],[20.008757,50.066576],[20.008736,50.066571],[20.008715,50.066608],[20.008589,50.066581],[20.008582,50.066596],[20.008168,50.066512]]]}},{"type":"Feature","id":"w721086778","properties":{"type":"apartments","levels":6.0,"address":"Aleja Pokoju 81E","residential":true,"residents_est":134,"h3_10":"8a1e2e685c0ffff","h3_11":"8b1e2e685c08fff"},"geometry":{"type":"Polygon","coordinates":[[[20.007826,50.065964],[20.00785,50.065868],[20.007921,50.065874],[20.007929,50.06585],[20.007941,50.065848],[20.007941,50.065855],[20.008055,50.065865],[20.008058,50.06585],[20.008111,50.065855],[20.008108,50.065869],[20.008144,50.065873],[20.008148,50.065858],[20.008197,50.065863],[20.008195,50.065878],[20.008358,50.065894],[20.008362,50.065878],[20.008414,50.065884],[20.008411,50.065898],[20.008446,50.065903],[20.008452,50.065886],[20.008503,50.065892],[20.0085,50.065908],[20.008663,50.065924],[20.008669,50.065908],[20.00872,50.065912],[20.008717,50.065927],[20.008755,50.065932],[20.008761,50.065917],[20.00881,50.065924],[20.008808,50.065936],[20.008968,50.065953],[20.008972,50.065939],[20.009024,50.065944],[20.009021,50.065957],[20.009056,50.06596],[20.009063,50.065948],[20.009114,50.065953],[20.009109,50.065963],[20.009199,50.065974],[20.009272,50.065996],[20.009249,50.066087],[20.009135,50.066076],[20.009126,50.06609],[20.009065,50.066084],[20.00907,50.066066],[20.008952,50.066056],[20.008945,50.066073],[20.008765,50.066055],[20.008766,50.06604],[20.008651,50.066026],[20.008646,50.066043],[20.008456,50.066025],[20.00846,50.066009],[20.008344,50.065997],[20.008336,50.066013],[20.008155,50.065996],[20.008158,50.065978],[20.008039,50.065967],[20.008031,50.065985],[20.007826,50.065964]]]}},{"type":"Feature","id":"w753229325","properties":{"type":"apartments","address":"Aleja Pokoju 83D","residential":true,"residents_est":100,"h3_10":"8a1e2e685c77fff","h3_11":"8b1e2e685c71fff"},"geometry":{"type":"Polygon","coordinates":[[[20.009509,50.06651],[20.009585,50.066408],[20.010784,50.066777],[20.010708,50.066879],[20.009509,50.06651]]]}},{"type":"Feature","id":"w753229326","properties":{"type":"apartments","address":"Aleja Pokoju 83E","residential":true,"residents_est":100,"h3_10":"8a1e2e685c47fff","h3_11":"8b1e2e685c46fff"},"geometry":{"type":"Polygon","coordinates":[[[20.009917,50.066249],[20.009987,50.066145],[20.011206,50.06648],[20.011136,50.066585],[20.009917,50.066249]]]}},{"type":"Feature","id":"w844595182","properties":{"type":"residential","levels":6.0,"address":"Centralna 51B","name":"A1","residential":true,"residents_est":45,"h3_10":"8a1e2e685ceffff","h3_11":"8b1e2e685cedfff"},"geometry":{"type":"Polygon","coordinates":[[[20.010337,50.064703],[20.010539,50.064683],[20.010572,50.064822],[20.010547,50.064824],[20.010549,50.064833],[20.010551,50.064841],[20.010576,50.064839],[20.010602,50.064945],[20.010501,50.064955],[20.010508,50.064983],[20.010407,50.064993],[20.010376,50.064866],[20.01039,50.064865],[20.010388,50.064856],[20.010384,50.06484],[20.01037,50.064842],[20.010361,50.064804],[20.010375,50.064803],[20.010369,50.064778],[20.010355,50.06478],[20.010337,50.064703]]]}},{"type":"Feature","id":"w844595183","properties":{"type":"residential","levels":6.0,"address":"Centralna 51","name":"B1","residential":true,"residents_est":43,"h3_10":"8a1e2e685ceffff","h3_11":"8b1e2e685ceafff"},"geometry":{"type":"Polygon","coordinates":[[[20.010197,50.064078],[20.010399,50.064058],[20.010431,50.064197],[20.010408,50.064199],[20.010412,50.064216],[20.010436,50.064214],[20.010462,50.064322],[20.010261,50.064342],[20.010237,50.064241],[20.01025,50.06424],[20.010247,50.064227],[20.010244,50.064216],[20.01023,50.064217],[20.010221,50.064179],[20.010234,50.064178],[20.010229,50.064154],[20.010215,50.064155],[20.010197,50.064078]]]}},{"type":"Feature","id":"w844595185","properties":{"type":"residential","levels":6.0,"address":"Centralna 51","name":"B2","residential":true,"residents_est":46,"h3_10":"8a1e2e685ceffff","h3_11":"8b1e2e685cebfff"},"geometry":{"type":"Polygon","coordinates":[[[20.010419,50.063877],[20.01058,50.063861],[20.010577,50.063849],[20.010696,50.063837],[20.010699,50.063849],[20.01079,50.06384],[20.010787,50.063828],[20.010863,50.06382],[20.010897,50.063964],[20.010821,50.063971],[20.010818,50.063959],[20.010642,50.063976],[20.010638,50.06396],[20.010627,50.063961],[20.010612,50.063963],[20.010616,50.063979],[20.010522,50.063988],[20.010525,50.064],[20.01045,50.064008],[20.010419,50.063877]]]}},{"type":"Feature","id":"w844595187","properties":{"type":"residential","levels":6.0,"address":"Centralna 51B","name":"A2","residential":true,"residents_est":49,"h3_10":"8a1e2e685ceffff","h3_11":"8b1e2e685ce8fff"},"geometry":{"type":"Polygon","coordinates":[[[20.010534,50.064451],[20.010587,50.064446],[20.01059,50.064459],[20.010622,50.064456],[20.010619,50.064442],[20.010674,50.064437],[20.010684,50.064483],[20.010677,50.064483],[20.01068,50.064496],[20.010935,50.06447],[20.010976,50.064641],[20.010806,50.064658],[20.010792,50.064599],[20.010722,50.064606],[20.010718,50.06459],[20.010692,50.064592],[20.010696,50.064608],[20.010574,50.06462],[20.010534,50.064451]]]}},{"type":"Feature","id":"w844595188","properties":{"type":"residential","levels":6.0,"address":"Centralna 51B","name":"A3","residential":true,"residents_est":48,"h3_10":"8a1e2e685ceffff","h3_11":"8b1e2e685ce9fff"},"geometry":{"type":"Polygon","coordinates":[[[20.011136,50.064364],[20.011155,50.064362],[20.011144,50.064315],[20.011341,50.064295],[20.011377,50.064447],[20.011358,50.064449],[20.011364,50.064476],[20.011384,50.064474],[20.011398,50.064533],[20.011378,50.064535],[20.011386,50.064567],[20.011309,50.064575],[20.011316,50.064607],[20.011197,50.064619],[20.011188,50.064582],[20.011207,50.06458],[20.011201,50.064552],[20.011181,50.064554],[20.011167,50.064496],[20.011192,50.064493],[20.01119,50.064484],[20.011188,50.064476],[20.011163,50.064479],[20.011136,50.064364]]]}},{"type":"Feature","id":"w892077769","properties":{"type":"apartments","levels":6.0,"address":"Na Łąkach 9","residential":true,"residents_est":82,"h3_10":"8a1e2e685c07fff","h3_11":"8b1e2e685c00fff"},"geometry":{"type":"Polygon","coordinates":[[[20.0066,50.066346],[20.006605,50.066288],[20.00663,50.066289],[20.006648,50.066077],[20.006665,50.066077],[20.00667,50.066024],[20.00672,50.066026],[20.006722,50.066007],[20.0068,50.06601],[20.006801,50.065996],[20.006945,50.066001],[20.006937,50.066093],[20.006911,50.066092],[20.006906,50.066146],[20.006867,50.066144],[20.006862,50.066214],[20.006972,50.066218],[20.006965,50.0663],[20.006996,50.066302],[20.006991,50.06636],[20.006706,50.066344],[20.006705,50.066349],[20.0066,50.066346]]]}},{"type":"Feature","id":"w970384795","properties":{"type":"apartments","address":"Sołtysowska 5","residential":true,"residents_est":51,"h3_10":"8a1e2e685c5ffff","h3_11":"8b1e2e685c5dfff"},"geometry":{"type":"Polygon","coordinates":[[[20.011803,50.065591],[20.011986,50.065422],[20.01196,50.06541],[20.012051,50.065326],[20.012099,50.065348],[20.01209,50.065357],[20.012239,50.065423],[20.012098,50.065554],[20.012162,50.065583],[20.01204,50.065696],[20.011803,50.065591]]]}},{"type":"Feature","id":"w1038785994","properties":{"type":"outbuilding","levels":1.0,"residential":false,"residents_est":0,"h3_10":"8a1e2e685caffff","h3_11":"8b1e2e685ca8fff"},"geometry":{"type":"Polygon","coordinates":[[[20.005143,50.064571],[20.005157,50.064519],[20.005297,50.064535],[20.005283,50.064586],[20.005143,50.064571]]]}},{"type":"Feature","id":"w1038786115","properties":{"type":"outbuilding","levels":1.0,"residential":false,"residents_est":0,"h3_10":"8a1e2e685d0ffff","h3_11":"8b1e2e685d0cfff"},"geometry":{"type":"Polygon","coordinates":[[[20.005612,50.068872],[20.005723,50.068864],[20.005731,50.068912],[20.005621,50.06892],[20.005612,50.068872]]]}},{"type":"Feature","id":"w1038786116","properties":{"type":"garage","levels":1.0,"address":"Centralna 51G","residential":false,"residents_est":0,"h3_10":"8a1e2e685ccffff","h3_11":"8b1e2e685ccefff"},"geometry":{"type":"Polygon","coordinates":[[[20.010208,50.063255],[20.010213,50.06308],[20.010298,50.06308],[20.010295,50.063222],[20.010286,50.063222],[20.010286,50.063256],[20.010208,50.063255]]]}},{"type":"Feature","id":"w1038786117","properties":{"type":"garage","levels":1.0,"residential":false,"residents_est":0,"h3_10":"8a1e2e685ccffff","h3_11":"8b1e2e685ccafff"},"geometry":{"type":"Polygon","coordinates":[[[20.010213,50.063069],[20.010215,50.062978],[20.010301,50.062979],[20.010299,50.06307],[20.010213,50.063069]]]}},{"type":"Feature","id":"w1038786120","properties":{"type":"warehouse","levels":1.0,"residential":false,"residents_est":0,"h3_10":"8a1e2e685ccffff","h3_11":"8b1e2e685cccfff"},"geometry":{"type":"Polygon","coordinates":[[[20.010197,50.063582],[20.010216,50.063377],[20.010324,50.063381],[20.010306,50.063586],[20.010197,50.063582]]]}},{"type":"Feature","id":"w1083159558","properties":{"type":"residential","levels":9.0,"address":"Nowohucka 3","residential":true,"residents_est":33,"h3_10":"8a1e2e685d0ffff","h3_11":"8b1e2e685d0efff"},"geometry":{"type":"Polygon","coordinates":[[[20.005333,50.068464],[20.005515,50.068452],[20.005523,50.068503],[20.005564,50.0685],[20.005578,50.068588],[20.00537,50.068601],[20.005353,50.068494],[20.005338,50.068495],[20.005333,50.068464]]]}},{"type":"Feature","id":"w1083159559","properties":{"type":"residential","levels":5.0,"address":"Nowohucka 3","residential":true,"residents_est":17,"h3_10":"8a1e2e685d0ffff","h3_11":"8b1e2e685d0efff"},"geometry":{"type":"Polygon","coordinates":[[[20.005305,50.068312],[20.005326,50.068311],[20.005319,50.068268],[20.005483,50.068258],[20.005506,50.068401],[20.005342,50.068412],[20.005336,50.068374],[20.005316,50.068376],[20.005305,50.068312]]]}},{"type":"Feature","id":"w1083159560","properties":{"type":"residential","levels":5.0,"address":"Nowohucka 3H","residential":true,"residents_est":16,"h3_10":"8a1e2e685d0ffff","h3_11":"8b1e2e685d0afff"},"geometry":{"type":"Polygon","coordinates":[[[20.005269,50.068085],[20.005448,50.068073],[20.005471,50.068213],[20.005291,50.068224],[20.005286,50.068192],[20.005302,50.068191],[20.00529,50.068119],[20.005274,50.06812],[20.005269,50.068085]]]}},{"type":"Feature","id":"w1083159561","properties":{"type":"residential","levels":5.0,"address":"Nowohucka 3I","residential":true,"residents_est":17,"h3_10":"8a1e2e685d0ffff","h3_11":"8b1e2e685d0afff"},"geometry":{"type":"Polygon","coordinates":[[[20.005245,50.067934],[20.00526,50.067933],[20.005253,50.067891],[20.005421,50.06788],[20.005444,50.068023],[20.005276,50.068034],[20.00527,50.067994],[20.005254,50.067995],[20.005245,50.067934]]]}},{"type":"Feature","id":"w1083159562","properties":{"type":"residential","levels":5.0,"address":"Nowohucka 3A","residential":true,"residents_est":16,"h3_10":"8a1e2e685d0ffff","h3_11":"8b1e2e685d08fff"},"geometry":{"type":"Polygon","coordinates":[[[20.005637,50.068468],[20.005694,50.068464],[20.005692,50.06845],[20.005787,50.068444],[20.005789,50.068458],[20.005852,50.068453],[20.005869,50.06856],[20.005654,50.068574],[20.005637,50.068468]]]}},{"type":"Feature","id":"w1083159563","properties":{"type":"residential","levels":5.0,"address":"Nowohucka 3B","residential":true,"residents_est":17,"h3_10":"8a1e2e685d0ffff","h3_11":"8b1e2e685d08fff"},"geometry":{"type":"Polygon","coordinates":[[[20.005922,50.068435],[20.005982,50.068431],[20.005984,50.068445],[20.006092,50.068438],[20.00609,50.068424],[20.006139,50.068421],[20.006158,50.06854],[20.005941,50.068555],[20.005922,50.068435]]]}},{"type":"Feature","id":"w1083159564","properties":{"type":"residential","levels":5.0,"address":"Nowohucka 3C","residential":true,"residents_est":16,"h3_10":"8a1e2e685d0ffff","h3_11":"8b1e2e685d09fff"},"geometry":{"type":"Polygon","coordinates":[[[20.006219,50.068429],[20.006281,50.068425],[20.006279,50.068412],[20.006373,50.068405],[20.006375,50.068419],[20.006438,50.068415],[20.006455,50.068521],[20.006236,50.068535],[20.006219,50.068429]]]}},{"type":"Feature","id":"w1083159565","properties":{"type":"residential","levels":5.0,"address":"Nowohucka 3D","residential":true,"residents_est":17,"h3_10":"8a1e2e685d0ffff","h3_11":"8b1e2e685d09fff"},"geometry":{"type":"Polygon","coordinates":[[[20.006508,50.068394],[20.006564,50.06839],[20.006566,50.068406],[20.006681,50.068399],[20.006678,50.068383],[20.006728,50.068379],[20.006747,50.068501],[20.006528,50.068516],[20.006508,50.068394]]]}},{"type":"Feature","id":"w1083159566","properties":{"type":"residential","levels":5.0,"address":"Nowohucka 3E","residential":true,"residents_est":17,"h3_10":"8a1e2e685d0ffff","h3_11":"8b1e2e685d09fff"},"geometry":{"type":"Polygon","coordinates":[[[20.006802,50.06839],[20.006869,50.068386],[20.006867,50.06837],[20.006962,50.068364],[20.006965,50.06838],[20.007026,50.068376],[20.007043,50.068482],[20.00682,50.068497],[20.006802,50.06839]]]}},{"type":"Feature","id":"w1083159567","properties":{"type":"residential","levels":5.0,"address":"Nowohucka 3F","residential":true,"residents_est":17,"h3_10":"8a1e2e685d57fff","h3_11":"8b1e2e685d54fff"},"geometry":{"type":"Polygon","coordinates":[[[20.007094,50.068355],[20.007155,50.068351],[20.007157,50.068367],[20.007266,50.06836],[20.007263,50.068344],[20.007315,50.06834],[20.007335,50.068463],[20.007113,50.068477],[20.007094,50.068355]]]}},{"type":"Feature","id":"w1083159568","properties":{"type":"residential","levels":5.0,"address":"Nowohucka 3G","residential":true,"residents_est":17,"h3_10":"8a1e2e685d57fff","h3_11":"8b1e2e685d54fff"},"geometry":{"type":"Polygon","coordinates":[[[20.007392,50.068351],[20.007451,50.068348],[20.007449,50.068332],[20.00755,50.068325],[20.007553,50.068341],[20.007616,50.068337],[20.007633,50.068443],[20.007409,50.068458],[20.007392,50.068351]]]}},{"type":"Feature","id":"w1083159569","properties":{"type":"residential","levels":3.0,"residential":false,"residents_est":0,"h3_10":"8a1e2e685d0ffff","h3_11":"8b1e2e685d0efff"},"geometry":{"type":"Polygon","coordinates":[[[20.00536,50.068411],[20.005405,50.068408],[20.005414,50.068458],[20.005367,50.068461],[20.00536,50.068411]]]}},{"type":"Feature","id":"w1083159570","properties":{"type":"residential","levels":3.0,"residential":false,"residents_est":0,"h3_10":"8a1e2e685d0ffff","h3_11":"8b1e2e685d08fff"},"geometry":{"type":"Polygon","coordinates":[[[20.005564,50.0685],[20.005641,50.068495],[20.005648,50.06854],[20.005571,50.068545],[20.005564,50.0685]]]}},{"type":"Feature","id":"w1083159571","properties":{"type":"residential","levels":3.0,"residential":false,"residents_est":0,"h3_10":"8a1e2e685d0ffff","h3_11":"8b1e2e685d08fff"},"geometry":{"type":"Polygon","coordinates":[[[20.005856,50.068481],[20.005929,50.068476],[20.005936,50.068521],[20.005864,50.068526],[20.005856,50.068481]]]}},{"type":"Feature","id":"w1083159572","properties":{"type":"residential","levels":3.0,"residential":false,"residents_est":0,"h3_10":"8a1e2e685d0ffff","h3_11":"8b1e2e685d08fff"},"geometry":{"type":"Polygon","coordinates":[[[20.006145,50.068461],[20.006223,50.068456],[20.00623,50.068502],[20.006152,50.068507],[20.006145,50.068461]]]}},{"type":"Feature","id":"w1083159573","properties":{"type":"residential","levels":3.0,"residential":false,"residents_est":0,"h3_10":"8a1e2e685d0ffff","h3_11":"8b1e2e685d09fff"},"geometry":{"type":"Polygon","coordinates":[[[20.006442,50.068442],[20.006515,50.068437],[20.006522,50.068482],[20.00645,50.068487],[20.006442,50.068442]]]}},{"type":"Feature","id":"w1083159574","properties":{"type":"residential","levels":3.0,"residential":false,"residents_est":0,"h3_10":"8a1e2e685d0ffff","h3_11":"8b1e2e685d09fff"},"geometry":{"type":"Polygon","coordinates":[[[20.006734,50.068421],[20.006807,50.068416],[20.006814,50.068463],[20.006742,50.068468],[20.006734,50.068421]]]}},{"type":"Feature","id":"w1083159575","properties":{"type":"residential","levels":3.0,"residential":false,"residents_est":0,"h3_10":"8a1e2e685d57fff","h3_11":"8b1e2e685d54fff"},"geometry":{"type":"Polygon","coordinates":[[[20.00703,50.068402],[20.0071,50.068397],[20.007108,50.068443],[20.007038,50.068448],[20.00703,50.068402]]]}},{"type":"Feature","id":"w1083159576","properties":{"type":"residential","levels":3.0,"residential":false,"residents_est":0,"h3_10":"8a1e2e685d57fff","h3_11":"8b1e2e685d54fff"},"geometry":{"type":"Polygon","coordinates":[[[20.007322,50.068382],[20.007396,50.068377],[20.007403,50.068424],[20.007329,50.068429],[20.007322,50.068382]]]}},{"type":"Feature","id":"w1083159577","properties":{"type":"residential","levels":3.0,"residential":false,"residents_est":0,"h3_10":"8a1e2e685d0ffff","h3_11":"8b1e2e685d0afff"},"geometry":{"type":"Polygon","coordinates":[[[20.005319,50.068223],[20.005373,50.068219],[20.00538,50.068264],[20.005326,50.068268],[20.005319,50.068223]]]}},{"type":"Feature","id":"w1083159578","properties":{"type":"residential","levels":3.0,"residential":false,"residents_est":0,"h3_10":"8a1e2e685d0ffff","h3_11":"8b1e2e685d0afff"},"geometry":{"type":"Polygon","coordinates":[[[20.005298,50.068032],[20.005358,50.068028],[20.005366,50.068078],[20.005306,50.068082],[20.005298,50.068032]]]}},{"type":"Feature","id":"w1083174679","properties":{"type":"yes","levels":2.0,"residential":true,"residents_est":9,"h3_10":"8a1e2e685d0ffff","h3_11":"8b1e2e685d0dfff"},"geometry":{"type":"Polygon","coordinates":[[[20.005845,50.068827],[20.006371,50.06879],[20.006393,50.068921],[20.005867,50.068958],[20.005845,50.068827]]]}},{"type":"Feature","id":"w1083174680","properties":{"type":"yes","levels":3.0,"residential":true,"residents_est":18,"h3_10":"8a1e2e685d77fff","h3_11":"8b1e2e685d72fff"},"geometry":{"type":"Polygon","coordinates":[[[20.006371,50.06879],[20.007058,50.068739],[20.007081,50.068873],[20.006393,50.068921],[20.006371,50.06879]]]}},{"type":"Feature","id":"w1083174681","properties":{"type":"yes","levels":1.0,"residential":true,"residents_est":7,"h3_10":"8a1e2e685d77fff","h3_11":"8b1e2e685d73fff"},"geometry":{"type":"Polygon","coordinates":[[[20.007058,50.068739],[20.00786,50.068681],[20.007884,50.068815],[20.007081,50.068873],[20.007058,50.068739]]]}},{"type":"Feature","id":"w1083174683","properties":{"type":"yes","levels":2.0,"residential":true,"residents_est":16,"h3_10":"8a1e2e685d67fff","h3_11":"8b1e2e685d60fff"},"geometry":{"type":"Polygon","coordinates":[[[20.008377,50.06999],[20.008393,50.069943],[20.008437,50.069905],[20.008505,50.069886],[20.008586,50.069894],[20.00864,50.069921],[20.008673,50.069972],[20.008718,50.070234],[20.008701,50.070281],[20.00866,50.070317],[20.008587,50.070338],[20.008509,50.070329],[20.008453,50.0703],[20.008418,50.070253],[20.008377,50.06999]]]}},{"type":"Feature","id":"w1189832631","properties":{"type":"yes","residential":false,"residents_est":0,"h3_10":"8a1e2e685ceffff","h3_11":"8b1e2e685cebfff"},"geometry":{"type":"Polygon","coordinates":[[[20.010703,50.064257],[20.010858,50.064242],[20.010868,50.064285],[20.010713,50.0643],[20.010703,50.064257]]]}},{"type":"Feature","id":"w1287718656","properties":{"type":"service","residential":false,"residents_est":0,"h3_10":"8a1e2e685c0ffff","h3_11":"8b1e2e685c0efff"},"geometry":{"type":"Polygon","coordinates":[[[20.007564,50.065959],[20.007586,50.065909],[20.007623,50.065916],[20.007601,50.065966],[20.007564,50.065959]]]}},{"type":"Feature","id":"w1295054296","properties":{"type":"service","residential":false,"residents_est":0,"h3_10":"8a1e2e685cd7fff","h3_11":"8b1e2e685cd0fff"},"geometry":{"type":"Polygon","coordinates":[[[20.0074,50.063142],[20.007405,50.063098],[20.007466,50.063101],[20.007461,50.063145],[20.0074,50.063142]]]}},{"type":"Feature","id":"w1295054297","properties":{"type":"service","residential":false,"residents_est":0,"h3_10":"8a1e2e685c2ffff","h3_11":"8b1e2e685c2efff"},"geometry":{"type":"Polygon","coordinates":[[[20.007023,50.067058],[20.007063,50.067004],[20.007186,50.067041],[20.007145,50.067096],[20.007023,50.067058]]]}},{"type":"Feature","id":"w1327112903","properties":{"type":"yes","residential":false,"residents_est":0,"h3_10":"8a1e2e685ceffff","h3_11":"8b1e2e685ce8fff"},"geometry":{"type":"Polygon","coordinates":[[[20.010281,50.064578],[20.010381,50.064554],[20.010395,50.064577],[20.010294,50.064601],[20.010281,50.064578]]]}},{"type":"Feature","id":"w1327112915","properties":{"type":"yes","residential":true,"residents_est":1,"h3_10":"8a1e2e685c6ffff","h3_11":"8b1e2e685c68fff"},"geometry":{"type":"Polygon","coordinates":[[[20.012577,50.067072],[20.012714,50.067041],[20.012748,50.067098],[20.012604,50.067131],[20.012577,50.067072]]]}},{"type":"Feature","id":"w1327112916","properties":{"type":"yes","residential":true,"residents_est":2,"h3_10":"8a1e2e685c6ffff","h3_11":"8b1e2e685c6afff"},"geometry":{"type":"Polygon","coordinates":[[[20.01272,50.066654],[20.012841,50.066628],[20.012892,50.066731],[20.012774,50.066758],[20.01272,50.066654]]]}},{"type":"Feature","id":"w1327112917","properties":{"type":"yes","residential":false,"residents_est":0,"h3_10":"8a1e2e685c6ffff","h3_11":"8b1e2e685c6afff"},"geometry":{"type":"Polygon","coordinates":[[[20.012507,50.06665],[20.012581,50.066644],[20.012588,50.066683],[20.012514,50.066688],[20.012507,50.06665]]]}},{"type":"Feature","id":"w1385937649","properties":{"type":"school","levels":2.0,"address":"Na Łąkach 11","name":"Prywatna Szkoła Podstawowa Nr 4 Inspiracja","residential":false,"residents_est":0,"h3_10":"8a1e2e685c07fff","h3_11":"8b1e2e685c02fff"},"geometry":{"type":"Polygon","coordinates":[[[20.006165,50.066038],[20.006184,50.065949],[20.006226,50.065953],[20.00629,50.06565],[20.006612,50.065679],[20.006529,50.06607],[20.006165,50.066038]]]}},{"type":"Feature","id":"w1385937651","properties":{"type":"construction","levels":6.0,"address":"Na Łąkach 15","residential":false,"residents_est":0,"h3_10":"8a1e2e685c07fff","h3_11":"8b1e2e685c06fff"},"geometry":{"type":"Polygon","coordinates":[[[20.005522,50.066408],[20.005685,50.065628],[20.005936,50.065651],[20.005892,50.065855],[20.005939,50.065858],[20.005925,50.065918],[20.005908,50.065917],[20.005906,50.065938],[20.005856,50.065933],[20.005852,50.065955],[20.005872,50.065958],[20.005783,50.066364],[20.005855,50.06637],[20.005858,50.066355],[20.00594,50.066362],[20.005928,50.06642],[20.005949,50.066422],[20.005937,50.06648],[20.005817,50.066469],[20.005819,50.066456],[20.00578,50.066453],[20.005777,50.066466],[20.005704,50.066459],[20.005706,50.066445],[20.005561,50.066432],[20.005563,50.066412],[20.005522,50.066408]]]}},{"type":"Feature","id":"w1386282431","properties":{"type":"roof","levels":1.0,"residential":false,"residents_est":0,"h3_10":"8a1e2e685cd7fff","h3_11":"8b1e2e685cd4fff"},"geometry":{"type":"Polygon","coordinates":[[[20.007189,50.063255],[20.007204,50.063105],[20.007286,50.063108],[20.00727,50.063258],[20.007189,50.063255]]]}},{"type":"Feature","id":"w1437085369","properties":{"type":"apartments","levels":5.0,"address":"Aleja Pokoju 83F","residential":true,"residents_est":118,"h3_10":"8a1e2e685c77fff","h3_11":"8b1e2e685c70fff"},"geometry":{"type":"Polygon","coordinates":[[[20.009155,50.066826],[20.00918,50.066823],[20.00928,50.066677],[20.009267,50.066663],[20.0094,50.066699],[20.009389,50.066715],[20.009419,50.066722],[20.009426,50.066709],[20.009472,50.066722],[20.009464,50.066735],[20.009492,50.066743],[20.0095,50.066731],[20.009545,50.066744],[20.009536,50.066757],[20.009566,50.066764],[20.009576,50.066753],[20.00962,50.066765],[20.009611,50.066778],[20.009641,50.066788],[20.009649,50.066775],[20.009692,50.066788],[20.009686,50.066801],[20.009717,50.066809],[20.009725,50.066798],[20.00977,50.066809],[20.009762,50.066823],[20.009791,50.06683],[20.009801,50.066818],[20.009845,50.066831],[20.009836,50.066842],[20.009866,50.06685],[20.009875,50.066839],[20.009917,50.066851],[20.009909,50.066865],[20.009939,50.066873],[20.009948,50.06686],[20.009993,50.066874],[20.009985,50.066886],[20.010014,50.066894],[20.010021,50.066882],[20.010068,50.066895],[20.010059,50.066908],[20.010089,50.066916],[20.010098,50.066904],[20.010265,50.066952],[20.010151,50.067116],[20.009984,50.067067],[20.010005,50.067039],[20.009974,50.06703],[20.009955,50.067059],[20.009909,50.067046],[20.009918,50.067032],[20.009889,50.067024],[20.009879,50.067037],[20.009834,50.067024],[20.009843,50.067011],[20.009814,50.067002],[20.009805,50.067015],[20.009761,50.067002],[20.00977,50.066989],[20.009254,50.06684],[20.009247,50.066852],[20.009155,50.066826]]]}},{"type":"Feature","id":"w1459384770","properties":{"type":"service","levels":1.0,"residential":false,"residents_est":0,"h3_10":"8a1e2e685c37fff","h3_11":"8b1e2e685c33fff"},"geometry":{"type":"Polygon","coordinates":[[[20.005203,50.066402],[20.005208,50.066378],[20.005292,50.066386],[20.005288,50.06641],[20.005203,50.066402]]]}},{"type":"Feature","id":"r20631387","properties":{"type":"yes","address":"Centralna 62","residential":false,"residents_est":0,"h3_10":"8a1e2e685caffff","h3_11":"8b1e2e685caefff"},"geometry":{"type":"Polygon","coordinates":[[[20.004902,50.064171],[20.004996,50.064161],[20.00505,50.064377],[20.005044,50.064377],[20.005051,50.064409],[20.004966,50.064398],[20.004964,50.064386],[20.004956,50.064386],[20.004902,50.064171]]]}},{"type":"Feature","id":"w1513243210","properties":{"type":"yes","address":"Nowohucka 42","name":"Stokado Self Storage","residential":true,"residents_est":30,"h3_10":"8a1e2e685c97fff","h3_11":"8b1e2e685c92fff"},"geometry":{"type":"Polygon","coordinates":[[[20.00197,50.062325],[20.002437,50.06229],[20.002454,50.062386],[20.002446,50.062386],[20.002449,50.062408],[20.002458,50.062407],[20.002459,50.062412],[20.00245,50.062412],[20.002453,50.062434],[20.002467,50.062435],[20.002468,50.06244],[20.002459,50.062441],[20.002468,50.062465],[20.002463,50.062465],[20.002466,50.062484],[20.002472,50.062484],[20.002473,50.062491],[20.002467,50.062491],[20.002471,50.06251],[20.002477,50.062509],[20.002472,50.062514],[20.002475,50.062533],[20.002482,50.06254],[20.002356,50.062549],[20.002352,50.06253],[20.002316,50.062532],[20.002319,50.062552],[20.00221,50.06256],[20.002007,50.062536],[20.00197,50.062325]]]}},{"type":"Feature","id":"w1554413093","properties":{"type":"service","residential":false,"residents_est":0,"h3_10":"8a1e2e685ccffff","h3_11":"8b1e2e685ccefff"},"geometry":{"type":"Polygon","coordinates":[[[20.009902,50.063564],[20.009904,50.063329],[20.010043,50.063329],[20.010043,50.063299],[20.01012,50.0633],[20.010116,50.063563],[20.009902,50.063564]]]}}]}