{"type":"FeatureCollection","features":[{"type":"Feature","id":"w163428565","properties":{"type":"yes","address":"Wielkanocna 27D","residential":true,"residents_est":3,"h3_10":"8a1e05b4d607fff","h3_11":"8b1e05b4d604fff"},"geometry":{"type":"Polygon","coordinates":[[[19.864154,50.037841],[19.864243,50.037748],[19.86426,50.037754],[19.864273,50.037739],[19.86435,50.037771],[19.864268,50.037855],[19.864218,50.037836],[19.864195,50.037858],[19.864154,50.037841]]]}},{"type":"Feature","id":"w163428567","properties":{"type":"yes","address":"Wielkanocna 27B","residential":true,"residents_est":3,"h3_10":"8a1e05b4d607fff","h3_11":"8b1e05b4d605fff"},"geometry":{"type":"Polygon","coordinates":[[[19.864415,50.037946],[19.864504,50.037853],[19.86452,50.037859],[19.864534,50.037844],[19.864612,50.037875],[19.86453,50.03796],[19.86448,50.03794],[19.864458,50.037963],[19.864415,50.037946]]]}},{"type":"Feature","id":"w163428571","properties":{"type":"yes","address":"Wielkanocna 27F","residential":true,"residents_est":3,"h3_10":"8a1e05b4d607fff","h3_11":"8b1e05b4d604fff"},"geometry":{"type":"Polygon","coordinates":[[[19.863892,50.037738],[19.863982,50.037644],[19.863998,50.03765],[19.864012,50.037636],[19.86409,50.037666],[19.864008,50.037751],[19.863957,50.037731],[19.863933,50.037754],[19.863892,50.037738]]]}},{"type":"Feature","id":"w233371626","properties":{"type":"yes","address":"Wielkanocna 4r","residential":true,"residents_est":6,"h3_10":"8a1e05b4d747fff","h3_11":"8b1e05b4d745fff"},"geometry":{"type":"Polygon","coordinates":[[[19.867406,50.040432],[19.867489,50.040339],[19.867516,50.040349],[19.867558,50.040302],[19.867648,50.040335],[19.867606,50.040382],[19.867633,50.040392],[19.867583,50.040448],[19.867556,50.040438],[19.867523,50.040476],[19.867406,50.040432]]]}},{"type":"Feature","id":"w233371806","properties":{"type":"detached","address":"Wielkanocna 14","residential":true,"residents_est":6,"h3_10":"8a1e05b4d75ffff","h3_11":"8b1e05b4d758fff"},"geometry":{"type":"Polygon","coordinates":[[[19.867185,50.038934],[19.867263,50.03888],[19.867299,50.038902],[19.867315,50.038891],[19.867354,50.038915],[19.867339,50.038926],[19.867376,50.038948],[19.867297,50.039002],[19.867185,50.038934]]]}},{"type":"Feature","id":"w233371817","properties":{"type":"yes","address":"Wielkanocna 4n","residential":true,"residents_est":5,"h3_10":"8a1e05b4d76ffff","h3_11":"8b1e05b4d768fff"},"geometry":{"type":"Polygon","coordinates":[[[19.868399,50.040794],[19.868433,50.040757],[19.868406,50.040747],[19.868456,50.04069],[19.868483,50.0407],[19.868524,50.040653],[19.868614,50.040687],[19.868572,50.040733],[19.868602,50.040745],[19.86852,50.040838],[19.868399,50.040794]]]}},{"type":"Feature","id":"w233371837","properties":{"type":"yes","address":"Wielkanocna 52","residential":true,"residents_est":6,"h3_10":"8a1e05b4d7a7fff","h3_11":"8b1e05b4d7a1fff"},"geometry":{"type":"Polygon","coordinates":[[[19.859861,50.038408],[19.859933,50.038402],[19.860122,50.038402],[19.860126,50.038487],[19.859865,50.038492],[19.859861,50.038408]]]}},{"type":"Feature","id":"w233371862","properties":{"type":"yes","address":"Wielkanocna 10a","residential":true,"residents_est":3,"h3_10":"8a1e05b4d75ffff","h3_11":"8b1e05b4d75dfff"},"geometry":{"type":"Polygon","coordinates":[[[19.867668,50.039129],[19.867687,50.039117],[19.867673,50.039095],[19.867762,50.039071],[19.86779,50.039113],[19.867769,50.039129],[19.867796,50.03917],[19.867703,50.039197],[19.867668,50.039145],[19.867668,50.039129]]]}},{"type":"Feature","id":"w233371865","properties":{"type":"yes","address":"Wielkanocna 4o","residential":true,"residents_est":6,"h3_10":"8a1e05b4d76ffff","h3_11":"8b1e05b4d768fff"},"geometry":{"type":"Polygon","coordinates":[[[19.8681,50.040684],[19.868134,50.040646],[19.868107,50.040636],[19.868157,50.04058],[19.868184,50.04059],[19.868225,50.040543],[19.868315,50.040576],[19.868273,50.040623],[19.868304,50.040634],[19.868221,50.040728],[19.8681,50.040684]]]}},{"type":"Feature","id":"w233371914","properties":{"type":"yes","address":"Wielkanocna 4p","residential":true,"residents_est":5,"h3_10":"8a1e05b4d76ffff","h3_11":"8b1e05b4d76afff"},"geometry":{"type":"Polygon","coordinates":[[[19.867801,50.040573],[19.867835,50.040536],[19.867808,50.040526],[19.867858,50.04047],[19.867885,50.04048],[19.867926,50.040433],[19.868016,50.040466],[19.867974,50.040513],[19.868005,50.040524],[19.867922,50.040618],[19.867801,50.040573]]]}},{"type":"Feature","id":"w233371969","properties":{"type":"yes","address":"Wielkanocna 4s","residential":true,"residents_est":5,"h3_10":"8a1e05b4d747fff","h3_11":"8b1e05b4d745fff"},"geometry":{"type":"Polygon","coordinates":[[[19.867288,50.040389],[19.867321,50.040352],[19.867295,50.040342],[19.867344,50.040286],[19.867371,50.040295],[19.867413,50.040249],[19.867502,50.040282],[19.867461,50.040329],[19.867489,50.040339],[19.867406,50.040432],[19.867288,50.040389]]]}},{"type":"Feature","id":"w233372045","properties":{"type":"yes","address":"Wielkanocna 40","residential":true,"residents_est":5,"h3_10":"8a1e05b4d71ffff","h3_11":"8b1e05b4d71afff"},"geometry":{"type":"Polygon","coordinates":[[[19.862033,50.038443],[19.862048,50.038391],[19.86226,50.038414],[19.862239,50.038503],[19.862214,50.0385],[19.862208,50.038523],[19.862153,50.038516],[19.862158,50.038494],[19.862087,50.038486],[19.862096,50.038449],[19.862033,50.038443]]]}},{"type":"Feature","id":"w233372080","properties":{"type":"yes","address":"Widłakowa 57","residential":true,"residents_est":2,"h3_10":"8a1e05b4d667fff","h3_11":"8b1e05b4d666fff"},"geometry":{"type":"Polygon","coordinates":[[[19.868247,50.038541],[19.868329,50.038493],[19.868438,50.038567],[19.868376,50.038604],[19.868333,50.038576],[19.868315,50.038587],[19.868247,50.038541]]]}},{"type":"Feature","id":"w233372135","properties":{"type":"yes","address":"Wielkanocna 22","residential":true,"residents_est":4,"h3_10":"8a1e05b4d62ffff","h3_11":"8b1e05b4d62dfff"},"geometry":{"type":"Polygon","coordinates":[[[19.866322,50.038531],[19.866411,50.038466],[19.866415,50.038468],[19.866408,50.038473],[19.866443,50.038494],[19.866461,50.038481],[19.866558,50.038538],[19.866457,50.03861],[19.866401,50.038577],[19.866388,50.038587],[19.866365,50.038573],[19.866378,50.038564],[19.866322,50.038531]]]}},{"type":"Feature","id":"w233372169","properties":{"type":"yes","address":"Wielkanocna 36","residential":true,"residents_est":0,"h3_10":"8a1e05b4d627fff","h3_11":"8b1e05b4d626fff"},"geometry":{"type":"Polygon","coordinates":[[[19.863185,50.038287],[19.863205,50.038237],[19.863325,50.038256],[19.863305,50.038306],[19.863185,50.038287]]]}},{"type":"Feature","id":"w233372193","properties":{"type":"yes","address":"Wielkanocna 10","residential":true,"residents_est":2,"h3_10":"8a1e05b4d75ffff","h3_11":"8b1e05b4d75dfff"},"geometry":{"type":"Polygon","coordinates":[[[19.867703,50.039197],[19.867797,50.039171],[19.867822,50.039208],[19.867838,50.039204],[19.867854,50.039208],[19.867883,50.03925],[19.867793,50.039275],[19.867778,50.039254],[19.867754,50.039254],[19.867734,50.039244],[19.867703,50.039197]]]}},{"type":"Feature","id":"w233372253","properties":{"type":"yes","address":"Wielkanocna 18","residential":true,"residents_est":5,"h3_10":"8a1e05b4d75ffff","h3_11":"8b1e05b4d75efff"},"geometry":{"type":"Polygon","coordinates":[[[19.866714,50.038757],[19.866853,50.038668],[19.866906,50.038699],[19.866934,50.03868],[19.866966,50.038701],[19.866936,50.038721],[19.866973,50.038744],[19.866893,50.038796],[19.866849,50.038768],[19.866833,50.038779],[19.866816,50.038767],[19.866772,50.038793],[19.866714,50.038757]]]}},{"type":"Feature","id":"w233372260","properties":{"type":"yes","address":"Wielkanocna 55","residential":true,"residents_est":3,"h3_10":"8a1e05b4d787fff","h3_11":"8b1e05b4d780fff"},"geometry":{"type":"Polygon","coordinates":[[[19.858976,50.037188],[19.859097,50.037178],[19.859099,50.037185],[19.859148,50.037181],[19.859159,50.037237],[19.85911,50.037241],[19.859112,50.037248],[19.859074,50.037251],[19.859077,50.037266],[19.859031,50.03727],[19.859028,50.037255],[19.85899,50.037258],[19.858976,50.037188]]]}},{"type":"Feature","id":"w233372288","properties":{"type":"yes","address":"Widłakowa 54","residential":true,"residents_est":5,"h3_10":"8a1e05b4d6a7fff","h3_11":"8b1e05b4d6a5fff"},"geometry":{"type":"Polygon","coordinates":[[[19.861965,50.036214],[19.861973,50.036161],[19.862053,50.036167],[19.862058,50.036141],[19.862165,50.036148],[19.862163,50.036158],[19.862193,50.03616],[19.862192,50.036171],[19.86225,50.036175],[19.862241,50.036232],[19.862152,50.036226],[19.862151,50.036235],[19.862044,50.036228],[19.862045,50.03622],[19.861965,50.036214]]]}},{"type":"Feature","id":"w233372320","properties":{"type":"yes","address":"Wielkanocna 58","residential":true,"residents_est":4,"h3_10":"8a1e05b4d7a7fff","h3_11":"8b1e05b4d7a0fff"},"geometry":{"type":"Polygon","coordinates":[[[19.859139,50.038477],[19.859152,50.038468],[19.859151,50.038443],[19.85926,50.038441],[19.85926,50.038409],[19.859314,50.038409],[19.859315,50.038441],[19.859326,50.038441],[19.859329,50.038522],[19.859153,50.038523],[19.859152,50.038513],[19.859139,50.038505],[19.859139,50.038477]]]}},{"type":"Feature","id":"w233372489","properties":{"type":"yes","address":"Widłakowa 51","residential":true,"residents_est":2,"h3_10":"8a1e05b4d74ffff","h3_11":"8b1e05b4d749fff"},"geometry":{"type":"Polygon","coordinates":[[[19.869291,50.039773],[19.869384,50.039715],[19.86947,50.039773],[19.869381,50.039828],[19.869291,50.039773]]]}},{"type":"Feature","id":"w233372523","properties":{"type":"detached","address":"Wielkanocna 48","residential":true,"residents_est":9,"h3_10":"8a1e05b4d7affff","h3_11":"8b1e05b4d7a8fff"},"geometry":{"type":"Polygon","coordinates":[[[19.860798,50.038122],[19.860802,50.038044],[19.860873,50.038046],[19.860888,50.038037],[19.860913,50.038038],[19.860928,50.038047],[19.860999,50.038049],[19.860994,50.038127],[19.860897,50.038125],[19.860895,50.038156],[19.860804,50.038154],[19.860806,50.038123],[19.860798,50.038122]]]}},{"type":"Feature","id":"w233372564","properties":{"type":"detached","address":"Wielkanocna 50","residential":true,"residents_est":10,"h3_10":"8a1e05b4d7affff","h3_11":"8b1e05b4d7a8fff"},"geometry":{"type":"Polygon","coordinates":[[[19.860356,50.03821],[19.860361,50.038132],[19.860434,50.038134],[19.860446,50.038125],[19.860473,50.038125],[19.860488,50.038135],[19.860558,50.038136],[19.860555,50.038184],[19.860603,50.038185],[19.860599,50.038247],[19.860464,50.038243],[19.860466,50.038213],[19.860356,50.03821]]]}},{"type":"Feature","id":"w233372571","properties":{"type":"yes","address":"Widłakowa 50","residential":true,"residents_est":5,"h3_10":"8a1e05b4d617fff","h3_11":"8b1e05b4d613fff"},"geometry":{"type":"Polygon","coordinates":[[[19.863136,50.036534],[19.863208,50.036467],[19.863228,50.036476],[19.863244,50.036459],[19.863277,50.036474],[19.863261,50.03649],[19.863305,50.036509],[19.863322,50.036493],[19.863355,50.036507],[19.863338,50.036523],[19.863389,50.036544],[19.863319,50.036613],[19.863136,50.036534]]]}},{"type":"Feature","id":"w233372607","properties":{"type":"yes","address":"Wielkanocna 38c","residential":true,"residents_est":3,"h3_10":"8a1e05b4d71ffff","h3_11":"8b1e05b4d719fff"},"geometry":{"type":"Polygon","coordinates":[[[19.862941,50.038679],[19.862973,50.038597],[19.863066,50.038612],[19.863008,50.03876],[19.862961,50.038752],[19.862977,50.03871],[19.862967,50.038709],[19.862949,50.038688],[19.862952,50.038681],[19.862941,50.038679]]]}},{"type":"Feature","id":"w233372643","properties":{"type":"yes","address":"Widłakowa 54A","residential":true,"residents_est":5,"h3_10":"8a1e05b4d6a7fff","h3_11":"8b1e05b4d6a5fff"},"geometry":{"type":"Polygon","coordinates":[[[19.861896,50.036419],[19.861904,50.036374],[19.861914,50.036375],[19.861919,50.036341],[19.862032,50.036348],[19.862036,50.036327],[19.86215,50.036334],[19.862142,50.036394],[19.86205,50.036388],[19.862044,50.036428],[19.862027,50.036426],[19.862022,50.036461],[19.861902,50.036453],[19.861907,50.036419],[19.861896,50.036419]]]}},{"type":"Feature","id":"w233372664","properties":{"type":"yes","address":"Wielkanocna 38g","residential":true,"residents_est":3,"h3_10":"8a1e05b4d627fff","h3_11":"8b1e05b4d624fff"},"geometry":{"type":"Polygon","coordinates":[[[19.863771,50.038813],[19.863802,50.038732],[19.863894,50.038747],[19.863837,50.038893],[19.863791,50.038886],[19.863809,50.038843],[19.863779,50.038823],[19.863782,50.038815],[19.863771,50.038813]]]}},{"type":"Feature","id":"w233372788","properties":{"type":"yes","address":"Wielkanocna 38e","residential":true,"residents_est":3,"h3_10":"8a1e05b4d627fff","h3_11":"8b1e05b4d624fff"},"geometry":{"type":"Polygon","coordinates":[[[19.863369,50.038749],[19.863401,50.038666],[19.863494,50.038682],[19.863436,50.03883],[19.863389,50.038822],[19.863405,50.03878],[19.863393,50.038779],[19.863376,50.038758],[19.86338,50.038751],[19.863369,50.038749]]]}},{"type":"Feature","id":"w233372793","properties":{"type":"yes","address":"Widłakowa 52B","residential":true,"residents_est":6,"h3_10":"8a1e05b4d617fff","h3_11":"8b1e05b4d612fff"},"geometry":{"type":"Polygon","coordinates":[[[19.862426,50.036425],[19.862462,50.036345],[19.862519,50.036353],[19.862658,50.036379],[19.862621,50.03646],[19.86266,50.036467],[19.862643,50.036506],[19.862509,50.036482],[19.862524,50.036449],[19.862426,50.036425]]]}},{"type":"Feature","id":"w233372909","properties":{"type":"detached","address":"Wielkanocna 14A","residential":true,"residents_est":6,"h3_10":"8a1e05b4d75ffff","h3_11":"8b1e05b4d75cfff"},"geometry":{"type":"Polygon","coordinates":[[[19.866718,50.039255],[19.866822,50.039184],[19.866846,50.039198],[19.866858,50.03919],[19.866899,50.039214],[19.866887,50.039222],[19.86691,50.039236],[19.866882,50.039255],[19.866899,50.039265],[19.866868,50.039286],[19.866851,50.039276],[19.866805,50.039308],[19.866718,50.039255]]]}},{"type":"Feature","id":"w233372989","properties":{"type":"residential","address":"Wielkanocna 4L","residential":true,"residents_est":18,"h3_10":"8a1e05b4d74ffff","h3_11":"8b1e05b4d74cfff"},"geometry":{"type":"Polygon","coordinates":[[[19.868161,50.040125],[19.868228,50.040055],[19.868264,50.04007],[19.868271,50.040062],[19.868308,50.040076],[19.868301,50.040084],[19.868334,50.040097],[19.868342,50.04009],[19.868379,50.040104],[19.868372,50.040112],[19.868407,50.040126],[19.868341,50.040195],[19.868308,50.040182],[19.8683,50.040191],[19.868257,50.040174],[19.868266,50.040166],[19.868236,50.040154],[19.868228,50.040163],[19.868185,50.040146],[19.868194,50.040138],[19.868161,50.040125]]]}},{"type":"Feature","id":"w233372991","properties":{"type":"residential","address":"Wielkanocna 4M","residential":true,"residents_est":19,"h3_10":"8a1e05b4d76ffff","h3_11":"8b1e05b4d76afff"},"geometry":{"type":"Polygon","coordinates":[[[19.868072,50.040295],[19.868139,50.040225],[19.868172,50.040238],[19.868181,50.040229],[19.868224,50.040246],[19.868215,50.040256],[19.868244,50.040267],[19.868253,50.040258],[19.868295,50.040275],[19.868286,50.040284],[19.868318,50.040297],[19.868251,50.040366],[19.868216,50.040352],[19.868209,50.04036],[19.868171,50.040345],[19.868179,50.040337],[19.868144,50.040323],[19.868137,50.040331],[19.8681,50.040316],[19.868107,50.040309],[19.868072,50.040295]]]}},{"type":"Feature","id":"w233373000","properties":{"type":"residential","address":"Wielkanocna 4K","residential":true,"residents_est":18,"h3_10":"8a1e05b4d76ffff","h3_11":"8b1e05b4d76bfff"},"geometry":{"type":"Polygon","coordinates":[[[19.868445,50.040345],[19.868522,50.04028],[19.868554,50.040295],[19.868563,50.040287],[19.868602,50.040306],[19.868592,50.040314],[19.868619,50.040328],[19.868629,50.04032],[19.868668,50.040339],[19.868658,50.040347],[19.868688,50.040362],[19.868611,50.040426],[19.868579,50.04041],[19.86857,50.040417],[19.868535,50.0404],[19.868544,50.040393],[19.868513,50.040378],[19.868504,50.040385],[19.868469,50.040368],[19.868478,50.04036],[19.868445,50.040345]]]}},{"type":"Feature","id":"w233373008","properties":{"type":"yes","address":"Wielkanocna 38a","residential":true,"residents_est":3,"h3_10":"8a1e05b4d71ffff","h3_11":"8b1e05b4d71bfff"},"geometry":{"type":"Polygon","coordinates":[[[19.862513,50.038607],[19.862545,50.038527],[19.862637,50.038541],[19.86258,50.038687],[19.862534,50.03868],[19.862551,50.038637],[19.862522,50.038617],[19.862525,50.038609],[19.862513,50.038607]]]}},{"type":"Feature","id":"w233373133","properties":{"type":"yes","address":"Widłakowa 30","residential":true,"residents_est":1,"h3_10":"8a1e05b4d677fff","h3_11":"8b1e05b4d674fff"},"geometry":{"type":"Polygon","coordinates":[[[19.866828,50.038016],[19.866909,50.037969],[19.866952,50.038001],[19.866936,50.038025],[19.866884,50.038057],[19.866828,50.038016]]]}},{"type":"Feature","id":"w233373170","properties":{"type":"yes","residential":false,"residents_est":0,"h3_10":"8a1e05b4d787fff","h3_11":"8b1e05b4d784fff"},"geometry":{"type":"Polygon","coordinates":[[[19.858949,50.037571],[19.859004,50.037571],[19.859005,50.037641],[19.858951,50.037642],[19.858949,50.037571]]]}},{"type":"Feature","id":"w233373276","properties":{"type":"yes","address":"Widłakowa 36a","residential":true,"residents_est":3,"h3_10":"8a1e05b4d60ffff","h3_11":"8b1e05b4d60cfff"},"geometry":{"type":"Polygon","coordinates":[[[19.865603,50.037493],[19.865661,50.03741],[19.865794,50.037449],[19.865737,50.037532],[19.865603,50.037493]]]}},{"type":"Feature","id":"w233373287","properties":{"type":"yes","residential":true,"residents_est":2,"h3_10":"8a1e05b4d617fff","h3_11":"8b1e05b4d616fff"},"geometry":{"type":"Polygon","coordinates":[[[19.862072,50.036597],[19.862084,50.036518],[19.862176,50.036524],[19.862163,50.036603],[19.862072,50.036597]]]}},{"type":"Feature","id":"w233373392","properties":{"type":"yes","residential":true,"residents_est":4,"h3_10":"8a1e05b4d7affff","h3_11":"8b1e05b4d7adfff"},"geometry":{"type":"Polygon","coordinates":[[[19.861166,50.038311],[19.861185,50.038232],[19.861353,50.038248],[19.861334,50.038327],[19.861292,50.038323],[19.861247,50.038332],[19.861208,50.038315],[19.861166,50.038311]]]}},{"type":"Feature","id":"w233373393","properties":{"type":"yes","residential":false,"residents_est":0,"h3_10":"8a1e05b4d62ffff","h3_11":"8b1e05b4d62bfff"},"geometry":{"type":"Polygon","coordinates":[[[19.866096,50.037664],[19.866149,50.037623],[19.866226,50.037649],[19.866169,50.037691],[19.866096,50.037664]]]}},{"type":"Feature","id":"w233373550","properties":{"type":"yes","residential":true,"residents_est":2,"h3_10":"8a1e05b4d607fff","h3_11":"8b1e05b4d601fff"},"geometry":{"type":"Polygon","coordinates":[[[19.864808,50.037539],[19.864867,50.037459],[19.864944,50.037483],[19.864884,50.037564],[19.864808,50.037539]]]}},{"type":"Feature","id":"w233373571","properties":{"type":"yes","address":"Wielkanocna 23","residential":true,"residents_est":3,"h3_10":"8a1e05b4d62ffff","h3_11":"8b1e05b4d62afff"},"geometry":{"type":"Polygon","coordinates":[[[19.865425,50.03769],[19.86545,50.037614],[19.865587,50.037632],[19.865562,50.037708],[19.865425,50.03769]]]}},{"type":"Feature","id":"w233373662","properties":{"type":"yes","residential":false,"residents_est":0,"h3_10":"8a1e05b4d7a7fff","h3_11":"8b1e05b4d7a2fff"},"geometry":{"type":"Polygon","coordinates":[[[19.858895,50.038066],[19.858904,50.037983],[19.858936,50.037985],[19.858928,50.038067],[19.858895,50.038066]]]}},{"type":"Feature","id":"w233373720","properties":{"type":"yes","residential":true,"residents_est":1,"h3_10":"8a1e05b4d74ffff","h3_11":"8b1e05b4d748fff"},"geometry":{"type":"Polygon","coordinates":[[[19.868844,50.039454],[19.86889,50.039428],[19.868976,50.039493],[19.868931,50.039518],[19.868844,50.039454]]]}},{"type":"Feature","id":"w233373760","properties":{"type":"bunker","name":"Tradytor Fortu Bodzów","residential":false,"residents_est":0,"h3_10":"8a1e05b4d6dffff","h3_11":"8b1e05b4d6d8fff"},"geometry":{"type":"Polygon","coordinates":[[[19.867289,50.033691],[19.867369,50.033631],[19.867431,50.033665],[19.867351,50.033725],[19.867289,50.033691]]]}},{"type":"Feature","id":"w233373797","properties":{"type":"yes","residential":true,"residents_est":2,"h3_10":"8a1e05b4d607fff","h3_11":"8b1e05b4d602fff"},"geometry":{"type":"Polygon","coordinates":[[[19.864189,50.036963],[19.864261,50.036892],[19.864332,50.036922],[19.864261,50.036993],[19.864189,50.036963]]]}},{"type":"Feature","id":"w233373923","properties":{"type":"yes","address":"Widłakowa 36","residential":true,"residents_est":4,"h3_10":"8a1e05b4d60ffff","h3_11":"8b1e05b4d60cfff"},"geometry":{"type":"Polygon","coordinates":[[[19.865838,50.037582],[19.865927,50.037509],[19.866051,50.037572],[19.865961,50.037644],[19.865838,50.037582]]]}},{"type":"Feature","id":"w233373946","properties":{"type":"yes","address":"Widłakowa 42","residential":false,"residents_est":0,"h3_10":"8a1e05b4d607fff","h3_11":"8b1e05b4d603fff"},"geometry":{"type":"Polygon","coordinates":[[[19.864572,50.037104],[19.864617,50.037053],[19.864692,50.037082],[19.864646,50.037132],[19.864572,50.037104]]]}},{"type":"Feature","id":"w233374104","properties":{"type":"yes","residential":true,"residents_est":2,"h3_10":"8a1e05b4d7a7fff","h3_11":"8b1e05b4d7a1fff"},"geometry":{"type":"Polygon","coordinates":[[[19.859709,50.038194],[19.859804,50.038192],[19.859808,50.038275],[19.859713,50.038277],[19.859709,50.038194]]]}},{"type":"Feature","id":"w233374111","properties":{"type":"yes","residential":false,"residents_est":0,"h3_10":"8a1e05b4d75ffff","h3_11":"8b1e05b4d758fff"},"geometry":{"type":"Polygon","coordinates":[[[19.866979,50.03902],[19.86702,50.03899],[19.867111,50.039041],[19.867072,50.039071],[19.866979,50.03902]]]}},{"type":"Feature","id":"w233374298","properties":{"type":"yes","residential":true,"residents_est":2,"h3_10":"8a1e05b4d74ffff","h3_11":"8b1e05b4d74afff"},"geometry":{"type":"Polygon","coordinates":[[[19.86859,50.039324],[19.868665,50.039302],[19.868728,50.03939],[19.868653,50.039413],[19.86859,50.039324]]]}},{"type":"Feature","id":"w233374373","properties":{"type":"yes","address":"Widłakowa 38","residential":true,"residents_est":3,"h3_10":"8a1e05b4d607fff","h3_11":"8b1e05b4d601fff"},"geometry":{"type":"Polygon","coordinates":[[[19.864997,50.037353],[19.865047,50.037284],[19.865176,50.037323],[19.865126,50.037393],[19.864997,50.037353]]]}},{"type":"Feature","id":"w233374459","properties":{"type":"yes","address":"Widłakowa 44","residential":true,"residents_est":3,"h3_10":"8a1e05b4d607fff","h3_11":"8b1e05b4d602fff"},"geometry":{"type":"Polygon","coordinates":[[[19.864262,50.036994],[19.864332,50.036922],[19.864455,50.036974],[19.864383,50.037046],[19.864262,50.036994]]]}},{"type":"Feature","id":"w233374489","properties":{"type":"yes","residential":true,"residents_est":2,"h3_10":"8a1e05b4d617fff","h3_11":"8b1e05b4d610fff"},"geometry":{"type":"Polygon","coordinates":[[[19.862921,50.036635],[19.862976,50.036583],[19.863057,50.036615],[19.863004,50.03667],[19.862921,50.036635]]]}},{"type":"Feature","id":"w233374518","properties":{"type":"yes","residential":true,"residents_est":2,"h3_10":"8a1e05b4d75ffff","h3_11":"8b1e05b4d75efff"},"geometry":{"type":"Polygon","coordinates":[[[19.866613,50.038966],[19.866707,50.03889],[19.866762,50.038918],[19.866668,50.038994],[19.866613,50.038966]]]}},{"type":"Feature","id":"w233374611","properties":{"type":"yes","address":"Widłakowa 58g","residential":true,"residents_est":3,"h3_10":"8a1e05b4d79ffff","h3_11":"8b1e05b4d79efff"},"geometry":{"type":"Polygon","coordinates":[[[19.85874,50.036235],[19.858782,50.036227],[19.858853,50.036225],[19.858862,50.036267],[19.858897,50.036264],[19.858906,50.036308],[19.858757,50.036316],[19.85874,50.036235]]]}},{"type":"Feature","id":"w233374754","properties":{"type":"yes","residential":true,"residents_est":3,"h3_10":"8a1e05b4d75ffff","h3_11":"8b1e05b4d75efff"},"geometry":{"type":"Polygon","coordinates":[[[19.86647,50.038986],[19.866624,50.038868],[19.866676,50.038896],[19.866522,50.039014],[19.86647,50.038986]]]}},{"type":"Feature","id":"w233374813","properties":{"type":"yes","address":"Widłakowa 32","residential":true,"residents_est":3,"h3_10":"8a1e05b4d62ffff","h3_11":"8b1e05b4d62bfff"},"geometry":{"type":"Polygon","coordinates":[[[19.866381,50.037774],[19.866458,50.037698],[19.866593,50.037753],[19.866514,50.037828],[19.866381,50.037774]]]}},{"type":"Feature","id":"w233375145","properties":{"type":"yes","residential":true,"residents_est":2,"h3_10":"8a1e05b4d747fff","h3_11":"8b1e05b4d741fff"},"geometry":{"type":"Polygon","coordinates":[[[19.867785,50.040041],[19.867846,50.039983],[19.867938,50.040019],[19.867875,50.04008],[19.867785,50.040041]]]}},{"type":"Feature","id":"w233375229","properties":{"type":"yes","address":"Wielkanocna 63","residential":true,"residents_est":1,"h3_10":"8a1e05b4d7b7fff","h3_11":"8b1e05b4d7b3fff"},"geometry":{"type":"Polygon","coordinates":[[[19.858132,50.037448],[19.858255,50.037446],[19.858257,50.0375],[19.858133,50.037501],[19.858132,50.037448]]]}},{"type":"Feature","id":"w233375404","properties":{"type":"yes","address":"Widłakowa 58","residential":true,"residents_est":72,"h3_10":"8a1e05b4d6a7fff","h3_11":"8b1e05b4d6a6fff"},"geometry":{"type":"Polygon","coordinates":[[[19.86037,50.036129],[19.860498,50.036108],[19.860464,50.036022],[19.860613,50.035998],[19.860646,50.036084],[19.86067,50.03608],[19.860682,50.036067],[19.860709,50.036063],[19.860729,50.036071],[19.86076,50.036065],[19.860721,50.03598],[19.8608,50.035967],[19.860792,50.035941],[19.860858,50.03593],[19.860902,50.036043],[19.860926,50.036039],[19.860941,50.036023],[19.860975,50.036017],[19.86099,50.036023],[19.861,50.036045],[19.860984,50.036062],[19.860995,50.036088],[19.861014,50.036085],[19.86103,50.036125],[19.861046,50.036123],[19.861081,50.036214],[19.861005,50.036227],[19.86101,50.03624],[19.861038,50.036236],[19.861051,50.036283],[19.860971,50.036296],[19.860967,50.036286],[19.860961,50.036287],[19.860891,50.036108],[19.860875,50.036111],[19.86087,50.036124],[19.860842,50.036128],[19.860825,50.036119],[19.860798,50.036123],[19.860862,50.036294],[19.860714,50.036317],[19.860648,50.036147],[19.860635,50.036149],[19.860624,50.036163],[19.860596,50.036167],[19.860579,50.036157],[19.86054,50.036163],[19.860607,50.036337],[19.860459,50.036361],[19.86037,50.036129]]]}},{"type":"Feature","id":"w233375422","properties":{"type":"yes","address":"Wielkanocna 4i","residential":true,"residents_est":2,"h3_10":"8a1e05b4d76ffff","h3_11":"8b1e05b4d76bfff"},"geometry":{"type":"Polygon","coordinates":[[[19.868761,50.040507],[19.868852,50.040422],[19.868891,50.040439],[19.868879,50.040451],[19.868908,50.040464],[19.86883,50.040537],[19.868761,50.040507]]]}},{"type":"Feature","id":"w233375438","properties":{"type":"yes","residential":true,"residents_est":1,"h3_10":"8a1e05b4d677fff","h3_11":"8b1e05b4d674fff"},"geometry":{"type":"Polygon","coordinates":[[[19.867437,50.038128],[19.867514,50.038066],[19.867576,50.038097],[19.867499,50.03816],[19.867437,50.038128]]]}},{"type":"Feature","id":"w233375739","properties":{"type":"yes","address":"Wielkanocna 57","residential":true,"residents_est":2,"h3_10":"8a1e05b4d787fff","h3_11":"8b1e05b4d784fff"},"geometry":{"type":"Polygon","coordinates":[[[19.859005,50.037571],[19.859099,50.03757],[19.8591,50.037595],[19.859131,50.037594],[19.859132,50.037619],[19.859101,50.037619],[19.859101,50.03764],[19.859006,50.037641],[19.859005,50.037571]]]}},{"type":"Feature","id":"w233375821","properties":{"type":"ruins","residential":false,"residents_est":0,"h3_10":"8a1e05b4d6f7fff","h3_11":"8b1e05b4d6f3fff"},"geometry":{"type":"Polygon","coordinates":[[[19.865458,50.034902],[19.865506,50.034876],[19.865534,50.034838],[19.865591,50.03491],[19.865505,50.034938],[19.865458,50.034902]]]}},{"type":"Feature","id":"w233375892","properties":{"type":"yes","address":"Widłakowa 52","residential":true,"residents_est":3,"h3_10":"8a1e05b4d6affff","h3_11":"8b1e05b4d6acfff"},"geometry":{"type":"Polygon","coordinates":[[[19.862857,50.036162],[19.862883,50.036113],[19.862901,50.036117],[19.862921,50.036077],[19.863036,50.036102],[19.863015,50.036142],[19.863029,50.036146],[19.863004,50.036194],[19.862857,50.036162]]]}},{"type":"Feature","id":"w233375927","properties":{"type":"yes","address":"Bodzowska 19","residential":true,"residents_est":6,"h3_10":"8a1e05b4d66ffff","h3_11":"8b1e05b4d66dfff"},"geometry":{"type":"Polygon","coordinates":[[[19.871026,50.038437],[19.871122,50.038343],[19.871295,50.038417],[19.871198,50.038512],[19.871026,50.038437]]]}},{"type":"Feature","id":"w233376029","properties":{"type":"yes","residential":true,"residents_est":2,"h3_10":"8a1e05b4d66ffff","h3_11":"8b1e05b4d668fff"},"geometry":{"type":"Polygon","coordinates":[[[19.870464,50.038109],[19.870563,50.038025],[19.870642,50.038064],[19.870544,50.038147],[19.870464,50.038109]]]}},{"type":"Feature","id":"w233376054","properties":{"type":"yes","address":"Widłakowa 65","residential":true,"residents_est":4,"h3_10":"8a1e05b4d79ffff","h3_11":"8b1e05b4d79afff"},"geometry":{"type":"Polygon","coordinates":[[[19.859038,50.035765],[19.859042,50.035689],[19.859226,50.035694],[19.859223,50.03577],[19.859164,50.035768],[19.859163,50.035783],[19.859121,50.035783],[19.859122,50.035767],[19.859038,50.035765]]]}},{"type":"Feature","id":"w233376155","properties":{"type":"ruins","residential":false,"residents_est":0,"h3_10":"8a1e05b4d6c7fff","h3_11":"8b1e05b4d6c6fff"},"geometry":{"type":"Polygon","coordinates":[[[19.865609,50.034818],[19.866057,50.03461],[19.866142,50.034687],[19.865875,50.03481],[19.865814,50.034756],[19.865633,50.034839],[19.865609,50.034818]]]}},{"type":"Feature","id":"w233376202","properties":{"type":"yes","address":"Widłakowa 24","residential":true,"residents_est":3,"h3_10":"8a1e05b4d75ffff","h3_11":"8b1e05b4d759fff"},"geometry":{"type":"Polygon","coordinates":[[[19.868,50.038806],[19.868037,50.038794],[19.868063,50.038799],[19.868077,50.038819],[19.868132,50.038804],[19.868182,50.038879],[19.868092,50.038906],[19.868,50.038806]]]}},{"type":"Feature","id":"w233376207","properties":{"type":"yes","address":"Wielkanocna 4f","residential":true,"residents_est":2,"h3_10":"8a1e05b4d76ffff","h3_11":"8b1e05b4d769fff"},"geometry":{"type":"Polygon","coordinates":[[[19.86924,50.040725],[19.869321,50.040648],[19.869352,50.040662],[19.869364,50.040651],[19.869403,50.040668],[19.869308,50.040757],[19.86924,50.040725]]]}},{"type":"Feature","id":"w233376214","properties":{"type":"yes","residential":true,"residents_est":2,"h3_10":"8a1e05b4d677fff","h3_11":"8b1e05b4d676fff"},"geometry":{"type":"Polygon","coordinates":[[[19.866733,50.037951],[19.866812,50.037906],[19.866903,50.037971],[19.866824,50.038017],[19.866733,50.037951]]]}},{"type":"Feature","id":"w233376218","properties":{"type":"yes","address":"Widłakowa 53","residential":true,"residents_est":5,"h3_10":"8a1e05b4d74ffff","h3_11":"8b1e05b4d748fff"},"geometry":{"type":"Polygon","coordinates":[[[19.868802,50.039589],[19.868887,50.039542],[19.869062,50.039682],[19.868975,50.039727],[19.868802,50.039589]]]}},{"type":"Feature","id":"w233376227","properties":{"type":"yes","residential":true,"residents_est":2,"h3_10":"8a1e05b4d677fff","h3_11":"8b1e05b4d674fff"},"geometry":{"type":"Polygon","coordinates":[[[19.866985,50.03823],[19.867058,50.038165],[19.867162,50.03821],[19.867112,50.038254],[19.867099,50.038248],[19.867073,50.038271],[19.866985,50.03823]]]}},{"type":"Feature","id":"w233376335","properties":{"type":"yes","address":"Wielkanocna 17","residential":true,"residents_est":3,"h3_10":"8a1e05b4d62ffff","h3_11":"8b1e05b4d629fff"},"geometry":{"type":"Polygon","coordinates":[[[19.866578,50.038184],[19.866662,50.038101],[19.866744,50.038135],[19.86671,50.038169],[19.866737,50.038181],[19.866688,50.038229],[19.866578,50.038184]]]}},{"type":"Feature","id":"w233376341","properties":{"type":"yes","address":"Widłakowa 28","residential":true,"residents_est":3,"h3_10":"8a1e05b4d75ffff","h3_11":"8b1e05b4d75bfff"},"geometry":{"type":"Polygon","coordinates":[[[19.867707,50.038504],[19.867789,50.038451],[19.867887,50.038521],[19.867802,50.038571],[19.867707,50.038504]]]}},{"type":"Feature","id":"w233376396","properties":{"type":"yes","address":"Wielkanocna 4j","residential":true,"residents_est":2,"h3_10":"8a1e05b4d76ffff","h3_11":"8b1e05b4d76bfff"},"geometry":{"type":"Polygon","coordinates":[[[19.868687,50.04048],[19.86877,50.040403],[19.868801,50.040417],[19.868814,50.040405],[19.868852,50.040422],[19.868756,50.040511],[19.868687,50.04048]]]}},{"type":"Feature","id":"w233376492","properties":{"type":"yes","residential":true,"residents_est":2,"h3_10":"8a1e05b4d75ffff","h3_11":"8b1e05b4d75bfff"},"geometry":{"type":"Polygon","coordinates":[[[19.86761,50.038436],[19.867695,50.038385],[19.867789,50.038451],[19.867707,50.038503],[19.86761,50.038436]]]}},{"type":"Feature","id":"w233376546","properties":{"type":"yes","residential":true,"residents_est":2,"h3_10":"8a1e05b4d647fff","h3_11":"8b1e05b4d645fff"},"geometry":{"type":"Polygon","coordinates":[[[19.869778,50.037744],[19.869811,50.037702],[19.869962,50.037751],[19.869947,50.03777],[19.869971,50.037778],[19.869953,50.037801],[19.869778,50.037744]]]}},{"type":"Feature","id":"w233376557","properties":{"type":"yes","address":"Widłakowa 40","residential":true,"residents_est":3,"h3_10":"8a1e05b4d607fff","h3_11":"8b1e05b4d601fff"},"geometry":{"type":"Polygon","coordinates":[[[19.86469,50.037264],[19.864745,50.03719],[19.864882,50.037233],[19.86486,50.037262],[19.864877,50.037268],[19.864844,50.037312],[19.86469,50.037264]]]}},{"type":"Feature","id":"w233376683","properties":{"type":"yes","residential":false,"residents_est":0,"h3_10":"8a1e05b4d76ffff","h3_11":"8b1e05b4d76bfff"},"geometry":{"type":"Polygon","coordinates":[[[19.868853,50.040422],[19.8689,50.040378],[19.868938,50.040395],[19.868891,50.040439],[19.868853,50.040422]]]}},{"type":"Feature","id":"w233376828","properties":{"type":"yes","residential":true,"residents_est":1,"h3_10":"8a1e05b4d617fff","h3_11":"8b1e05b4d611fff"},"geometry":{"type":"Polygon","coordinates":[[[19.863406,50.036774],[19.863498,50.03669],[19.863532,50.036707],[19.863505,50.036732],[19.863528,50.036743],[19.863465,50.036801],[19.863406,50.036774]]]}},{"type":"Feature","id":"w233376846","properties":{"type":"yes","residential":true,"residents_est":1,"h3_10":"8a1e05b4d74ffff","h3_11":"8b1e05b4d74dfff"},"geometry":{"type":"Polygon","coordinates":[[[19.86869,50.039939],[19.868736,50.039884],[19.868819,50.039913],[19.868793,50.039944],[19.868766,50.039935],[19.868746,50.039958],[19.86869,50.039939]]]}},{"type":"Feature","id":"w233376933","properties":{"type":"yes","residential":true,"residents_est":1,"h3_10":"8a1e05b4d71ffff","h3_11":"8b1e05b4d71afff"},"geometry":{"type":"Polygon","coordinates":[[[19.862074,50.038593],[19.862087,50.038537],[19.862186,50.038547],[19.862174,50.038596],[19.862096,50.038588],[19.862094,50.038595],[19.862074,50.038593]]]}},{"type":"Feature","id":"w233377116","properties":{"type":"yes","address":"Bodzowska 21","residential":true,"residents_est":4,"h3_10":"8a1e05b4d66ffff","h3_11":"8b1e05b4d668fff"},"geometry":{"type":"Polygon","coordinates":[[[19.870692,50.038166],[19.870743,50.038132],[19.870776,50.038153],[19.870818,50.038125],[19.870923,50.038193],[19.870828,50.038254],[19.870692,50.038166]]]}},{"type":"Feature","id":"w233377137","properties":{"type":"yes","address":"Widłakowa 48","residential":true,"residents_est":5,"h3_10":"8a1e05b4d617fff","h3_11":"8b1e05b4d611fff"},"geometry":{"type":"Polygon","coordinates":[[[19.863541,50.036711],[19.863613,50.036643],[19.863812,50.036729],[19.86374,50.036798],[19.863541,50.036711]]]}},{"type":"Feature","id":"w233377391","properties":{"type":"yes","address":"Wielkanocna 4h","residential":true,"residents_est":2,"h3_10":"8a1e05b4d76ffff","h3_11":"8b1e05b4d769fff"},"geometry":{"type":"Polygon","coordinates":[[[19.868827,50.040541],[19.868909,50.040464],[19.86894,50.040478],[19.868952,50.040466],[19.868992,50.040483],[19.868896,50.040571],[19.868827,50.040541]]]}},{"type":"Feature","id":"w233377494","properties":{"type":"yes","address":"Wielkanocna 6","residential":true,"residents_est":4,"h3_10":"8a1e05b4d747fff","h3_11":"8b1e05b4d741fff"},"geometry":{"type":"Polygon","coordinates":[[[19.867773,50.039924],[19.867818,50.039879],[19.868001,50.039958],[19.867938,50.040019],[19.867801,50.039964],[19.86782,50.039945],[19.867773,50.039924]]]}},{"type":"Feature","id":"w233377508","properties":{"type":"yes","residential":true,"residents_est":2,"h3_10":"8a1e05b4d74ffff","h3_11":"8b1e05b4d74dfff"},"geometry":{"type":"Polygon","coordinates":[[[19.868957,50.040213],[19.868992,50.040163],[19.869132,50.040203],[19.869098,50.040253],[19.868957,50.040213]]]}},{"type":"Feature","id":"w233377771","properties":{"type":"yes","address":"Bodzowska 21b","residential":true,"residents_est":2,"h3_10":"8a1e05b4d66ffff","h3_11":"8b1e05b4d66afff"},"geometry":{"type":"Polygon","coordinates":[[[19.870271,50.037754],[19.870425,50.037713],[19.870448,50.037748],[19.870294,50.037789],[19.870271,50.037754]]]}},{"type":"Feature","id":"w233377791","properties":{"type":"yes","address":"Widłakowa 59","residential":true,"residents_est":3,"h3_10":"8a1e05b4d667fff","h3_11":"8b1e05b4d666fff"},"geometry":{"type":"Polygon","coordinates":[[[19.867957,50.038421],[19.868069,50.038364],[19.868152,50.038432],[19.868041,50.038489],[19.867957,50.038421]]]}},{"type":"Feature","id":"w233377896","properties":{"type":"yes","address":"Widłakowa 18","residential":true,"residents_est":4,"h3_10":"8a1e05b4d74ffff","h3_11":"8b1e05b4d74dfff"},"geometry":{"type":"Polygon","coordinates":[[[19.869061,50.040071],[19.869134,50.040005],[19.869318,50.040084],[19.869251,50.040152],[19.869061,50.040071]]]}},{"type":"Feature","id":"w233377905","properties":{"type":"yes","address":"Widłakowa 20","residential":true,"residents_est":2,"h3_10":"8a1e05b4d74ffff","h3_11":"8b1e05b4d74dfff"},"geometry":{"type":"Polygon","coordinates":[[[19.868962,50.040029],[19.869032,50.039963],[19.869133,50.040005],[19.86906,50.040071],[19.868962,50.040029]]]}},{"type":"Feature","id":"w233377948","properties":{"type":"yes","address":"Widłakowa 55","residential":true,"residents_est":4,"h3_10":"8a1e05b4d74ffff","h3_11":"8b1e05b4d748fff"},"geometry":{"type":"Polygon","coordinates":[[[19.868702,50.039481],[19.868802,50.039424],[19.86893,50.039518],[19.868828,50.039574],[19.868702,50.039481]]]}},{"type":"Feature","id":"w233378051","properties":{"type":"yes","address":"Widłakowa 26","residential":true,"residents_est":2,"h3_10":"8a1e05b4d677fff","h3_11":"8b1e05b4d674fff"},"geometry":{"type":"Polygon","coordinates":[[[19.867279,50.038316],[19.867366,50.038267],[19.867443,50.038321],[19.867356,50.038371],[19.867279,50.038316]]]}},{"type":"Feature","id":"w233378091","properties":{"type":"yes","address":"Wielkanocna 59","residential":true,"residents_est":4,"h3_10":"8a1e05b4d7a7fff","h3_11":"8b1e05b4d7a2fff"},"geometry":{"type":"Polygon","coordinates":[[[19.858928,50.038067],[19.858936,50.037985],[19.859119,50.037992],[19.859112,50.038075],[19.859035,50.038072],[19.859033,50.038091],[19.858999,50.03809],[19.859001,50.03807],[19.858928,50.038067]]]}},{"type":"Feature","id":"w233378119","properties":{"type":"yes","residential":true,"residents_est":2,"h3_10":"8a1e05b4d6a7fff","h3_11":"8b1e05b4d6a1fff"},"geometry":{"type":"Polygon","coordinates":[[[19.862328,50.036106],[19.862355,50.036049],[19.862369,50.036052],[19.862379,50.036032],[19.862399,50.036026],[19.862451,50.036037],[19.862413,50.036123],[19.862328,50.036106]]]}},{"type":"Feature","id":"w233378194","properties":{"type":"yes","address":"Wielkanocna 24","residential":true,"residents_est":3,"h3_10":"8a1e05b4d62ffff","h3_11":"8b1e05b4d62dfff"},"geometry":{"type":"Polygon","coordinates":[[[19.86592,50.038383],[19.866013,50.03832],[19.866097,50.038371],[19.866004,50.038435],[19.86592,50.038383]]]}},{"type":"Feature","id":"w556291386","properties":{"type":"house","levels":2.0,"address":"Widłakowa 56A","residential":true,"residents_est":10,"h3_10":"8a1e05b4d6a7fff","h3_11":"8b1e05b4d6a0fff"},"geometry":{"type":"Polygon","coordinates":[[[19.861358,50.036088],[19.861371,50.036012],[19.861641,50.036031],[19.861628,50.036106],[19.861561,50.036102],[19.861565,50.036082],[19.861546,50.03608],[19.861543,50.036101],[19.861358,50.036088]]]}},{"type":"Feature","id":"w703326172","properties":{"type":"yes","address":"Wielkanocna 4G","residential":true,"residents_est":3,"h3_10":"8a1e05b4d76ffff","h3_11":"8b1e05b4d769fff"},"geometry":{"type":"Polygon","coordinates":[[[19.869039,50.040635],[19.869181,50.040502],[19.869223,50.040521],[19.869163,50.040576],[19.869194,50.040589],[19.869111,50.040667],[19.869039,50.040635]]]}},{"type":"Feature","id":"w703326173","properties":{"type":"yes","address":"Wielkanocna 4GA","residential":true,"residents_est":3,"h3_10":"8a1e05b4d76ffff","h3_11":"8b1e05b4d769fff"},"geometry":{"type":"Polygon","coordinates":[[[19.868969,50.040604],[19.869063,50.040515],[19.869068,50.040517],[19.869056,50.040528],[19.86908,50.040539],[19.86914,50.040484],[19.869181,50.040502],[19.869039,50.040635],[19.868969,50.040604]]]}},{"type":"Feature","id":"w703326174","properties":{"type":"yes","address":"Wielkanocna 4GB","residential":true,"residents_est":3,"h3_10":"8a1e05b4d76ffff","h3_11":"8b1e05b4d769fff"},"geometry":{"type":"Polygon","coordinates":[[[19.868898,50.040572],[19.86904,50.040439],[19.869082,50.040458],[19.869022,50.040513],[19.869047,50.040524],[19.869063,50.040515],[19.868969,50.040604],[19.868898,50.040572]]]}},{"type":"Feature","id":"w703326175","properties":{"type":"yes","residential":false,"residents_est":0,"h3_10":"8a1e05b4d76ffff","h3_11":"8b1e05b4d76bfff"},"geometry":{"type":"Polygon","coordinates":[[[19.868814,50.040405],[19.868861,50.04036],[19.8689,50.040378],[19.868853,50.040422],[19.868814,50.040405]]]}},{"type":"Feature","id":"w703326176","properties":{"type":"yes","residential":false,"residents_est":0,"h3_10":"8a1e05b4d76ffff","h3_11":"8b1e05b4d76bfff"},"geometry":{"type":"Polygon","coordinates":[[[19.868952,50.040466],[19.869,50.040422],[19.86904,50.040439],[19.868992,50.040483],[19.868952,50.040466]]]}},{"type":"Feature","id":"w703326178","properties":{"type":"yes","residential":false,"residents_est":0,"h3_10":"8a1e05b4d76ffff","h3_11":"8b1e05b4d76bfff"},"geometry":{"type":"Polygon","coordinates":[[[19.86893,50.040252],[19.868957,50.040213],[19.869051,50.04024],[19.869024,50.040279],[19.86893,50.040252]]]}},{"type":"Feature","id":"w703326189","properties":{"type":"yes","address":"Widłakowa 55b","residential":true,"residents_est":5,"h3_10":"8a1e05b4d667fff","h3_11":"8b1e05b4d664fff"},"geometry":{"type":"Polygon","coordinates":[[[19.868546,50.039001],[19.868562,50.03898],[19.868672,50.038953],[19.868709,50.039014],[19.86876,50.039001],[19.868796,50.039061],[19.868625,50.039104],[19.868608,50.039098],[19.868603,50.039086],[19.868616,50.039073],[19.868599,50.039046],[19.868567,50.039036],[19.868546,50.039001]]]}},{"type":"Feature","id":"w703326190","properties":{"type":"yes","residential":false,"residents_est":0,"h3_10":"8a1e05b4d75ffff","h3_11":"8b1e05b4d759fff"},"geometry":{"type":"Polygon","coordinates":[[[19.867972,50.038795],[19.868122,50.038746],[19.868117,50.038739],[19.868134,50.038734],[19.868159,50.038769],[19.868063,50.038799],[19.868037,50.038794],[19.867985,50.038812],[19.867972,50.038795]]]}},{"type":"Feature","id":"w703326192","properties":{"type":"yes","residential":false,"residents_est":0,"h3_10":"8a1e05b4d667fff","h3_11":"8b1e05b4d664fff"},"geometry":{"type":"Polygon","coordinates":[[[19.868505,50.038781],[19.868564,50.038747],[19.868595,50.03877],[19.868537,50.038803],[19.868505,50.038781]]]}},{"type":"Feature","id":"w703326193","properties":{"type":"yes","address":"Widłakowa 55c","residential":true,"residents_est":2,"h3_10":"8a1e05b4d667fff","h3_11":"8b1e05b4d664fff"},"geometry":{"type":"Polygon","coordinates":[[[19.868416,50.038722],[19.868491,50.03868],[19.868574,50.038741],[19.868498,50.038784],[19.86846,50.038755],[19.86847,50.038749],[19.868455,50.038738],[19.868444,50.038743],[19.868416,50.038722]]]}},{"type":"Feature","id":"w703326195","properties":{"type":"yes","residential":true,"residents_est":2,"h3_10":"8a1e05b4d667fff","h3_11":"8b1e05b4d666fff"},"geometry":{"type":"Polygon","coordinates":[[[19.868161,50.038367],[19.868221,50.038332],[19.868311,50.038396],[19.86825,50.038431],[19.868161,50.038367]]]}},{"type":"Feature","id":"w703326200","properties":{"type":"yes","residential":false,"residents_est":0,"h3_10":"8a1e05b4d62ffff","h3_11":"8b1e05b4d62bfff"},"geometry":{"type":"Polygon","coordinates":[[[19.865962,50.037696],[19.865989,50.037663],[19.866063,50.037687],[19.866035,50.03772],[19.865962,50.037696]]]}},{"type":"Feature","id":"w703326201","properties":{"type":"yes","residential":true,"residents_est":2,"h3_10":"8a1e05b4d60ffff","h3_11":"8b1e05b4d60cfff"},"geometry":{"type":"Polygon","coordinates":[[[19.865507,50.037405],[19.865554,50.037335],[19.865655,50.037363],[19.865609,50.037433],[19.865507,50.037405]]]}},{"type":"Feature","id":"w703326202","properties":{"type":"yes","residential":false,"residents_est":0,"h3_10":"8a1e05b4d6b7fff","h3_11":"8b1e05b4d6b3fff"},"geometry":{"type":"Polygon","coordinates":[[[19.860302,50.034998],[19.860307,50.034949],[19.860371,50.034951],[19.860367,50.035],[19.860302,50.034998]]]}},{"type":"Feature","id":"w703326203","properties":{"type":"yes","address":"Widłakowa 61R","residential":true,"residents_est":4,"h3_10":"8a1e05b4d6a7fff","h3_11":"8b1e05b4d6a3fff"},"geometry":{"type":"Polygon","coordinates":[[[19.862045,50.035664],[19.862049,50.035589],[19.862098,50.03559],[19.862099,50.035578],[19.86222,50.03558],[19.862216,50.035676],[19.862157,50.035675],[19.862157,50.035666],[19.862045,50.035664]]]}},{"type":"Feature","id":"w703326204","properties":{"type":"yes","address":"Widłakowa 56B","residential":true,"residents_est":4,"h3_10":"8a1e05b4d6a7fff","h3_11":"8b1e05b4d6a4fff"},"geometry":{"type":"Polygon","coordinates":[[[19.86136,50.036244],[19.861368,50.036201],[19.861394,50.036203],[19.861399,50.036166],[19.861527,50.036174],[19.861529,50.036163],[19.86162,50.036169],[19.86161,50.03623],[19.861548,50.036226],[19.861545,50.036247],[19.861499,50.036244],[19.861497,50.036253],[19.86136,50.036244]]]}},{"type":"Feature","id":"w703326205","properties":{"type":"yes","residential":true,"residents_est":3,"h3_10":"8a1e05b4d617fff","h3_11":"8b1e05b4d610fff"},"geometry":{"type":"Polygon","coordinates":[[[19.862749,50.03663],[19.862779,50.036605],[19.862773,50.036601],[19.862853,50.036541],[19.862891,50.03656],[19.862902,50.03655],[19.862945,50.036571],[19.86283,50.03667],[19.862749,50.03663]]]}},{"type":"Feature","id":"w703326206","properties":{"type":"yes","residential":true,"residents_est":2,"h3_10":"8a1e05b4d617fff","h3_11":"8b1e05b4d610fff"},"geometry":{"type":"Polygon","coordinates":[[[19.862859,50.036694],[19.862921,50.036635],[19.862998,50.036669],[19.862935,50.036726],[19.862859,50.036694]]]}},{"type":"Feature","id":"w703326208","properties":{"type":"yes","residential":false,"residents_est":0,"h3_10":"8a1e05b4d617fff","h3_11":"8b1e05b4d610fff"},"geometry":{"type":"Polygon","coordinates":[[[19.863133,50.036722],[19.863176,50.036682],[19.863249,50.036715],[19.863207,50.036754],[19.863133,50.036722]]]}},{"type":"Feature","id":"w703326209","properties":{"type":"yes","residential":false,"residents_est":0,"h3_10":"8a1e05b4d607fff","h3_11":"8b1e05b4d602fff"},"geometry":{"type":"Polygon","coordinates":[[[19.863649,50.036899],[19.863679,50.036872],[19.863761,50.03691],[19.863731,50.036937],[19.863649,50.036899]]]}},{"type":"Feature","id":"w703326211","properties":{"type":"yes","address":"Widłakowa 46","residential":true,"residents_est":4,"h3_10":"8a1e05b4d607fff","h3_11":"8b1e05b4d602fff"},"geometry":{"type":"Polygon","coordinates":[[[19.8639,50.036941],[19.863967,50.036878],[19.863918,50.036856],[19.863944,50.036832],[19.863993,50.036853],[19.864037,50.036813],[19.864128,50.036853],[19.864011,50.036964],[19.863988,50.036954],[19.863969,50.036971],[19.8639,50.036941]]]}},{"type":"Feature","id":"w703326212","properties":{"type":"yes","residential":false,"residents_est":0,"h3_10":"8a1e05b4d607fff","h3_11":"8b1e05b4d602fff"},"geometry":{"type":"Polygon","coordinates":[[[19.86421,50.037117],[19.86425,50.037082],[19.864319,50.037114],[19.864284,50.03715],[19.86421,50.037117]]]}},{"type":"Feature","id":"w703326214","properties":{"type":"yes","residential":false,"residents_est":0,"h3_10":"8a1e05b4d607fff","h3_11":"8b1e05b4d600fff"},"geometry":{"type":"Polygon","coordinates":[[[19.864648,50.037371],[19.864669,50.037347],[19.864748,50.037376],[19.864727,50.0374],[19.864648,50.037371]]]}},{"type":"Feature","id":"w703326215","properties":{"type":"yes","residential":true,"residents_est":5,"h3_10":"8a1e05b4d607fff","h3_11":"8b1e05b4d600fff"},"geometry":{"type":"Polygon","coordinates":[[[19.864466,50.03754],[19.86454,50.037451],[19.864555,50.037456],[19.864596,50.037408],[19.864685,50.037439],[19.864644,50.037487],[19.86466,50.037493],[19.864585,50.037581],[19.864466,50.03754]]]}},{"type":"Feature","id":"w703326216","properties":{"type":"yes","address":"Wielkanocna 27G","residential":true,"residents_est":3,"h3_10":"8a1e05b4d607fff","h3_11":"8b1e05b4d604fff"},"geometry":{"type":"Polygon","coordinates":[[[19.863822,50.037677],[19.863904,50.037592],[19.863981,50.037623],[19.863967,50.037638],[19.863982,50.037644],[19.863892,50.037738],[19.86385,50.037721],[19.863873,50.037698],[19.863822,50.037677]]]}},{"type":"Feature","id":"w703326217","properties":{"type":"yes","address":"Wielkanocna 27E","residential":true,"residents_est":3,"h3_10":"8a1e05b4d607fff","h3_11":"8b1e05b4d604fff"},"geometry":{"type":"Polygon","coordinates":[[[19.864084,50.037781],[19.864165,50.037696],[19.864241,50.037727],[19.864228,50.037742],[19.864243,50.037748],[19.864154,50.037841],[19.864111,50.037825],[19.864135,50.037802],[19.864084,50.037781]]]}},{"type":"Feature","id":"w703326218","properties":{"type":"yes","address":"Wielkanocna 27C","residential":true,"residents_est":3,"h3_10":"8a1e05b4d607fff","h3_11":"8b1e05b4d605fff"},"geometry":{"type":"Polygon","coordinates":[[[19.864344,50.037886],[19.864425,50.0378],[19.864503,50.037832],[19.864488,50.037847],[19.864504,50.037853],[19.864415,50.037946],[19.864373,50.037929],[19.864395,50.037906],[19.864344,50.037886]]]}},{"type":"Feature","id":"w703326219","properties":{"type":"yes","address":"Wielkanocna 27A","residential":true,"residents_est":3,"h3_10":"8a1e05b4d627fff","h3_11":"8b1e05b4d623fff"},"geometry":{"type":"Polygon","coordinates":[[[19.864587,50.038006],[19.864671,50.037918],[19.864752,50.03795],[19.864738,50.037965],[19.864752,50.037971],[19.86466,50.038067],[19.864615,50.038049],[19.864638,50.038026],[19.864587,50.038006]]]}},{"type":"Feature","id":"w703326220","properties":{"type":"yes","address":"Wielkanocna 27","residential":true,"residents_est":3,"h3_10":"8a1e05b4d62ffff","h3_11":"8b1e05b4d62efff"},"geometry":{"type":"Polygon","coordinates":[[[19.86466,50.038067],[19.864752,50.037971],[19.864765,50.037976],[19.864779,50.037961],[19.864861,50.037993],[19.864777,50.038081],[19.864726,50.038061],[19.864704,50.038084],[19.86466,50.038067]]]}},{"type":"Feature","id":"w703326221","properties":{"type":"yes","address":"Wielkanocna 29","residential":true,"residents_est":3,"h3_10":"8a1e05b4d627fff","h3_11":"8b1e05b4d623fff"},"geometry":{"type":"Polygon","coordinates":[[[19.864406,50.038255],[19.86442,50.03824],[19.864407,50.038235],[19.864499,50.038139],[19.864542,50.038156],[19.86452,50.038179],[19.86457,50.0382],[19.864487,50.038287],[19.864406,50.038255]]]}},{"type":"Feature","id":"w703326222","properties":{"type":"yes","address":"Wielkanocna 29A","residential":true,"residents_est":3,"h3_10":"8a1e05b4d627fff","h3_11":"8b1e05b4d623fff"},"geometry":{"type":"Polygon","coordinates":[[[19.864297,50.038212],[19.864381,50.038124],[19.864432,50.038145],[19.864454,50.038121],[19.864499,50.038139],[19.864407,50.038235],[19.864393,50.038229],[19.864378,50.038244],[19.864297,50.038212]]]}},{"type":"Feature","id":"w703326223","properties":{"type":"yes","address":"Wielkanocna 29B","residential":true,"residents_est":3,"h3_10":"8a1e05b4d627fff","h3_11":"8b1e05b4d623fff"},"geometry":{"type":"Polygon","coordinates":[[[19.864123,50.038174],[19.864137,50.038159],[19.864124,50.038154],[19.864215,50.038058],[19.864259,50.038075],[19.864236,50.038098],[19.864287,50.038119],[19.864204,50.038206],[19.864123,50.038174]]]}},{"type":"Feature","id":"w703326224","properties":{"type":"yes","address":"Wielkanocna 29C","residential":true,"residents_est":3,"h3_10":"8a1e05b4d627fff","h3_11":"8b1e05b4d623fff"},"geometry":{"type":"Polygon","coordinates":[[[19.864014,50.038131],[19.864097,50.038043],[19.864149,50.038063],[19.864171,50.03804],[19.864215,50.038058],[19.864124,50.038154],[19.86411,50.038148],[19.864095,50.038163],[19.864014,50.038131]]]}},{"type":"Feature","id":"w703326225","properties":{"type":"yes","address":"Wielkanocna 29D","residential":true,"residents_est":3,"h3_10":"8a1e05b4d627fff","h3_11":"8b1e05b4d622fff"},"geometry":{"type":"Polygon","coordinates":[[[19.864003,50.037963],[19.863961,50.037946],[19.863869,50.038042],[19.863883,50.038047],[19.863872,50.038062],[19.863949,50.038095],[19.864033,50.038007],[19.863982,50.037987],[19.864003,50.037965],[19.864003,50.037963]],[[19.864002,50.037965],[19.864002,50.037964],[19.864003,50.037965],[19.864002,50.037965]],[[19.864001,50.037965],[19.864001,50.037963],[19.864002,50.037965],[19.864001,50.037965]]]}},{"type":"Feature","id":"w703326226","properties":{"type":"yes","address":"Wielkanocna 29E","residential":true,"residents_est":3,"h3_10":"8a1e05b4d627fff","h3_11":"8b1e05b4d622fff"},"geometry":{"type":"Polygon","coordinates":[[[19.86376,50.038019],[19.863843,50.037932],[19.863895,50.037952],[19.863917,50.037929],[19.863961,50.037946],[19.863869,50.038042],[19.863855,50.038037],[19.863841,50.038052],[19.86376,50.038019]]]}},{"type":"Feature","id":"w703326229","properties":{"type":"yes","address":"Wielkanocna 44","residential":true,"residents_est":4,"h3_10":"8a1e05b4d7affff","h3_11":"8b1e05b4d7a9fff"},"geometry":{"type":"Polygon","coordinates":[[[19.861466,50.038268],[19.861498,50.038135],[19.861624,50.038147],[19.861601,50.038243],[19.861587,50.038242],[19.861578,50.038278],[19.861466,50.038268]]]}},{"type":"Feature","id":"w703326230","properties":{"type":"yes","residential":true,"residents_est":4,"h3_10":"8a1e05b4d7affff","h3_11":"8b1e05b4d7acfff"},"geometry":{"type":"Polygon","coordinates":[[[19.860685,50.038617],[19.860699,50.038561],[19.860746,50.038566],[19.860763,50.038504],[19.860853,50.038514],[19.860841,50.038559],[19.860867,50.038562],[19.86088,50.038573],[19.860876,50.038588],[19.86086,50.038595],[19.860848,50.03864],[19.860685,50.038617]]]}},{"type":"Feature","id":"w703326231","properties":{"type":"yes","residential":true,"residents_est":4,"h3_10":"8a1e05b4d7affff","h3_11":"8b1e05b4d7acfff"},"geometry":{"type":"Polygon","coordinates":[[[19.860357,50.038536],[19.860359,50.038521],[19.860375,50.038512],[19.860401,50.038514],[19.860406,50.038468],[19.860497,50.038472],[19.86049,50.038535],[19.860538,50.038537],[19.860532,50.038593],[19.860365,50.038591],[19.86037,50.038546],[19.860357,50.038536]]]}},{"type":"Feature","id":"w703326232","properties":{"type":"yes","residential":false,"residents_est":0,"h3_10":"8a1e05b4d7a7fff","h3_11":"8b1e05b4d7a0fff"},"geometry":{"type":"Polygon","coordinates":[[[19.859309,50.038362],[19.85931,50.038326],[19.859382,50.038326],[19.859382,50.038362],[19.859309,50.038362]]]}},{"type":"Feature","id":"w703326233","properties":{"type":"yes","residential":false,"residents_est":0,"h3_10":"8a1e05b4d7a7fff","h3_11":"8b1e05b4d7a0fff"},"geometry":{"type":"Polygon","coordinates":[[[19.859058,50.038678],[19.859064,50.038593],[19.85912,50.038595],[19.859114,50.03868],[19.859058,50.038678]]]}},{"type":"Feature","id":"w703326234","properties":{"type":"garage","residential":false,"residents_est":0,"h3_10":"8a1e05b4d7b7fff","h3_11":"8b1e05b4d7b1fff"},"geometry":{"type":"Polygon","coordinates":[[[19.858396,50.037928],[19.858398,50.037901],[19.858473,50.037904],[19.85847,50.03793],[19.858396,50.037928]]]}},{"type":"Feature","id":"w703326241","properties":{"type":"detached","address":"Widłakowa 58K","residential":true,"residents_est":10,"h3_10":"8a1e05b4d797fff","h3_11":"8b1e05b4d793fff"},"geometry":{"type":"Polygon","coordinates":[[[19.858137,50.036416],[19.858155,50.036416],[19.858151,50.036352],[19.858247,50.036348],[19.858245,50.036332],[19.858253,50.036332],[19.858262,50.036409],[19.858282,50.036408],[19.858287,50.03645],[19.858266,50.03645],[19.858274,50.036523],[19.858168,50.036528],[19.858159,50.036454],[19.858141,50.036454],[19.858137,50.036416]]]}},{"type":"Feature","id":"w703326242","properties":{"type":"yes","residential":false,"residents_est":0,"h3_10":"8a1e05b4d79ffff","h3_11":"8b1e05b4d79efff"},"geometry":{"type":"Polygon","coordinates":[[[19.858772,50.036358],[19.858815,50.036355],[19.858829,50.036434],[19.858786,50.036437],[19.858772,50.036358]]]}},{"type":"Feature","id":"w703326243","properties":{"type":"yes","residential":false,"residents_est":0,"h3_10":"8a1e05b4d79ffff","h3_11":"8b1e05b4d79efff"},"geometry":{"type":"Polygon","coordinates":[[[19.858689,50.036259],[19.858744,50.036254],[19.858757,50.036316],[19.858703,50.036321],[19.858689,50.036259]]]}},{"type":"Feature","id":"w703326244","properties":{"type":"yes","address":"Widłakowa 58c","residential":true,"residents_est":4,"h3_10":"8a1e05b4d79ffff","h3_11":"8b1e05b4d798fff"},"geometry":{"type":"Polygon","coordinates":[[[19.859807,50.036182],[19.859824,50.036162],[19.859813,50.036128],[19.859896,50.036117],[19.8599,50.036127],[19.859988,50.036115],[19.860014,50.036193],[19.859968,50.0362],[19.859971,50.03621],[19.859847,50.036227],[19.859834,50.036194],[19.859807,50.036182]]]}},{"type":"Feature","id":"w708081455","properties":{"type":"yes","residential":false,"residents_est":0,"h3_10":"8a1e05b4d75ffff","h3_11":"8b1e05b4d75cfff"},"geometry":{"type":"Polygon","coordinates":[[[19.866869,50.039094],[19.866916,50.03906],[19.866978,50.039094],[19.866932,50.039129],[19.866869,50.039094]]]}},{"type":"Feature","id":"w708081456","properties":{"type":"yes","residential":false,"residents_est":0,"h3_10":"8a1e05b4d62ffff","h3_11":"8b1e05b4d62dfff"},"geometry":{"type":"Polygon","coordinates":[[[19.865826,50.038588],[19.865889,50.038545],[19.865937,50.038574],[19.865875,50.038617],[19.865826,50.038588]]]}},{"type":"Feature","id":"w708081457","properties":{"type":"yes","residential":false,"residents_est":0,"h3_10":"8a1e05b4d62ffff","h3_11":"8b1e05b4d62dfff"},"geometry":{"type":"Polygon","coordinates":[[[19.866047,50.038528],[19.866093,50.038494],[19.866145,50.038525],[19.866099,50.038559],[19.866047,50.038528]]]}},{"type":"Feature","id":"w708081459","properties":{"type":"yes","address":"Bodzowska 21a","residential":true,"residents_est":3,"h3_10":"8a1e05b4d66ffff","h3_11":"8b1e05b4d66afff"},"geometry":{"type":"Polygon","coordinates":[[[19.870257,50.037958],[19.87032,50.037892],[19.870465,50.037948],[19.870412,50.038006],[19.870342,50.03798],[19.870333,50.037988],[19.870257,50.037958]]]}},{"type":"Feature","id":"w708081460","properties":{"type":"yes","residential":false,"residents_est":0,"h3_10":"8a1e05b4d66ffff","h3_11":"8b1e05b4d66afff"},"geometry":{"type":"Polygon","coordinates":[[[19.870322,50.037783],[19.870422,50.037756],[19.870438,50.037781],[19.870338,50.037808],[19.870322,50.037783]]]}},{"type":"Feature","id":"w708081461","properties":{"type":"yes","residential":false,"residents_est":0,"h3_10":"8a1e05b4d647fff","h3_11":"8b1e05b4d645fff"},"geometry":{"type":"Polygon","coordinates":[[[19.869658,50.037704],[19.869691,50.037663],[19.869772,50.03769],[19.86974,50.037731],[19.869658,50.037704]]]}},{"type":"Feature","id":"w759895474","properties":{"type":"yes","residential":false,"residents_est":0,"h3_10":"8a1e05b4d687fff","h3_11":"8b1e05b4d686fff"},"geometry":{"type":"Polygon","coordinates":[[[19.861351,50.034703],[19.861421,50.034699],[19.861425,50.034735],[19.861355,50.034738],[19.861351,50.034703]]]}},{"type":"Feature","id":"w895228492","properties":{"type":"yes","address":"Widłakowa 65B","residential":true,"residents_est":5,"h3_10":"8a1e05b4d6b7fff","h3_11":"8b1e05b4d6b6fff"},"geometry":{"type":"Polygon","coordinates":[[[19.859171,50.035018],[19.859185,50.034958],[19.859331,50.03497],[19.859318,50.035035],[19.859293,50.035033],[19.859286,50.03507],[19.859353,50.035076],[19.859343,50.035137],[19.859206,50.035125],[19.859226,50.035022],[19.859171,50.035018]]]}},{"type":"Feature","id":"w895228493","properties":{"type":"yes","address":"Widłakowa 61H","residential":true,"residents_est":6,"h3_10":"8a1e05b4d6affff","h3_11":"8b1e05b4d6a9fff"},"geometry":{"type":"Polygon","coordinates":[[[19.863861,50.035637],[19.863865,50.035584],[19.864085,50.035592],[19.864068,50.035765],[19.863975,50.035761],[19.863985,50.035641],[19.863861,50.035637]]]}},{"type":"Feature","id":"w895228494","properties":{"type":"yes","address":"Widłakowa 56C","residential":true,"residents_est":3,"h3_10":"8a1e05b4d6a7fff","h3_11":"8b1e05b4d6a4fff"},"geometry":{"type":"Polygon","coordinates":[[[19.861389,50.036356],[19.861392,50.036309],[19.861601,50.036323],[19.861591,50.036356],[19.861611,50.036357],[19.861605,50.036396],[19.86147,50.036387],[19.861474,50.036361],[19.861389,50.036356]]]}},{"type":"Feature","id":"w895228495","properties":{"type":"yes","address":"Wielkanocna 32","residential":true,"residents_est":5,"h3_10":"8a1e05b4d627fff","h3_11":"8b1e05b4d620fff"},"geometry":{"type":"Polygon","coordinates":[[[19.864124,50.038549],[19.864162,50.038463],[19.864236,50.038476],[19.864249,50.038448],[19.864352,50.038467],[19.864346,50.038481],[19.864375,50.038486],[19.864345,50.038555],[19.864271,50.038541],[19.864262,50.038561],[19.864189,50.038548],[19.864184,50.03856],[19.864124,50.038549]]]}},{"type":"Feature","id":"w895228496","properties":{"type":"yes","address":"Wielkanocna 38h","residential":true,"residents_est":3,"h3_10":"8a1e05b4d627fff","h3_11":"8b1e05b4d624fff"},"geometry":{"type":"Polygon","coordinates":[[[19.863837,50.038893],[19.863894,50.038747],[19.863985,50.038762],[19.863954,50.038843],[19.863943,50.038841],[19.86394,50.038849],[19.8639,50.038857],[19.863882,50.038901],[19.863837,50.038893]]]}},{"type":"Feature","id":"w895228497","properties":{"type":"yes","address":"Wielkanocna 38f","residential":true,"residents_est":3,"h3_10":"8a1e05b4d627fff","h3_11":"8b1e05b4d624fff"},"geometry":{"type":"Polygon","coordinates":[[[19.863436,50.03883],[19.863494,50.038682],[19.863587,50.038697],[19.863555,50.038779],[19.863544,50.038778],[19.863541,50.038786],[19.86351,50.038797],[19.863498,50.038795],[19.863482,50.038837],[19.863436,50.03883]]]}},{"type":"Feature","id":"w895228498","properties":{"type":"yes","address":"Wielkanocna 38d","residential":true,"residents_est":3,"h3_10":"8a1e05b4d71ffff","h3_11":"8b1e05b4d719fff"},"geometry":{"type":"Polygon","coordinates":[[[19.863008,50.03876],[19.863066,50.038612],[19.863159,50.038627],[19.863127,50.038709],[19.863116,50.038707],[19.863113,50.038715],[19.863082,50.038727],[19.863071,50.038725],[19.863055,50.038767],[19.863008,50.03876]]]}},{"type":"Feature","id":"w895228499","properties":{"type":"yes","address":"Wielkanocna 38b","residential":true,"residents_est":3,"h3_10":"8a1e05b4d71ffff","h3_11":"8b1e05b4d71bfff"},"geometry":{"type":"Polygon","coordinates":[[[19.86258,50.038687],[19.862637,50.038541],[19.862728,50.038556],[19.862697,50.038637],[19.862686,50.038635],[19.862683,50.038643],[19.862642,50.038651],[19.862625,50.038695],[19.86258,50.038687]]]}},{"type":"Feature","id":"w895228501","properties":{"type":"yes","residential":false,"residents_est":0,"h3_10":"8a1e05b4d74ffff","h3_11":"8b1e05b4d74efff"},"geometry":{"type":"Polygon","coordinates":[[[19.867952,50.039377],[19.86799,50.039364],[19.86803,50.039412],[19.867992,50.039425],[19.867952,50.039377]]]}},{"type":"Feature","id":"w895228502","properties":{"type":"yes","address":"Wielkanocna 10C","residential":true,"residents_est":2,"h3_10":"8a1e05b4d747fff","h3_11":"8b1e05b4d743fff"},"geometry":{"type":"Polygon","coordinates":[[[19.867151,50.039527],[19.86722,50.039476],[19.86732,50.039532],[19.867251,50.039583],[19.867151,50.039527]]]}},{"type":"Feature","id":"w989449882","properties":{"type":"detached","address":"Widłakowa 61Z","residential":true,"residents_est":5,"h3_10":"8a1e05b4d6b7fff","h3_11":"8b1e05b4d6b5fff"},"geometry":{"type":"Polygon","coordinates":[[[19.860288,50.035359],[19.860396,50.035351],[19.860414,50.035457],[19.860407,50.035458],[19.860405,50.035445],[19.860303,50.035452],[19.860288,50.035359]]]}},{"type":"Feature","id":"w1039863423","properties":{"type":"detached","levels":2.0,"address":"Wielkanocna 4T","residential":true,"residents_est":8,"h3_10":"8a1e05b4d747fff","h3_11":"8b1e05b4d741fff"},"geometry":{"type":"Polygon","coordinates":[[[19.867594,50.040152],[19.867658,50.040082],[19.867833,50.040148],[19.867775,50.040212],[19.867594,50.040152]]]}},{"type":"Feature","id":"w1039863661","properties":{"type":"detached","levels":2.0,"residential":true,"residents_est":7,"h3_10":"8a1e05b4d687fff","h3_11":"8b1e05b4d685fff"},"geometry":{"type":"Polygon","coordinates":[[[19.862022,50.035137],[19.8622,50.035136],[19.862202,50.035221],[19.862025,50.035223],[19.862022,50.035137]]]}},{"type":"Feature","id":"w1255727260","properties":{"type":"yes","residential":true,"residents_est":8,"h3_10":"8a1e05b4d6b7fff","h3_11":"8b1e05b4d6b6fff"},"geometry":{"type":"Polygon","coordinates":[[[19.859533,50.03535],[19.859564,50.035207],[19.859779,50.035226],[19.859748,50.035369],[19.859533,50.03535]]]}},{"type":"Feature","id":"w1255727261","properties":{"type":"residential","address":"Widłakowa 56","residential":true,"residents_est":19,"h3_10":"8a1e05b4d6a7fff","h3_11":"8b1e05b4d6a0fff"},"geometry":{"type":"Polygon","coordinates":[[[19.861101,50.035854],[19.861102,50.035781],[19.861309,50.035783],[19.861307,50.035857],[19.861295,50.035857],[19.861294,50.035884],[19.861112,50.035882],[19.861113,50.035854],[19.861101,50.035854]]]}},{"type":"Feature","id":"w1255727262","properties":{"type":"yes","address":"Widłakowa 56D","residential":true,"residents_est":5,"h3_10":"8a1e05b4d6a7fff","h3_11":"8b1e05b4d6a0fff"},"geometry":{"type":"Polygon","coordinates":[[[19.861427,50.035877],[19.861453,50.035806],[19.861654,50.035837],[19.861627,50.035908],[19.861616,50.035906],[19.861606,50.035933],[19.861428,50.035906],[19.861439,50.035879],[19.861427,50.035877]]]}},{"type":"Feature","id":"w1255727263","properties":{"type":"yes","residential":true,"residents_est":16,"h3_10":"8a1e05b4d6affff","h3_11":"8b1e05b4d6aefff"},"geometry":{"type":"Polygon","coordinates":[[[19.862645,50.035654],[19.862668,50.035483],[19.862856,50.035494],[19.862832,50.035664],[19.862645,50.035654]]]}},{"type":"Feature","id":"w1366287873","properties":{"type":"yes","address":"Wielkanocna 46","residential":true,"residents_est":2,"h3_10":"8a1e05b4d7affff","h3_11":"8b1e05b4d7a9fff"},"geometry":{"type":"Polygon","coordinates":[[[19.8613,50.038154],[19.861323,50.038069],[19.861429,50.038081],[19.861406,50.038166],[19.8613,50.038154]]]}},{"type":"Feature","id":"w1366287874","properties":{"type":"residential","address":"Wielkanocna 54","residential":true,"residents_est":8,"h3_10":"8a1e05b4d7a7fff","h3_11":"8b1e05b4d7a1fff"},"geometry":{"type":"Polygon","coordinates":[[[19.859577,50.038604],[19.859578,50.038545],[19.859592,50.038545],[19.859593,50.03848],[19.859662,50.03848],[19.859661,50.038542],[19.859647,50.038538],[19.859646,50.038605],[19.859577,50.038604]]]}},{"type":"Feature","id":"w1366287875","properties":{"type":"detached","address":"Wielkanocna 46A","residential":true,"residents_est":11,"h3_10":"8a1e05b4d7affff","h3_11":"8b1e05b4d7adfff"},"geometry":{"type":"Polygon","coordinates":[[[19.861055,50.038612],[19.861075,50.038536],[19.861281,50.038559],[19.861245,50.038693],[19.861134,50.038681],[19.861149,50.038623],[19.861055,50.038612]]]}},{"type":"Feature","id":"w1366287877","properties":{"type":"yes","residential":true,"residents_est":2,"h3_10":"8a1e05b4d787fff","h3_11":"8b1e05b4d781fff"},"geometry":{"type":"Polygon","coordinates":[[[19.859894,50.037143],[19.859986,50.037136],[19.860001,50.037225],[19.859909,50.037231],[19.859894,50.037143]]]}},{"type":"Feature","id":"w1541354087","properties":{"type":"residential","address":"Wielkanocna 27K","residential":true,"residents_est":12,"h3_10":"8a1e05b4d607fff","h3_11":"8b1e05b4d606fff"},"geometry":{"type":"Polygon","coordinates":[[[19.863314,50.037401],[19.863316,50.03737],[19.863334,50.03737],[19.863337,50.037314],[19.863393,50.037315],[19.863393,50.037322],[19.863418,50.037323],[19.863507,50.037375],[19.863506,50.037401],[19.863314,50.037401]]]}},{"type":"Feature","id":"w1541354090","properties":{"type":"semidetached_house","address":"Wielkanocna 37A","residential":true,"residents_est":6,"h3_10":"8a1e05b4d637fff","h3_11":"8b1e05b4d634fff"},"geometry":{"type":"Polygon","coordinates":[[[19.862018,50.037984],[19.86202,50.037889],[19.862143,50.03789],[19.862141,50.037985],[19.862018,50.037984]]]}},{"type":"Feature","id":"w1541354091","properties":{"type":"semidetached_house","address":"Wielkanocna 37","residential":true,"residents_est":6,"h3_10":"8a1e05b4d637fff","h3_11":"8b1e05b4d634fff"},"geometry":{"type":"Polygon","coordinates":[[[19.862141,50.037985],[19.862143,50.03789],[19.862266,50.037891],[19.862264,50.037986],[19.862141,50.037985]]]}},{"type":"Feature","id":"w1541354092","properties":{"type":"semidetached_house","address":"Wielkanocna 35A","residential":true,"residents_est":6,"h3_10":"8a1e05b4d637fff","h3_11":"8b1e05b4d634fff"},"geometry":{"type":"Polygon","coordinates":[[[19.862416,50.03801],[19.862419,50.037915],[19.862542,50.037916],[19.86254,50.038011],[19.862416,50.03801]]]}},{"type":"Feature","id":"w1541354093","properties":{"type":"semidetached_house","address":"Wielkanocna 35","residential":true,"residents_est":6,"h3_10":"8a1e05b4d637fff","h3_11":"8b1e05b4d630fff"},"geometry":{"type":"Polygon","coordinates":[[[19.86254,50.038011],[19.862542,50.037916],[19.862665,50.037917],[19.862663,50.038012],[19.86254,50.038011]]]}},{"type":"Feature","id":"w1541354094","properties":{"type":"semidetached_house","address":"Wielkanocna 33A","residential":true,"residents_est":6,"h3_10":"8a1e05b4d637fff","h3_11":"8b1e05b4d635fff"},"geometry":{"type":"Polygon","coordinates":[[[19.862951,50.038002],[19.862953,50.037907],[19.863076,50.037908],[19.863074,50.038003],[19.862951,50.038002]]]}},{"type":"Feature","id":"w1541354095","properties":{"type":"semidetached_house","address":"Wielkanocna 33","residential":true,"residents_est":6,"h3_10":"8a1e05b4d637fff","h3_11":"8b1e05b4d635fff"},"geometry":{"type":"Polygon","coordinates":[[[19.863074,50.038003],[19.863076,50.037908],[19.863199,50.037909],[19.863197,50.038004],[19.863074,50.038003]]]}},{"type":"Feature","id":"w1541354096","properties":{"type":"semidetached_house","address":"Wielkanocna 31A","residential":true,"residents_est":6,"h3_10":"8a1e05b4d627fff","h3_11":"8b1e05b4d622fff"},"geometry":{"type":"Polygon","coordinates":[[[19.863349,50.038016],[19.863351,50.037922],[19.863475,50.037923],[19.863473,50.038017],[19.863349,50.038016]]]}},{"type":"Feature","id":"w1541354097","properties":{"type":"semidetached_house","address":"Wielkanocna 31","residential":true,"residents_est":5,"h3_10":"8a1e05b4d627fff","h3_11":"8b1e05b4d622fff"},"geometry":{"type":"Polygon","coordinates":[[[19.863473,50.038017],[19.863475,50.037923],[19.863598,50.037924],[19.863595,50.038018],[19.863473,50.038017]]]}}]}