{"type":"FeatureCollection","features":[{"type":"Feature","id":"w54531840","properties":{"type":"yes","levels":4.0,"address":"Gustawa Morcinka 23A","residential":true,"residents_est":4,"h3_10":"8a1e2e6ac9b7fff","h3_11":"8b1e2e6ac9b0fff"},"geometry":{"type":"Polygon","coordinates":[[[20.045176,50.10788],[20.045182,50.107871],[20.045423,50.107812],[20.045455,50.107865],[20.045444,50.107868],[20.045459,50.107893],[20.045455,50.107894],[20.045468,50.107916],[20.045487,50.107912],[20.045514,50.107967],[20.045327,50.108013],[20.045247,50.10804],[20.045231,50.108003],[20.045247,50.108],[20.045232,50.107975],[20.04524,50.107973],[20.045226,50.107951],[20.04522,50.107952],[20.045176,50.10788]]]}},{"type":"Feature","id":"w54531841","properties":{"type":"yes","address":"Gustawa Morcinka 13","residential":true,"residents_est":5,"h3_10":"8a1e2e6ac9b7fff","h3_11":"8b1e2e6ac9b2fff"},"geometry":{"type":"Polygon","coordinates":[[[20.044739,50.107376],[20.044881,50.10734],[20.045054,50.107625],[20.044912,50.107661],[20.044739,50.107376]]]}},{"type":"Feature","id":"w54531851","properties":{"type":"yes","address":"Gustawa Morcinka 15","residential":true,"residents_est":7,"h3_10":"8a1e2e6ac9b7fff","h3_11":"8b1e2e6ac9b3fff"},"geometry":{"type":"Polygon","coordinates":[[[20.045262,50.107405],[20.045457,50.107357],[20.045516,50.107458],[20.045508,50.10746],[20.045583,50.107585],[20.045591,50.107583],[20.045651,50.107684],[20.045457,50.107732],[20.045401,50.107637],[20.045374,50.107644],[20.045292,50.107506],[20.045319,50.107499],[20.045262,50.107405]]]}},{"type":"Feature","id":"w54531852","properties":{"type":"yes","address":"Gustawa Morcinka 11","residential":true,"residents_est":5,"h3_10":"8a1e2e6ac997fff","h3_11":"8b1e2e6ac994fff"},"geometry":{"type":"Polygon","coordinates":[[[20.044937,50.106907],[20.04508,50.106871],[20.045251,50.107158],[20.045108,50.107193],[20.044937,50.106907]]]}},{"type":"Feature","id":"w54531856","properties":{"type":"yes","address":"Gustawa Morcinka 23","residential":true,"residents_est":11,"h3_10":"8a1e2e6ac997fff","h3_11":"8b1e2e6ac995fff"},"geometry":{"type":"Polygon","coordinates":[[[20.045487,50.106928],[20.045663,50.106882],[20.045724,50.106977],[20.045704,50.106982],[20.045709,50.10699],[20.045698,50.107018],[20.045729,50.10706],[20.045758,50.107051],[20.045801,50.107109],[20.045818,50.107119],[20.045932,50.107291],[20.045917,50.107295],[20.045923,50.107304],[20.045918,50.107326],[20.045952,50.107373],[20.045974,50.107366],[20.046003,50.107405],[20.045984,50.107411],[20.045994,50.107426],[20.045998,50.107458],[20.046033,50.107509],[20.045889,50.107543],[20.045866,50.107508],[20.045883,50.107504],[20.045822,50.107411],[20.045808,50.107415],[20.045785,50.107379],[20.045804,50.107374],[20.045659,50.107141],[20.045648,50.107144],[20.045616,50.107093],[20.045586,50.1071],[20.045552,50.107047],[20.045574,50.107042],[20.045561,50.10702],[20.045547,50.107023],[20.045487,50.106928]]]}},{"type":"Feature","id":"w102048929","properties":{"type":"yes","residential":true,"residents_est":1,"h3_10":"8a1e2e6ac937fff","h3_11":"8b1e2e6ac935fff"},"geometry":{"type":"Polygon","coordinates":[[[20.048091,50.110614],[20.048211,50.110536],[20.048341,50.110619],[20.048221,50.110697],[20.048091,50.110614]]]}},{"type":"Feature","id":"w102048938","properties":{"type":"yes","residential":true,"residents_est":15,"h3_10":"8a1e2e6ac937fff","h3_11":"8b1e2e6ac934fff"},"geometry":{"type":"Polygon","coordinates":[[[20.047214,50.110538],[20.047394,50.110416],[20.048045,50.110813],[20.047865,50.110935],[20.047214,50.110538]]]}},{"type":"Feature","id":"w102048941","properties":{"type":"yes","address":"Gustawa Morcinka 23D","residential":true,"residents_est":1,"h3_10":"8a1e2e6ac987fff","h3_11":"8b1e2e6ac984fff"},"geometry":{"type":"Polygon","coordinates":[[[20.046436,50.107777],[20.046536,50.107739],[20.046693,50.107906],[20.046582,50.10795],[20.046462,50.107821],[20.046436,50.107777]]]}},{"type":"Feature","id":"w102048947","properties":{"type":"yes","residential":true,"residents_est":20,"h3_10":"8a1e2e6ac927fff","h3_11":"8b1e2e6ac926fff"},"geometry":{"type":"Polygon","coordinates":[[[20.048048,50.11106],[20.04826,50.110908],[20.049011,50.111341],[20.048799,50.111493],[20.048048,50.11106]]]}},{"type":"Feature","id":"w102048950","properties":{"type":"yes","residential":true,"residents_est":23,"h3_10":"8a1e2e6ac927fff","h3_11":"8b1e2e6ac922fff"},"geometry":{"type":"Polygon","coordinates":[[[20.048405,50.11081],[20.048636,50.110639],[20.049407,50.11107],[20.049176,50.111241],[20.048405,50.11081]]]}},{"type":"Feature","id":"w102048957","properties":{"type":"yes","address":"Gustawa Morcinka 23C","residential":true,"residents_est":0,"h3_10":"8a1e2e6ac9b7fff","h3_11":"8b1e2e6ac9b1fff"},"geometry":{"type":"Polygon","coordinates":[[[20.045854,50.107731],[20.045942,50.107704],[20.045983,50.107761],[20.045895,50.107788],[20.045854,50.107731]]]}},{"type":"Feature","id":"w102048959","properties":{"type":"yes","residential":true,"residents_est":7,"h3_10":"8a1e2e6ac937fff","h3_11":"8b1e2e6ac930fff"},"geometry":{"type":"Polygon","coordinates":[[[20.047515,50.110266],[20.047695,50.110138],[20.048016,50.110325],[20.047836,50.110453],[20.047515,50.110266]]]}},{"type":"Feature","id":"w114861978","properties":{"type":"yes","residential":true,"residents_est":3,"h3_10":"8a1e2e6ac90ffff","h3_11":"8b1e2e6ac909fff"},"geometry":{"type":"Polygon","coordinates":[[[20.05183,50.109785],[20.05208,50.109557],[20.052183,50.109604],[20.051933,50.109832],[20.05183,50.109785]]]}},{"type":"Feature","id":"w114861991","properties":{"type":"yes","address":"Kantorowicka 199","residential":true,"residents_est":1,"h3_10":"8a1e2e6ac92ffff","h3_11":"8b1e2e6ac92afff"},"geometry":{"type":"Polygon","coordinates":[[[20.05096,50.110463],[20.051045,50.110386],[20.051161,50.110439],[20.051088,50.110505],[20.051049,50.110487],[20.051033,50.110496],[20.05096,50.110463]]]}},{"type":"Feature","id":"w114861997","properties":{"type":"yes","name":"Plebania","residential":true,"residents_est":3,"h3_10":"8a1e2e6ac907fff","h3_11":"8b1e2e6ac906fff"},"geometry":{"type":"Polygon","coordinates":[[[20.048561,50.109982],[20.048606,50.109928],[20.04862,50.109933],[20.048691,50.109854],[20.048876,50.109921],[20.048851,50.10995],[20.048896,50.109967],[20.048847,50.11002],[20.048742,50.109983],[20.048699,50.110032],[20.048561,50.109982]]]}},{"type":"Feature","id":"w114862001","properties":{"type":"yes","address":"Kantorowicka 201","residential":true,"residents_est":1,"h3_10":"8a1e2e6ac90ffff","h3_11":"8b1e2e6ac90cfff"},"geometry":{"type":"Polygon","coordinates":[[[20.050741,50.110183],[20.050803,50.110107],[20.050941,50.110152],[20.050879,50.110229],[20.050741,50.110183]]]}},{"type":"Feature","id":"w114862007","properties":{"type":"yes","address":"Kantorowicka 207","residential":true,"residents_est":1,"h3_10":"8a1e2e6ac907fff","h3_11":"8b1e2e6ac902fff"},"geometry":{"type":"Polygon","coordinates":[[[20.049362,50.109609],[20.049438,50.109549],[20.049539,50.109601],[20.049463,50.109661],[20.04943,50.109644],[20.049417,50.109656],[20.049389,50.109642],[20.049403,50.109631],[20.049362,50.109609]]]}},{"type":"Feature","id":"w114862008","properties":{"type":"yes","address":"Kantorowicka 203a","residential":true,"residents_est":0,"h3_10":"8a1e2e6ac907fff","h3_11":"8b1e2e6ac901fff"},"geometry":{"type":"Polygon","coordinates":[[[20.050206,50.110012],[20.050318,50.109958],[20.050406,50.110033],[20.050294,50.110087],[20.050206,50.110012]]]}},{"type":"Feature","id":"w114862011","properties":{"type":"church","address":"Kantorowicka 253","name":"Kościół pw. Świętego Stanisława Biskupa i Męczennika","residential":false,"residents_est":0,"h3_10":"8a1e2e6ac907fff","h3_11":"8b1e2e6ac906fff"},"geometry":{"type":"Polygon","coordinates":[[[20.04908,50.110036],[20.049239,50.109855],[20.049385,50.109909],[20.049225,50.110089],[20.04908,50.110036]]]}},{"type":"Feature","id":"w114862013","properties":{"type":"yes","address":"Gustawa Morcinka 27b","residential":true,"residents_est":1,"h3_10":"8a1e2e6ac98ffff","h3_11":"8b1e2e6ac98cfff"},"geometry":{"type":"Polygon","coordinates":[[[20.048653,50.10749],[20.048782,50.107459],[20.048831,50.107543],[20.048822,50.107545],[20.048841,50.107579],[20.048753,50.1076],[20.048718,50.10754],[20.048692,50.107546],[20.048653,50.10749]]]}},{"type":"Feature","id":"w114862019","properties":{"type":"yes","residential":true,"residents_est":1,"h3_10":"8a1e2e6ac837fff","h3_11":"8b1e2e6ac832fff"},"geometry":{"type":"Polygon","coordinates":[[[20.049886,50.107307],[20.050075,50.107264],[20.0501,50.10731],[20.050052,50.107321],[20.050072,50.107366],[20.049938,50.1074],[20.049886,50.107307]]]}},{"type":"Feature","id":"w114862024","properties":{"type":"yes","address":"Gustawa Morcinka 29","residential":true,"residents_est":1,"h3_10":"8a1e2e6ac9affff","h3_11":"8b1e2e6ac9abfff"},"geometry":{"type":"Polygon","coordinates":[[[20.048747,50.107714],[20.048764,50.107696],[20.048795,50.107688],[20.048821,50.107695],[20.048874,50.10768],[20.048858,50.107656],[20.048937,50.107635],[20.049007,50.107743],[20.048819,50.107793],[20.048787,50.107743],[20.04876,50.107734],[20.048747,50.107714]]]}},{"type":"Feature","id":"w114862030","properties":{"type":"yes","address":"Gustawa Morcinka 27a","residential":true,"residents_est":1,"h3_10":"8a1e2e6ac98ffff","h3_11":"8b1e2e6ac98dfff"},"geometry":{"type":"Polygon","coordinates":[[[20.048964,50.107444],[20.048979,50.107424],[20.049101,50.1074],[20.049094,50.107388],[20.049162,50.107371],[20.049227,50.107486],[20.04907,50.107517],[20.049064,50.107506],[20.049037,50.107496],[20.049006,50.107505],[20.048964,50.107444]]]}},{"type":"Feature","id":"w114862041","properties":{"type":"yes","residential":true,"residents_est":1,"h3_10":"8a1e2e6ac9affff","h3_11":"8b1e2e6ac9aafff"},"geometry":{"type":"Polygon","coordinates":[[[20.048456,50.107855],[20.048546,50.107835],[20.048527,50.1078],[20.048576,50.107788],[20.048634,50.107894],[20.048555,50.107912],[20.048563,50.107924],[20.048503,50.10794],[20.048456,50.107855]]]}},{"type":"Feature","id":"w114862051","properties":{"type":"yes","residential":true,"residents_est":3,"h3_10":"8a1e2e6ac9affff","h3_11":"8b1e2e6ac9aefff"},"geometry":{"type":"Polygon","coordinates":[[[20.0479,50.108105],[20.048115,50.107988],[20.048204,50.108059],[20.048058,50.108134],[20.048133,50.108193],[20.048062,50.10823],[20.0479,50.108105]]]}},{"type":"Feature","id":"w114862054","properties":{"type":"yes","address":"Gustawa Morcinka 27","residential":true,"residents_est":0,"h3_10":"8a1e2e6ac98ffff","h3_11":"8b1e2e6ac98bfff"},"geometry":{"type":"Polygon","coordinates":[[[20.049135,50.106914],[20.049267,50.106879],[20.049317,50.106957],[20.049187,50.106991],[20.049135,50.106914]]]}},{"type":"Feature","id":"w114862056","properties":{"type":"yes","address":"Gustawa Morcinka 31","residential":true,"residents_est":1,"h3_10":"8a1e2e6ac837fff","h3_11":"8b1e2e6ac832fff"},"geometry":{"type":"Polygon","coordinates":[[[20.049852,50.107553],[20.049862,50.107455],[20.049987,50.107463],[20.049983,50.107501],[20.050011,50.107502],[20.050009,50.10752],[20.049964,50.107522],[20.04996,50.107558],[20.049852,50.107553]]]}},{"type":"Feature","id":"w114862064","properties":{"type":"yes","address":"Kantorowicka 257","residential":true,"residents_est":1,"h3_10":"8a1e2e6ac907fff","h3_11":"8b1e2e6ac905fff"},"geometry":{"type":"Polygon","coordinates":[[[20.049761,50.110421],[20.049787,50.110399],[20.049771,50.110391],[20.04977,50.110377],[20.049785,50.110365],[20.049804,50.110363],[20.04982,50.110371],[20.049847,50.110349],[20.049928,50.110382],[20.049923,50.110386],[20.049967,50.110408],[20.049954,50.110419],[20.049995,50.110439],[20.049936,50.110489],[20.049896,50.110469],[20.049882,50.11048],[20.049761,50.110421]]]}},{"type":"Feature","id":"w114862070","properties":{"type":"yes","residential":true,"residents_est":1,"h3_10":"8a1e2e6ac98ffff","h3_11":"8b1e2e6ac988fff"},"geometry":{"type":"Polygon","coordinates":[[[20.049132,50.107022],[20.049206,50.107001],[20.049262,50.107082],[20.049348,50.107059],[20.049378,50.107104],[20.049387,50.107181],[20.049258,50.107215],[20.049132,50.107022]]]}},{"type":"Feature","id":"w114862075","properties":{"type":"yes","address":"Zakole 55a","residential":true,"residents_est":1,"h3_10":"8a1e2e6ac977fff","h3_11":"8b1e2e6ac972fff"},"geometry":{"type":"Polygon","coordinates":[[[20.052199,50.110187],[20.052255,50.110103],[20.052393,50.11014],[20.052336,50.110224],[20.052199,50.110187]]]}},{"type":"Feature","id":"w114867721","properties":{"type":"yes","residential":true,"residents_est":0,"h3_10":"8a1e2e6ac8effff","h3_11":"8b1e2e6ac8e9fff"},"geometry":{"type":"Polygon","coordinates":[[[20.056433,50.105572],[20.056446,50.105563],[20.056457,50.105569],[20.056517,50.105527],[20.056625,50.105591],[20.056547,50.105644],[20.056433,50.105572]]]}},{"type":"Feature","id":"w114867838","properties":{"type":"yes","address":"Kantorowicka 151","residential":true,"residents_est":1,"h3_10":"8a1e2e6ac85ffff","h3_11":"8b1e2e6ac85efff"},"geometry":{"type":"Polygon","coordinates":[[[20.056539,50.106396],[20.056648,50.106326],[20.05662,50.106308],[20.056683,50.106268],[20.056802,50.106347],[20.056631,50.106457],[20.056539,50.106396]]]}},{"type":"Feature","id":"w114867941","properties":{"type":"yes","address":"Kantorowicka 147b","residential":true,"residents_est":1,"h3_10":"8a1e2e6ac8effff","h3_11":"8b1e2e6ac8eafff"},"geometry":{"type":"Polygon","coordinates":[[[20.055815,50.10533],[20.05585,50.105305],[20.055826,50.105291],[20.055916,50.105228],[20.056009,50.105283],[20.055925,50.105342],[20.05594,50.10535],[20.055901,50.105379],[20.055815,50.10533]]]}},{"type":"Feature","id":"w114867948","properties":{"type":"yes","address":"Kantorowicka 149","residential":true,"residents_est":4,"h3_10":"8a1e2e6ac85ffff","h3_11":"8b1e2e6ac858fff"},"geometry":{"type":"Polygon","coordinates":[[[20.057074,50.106363],[20.057109,50.106337],[20.057097,50.10633],[20.057136,50.106302],[20.05716,50.106301],[20.057191,50.106279],[20.05719,50.106263],[20.05723,50.106234],[20.057353,50.106305],[20.057329,50.106322],[20.057342,50.10633],[20.057312,50.106351],[20.057318,50.106355],[20.057299,50.106348],[20.05728,50.106362],[20.057296,50.106371],[20.057285,50.10637],[20.057257,50.10639],[20.057318,50.106425],[20.057259,50.106468],[20.057144,50.106403],[20.057139,50.106407],[20.057109,50.10639],[20.057115,50.106386],[20.057074,50.106363]]]}},{"type":"Feature","id":"w114867970","properties":{"type":"yes","address":"Gustawa Morcinka 49","residential":true,"residents_est":1,"h3_10":"8a1e2e6ac8cffff","h3_11":"8b1e2e6ac8ccfff"},"geometry":{"type":"Polygon","coordinates":[[[20.056212,50.104956],[20.056232,50.104941],[20.056249,50.104939],[20.056262,50.104946],[20.056308,50.104915],[20.056431,50.104988],[20.056355,50.10504],[20.056212,50.104956]]]}},{"type":"Feature","id":"w114867998","properties":{"type":"yes","address":"Gustawa Morcinka 49a","residential":true,"residents_est":1,"h3_10":"8a1e2e6ac8effff","h3_11":"8b1e2e6ac8ebfff"},"geometry":{"type":"Polygon","coordinates":[[[20.056548,50.105154],[20.056568,50.105139],[20.056585,50.105138],[20.056598,50.105145],[20.056643,50.105113],[20.056769,50.105188],[20.056691,50.105241],[20.056548,50.105154]]]}},{"type":"Feature","id":"w133234460","properties":{"type":"yes","residential":true,"residents_est":1,"h3_10":"8a1e2e6ac947fff","h3_11":"8b1e2e6ac940fff"},"geometry":{"type":"Polygon","coordinates":[[[20.05461,50.110128],[20.05469,50.110058],[20.054857,50.110138],[20.054775,50.110209],[20.05461,50.110128]]]}},{"type":"Feature","id":"w239841326","properties":{"type":"yes","levels":4.0,"residential":true,"residents_est":5,"h3_10":"8a1e2e6ac9a7fff","h3_11":"8b1e2e6ac9a3fff"},"geometry":{"type":"Polygon","coordinates":[[[20.04693,50.107968],[20.047028,50.107903],[20.047104,50.107951],[20.047117,50.107943],[20.047176,50.10798],[20.047163,50.107988],[20.047254,50.108046],[20.047268,50.108037],[20.047327,50.108075],[20.047314,50.108083],[20.04739,50.108131],[20.047292,50.108196],[20.047216,50.108148],[20.047209,50.108153],[20.047176,50.108133],[20.047184,50.108128],[20.047039,50.108036],[20.047031,50.108041],[20.046999,50.10802],[20.047006,50.108015],[20.04693,50.107968]]]}},{"type":"Feature","id":"w239841407","properties":{"type":"yes","levels":4.0,"residential":true,"residents_est":4,"h3_10":"8a1e2e6ac9a7fff","h3_11":"8b1e2e6ac9a3fff"},"geometry":{"type":"Polygon","coordinates":[[[20.046764,50.108193],[20.046862,50.108129],[20.046938,50.108177],[20.046951,50.108168],[20.04701,50.108205],[20.046997,50.108214],[20.047089,50.108271],[20.047102,50.108263],[20.047161,50.1083],[20.047148,50.108308],[20.047224,50.108356],[20.047127,50.108421],[20.047051,50.108373],[20.047044,50.108378],[20.04701,50.108358],[20.047018,50.108353],[20.046873,50.108261],[20.046865,50.108266],[20.046832,50.108246],[20.046839,50.108241],[20.046764,50.108193]]]}},{"type":"Feature","id":"w239841418","properties":{"type":"yes","levels":4.0,"residential":true,"residents_est":5,"h3_10":"8a1e2e6ac9a7fff","h3_11":"8b1e2e6ac9a0fff"},"geometry":{"type":"Polygon","coordinates":[[[20.046592,50.108415],[20.046691,50.108351],[20.046767,50.108398],[20.046779,50.10839],[20.046839,50.108427],[20.046826,50.108436],[20.046917,50.108493],[20.04693,50.108485],[20.04699,50.108522],[20.046977,50.10853],[20.047052,50.108578],[20.046954,50.108643],[20.046879,50.108595],[20.046871,50.108601],[20.046839,50.10858],[20.046846,50.108575],[20.046701,50.108483],[20.046694,50.108488],[20.046661,50.108467],[20.046668,50.108463],[20.046592,50.108415]]]}},{"type":"Feature","id":"w301687384","properties":{"type":"yes","address":"Kantorowicka 203","residential":true,"residents_est":1,"h3_10":"8a1e2e6ac907fff","h3_11":"8b1e2e6ac901fff"},"geometry":{"type":"Polygon","coordinates":[[[20.050055,50.110044],[20.050151,50.110005],[20.050258,50.110112],[20.050162,50.110151],[20.050055,50.110044]]]}},{"type":"Feature","id":"w301687385","properties":{"type":"yes","residential":true,"residents_est":4,"h3_10":"8a1e2e6ac90ffff","h3_11":"8b1e2e6ac909fff"},"geometry":{"type":"Polygon","coordinates":[[[20.05208,50.109557],[20.052333,50.109326],[20.052436,50.109373],[20.052183,50.109604],[20.05208,50.109557]]]}},{"type":"Feature","id":"w323729229","properties":{"type":"yes","residential":true,"residents_est":1,"h3_10":"8a1e2e6ac857fff","h3_11":"8b1e2e6ac851fff"},"geometry":{"type":"Polygon","coordinates":[[[20.056504,50.106615],[20.056569,50.106578],[20.056636,50.106628],[20.056573,50.106664],[20.056504,50.106615]]]}},{"type":"Feature","id":"w323729233","properties":{"type":"yes","residential":true,"residents_est":0,"h3_10":"8a1e2e6ac85ffff","h3_11":"8b1e2e6ac85afff"},"geometry":{"type":"Polygon","coordinates":[[[20.057315,50.106144],[20.0574,50.106085],[20.057464,50.106121],[20.057379,50.10618],[20.057315,50.106144]]]}},{"type":"Feature","id":"w323729242","properties":{"type":"yes","residential":true,"residents_est":0,"h3_10":"8a1e2e6ac85ffff","h3_11":"8b1e2e6ac85cfff"},"geometry":{"type":"Polygon","coordinates":[[[20.056634,50.106652],[20.056742,50.106598],[20.056786,50.106634],[20.056766,50.106643],[20.056791,50.106664],[20.056702,50.106709],[20.056634,50.106652]]]}},{"type":"Feature","id":"w323729244","properties":{"type":"yes","residential":true,"residents_est":0,"h3_10":"8a1e2e6ac85ffff","h3_11":"8b1e2e6ac858fff"},"geometry":{"type":"Polygon","coordinates":[[[20.057465,50.106249],[20.057559,50.106181],[20.057635,50.106225],[20.057541,50.106293],[20.057465,50.106249]]]}},{"type":"Feature","id":"w323729248","properties":{"type":"yes","residential":true,"residents_est":1,"h3_10":"8a1e2e6ac85ffff","h3_11":"8b1e2e6ac85efff"},"geometry":{"type":"Polygon","coordinates":[[[20.056929,50.106499],[20.057033,50.106432],[20.057145,50.106504],[20.05704,50.106571],[20.056929,50.106499]]]}},{"type":"Feature","id":"w323729254","properties":{"type":"yes","residential":true,"residents_est":1,"h3_10":"8a1e2e6ac85ffff","h3_11":"8b1e2e6ac85bfff"},"geometry":{"type":"Polygon","coordinates":[[[20.057416,50.106012],[20.057554,50.105916],[20.057638,50.105964],[20.0575,50.106062],[20.057416,50.106012]]]}},{"type":"Feature","id":"w323729258","properties":{"type":"yes","residential":true,"residents_est":1,"h3_10":"8a1e2e6ac847fff","h3_11":"8b1e2e6ac842fff"},"geometry":{"type":"Polygon","coordinates":[[[20.056897,50.107016],[20.056947,50.106997],[20.056958,50.107009],[20.057021,50.106987],[20.057003,50.106966],[20.057085,50.106936],[20.057104,50.106957],[20.057121,50.106951],[20.057197,50.10704],[20.057006,50.107108],[20.05698,50.107078],[20.056958,50.107086],[20.056897,50.107016]]]}},{"type":"Feature","id":"w323729263","properties":{"type":"yes","residential":true,"residents_est":1,"h3_10":"8a1e2e6ac8effff","h3_11":"8b1e2e6ac8e9fff"},"geometry":{"type":"Polygon","coordinates":[[[20.056565,50.105726],[20.056598,50.105702],[20.056576,50.105689],[20.05664,50.105646],[20.056754,50.105716],[20.056657,50.105783],[20.056565,50.105726]]]}},{"type":"Feature","id":"w323729270","properties":{"type":"yes","residential":true,"residents_est":1,"h3_10":"8a1e2e6ac857fff","h3_11":"8b1e2e6ac855fff"},"geometry":{"type":"Polygon","coordinates":[[[20.055634,50.107025],[20.055768,50.106957],[20.055773,50.106961],[20.055815,50.10694],[20.055899,50.107008],[20.055824,50.107053],[20.055833,50.107061],[20.055801,50.107077],[20.055791,50.10707],[20.055729,50.107102],[20.055634,50.107025]]]}},{"type":"Feature","id":"w338036434","properties":{"type":"yes","residential":true,"residents_est":1,"h3_10":"8a1e2e6ac977fff","h3_11":"8b1e2e6ac973fff"},"geometry":{"type":"Polygon","coordinates":[[[20.053084,50.110118],[20.053205,50.110022],[20.05329,50.110066],[20.053169,50.110162],[20.053084,50.110118]]]}},{"type":"Feature","id":"w338036445","properties":{"type":"yes","residential":true,"residents_est":1,"h3_10":"8a1e2e6ac80ffff","h3_11":"8b1e2e6ac80dfff"},"geometry":{"type":"Polygon","coordinates":[[[20.054222,50.107656],[20.054262,50.107626],[20.054279,50.107634],[20.054365,50.10757],[20.054481,50.107635],[20.054387,50.1077],[20.054327,50.107667],[20.05429,50.107694],[20.054222,50.107656]]]}},{"type":"Feature","id":"w338036454","properties":{"type":"yes","address":"Kantorowicka 269","residential":true,"residents_est":1,"h3_10":"8a1e2e6ac927fff","h3_11":"8b1e2e6ac923fff"},"geometry":{"type":"Polygon","coordinates":[[[20.049622,50.110842],[20.049747,50.110764],[20.04977,50.11078],[20.049781,50.110773],[20.0498,50.110774],[20.049813,50.110783],[20.049813,50.110795],[20.049803,50.110801],[20.04983,50.11082],[20.049705,50.110898],[20.049622,50.110842]]]}},{"type":"Feature","id":"w338036473","properties":{"type":"yes","address":"Kantorowicka 96","residential":true,"residents_est":0,"h3_10":"8a1e2e6ac92ffff","h3_11":"8b1e2e6ac928fff"},"geometry":{"type":"Polygon","coordinates":[[[20.051183,50.110793],[20.051277,50.11075],[20.051365,50.110817],[20.051254,50.110871],[20.051212,50.110837],[20.051227,50.11083],[20.051183,50.110793]]]}},{"type":"Feature","id":"w338036475","properties":{"type":"yes","residential":true,"residents_est":1,"h3_10":"8a1e2e6ac9affff","h3_11":"8b1e2e6ac9adfff"},"geometry":{"type":"Polygon","coordinates":[[[20.048823,50.108621],[20.048867,50.108577],[20.049081,50.108667],[20.049031,50.108716],[20.048823,50.108621]]]}},{"type":"Feature","id":"w338036479","properties":{"type":"yes","residential":true,"residents_est":1,"h3_10":"8a1e2e6ac95ffff","h3_11":"8b1e2e6ac95cfff"},"geometry":{"type":"Polygon","coordinates":[[[20.054787,50.109146],[20.054884,50.109087],[20.055035,50.109195],[20.054952,50.109258],[20.054872,50.109205],[20.054846,50.10922],[20.054801,50.109188],[20.054826,50.109173],[20.054787,50.109146]]]}},{"type":"Feature","id":"w338036482","properties":{"type":"yes","residential":true,"residents_est":1,"h3_10":"8a1e2e6ac95ffff","h3_11":"8b1e2e6ac958fff"},"geometry":{"type":"Polygon","coordinates":[[[20.054766,50.108958],[20.054951,50.108829],[20.055096,50.108914],[20.054957,50.109012],[20.05488,50.108966],[20.054834,50.108998],[20.054766,50.108958]]]}},{"type":"Feature","id":"w338036485","properties":{"type":"yes","residential":true,"residents_est":1,"h3_10":"8a1e2e6ac877fff","h3_11":"8b1e2e6ac874fff"},"geometry":{"type":"Polygon","coordinates":[[[20.054994,50.108088],[20.055044,50.108052],[20.055055,50.108058],[20.055094,50.10803],[20.055138,50.108055],[20.055129,50.108062],[20.05521,50.108109],[20.055121,50.108173],[20.055026,50.108128],[20.055042,50.108116],[20.054994,50.108088]]]}},{"type":"Feature","id":"w338036493","properties":{"type":"yes","address":"Kantorowicka 265","residential":true,"residents_est":1,"h3_10":"8a1e2e6ac92ffff","h3_11":"8b1e2e6ac92efff"},"geometry":{"type":"Polygon","coordinates":[[[20.050225,50.110762],[20.050356,50.110676],[20.050398,50.110702],[20.050422,50.110686],[20.05048,50.110723],[20.050414,50.110766],[20.050455,50.110792],[20.050421,50.110815],[20.050439,50.110826],[20.050354,50.110882],[20.050289,50.110842],[20.05032,50.110822],[20.050225,50.110762]]]}},{"type":"Feature","id":"w338036497","properties":{"type":"yes","residential":true,"residents_est":1,"h3_10":"8a1e2e6ac877fff","h3_11":"8b1e2e6ac876fff"},"geometry":{"type":"Polygon","coordinates":[[[20.05436,50.107924],[20.054394,50.107895],[20.054425,50.107911],[20.054433,50.107903],[20.054523,50.107946],[20.054463,50.107997],[20.054439,50.107985],[20.054428,50.107993],[20.054406,50.107983],[20.054417,50.107974],[20.054373,50.107953],[20.05439,50.107939],[20.05436,50.107924]]]}},{"type":"Feature","id":"w338036509","properties":{"type":"yes","residential":true,"residents_est":4,"h3_10":"8a1e2e6ac9affff","h3_11":"8b1e2e6ac9acfff"},"geometry":{"type":"Polygon","coordinates":[[[20.048199,50.108357],[20.048247,50.108311],[20.048845,50.108568],[20.048794,50.108617],[20.048458,50.10847],[20.048462,50.108466],[20.048199,50.108357]]]}},{"type":"Feature","id":"w338036512","properties":{"type":"yes","residential":true,"residents_est":1,"h3_10":"8a1e2e6ac99ffff","h3_11":"8b1e2e6ac99cfff"},"geometry":{"type":"Polygon","coordinates":[[[20.047093,50.106696],[20.047117,50.106678],[20.047154,50.106676],[20.047184,50.106665],[20.047157,50.106634],[20.047296,50.106582],[20.047344,50.106634],[20.047265,50.106664],[20.04731,50.106713],[20.047185,50.106761],[20.047157,50.106731],[20.047125,50.106732],[20.047098,50.106719],[20.047093,50.106696]]]}},{"type":"Feature","id":"w338036520","properties":{"type":"yes","residential":true,"residents_est":1,"h3_10":"8a1e2e6ac877fff","h3_11":"8b1e2e6ac876fff"},"geometry":{"type":"Polygon","coordinates":[[[20.05452,50.107801],[20.054579,50.107752],[20.054569,50.107746],[20.054627,50.107698],[20.05474,50.107753],[20.054651,50.107828],[20.054644,50.107825],[20.054617,50.107848],[20.05452,50.107801]]]}},{"type":"Feature","id":"w338036525","properties":{"type":"yes","residential":true,"residents_est":1,"h3_10":"8a1e2e6ac9affff","h3_11":"8b1e2e6ac9a8fff"},"geometry":{"type":"Polygon","coordinates":[[[20.048358,50.108244],[20.048564,50.108112],[20.048612,50.108143],[20.048545,50.108186],[20.048567,50.1082],[20.04848,50.108255],[20.04851,50.108275],[20.048469,50.108302],[20.04844,50.108283],[20.048429,50.10829],[20.048358,50.108244]]]}},{"type":"Feature","id":"w338036534","properties":{"type":"yes","residential":true,"residents_est":1,"h3_10":"8a1e2e6ac987fff","h3_11":"8b1e2e6ac983fff"},"geometry":{"type":"Polygon","coordinates":[[[20.047302,50.106971],[20.047351,50.106952],[20.047357,50.106939],[20.047378,50.106931],[20.047399,50.106933],[20.047449,50.106914],[20.047474,50.106944],[20.04748,50.106942],[20.047483,50.106946],[20.047476,50.106952],[20.047489,50.106966],[20.047517,50.106956],[20.047544,50.106985],[20.047375,50.107051],[20.047302,50.106971]]]}},{"type":"Feature","id":"w338036539","properties":{"type":"yes","residential":true,"residents_est":0,"h3_10":"8a1e2e6ac90ffff","h3_11":"8b1e2e6ac90bfff"},"geometry":{"type":"Polygon","coordinates":[[[20.052035,50.109364],[20.052141,50.109267],[20.052182,50.109285],[20.052079,50.109382],[20.052035,50.109364]]]}},{"type":"Feature","id":"w338036541","properties":{"type":"yes","residential":true,"residents_est":0,"h3_10":"8a1e2e6ac967fff","h3_11":"8b1e2e6ac962fff"},"geometry":{"type":"Polygon","coordinates":[[[20.054212,50.110805],[20.054291,50.110732],[20.05436,50.110766],[20.054281,50.110838],[20.054212,50.110805]]]}},{"type":"Feature","id":"w338036543","properties":{"type":"yes","residential":true,"residents_est":1,"h3_10":"8a1e2e6ac94ffff","h3_11":"8b1e2e6ac94efff"},"geometry":{"type":"Polygon","coordinates":[[[20.055394,50.109591],[20.055477,50.109518],[20.055583,50.10957],[20.055501,50.109642],[20.055394,50.109591]]]}},{"type":"Feature","id":"w338036550","properties":{"type":"yes","residential":true,"residents_est":0,"h3_10":"8a1e2e6ac977fff","h3_11":"8b1e2e6ac971fff"},"geometry":{"type":"Polygon","coordinates":[[[20.053346,50.110465],[20.053413,50.110411],[20.053474,50.110442],[20.053405,50.110497],[20.053346,50.110465]]]}},{"type":"Feature","id":"w338036583","properties":{"type":"yes","residential":false,"residents_est":0,"h3_10":"8a1e2e6ac90ffff","h3_11":"8b1e2e6ac90afff"},"geometry":{"type":"Polygon","coordinates":[[[20.051057,50.10946],[20.051117,50.109432],[20.051175,50.109482],[20.051115,50.109511],[20.051057,50.10946]]]}},{"type":"Feature","id":"w338036597","properties":{"type":"yes","residential":true,"residents_est":0,"h3_10":"8a1e2e6ac92ffff","h3_11":"8b1e2e6ac92bfff"},"geometry":{"type":"Polygon","coordinates":[[[20.051665,50.110478],[20.051811,50.110442],[20.051847,50.110501],[20.051702,50.110539],[20.051665,50.110478]]]}},{"type":"Feature","id":"w338036598","properties":{"type":"yes","residential":true,"residents_est":1,"h3_10":"8a1e2e6ac857fff","h3_11":"8b1e2e6ac854fff"},"geometry":{"type":"Polygon","coordinates":[[[20.055187,50.107067],[20.055264,50.107028],[20.055403,50.107138],[20.055329,50.107177],[20.055187,50.107067]]]}},{"type":"Feature","id":"w338036615","properties":{"type":"yes","residential":true,"residents_est":1,"h3_10":"8a1e2e6ac957fff","h3_11":"8b1e2e6ac954fff"},"geometry":{"type":"Polygon","coordinates":[[[20.052464,50.109762],[20.052532,50.109685],[20.05264,50.109725],[20.052573,50.109802],[20.052464,50.109762]]]}},{"type":"Feature","id":"w338036616","properties":{"type":"yes","residential":false,"residents_est":0,"h3_10":"8a1e2e6ac907fff","h3_11":"8b1e2e6ac901fff"},"geometry":{"type":"Polygon","coordinates":[[[20.050489,50.110129],[20.050547,50.110062],[20.050604,50.110081],[20.050551,50.110148],[20.050489,50.110129]]]}},{"type":"Feature","id":"w338036618","properties":{"type":"yes","residential":true,"residents_est":0,"h3_10":"8a1e2e6ac80ffff","h3_11":"8b1e2e6ac80dfff"},"geometry":{"type":"Polygon","coordinates":[[[20.054522,50.107549],[20.0546,50.107484],[20.054665,50.107519],[20.054587,50.107583],[20.054522,50.107549]]]}},{"type":"Feature","id":"w338036636","properties":{"type":"yes","residential":true,"residents_est":0,"h3_10":"8a1e2e6ac837fff","h3_11":"8b1e2e6ac832fff"},"geometry":{"type":"Polygon","coordinates":[[[20.050191,50.107612],[20.050202,50.107526],[20.050293,50.107531],[20.050282,50.107617],[20.050191,50.107612]]]}},{"type":"Feature","id":"w338036645","properties":{"type":"yes","residential":true,"residents_est":0,"h3_10":"8a1e2e6ac96ffff","h3_11":"8b1e2e6ac96bfff"},"geometry":{"type":"Polygon","coordinates":[[[20.056216,50.110407],[20.05628,50.110342],[20.056393,50.110386],[20.056328,50.110451],[20.056216,50.110407]]]}},{"type":"Feature","id":"w338036646","properties":{"type":"yes","residential":true,"residents_est":1,"h3_10":"8a1e2e6ac977fff","h3_11":"8b1e2e6ac971fff"},"geometry":{"type":"Polygon","coordinates":[[[20.053406,50.110588],[20.053483,50.110529],[20.053599,50.110591],[20.053522,50.11065],[20.053406,50.110588]]]}},{"type":"Feature","id":"w338036647","properties":{"type":"yes","residential":true,"residents_est":1,"h3_10":"8a1e2e6ac857fff","h3_11":"8b1e2e6ac854fff"},"geometry":{"type":"Polygon","coordinates":[[[20.054898,50.107006],[20.055131,50.106906],[20.055208,50.10698],[20.054976,50.10708],[20.054898,50.107006]]]}},{"type":"Feature","id":"w338036655","properties":{"type":"yes","residential":true,"residents_est":0,"h3_10":"8a1e2e6ac90ffff","h3_11":"8b1e2e6ac908fff"},"geometry":{"type":"Polygon","coordinates":[[[20.05168,50.10969],[20.051786,50.109592],[20.051828,50.109611],[20.051722,50.109709],[20.05168,50.10969]]]}},{"type":"Feature","id":"w338036657","properties":{"type":"yes","residential":true,"residents_est":0,"h3_10":"8a1e2e6ac82ffff","h3_11":"8b1e2e6ac82bfff"},"geometry":{"type":"Polygon","coordinates":[[[20.053881,50.107651],[20.053999,50.107613],[20.05403,50.107652],[20.053912,50.10769],[20.053881,50.107651]]]}},{"type":"Feature","id":"w338036658","properties":{"type":"yes","residential":true,"residents_est":1,"h3_10":"8a1e2e6ac967fff","h3_11":"8b1e2e6ac966fff"},"geometry":{"type":"Polygon","coordinates":[[[20.053241,50.111043],[20.053323,50.11097],[20.05344,50.111025],[20.053359,50.111098],[20.053241,50.111043]]]}},{"type":"Feature","id":"w338036659","properties":{"type":"yes","residential":true,"residents_est":1,"h3_10":"8a1e2e6ac977fff","h3_11":"8b1e2e6ac970fff"},"geometry":{"type":"Polygon","coordinates":[[[20.05257,50.110377],[20.052611,50.110293],[20.052752,50.110322],[20.052713,50.110404],[20.05257,50.110377]]]}},{"type":"Feature","id":"w338036663","properties":{"type":"yes","residential":true,"residents_est":0,"h3_10":"8a1e2e6ac957fff","h3_11":"8b1e2e6ac954fff"},"geometry":{"type":"Polygon","coordinates":[[[20.052777,50.109752],[20.052829,50.109701],[20.052958,50.109758],[20.052903,50.109808],[20.052777,50.109752]]]}},{"type":"Feature","id":"w338036671","properties":{"type":"yes","residential":true,"residents_est":7,"h3_10":"8a1e2e6ac95ffff","h3_11":"8b1e2e6ac95bfff"},"geometry":{"type":"Polygon","coordinates":[[[20.055185,50.108649],[20.055393,50.108501],[20.055661,50.108655],[20.055453,50.108804],[20.055185,50.108649]]]}},{"type":"Feature","id":"w338036679","properties":{"type":"yes","residential":true,"residents_est":0,"h3_10":"8a1e2e6ac877fff","h3_11":"8b1e2e6ac874fff"},"geometry":{"type":"Polygon","coordinates":[[[20.054833,50.108225],[20.054893,50.108183],[20.054989,50.108239],[20.05493,50.108281],[20.054833,50.108225]]]}},{"type":"Feature","id":"w338036687","properties":{"type":"yes","residential":true,"residents_est":1,"h3_10":"8a1e2e6ac82ffff","h3_11":"8b1e2e6ac829fff"},"geometry":{"type":"Polygon","coordinates":[[[20.054046,50.108123],[20.054124,50.108072],[20.054243,50.108149],[20.054165,50.1082],[20.054046,50.108123]]]}},{"type":"Feature","id":"w338036690","properties":{"type":"yes","residential":true,"residents_est":1,"h3_10":"8a1e2e6ac96ffff","h3_11":"8b1e2e6ac96afff"},"geometry":{"type":"Polygon","coordinates":[[[20.055926,50.11034],[20.055999,50.11027],[20.056116,50.11032],[20.056044,50.11039],[20.055926,50.11034]]]}},{"type":"Feature","id":"w338036695","properties":{"type":"yes","residential":true,"residents_est":0,"h3_10":"8a1e2e6ac947fff","h3_11":"8b1e2e6ac940fff"},"geometry":{"type":"Polygon","coordinates":[[[20.054436,50.110112],[20.054491,50.110072],[20.054571,50.110117],[20.054516,50.110157],[20.054436,50.110112]]]}},{"type":"Feature","id":"w338036699","properties":{"type":"yes","address":"Kantorowicka 193","residential":true,"residents_est":0,"h3_10":"8a1e2e6ac90ffff","h3_11":"8b1e2e6ac90cfff"},"geometry":{"type":"Polygon","coordinates":[[[20.051278,50.109898],[20.051317,50.109855],[20.051425,50.109895],[20.051387,50.109938],[20.051278,50.109898]]]}},{"type":"Feature","id":"w338036700","properties":{"type":"yes","residential":true,"residents_est":0,"h3_10":"8a1e2e6ac877fff","h3_11":"8b1e2e6ac876fff"},"geometry":{"type":"Polygon","coordinates":[[[20.05425,50.107815],[20.054312,50.107764],[20.054385,50.107801],[20.054324,50.107851],[20.05425,50.107815]]]}},{"type":"Feature","id":"w338036717","properties":{"type":"yes","residential":true,"residents_est":1,"h3_10":"8a1e2e6ac80ffff","h3_11":"8b1e2e6ac80cfff"},"geometry":{"type":"Polygon","coordinates":[[[20.053411,50.107384],[20.053493,50.107368],[20.053559,50.107503],[20.053477,50.107519],[20.053411,50.107384]]]}},{"type":"Feature","id":"w338036718","properties":{"type":"yes","residential":true,"residents_est":1,"h3_10":"8a1e2e6ac94ffff","h3_11":"8b1e2e6ac94cfff"},"geometry":{"type":"Polygon","coordinates":[[[20.056222,50.110047],[20.056338,50.109947],[20.056451,50.109999],[20.056342,50.110098],[20.056222,50.110047]]]}},{"type":"Feature","id":"w338036726","properties":{"type":"yes","residential":true,"residents_est":0,"h3_10":"8a1e2e6ac98ffff","h3_11":"8b1e2e6ac98bfff"},"geometry":{"type":"Polygon","coordinates":[[[20.049024,50.106597],[20.049137,50.106563],[20.049183,50.106626],[20.049071,50.106661],[20.049024,50.106597]]]}},{"type":"Feature","id":"w338036732","properties":{"type":"yes","residential":true,"residents_est":0,"h3_10":"8a1e2e6ac94ffff","h3_11":"8b1e2e6ac94cfff"},"geometry":{"type":"Polygon","coordinates":[[[20.056272,50.110233],[20.056354,50.110158],[20.056412,50.110184],[20.056329,50.110259],[20.056272,50.110233]]]}},{"type":"Feature","id":"w338036736","properties":{"type":"yes","residential":true,"residents_est":0,"h3_10":"8a1e2e6ac957fff","h3_11":"8b1e2e6ac951fff"},"geometry":{"type":"Polygon","coordinates":[[[20.054061,50.109322],[20.054189,50.109238],[20.054278,50.109295],[20.054149,50.109378],[20.054061,50.109322]]]}},{"type":"Feature","id":"w338036737","properties":{"type":"yes","residential":true,"residents_est":1,"h3_10":"8a1e2e6ac947fff","h3_11":"8b1e2e6ac944fff"},"geometry":{"type":"Polygon","coordinates":[[[20.054096,50.11035],[20.054395,50.110106],[20.054473,50.110146],[20.054173,50.110389],[20.054096,50.11035]]]}},{"type":"Feature","id":"w338036747","properties":{"type":"yes","residential":true,"residents_est":0,"h3_10":"8a1e2e6ac957fff","h3_11":"8b1e2e6ac951fff"},"geometry":{"type":"Polygon","coordinates":[[[20.053538,50.109362],[20.053577,50.109314],[20.053697,50.109354],[20.053658,50.109402],[20.053538,50.109362]]]}},{"type":"Feature","id":"w338036760","properties":{"type":"yes","residential":true,"residents_est":1,"h3_10":"8a1e2e6ac94ffff","h3_11":"8b1e2e6ac94cfff"},"geometry":{"type":"Polygon","coordinates":[[[20.055716,50.110106],[20.055795,50.110033],[20.05591,50.110084],[20.055831,50.110157],[20.055716,50.110106]]]}},{"type":"Feature","id":"w338036763","properties":{"type":"yes","residential":true,"residents_est":1,"h3_10":"8a1e2e6ac847fff","h3_11":"8b1e2e6ac846fff"},"geometry":{"type":"Polygon","coordinates":[[[20.055907,50.107472],[20.056044,50.107414],[20.05607,50.107436],[20.056087,50.107437],[20.056104,50.107452],[20.056101,50.107463],[20.056126,50.107485],[20.056033,50.107529],[20.056019,50.107518],[20.055981,50.107535],[20.055907,50.107472]]]}},{"type":"Feature","id":"w338036769","properties":{"type":"yes","residential":true,"residents_est":0,"h3_10":"8a1e2e6ac967fff","h3_11":"8b1e2e6ac965fff"},"geometry":{"type":"Polygon","coordinates":[[[20.054581,50.11157],[20.05464,50.111482],[20.054765,50.111516],[20.054705,50.111604],[20.054581,50.11157]]]}},{"type":"Feature","id":"w338036785","properties":{"type":"yes","residential":true,"residents_est":0,"h3_10":"8a1e2e6ac967fff","h3_11":"8b1e2e6ac963fff"},"geometry":{"type":"Polygon","coordinates":[[[20.05446,50.110814],[20.054394,50.110873],[20.054509,50.110925],[20.054575,50.110866],[20.054549,50.110854],[20.054568,50.110836],[20.05452,50.110814],[20.054501,50.110832],[20.05446,50.110814]],[[20.054398,50.110872],[20.054397,50.110872],[20.054397,50.110871],[20.054398,50.110872]]]}},{"type":"Feature","id":"w338036797","properties":{"type":"yes","residential":true,"residents_est":1,"h3_10":"8a1e2e6ac957fff","h3_11":"8b1e2e6ac953fff"},"geometry":{"type":"Polygon","coordinates":[[[20.053694,50.109027],[20.053796,50.108967],[20.053894,50.109034],[20.053793,50.109095],[20.053694,50.109027]]]}},{"type":"Feature","id":"w338036809","properties":{"type":"yes","residential":true,"residents_est":1,"h3_10":"8a1e2e6ac94ffff","h3_11":"8b1e2e6ac94efff"},"geometry":{"type":"Polygon","coordinates":[[[20.055889,50.109586],[20.056005,50.109483],[20.056151,50.109553],[20.056036,50.109655],[20.055889,50.109586]]]}},{"type":"Feature","id":"w338036814","properties":{"type":"yes","residential":true,"residents_est":0,"h3_10":"8a1e2e6ac967fff","h3_11":"8b1e2e6ac964fff"},"geometry":{"type":"Polygon","coordinates":[[[20.054201,50.111408],[20.054251,50.111344],[20.054376,50.111384],[20.054326,50.111448],[20.054201,50.111408]]]}},{"type":"Feature","id":"w338036838","properties":{"type":"yes","residential":true,"residents_est":1,"h3_10":"8a1e2e6ac947fff","h3_11":"8b1e2e6ac942fff"},"geometry":{"type":"Polygon","coordinates":[[[20.054201,50.109486],[20.054285,50.109427],[20.054454,50.109526],[20.05437,50.109585],[20.054201,50.109486]]]}},{"type":"Feature","id":"w338036839","properties":{"type":"yes","residential":true,"residents_est":0,"h3_10":"8a1e2e6ac907fff","h3_11":"8b1e2e6ac902fff"},"geometry":{"type":"Polygon","coordinates":[[[20.049223,50.10951],[20.049263,50.109477],[20.049313,50.109502],[20.049324,50.109493],[20.049362,50.109511],[20.049311,50.109554],[20.049223,50.10951]]]}},{"type":"Feature","id":"w338036855","properties":{"type":"yes","residential":true,"residents_est":0,"h3_10":"8a1e2e6ac94ffff","h3_11":"8b1e2e6ac94afff"},"geometry":{"type":"Polygon","coordinates":[[[20.055861,50.10946],[20.055951,50.109388],[20.056012,50.10942],[20.055923,50.109491],[20.055861,50.10946]]]}},{"type":"Feature","id":"w338036861","properties":{"type":"yes","residential":false,"residents_est":0,"h3_10":"8a1e2e6ac967fff","h3_11":"8b1e2e6ac966fff"},"geometry":{"type":"Polygon","coordinates":[[[20.053733,50.111242],[20.053774,50.111207],[20.053863,50.11125],[20.053822,50.111285],[20.053733,50.111242]]]}},{"type":"Feature","id":"w338036866","properties":{"type":"yes","address":"Kantorowicka 94","residential":true,"residents_est":1,"h3_10":"8a1e2e6ac92ffff","h3_11":"8b1e2e6ac92bfff"},"geometry":{"type":"Polygon","coordinates":[[[20.051402,50.110483],[20.05148,50.110422],[20.051517,50.110442],[20.051534,50.110428],[20.051569,50.110447],[20.051552,50.110461],[20.051587,50.110481],[20.05151,50.110541],[20.051402,50.110483]]]}},{"type":"Feature","id":"w338036871","properties":{"type":"yes","residential":true,"residents_est":0,"h3_10":"8a1e2e6ac967fff","h3_11":"8b1e2e6ac965fff"},"geometry":{"type":"Polygon","coordinates":[[[20.0549,50.111631],[20.054937,50.111562],[20.055056,50.111587],[20.055021,50.111657],[20.0549,50.111631]]]}},{"type":"Feature","id":"w338036880","properties":{"type":"yes","residential":true,"residents_est":1,"h3_10":"8a1e2e6ac95ffff","h3_11":"8b1e2e6ac95efff"},"geometry":{"type":"Polygon","coordinates":[[[20.05416,50.109213],[20.054375,50.109077],[20.054433,50.109115],[20.054217,50.10925],[20.05416,50.109213]]]}},{"type":"Feature","id":"w338036893","properties":{"type":"yes","residential":true,"residents_est":1,"h3_10":"8a1e2e6ac94ffff","h3_11":"8b1e2e6ac94efff"},"geometry":{"type":"Polygon","coordinates":[[[20.055508,50.109752],[20.055624,50.109651],[20.055717,50.109695],[20.055601,50.109796],[20.055508,50.109752]]]}},{"type":"Feature","id":"w338036908","properties":{"type":"yes","residential":true,"residents_est":1,"h3_10":"8a1e2e6ac94ffff","h3_11":"8b1e2e6ac948fff"},"geometry":{"type":"Polygon","coordinates":[[[20.05607,50.109727],[20.056153,50.109656],[20.056267,50.10971],[20.056184,50.109783],[20.05607,50.109727]]]}},{"type":"Feature","id":"w338036915","properties":{"type":"yes","residential":true,"residents_est":1,"h3_10":"8a1e2e6ac857fff","h3_11":"8b1e2e6ac850fff"},"geometry":{"type":"Polygon","coordinates":[[[20.055223,50.106859],[20.05533,50.106813],[20.055443,50.106923],[20.055336,50.106968],[20.055223,50.106859]]]}},{"type":"Feature","id":"w338036919","properties":{"type":"yes","residential":true,"residents_est":1,"h3_10":"8a1e2e6ac947fff","h3_11":"8b1e2e6ac940fff"},"geometry":{"type":"Polygon","coordinates":[[[20.054728,50.109886],[20.054842,50.109819],[20.05499,50.109925],[20.054902,50.109976],[20.054816,50.109915],[20.054791,50.10993],[20.054728,50.109886]]]}},{"type":"Feature","id":"w338036930","properties":{"type":"yes","residential":true,"residents_est":0,"h3_10":"8a1e2e6ac937fff","h3_11":"8b1e2e6ac936fff"},"geometry":{"type":"Polygon","coordinates":[[[20.047088,50.110283],[20.047144,50.110243],[20.047264,50.110314],[20.04721,50.110354],[20.047088,50.110283]]]}},{"type":"Feature","id":"w338036937","properties":{"type":"yes","residential":true,"residents_est":1,"h3_10":"8a1e2e6ac877fff","h3_11":"8b1e2e6ac873fff"},"geometry":{"type":"Polygon","coordinates":[[[20.055468,50.107497],[20.05555,50.10746],[20.055654,50.107555],[20.055572,50.107593],[20.055468,50.107497]]]}},{"type":"Feature","id":"w338036959","properties":{"type":"yes","residential":true,"residents_est":1,"h3_10":"8a1e2e6ac877fff","h3_11":"8b1e2e6ac872fff"},"geometry":{"type":"Polygon","coordinates":[[[20.054845,50.107269],[20.054942,50.107229],[20.055031,50.107321],[20.054935,50.107361],[20.054845,50.107269]]]}},{"type":"Feature","id":"w338036974","properties":{"type":"yes","residential":true,"residents_est":1,"h3_10":"8a1e2e6ac957fff","h3_11":"8b1e2e6ac950fff"},"geometry":{"type":"Polygon","coordinates":[[[20.053193,50.109333],[20.053254,50.109255],[20.053386,50.109297],[20.053325,50.109376],[20.053193,50.109333]]]}},{"type":"Feature","id":"w338036978","properties":{"type":"yes","residential":true,"residents_est":0,"h3_10":"8a1e2e6ac967fff","h3_11":"8b1e2e6ac961fff"},"geometry":{"type":"Polygon","coordinates":[[[20.055099,50.111033],[20.055179,50.11097],[20.055293,50.11103],[20.055212,50.111093],[20.055099,50.111033]]]}},{"type":"Feature","id":"w338036989","properties":{"type":"yes","residential":true,"residents_est":1,"h3_10":"8a1e2e6ac947fff","h3_11":"8b1e2e6ac941fff"},"geometry":{"type":"Polygon","coordinates":[[[20.055345,50.110002],[20.055457,50.109907],[20.055557,50.109955],[20.055445,50.110052],[20.055345,50.110002]]]}},{"type":"Feature","id":"w338036991","properties":{"type":"yes","residential":true,"residents_est":1,"h3_10":"8a1e2e6ac977fff","h3_11":"8b1e2e6ac970fff"},"geometry":{"type":"Polygon","coordinates":[[[20.052776,50.110407],[20.052822,50.110314],[20.052896,50.11032],[20.052894,50.110371],[20.05283,50.110427],[20.052776,50.110407]]]}},{"type":"Feature","id":"w338037004","properties":{"type":"yes","residential":true,"residents_est":0,"h3_10":"8a1e2e6ac957fff","h3_11":"8b1e2e6ac950fff"},"geometry":{"type":"Polygon","coordinates":[[[20.053179,50.109171],[20.053207,50.109137],[20.053188,50.10913],[20.053206,50.109108],[20.053225,50.109114],[20.053248,50.109085],[20.053342,50.109116],[20.053274,50.109201],[20.053179,50.109171]]]}},{"type":"Feature","id":"w338037020","properties":{"type":"yes","residential":true,"residents_est":1,"h3_10":"8a1e2e6ac877fff","h3_11":"8b1e2e6ac870fff"},"geometry":{"type":"Polygon","coordinates":[[[20.055423,50.10771],[20.055534,50.107645],[20.055609,50.107699],[20.055494,50.107763],[20.055423,50.10771]]]}},{"type":"Feature","id":"w338037026","properties":{"type":"yes","residential":true,"residents_est":1,"h3_10":"8a1e2e6ac967fff","h3_11":"8b1e2e6ac963fff"},"geometry":{"type":"Polygon","coordinates":[[[20.054353,50.110692],[20.054456,50.110586],[20.054544,50.110624],[20.054442,50.110729],[20.054353,50.110692]]]}},{"type":"Feature","id":"w338037030","properties":{"type":"yes","residential":true,"residents_est":1,"h3_10":"8a1e2e6ac977fff","h3_11":"8b1e2e6ac971fff"},"geometry":{"type":"Polygon","coordinates":[[[20.053498,50.110304],[20.053567,50.110247],[20.053721,50.110325],[20.053652,50.110382],[20.053498,50.110304]]]}},{"type":"Feature","id":"w338037042","properties":{"type":"yes","residential":true,"residents_est":0,"h3_10":"8a1e2e6ac807fff","h3_11":"8b1e2e6ac801fff"},"geometry":{"type":"Polygon","coordinates":[[[20.052768,50.107684],[20.052896,50.107675],[20.052905,50.107723],[20.052832,50.107729],[20.052829,50.107715],[20.052774,50.10772],[20.052768,50.107684]]]}},{"type":"Feature","id":"w338037045","properties":{"type":"yes","residential":true,"residents_est":0,"h3_10":"8a1e2e6ac877fff","h3_11":"8b1e2e6ac872fff"},"geometry":{"type":"Polygon","coordinates":[[[20.054713,50.107621],[20.054799,50.107558],[20.054893,50.107612],[20.054799,50.10768],[20.054713,50.107621]]]}},{"type":"Feature","id":"w338037051","properties":{"type":"yes","residential":true,"residents_est":0,"h3_10":"8a1e2e6ac98ffff","h3_11":"8b1e2e6ac98bfff"},"geometry":{"type":"Polygon","coordinates":[[[20.04889,50.10669],[20.048937,50.106675],[20.048912,50.106645],[20.048953,50.106631],[20.049007,50.106696],[20.048921,50.106725],[20.04889,50.10669]]]}},{"type":"Feature","id":"w338037062","properties":{"type":"garages","residential":false,"residents_est":0,"h3_10":"8a1e2e6ac997fff","h3_11":"8b1e2e6ac992fff"},"geometry":{"type":"Polygon","coordinates":[[[20.044994,50.106294],[20.045086,50.106271],[20.045172,50.106417],[20.045081,50.106442],[20.044994,50.106294]]]}},{"type":"Feature","id":"w338037063","properties":{"type":"yes","residential":true,"residents_est":1,"h3_10":"8a1e2e6ac96ffff","h3_11":"8b1e2e6ac96dfff"},"geometry":{"type":"Polygon","coordinates":[[[20.056363,50.111046],[20.056424,50.11098],[20.056569,50.111036],[20.056508,50.111102],[20.056363,50.111046]]]}},{"type":"Feature","id":"w338037075","properties":{"type":"yes","residential":true,"residents_est":0,"h3_10":"8a1e2e6ac957fff","h3_11":"8b1e2e6ac953fff"},"geometry":{"type":"Polygon","coordinates":[[[20.053441,50.10914],[20.053463,50.109109],[20.053606,50.109148],[20.053565,50.10921],[20.053476,50.109186],[20.053497,50.109156],[20.053441,50.10914]]]}},{"type":"Feature","id":"w338037087","properties":{"type":"yes","residential":true,"residents_est":0,"h3_10":"8a1e2e6ac947fff","h3_11":"8b1e2e6ac941fff"},"geometry":{"type":"Polygon","coordinates":[[[20.055549,50.110055],[20.055658,50.109953],[20.055635,50.109943],[20.055697,50.109883],[20.055766,50.109913],[20.055594,50.110075],[20.055549,50.110055]]]}},{"type":"Feature","id":"w338037093","properties":{"type":"yes","residential":true,"residents_est":3,"h3_10":"8a1e2e6ac857fff","h3_11":"8b1e2e6ac854fff"},"geometry":{"type":"Polygon","coordinates":[[[20.055072,50.107372],[20.055369,50.107213],[20.055458,50.107282],[20.055162,50.107441],[20.055072,50.107372]]]}},{"type":"Feature","id":"w338037100","properties":{"type":"yes","residential":true,"residents_est":1,"h3_10":"8a1e2e6ac977fff","h3_11":"8b1e2e6ac972fff"},"geometry":{"type":"Polygon","coordinates":[[[20.052425,50.110271],[20.052497,50.110158],[20.052591,50.110172],[20.052517,50.110295],[20.052425,50.110271]]]}},{"type":"Feature","id":"w338037101","properties":{"type":"yes","residential":true,"residents_est":1,"h3_10":"8a1e2e6ac977fff","h3_11":"8b1e2e6ac970fff"},"geometry":{"type":"Polygon","coordinates":[[[20.052785,50.110172],[20.052859,50.110144],[20.052912,50.110209],[20.052901,50.1103],[20.052858,50.110304],[20.052831,50.110254],[20.052847,50.110245],[20.052785,50.110172]]]}},{"type":"Feature","id":"w338037111","properties":{"type":"yes","address":"Kantorowicka 261","residential":true,"residents_est":1,"h3_10":"8a1e2e6ac907fff","h3_11":"8b1e2e6ac905fff"},"geometry":{"type":"Polygon","coordinates":[[[20.050238,50.110454],[20.050293,50.110416],[20.050314,50.110429],[20.050346,50.110408],[20.050401,50.110442],[20.050449,50.11041],[20.050515,50.110451],[20.05038,50.110541],[20.050238,50.110454]]]}},{"type":"Feature","id":"w338037116","properties":{"type":"yes","residential":true,"residents_est":1,"h3_10":"8a1e2e6ac947fff","h3_11":"8b1e2e6ac940fff"},"geometry":{"type":"Polygon","coordinates":[[[20.054452,50.110036],[20.054673,50.109884],[20.054736,50.109921],[20.054515,50.110073],[20.054452,50.110036]]]}},{"type":"Feature","id":"w338037119","properties":{"type":"yes","residential":true,"residents_est":1,"h3_10":"8a1e2e6ac977fff","h3_11":"8b1e2e6ac972fff"},"geometry":{"type":"Polygon","coordinates":[[[20.052326,50.11002],[20.052364,50.109988],[20.052346,50.109979],[20.052446,50.109897],[20.052545,50.109947],[20.052445,50.110029],[20.052439,50.110026],[20.0524,50.110058],[20.052326,50.11002]]]}},{"type":"Feature","id":"w338037126","properties":{"type":"yes","residential":true,"residents_est":1,"h3_10":"8a1e2e6ac807fff","h3_11":"8b1e2e6ac801fff"},"geometry":{"type":"Polygon","coordinates":[[[20.052796,50.107544],[20.052919,50.107527],[20.052929,50.107559],[20.052922,50.10756],[20.052929,50.107583],[20.052937,50.107582],[20.052948,50.107618],[20.052825,50.107634],[20.052796,50.107544]]]}},{"type":"Feature","id":"w338037160","properties":{"type":"yes","residential":false,"residents_est":0,"h3_10":"8a1e2e6ac92ffff","h3_11":"8b1e2e6ac92cfff"},"geometry":{"type":"Polygon","coordinates":[[[20.050884,50.11104],[20.050926,50.111018],[20.050962,50.111046],[20.050995,50.111029],[20.051016,50.111047],[20.050939,50.111086],[20.050884,50.11104]]]}},{"type":"Feature","id":"w338037161","properties":{"type":"yes","residential":true,"residents_est":1,"h3_10":"8a1e2e6ac977fff","h3_11":"8b1e2e6ac972fff"},"geometry":{"type":"Polygon","coordinates":[[[20.052526,50.11015],[20.052537,50.110111],[20.052553,50.110113],[20.052572,50.110044],[20.052792,50.110068],[20.052772,50.110141],[20.052624,50.110122],[20.052612,50.110163],[20.052526,50.11015]]]}},{"type":"Feature","id":"w338037171","properties":{"type":"yes","residential":true,"residents_est":1,"h3_10":"8a1e2e6ac95ffff","h3_11":"8b1e2e6ac95cfff"},"geometry":{"type":"Polygon","coordinates":[[[20.054361,50.109268],[20.054476,50.109233],[20.054537,50.109314],[20.054422,50.10935],[20.054361,50.109268]]]}},{"type":"Feature","id":"w338037175","properties":{"type":"yes","residential":true,"residents_est":1,"h3_10":"8a1e2e6ac94ffff","h3_11":"8b1e2e6ac94cfff"},"geometry":{"type":"Polygon","coordinates":[[[20.055873,50.109903],[20.055948,50.109831],[20.056067,50.109884],[20.055992,50.109955],[20.055943,50.109934],[20.055919,50.109957],[20.055891,50.109944],[20.055915,50.10992],[20.055873,50.109903]]]}},{"type":"Feature","id":"w338037197","properties":{"type":"yes","address":"Kantorowicka 98","residential":true,"residents_est":1,"h3_10":"8a1e2e6ac92ffff","h3_11":"8b1e2e6ac928fff"},"geometry":{"type":"Polygon","coordinates":[[[20.050873,50.110925],[20.050984,50.110864],[20.05108,50.110936],[20.051033,50.110961],[20.051052,50.110975],[20.051018,50.110993],[20.050999,50.110979],[20.050968,50.110996],[20.050873,50.110925]]]}},{"type":"Feature","id":"w338037209","properties":{"type":"yes","residential":true,"residents_est":1,"h3_10":"8a1e2e6ac80ffff","h3_11":"8b1e2e6ac809fff"},"geometry":{"type":"Polygon","coordinates":[[[20.05433,50.107223],[20.054489,50.107174],[20.054546,50.107261],[20.054502,50.107273],[20.054517,50.107297],[20.054445,50.107315],[20.054435,50.107298],[20.054386,50.10731],[20.05433,50.107223]]]}},{"type":"Feature","id":"w338037218","properties":{"type":"yes","residential":true,"residents_est":1,"h3_10":"8a1e2e6ac95ffff","h3_11":"8b1e2e6ac958fff"},"geometry":{"type":"Polygon","coordinates":[[[20.054656,50.108974],[20.054697,50.108949],[20.054723,50.108972],[20.054743,50.109131],[20.054669,50.109156],[20.054656,50.108974]]]}},{"type":"Feature","id":"w338037223","properties":{"type":"yes","address":"Kantorowicka 259","residential":true,"residents_est":1,"h3_10":"8a1e2e6ac907fff","h3_11":"8b1e2e6ac905fff"},"geometry":{"type":"Polygon","coordinates":[[[20.049997,50.110604],[20.050102,50.110533],[20.050249,50.110625],[20.050143,50.110695],[20.050096,50.110665],[20.050087,50.110671],[20.050041,50.110642],[20.050041,50.110631],[20.049997,50.110604]]]}},{"type":"Feature","id":"w338037230","properties":{"type":"yes","residential":true,"residents_est":1,"h3_10":"8a1e2e6ac967fff","h3_11":"8b1e2e6ac961fff"},"geometry":{"type":"Polygon","coordinates":[[[20.054696,50.111067],[20.054729,50.11102],[20.054796,50.11104],[20.054821,50.111005],[20.054913,50.111032],[20.054828,50.111154],[20.054738,50.111125],[20.054764,50.111087],[20.054696,50.111067]]]}},{"type":"Feature","id":"w339009235","properties":{"type":"yes","residential":false,"residents_est":0,"h3_10":"8a1e2e6ac90ffff","h3_11":"8b1e2e6ac90cfff"},"geometry":{"type":"Polygon","coordinates":[[[20.050899,50.110204],[20.050941,50.110152],[20.050992,50.110169],[20.05095,50.110221],[20.050899,50.110204]]]}},{"type":"Feature","id":"w339009239","properties":{"type":"yes","residential":false,"residents_est":0,"h3_10":"8a1e2e6ac907fff","h3_11":"8b1e2e6ac902fff"},"geometry":{"type":"Polygon","coordinates":[[[20.049485,50.109671],[20.049561,50.109612],[20.049592,50.109628],[20.049517,50.109688],[20.049485,50.109671]]]}},{"type":"Feature","id":"w339009253","properties":{"type":"yes","residential":false,"residents_est":0,"h3_10":"8a1e2e6ac907fff","h3_11":"8b1e2e6ac901fff"},"geometry":{"type":"Polygon","coordinates":[[[20.050308,50.109849],[20.05037,50.10982],[20.050394,50.10984],[20.050332,50.10987],[20.050308,50.109849]]]}},{"type":"Feature","id":"w553359009","properties":{"type":"yes","residential":true,"residents_est":1,"h3_10":"8a1e2e6ac8effff","h3_11":"8b1e2e6ac8eafff"},"geometry":{"type":"Polygon","coordinates":[[[20.055527,50.105469],[20.055598,50.105418],[20.055579,50.105407],[20.055643,50.105363],[20.055692,50.105391],[20.055711,50.10539],[20.055725,50.105399],[20.055727,50.105411],[20.055754,50.105427],[20.055653,50.105498],[20.055634,50.105487],[20.055599,50.105512],[20.055527,50.105469]]]}},{"type":"Feature","id":"w706306530","properties":{"type":"industrial","levels":1.0,"address":"Gustawa Morcinka 13B","residential":false,"residents_est":0,"h3_10":"8a1e2e6ac9b7fff","h3_11":"8b1e2e6ac9b6fff"},"geometry":{"type":"Polygon","coordinates":[[[20.044474,50.107796],[20.044519,50.107785],[20.044516,50.10778],[20.044617,50.107761],[20.044683,50.107874],[20.044645,50.107883],[20.044707,50.10799],[20.044604,50.108015],[20.044474,50.107796]]]}},{"type":"Feature","id":"w706306531","properties":{"type":"service","residential":false,"residents_est":0,"h3_10":"8a1e2e6ac997fff","h3_11":"8b1e2e6ac992fff"},"geometry":{"type":"Polygon","coordinates":[[[20.045226,50.10643],[20.0453,50.106412],[20.045327,50.106458],[20.045252,50.106476],[20.045226,50.10643]]]}},{"type":"Feature","id":"w706306556","properties":{"type":"yes","address":"Kantorowicka 217","residential":true,"residents_est":4,"h3_10":"8a1e2e6ac9a7fff","h3_11":"8b1e2e6ac9a5fff"},"geometry":{"type":"Polygon","coordinates":[[[20.04701,50.108776],[20.04713,50.108691],[20.047378,50.108834],[20.047259,50.10892],[20.04701,50.108776]]]}},{"type":"Feature","id":"w706306557","properties":{"type":"yes","address":"Kantorowicka 217a","residential":true,"residents_est":5,"h3_10":"8a1e2e6ac9a7fff","h3_11":"8b1e2e6ac9a1fff"},"geometry":{"type":"Polygon","coordinates":[[[20.047287,50.108573],[20.04751,50.108415],[20.047759,50.108559],[20.047659,50.108631],[20.047634,50.108617],[20.047613,50.108632],[20.047517,50.108576],[20.047416,50.108648],[20.047287,50.108573]]]}},{"type":"Feature","id":"w706306558","properties":{"type":"yes","address":"Gustawa Morcinka 23e","residential":true,"residents_est":1,"h3_10":"8a1e2e6ac9affff","h3_11":"8b1e2e6ac9aafff"},"geometry":{"type":"Polygon","coordinates":[[[20.047857,50.107882],[20.048016,50.107796],[20.048099,50.107859],[20.04794,50.107945],[20.047857,50.107882]]]}},{"type":"Feature","id":"w706306560","properties":{"type":"yes","address":"Gustawa Morcinka 23f","residential":true,"residents_est":1,"h3_10":"8a1e2e6ac987fff","h3_11":"8b1e2e6ac983fff"},"geometry":{"type":"Polygon","coordinates":[[[20.047457,50.107266],[20.047497,50.107249],[20.047475,50.107228],[20.047585,50.107181],[20.047659,50.107251],[20.04751,50.107316],[20.047457,50.107266]]]}},{"type":"Feature","id":"w706306561","properties":{"type":"yes","address":"Gustawa Morcinka 23fa","residential":true,"residents_est":1,"h3_10":"8a1e2e6ac987fff","h3_11":"8b1e2e6ac980fff"},"geometry":{"type":"Polygon","coordinates":[[[20.047134,50.107408],[20.047173,50.10739],[20.047152,50.10737],[20.047261,50.107322],[20.047335,50.107393],[20.047186,50.107458],[20.047134,50.107408]]]}},{"type":"Feature","id":"w706306563","properties":{"type":"yes","residential":true,"residents_est":0,"h3_10":"8a1e2e6ac99ffff","h3_11":"8b1e2e6ac99efff"},"geometry":{"type":"Polygon","coordinates":[[[20.046896,50.106205],[20.047002,50.106203],[20.047008,50.106312],[20.046944,50.106314],[20.046943,50.1063],[20.046902,50.106301],[20.046896,50.106205]]]}},{"type":"Feature","id":"w706306564","properties":{"type":"yes","residential":true,"residents_est":0,"h3_10":"8a1e2e6ac99ffff","h3_11":"8b1e2e6ac99efff"},"geometry":{"type":"Polygon","coordinates":[[[20.04679,50.106208],[20.046896,50.106205],[20.046902,50.106301],[20.04686,50.106302],[20.04686,50.106316],[20.046797,50.106318],[20.04679,50.106208]]]}},{"type":"Feature","id":"w706306565","properties":{"type":"yes","residential":true,"residents_est":1,"h3_10":"8a1e2e6ac99ffff","h3_11":"8b1e2e6ac99efff"},"geometry":{"type":"Polygon","coordinates":[[[20.046493,50.10625],[20.046598,50.106247],[20.046604,50.106355],[20.0465,50.106358],[20.046493,50.10625]]]}},{"type":"Feature","id":"w706306566","properties":{"type":"yes","residential":true,"residents_est":1,"h3_10":"8a1e2e6ac99ffff","h3_11":"8b1e2e6ac99efff"},"geometry":{"type":"Polygon","coordinates":[[[20.046389,50.106253],[20.046493,50.10625],[20.0465,50.106358],[20.046395,50.106361],[20.046389,50.106253]]]}},{"type":"Feature","id":"w706306570","properties":{"type":"yes","residential":true,"residents_est":1,"h3_10":"8a1e2e6ac80ffff","h3_11":"8b1e2e6ac809fff"},"geometry":{"type":"Polygon","coordinates":[[[20.054845,50.107269],[20.054898,50.107006],[20.054976,50.10708],[20.05501,50.107065],[20.054967,50.107224],[20.054845,50.107269]]]}},{"type":"Feature","id":"w706306571","properties":{"type":"yes","residential":true,"residents_est":1,"h3_10":"8a1e2e6ac95ffff","h3_11":"8b1e2e6ac958fff"},"geometry":{"type":"Polygon","coordinates":[[[20.055045,50.109065],[20.055332,50.108835],[20.055403,50.108872],[20.055117,50.109102],[20.055045,50.109065]]]}},{"type":"Feature","id":"w706306572","properties":{"type":"yes","residential":false,"residents_est":0,"h3_10":"8a1e2e6ac957fff","h3_11":"8b1e2e6ac950fff"},"geometry":{"type":"Polygon","coordinates":[[[20.053274,50.109201],[20.053303,50.109165],[20.053382,50.10919],[20.053354,50.109227],[20.053274,50.109201]]]}},{"type":"Feature","id":"w706306573","properties":{"type":"yes","residential":false,"residents_est":0,"h3_10":"8a1e2e6ac95ffff","h3_11":"8b1e2e6ac95cfff"},"geometry":{"type":"Polygon","coordinates":[[[20.054448,50.109342],[20.054533,50.109316],[20.054563,50.109356],[20.054478,50.109381],[20.054448,50.109342]]]}},{"type":"Feature","id":"w706306575","properties":{"type":"yes","residential":true,"residents_est":0,"h3_10":"8a1e2e6ac957fff","h3_11":"8b1e2e6ac951fff"},"geometry":{"type":"Polygon","coordinates":[[[20.054023,50.109155],[20.054086,50.109113],[20.054185,50.109175],[20.054121,50.109218],[20.054023,50.109155]]]}},{"type":"Feature","id":"w706306576","properties":{"type":"yes","residential":false,"residents_est":0,"h3_10":"8a1e2e6ac94ffff","h3_11":"8b1e2e6ac948fff"},"geometry":{"type":"Polygon","coordinates":[[[20.056191,50.109673],[20.056211,50.109656],[20.056288,50.109691],[20.056267,50.10971],[20.056191,50.109673]]]}},{"type":"Feature","id":"w706306578","properties":{"type":"yes","residential":false,"residents_est":0,"h3_10":"8a1e2e6ac947fff","h3_11":"8b1e2e6ac943fff"},"geometry":{"type":"Polygon","coordinates":[[[20.055132,50.109881],[20.055184,50.109842],[20.055216,50.109859],[20.055165,50.109898],[20.055132,50.109881]]]}},{"type":"Feature","id":"w706306579","properties":{"type":"yes","residential":true,"residents_est":0,"h3_10":"8a1e2e6ac947fff","h3_11":"8b1e2e6ac945fff"},"geometry":{"type":"Polygon","coordinates":[[[20.054635,50.110416],[20.054768,50.110316],[20.054834,50.110353],[20.054701,50.110453],[20.054635,50.110416]]]}},{"type":"Feature","id":"w706306580","properties":{"type":"yes","address":"Zakole 7A","residential":true,"residents_est":1,"h3_10":"8a1e2e6ac947fff","h3_11":"8b1e2e6ac945fff"},"geometry":{"type":"Polygon","coordinates":[[[20.05504,50.110212],[20.055152,50.110163],[20.055242,50.110249],[20.055129,50.110297],[20.05504,50.110212]]]}},{"type":"Feature","id":"w706306598","properties":{"type":"yes","residential":false,"residents_est":0,"h3_10":"8a1e2e6ac967fff","h3_11":"8b1e2e6ac963fff"},"geometry":{"type":"Polygon","coordinates":[[[20.054502,50.110669],[20.054544,50.110624],[20.054596,50.110646],[20.054554,50.11069],[20.054502,50.110669]]]}},{"type":"Feature","id":"w706306600","properties":{"type":"yes","residential":true,"residents_est":0,"h3_10":"8a1e2e6ac967fff","h3_11":"8b1e2e6ac965fff"},"geometry":{"type":"Polygon","coordinates":[[[20.054502,50.111416],[20.054543,50.111362],[20.054632,50.111391],[20.054584,50.111447],[20.054502,50.111416]]]}},{"type":"Feature","id":"w706306601","properties":{"type":"yes","residential":false,"residents_est":0,"h3_10":"8a1e2e6ac967fff","h3_11":"8b1e2e6ac966fff"},"geometry":{"type":"Polygon","coordinates":[[[20.05326,50.111209],[20.053304,50.111174],[20.053347,50.111196],[20.053303,50.111232],[20.05326,50.111209]]]}},{"type":"Feature","id":"w706306603","properties":{"type":"yes","residential":true,"residents_est":1,"h3_10":"8a1e2e6ac977fff","h3_11":"8b1e2e6ac974fff"},"geometry":{"type":"Polygon","coordinates":[[[20.052621,50.110914],[20.052697,50.110845],[20.052866,50.110927],[20.052794,50.11099],[20.052621,50.110914]]]}},{"type":"Feature","id":"w706306604","properties":{"type":"yes","residential":false,"residents_est":0,"h3_10":"8a1e2e6ac857fff","h3_11":"8b1e2e6ac851fff"},"geometry":{"type":"Polygon","coordinates":[[[20.056607,50.106665],[20.056634,50.106652],[20.056702,50.106709],[20.056675,50.106721],[20.056607,50.106665]]]}},{"type":"Feature","id":"w706306605","properties":{"type":"yes","residential":true,"residents_est":0,"h3_10":"8a1e2e6ac85ffff","h3_11":"8b1e2e6ac85efff"},"geometry":{"type":"Polygon","coordinates":[[[20.056676,50.106263],[20.056718,50.106236],[20.056847,50.106318],[20.056805,50.106345],[20.056676,50.106263]]]}},{"type":"Feature","id":"w706306606","properties":{"type":"yes","residential":true,"residents_est":0,"h3_10":"8a1e2e6ac85ffff","h3_11":"8b1e2e6ac85efff"},"geometry":{"type":"Polygon","coordinates":[[[20.056884,50.106529],[20.056929,50.106499],[20.05703,50.106566],[20.056985,50.106595],[20.056884,50.106529]]]}},{"type":"Feature","id":"w706306607","properties":{"type":"yes","residential":true,"residents_est":1,"h3_10":"8a1e2e6ac85ffff","h3_11":"8b1e2e6ac85efff"},"geometry":{"type":"Polygon","coordinates":[[[20.056631,50.106457],[20.056696,50.106416],[20.056751,50.106451],[20.056775,50.106435],[20.056886,50.106511],[20.056856,50.10653],[20.056977,50.106607],[20.056903,50.106651],[20.056631,50.106457]]]}},{"type":"Feature","id":"w706306608","properties":{"type":"yes","residential":false,"residents_est":0,"h3_10":"8a1e2e6ac85ffff","h3_11":"8b1e2e6ac85efff"},"geometry":{"type":"Polygon","coordinates":[[[20.056911,50.106353],[20.056941,50.106332],[20.057009,50.106369],[20.05698,50.106393],[20.056911,50.106353]]]}},{"type":"Feature","id":"w706306612","properties":{"type":"yes","residential":true,"residents_est":0,"h3_10":"8a1e2e6ac85ffff","h3_11":"8b1e2e6ac85bfff"},"geometry":{"type":"Polygon","coordinates":[[[20.057868,50.106073],[20.057894,50.106057],[20.057872,50.106042],[20.057928,50.106008],[20.057923,50.106012],[20.058025,50.106081],[20.057954,50.106124],[20.057961,50.10613],[20.057956,50.106133],[20.057868,50.106073]]]}},{"type":"Feature","id":"w706306613","properties":{"type":"yes","residential":true,"residents_est":0,"h3_10":"8a1e2e6ac85ffff","h3_11":"8b1e2e6ac85bfff"},"geometry":{"type":"Polygon","coordinates":[[[20.057736,50.105984],[20.057748,50.105985],[20.057819,50.105942],[20.0579,50.105997],[20.057907,50.105993],[20.057928,50.106008],[20.057872,50.106042],[20.05785,50.106027],[20.057824,50.106043],[20.057736,50.105984]]]}},{"type":"Feature","id":"w706306619","properties":{"type":"yes","residential":true,"residents_est":1,"h3_10":"8a1e2e6ac85ffff","h3_11":"8b1e2e6ac85bfff"},"geometry":{"type":"Polygon","coordinates":[[[20.057601,50.106114],[20.057698,50.106043],[20.057803,50.106103],[20.057771,50.106126],[20.057791,50.106138],[20.057764,50.106157],[20.057745,50.106146],[20.057706,50.106175],[20.057601,50.106114]]]}},{"type":"Feature","id":"w706306645","properties":{"type":"yes","residential":true,"residents_est":1,"h3_10":"8a1e2e6ac8dffff","h3_11":"8b1e2e6ac8d9fff"},"geometry":{"type":"Polygon","coordinates":[[[20.055675,50.103839],[20.055703,50.103817],[20.05572,50.103825],[20.055755,50.103797],[20.055739,50.103788],[20.05578,50.103756],[20.055796,50.103764],[20.055832,50.103736],[20.055816,50.103728],[20.055845,50.103704],[20.055986,50.103778],[20.055916,50.103834],[20.055925,50.103839],[20.055896,50.103862],[20.055886,50.103858],[20.055816,50.103913],[20.055675,50.103839]]]}},{"type":"Feature","id":"w725291827","properties":{"type":"yes","residential":true,"residents_est":0,"h3_10":"8a1e2e6ac92ffff","h3_11":"8b1e2e6ac92cfff"},"geometry":{"type":"Polygon","coordinates":[[[20.0508,50.11107],[20.050873,50.111032],[20.050939,50.111086],[20.050868,50.111122],[20.0508,50.11107]]]}},{"type":"Feature","id":"w725291828","properties":{"type":"yes","residential":false,"residents_est":0,"h3_10":"8a1e2e6ac92ffff","h3_11":"8b1e2e6ac92bfff"},"geometry":{"type":"Polygon","coordinates":[[[20.051624,50.110489],[20.051665,50.110478],[20.051691,50.110522],[20.051652,50.110532],[20.051624,50.110489]]]}},{"type":"Feature","id":"w725291829","properties":{"type":"yes","residential":false,"residents_est":0,"h3_10":"8a1e2e6ac977fff","h3_11":"8b1e2e6ac971fff"},"geometry":{"type":"Polygon","coordinates":[[[20.053652,50.110382],[20.053721,50.110325],[20.053757,50.110343],[20.053688,50.1104],[20.053652,50.110382]]]}},{"type":"Feature","id":"w725291830","properties":{"type":"yes","residential":false,"residents_est":0,"h3_10":"8a1e2e6ac977fff","h3_11":"8b1e2e6ac971fff"},"geometry":{"type":"Polygon","coordinates":[[[20.053386,50.1104],[20.053436,50.110351],[20.053491,50.110375],[20.053441,50.110423],[20.053386,50.1104]]]}},{"type":"Feature","id":"w725291832","properties":{"type":"yes","residential":true,"residents_est":0,"h3_10":"8a1e2e6ac977fff","h3_11":"8b1e2e6ac972fff"},"geometry":{"type":"Polygon","coordinates":[[[20.052363,50.110253],[20.052418,50.110172],[20.052479,50.110185],[20.052425,50.110271],[20.052363,50.110253]]]}},{"type":"Feature","id":"w725291835","properties":{"type":"yes","residential":false,"residents_est":0,"h3_10":"8a1e2e6ac977fff","h3_11":"8b1e2e6ac972fff"},"geometry":{"type":"Polygon","coordinates":[[[20.052683,50.109885],[20.052713,50.109847],[20.052793,50.109874],[20.052764,50.109913],[20.052683,50.109885]]]}},{"type":"Feature","id":"w725291836","properties":{"type":"yes","residential":true,"residents_est":0,"h3_10":"8a1e2e6ac947fff","h3_11":"8b1e2e6ac940fff"},"geometry":{"type":"Polygon","coordinates":[[[20.054557,50.110174],[20.05461,50.110128],[20.054748,50.110195],[20.054695,50.110241],[20.054557,50.110174]]]}},{"type":"Feature","id":"w725291837","properties":{"type":"yes","residential":true,"residents_est":0,"h3_10":"8a1e2e6ac947fff","h3_11":"8b1e2e6ac940fff"},"geometry":{"type":"Polygon","coordinates":[[[20.054796,50.110109],[20.054917,50.110016],[20.05498,50.11005],[20.054857,50.110138],[20.054796,50.110109]]]}},{"type":"Feature","id":"w725291838","properties":{"type":"yes","residential":true,"residents_est":1,"h3_10":"8a1e2e6ac94ffff","h3_11":"8b1e2e6ac94efff"},"geometry":{"type":"Polygon","coordinates":[[[20.055807,50.109658],[20.055889,50.109586],[20.056036,50.109655],[20.055954,50.109727],[20.055807,50.109658]]]}},{"type":"Feature","id":"w725291839","properties":{"type":"yes","residential":false,"residents_est":0,"h3_10":"8a1e2e6ac96ffff","h3_11":"8b1e2e6ac96bfff"},"geometry":{"type":"Polygon","coordinates":[[[20.056194,50.110542],[20.056245,50.110488],[20.056294,50.110506],[20.056244,50.11056],[20.056194,50.110542]]]}},{"type":"Feature","id":"w725291840","properties":{"type":"yes","residential":false,"residents_est":0,"h3_10":"8a1e2e6ac96ffff","h3_11":"8b1e2e6ac96bfff"},"geometry":{"type":"Polygon","coordinates":[[[20.056235,50.110272],[20.056272,50.110233],[20.056321,50.110256],[20.056282,50.110292],[20.056235,50.110272]]]}},{"type":"Feature","id":"w725423307","properties":{"type":"yes","address":"Kantorowicka 263","residential":true,"residents_est":1,"h3_10":"8a1e2e6ac92ffff","h3_11":"8b1e2e6ac92afff"},"geometry":{"type":"Polygon","coordinates":[[[20.05062,50.110609],[20.050706,50.110549],[20.050681,50.110535],[20.050762,50.110478],[20.050927,50.110574],[20.050847,50.110631],[20.050792,50.110599],[20.050705,50.110659],[20.05062,50.110609]]]}},{"type":"Feature","id":"w725423323","properties":{"type":"yes","residential":true,"residents_est":0,"h3_10":"8a1e2e6ac91ffff","h3_11":"8b1e2e6ac91cfff"},"geometry":{"type":"Polygon","coordinates":[[[20.04954,50.109483],[20.049596,50.109434],[20.049684,50.109474],[20.049629,50.109524],[20.04954,50.109483]]]}},{"type":"Feature","id":"w725777412","properties":{"type":"yes","residential":true,"residents_est":0,"h3_10":"8a1e2e6ac96ffff","h3_11":"8b1e2e6ac96dfff"},"geometry":{"type":"Polygon","coordinates":[[[20.056271,50.111144],[20.056363,50.111046],[20.056425,50.111071],[20.056334,50.111168],[20.056271,50.111144]]]}},{"type":"Feature","id":"w725777418","properties":{"type":"yes","residential":false,"residents_est":0,"h3_10":"8a1e2e6ac8cffff","h3_11":"8b1e2e6ac8ccfff"},"geometry":{"type":"Polygon","coordinates":[[[20.05593,50.104773],[20.055973,50.104744],[20.056034,50.104781],[20.055991,50.104809],[20.05593,50.104773]]]}},{"type":"Feature","id":"w725777430","properties":{"type":"yes","residential":false,"residents_est":0,"h3_10":"8a1e2e6ac877fff","h3_11":"8b1e2e6ac870fff"},"geometry":{"type":"Polygon","coordinates":[[[20.055494,50.107763],[20.055532,50.107743],[20.055581,50.107779],[20.055545,50.1078],[20.055494,50.107763]]]}},{"type":"Feature","id":"w725777431","properties":{"type":"yes","residential":false,"residents_est":0,"h3_10":"8a1e2e6ac877fff","h3_11":"8b1e2e6ac874fff"},"geometry":{"type":"Polygon","coordinates":[[[20.055018,50.108173],[20.055055,50.108146],[20.055069,50.108144],[20.055121,50.108173],[20.055126,50.10817],[20.055139,50.108177],[20.055089,50.108213],[20.055018,50.108173]]]}},{"type":"Feature","id":"w1047828285","properties":{"type":"outbuilding","levels":1.0,"residential":false,"residents_est":0,"h3_10":"8a1e2e6ac85ffff","h3_11":"8b1e2e6ac85efff"},"geometry":{"type":"Polygon","coordinates":[[[20.056354,50.106498],[20.056482,50.106429],[20.056551,50.106484],[20.05642,50.106551],[20.056354,50.106498]]]}},{"type":"Feature","id":"w1047828499","properties":{"type":"detached","levels":2.0,"residential":true,"residents_est":3,"h3_10":"8a1e2e6ac8effff","h3_11":"8b1e2e6ac8e8fff"},"geometry":{"type":"Polygon","coordinates":[[[20.055847,50.105668],[20.056008,50.105543],[20.056134,50.10561],[20.055974,50.105735],[20.055847,50.105668]]]}},{"type":"Feature","id":"w1047828545","properties":{"type":"outbuilding","levels":1.0,"residential":false,"residents_est":0,"h3_10":"8a1e2e6ac85ffff","h3_11":"8b1e2e6ac85efff"},"geometry":{"type":"Polygon","coordinates":[[[20.056301,50.106229],[20.056359,50.106194],[20.056591,50.106351],[20.056533,50.106387],[20.056301,50.106229]]]}},{"type":"Feature","id":"w1076607722","properties":{"type":"yes","residential":true,"residents_est":1,"h3_10":"8a1e2e6ac907fff","h3_11":"8b1e2e6ac904fff"},"geometry":{"type":"Polygon","coordinates":[[[20.049349,50.110553],[20.049454,50.110461],[20.049585,50.110522],[20.049481,50.110614],[20.049349,50.110553]]]}},{"type":"Feature","id":"w1155392186","properties":{"type":"yes","address":"Zakole 11","residential":true,"residents_est":3,"h3_10":"8a1e2e6ac96ffff","h3_11":"8b1e2e6ac96efff"},"geometry":{"type":"Polygon","coordinates":[[[20.055596,50.110756],[20.055738,50.110597],[20.0559,50.110656],[20.055757,50.110816],[20.055596,50.110756]]]}},{"type":"Feature","id":"w1155392187","properties":{"type":"construction","residential":false,"residents_est":0,"h3_10":"8a1e2e6ac99ffff","h3_11":"8b1e2e6ac998fff"},"geometry":{"type":"Polygon","coordinates":[[[20.047563,50.106256],[20.047716,50.106206],[20.047736,50.106231],[20.048016,50.106139],[20.048096,50.106239],[20.047809,50.106333],[20.04779,50.106309],[20.047644,50.106357],[20.047563,50.106256]]]}},{"type":"Feature","id":"w1166189038","properties":{"type":"construction","residential":false,"residents_est":0,"h3_10":"8a1e2e6ac837fff","h3_11":"8b1e2e6ac833fff"},"geometry":{"type":"Polygon","coordinates":[[[20.050938,50.10756],[20.050943,50.107487],[20.051135,50.107493],[20.05113,50.107564],[20.051082,50.107563],[20.05108,50.107581],[20.051019,50.107579],[20.05102,50.107563],[20.050938,50.10756]]]}},{"type":"Feature","id":"w1190024897","properties":{"type":"outbuilding","levels":1.0,"residential":false,"residents_est":0,"h3_10":"8a1e2e6ac96ffff","h3_11":"8b1e2e6ac96cfff"},"geometry":{"type":"Polygon","coordinates":[[[20.055485,50.111186],[20.055569,50.111094],[20.055639,50.11112],[20.055555,50.111213],[20.055485,50.111186]]]}},{"type":"Feature","id":"w1190024898","properties":{"type":"outbuilding","levels":1.0,"residential":false,"residents_est":0,"h3_10":"8a1e2e6ac96ffff","h3_11":"8b1e2e6ac96dfff"},"geometry":{"type":"Polygon","coordinates":[[[20.056591,50.111209],[20.056732,50.111069],[20.056839,50.111114],[20.056698,50.111254],[20.056591,50.111209]]]}},{"type":"Feature","id":"w1190024902","properties":{"type":"house","levels":1.0,"residential":true,"residents_est":1,"h3_10":"8a1e2e6ac96ffff","h3_11":"8b1e2e6ac96cfff"},"geometry":{"type":"Polygon","coordinates":[[[20.055632,50.111101],[20.055689,50.111032],[20.055831,50.11108],[20.055774,50.111149],[20.055632,50.111101]]]}},{"type":"Feature","id":"w1341580560","properties":{"type":"yes","address":"Kantorowicka 215","residential":true,"residents_est":5,"h3_10":"8a1e2e6ac917fff","h3_11":"8b1e2e6ac916fff"},"geometry":{"type":"Polygon","coordinates":[[[20.047162,50.109273],[20.047196,50.109246],[20.047185,50.10924],[20.047302,50.10915],[20.047528,50.10927],[20.04738,50.109385],[20.047322,50.109354],[20.047304,50.109368],[20.047231,50.10933],[20.047241,50.109322],[20.047223,50.109313],[20.047211,50.109322],[20.047175,50.109303],[20.047193,50.109289],[20.047162,50.109273]]]}},{"type":"Feature","id":"w1341580561","properties":{"type":"yes","address":"Kantorowicka 215A","residential":true,"residents_est":6,"h3_10":"8a1e2e6ac917fff","h3_11":"8b1e2e6ac912fff"},"geometry":{"type":"Polygon","coordinates":[[[20.047439,50.109036],[20.047512,50.10898],[20.047532,50.108991],[20.047554,50.108973],[20.047536,50.108964],[20.04765,50.108876],[20.047885,50.109002],[20.047747,50.109108],[20.047667,50.109065],[20.047658,50.109072],[20.047668,50.109077],[20.047606,50.109125],[20.047439,50.109036]]]}},{"type":"Feature","id":"w1341580562","properties":{"type":"yes","address":"Kantorowicka 215B","residential":true,"residents_est":5,"h3_10":"8a1e2e6ac917fff","h3_11":"8b1e2e6ac912fff"},"geometry":{"type":"Polygon","coordinates":[[[20.047782,50.108766],[20.047855,50.10871],[20.047875,50.10872],[20.047897,50.108703],[20.047879,50.108693],[20.047993,50.108606],[20.048228,50.108731],[20.04809,50.108837],[20.04801,50.108795],[20.048001,50.108801],[20.048011,50.108806],[20.047949,50.108854],[20.047782,50.108766]]]}},{"type":"Feature","id":"w1413366267","properties":{"type":"apartments","levels":5.0,"address":"Gustawa Morcinka 23B","residential":true,"residents_est":10,"h3_10":"8a1e2e6ac9b7fff","h3_11":"8b1e2e6ac9b4fff"},"geometry":{"type":"Polygon","coordinates":[[[20.04507,50.108079],[20.045076,50.10807],[20.045203,50.108039],[20.04521,50.108049],[20.045219,50.108047],[20.045327,50.108013],[20.045317,50.108025],[20.04532,50.108029],[20.045303,50.108033],[20.045322,50.108063],[20.045336,50.108059],[20.04536,50.108087],[20.045401,50.108149],[20.045394,50.108151],[20.045404,50.108167],[20.045154,50.108228],[20.045116,50.108176],[20.045133,50.108172],[20.04512,50.108149],[20.045113,50.108151],[20.04507,50.108079]]]}},{"type":"Feature","id":"w1413366268","properties":{"type":"industrial","levels":1.0,"address":"Gustawa Morcinka 13BA","residential":false,"residents_est":0,"h3_10":"8a1e2e6ac9b7fff","h3_11":"8b1e2e6ac9b4fff"},"geometry":{"type":"Polygon","coordinates":[[[20.044604,50.108015],[20.044737,50.107983],[20.044888,50.108245],[20.044755,50.108277],[20.044604,50.108015]]]}},{"type":"Feature","id":"w1474132278","properties":{"type":"yes","address":"Zakole 11A","residential":true,"residents_est":1,"h3_10":"8a1e2e6ac947fff","h3_11":"8b1e2e6ac945fff"},"geometry":{"type":"Polygon","coordinates":[[[20.055186,50.110507],[20.055269,50.110416],[20.055307,50.110428],[20.055352,50.110383],[20.055438,50.110416],[20.055319,50.110559],[20.055186,50.110507]]]}},{"type":"Feature","id":"w1474132279","properties":{"type":"house","residential":true,"residents_est":2,"h3_10":"8a1e2e6ac96ffff","h3_11":"8b1e2e6ac96efff"},"geometry":{"type":"Polygon","coordinates":[[[20.055357,50.11063],[20.055445,50.110531],[20.05556,50.110574],[20.055472,50.110672],[20.055357,50.11063]]]}},{"type":"Feature","id":"w1474132280","properties":{"type":"yes","residential":true,"residents_est":0,"h3_10":"8a1e2e6ac96ffff","h3_11":"8b1e2e6ac96afff"},"geometry":{"type":"Polygon","coordinates":[[[20.05551,50.110494],[20.055566,50.110428],[20.055654,50.110459],[20.055598,50.110525],[20.05551,50.110494]]]}},{"type":"Feature","id":"w1474132281","properties":{"type":"yes","residential":true,"residents_est":1,"h3_10":"8a1e2e6ac967fff","h3_11":"8b1e2e6ac962fff"},"geometry":{"type":"Polygon","coordinates":[[[20.053995,50.110654],[20.054145,50.110539],[20.05426,50.110601],[20.05411,50.110716],[20.053995,50.110654]]]}}]}