{"type":"FeatureCollection","features":[{"type":"Feature","id":"w337428982","properties":{"type":"yes","address":"Szczawnicka 13a","residential":true,"residents_est":3,"h3_10":"8a1e2e69ec67fff","h3_11":"8b1e2e69ec60fff"},"geometry":{"type":"Polygon","coordinates":[[[19.974469,49.995295],[19.97454,49.995233],[19.974574,49.99525],[19.974597,49.995247],[19.974614,49.995255],[19.974616,49.99527],[19.974651,49.995287],[19.974634,49.995306],[19.974663,49.995319],[19.974612,49.995362],[19.974469,49.995295]]]}},{"type":"Feature","id":"w337428985","properties":{"type":"yes","address":"Miarowa 26","residential":true,"residents_est":3,"h3_10":"8a1e2e69ed17fff","h3_11":"8b1e2e69ed12fff"},"geometry":{"type":"Polygon","coordinates":[[[19.965664,49.99551],[19.965708,49.995439],[19.965901,49.995492],[19.965869,49.995548],[19.965786,49.995528],[19.96578,49.995538],[19.965664,49.99551]]]}},{"type":"Feature","id":"w337429003","properties":{"type":"yes","address":"Juliusza Osterwy 54","residential":true,"residents_est":3,"h3_10":"8a1e2e69ec4ffff","h3_11":"8b1e2e69ec4bfff"},"geometry":{"type":"Polygon","coordinates":[[[19.977203,49.993466],[19.977364,49.993451],[19.97738,49.993523],[19.977219,49.993538],[19.977203,49.993466]]]}},{"type":"Feature","id":"w337429009","properties":{"type":"yes","address":"Tuchowska 106","residential":true,"residents_est":3,"h3_10":"8a1e2e69ecf7fff","h3_11":"8b1e2e69ecf4fff"},"geometry":{"type":"Polygon","coordinates":[[[19.970265,49.992467],[19.970288,49.992411],[19.970434,49.992435],[19.970384,49.992551],[19.970297,49.992536],[19.97031,49.992503],[19.970274,49.992497],[19.970284,49.992471],[19.970265,49.992467]]]}},{"type":"Feature","id":"w337429012","properties":{"type":"yes","address":"Tuchowska 102","residential":true,"residents_est":3,"h3_10":"8a1e2e69ec1ffff","h3_11":"8b1e2e69ec1afff"},"geometry":{"type":"Polygon","coordinates":[[[19.970176,49.992914],[19.970191,49.992872],[19.970233,49.992879],[19.97025,49.992833],[19.970341,49.992845],[19.97032,49.992911],[19.970346,49.992914],[19.97033,49.992964],[19.970237,49.992951],[19.970247,49.992924],[19.970176,49.992914]]]}},{"type":"Feature","id":"w337429025","properties":{"type":"yes","address":"Szczawnicka 3","residential":true,"residents_est":2,"h3_10":"8a1e2e69ec0ffff","h3_11":"8b1e2e69ec0efff"},"geometry":{"type":"Polygon","coordinates":[[[19.971266,49.993649],[19.97128,49.99362],[19.971318,49.993628],[19.971333,49.993598],[19.971415,49.993615],[19.97141,49.993627],[19.971437,49.993632],[19.971404,49.993701],[19.971294,49.993679],[19.971304,49.993657],[19.971266,49.993649]]]}},{"type":"Feature","id":"w337429030","properties":{"type":"yes","address":"Tuchowska 105","residential":true,"residents_est":5,"h3_10":"8a1e2e69ecf7fff","h3_11":"8b1e2e69ecf5fff"},"geometry":{"type":"Polygon","coordinates":[[[19.970892,49.992292],[19.970925,49.992226],[19.971056,49.992254],[19.971092,49.992184],[19.971179,49.992202],[19.971109,49.992339],[19.971053,49.992327],[19.971048,49.992337],[19.970966,49.992319],[19.970971,49.992309],[19.970892,49.992292]]]}},{"type":"Feature","id":"w337429034","properties":{"type":"detached","address":"Rytownicza 11A","residential":true,"residents_est":6,"h3_10":"8a1e2e69eceffff","h3_11":"8b1e2e69ece8fff"},"geometry":{"type":"Polygon","coordinates":[[[19.974051,49.992537],[19.974089,49.992443],[19.974164,49.992457],[19.974167,49.992448],[19.974235,49.99246],[19.974199,49.992549],[19.974139,49.992539],[19.974134,49.992552],[19.974051,49.992537]]]}},{"type":"Feature","id":"w337429040","properties":{"type":"yes","address":"Miarowa 30b","residential":true,"residents_est":5,"h3_10":"8a1e2e69edaffff","h3_11":"8b1e2e69edaefff"},"geometry":{"type":"Polygon","coordinates":[[[19.965839,49.994767],[19.965867,49.994733],[19.965888,49.994729],[19.965917,49.994738],[19.965939,49.99471],[19.965912,49.994701],[19.965905,49.994687],[19.965936,49.994648],[19.966078,49.994696],[19.966053,49.994726],[19.966077,49.994734],[19.966082,49.994748],[19.96601,49.994836],[19.965846,49.99478],[19.965839,49.994767]]]}},{"type":"Feature","id":"w337429059","properties":{"type":"yes","address":"Tuchowska 115c","residential":true,"residents_est":3,"h3_10":"8a1e2e69ecdffff","h3_11":"8b1e2e69ecd8fff"},"geometry":{"type":"Polygon","coordinates":[[[19.972839,49.990479],[19.972855,49.99045],[19.972845,49.990447],[19.97286,49.990421],[19.972869,49.990423],[19.972886,49.990393],[19.972972,49.990413],[19.972962,49.990431],[19.97304,49.990449],[19.97301,49.990502],[19.972936,49.990484],[19.972927,49.9905],[19.972839,49.990479]]]}},{"type":"Feature","id":"w337429073","properties":{"type":"detached","address":"Rytownicza 7a","residential":true,"residents_est":7,"h3_10":"8a1e2e69ec57fff","h3_11":"8b1e2e69ec52fff"},"geometry":{"type":"Polygon","coordinates":[[[19.973508,49.993103],[19.973516,49.993061],[19.97367,49.993074],[19.973678,49.993039],[19.97371,49.993042],[19.973686,49.993158],[19.973517,49.993144],[19.973525,49.993104],[19.973508,49.993103]]]}},{"type":"Feature","id":"w337429077","properties":{"type":"yes","address":"Miarowa 35b","residential":true,"residents_est":3,"h3_10":"8a1e2e69ed37fff","h3_11":"8b1e2e69ed36fff"},"geometry":{"type":"Polygon","coordinates":[[[19.96515,49.997163],[19.96515,49.997127],[19.965156,49.997123],[19.965263,49.997123],[19.965263,49.997156],[19.965326,49.997156],[19.965325,49.997216],[19.965264,49.997216],[19.965264,49.997224],[19.965157,49.997224],[19.965157,49.997163],[19.96515,49.997163]]]}},{"type":"Feature","id":"w337429081","properties":{"type":"detached","address":"Miarowa 37a","residential":true,"residents_est":9,"h3_10":"8a1e2e69ed17fff","h3_11":"8b1e2e69ed14fff"},"geometry":{"type":"Polygon","coordinates":[[[19.966078,49.996521],[19.966105,49.996484],[19.966149,49.996496],[19.966214,49.996409],[19.96633,49.996445],[19.966289,49.996501],[19.966337,49.996516],[19.966279,49.996593],[19.966222,49.996575],[19.966256,49.996528],[19.966168,49.996502],[19.966141,49.99654],[19.966078,49.996521]]]}},{"type":"Feature","id":"w337429096","properties":{"type":"yes","address":"Tuchowska 104","residential":true,"residents_est":3,"h3_10":"8a1e2e69ec1ffff","h3_11":"8b1e2e69ec1afff"},"geometry":{"type":"Polygon","coordinates":[[[19.970163,49.992691],[19.970173,49.992659],[19.970373,49.992687],[19.970343,49.992774],[19.970294,49.992767],[19.97029,49.992777],[19.970247,49.992771],[19.970251,49.992761],[19.970178,49.99275],[19.970195,49.992696],[19.970163,49.992691]]]}},{"type":"Feature","id":"w337429104","properties":{"type":"detached","address":"Rytownicza 7","residential":true,"residents_est":6,"h3_10":"8a1e2e69ec57fff","h3_11":"8b1e2e69ec52fff"},"geometry":{"type":"Polygon","coordinates":[[[19.973192,49.993015],[19.973195,49.993001],[19.973214,49.992992],[19.973236,49.992994],[19.97325,49.993005],[19.973366,49.993015],[19.973348,49.993101],[19.973192,49.993088],[19.973206,49.993026],[19.973192,49.993015]]]}},{"type":"Feature","id":"w337429116","properties":{"type":"yes","address":"Tuchowska 115a","residential":true,"residents_est":4,"h3_10":"8a1e2e69ecdffff","h3_11":"8b1e2e69ecddfff"},"geometry":{"type":"Polygon","coordinates":[[[19.973187,49.99078],[19.973215,49.990734],[19.973236,49.99074],[19.973247,49.990724],[19.973402,49.99077],[19.973346,49.990856],[19.973188,49.990811],[19.973206,49.990785],[19.973187,49.99078]]]}},{"type":"Feature","id":"w337429127","properties":{"type":"detached","address":"Rytownicza 7e","residential":true,"residents_est":6,"h3_10":"8a1e2e69ec5ffff","h3_11":"8b1e2e69ec5efff"},"geometry":{"type":"Polygon","coordinates":[[[19.974689,49.993283],[19.974705,49.993196],[19.974732,49.99319],[19.97477,49.993192],[19.974781,49.993202],[19.974794,49.993203],[19.974791,49.993217],[19.974866,49.993222],[19.974851,49.993305],[19.974766,49.993299],[19.974768,49.99329],[19.974689,49.993283]]]}},{"type":"Feature","id":"w337429132","properties":{"type":"yes","address":"Szczawnicka 13b","residential":true,"residents_est":2,"h3_10":"8a1e2e69ec67fff","h3_11":"8b1e2e69ec60fff"},"geometry":{"type":"Polygon","coordinates":[[[19.974717,49.995377],[19.974782,49.995321],[19.974817,49.995338],[19.974836,49.99533],[19.974858,49.99534],[19.97486,49.995349],[19.974853,49.995355],[19.974914,49.995392],[19.974863,49.995438],[19.974825,49.99542],[19.974819,49.995425],[19.974717,49.995377]]]}},{"type":"Feature","id":"w337429135","properties":{"type":"detached","address":"Rytownicza 7b","residential":true,"residents_est":8,"h3_10":"8a1e2e69ec57fff","h3_11":"8b1e2e69ec53fff"},"geometry":{"type":"Polygon","coordinates":[[[19.973953,49.993109],[19.973956,49.993095],[19.973969,49.993087],[19.973979,49.99304],[19.974152,49.993055],[19.974131,49.993153],[19.974078,49.993148],[19.974075,49.993159],[19.974003,49.993152],[19.97401,49.993124],[19.973963,49.993122],[19.973953,49.993109]]]}},{"type":"Feature","id":"w337429158","properties":{"type":"detached","residential":true,"residents_est":4,"h3_10":"8a1e2e69ec57fff","h3_11":"8b1e2e69ec51fff"},"geometry":{"type":"Polygon","coordinates":[[[19.974366,49.993366],[19.974401,49.993366],[19.974408,49.993334],[19.974374,49.993331],[19.974385,49.993295],[19.974396,49.993291],[19.974516,49.993305],[19.974501,49.993377],[19.974366,49.993366]]]}},{"type":"Feature","id":"w337429172","properties":{"type":"detached","residential":true,"residents_est":9,"h3_10":"8a1e2e69ec57fff","h3_11":"8b1e2e69ec50fff"},"geometry":{"type":"Polygon","coordinates":[[[19.973785,49.993474],[19.973799,49.993445],[19.973817,49.993446],[19.973824,49.993411],[19.97386,49.993414],[19.973862,49.993404],[19.973889,49.993399],[19.973911,49.9934],[19.973934,49.99341],[19.973932,49.99342],[19.973967,49.993422],[19.973961,49.993454],[19.973989,49.993456],[19.973982,49.993492],[19.973954,49.99349],[19.973944,49.993539],[19.973801,49.993527],[19.973808,49.993492],[19.97379,49.99349],[19.973785,49.993474]]]}},{"type":"Feature","id":"w337429175","properties":{"type":"detached","address":"Tuchowska 121","residential":true,"residents_est":10,"h3_10":"8a1e2e69ecdffff","h3_11":"8b1e2e69ecdbfff"},"geometry":{"type":"Polygon","coordinates":[[[19.973359,49.99012],[19.973409,49.990078],[19.97342,49.990078],[19.973458,49.990053],[19.973501,49.99008],[19.973512,49.990072],[19.973556,49.990086],[19.973588,49.990119],[19.973577,49.990127],[19.97362,49.990153],[19.97357,49.990195],[19.973558,49.990195],[19.973521,49.99022],[19.973359,49.99012]]]}},{"type":"Feature","id":"w337429180","properties":{"type":"detached","address":"Rytownicza 5","residential":true,"residents_est":12,"h3_10":"8a1e2e69ec57fff","h3_11":"8b1e2e69ec56fff"},"geometry":{"type":"Polygon","coordinates":[[[19.973351,49.993483],[19.973356,49.993446],[19.973389,49.993448],[19.973395,49.993403],[19.973476,49.993395],[19.973505,49.993408],[19.973535,49.99341],[19.973531,49.993444],[19.973565,49.993446],[19.973559,49.993496],[19.973525,49.993494],[19.973521,49.99353],[19.973454,49.993527],[19.973451,49.993554],[19.973471,49.993555],[19.973464,49.993615],[19.973371,49.99361],[19.973378,49.99355],[19.973417,49.993552],[19.97342,49.993525],[19.973381,49.993523],[19.973385,49.993485],[19.973351,49.993483]]]}},{"type":"Feature","id":"w337429181","properties":{"type":"yes","address":"Miarowa 34a","residential":true,"residents_est":4,"h3_10":"8a1e2e69ec37fff","h3_11":"8b1e2e69ec36fff"},"geometry":{"type":"Polygon","coordinates":[[[19.967547,49.994596],[19.967597,49.994512],[19.967666,49.994529],[19.967678,49.994525],[19.967701,49.994531],[19.967712,49.994545],[19.967686,49.994574],[19.967777,49.994596],[19.96775,49.994644],[19.967608,49.99461],[19.9676,49.994623],[19.967567,49.99462],[19.967561,49.994614],[19.967569,49.994601],[19.967547,49.994596]]]}},{"type":"Feature","id":"w337429182","properties":{"type":"yes","address":"Droga Rokadowa 32","residential":true,"residents_est":6,"h3_10":"8a1e2e69ecd7fff","h3_11":"8b1e2e69ecd4fff"},"geometry":{"type":"Polygon","coordinates":[[[19.970995,49.991168],[19.971033,49.991119],[19.971044,49.991111],[19.971076,49.991105],[19.971131,49.99112],[19.971124,49.991127],[19.971147,49.991135],[19.971153,49.991127],[19.971287,49.991171],[19.97128,49.99118],[19.971341,49.991199],[19.971305,49.991222],[19.971243,49.991243],[19.971226,49.991245],[19.971175,49.991227],[19.971159,49.991248],[19.971096,49.991244],[19.971027,49.991236],[19.971064,49.991191],[19.970995,49.991168]]]}},{"type":"Feature","id":"w337429184","properties":{"type":"detached","address":"Rytownicza 7f","residential":true,"residents_est":11,"h3_10":"8a1e2e69ec5ffff","h3_11":"8b1e2e69ec5cfff"},"geometry":{"type":"Polygon","coordinates":[[[19.975036,49.993251],[19.97504,49.99323],[19.975061,49.993222],[19.975067,49.993195],[19.975123,49.993199],[19.975126,49.993182],[19.9752,49.993188],[19.975197,49.993205],[19.975219,49.993206],[19.975223,49.993185],[19.975292,49.99319],[19.975284,49.993233],[19.975251,49.99323],[19.975238,49.993302],[19.975192,49.993299],[19.975188,49.993322],[19.97516,49.99334],[19.975135,49.993343],[19.975101,49.993331],[19.975092,49.993314],[19.975095,49.99329],[19.97505,49.993287],[19.975054,49.993261],[19.975036,49.993251]]]}},{"type":"Feature","id":"w337429200","properties":{"type":"yes","residential":true,"residents_est":3,"h3_10":"8a1e2e69ec4ffff","h3_11":"8b1e2e69ec4afff"},"geometry":{"type":"Polygon","coordinates":[[[19.976334,49.993524],[19.976506,49.993515],[19.976516,49.993586],[19.976344,49.993596],[19.976334,49.993524]]]}},{"type":"Feature","id":"w337429210","properties":{"type":"yes","address":"Juliusza Osterwy 56","residential":true,"residents_est":3,"h3_10":"8a1e2e69ec5ffff","h3_11":"8b1e2e69ec5dfff"},"geometry":{"type":"Polygon","coordinates":[[[19.975929,49.99357],[19.976112,49.993556],[19.976125,49.993629],[19.975941,49.993642],[19.975929,49.99357]]]}},{"type":"Feature","id":"w337429218","properties":{"type":"yes","address":"Miarowa 24","residential":true,"residents_est":2,"h3_10":"8a1e2e69eda7fff","h3_11":"8b1e2e69eda5fff"},"geometry":{"type":"Polygon","coordinates":[[[19.965323,49.99563],[19.965343,49.995574],[19.965501,49.995596],[19.965481,49.995652],[19.965323,49.99563]]]}},{"type":"Feature","id":"w337429322","properties":{"type":"yes","residential":false,"residents_est":0,"h3_10":"8a1e2e69edaffff","h3_11":"8b1e2e69edabfff"},"geometry":{"type":"Polygon","coordinates":[[[19.966899,49.994701],[19.96693,49.994651],[19.966994,49.994668],[19.966964,49.994717],[19.966899,49.994701]]]}},{"type":"Feature","id":"w337429339","properties":{"type":"yes","residential":false,"residents_est":0,"h3_10":"8a1e2e69ec4ffff","h3_11":"8b1e2e69ec4afff"},"geometry":{"type":"Polygon","coordinates":[[[19.976359,49.993397],[19.976429,49.993393],[19.976443,49.993464],[19.976374,49.993469],[19.976359,49.993397]]]}},{"type":"Feature","id":"w337429342","properties":{"type":"yes","address":"Tuchowska 111","residential":true,"residents_est":3,"h3_10":"8a1e2e69ecf7fff","h3_11":"8b1e2e69ecf3fff"},"geometry":{"type":"Polygon","coordinates":[[[19.971394,49.991476],[19.971431,49.991385],[19.971554,49.991406],[19.971517,49.991496],[19.971394,49.991476]]]}},{"type":"Feature","id":"w337429353","properties":{"type":"yes","address":"Tuchowska 115","residential":true,"residents_est":2,"h3_10":"8a1e2e69ecdffff","h3_11":"8b1e2e69ecdcfff"},"geometry":{"type":"Polygon","coordinates":[[[19.972435,49.990797],[19.972472,49.99073],[19.972606,49.990759],[19.97257,49.990827],[19.972435,49.990797]]]}},{"type":"Feature","id":"w337429359","properties":{"type":"yes","residential":true,"residents_est":1,"h3_10":"8a1e2e69ecaffff","h3_11":"8b1e2e69ecaefff"},"geometry":{"type":"Polygon","coordinates":[[[19.968586,49.992342],[19.968609,49.992284],[19.968699,49.992299],[19.968675,49.992357],[19.968586,49.992342]]]}},{"type":"Feature","id":"w337429364","properties":{"type":"yes","address":"Tuchowska 117","residential":true,"residents_est":6,"h3_10":"8a1e2e69ecdffff","h3_11":"8b1e2e69ecd9fff"},"geometry":{"type":"Polygon","coordinates":[[[19.973688,49.990647],[19.973735,49.990558],[19.973742,49.99056],[19.973737,49.990572],[19.973888,49.990604],[19.973879,49.99062],[19.973981,49.990642],[19.973935,49.990731],[19.973759,49.990692],[19.973773,49.990666],[19.973688,49.990647]]]}},{"type":"Feature","id":"w337429368","properties":{"type":"yes","address":"Miarowa 28","residential":true,"residents_est":2,"h3_10":"8a1e2e69edaffff","h3_11":"8b1e2e69edacfff"},"geometry":{"type":"Polygon","coordinates":[[[19.966016,49.9954],[19.966046,49.995333],[19.966197,49.995361],[19.966167,49.995428],[19.966016,49.9954]]]}},{"type":"Feature","id":"w337429372","properties":{"type":"yes","residential":true,"residents_est":1,"h3_10":"8a1e2e69ed17fff","h3_11":"8b1e2e69ed13fff"},"geometry":{"type":"Polygon","coordinates":[[[19.966751,49.995468],[19.966812,49.995399],[19.966871,49.995422],[19.96681,49.99549],[19.966751,49.995468]]]}},{"type":"Feature","id":"w337429379","properties":{"type":"yes","address":"Szczawnicka 14","residential":true,"residents_est":2,"h3_10":"8a1e2e69ec67fff","h3_11":"8b1e2e69ec61fff"},"geometry":{"type":"Polygon","coordinates":[[[19.975598,49.995233],[19.975673,49.995157],[19.97578,49.9952],[19.975704,49.995277],[19.975598,49.995233]]]}},{"type":"Feature","id":"w337429408","properties":{"type":"detached","address":"Miarowa 37b","residential":true,"residents_est":5,"h3_10":"8a1e2e69ed17fff","h3_11":"8b1e2e69ed14fff"},"geometry":{"type":"Polygon","coordinates":[[[19.96609,49.99626],[19.966159,49.996168],[19.966263,49.996199],[19.966192,49.996292],[19.966128,49.996272],[19.966131,49.996268],[19.96609,49.99626]]]}},{"type":"Feature","id":"w337429409","properties":{"type":"yes","address":"Tuchowska 116","residential":true,"residents_est":3,"h3_10":"8a1e2e69ecd7fff","h3_11":"8b1e2e69ecd1fff"},"geometry":{"type":"Polygon","coordinates":[[[19.971821,49.99082],[19.971903,49.99074],[19.972014,49.990787],[19.971932,49.990867],[19.971821,49.99082]]]}},{"type":"Feature","id":"w337429425","properties":{"type":"yes","address":"Miarowa 39","residential":true,"residents_est":3,"h3_10":"8a1e2e69edaffff","h3_11":"8b1e2e69edacfff"},"geometry":{"type":"Polygon","coordinates":[[[19.966621,49.995316],[19.966684,49.995255],[19.966827,49.995315],[19.966752,49.995395],[19.966666,49.99536],[19.966684,49.995343],[19.966621,49.995316]]]}},{"type":"Feature","id":"w337429427","properties":{"type":"yes","residential":true,"residents_est":1,"h3_10":"8a1e2e69ecd7fff","h3_11":"8b1e2e69ecd4fff"},"geometry":{"type":"Polygon","coordinates":[[[19.970773,49.991392],[19.970797,49.991336],[19.970884,49.991352],[19.97086,49.991408],[19.970773,49.991392]]]}},{"type":"Feature","id":"w337429431","properties":{"type":"yes","address":"Miarowa 32","residential":true,"residents_est":3,"h3_10":"8a1e2e69edaffff","h3_11":"8b1e2e69edabfff"},"geometry":{"type":"Polygon","coordinates":[[[19.967102,49.994695],[19.967147,49.994618],[19.96728,49.994651],[19.967234,49.994727],[19.967102,49.994695]]]}},{"type":"Feature","id":"w337429459","properties":{"type":"detached","address":"Szczawnicka 7","residential":true,"residents_est":5,"h3_10":"8a1e2e69ec77fff","h3_11":"8b1e2e69ec72fff"},"geometry":{"type":"Polygon","coordinates":[[[19.972924,49.994059],[19.973004,49.994],[19.97311,49.994059],[19.973029,49.994119],[19.972924,49.994059]]]}},{"type":"Feature","id":"w337429472","properties":{"type":"yes","address":"Tuchowska 98","residential":true,"residents_est":5,"h3_10":"8a1e2e69ec1ffff","h3_11":"8b1e2e69ec1cfff"},"geometry":{"type":"Polygon","coordinates":[[[19.969965,49.993421],[19.969984,49.993364],[19.970065,49.993376],[19.970073,49.993354],[19.97002,49.993342],[19.970039,49.993293],[19.97019,49.993317],[19.970172,49.993365],[19.970151,49.993362],[19.970142,49.993388],[19.97019,49.993395],[19.970172,49.993451],[19.969965,49.993421]]]}},{"type":"Feature","id":"w337429481","properties":{"type":"yes","residential":true,"residents_est":2,"h3_10":"8a1e2e69eda7fff","h3_11":"8b1e2e69eda1fff"},"geometry":{"type":"Polygon","coordinates":[[[19.965777,49.995359],[19.965833,49.995251],[19.965915,49.995269],[19.965858,49.995376],[19.965777,49.995359]]]}},{"type":"Feature","id":"w337429493","properties":{"type":"yes","residential":true,"residents_est":1,"h3_10":"8a1e2e69ecc7fff","h3_11":"8b1e2e69ecc4fff"},"geometry":{"type":"Polygon","coordinates":[[[19.972069,49.992083],[19.972092,49.992017],[19.972178,49.99203],[19.972155,49.992096],[19.972069,49.992083]]]}},{"type":"Feature","id":"w337429505","properties":{"type":"yes","address":"Miarowa 28a","residential":true,"residents_est":2,"h3_10":"8a1e2e69edaffff","h3_11":"8b1e2e69edaefff"},"geometry":{"type":"Polygon","coordinates":[[[19.966004,49.995094],[19.965885,49.995069],[19.965845,49.995142],[19.965967,49.995168],[19.966004,49.995094]]]}},{"type":"Feature","id":"w337429515","properties":{"type":"yes","residential":true,"residents_est":1,"h3_10":"8a1e2e69ecdffff","h3_11":"8b1e2e69ecdefff"},"geometry":{"type":"Polygon","coordinates":[[[19.971993,49.990426],[19.972018,49.990377],[19.972118,49.990398],[19.972093,49.990447],[19.971993,49.990426]]]}},{"type":"Feature","id":"w337429520","properties":{"type":"yes","address":"Tuchowska 107","residential":true,"residents_est":3,"h3_10":"8a1e2e69ecf7fff","h3_11":"8b1e2e69ecf0fff"},"geometry":{"type":"Polygon","coordinates":[[[19.970935,49.991964],[19.970961,49.991894],[19.971175,49.991936],[19.971138,49.992002],[19.970935,49.991964]]]}},{"type":"Feature","id":"w337429543","properties":{"type":"detached","address":"Szczawnicka 5","residential":true,"residents_est":6,"h3_10":"8a1e2e69ec0ffff","h3_11":"8b1e2e69ec09fff"},"geometry":{"type":"Polygon","coordinates":[[[19.972334,49.99393],[19.972392,49.993848],[19.972534,49.99389],[19.972477,49.993972],[19.972334,49.99393]]]}},{"type":"Feature","id":"w337429548","properties":{"type":"yes","address":"Tuchowska 118","residential":true,"residents_est":3,"h3_10":"8a1e2e69ecdffff","h3_11":"8b1e2e69ecdefff"},"geometry":{"type":"Polygon","coordinates":[[[19.972171,49.990452],[19.972224,49.99035],[19.972338,49.990376],[19.972316,49.990419],[19.972351,49.990427],[19.972321,49.990485],[19.972171,49.990452]]]}},{"type":"Feature","id":"w337429560","properties":{"type":"yes","address":"Tuchowska 103","residential":true,"residents_est":4,"h3_10":"8a1e2e69ecf7fff","h3_11":"8b1e2e69ecf4fff"},"geometry":{"type":"Polygon","coordinates":[[[19.97076,49.992579],[19.970846,49.992408],[19.970947,49.992429],[19.970861,49.9926],[19.97076,49.992579]]]}},{"type":"Feature","id":"w337429562","properties":{"type":"yes","residential":true,"residents_est":1,"h3_10":"8a1e2e69edaffff","h3_11":"8b1e2e69edabfff"},"geometry":{"type":"Polygon","coordinates":[[[19.967188,49.994529],[19.967222,49.994471],[19.967312,49.994493],[19.967278,49.994552],[19.967188,49.994529]]]}},{"type":"Feature","id":"w337429572","properties":{"type":"garage","residential":false,"residents_est":0,"h3_10":"8a1e2e69ec5ffff","h3_11":"8b1e2e69ec58fff"},"geometry":{"type":"Polygon","coordinates":[[[19.975259,49.993174],[19.975272,49.993101],[19.975371,49.993108],[19.975357,49.993182],[19.975259,49.993174]]]}},{"type":"Feature","id":"w337429666","properties":{"type":"yes","address":"Grawerska 8","residential":true,"residents_est":2,"h3_10":"8a1e2e69ecaffff","h3_11":"8b1e2e69ecaefff"},"geometry":{"type":"Polygon","coordinates":[[[19.968349,49.992472],[19.968505,49.992464],[19.968514,49.992529],[19.968357,49.992538],[19.968349,49.992472]]]}},{"type":"Feature","id":"w337429670","properties":{"type":"yes","address":"Tuchowska 114","residential":true,"residents_est":2,"h3_10":"8a1e2e69ecd7fff","h3_11":"8b1e2e69ecd0fff"},"geometry":{"type":"Polygon","coordinates":[[[19.971327,49.991046],[19.971371,49.990983],[19.971534,49.991031],[19.97149,49.991094],[19.971327,49.991046]]]}},{"type":"Feature","id":"w337429701","properties":{"type":"yes","address":"Rytownicza 11","residential":true,"residents_est":2,"h3_10":"8a1e2e69eceffff","h3_11":"8b1e2e69eceefff"},"geometry":{"type":"Polygon","coordinates":[[[19.973607,49.992508],[19.973619,49.992457],[19.973721,49.992467],[19.973725,49.992451],[19.973781,49.992457],[19.973765,49.992523],[19.973607,49.992508]]]}},{"type":"Feature","id":"w337429748","properties":{"type":"yes","address":"Miarowa 28b","residential":true,"residents_est":4,"h3_10":"8a1e2e69edaffff","h3_11":"8b1e2e69edacfff"},"geometry":{"type":"Polygon","coordinates":[[[19.966221,49.995162],[19.966276,49.995058],[19.966407,49.995086],[19.966377,49.995146],[19.966457,49.995163],[19.966433,49.995209],[19.966221,49.995162]]]}},{"type":"Feature","id":"w337429765","properties":{"type":"detached","address":"Droga Rokadowa 31","residential":true,"residents_est":5,"h3_10":"8a1e2e69ecd7fff","h3_11":"8b1e2e69ecd4fff"},"geometry":{"type":"Polygon","coordinates":[[[19.970957,49.991464],[19.970986,49.991393],[19.971111,49.991415],[19.971103,49.991432],[19.971128,49.991436],[19.971105,49.991489],[19.970957,49.991464]]]}},{"type":"Feature","id":"w337429776","properties":{"type":"yes","residential":true,"residents_est":1,"h3_10":"8a1e2e69ecdffff","h3_11":"8b1e2e69ecdcfff"},"geometry":{"type":"Polygon","coordinates":[[[19.972658,49.990846],[19.972705,49.99076],[19.972775,49.990776],[19.972726,49.990861],[19.972658,49.990846]]]}},{"type":"Feature","id":"w337429780","properties":{"type":"yes","address":"Podgórki 39d","residential":true,"residents_est":2,"h3_10":"8a1e2e69edb7fff","h3_11":"8b1e2e69edb6fff"},"geometry":{"type":"Polygon","coordinates":[[[19.962739,49.994524],[19.96285,49.99452],[19.962856,49.994588],[19.962877,49.994588],[19.962878,49.994612],[19.962747,49.994616],[19.962739,49.994524]]]}},{"type":"Feature","id":"w337429782","properties":{"type":"detached","address":"Droga Rokadowa 27","residential":true,"residents_est":8,"h3_10":"8a1e2e69ec8ffff","h3_11":"8b1e2e69ec8bfff"},"geometry":{"type":"Polygon","coordinates":[[[19.970046,49.99089],[19.970166,49.990865],[19.970234,49.991002],[19.970114,49.991027],[19.970046,49.99089]]]}},{"type":"Feature","id":"w337429790","properties":{"type":"yes","residential":true,"residents_est":2,"h3_10":"8a1e2e69ec77fff","h3_11":"8b1e2e69ec72fff"},"geometry":{"type":"Polygon","coordinates":[[[19.972753,49.994194],[19.97285,49.99411],[19.972932,49.994149],[19.972835,49.994233],[19.972753,49.994194]]]}},{"type":"Feature","id":"w337429792","properties":{"type":"yes","address":"Tuchowska 99","residential":true,"residents_est":5,"h3_10":"8a1e2e69ec1ffff","h3_11":"8b1e2e69ec1dfff"},"geometry":{"type":"Polygon","coordinates":[[[19.970761,49.993612],[19.970833,49.993451],[19.970944,49.993471],[19.970917,49.993533],[19.970935,49.993536],[19.97089,49.993636],[19.970761,49.993612]]]}},{"type":"Feature","id":"w337429808","properties":{"type":"yes","residential":false,"residents_est":0,"h3_10":"8a1e2e69ece7fff","h3_11":"8b1e2e69ece0fff"},"geometry":{"type":"Polygon","coordinates":[[[19.972624,49.992845],[19.972643,49.992807],[19.972744,49.992827],[19.972725,49.992866],[19.972624,49.992845]]]}},{"type":"Feature","id":"w337429813","properties":{"type":"yes","address":"Wyżynna 34E","residential":true,"residents_est":4,"h3_10":"8a1e2e69ed27fff","h3_11":"8b1e2e69ed26fff"},"geometry":{"type":"Polygon","coordinates":[[[19.967016,49.997906],[19.967129,49.997904],[19.96713,49.997884],[19.967211,49.997883],[19.967214,49.997983],[19.967019,49.997985],[19.967016,49.997906]]]}},{"type":"Feature","id":"w337429828","properties":{"type":"yes","address":"Tuchowska 109","residential":true,"residents_est":3,"h3_10":"8a1e2e69ecf7fff","h3_11":"8b1e2e69ecf3fff"},"geometry":{"type":"Polygon","coordinates":[[[19.971418,49.991814],[19.971447,49.991704],[19.971591,49.99172],[19.971562,49.99183],[19.971418,49.991814]]]}},{"type":"Feature","id":"w337429840","properties":{"type":"school","address":"Tuchowska 113","residential":false,"residents_est":0,"h3_10":"8a1e2e69ecc7fff","h3_11":"8b1e2e69ecc2fff"},"geometry":{"type":"Polygon","coordinates":[[[19.97183,49.991327],[19.971893,49.991154],[19.972293,49.991216],[19.972243,49.991352],[19.972005,49.991317],[19.971988,49.991351],[19.97183,49.991327]]]}},{"type":"Feature","id":"w337429842","properties":{"type":"yes","residential":true,"residents_est":2,"h3_10":"8a1e2e69ecf7fff","h3_11":"8b1e2e69ecf6fff"},"geometry":{"type":"Polygon","coordinates":[[[19.970421,49.992084],[19.970451,49.992013],[19.97057,49.992037],[19.970535,49.992133],[19.970458,49.992119],[19.97047,49.992093],[19.970421,49.992084]]]}},{"type":"Feature","id":"w337429846","properties":{"type":"detached","address":"Rytownicza 7g","residential":true,"residents_est":6,"h3_10":"8a1e2e69ec5ffff","h3_11":"8b1e2e69ec58fff"},"geometry":{"type":"Polygon","coordinates":[[[19.975539,49.993222],[19.97559,49.993193],[19.975624,49.993196],[19.975631,49.993164],[19.975711,49.993172],[19.975683,49.993301],[19.975571,49.993291],[19.975578,49.993256],[19.975539,49.993222]]]}},{"type":"Feature","id":"w337429847","properties":{"type":"yes","residential":true,"residents_est":3,"h3_10":"8a1e2e69eceffff","h3_11":"8b1e2e69eceefff"},"geometry":{"type":"Polygon","coordinates":[[[19.973444,49.992459],[19.973475,49.992344],[19.973623,49.992362],[19.973608,49.992406],[19.973561,49.9924],[19.97354,49.99247],[19.973444,49.992459]]]}},{"type":"Feature","id":"w337429850","properties":{"type":"yes","address":"Tuchowska 116A","residential":true,"residents_est":3,"h3_10":"8a1e2e69ecd7fff","h3_11":"8b1e2e69ecd0fff"},"geometry":{"type":"Polygon","coordinates":[[[19.971445,49.990786],[19.971489,49.990746],[19.971511,49.990756],[19.971558,49.990715],[19.971674,49.990769],[19.971629,49.990809],[19.97165,49.990819],[19.971605,49.99086],[19.971445,49.990786]]]}},{"type":"Feature","id":"w337429853","properties":{"type":"yes","address":"Rytownicza 1","residential":true,"residents_est":4,"h3_10":"8a1e2e69ec57fff","h3_11":"8b1e2e69ec54fff"},"geometry":{"type":"Polygon","coordinates":[[[19.973195,49.993874],[19.973219,49.993759],[19.973267,49.993763],[19.97327,49.993752],[19.973323,49.993756],[19.97332,49.993768],[19.973355,49.993771],[19.973331,49.993886],[19.973195,49.993874]]]}},{"type":"Feature","id":"w337429856","properties":{"type":"yes","address":"Tuchowska 99A","residential":true,"residents_est":2,"h3_10":"8a1e2e69ec1ffff","h3_11":"8b1e2e69ec1dfff"},"geometry":{"type":"Polygon","coordinates":[[[19.970573,49.993441],[19.970609,49.993366],[19.970744,49.993393],[19.970709,49.993467],[19.970655,49.993457],[19.970648,49.993471],[19.970608,49.993464],[19.970614,49.993449],[19.970573,49.993441]]]}},{"type":"Feature","id":"w337429857","properties":{"type":"yes","address":"Juliusza Osterwy 71","residential":true,"residents_est":4,"h3_10":"8a1e2e69ecdffff","h3_11":"8b1e2e69ecdcfff"},"geometry":{"type":"Polygon","coordinates":[[[19.972489,49.990985],[19.972541,49.990909],[19.972681,49.990949],[19.972689,49.990938],[19.97275,49.990955],[19.972684,49.991053],[19.972567,49.991019],[19.972573,49.991009],[19.972489,49.990985]]]}},{"type":"Feature","id":"w337429862","properties":{"type":"detached","address":"Rytownicza 9","residential":true,"residents_est":7,"h3_10":"8a1e2e69ece7fff","h3_11":"8b1e2e69ece1fff"},"geometry":{"type":"Polygon","coordinates":[[[19.973197,49.992815],[19.973205,49.99277],[19.973231,49.992772],[19.973241,49.992714],[19.973264,49.992716],[19.973268,49.992687],[19.973372,49.992694],[19.97335,49.992826],[19.973197,49.992815]]]}},{"type":"Feature","id":"w337429888","properties":{"type":"yes","address":"Miarowa 30","residential":true,"residents_est":4,"h3_10":"8a1e2e69edaffff","h3_11":"8b1e2e69edaefff"},"geometry":{"type":"Polygon","coordinates":[[[19.966147,49.994863],[19.966177,49.994809],[19.966198,49.994814],[19.966216,49.994782],[19.966401,49.994826],[19.966365,49.994893],[19.966311,49.994881],[19.966302,49.994899],[19.966147,49.994863]]]}},{"type":"Feature","id":"w337429962","properties":{"type":"yes","address":"Szczawnicka 4","residential":true,"residents_est":5,"h3_10":"8a1e2e69ec0ffff","h3_11":"8b1e2e69ec0afff"},"geometry":{"type":"Polygon","coordinates":[[[19.971758,49.993362],[19.971789,49.993275],[19.971872,49.993287],[19.971877,49.993274],[19.971947,49.993285],[19.971942,49.993298],[19.972013,49.993308],[19.971982,49.993395],[19.971917,49.993386],[19.971914,49.993393],[19.97189,49.993398],[19.971858,49.993395],[19.971833,49.993385],[19.971832,49.993373],[19.971758,49.993362]]]}},{"type":"Feature","id":"w337430001","properties":{"type":"yes","address":"Tuchowska 115b","residential":true,"residents_est":3,"h3_10":"8a1e2e69ecdffff","h3_11":"8b1e2e69ecd8fff"},"geometry":{"type":"Polygon","coordinates":[[[19.973235,49.99062],[19.973277,49.990558],[19.973323,49.990572],[19.97333,49.990562],[19.973464,49.9906],[19.973407,49.990682],[19.973274,49.990643],[19.973281,49.990633],[19.973235,49.99062]]]}},{"type":"Feature","id":"w337430002","properties":{"type":"detached","address":"Szczawnicka 11","residential":true,"residents_est":7,"h3_10":"8a1e2e69ec77fff","h3_11":"8b1e2e69ec75fff"},"geometry":{"type":"Polygon","coordinates":[[[19.973478,49.994889],[19.973513,49.994863],[19.973513,49.994849],[19.973529,49.994838],[19.973549,49.994836],[19.973586,49.994809],[19.973692,49.994869],[19.973583,49.994949],[19.973478,49.994889]]]}},{"type":"Feature","id":"w337430010","properties":{"type":"detached","address":"Miarowa 37","residential":true,"residents_est":6,"h3_10":"8a1e2e69ed17fff","h3_11":"8b1e2e69ed14fff"},"geometry":{"type":"Polygon","coordinates":[[[19.965763,49.996439],[19.965829,49.996352],[19.965778,49.996336],[19.965806,49.996299],[19.965899,49.996329],[19.965874,49.996362],[19.965928,49.996379],[19.965859,49.996469],[19.965763,49.996439]]]}},{"type":"Feature","id":"w337430019","properties":{"type":"yes","address":"Grawerska 4","residential":true,"residents_est":2,"h3_10":"8a1e2e69ec17fff","h3_11":"8b1e2e69ec10fff"},"geometry":{"type":"Polygon","coordinates":[[[19.968965,49.993404],[19.968983,49.993325],[19.96912,49.993335],[19.969102,49.993415],[19.968965,49.993404]]]}},{"type":"Feature","id":"w337430056","properties":{"type":"yes","address":"Miarowa 20","residential":true,"residents_est":4,"h3_10":"8a1e2e69ed17fff","h3_11":"8b1e2e69ed16fff"},"geometry":{"type":"Polygon","coordinates":[[[19.965486,49.996074],[19.965521,49.996006],[19.965504,49.996005],[19.965516,49.995924],[19.965674,49.995933],[19.965688,49.995949],[19.965617,49.996038],[19.965585,49.996036],[19.965556,49.996089],[19.965486,49.996074]]]}},{"type":"Feature","id":"w337472578","properties":{"type":"yes","address":"Podgórki 45b","residential":true,"residents_est":2,"h3_10":"8a1e2e69ed97fff","h3_11":"8b1e2e69ed93fff"},"geometry":{"type":"Polygon","coordinates":[[[19.964233,49.993092],[19.964256,49.993012],[19.964319,49.993019],[19.9643,49.9931],[19.964233,49.993092]]]}},{"type":"Feature","id":"w337473029","properties":{"type":"detached","address":"Podgórki 45","residential":true,"residents_est":3,"h3_10":"8a1e2e69ed97fff","h3_11":"8b1e2e69ed92fff"},"geometry":{"type":"Polygon","coordinates":[[[19.96345,49.992992],[19.963457,49.992967],[19.963484,49.99297],[19.963497,49.992934],[19.963606,49.992949],[19.963585,49.99301],[19.96345,49.992992]]]}},{"type":"Feature","id":"w337473034","properties":{"type":"detached","address":"Droga Rokadowa 15","residential":true,"residents_est":6,"h3_10":"8a1e2e69ec9ffff","h3_11":"8b1e2e69ec9afff"},"geometry":{"type":"Polygon","coordinates":[[[19.967582,49.989909],[19.967618,49.989847],[19.96776,49.989882],[19.967752,49.989896],[19.96779,49.989903],[19.967763,49.989952],[19.967676,49.989933],[19.967665,49.989955],[19.967603,49.98994],[19.967617,49.989918],[19.967582,49.989909]]]}},{"type":"Feature","id":"w337473318","properties":{"type":"yes","residential":false,"residents_est":0,"h3_10":"8a1e2e69ed97fff","h3_11":"8b1e2e69ed92fff"},"geometry":{"type":"Polygon","coordinates":[[[19.963778,49.993011],[19.963788,49.992947],[19.963846,49.992951],[19.963836,49.993015],[19.963778,49.993011]]]}},{"type":"Feature","id":"w591348289","properties":{"type":"yes","address":"Tuchowska 110","residential":true,"residents_est":5,"h3_10":"8a1e2e69ecf7fff","h3_11":"8b1e2e69ecf2fff"},"geometry":{"type":"Polygon","coordinates":[[[19.970422,49.991816],[19.970489,49.991665],[19.970622,49.99169],[19.970595,49.991752],[19.970605,49.991754],[19.970591,49.991782],[19.970583,49.991781],[19.970556,49.991841],[19.970422,49.991816]]]}},{"type":"Feature","id":"w591348291","properties":{"type":"yes","address":"Miarowa 36","residential":true,"residents_est":5,"h3_10":"8a1e2e69ec37fff","h3_11":"8b1e2e69ec36fff"},"geometry":{"type":"Polygon","coordinates":[[[19.967986,49.994402],[19.968017,49.994345],[19.968073,49.994357],[19.96808,49.994342],[19.968231,49.994376],[19.968199,49.994436],[19.96819,49.994434],[19.968161,49.994487],[19.968023,49.994456],[19.968044,49.994415],[19.967986,49.994402]]]}},{"type":"Feature","id":"w701335989","properties":{"type":"house","address":"Grawerska 2G","residential":true,"residents_est":8,"h3_10":"8a1e2e69ed8ffff","h3_11":"8b1e2e69ed89fff"},"geometry":{"type":"Polygon","coordinates":[[[19.967599,49.993879],[19.967612,49.993821],[19.967662,49.993825],[19.967671,49.993782],[19.967779,49.993792],[19.967776,49.993808],[19.967825,49.993814],[19.967804,49.993913],[19.967711,49.993904],[19.967715,49.993884],[19.967676,49.99388],[19.967674,49.993887],[19.967599,49.993879]]]}},{"type":"Feature","id":"w701336907","properties":{"type":"house","address":"Grawerska 2H","residential":true,"residents_est":9,"h3_10":"8a1e2e69ed8ffff","h3_11":"8b1e2e69ed89fff"},"geometry":{"type":"Polygon","coordinates":[[[19.968023,49.993927],[19.968042,49.993837],[19.968107,49.993843],[19.968111,49.993823],[19.968228,49.993833],[19.96822,49.993873],[19.968263,49.993878],[19.968248,49.993947],[19.968185,49.993942],[19.968186,49.99393],[19.968089,49.993921],[19.968085,49.993932],[19.968023,49.993927]]]}},{"type":"Feature","id":"w701337356","properties":{"type":"house","address":"Grawerska 2J","residential":true,"residents_est":8,"h3_10":"8a1e2e69ec17fff","h3_11":"8b1e2e69ec14fff"},"geometry":{"type":"Polygon","coordinates":[[[19.968448,49.993932],[19.968467,49.993847],[19.968658,49.993865],[19.968647,49.993912],[19.96863,49.993911],[19.968624,49.993939],[19.968641,49.993941],[19.968626,49.994008],[19.968563,49.994002],[19.968578,49.993937],[19.96854,49.993933],[19.968538,49.99394],[19.968448,49.993932]]]}},{"type":"Feature","id":"w708428118","properties":{"type":"yes","address":"Podgórki 41a","residential":true,"residents_est":16,"h3_10":"8a1e2e69ed97fff","h3_11":"8b1e2e69ed96fff"},"geometry":{"type":"Polygon","coordinates":[[[19.963093,49.993565],[19.963099,49.993502],[19.963304,49.993511],[19.96331,49.993485],[19.963368,49.99349],[19.963366,49.993513],[19.963462,49.993517],[19.963457,49.993561],[19.963593,49.993574],[19.963567,49.993573],[19.963555,49.993625],[19.963579,49.993629],[19.963182,49.993589],[19.963189,49.993589],[19.963194,49.99357],[19.963093,49.993565]]]}},{"type":"Feature","id":"w708513856","properties":{"type":"yes","residential":false,"residents_est":0,"h3_10":"8a1e2e69ec0ffff","h3_11":"8b1e2e69ec0dfff"},"geometry":{"type":"Polygon","coordinates":[[[19.972548,49.994036],[19.972595,49.993987],[19.972647,49.994008],[19.9726,49.994057],[19.972548,49.994036]]]}},{"type":"Feature","id":"w708513857","properties":{"type":"detached","address":"Szczawnicka 5A","residential":true,"residents_est":3,"h3_10":"8a1e2e69ec0ffff","h3_11":"8b1e2e69ec08fff"},"geometry":{"type":"Polygon","coordinates":[[[19.972171,49.993871],[19.972216,49.993801],[19.972306,49.993825],[19.972256,49.993902],[19.972208,49.993889],[19.972212,49.993882],[19.972171,49.993871]]]}},{"type":"Feature","id":"w708513858","properties":{"type":"detached","address":"Rytownicza 7d","residential":true,"residents_est":5,"h3_10":"8a1e2e69ec57fff","h3_11":"8b1e2e69ec53fff"},"geometry":{"type":"Polygon","coordinates":[[[19.974396,49.993263],[19.97441,49.9932],[19.974452,49.993183],[19.974457,49.993173],[19.974553,49.993182],[19.974533,49.993275],[19.974396,49.993263]]]}},{"type":"Feature","id":"w708513859","properties":{"type":"garage","residential":false,"residents_est":0,"h3_10":"8a1e2e69ec57fff","h3_11":"8b1e2e69ec51fff"},"geometry":{"type":"Polygon","coordinates":[[[19.97443,49.993294],[19.974436,49.993267],[19.974533,49.993275],[19.974527,49.993305],[19.97443,49.993294]]]}},{"type":"Feature","id":"w708513860","properties":{"type":"garage","residential":false,"residents_est":0,"h3_10":"8a1e2e69ec57fff","h3_11":"8b1e2e69ec52fff"},"geometry":{"type":"Polygon","coordinates":[[[19.973695,49.993118],[19.97371,49.993047],[19.973792,49.993054],[19.973777,49.993125],[19.973695,49.993118]]]}},{"type":"Feature","id":"w708513861","properties":{"type":"garage","residential":false,"residents_est":0,"h3_10":"8a1e2e69ec57fff","h3_11":"8b1e2e69ec53fff"},"geometry":{"type":"Polygon","coordinates":[[[19.974136,49.993135],[19.974149,49.993072],[19.974213,49.993078],[19.9742,49.99314],[19.974136,49.993135]]]}},{"type":"Feature","id":"w708513862","properties":{"type":"detached","address":"Juliusza Osterwy 58","residential":true,"residents_est":9,"h3_10":"8a1e2e69ec5ffff","h3_11":"8b1e2e69ec59fff"},"geometry":{"type":"Polygon","coordinates":[[[19.976008,49.993299],[19.976043,49.993142],[19.976179,49.993155],[19.976144,49.993312],[19.976008,49.993299]]]}},{"type":"Feature","id":"w708513866","properties":{"type":"detached","address":"Juliusza Osterwy 76","residential":true,"residents_est":8,"h3_10":"8a1e2e69ec5ffff","h3_11":"8b1e2e69ec5bfff"},"geometry":{"type":"Polygon","coordinates":[[[19.975687,49.992642],[19.975718,49.992491],[19.975851,49.992503],[19.975822,49.992653],[19.975687,49.992642]]]}},{"type":"Feature","id":"w708513875","properties":{"type":"detached","address":"Juliusza Osterwy 62","residential":true,"residents_est":8,"h3_10":"8a1e2e69ec5ffff","h3_11":"8b1e2e69ec5bfff"},"geometry":{"type":"Polygon","coordinates":[[[19.9761,49.992839],[19.976125,49.992714],[19.976169,49.992718],[19.976172,49.992705],[19.976223,49.99271],[19.97622,49.992723],[19.976264,49.992727],[19.976239,49.992851],[19.9761,49.992839]]]}},{"type":"Feature","id":"w708513876","properties":{"type":"detached","address":"Juliusza Osterwy 60","residential":true,"residents_est":8,"h3_10":"8a1e2e69ec5ffff","h3_11":"8b1e2e69ec59fff"},"geometry":{"type":"Polygon","coordinates":[[[19.976037,49.993071],[19.976052,49.992998],[19.976153,49.993006],[19.976164,49.99295],[19.976256,49.992958],[19.976244,49.993019],[19.976236,49.993018],[19.97623,49.993046],[19.976239,49.993047],[19.976231,49.993086],[19.976037,49.993071]]]}},{"type":"Feature","id":"w708513877","properties":{"type":"detached","address":"Juliusza Osterwy 54e","residential":true,"residents_est":9,"h3_10":"8a1e2e69ec5ffff","h3_11":"8b1e2e69ec59fff"},"geometry":{"type":"Polygon","coordinates":[[[19.976449,49.993192],[19.976461,49.993132],[19.976537,49.993138],[19.97654,49.99312],[19.976639,49.993128],[19.976643,49.993109],[19.976731,49.993116],[19.97671,49.993223],[19.976639,49.993217],[19.976641,49.993207],[19.976449,49.993192]]]}},{"type":"Feature","id":"w708513878","properties":{"type":"yes","residential":false,"residents_est":0,"h3_10":"8a1e2e69ec5ffff","h3_11":"8b1e2e69ec5dfff"},"geometry":{"type":"Polygon","coordinates":[[[19.976268,49.993528],[19.976334,49.993524],[19.976344,49.993596],[19.976277,49.9936],[19.976268,49.993528]]]}},{"type":"Feature","id":"w708513879","properties":{"type":"yes","address":"Juliusza Osterwy 54F","residential":true,"residents_est":3,"h3_10":"8a1e2e69ec4ffff","h3_11":"8b1e2e69ec4afff"},"geometry":{"type":"Polygon","coordinates":[[[19.976738,49.993479],[19.976749,49.993419],[19.976796,49.993422],[19.976802,49.993398],[19.97683,49.993399],[19.976845,49.993386],[19.976868,49.993381],[19.976872,49.993372],[19.976939,49.993378],[19.976932,49.993405],[19.97695,49.99342],[19.976925,49.99344],[19.97692,49.993469],[19.976874,49.993466],[19.976871,49.99349],[19.976738,49.993479]]]}},{"type":"Feature","id":"w708513881","properties":{"type":"yes","residential":false,"residents_est":0,"h3_10":"8a1e2e69ec4ffff","h3_11":"8b1e2e69ec4bfff"},"geometry":{"type":"Polygon","coordinates":[[[19.977281,49.993533],[19.97738,49.993523],[19.977386,49.993549],[19.977287,49.993558],[19.977281,49.993533]]]}},{"type":"Feature","id":"w708513894","properties":{"type":"yes","residential":false,"residents_est":0,"h3_10":"8a1e2e69ecdffff","h3_11":"8b1e2e69ecd8fff"},"geometry":{"type":"Polygon","coordinates":[[[19.973031,49.990579],[19.973054,49.990536],[19.97312,49.990551],[19.973097,49.990594],[19.973031,49.990579]]]}},{"type":"Feature","id":"w708513895","properties":{"type":"yes","address":"Tuchowska 116b","residential":true,"residents_est":2,"h3_10":"8a1e2e69ecd7fff","h3_11":"8b1e2e69ecd0fff"},"geometry":{"type":"Polygon","coordinates":[[[19.971211,49.990647],[19.971263,49.990594],[19.971377,49.990643],[19.971308,49.99071],[19.971219,49.990672],[19.971235,49.990657],[19.971211,49.990647]]]}},{"type":"Feature","id":"w708513896","properties":{"type":"yes","residential":false,"residents_est":0,"h3_10":"8a1e2e69ecc7fff","h3_11":"8b1e2e69ecc6fff"},"geometry":{"type":"Polygon","coordinates":[[[19.971956,49.991722],[19.971965,49.991689],[19.972076,49.991702],[19.972067,49.991734],[19.971956,49.991722]]]}},{"type":"Feature","id":"w708513897","properties":{"type":"yes","residential":false,"residents_est":0,"h3_10":"8a1e2e69ec57fff","h3_11":"8b1e2e69ec52fff"},"geometry":{"type":"Polygon","coordinates":[[[19.973152,49.993119],[19.97316,49.993082],[19.973265,49.993095],[19.973258,49.993129],[19.973152,49.993119]]]}},{"type":"Feature","id":"w708513900","properties":{"type":"yes","residential":false,"residents_est":0,"h3_10":"8a1e2e69ec0ffff","h3_11":"8b1e2e69ec0bfff"},"geometry":{"type":"Polygon","coordinates":[[[19.972046,49.993563],[19.972072,49.993502],[19.972112,49.993509],[19.972086,49.99357],[19.972046,49.993563]]]}},{"type":"Feature","id":"w708513903","properties":{"type":"yes","residential":false,"residents_est":0,"h3_10":"8a1e2e69ecf7fff","h3_11":"8b1e2e69ecf2fff"},"geometry":{"type":"Polygon","coordinates":[[[19.970772,49.991542],[19.970779,49.991506],[19.970864,49.991512],[19.970855,49.991549],[19.970772,49.991542]]]}},{"type":"Feature","id":"w708513904","properties":{"type":"yes","residential":false,"residents_est":0,"h3_10":"8a1e2e69ecc7fff","h3_11":"8b1e2e69ecc6fff"},"geometry":{"type":"Polygon","coordinates":[[[19.97171,49.991521],[19.971722,49.991477],[19.971776,49.991483],[19.971764,49.991527],[19.97171,49.991521]]]}},{"type":"Feature","id":"w708513905","properties":{"type":"yes","residential":false,"residents_est":0,"h3_10":"8a1e2e69ecc7fff","h3_11":"8b1e2e69ecc6fff"},"geometry":{"type":"Polygon","coordinates":[[[19.971754,49.991701],[19.971761,49.991669],[19.971885,49.99168],[19.971878,49.991712],[19.971754,49.991701]]]}},{"type":"Feature","id":"w708513906","properties":{"type":"yes","residential":false,"residents_est":0,"h3_10":"8a1e2e69ecf7fff","h3_11":"8b1e2e69ecf1fff"},"geometry":{"type":"Polygon","coordinates":[[[19.971409,49.991846],[19.971418,49.991814],[19.971525,49.991827],[19.971517,49.991858],[19.971409,49.991846]]]}},{"type":"Feature","id":"w708513907","properties":{"type":"yes","residential":false,"residents_est":0,"h3_10":"8a1e2e69ecf7fff","h3_11":"8b1e2e69ecf0fff"},"geometry":{"type":"Polygon","coordinates":[[[19.970862,49.992045],[19.970887,49.991992],[19.97095,49.992005],[19.970925,49.992057],[19.970862,49.992045]]]}},{"type":"Feature","id":"w708513908","properties":{"type":"yes","residential":true,"residents_est":3,"h3_10":"8a1e2e69ecaffff","h3_11":"8b1e2e69eca8fff"},"geometry":{"type":"Polygon","coordinates":[[[19.968998,49.992485],[19.969008,49.992368],[19.969145,49.992373],[19.969138,49.992458],[19.969112,49.992457],[19.969109,49.992488],[19.968998,49.992485]]]}},{"type":"Feature","id":"w708513909","properties":{"type":"yes","address":"Tuchowska 100","residential":true,"residents_est":4,"h3_10":"8a1e2e69ec1ffff","h3_11":"8b1e2e69ec1efff"},"geometry":{"type":"Polygon","coordinates":[[[19.970066,49.993147],[19.970102,49.993036],[19.970216,49.993052],[19.970192,49.993123],[19.970245,49.99313],[19.970226,49.993187],[19.970122,49.993172],[19.970128,49.993155],[19.970066,49.993147]]]}},{"type":"Feature","id":"w708513910","properties":{"type":"yes","address":"Grawerska 11","residential":true,"residents_est":3,"h3_10":"8a1e2e69ec1ffff","h3_11":"8b1e2e69ec1efff"},"geometry":{"type":"Polygon","coordinates":[[[19.969609,49.993099],[19.969624,49.993054],[19.969649,49.993057],[19.969673,49.992987],[19.969774,49.993001],[19.969735,49.993117],[19.969609,49.993099]]]}},{"type":"Feature","id":"w708513911","properties":{"type":"yes","address":"Grawerska 9","residential":true,"residents_est":2,"h3_10":"8a1e2e69ec1ffff","h3_11":"8b1e2e69ec1efff"},"geometry":{"type":"Polygon","coordinates":[[[19.969535,49.993238],[19.969555,49.993182],[19.969728,49.993206],[19.96971,49.993263],[19.969535,49.993238]]]}},{"type":"Feature","id":"w708513912","properties":{"type":"yes","address":"Grawerska 7","residential":true,"residents_est":2,"h3_10":"8a1e2e69ec17fff","h3_11":"8b1e2e69ec11fff"},"geometry":{"type":"Polygon","coordinates":[[[19.969517,49.993294],[19.969535,49.993238],[19.96971,49.993263],[19.969691,49.993319],[19.969517,49.993294]]]}},{"type":"Feature","id":"w708513913","properties":{"type":"yes","address":"Miarowa 53","residential":true,"residents_est":2,"h3_10":"8a1e2e69ec37fff","h3_11":"8b1e2e69ec31fff"},"geometry":{"type":"Polygon","coordinates":[[[19.969509,49.994567],[19.96951,49.994539],[19.969524,49.994539],[19.969524,49.994515],[19.96958,49.994515],[19.969579,49.994523],[19.969634,49.994524],[19.969634,49.994515],[19.969683,49.994515],[19.969681,49.994594],[19.969525,49.994593],[19.969525,49.994568],[19.969509,49.994567]]]}},{"type":"Feature","id":"w708513922","properties":{"type":"yes","residential":false,"residents_est":0,"h3_10":"8a1e2e69ed17fff","h3_11":"8b1e2e69ed16fff"},"geometry":{"type":"Polygon","coordinates":[[[19.9659,49.996099],[19.965924,49.996065],[19.96602,49.996093],[19.965996,49.996127],[19.9659,49.996099]]]}},{"type":"Feature","id":"w708513923","properties":{"type":"yes","address":"Wyżynna 36m","residential":true,"residents_est":3,"h3_10":"8a1e2e69ed27fff","h3_11":"8b1e2e69ed23fff"},"geometry":{"type":"Polygon","coordinates":[[[19.967446,49.997547],[19.967447,49.997522],[19.967661,49.997523],[19.967661,49.997549],[19.967647,49.997549],[19.967646,49.997611],[19.967567,49.997611],[19.967566,49.99762],[19.967538,49.997619],[19.967539,49.997611],[19.967459,49.99761],[19.96746,49.997547],[19.967446,49.997547]]]}},{"type":"Feature","id":"w708513924","properties":{"type":"yes","address":"Wyżynna 36n","residential":true,"residents_est":4,"h3_10":"8a1e2e69ed27fff","h3_11":"8b1e2e69ed23fff"},"geometry":{"type":"Polygon","coordinates":[[[19.967447,49.997522],[19.967447,49.997496],[19.967461,49.997496],[19.967462,49.997434],[19.967541,49.997434],[19.967542,49.997425],[19.967569,49.997425],[19.96757,49.997434],[19.967649,49.997435],[19.967648,49.997498],[19.967662,49.997498],[19.967661,49.997523],[19.967447,49.997522]]]}},{"type":"Feature","id":"w708513925","properties":{"type":"yes","address":"Wyżynna 36k","residential":true,"residents_est":3,"h3_10":"8a1e2e69ed27fff","h3_11":"8b1e2e69ed20fff"},"geometry":{"type":"Polygon","coordinates":[[[19.96746,49.997859],[19.967461,49.997834],[19.967676,49.997836],[19.967675,49.997861],[19.967662,49.997861],[19.96766,49.997924],[19.967581,49.997923],[19.967581,49.997932],[19.967553,49.997932],[19.967554,49.997923],[19.967473,49.997922],[19.967475,49.99786],[19.96746,49.997859]]]}},{"type":"Feature","id":"w708513926","properties":{"type":"yes","address":"Wyżynna 36l","residential":true,"residents_est":4,"h3_10":"8a1e2e69ed27fff","h3_11":"8b1e2e69ed20fff"},"geometry":{"type":"Polygon","coordinates":[[[19.967461,49.997834],[19.967462,49.997809],[19.967475,49.997809],[19.967477,49.997746],[19.967556,49.997746],[19.967557,49.997738],[19.967584,49.997738],[19.967584,49.997747],[19.967664,49.997747],[19.967662,49.99781],[19.967677,49.99781],[19.967676,49.997836],[19.967461,49.997834]]]}},{"type":"Feature","id":"w708513927","properties":{"type":"yes","address":"Wyżynna 36h","residential":true,"residents_est":4,"h3_10":"8a1e2e69ed27fff","h3_11":"8b1e2e69ed25fff"},"geometry":{"type":"Polygon","coordinates":[[[19.967443,49.998188],[19.967444,49.998163],[19.967659,49.998165],[19.967658,49.99819],[19.967644,49.99819],[19.967643,49.998253],[19.967564,49.998252],[19.967563,49.998261],[19.967535,49.998261],[19.967536,49.998252],[19.967456,49.998252],[19.967457,49.998189],[19.967443,49.998188]]]}},{"type":"Feature","id":"w708513928","properties":{"type":"yes","address":"Wyżynna 36j","residential":true,"residents_est":3,"h3_10":"8a1e2e69ed27fff","h3_11":"8b1e2e69ed25fff"},"geometry":{"type":"Polygon","coordinates":[[[19.967444,49.998163],[19.967444,49.998138],[19.967458,49.998138],[19.967459,49.998075],[19.967538,49.998076],[19.967539,49.998067],[19.967566,49.998067],[19.967567,49.998076],[19.967646,49.998077],[19.967645,49.99814],[19.967659,49.99814],[19.967659,49.998165],[19.967444,49.998163]]]}},{"type":"Feature","id":"w708513929","properties":{"type":"yes","address":"Wyżynna 32g","residential":true,"residents_est":3,"h3_10":"8a1e2e69ed37fff","h3_11":"8b1e2e69ed35fff"},"geometry":{"type":"Polygon","coordinates":[[[19.966301,49.997441],[19.966333,49.997441],[19.966334,49.997436],[19.966411,49.997441],[19.966413,49.997571],[19.966321,49.997571],[19.966322,49.997514],[19.966302,49.997514],[19.966301,49.997441]]]}},{"type":"Feature","id":"w708513937","properties":{"type":"yes","address":"Miarowa 34","residential":true,"residents_est":3,"h3_10":"8a1e2e69ec37fff","h3_11":"8b1e2e69ec36fff"},"geometry":{"type":"Polygon","coordinates":[[[19.96744,49.99457],[19.967473,49.994511],[19.967468,49.994504],[19.967477,49.994489],[19.967501,49.994482],[19.967525,49.994488],[19.967529,49.994495],[19.967597,49.994512],[19.967547,49.994596],[19.96753,49.994592],[19.967522,49.994605],[19.967512,49.994607],[19.967482,49.994595],[19.967489,49.994582],[19.96744,49.99457]]]}},{"type":"Feature","id":"w708513938","properties":{"type":"yes","residential":false,"residents_est":0,"h3_10":"8a1e2e69edaffff","h3_11":"8b1e2e69eda8fff"},"geometry":{"type":"Polygon","coordinates":[[[19.966534,49.995041],[19.966553,49.995006],[19.966669,49.995032],[19.966651,49.995067],[19.966534,49.995041]]]}},{"type":"Feature","id":"w708513939","properties":{"type":"yes","residential":false,"residents_est":0,"h3_10":"8a1e2e69eda7fff","h3_11":"8b1e2e69eda5fff"},"geometry":{"type":"Polygon","coordinates":[[[19.965439,49.995494],[19.965455,49.99546],[19.965509,49.99547],[19.965493,49.995505],[19.965439,49.995494]]]}},{"type":"Feature","id":"w708513940","properties":{"type":"yes","residential":false,"residents_est":0,"h3_10":"8a1e2e69eda7fff","h3_11":"8b1e2e69eda5fff"},"geometry":{"type":"Polygon","coordinates":[[[19.965318,49.995792],[19.965325,49.995758],[19.965437,49.995766],[19.96543,49.995801],[19.965318,49.995792]]]}},{"type":"Feature","id":"w708513943","properties":{"type":"yes","address":"Do Luboni 67d","residential":true,"residents_est":3,"h3_10":"8a1e2e69eda7fff","h3_11":"8b1e2e69eda6fff"},"geometry":{"type":"Polygon","coordinates":[[[19.963885,49.99536],[19.963925,49.995355],[19.963921,49.995339],[19.964052,49.99533],[19.964071,49.995405],[19.963902,49.995424],[19.963885,49.99536]]]}},{"type":"Feature","id":"w708513945","properties":{"type":"yes","address":"Do Luboni 67J","residential":true,"residents_est":2,"h3_10":"8a1e2e69eda7fff","h3_11":"8b1e2e69eda4fff"},"geometry":{"type":"Polygon","coordinates":[[[19.964401,49.995661],[19.964435,49.995594],[19.964482,49.995604],[19.964498,49.995599],[19.964516,49.995603],[19.964525,49.995614],[19.964569,49.995623],[19.964551,49.995658],[19.964571,49.995662],[19.964555,49.995694],[19.964401,49.995661]]]}},{"type":"Feature","id":"w708513946","properties":{"type":"yes","address":"Do Luboni 67K","residential":true,"residents_est":2,"h3_10":"8a1e2e69eda7fff","h3_11":"8b1e2e69eda4fff"},"geometry":{"type":"Polygon","coordinates":[[[19.964367,49.995728],[19.964401,49.995661],[19.964555,49.995694],[19.964539,49.995725],[19.964519,49.995721],[19.964501,49.995756],[19.964457,49.995746],[19.964441,49.995752],[19.964422,49.995748],[19.964413,49.995737],[19.964367,49.995728]]]}},{"type":"Feature","id":"w708513947","properties":{"type":"yes","address":"Do Luboni 67L","residential":true,"residents_est":3,"h3_10":"8a1e2e69eda7fff","h3_11":"8b1e2e69eda6fff"},"geometry":{"type":"Polygon","coordinates":[[[19.964236,49.995447],[19.964275,49.995371],[19.964446,49.99541],[19.96441,49.995481],[19.964236,49.995447]]]}},{"type":"Feature","id":"w708513948","properties":{"type":"yes","address":"Do Luboni 67H","residential":true,"residents_est":3,"h3_10":"8a1e2e69eda7fff","h3_11":"8b1e2e69eda4fff"},"geometry":{"type":"Polygon","coordinates":[[[19.964596,49.995535],[19.964635,49.995458],[19.964806,49.995498],[19.96477,49.995568],[19.964596,49.995535]]]}},{"type":"Feature","id":"w712614606","properties":{"type":"yes","residential":true,"residents_est":1,"h3_10":"8a1e2e69ec67fff","h3_11":"8b1e2e69ec62fff"},"geometry":{"type":"Polygon","coordinates":[[[19.974815,49.995022],[19.974852,49.994979],[19.974943,49.995018],[19.974901,49.995058],[19.974815,49.995022]]]}},{"type":"Feature","id":"w712614607","properties":{"type":"yes","residential":false,"residents_est":0,"h3_10":"8a1e2e69ec67fff","h3_11":"8b1e2e69ec62fff"},"geometry":{"type":"Polygon","coordinates":[[[19.974852,49.994979],[19.974884,49.994948],[19.974973,49.994988],[19.974943,49.995018],[19.974852,49.994979]]]}},{"type":"Feature","id":"w712614608","properties":{"type":"house","address":"Szczawnicka 12","residential":true,"residents_est":6,"h3_10":"8a1e2e69ec67fff","h3_11":"8b1e2e69ec63fff"},"geometry":{"type":"Polygon","coordinates":[[[19.974894,49.994953],[19.974989,49.994859],[19.9751,49.994905],[19.975052,49.994951],[19.97504,49.994946],[19.974991,49.994995],[19.974894,49.994953]]]}},{"type":"Feature","id":"w712614609","properties":{"type":"yes","address":"Szczawnicka 12b","residential":true,"residents_est":2,"h3_10":"8a1e2e69ec67fff","h3_11":"8b1e2e69ec63fff"},"geometry":{"type":"Polygon","coordinates":[[[19.975359,49.994905],[19.975413,49.994853],[19.975542,49.994909],[19.975489,49.994961],[19.975359,49.994905]]]}},{"type":"Feature","id":"w712614610","properties":{"type":"yes","address":"Szczawnicka 12c","residential":true,"residents_est":3,"h3_10":"8a1e2e69ec67fff","h3_11":"8b1e2e69ec63fff"},"geometry":{"type":"Polygon","coordinates":[[[19.97526,49.995126],[19.975325,49.995063],[19.975428,49.995108],[19.975396,49.995139],[19.975413,49.995146],[19.975388,49.995171],[19.975371,49.995163],[19.975341,49.995193],[19.975261,49.995159],[19.975284,49.995136],[19.97526,49.995126]]]}},{"type":"Feature","id":"w712614611","properties":{"type":"detached","address":"Szczawnicka 11b","residential":true,"residents_est":5,"h3_10":"8a1e2e69ec77fff","h3_11":"8b1e2e69ec75fff"},"geometry":{"type":"Polygon","coordinates":[[[19.973962,49.9951],[19.97402,49.995057],[19.974018,49.995044],[19.974031,49.995032],[19.974054,49.995031],[19.974071,49.995039],[19.974074,49.995052],[19.974132,49.995077],[19.974121,49.995087],[19.97416,49.995106],[19.974103,49.995154],[19.974064,49.995135],[19.974052,49.995145],[19.973962,49.9951]]]}},{"type":"Feature","id":"w712614613","properties":{"type":"bungalow","residential":false,"residents_est":0,"h3_10":"8a1e2e69ece7fff","h3_11":"8b1e2e69ece3fff"},"geometry":{"type":"Polygon","coordinates":[[[19.972725,49.992201],[19.972727,49.992152],[19.972783,49.992153],[19.97278,49.992202],[19.972725,49.992201]]]}},{"type":"Feature","id":"w712632578","properties":{"type":"yes","residential":false,"residents_est":0,"h3_10":"8a1e2e69ecaffff","h3_11":"8b1e2e69eca8fff"},"geometry":{"type":"Polygon","coordinates":[[[19.969249,49.992246],[19.969304,49.992238],[19.969319,49.992282],[19.969264,49.992289],[19.969249,49.992246]]]}},{"type":"Feature","id":"w875894939","properties":{"type":"detached","address":"Rytownicza 9a","residential":true,"residents_est":7,"h3_10":"8a1e2e69eceffff","h3_11":"8b1e2e69ececfff"},"geometry":{"type":"Polygon","coordinates":[[[19.973545,49.992832],[19.973564,49.992726],[19.973721,49.992738],[19.9737,49.992852],[19.973647,49.992849],[19.973648,49.992841],[19.973545,49.992832]]]}},{"type":"Feature","id":"w875894940","properties":{"type":"yes","residential":true,"residents_est":2,"h3_10":"8a1e2e69ec67fff","h3_11":"8b1e2e69ec62fff"},"geometry":{"type":"Polygon","coordinates":[[[19.974566,49.995132],[19.974609,49.99509],[19.974748,49.995147],[19.974705,49.99519],[19.974566,49.995132]]]}},{"type":"Feature","id":"w1164802876","properties":{"type":"yes","address":"Juliusza Osterwy 54M","residential":true,"residents_est":5,"h3_10":"8a1e2e69ec47fff","h3_11":"8b1e2e69ec42fff"},"geometry":{"type":"Polygon","coordinates":[[[19.97512,49.993977],[19.975132,49.993873],[19.975355,49.993884],[19.975343,49.993988],[19.97512,49.993977]]]}},{"type":"Feature","id":"w1194832384","properties":{"type":"house","levels":2.0,"address":"Miarowa 41","residential":true,"residents_est":9,"h3_10":"8a1e2e69edaffff","h3_11":"8b1e2e69edadfff"},"geometry":{"type":"Polygon","coordinates":[[[19.966873,49.995235],[19.966905,49.995178],[19.966963,49.995192],[19.966976,49.995168],[19.966966,49.995166],[19.967006,49.995094],[19.967006,49.995101],[19.9671,49.995123],[19.967107,49.995117],[19.967015,49.995283],[19.967015,49.995276],[19.966921,49.995254],[19.966914,49.99526],[19.966922,49.995246],[19.966873,49.995235]]]}},{"type":"Feature","id":"w1308581244","properties":{"type":"yes","residential":true,"residents_est":2,"h3_10":"8a1e2e69eda7fff","h3_11":"8b1e2e69eda5fff"},"geometry":{"type":"Polygon","coordinates":[[[19.965206,49.995804],[19.965336,49.995796],[19.965348,49.995869],[19.965217,49.995877],[19.965206,49.995804]]]}},{"type":"Feature","id":"w1308581247","properties":{"type":"yes","address":"Miarowa 55","residential":true,"residents_est":4,"h3_10":"8a1e2e69ec07fff","h3_11":"8b1e2e69ec04fff"},"geometry":{"type":"Polygon","coordinates":[[[19.969867,49.994636],[19.969871,49.994555],[19.969927,49.994556],[19.969927,49.994542],[19.970049,49.994544],[19.970048,49.994576],[19.970059,49.994577],[19.970057,49.994611],[19.970047,49.994611],[19.970046,49.994643],[19.969867,49.994636]]]}},{"type":"Feature","id":"w1308581248","properties":{"type":"yes","address":"Miarowa 51","residential":true,"residents_est":3,"h3_10":"8a1e2e69ec37fff","h3_11":"8b1e2e69ec31fff"},"geometry":{"type":"Polygon","coordinates":[[[19.969102,49.994534],[19.969106,49.994503],[19.96912,49.994503],[19.969122,49.994478],[19.969177,49.994481],[19.969176,49.994489],[19.969222,49.994491],[19.969223,49.994482],[19.969277,49.994485],[19.969269,49.994566],[19.969114,49.99456],[19.969116,49.994535],[19.969102,49.994534]]]}},{"type":"Feature","id":"w1308581250","properties":{"type":"yes","residential":true,"residents_est":5,"h3_10":"8a1e2e69ecaffff","h3_11":"8b1e2e69ecaafff"},"geometry":{"type":"Polygon","coordinates":[[[19.968881,49.992151],[19.968881,49.992127],[19.968913,49.99212],[19.968915,49.992088],[19.969057,49.992092],[19.96905,49.992199],[19.969037,49.992199],[19.969033,49.992252],[19.968919,49.992249],[19.968922,49.992196],[19.968908,49.992196],[19.96891,49.992161],[19.968894,49.992161],[19.968881,49.992151]]]}},{"type":"Feature","id":"w1308581251","properties":{"type":"yes","residential":true,"residents_est":1,"h3_10":"8a1e2e69ec37fff","h3_11":"8b1e2e69ec32fff"},"geometry":{"type":"Polygon","coordinates":[[[19.96829,49.994377],[19.9683,49.994322],[19.968404,49.99433],[19.968394,49.994385],[19.96829,49.994377]]]}},{"type":"Feature","id":"w1308581255","properties":{"type":"yes","residential":false,"residents_est":0,"h3_10":"8a1e2e69ec37fff","h3_11":"8b1e2e69ec36fff"},"geometry":{"type":"Polygon","coordinates":[[[19.967549,49.99443],[19.967565,49.994403],[19.967641,49.994422],[19.967625,49.994449],[19.967549,49.99443]]]}},{"type":"Feature","id":"w1308581257","properties":{"type":"yes","address":"Grawerska 2c","residential":true,"residents_est":4,"h3_10":"8a1e2e69ed8ffff","h3_11":"8b1e2e69ed8dfff"},"geometry":{"type":"Polygon","coordinates":[[[19.967354,49.994164],[19.967375,49.994066],[19.967431,49.994071],[19.967428,49.994084],[19.967498,49.99409],[19.967496,49.9941],[19.967593,49.994109],[19.967578,49.994174],[19.967482,49.994165],[19.967477,49.994189],[19.967403,49.994182],[19.967406,49.994169],[19.967354,49.994164]]]}},{"type":"Feature","id":"w1308581263","properties":{"type":"yes","residential":true,"residents_est":4,"h3_10":"8a1e2e69edaffff","h3_11":"8b1e2e69eda8fff"},"geometry":{"type":"Polygon","coordinates":[[[19.966517,49.994996],[19.966586,49.994876],[19.966707,49.994905],[19.966638,49.995025],[19.966517,49.994996]]]}},{"type":"Feature","id":"w1308581270","properties":{"type":"yes","residential":false,"residents_est":0,"h3_10":"8a1e2e69eda7fff","h3_11":"8b1e2e69eda4fff"},"geometry":{"type":"Polygon","coordinates":[[[19.964321,49.995629],[19.964353,49.995567],[19.964422,49.995582],[19.96439,49.995644],[19.964321,49.995629]]]}},{"type":"Feature","id":"w1308581279","properties":{"type":"yes","address":"Wyżynna 34H","residential":true,"residents_est":3,"h3_10":"8a1e2e69ed37fff","h3_11":"8b1e2e69ed31fff"},"geometry":{"type":"Polygon","coordinates":[[[19.96667,49.997233],[19.966773,49.997233],[19.966773,49.997365],[19.96667,49.997365],[19.96667,49.997233]]]}},{"type":"Feature","id":"w1308581280","properties":{"type":"yes","address":"Wyżynna 34G","residential":true,"residents_est":3,"h3_10":"8a1e2e69ed37fff","h3_11":"8b1e2e69ed35fff"},"geometry":{"type":"Polygon","coordinates":[[[19.966668,49.997383],[19.966771,49.997382],[19.966772,49.997514],[19.966669,49.997514],[19.966668,49.997383]]]}},{"type":"Feature","id":"w1308581301","properties":{"type":"yes","residential":false,"residents_est":0,"h3_10":"8a1e2e69ecaffff","h3_11":"8b1e2e69ecacfff"},"geometry":{"type":"Polygon","coordinates":[[[19.968533,49.992713],[19.968541,49.992665],[19.968617,49.99267],[19.968609,49.992718],[19.968533,49.992713]]]}},{"type":"Feature","id":"w1308581302","properties":{"type":"yes","residential":true,"residents_est":1,"h3_10":"8a1e2e69ecaffff","h3_11":"8b1e2e69ecaefff"},"geometry":{"type":"Polygon","coordinates":[[[19.968167,49.992282],[19.968168,49.992224],[19.968269,49.992224],[19.968268,49.992283],[19.968167,49.992282]]]}},{"type":"Feature","id":"w1308581303","properties":{"type":"yes","residential":true,"residents_est":1,"h3_10":"8a1e2e69eca7fff","h3_11":"8b1e2e69eca3fff"},"geometry":{"type":"Polygon","coordinates":[[[19.968072,49.992288],[19.968072,49.992224],[19.968168,49.992224],[19.968167,49.992288],[19.968072,49.992288]]]}},{"type":"Feature","id":"w1309955653","properties":{"type":"yes","address":"Tuchowska 101E","residential":true,"residents_est":6,"h3_10":"8a1e2e69ec1ffff","h3_11":"8b1e2e69ec19fff"},"geometry":{"type":"Polygon","coordinates":[[[19.971517,49.99306],[19.971549,49.99298],[19.971522,49.992975],[19.97154,49.992932],[19.971567,49.992936],[19.971573,49.99292],[19.971668,49.992936],[19.971665,49.992943],[19.971764,49.992959],[19.971761,49.992965],[19.971812,49.992973],[19.971783,49.993044],[19.971724,49.993034],[19.971728,49.993025],[19.971696,49.99302],[19.97167,49.993085],[19.971517,49.99306]]]}},{"type":"Feature","id":"w1309955654","properties":{"type":"yes","address":"Tuchowska 101d","residential":true,"residents_est":2,"h3_10":"8a1e2e69ec1ffff","h3_11":"8b1e2e69ec19fff"},"geometry":{"type":"Polygon","coordinates":[[[19.971259,49.992952],[19.971269,49.992925],[19.971259,49.992924],[19.971269,49.992897],[19.971279,49.992898],[19.971289,49.992872],[19.971407,49.992892],[19.971375,49.992971],[19.971259,49.992952]]]}},{"type":"Feature","id":"w1309955655","properties":{"type":"yes","address":"Tuchowska 101c","residential":true,"residents_est":2,"h3_10":"8a1e2e69ec1ffff","h3_11":"8b1e2e69ec19fff"},"geometry":{"type":"Polygon","coordinates":[[[19.971167,49.993186],[19.971205,49.99309],[19.971317,49.993108],[19.97128,49.993204],[19.971167,49.993186]]]}},{"type":"Feature","id":"w1309955656","properties":{"type":"yes","residential":true,"residents_est":1,"h3_10":"8a1e2e69ecdffff","h3_11":"8b1e2e69ecddfff"},"geometry":{"type":"Polygon","coordinates":[[[19.973357,49.990839],[19.973394,49.990783],[19.973477,49.990806],[19.97344,49.990862],[19.973357,49.990839]]]}},{"type":"Feature","id":"w1309955672","properties":{"type":"yes","residential":false,"residents_est":0,"h3_10":"8a1e2e69ed97fff","h3_11":"8b1e2e69ed92fff"},"geometry":{"type":"Polygon","coordinates":[[[19.963595,49.992982],[19.963606,49.992949],[19.963666,49.992958],[19.963655,49.992991],[19.963595,49.992982]]]}},{"type":"Feature","id":"w1309955696","properties":{"type":"yes","residential":true,"residents_est":2,"h3_10":"8a1e2e69ecd7fff","h3_11":"8b1e2e69ecd4fff"},"geometry":{"type":"Polygon","coordinates":[[[19.970737,49.991112],[19.970892,49.991079],[19.970908,49.991112],[19.97087,49.991151],[19.970768,49.991173],[19.970737,49.991112]]]}},{"type":"Feature","id":"w1311056471","properties":{"type":"yes","residential":false,"residents_est":0,"h3_10":"8a1e2e69ec5ffff","h3_11":"8b1e2e69ec5dfff"},"geometry":{"type":"Polygon","coordinates":[[[19.9759,49.993572],[19.975929,49.99357],[19.975941,49.993642],[19.975912,49.993644],[19.9759,49.993572]]]}},{"type":"Feature","id":"w1311056472","properties":{"type":"yes","residential":false,"residents_est":0,"h3_10":"8a1e2e69ec5ffff","h3_11":"8b1e2e69ec5efff"},"geometry":{"type":"Polygon","coordinates":[[[19.974854,49.993287],[19.974866,49.993222],[19.97492,49.993226],[19.974908,49.993291],[19.974854,49.993287]]]}},{"type":"Feature","id":"w1311056474","properties":{"type":"yes","residential":false,"residents_est":0,"h3_10":"8a1e2e69eceffff","h3_11":"8b1e2e69ece8fff"},"geometry":{"type":"Polygon","coordinates":[[[19.973981,49.992526],[19.974004,49.992466],[19.974075,49.992478],[19.974051,49.992537],[19.973981,49.992526]]]}},{"type":"Feature","id":"w1311056493","properties":{"type":"yes","address":"Juliusza Osterwy 54K","residential":true,"residents_est":3,"h3_10":"8a1e2e69ec47fff","h3_11":"8b1e2e69ec41fff"},"geometry":{"type":"Polygon","coordinates":[[[19.975945,49.994012],[19.975951,49.993981],[19.975966,49.993982],[19.975971,49.993954],[19.976152,49.993968],[19.976135,49.994055],[19.975954,49.994041],[19.975959,49.994013],[19.975945,49.994012]]]}},{"type":"Feature","id":"w1311056494","properties":{"type":"yes","address":"Juliusza Osterwy 54G","residential":true,"residents_est":3,"h3_10":"8a1e2e69ec4ffff","h3_11":"8b1e2e69ec48fff"},"geometry":{"type":"Polygon","coordinates":[[[19.976843,49.993746],[19.976858,49.99367],[19.976888,49.993672],[19.97689,49.99366],[19.976959,49.993666],[19.976956,49.993677],[19.977007,49.993682],[19.976991,49.993761],[19.976843,49.993746]]]}},{"type":"Feature","id":"w1311056495","properties":{"type":"yes","residential":false,"residents_est":0,"h3_10":"8a1e2e69ec4ffff","h3_11":"8b1e2e69ec4bfff"},"geometry":{"type":"Polygon","coordinates":[[[19.977289,49.993655],[19.977347,49.993644],[19.977368,49.993688],[19.97731,49.9937],[19.977289,49.993655]]]}},{"type":"Feature","id":"w1311056502","properties":{"type":"yes","residential":true,"residents_est":1,"h3_10":"8a1e2e69ec4ffff","h3_11":"8b1e2e69ec48fff"},"geometry":{"type":"Polygon","coordinates":[[[19.977023,49.99378],[19.977127,49.993775],[19.977132,49.993826],[19.977028,49.99383],[19.977023,49.99378]]]}},{"type":"Feature","id":"w1311056505","properties":{"type":"yes","residential":false,"residents_est":0,"h3_10":"8a1e2e69eceffff","h3_11":"8b1e2e69ececfff"},"geometry":{"type":"Polygon","coordinates":[[[19.973453,49.992671],[19.973463,49.992638],[19.973566,49.992651],[19.973556,49.992684],[19.973453,49.992671]]]}},{"type":"Feature","id":"w1311056509","properties":{"type":"yes","residential":false,"residents_est":0,"h3_10":"8a1e2e69ec57fff","h3_11":"8b1e2e69ec52fff"},"geometry":{"type":"Polygon","coordinates":[[[19.973713,49.993035],[19.97372,49.992986],[19.973801,49.992991],[19.973793,49.99304],[19.973713,49.993035]]]}},{"type":"Feature","id":"w1311056523","properties":{"type":"yes","residential":false,"residents_est":0,"h3_10":"8a1e2e69ec67fff","h3_11":"8b1e2e69ec63fff"},"geometry":{"type":"Polygon","coordinates":[[[19.975195,49.995016],[19.975245,49.994962],[19.975309,49.994986],[19.975258,49.995041],[19.975195,49.995016]]]}},{"type":"Feature","id":"w1311056524","properties":{"type":"yes","residential":false,"residents_est":0,"h3_10":"8a1e2e69ec67fff","h3_11":"8b1e2e69ec61fff"},"geometry":{"type":"Polygon","coordinates":[[[19.975616,49.995111],[19.975647,49.995078],[19.975714,49.995104],[19.975683,49.995137],[19.975616,49.995111]]]}},{"type":"Feature","id":"w1311056534","properties":{"type":"yes","residential":false,"residents_est":0,"h3_10":"8a1e2e69ece7fff","h3_11":"8b1e2e69ece5fff"},"geometry":{"type":"Polygon","coordinates":[[[19.972583,49.992945],[19.972608,49.992892],[19.972666,49.992904],[19.972641,49.992956],[19.972583,49.992945]]]}},{"type":"Feature","id":"w1311056535","properties":{"type":"yes","address":"Rytownicza 4","residential":true,"residents_est":2,"h3_10":"8a1e2e69ece7fff","h3_11":"8b1e2e69ece5fff"},"geometry":{"type":"Polygon","coordinates":[[[19.972694,49.992983],[19.97273,49.992908],[19.972867,49.992935],[19.972832,49.99301],[19.972694,49.992983]]]}},{"type":"Feature","id":"w1311056546","properties":{"type":"yes","residential":false,"residents_est":0,"h3_10":"8a1e2e69ec67fff","h3_11":"8b1e2e69ec60fff"},"geometry":{"type":"Polygon","coordinates":[[[19.974891,49.995537],[19.974964,49.995457],[19.975008,49.995474],[19.974936,49.995554],[19.974891,49.995537]]]}},{"type":"Feature","id":"w1311056551","properties":{"type":"yes","residential":false,"residents_est":0,"h3_10":"8a1e2e69ec77fff","h3_11":"8b1e2e69ec74fff"},"geometry":{"type":"Polygon","coordinates":[[[19.972993,49.994765],[19.973039,49.994733],[19.973072,49.994753],[19.973026,49.994785],[19.972993,49.994765]]]}},{"type":"Feature","id":"w1311056553","properties":{"type":"yes","residential":false,"residents_est":0,"h3_10":"8a1e2e69ec0ffff","h3_11":"8b1e2e69ec0efff"},"geometry":{"type":"Polygon","coordinates":[[[19.971039,49.993818],[19.971066,49.993765],[19.971143,49.993781],[19.971117,49.993834],[19.971039,49.993818]]]}},{"type":"Feature","id":"w1311056560","properties":{"type":"yes","residential":false,"residents_est":0,"h3_10":"8a1e2e69ec1ffff","h3_11":"8b1e2e69ec1dfff"},"geometry":{"type":"Polygon","coordinates":[[[19.970833,49.993451],[19.970857,49.993397],[19.970895,49.993404],[19.970871,49.993458],[19.970833,49.993451]]]}},{"type":"Feature","id":"w1311056571","properties":{"type":"yes","address":"Szczawnicka 9b","residential":true,"residents_est":3,"h3_10":"8a1e2e69ec77fff","h3_11":"8b1e2e69ec70fff"},"geometry":{"type":"Polygon","coordinates":[[[19.973345,49.994678],[19.973374,49.994658],[19.973372,49.994644],[19.97339,49.994631],[19.973412,49.994633],[19.973442,49.994612],[19.973558,49.994683],[19.973461,49.994748],[19.973392,49.994712],[19.973397,49.994709],[19.973345,49.994678]]]}},{"type":"Feature","id":"w1311056572","properties":{"type":"yes","residential":true,"residents_est":4,"h3_10":"8a1e2e69ec77fff","h3_11":"8b1e2e69ec70fff"},"geometry":{"type":"Polygon","coordinates":[[[19.973171,49.994441],[19.973261,49.994378],[19.97342,49.994473],[19.97333,49.994536],[19.973171,49.994441]]]}},{"type":"Feature","id":"w1311056573","properties":{"type":"yes","address":"Szczawnicka 10b","residential":true,"residents_est":4,"h3_10":"8a1e2e69ec77fff","h3_11":"8b1e2e69ec71fff"},"geometry":{"type":"Polygon","coordinates":[[[19.973809,49.994431],[19.973929,49.994397],[19.973949,49.994427],[19.973976,49.994419],[19.974017,49.994483],[19.973989,49.994491],[19.974009,49.99452],[19.973918,49.994547],[19.973878,49.99449],[19.973849,49.994498],[19.973809,49.994431]]]}},{"type":"Feature","id":"w1311253995","properties":{"type":"yes","residential":false,"residents_est":0,"h3_10":"8a1e2e69ec47fff","h3_11":"8b1e2e69ec42fff"},"geometry":{"type":"Polygon","coordinates":[[[19.975197,49.993826],[19.975204,49.993799],[19.975278,49.993807],[19.975271,49.993834],[19.975197,49.993826]]]}},{"type":"Feature","id":"w1311518082","properties":{"type":"yes","residential":false,"residents_est":0,"h3_10":"8a1e2e69ec9ffff","h3_11":"8b1e2e69ec9afff"},"geometry":{"type":"Polygon","coordinates":[[[19.967708,49.990343],[19.967738,49.990292],[19.967802,49.990308],[19.967772,49.990358],[19.967708,49.990343]]]}},{"type":"Feature","id":"w1311518083","properties":{"type":"yes","residential":true,"residents_est":3,"h3_10":"8a1e2e69ec9ffff","h3_11":"8b1e2e69ec9efff"},"geometry":{"type":"Polygon","coordinates":[[[19.967549,49.990389],[19.967592,49.990315],[19.967772,49.990358],[19.967729,49.990432],[19.967549,49.990389]]]}},{"type":"Feature","id":"w1311518084","properties":{"type":"yes","residential":false,"residents_est":0,"h3_10":"8a1e2e69ec9ffff","h3_11":"8b1e2e69ec9afff"},"geometry":{"type":"Polygon","coordinates":[[[19.967457,49.990065],[19.967481,49.990032],[19.96754,49.990049],[19.967516,49.990083],[19.967457,49.990065]]]}}]}