{"type":"FeatureCollection","features":[{"type":"Feature","id":"w139537494","properties":{"type":"yes","name":"KZN BIEŻANÓW","residential":true,"residents_est":491,"h3_10":"8a1e2e68ec97fff","h3_11":"8b1e2e68ec93fff"},"geometry":{"type":"Polygon","coordinates":[[[20.036215,50.026709],[20.037621,50.026505],[20.037619,50.0265],[20.037758,50.02648],[20.037929,50.02696],[20.037882,50.026967],[20.037964,50.027201],[20.036465,50.027423],[20.036385,50.027201],[20.036394,50.027199],[20.036215,50.026709]]]}},{"type":"Feature","id":"w155654541","properties":{"type":"yes","address":"Półłanki 64a","residential":true,"residents_est":165,"h3_10":"8a1e2e68ec47fff","h3_11":"8b1e2e68ec44fff"},"geometry":{"type":"Polygon","coordinates":[[[20.044681,50.030752],[20.044851,50.030745],[20.044846,50.030684],[20.045784,50.030648],[20.045817,50.031007],[20.044879,50.031043],[20.044877,50.031017],[20.044706,50.031024],[20.044681,50.030752]]]}},{"type":"Feature","id":"w155654559","properties":{"type":"warehouse","levels":1.0,"address":"Półłanki 31","residential":false,"residents_est":0,"h3_10":"8a1e2e68ec37fff","h3_11":"8b1e2e68ec31fff"},"geometry":{"type":"Polygon","coordinates":[[[20.039625,50.030887],[20.039983,50.030748],[20.040093,50.030864],[20.039733,50.031002],[20.039625,50.030887]]]}},{"type":"Feature","id":"w155654570","properties":{"type":"yes","address":"Półłanki 62a","residential":true,"residents_est":614,"h3_10":"8a1e2e68ece7fff","h3_11":"8b1e2e68ece0fff"},"geometry":{"type":"Polygon","coordinates":[[[20.042082,50.028298],[20.043182,50.02826],[20.043292,50.029559],[20.042194,50.029598],[20.042082,50.028298]]]}},{"type":"Feature","id":"w155654646","properties":{"type":"industrial","residential":false,"residents_est":0,"h3_10":"8a1e2e68ec0ffff","h3_11":"8b1e2e68ec0dfff"},"geometry":{"type":"Polygon","coordinates":[[[20.042258,50.030249],[20.043465,50.030201],[20.043483,50.030387],[20.042276,50.030435],[20.042258,50.030249]]]}},{"type":"Feature","id":"w155654659","properties":{"type":"yes","address":"Mariana Domagały 13A","residential":true,"residents_est":20,"h3_10":"8a1e2e68ec4ffff","h3_11":"8b1e2e68ec49fff"},"geometry":{"type":"Polygon","coordinates":[[[20.048019,50.030065],[20.048548,50.030046],[20.048556,50.030135],[20.048026,50.030153],[20.048019,50.030065]]]}},{"type":"Feature","id":"w155654696","properties":{"type":"yes","address":"Nad Drwiną 4b","residential":true,"residents_est":190,"h3_10":"8a1e2e68ed4ffff","h3_11":"8b1e2e68ed48fff"},"geometry":{"type":"Polygon","coordinates":[[[20.044604,50.032557],[20.044897,50.032547],[20.044892,50.032494],[20.045855,50.03246],[20.045883,50.032823],[20.044628,50.032868],[20.044604,50.032557]]]}},{"type":"Feature","id":"w155654793","properties":{"type":"yes","residential":true,"residents_est":23,"h3_10":"8a1e2e68ed47fff","h3_11":"8b1e2e68ed42fff"},"geometry":{"type":"Polygon","coordinates":[[[20.042303,50.032571],[20.042461,50.032565],[20.042495,50.032898],[20.042334,50.032905],[20.042303,50.032571]]]}},{"type":"Feature","id":"w155654918","properties":{"type":"yes","residential":true,"residents_est":89,"h3_10":"8a1e2e68ec47fff","h3_11":"8b1e2e68ec43fff"},"geometry":{"type":"Polygon","coordinates":[[[20.045778,50.029953],[20.045782,50.029948],[20.046277,50.02993],[20.046283,50.029939],[20.046276,50.029939],[20.046284,50.030017],[20.046289,50.030017],[20.046284,50.03002],[20.04629,50.030098],[20.046296,50.030098],[20.046291,50.030101],[20.046297,50.030179],[20.046303,50.030179],[20.046298,50.030182],[20.046305,50.03026],[20.04631,50.03026],[20.046305,50.030263],[20.046311,50.03034],[20.046317,50.030343],[20.046311,50.030343],[20.046311,50.030349],[20.045818,50.030366],[20.045812,50.030357],[20.045817,50.030357],[20.045811,50.03028],[20.045805,50.03028],[20.04581,50.030276],[20.045804,50.030199],[20.045798,50.030196],[20.045803,50.030195],[20.045797,50.030118],[20.045792,50.030118],[20.045796,50.030115],[20.04579,50.030038],[20.045785,50.030034],[20.04579,50.030034],[20.045783,50.029957],[20.045778,50.029953]]]}},{"type":"Feature","id":"w155654952","properties":{"type":"yes","address":"Półłanki 68","residential":true,"residents_est":3,"h3_10":"8a1e2e68ed57fff","h3_11":"8b1e2e68ed55fff"},"geometry":{"type":"Polygon","coordinates":[[[20.041627,50.032679],[20.041812,50.032669],[20.041822,50.032752],[20.041637,50.03276],[20.041627,50.032679]]]}},{"type":"Feature","id":"w155654978","properties":{"type":"retail","levels":1.0,"address":"Półłanki 60","residential":false,"residents_est":0,"h3_10":"8a1e2e68ec2ffff","h3_11":"8b1e2e68ec2efff"},"geometry":{"type":"Polygon","coordinates":[[[20.041221,50.03099],[20.041408,50.030984],[20.041423,50.031154],[20.041237,50.031161],[20.041221,50.03099]]]}},{"type":"Feature","id":"w155654998","properties":{"type":"house","levels":2.0,"address":"Półłanki 56","residential":true,"residents_est":6,"h3_10":"8a1e2e68ec07fff","h3_11":"8b1e2e68ec05fff"},"geometry":{"type":"Polygon","coordinates":[[[20.040616,50.030632],[20.04078,50.030625],[20.040788,50.030709],[20.040625,50.030716],[20.040616,50.030632]]]}},{"type":"Feature","id":"w155655061","properties":{"type":"house","levels":2.0,"address":"Półłanki 48","residential":true,"residents_est":5,"h3_10":"8a1e2e68ec07fff","h3_11":"8b1e2e68ec03fff"},"geometry":{"type":"Polygon","coordinates":[[[20.04086,50.029894],[20.04099,50.029885],[20.041003,50.029967],[20.040994,50.029981],[20.040875,50.029988],[20.04086,50.029894]]]}},{"type":"Feature","id":"w155655120","properties":{"type":"outbuilding","levels":1.0,"residential":false,"residents_est":0,"h3_10":"8a1e2e68ec07fff","h3_11":"8b1e2e68ec00fff"},"geometry":{"type":"Polygon","coordinates":[[[20.040768,50.030363],[20.040893,50.030359],[20.0409,50.030459],[20.040775,50.030463],[20.040768,50.030363]]]}},{"type":"Feature","id":"w155655240","properties":{"type":"yes","levels":2.0,"residential":true,"residents_est":248,"h3_10":"8a1e2e68eca7fff","h3_11":"8b1e2e68eca5fff"},"geometry":{"type":"Polygon","coordinates":[[[20.037414,50.028875],[20.038401,50.028745],[20.03876,50.02987],[20.037774,50.030002],[20.037414,50.028875]]]}},{"type":"Feature","id":"w155655254","properties":{"type":"yes","levels":2.0,"address":"Półłanki 31a","residential":true,"residents_est":13,"h3_10":"8a1e2e68ec27fff","h3_11":"8b1e2e68ec22fff"},"geometry":{"type":"Polygon","coordinates":[[[20.03966,50.031087],[20.039888,50.031002],[20.039963,50.031078],[20.039976,50.031073],[20.040078,50.031188],[20.039831,50.031278],[20.03966,50.031087]]]}},{"type":"Feature","id":"w155655262","properties":{"type":"house","levels":2.0,"address":"Półłanki 52","residential":true,"residents_est":6,"h3_10":"8a1e2e68ec07fff","h3_11":"8b1e2e68ec00fff"},"geometry":{"type":"Polygon","coordinates":[[[20.040469,50.030458],[20.040474,50.030374],[20.040619,50.030377],[20.040613,50.030479],[20.040525,50.030476],[20.040526,50.030459],[20.040469,50.030458]]]}},{"type":"Feature","id":"w155655280","properties":{"type":"yes","address":"Nad Drwiną 4","residential":true,"residents_est":85,"h3_10":"8a1e2e68ed47fff","h3_11":"8b1e2e68ed43fff"},"geometry":{"type":"Polygon","coordinates":[[[20.043187,50.032553],[20.043689,50.032535],[20.043719,50.032931],[20.043217,50.032945],[20.043187,50.032553]]]}},{"type":"Feature","id":"w155655326","properties":{"type":"yes","address":"Półłanki 72a","residential":true,"residents_est":4,"h3_10":"8a1e2e68ed47fff","h3_11":"8b1e2e68ed46fff"},"geometry":{"type":"Polygon","coordinates":[[[20.042085,50.033007],[20.042327,50.032993],[20.042339,50.033077],[20.042095,50.033091],[20.042085,50.033007]]]}},{"type":"Feature","id":"w155655375","properties":{"type":"industrial","levels":1.0,"residential":false,"residents_est":0,"h3_10":"8a1e2e68ec37fff","h3_11":"8b1e2e68ec33fff"},"geometry":{"type":"Polygon","coordinates":[[[20.03869,50.030161],[20.039436,50.030062],[20.039539,50.030385],[20.038794,50.030484],[20.03869,50.030161]]]}},{"type":"Feature","id":"w155655526","properties":{"type":"yes","residential":true,"residents_est":81,"h3_10":"8a1e2e68ec4ffff","h3_11":"8b1e2e68ec4afff"},"geometry":{"type":"Polygon","coordinates":[[[20.046624,50.029514],[20.046979,50.029501],[20.046997,50.029721],[20.047135,50.029716],[20.047144,50.029882],[20.047057,50.029888],[20.047061,50.029957],[20.04666,50.029971],[20.046624,50.029514]]]}},{"type":"Feature","id":"w229768878","properties":{"type":"yes","residential":false,"residents_est":0,"h3_10":"8a1e2e68ec4ffff","h3_11":"8b1e2e68ec4dfff"},"geometry":{"type":"Polygon","coordinates":[[[20.047811,50.030509],[20.04786,50.030507],[20.047869,50.030604],[20.047821,50.030606],[20.047811,50.030509]]]}},{"type":"Feature","id":"w229768879","properties":{"type":"yes","residential":false,"residents_est":0,"h3_10":"8a1e2e68ec4ffff","h3_11":"8b1e2e68ec48fff"},"geometry":{"type":"Polygon","coordinates":[[[20.047154,50.029958],[20.047208,50.029957],[20.047213,50.03003],[20.047158,50.030031],[20.047154,50.029958]]]}},{"type":"Feature","id":"w229768880","properties":{"type":"yes","residential":true,"residents_est":21,"h3_10":"8a1e2e68ec4ffff","h3_11":"8b1e2e68ec4dfff"},"geometry":{"type":"Polygon","coordinates":[[[20.047509,50.030294],[20.047623,50.03029],[20.047663,50.030721],[20.047548,50.030724],[20.047509,50.030294]]]}},{"type":"Feature","id":"w337695079","properties":{"type":"yes","residential":true,"residents_est":15,"h3_10":"8a1e2e68ec87fff","h3_11":"8b1e2e68ec86fff"},"geometry":{"type":"Polygon","coordinates":[[[20.037047,50.027631],[20.037415,50.02758],[20.037406,50.027552],[20.037478,50.027542],[20.037499,50.027604],[20.037427,50.027614],[20.037443,50.02766],[20.037146,50.027702],[20.037143,50.027694],[20.037071,50.027704],[20.037047,50.027631]]]}},{"type":"Feature","id":"w337695083","properties":{"type":"yes","address":"Danalówka 16","residential":true,"residents_est":5,"h3_10":"8a1e2e68ecb7fff","h3_11":"8b1e2e68ecb6fff"},"geometry":{"type":"Polygon","coordinates":[[[20.035079,50.028321],[20.035093,50.028235],[20.035289,50.028248],[20.035285,50.028268],[20.035333,50.028271],[20.035321,50.028338],[20.035231,50.028332],[20.035228,50.028348],[20.035185,50.028344],[20.035188,50.028329],[20.035079,50.028321]]]}},{"type":"Feature","id":"w337695101","properties":{"type":"yes","address":"Półłanki 64","residential":true,"residents_est":37,"h3_10":"8a1e2e68ec57fff","h3_11":"8b1e2e68ec55fff"},"geometry":{"type":"Polygon","coordinates":[[[20.044361,50.03003],[20.044641,50.030019],[20.044662,50.030239],[20.044644,50.03024],[20.044653,50.030331],[20.044389,50.030342],[20.044383,50.03028],[20.044377,50.03028],[20.044383,50.030275],[20.044377,50.030213],[20.044371,50.030214],[20.044371,50.030208],[20.044377,50.030208],[20.044361,50.03003]]]}},{"type":"Feature","id":"w337695102","properties":{"type":"yes","address":"Półłanki 31e","residential":true,"residents_est":44,"h3_10":"8a1e2e68ed0ffff","h3_11":"8b1e2e68ed0bfff"},"geometry":{"type":"Polygon","coordinates":[[[20.040103,50.032061],[20.040389,50.032014],[20.040406,50.032063],[20.040617,50.032032],[20.04064,50.032096],[20.0406,50.032102],[20.040617,50.03215],[20.040658,50.032144],[20.040681,50.032209],[20.040245,50.032274],[20.040242,50.032266],[20.040209,50.032271],[20.040103,50.032061]]]}},{"type":"Feature","id":"w337695106","properties":{"type":"yes","address":"Danalówka 12","residential":true,"residents_est":5,"h3_10":"8a1e2e68ecb7fff","h3_11":"8b1e2e68ecb5fff"},"geometry":{"type":"Polygon","coordinates":[[[20.036322,50.028435],[20.03644,50.028432],[20.036437,50.028382],[20.036596,50.028376],[20.0366,50.028456],[20.03652,50.028459],[20.036521,50.028474],[20.036492,50.028475],[20.036491,50.028461],[20.036411,50.028469],[20.036414,50.028499],[20.036445,50.028498],[20.036448,50.028526],[20.03633,50.028531],[20.036322,50.028435]]]}},{"type":"Feature","id":"w337695134","properties":{"type":"yes","residential":true,"residents_est":2,"h3_10":"8a1e2e68ecaffff","h3_11":"8b1e2e68ecaefff"},"geometry":{"type":"Polygon","coordinates":[[[20.039035,50.028512],[20.039118,50.028504],[20.03914,50.028582],[20.039061,50.028592],[20.039035,50.028512]]]}},{"type":"Feature","id":"w337695156","properties":{"type":"yes","residential":true,"residents_est":19,"h3_10":"8a1e2e68ecaffff","h3_11":"8b1e2e68ecacfff"},"geometry":{"type":"Polygon","coordinates":[[[20.038874,50.028765],[20.039011,50.028747],[20.039111,50.029065],[20.038974,50.029082],[20.038874,50.028765]]]}},{"type":"Feature","id":"w337695166","properties":{"type":"yes","residential":true,"residents_est":2,"h3_10":"8a1e2e68ed0ffff","h3_11":"8b1e2e68ed0bfff"},"geometry":{"type":"Polygon","coordinates":[[[20.040383,50.032325],[20.040536,50.032294],[20.040562,50.032351],[20.040409,50.032381],[20.040383,50.032325]]]}},{"type":"Feature","id":"w337695174","properties":{"type":"yes","address":"Danalówka 12A","residential":true,"residents_est":3,"h3_10":"8a1e2e68ecb7fff","h3_11":"8b1e2e68ecb5fff"},"geometry":{"type":"Polygon","coordinates":[[[20.036498,50.028614],[20.036643,50.028601],[20.036667,50.028716],[20.036593,50.028722],[20.036588,50.028701],[20.036521,50.028707],[20.036498,50.028614]]]}},{"type":"Feature","id":"w337695176","properties":{"type":"warehouse","levels":1.0,"residential":false,"residents_est":0,"h3_10":"8a1e2e68ec27fff","h3_11":"8b1e2e68ec24fff"},"geometry":{"type":"Polygon","coordinates":[[[20.040048,50.031811],[20.040195,50.031779],[20.040269,50.031923],[20.040121,50.031954],[20.040048,50.031811]]]}},{"type":"Feature","id":"w337695181","properties":{"type":"warehouse","levels":1.0,"address":"Półłanki 27b","residential":false,"residents_est":0,"h3_10":"8a1e2e68ec87fff","h3_11":"8b1e2e68ec84fff"},"geometry":{"type":"Polygon","coordinates":[[[20.037113,50.028119],[20.037116,50.027977],[20.037993,50.027983],[20.037989,50.028126],[20.037113,50.028119]]]}},{"type":"Feature","id":"w337695193","properties":{"type":"yes","address":"Danalówka 14","residential":true,"residents_est":3,"h3_10":"8a1e2e68ecb7fff","h3_11":"8b1e2e68ecb6fff"},"geometry":{"type":"Polygon","coordinates":[[[20.03572,50.028275],[20.035908,50.028272],[20.03591,50.028356],[20.035722,50.028359],[20.03572,50.028275]]]}},{"type":"Feature","id":"w337695195","properties":{"type":"warehouse","levels":1.0,"address":"Półłanki 27c","residential":false,"residents_est":0,"h3_10":"8a1e2e68ecb7fff","h3_11":"8b1e2e68ecb3fff"},"geometry":{"type":"Polygon","coordinates":[[[20.036094,50.028062],[20.036116,50.027919],[20.036989,50.027976],[20.036967,50.028118],[20.036094,50.028062]]]}},{"type":"Feature","id":"w337695233","properties":{"type":"yes","residential":false,"residents_est":0,"h3_10":"8a1e2e68eca7fff","h3_11":"8b1e2e68eca2fff"},"geometry":{"type":"Polygon","coordinates":[[[20.037288,50.028534],[20.037386,50.028522],[20.0374,50.028569],[20.037302,50.028581],[20.037288,50.028534]]]}},{"type":"Feature","id":"w337695274","properties":{"type":"yes","address":"Danalówka 10","residential":true,"residents_est":3,"h3_10":"8a1e2e68ecb7fff","h3_11":"8b1e2e68ecb1fff"},"geometry":{"type":"Polygon","coordinates":[[[20.036979,50.028366],[20.037125,50.028357],[20.037135,50.028433],[20.037066,50.028437],[20.03707,50.028465],[20.036994,50.02847],[20.036979,50.028366]]]}},{"type":"Feature","id":"w337695278","properties":{"type":"yes","address":"Danalówka 6","residential":true,"residents_est":4,"h3_10":"8a1e2e68ec87fff","h3_11":"8b1e2e68ec85fff"},"geometry":{"type":"Polygon","coordinates":[[[20.038244,50.028405],[20.038302,50.028403],[20.038301,50.028393],[20.038457,50.028388],[20.038463,50.02847],[20.038253,50.028477],[20.038244,50.028405]]]}},{"type":"Feature","id":"w337695285","properties":{"type":"yes","residential":true,"residents_est":2,"h3_10":"8a1e2e68ecaffff","h3_11":"8b1e2e68ecaefff"},"geometry":{"type":"Polygon","coordinates":[[[20.038857,50.028467],[20.038975,50.028454],[20.038995,50.028544],[20.038879,50.028556],[20.038857,50.028467]]]}},{"type":"Feature","id":"w337695288","properties":{"type":"yes","address":"Danalówka 4","residential":true,"residents_est":4,"h3_10":"8a1e2e68ecaffff","h3_11":"8b1e2e68ecaefff"},"geometry":{"type":"Polygon","coordinates":[[[20.038766,50.028365],[20.038954,50.028353],[20.038967,50.028441],[20.038851,50.028447],[20.038852,50.028464],[20.038779,50.028467],[20.038766,50.028365]]]}},{"type":"Feature","id":"w337695296","properties":{"type":"yes","residential":false,"residents_est":0,"h3_10":"8a1e2e68ecaffff","h3_11":"8b1e2e68ecaefff"},"geometry":{"type":"Polygon","coordinates":[[[20.038549,50.028546],[20.038628,50.028537],[20.038642,50.028584],[20.038563,50.028593],[20.038549,50.028546]]]}},{"type":"Feature","id":"w337695313","properties":{"type":"yes","address":"Danalówka 2","residential":true,"residents_est":3,"h3_10":"8a1e2e68ecaffff","h3_11":"8b1e2e68ecaafff"},"geometry":{"type":"Polygon","coordinates":[[[20.038982,50.028365],[20.039123,50.028361],[20.03913,50.028442],[20.039085,50.028444],[20.039086,50.028461],[20.039028,50.028464],[20.039027,50.028446],[20.038992,50.028446],[20.038982,50.028365]]]}},{"type":"Feature","id":"w337695326","properties":{"type":"yes","residential":true,"residents_est":4,"h3_10":"8a1e2e68ecb7fff","h3_11":"8b1e2e68ecb4fff"},"geometry":{"type":"Polygon","coordinates":[[[20.035683,50.028521],[20.035685,50.028416],[20.035746,50.02842],[20.035743,50.028435],[20.03588,50.02844],[20.035876,50.028504],[20.035811,50.028502],[20.035808,50.028529],[20.035683,50.028521]]]}},{"type":"Feature","id":"w337695333","properties":{"type":"yes","residential":true,"residents_est":1,"h3_10":"8a1e2e68ec07fff","h3_11":"8b1e2e68ec05fff"},"geometry":{"type":"Polygon","coordinates":[[[20.040849,50.030541],[20.041004,50.030536],[20.041007,50.030574],[20.040969,50.030575],[20.040969,50.030569],[20.040852,50.030578],[20.040849,50.030541]]]}},{"type":"Feature","id":"w337695338","properties":{"type":"retail","levels":1.0,"address":"Półłanki 31d","residential":false,"residents_est":0,"h3_10":"8a1e2e68ec27fff","h3_11":"8b1e2e68ec20fff"},"geometry":{"type":"Polygon","coordinates":[[[20.039948,50.031584],[20.039998,50.031574],[20.03999,50.031559],[20.040033,50.03155],[20.040041,50.031565],[20.040082,50.031557],[20.040137,50.031668],[20.040004,50.031695],[20.039948,50.031584]]]}},{"type":"Feature","id":"w337695339","properties":{"type":"yes","residential":true,"residents_est":3,"h3_10":"8a1e2e68eca7fff","h3_11":"8b1e2e68eca3fff"},"geometry":{"type":"Polygon","coordinates":[[[20.03816,50.028507],[20.038267,50.028494],[20.038275,50.028526],[20.038289,50.028525],[20.038318,50.028622],[20.038203,50.028637],[20.03816,50.028507]]]}},{"type":"Feature","id":"w337695346","properties":{"type":"yes","residential":true,"residents_est":7,"h3_10":"8a1e2e68ec97fff","h3_11":"8b1e2e68ec96fff"},"geometry":{"type":"Polygon","coordinates":[[[20.035687,50.026925],[20.035892,50.026896],[20.035929,50.027004],[20.035911,50.027007],[20.035926,50.027052],[20.035761,50.027076],[20.035746,50.027033],[20.035725,50.027036],[20.035687,50.026925]]]}},{"type":"Feature","id":"w340461842","properties":{"type":"service","residential":false,"residents_est":0,"h3_10":"8a1e2e68ec77fff","h3_11":"8b1e2e68ec74fff"},"geometry":{"type":"Polygon","coordinates":[[[20.043206,50.031101],[20.043338,50.031095],[20.04334,50.031118],[20.043208,50.031125],[20.043206,50.031101]]]}},{"type":"Feature","id":"w340461852","properties":{"type":"yes","residential":true,"residents_est":5,"h3_10":"8a1e2e68ec57fff","h3_11":"8b1e2e68ec55fff"},"geometry":{"type":"Polygon","coordinates":[[[20.04435,50.029921],[20.044554,50.029914],[20.044564,50.030022],[20.044361,50.03003],[20.04435,50.029921]]]}},{"type":"Feature","id":"w340461858","properties":{"type":"house","levels":2.0,"address":"Półłanki 42a","residential":true,"residents_est":4,"h3_10":"8a1e2e68ecf7fff","h3_11":"8b1e2e68ecf6fff"},"geometry":{"type":"Polygon","coordinates":[[[20.040414,50.028384],[20.040531,50.028365],[20.040561,50.028444],[20.040444,50.028463],[20.040414,50.028384]]]}},{"type":"Feature","id":"w340461878","properties":{"type":"service","residential":false,"residents_est":0,"h3_10":"8a1e2e68ec77fff","h3_11":"8b1e2e68ec74fff"},"geometry":{"type":"Polygon","coordinates":[[[20.04307,50.031113],[20.043179,50.031107],[20.043182,50.03113],[20.043073,50.031136],[20.04307,50.031113]]]}},{"type":"Feature","id":"w340461887","properties":{"type":"warehouse","levels":1.0,"residential":false,"residents_est":0,"h3_10":"8a1e2e68ec87fff","h3_11":"8b1e2e68ec84fff"},"geometry":{"type":"Polygon","coordinates":[[[20.037426,50.028305],[20.03795,50.028309],[20.038046,50.028631],[20.037541,50.028694],[20.037426,50.028305]]]}},{"type":"Feature","id":"w340461903","properties":{"type":"yes","residential":false,"residents_est":0,"h3_10":"8a1e2e68ec57fff","h3_11":"8b1e2e68ec52fff"},"geometry":{"type":"Polygon","coordinates":[[[20.043713,50.029544],[20.04377,50.029542],[20.043774,50.029592],[20.043717,50.029594],[20.043713,50.029544]]]}},{"type":"Feature","id":"w340461918","properties":{"type":"industrial","address":"Półłanki 62","name":"Pilkington IGP","residential":false,"residents_est":0,"h3_10":"8a1e2e68ec77fff","h3_11":"8b1e2e68ec76fff"},"geometry":{"type":"Polygon","coordinates":[[[20.042276,50.030435],[20.043483,50.030387],[20.043523,50.030812],[20.042317,50.030861],[20.042276,50.030435]]]}},{"type":"Feature","id":"w340461946","properties":{"type":"yes","address":"Półłanki 62d","residential":true,"residents_est":20,"h3_10":"8a1e2e68eceffff","h3_11":"8b1e2e68ececfff"},"geometry":{"type":"Polygon","coordinates":[[[20.044278,50.028843],[20.044404,50.028838],[20.044439,50.029215],[20.044313,50.02922],[20.044278,50.028843]]]}},{"type":"Feature","id":"w340462012","properties":{"type":"industrial","address":"Półłanki 40","name":"Zakład Farmaceutyczny Amara Sp. z o.o.","residential":false,"residents_est":0,"h3_10":"8a1e2e68ec8ffff","h3_11":"8b1e2e68ec8dfff"},"geometry":{"type":"Polygon","coordinates":[[[20.039485,50.027752],[20.040412,50.027607],[20.040465,50.027644],[20.040436,50.027663],[20.040485,50.027696],[20.040454,50.027715],[20.040505,50.027749],[20.040474,50.027768],[20.040543,50.027814],[20.039749,50.027939],[20.039768,50.027991],[20.039586,50.02802],[20.039496,50.027757],[20.039487,50.027758],[20.039485,50.027752]]]}},{"type":"Feature","id":"w340462027","properties":{"type":"yes","residential":true,"residents_est":231,"h3_10":"8a1e2e68eceffff","h3_11":"8b1e2e68ecedfff"},"geometry":{"type":"Polygon","coordinates":[[[20.044404,50.028838],[20.045831,50.028784],[20.045866,50.029161],[20.044439,50.029215],[20.044404,50.028838]]]}},{"type":"Feature","id":"w340462153","properties":{"type":"warehouse","levels":1.0,"address":"Półłanki 27a","residential":false,"residents_est":0,"h3_10":"8a1e2e68ec87fff","h3_11":"8b1e2e68ec85fff"},"geometry":{"type":"Polygon","coordinates":[[[20.038129,50.027984],[20.03876,50.027981],[20.038761,50.028125],[20.03813,50.028127],[20.038129,50.027984]]]}},{"type":"Feature","id":"w340462178","properties":{"type":"yes","residential":true,"residents_est":18,"h3_10":"8a1e2e68ed4ffff","h3_11":"8b1e2e68ed4dfff"},"geometry":{"type":"Polygon","coordinates":[[[20.044677,50.032866],[20.045246,50.032847],[20.045253,50.03293],[20.045246,50.03293],[20.045245,50.032921],[20.044683,50.03294],[20.044677,50.032866]]]}},{"type":"Feature","id":"w340462203","properties":{"type":"guardhouse","residential":false,"residents_est":0,"h3_10":"8a1e2e68ec2ffff","h3_11":"8b1e2e68ec29fff"},"geometry":{"type":"Polygon","coordinates":[[[20.042542,50.031122],[20.042606,50.031119],[20.042607,50.031133],[20.042634,50.031132],[20.042636,50.031151],[20.042546,50.031155],[20.042542,50.031122]]]}},{"type":"Feature","id":"w340462229","properties":{"type":"yes","residential":true,"residents_est":114,"h3_10":"8a1e2e68ed4ffff","h3_11":"8b1e2e68ed4efff"},"geometry":{"type":"Polygon","coordinates":[[[20.043689,50.032535],[20.044358,50.032514],[20.044388,50.032911],[20.043719,50.032931],[20.043689,50.032535]]]}},{"type":"Feature","id":"w340462231","properties":{"type":"yes","residential":false,"residents_est":0,"h3_10":"8a1e2e68ed4ffff","h3_11":"8b1e2e68ed4cfff"},"geometry":{"type":"Polygon","coordinates":[[[20.044381,50.032808],[20.044429,50.032807],[20.044434,50.032846],[20.044417,50.032847],[20.04442,50.032878],[20.044386,50.032879],[20.044381,50.032808]]]}},{"type":"Feature","id":"w340462243","properties":{"type":"retail","levels":2.0,"address":"Półłanki 27","residential":false,"residents_est":0,"h3_10":"8a1e2e68ec87fff","h3_11":"8b1e2e68ec81fff"},"geometry":{"type":"Polygon","coordinates":[[[20.038638,50.027933],[20.039025,50.02793],[20.039097,50.028109],[20.038981,50.028129],[20.038759,50.028129],[20.03876,50.027981],[20.038638,50.027982],[20.038638,50.027933]]]}},{"type":"Feature","id":"w340462251","properties":{"type":"service","residential":false,"residents_est":0,"h3_10":"8a1e2e68ed47fff","h3_11":"8b1e2e68ed41fff"},"geometry":{"type":"Polygon","coordinates":[[[20.043464,50.033087],[20.04358,50.033085],[20.043581,50.033108],[20.043465,50.03311],[20.043464,50.033087]]]}},{"type":"Feature","id":"w440202738","properties":{"type":"industrial","levels":1.0,"residential":false,"residents_est":0,"h3_10":"8a1e2e68ec17fff","h3_11":"8b1e2e68ec10fff"},"geometry":{"type":"Polygon","coordinates":[[[20.038985,50.029756],[20.039502,50.029688],[20.039562,50.029877],[20.039045,50.029945],[20.038985,50.029756]]]}},{"type":"Feature","id":"w598074371","properties":{"type":"retail","address":"Półłanki 31G","name":"PRIMA","residential":false,"residents_est":0,"h3_10":"8a1e2e68ed77fff","h3_11":"8b1e2e68ed72fff"},"geometry":{"type":"Polygon","coordinates":[[[20.040649,50.03284],[20.040887,50.032728],[20.041222,50.033021],[20.041257,50.033006],[20.041333,50.033072],[20.041195,50.033138],[20.041161,50.033143],[20.041066,50.033135],[20.041036,50.03312],[20.040993,50.033142],[20.040649,50.03284]]]}},{"type":"Feature","id":"w618593007","properties":{"type":"industrial","address":"Półłanki 62b","residential":false,"residents_est":0,"h3_10":"8a1e2e68ecc7fff","h3_11":"8b1e2e68ecc0fff"},"geometry":{"type":"Polygon","coordinates":[[[20.041928,50.027443],[20.043596,50.027374],[20.043644,50.02786],[20.043091,50.027882],[20.04311,50.028068],[20.042413,50.028097],[20.042394,50.027912],[20.041976,50.027929],[20.041928,50.027443]]]}},{"type":"Feature","id":"w678150893","properties":{"type":"construction","residential":false,"residents_est":0,"h3_10":"8a1e2e68ed0ffff","h3_11":"8b1e2e68ed09fff"},"geometry":{"type":"Polygon","coordinates":[[[20.040471,50.032426],[20.040695,50.03237],[20.040844,50.032619],[20.040621,50.032674],[20.040471,50.032426]]]}},{"type":"Feature","id":"w707581870","properties":{"type":"yes","residential":true,"residents_est":3,"h3_10":"8a1e2e68ec27fff","h3_11":"8b1e2e68ec20fff"},"geometry":{"type":"Polygon","coordinates":[[[20.040206,50.031531],[20.040468,50.031479],[20.040491,50.031529],[20.040229,50.031581],[20.040206,50.031531]]]}},{"type":"Feature","id":"w707581871","properties":{"type":"yes","levels":2.0,"name":"CMA PL","residential":true,"residents_est":3,"h3_10":"8a1e2e68ec07fff","h3_11":"8b1e2e68ec04fff"},"geometry":{"type":"Polygon","coordinates":[[[20.039983,50.030748],[20.040085,50.030708],[20.040194,50.030825],[20.040093,50.030864],[20.039983,50.030748]]]}},{"type":"Feature","id":"w707581874","properties":{"type":"yes","residential":true,"residents_est":5,"h3_10":"8a1e2e68ec27fff","h3_11":"8b1e2e68ec22fff"},"geometry":{"type":"Polygon","coordinates":[[[20.039621,50.031105],[20.03966,50.031087],[20.039855,50.031305],[20.039745,50.031345],[20.039621,50.031105]]]}},{"type":"Feature","id":"w707581875","properties":{"type":"yes","address":"Półłanki 31L","residential":true,"residents_est":26,"h3_10":"8a1e2e68ed1ffff","h3_11":"8b1e2e68ed1afff"},"geometry":{"type":"Polygon","coordinates":[[[20.038239,50.031523],[20.038496,50.031456],[20.038613,50.03164],[20.038619,50.031681],[20.038357,50.031708],[20.038239,50.031523]]]}},{"type":"Feature","id":"w892646493","properties":{"type":"yes","address":"Nad Drwiną 2A","residential":true,"residents_est":33,"h3_10":"8a1e2e68ed47fff","h3_11":"8b1e2e68ed42fff"},"geometry":{"type":"Polygon","coordinates":[[[20.042769,50.032662],[20.042903,50.032658],[20.042911,50.032756],[20.043061,50.032752],[20.043076,50.032951],[20.042925,50.032955],[20.042928,50.033003],[20.042795,50.033008],[20.042769,50.032662]]]}},{"type":"Feature","id":"w952380683","properties":{"type":"yes","address":"Półłanki 44","residential":true,"residents_est":176,"h3_10":"8a1e2e68ec1ffff","h3_11":"8b1e2e68ec1efff"},"geometry":{"type":"Polygon","coordinates":[[[20.039939,50.02906],[20.04005,50.029048],[20.039954,50.028683],[20.040296,50.028646],[20.040577,50.029715],[20.040233,50.029752],[20.040129,50.029353],[20.040019,50.029365],[20.039939,50.02906]]]}},{"type":"Feature","id":"w1095545237","properties":{"type":"outbuilding","levels":1.0,"residential":false,"residents_est":0,"h3_10":"8a1e2e68ec87fff","h3_11":"8b1e2e68ec85fff"},"geometry":{"type":"Polygon","coordinates":[[[20.038132,50.028356],[20.038135,50.028266],[20.038361,50.028268],[20.038358,50.028358],[20.038132,50.028356]]]}},{"type":"Feature","id":"w1095545295","properties":{"type":"industrial","levels":1.0,"residential":false,"residents_est":0,"h3_10":"8a1e2e68ec0ffff","h3_11":"8b1e2e68ec08fff"},"geometry":{"type":"Polygon","coordinates":[[[20.042152,50.030023],[20.042235,50.03002],[20.042212,50.029782],[20.04342,50.029733],[20.043464,50.030195],[20.04347,50.030201],[20.042249,50.03025],[20.042249,50.030244],[20.042257,50.030243],[20.042245,50.030125],[20.042162,50.030128],[20.042152,50.030023]]]}},{"type":"Feature","id":"w1095545298","properties":{"type":"garages","levels":1.0,"residential":false,"residents_est":0,"h3_10":"8a1e2e68ecf7fff","h3_11":"8b1e2e68ecf6fff"},"geometry":{"type":"Polygon","coordinates":[[[20.040582,50.028053],[20.040891,50.028005],[20.040916,50.02807],[20.040607,50.028118],[20.040582,50.028053]]]}},{"type":"Feature","id":"w1136489868","properties":{"type":"yes","residential":true,"residents_est":245,"h3_10":"8a1e2e68eceffff","h3_11":"8b1e2e68ece9fff"},"geometry":{"type":"Polygon","coordinates":[[[20.044361,50.028371],[20.045789,50.028317],[20.045831,50.028784],[20.045123,50.028811],[20.045111,50.028674],[20.044392,50.028702],[20.044361,50.028371]]]}},{"type":"Feature","id":"w1145127397","properties":{"type":"warehouse","residential":false,"residents_est":0,"h3_10":"8a1e2e68ec2ffff","h3_11":"8b1e2e68ec2dfff"},"geometry":{"type":"Polygon","coordinates":[[[20.042231,50.031347],[20.043235,50.031318],[20.043247,50.031492],[20.042244,50.031521],[20.042231,50.031347]]]}},{"type":"Feature","id":"w1145127398","properties":{"type":"warehouse","residential":false,"residents_est":0,"h3_10":"8a1e2e68ec2ffff","h3_11":"8b1e2e68ec2afff"},"geometry":{"type":"Polygon","coordinates":[[[20.041891,50.030733],[20.042058,50.030727],[20.042073,50.030903],[20.041907,50.030909],[20.041891,50.030733]]]}},{"type":"Feature","id":"w1151524815","properties":{"type":"yes","residential":true,"residents_est":2,"h3_10":"8a1e2e68ec9ffff","h3_11":"8b1e2e68ec9dfff"},"geometry":{"type":"Polygon","coordinates":[[[20.038312,50.027027],[20.038405,50.027014],[20.03844,50.027122],[20.038348,50.027135],[20.038312,50.027027]]]}},{"type":"Feature","id":"w1252161888","properties":{"type":"industrial","residential":false,"residents_est":0,"h3_10":"8a1e2e68ecdffff","h3_11":"8b1e2e68ecd9fff"},"geometry":{"type":"Polygon","coordinates":[[[20.043997,50.026563],[20.044203,50.026538],[20.044375,50.027113],[20.044169,50.027138],[20.043997,50.026563]]]}},{"type":"Feature","id":"w1259487456","properties":{"type":"service","residential":false,"residents_est":0,"h3_10":"8a1e2e68ed4ffff","h3_11":"8b1e2e68ed4cfff"},"geometry":{"type":"Polygon","coordinates":[[[20.044561,50.03281],[20.0446,50.032808],[20.044608,50.032868],[20.044569,50.03287],[20.044561,50.03281]]]}},{"type":"Feature","id":"w1373394345","properties":{"type":"office","levels":2.0,"residential":false,"residents_est":0,"h3_10":"8a1e2e68ec17fff","h3_11":"8b1e2e68ec11fff"},"geometry":{"type":"Polygon","coordinates":[[[20.039502,50.029688],[20.039636,50.02967],[20.039648,50.029756],[20.039646,50.029777],[20.039635,50.029778],[20.039643,50.029802],[20.03962,50.029869],[20.039562,50.029877],[20.039502,50.029688]]]}},{"type":"Feature","id":"w1373394346","properties":{"type":"office","levels":2.0,"address":"Półłanki 29g","residential":false,"residents_est":0,"h3_10":"8a1e2e68ec17fff","h3_11":"8b1e2e68ec15fff"},"geometry":{"type":"Polygon","coordinates":[[[20.039435,50.03006],[20.039551,50.030044],[20.039562,50.030057],[20.039583,50.030089],[20.039612,50.030182],[20.039628,50.03018],[20.039644,50.030227],[20.039626,50.03023],[20.039658,50.030322],[20.039656,50.030371],[20.03954,50.030387],[20.039435,50.03006]]]}},{"type":"Feature","id":"w1373394347","properties":{"type":"warehouse","levels":1.0,"residential":false,"residents_est":0,"h3_10":"8a1e2e68ec37fff","h3_11":"8b1e2e68ec32fff"},"geometry":{"type":"Polygon","coordinates":[[[20.038281,50.030216],[20.03869,50.030161],[20.038794,50.030484],[20.038334,50.030379],[20.038281,50.030216]]]}},{"type":"Feature","id":"w1418498902","properties":{"type":"warehouse","residential":false,"residents_est":0,"h3_10":"8a1e2e68ec2ffff","h3_11":"8b1e2e68ec2afff"},"geometry":{"type":"Polygon","coordinates":[[[20.041554,50.030704],[20.0417,50.030696],[20.041705,50.030735],[20.041642,50.030738],[20.041644,50.030753],[20.04156,50.030757],[20.041554,50.030704]]]}},{"type":"Feature","id":"w1418498903","properties":{"type":"warehouse","residential":false,"residents_est":0,"h3_10":"8a1e2e68ec07fff","h3_11":"8b1e2e68ec01fff"},"geometry":{"type":"Polygon","coordinates":[[[20.041038,50.030507],[20.041552,50.030482],[20.041557,50.030537],[20.041314,50.030545],[20.041045,50.030563],[20.041038,50.030507]]]}},{"type":"Feature","id":"w1418498904","properties":{"type":"warehouse","residential":false,"residents_est":0,"h3_10":"8a1e2e68ec0ffff","h3_11":"8b1e2e68ec0cfff"},"geometry":{"type":"Polygon","coordinates":[[[20.041567,50.030484],[20.041737,50.030475],[20.041742,50.030518],[20.041572,50.030526],[20.041567,50.030484]]]}},{"type":"Feature","id":"w1418498905","properties":{"type":"warehouse","residential":false,"residents_est":0,"h3_10":"8a1e2e68ec0ffff","h3_11":"8b1e2e68ec0cfff"},"geometry":{"type":"Polygon","coordinates":[[[20.041863,50.030466],[20.042031,50.030459],[20.042058,50.030721],[20.04189,50.030729],[20.041863,50.030466]]]}},{"type":"Feature","id":"w1418498906","properties":{"type":"warehouse","residential":false,"residents_est":0,"h3_10":"8a1e2e68ec07fff","h3_11":"8b1e2e68ec05fff"},"geometry":{"type":"Polygon","coordinates":[[[20.041053,50.030662],[20.041391,50.030643],[20.041407,50.030755],[20.041068,50.030774],[20.041053,50.030662]]]}},{"type":"Feature","id":"w1418498907","properties":{"type":"warehouse","residential":false,"residents_est":0,"h3_10":"8a1e2e68ec07fff","h3_11":"8b1e2e68ec05fff"},"geometry":{"type":"Polygon","coordinates":[[[20.040744,50.030919],[20.041765,50.030861],[20.041772,50.030912],[20.040751,50.03097],[20.040744,50.030919]]]}},{"type":"Feature","id":"w1428078297","properties":{"type":"guardhouse","levels":1.0,"residential":false,"residents_est":0,"h3_10":"8a1e2e68ecaffff","h3_11":"8b1e2e68ecabfff"},"geometry":{"type":"Polygon","coordinates":[[[20.039617,50.028103],[20.039685,50.028092],[20.039701,50.028135],[20.039634,50.028146],[20.039617,50.028103]]]}},{"type":"Feature","id":"w1428080291","properties":{"type":"warehouse","levels":1.0,"residential":false,"residents_est":0,"h3_10":"8a1e2e68ec07fff","h3_11":"8b1e2e68ec05fff"},"geometry":{"type":"Polygon","coordinates":[[[20.040654,50.03079],[20.041059,50.030766],[20.041067,50.030816],[20.040661,50.03084],[20.040654,50.03079]]]}},{"type":"Feature","id":"w1428080293","properties":{"type":"yes","residential":false,"residents_est":0,"h3_10":"8a1e2e68ec07fff","h3_11":"8b1e2e68ec00fff"},"geometry":{"type":"Polygon","coordinates":[[[20.040616,50.030433],[20.040619,50.030377],[20.040662,50.030379],[20.040659,50.030434],[20.040616,50.030433]]]}},{"type":"Feature","id":"w1428080294","properties":{"type":"house","levels":1.0,"address":"Półłanki 50","residential":true,"residents_est":5,"h3_10":"8a1e2e68ec07fff","h3_11":"8b1e2e68ec02fff"},"geometry":{"type":"Polygon","coordinates":[[[20.040283,50.03023],[20.040287,50.030139],[20.040542,50.030146],[20.040538,50.030221],[20.04044,50.030219],[20.04044,50.030232],[20.040283,50.03023]]]}}]}