{"type":"FeatureCollection","features":[{"type":"Feature","id":"w337603848","properties":{"type":"yes","address":"Graniczna 15","residential":true,"residents_est":0,"h3_10":"8a1e05a608dffff","h3_11":"8b1e05a608dbfff"},"geometry":{"type":"Polygon","coordinates":[[[19.861488,49.976923],[19.861492,49.976833],[19.861532,49.976834],[19.861545,49.976825],[19.861564,49.976825],[19.861574,49.976836],[19.861606,49.976837],[19.861605,49.976859],[19.861648,49.976862],[19.861644,49.976912],[19.861605,49.976911],[19.861604,49.976925],[19.861488,49.976923]]]}},{"type":"Feature","id":"w337604133","properties":{"type":"yes","residential":true,"residents_est":0,"h3_10":"8a1e05a608c7fff","h3_11":"8b1e05a608c4fff"},"geometry":{"type":"Polygon","coordinates":[[[19.860427,49.978945],[19.860448,49.978703],[19.86055,49.978706],[19.860529,49.978949],[19.860427,49.978945]]]}},{"type":"Feature","id":"w337604237","properties":{"type":"yes","address":"Graniczna 9","residential":true,"residents_est":0,"h3_10":"8a1e05a608dffff","h3_11":"8b1e05a608dafff"},"geometry":{"type":"Polygon","coordinates":[[[19.860354,49.976796],[19.860398,49.976796],[19.860397,49.976788],[19.860534,49.976787],[19.860535,49.976865],[19.860354,49.976866],[19.860354,49.976796]]]}},{"type":"Feature","id":"w337604491","properties":{"type":"yes","address":"Graniczna 21","residential":true,"residents_est":0,"h3_10":"8a1e05a608cffff","h3_11":"8b1e05a608cafff"},"geometry":{"type":"Polygon","coordinates":[[[19.862266,49.977495],[19.86227,49.977406],[19.862426,49.977409],[19.862421,49.977538],[19.862358,49.977537],[19.86236,49.977486],[19.862312,49.977485],[19.862312,49.977496],[19.862266,49.977495]]]}},{"type":"Feature","id":"w661542804","properties":{"type":"yes","address":"Leona Petrażyckiego 156b","residential":true,"residents_est":0,"h3_10":"8a1e05a6085ffff","h3_11":"8b1e05a6085bfff"},"geometry":{"type":"Polygon","coordinates":[[[19.864037,49.979179],[19.864051,49.979126],[19.86427,49.97915],[19.864254,49.979212],[19.864227,49.979209],[19.864217,49.979243],[19.864244,49.979246],[19.864228,49.979308],[19.864106,49.979295],[19.864126,49.979219],[19.864061,49.979212],[19.864069,49.979182],[19.864037,49.979179]]]}},{"type":"Feature","id":"w663913493","properties":{"type":"house","address":"Graniczna 9D","residential":true,"residents_est":0,"h3_10":"8a1e05a608dffff","h3_11":"8b1e05a608defff"},"geometry":{"type":"Polygon","coordinates":[[[19.860615,49.977235],[19.860758,49.977192],[19.860839,49.977303],[19.860696,49.977346],[19.860615,49.977235]]]}},{"type":"Feature","id":"w663913495","properties":{"type":"house","address":"Graniczna 11B","residential":true,"residents_est":0,"h3_10":"8a1e05a608dffff","h3_11":"8b1e05a608dafff"},"geometry":{"type":"Polygon","coordinates":[[[19.86085,49.976745],[19.861037,49.976704],[19.861085,49.976796],[19.860898,49.976836],[19.86085,49.976745]]]}},{"type":"Feature","id":"w663913496","properties":{"type":"house","residential":true,"residents_est":0,"h3_10":"8a1e05a608dffff","h3_11":"8b1e05a608d8fff"},"geometry":{"type":"Polygon","coordinates":[[[19.861052,49.977135],[19.861166,49.977133],[19.861171,49.977268],[19.861057,49.977269],[19.861052,49.977135]]]}},{"type":"Feature","id":"w663913497","properties":{"type":"house","residential":true,"residents_est":0,"h3_10":"8a1e05a608dffff","h3_11":"8b1e05a608d8fff"},"geometry":{"type":"Polygon","coordinates":[[[19.861265,49.977137],[19.861358,49.977135],[19.861366,49.977271],[19.861274,49.977274],[19.861265,49.977137]]]}},{"type":"Feature","id":"w663913498","properties":{"type":"house","address":"Graniczna 9G","residential":true,"residents_est":0,"h3_10":"8a1e05a608dffff","h3_11":"8b1e05a608ddfff"},"geometry":{"type":"Polygon","coordinates":[[[19.861753,49.977569],[19.861768,49.977448],[19.861887,49.977454],[19.861872,49.977575],[19.861753,49.977569]]]}},{"type":"Feature","id":"w663913499","properties":{"type":"house","residential":true,"residents_est":0,"h3_10":"8a1e05a608cffff","h3_11":"8b1e05a608cafff"},"geometry":{"type":"Polygon","coordinates":[[[19.861954,49.977465],[19.862049,49.977465],[19.862049,49.977601],[19.861954,49.977601],[19.861954,49.977465]]]}},{"type":"Feature","id":"w698844105","properties":{"type":"house","address":"Graniczna 9H","residential":true,"residents_est":0,"h3_10":"8a1e05a608dffff","h3_11":"8b1e05a608d9fff"},"geometry":{"type":"Polygon","coordinates":[[[19.861973,49.977336],[19.861974,49.977285],[19.862006,49.977286],[19.86201,49.977176],[19.862146,49.977178],[19.862144,49.977233],[19.862105,49.977242],[19.862104,49.977285],[19.862152,49.977286],[19.86215,49.977339],[19.861973,49.977336]]]}},{"type":"Feature","id":"w700497949","properties":{"type":"house","address":"Leona Petrażyckiego 156c","residential":true,"residents_est":0,"h3_10":"8a1e05a6085ffff","h3_11":"8b1e05a6085bfff"},"geometry":{"type":"Polygon","coordinates":[[[19.864015,49.979474],[19.864043,49.979369],[19.864112,49.979376],[19.864107,49.979393],[19.864158,49.979398],[19.864139,49.979464],[19.864156,49.979466],[19.864141,49.979524],[19.864022,49.979512],[19.864031,49.979476],[19.864015,49.979474]]]}},{"type":"Feature","id":"w991056365","properties":{"type":"yes","residential":true,"residents_est":1,"h3_10":"8a1e05a608dffff","h3_11":"8b1e05a608d9fff"},"geometry":{"type":"Polygon","coordinates":[[[19.861532,49.977238],[19.861536,49.977139],[19.861835,49.977144],[19.861831,49.977234],[19.861747,49.977232],[19.861745,49.977273],[19.861642,49.977271],[19.861643,49.97724],[19.861532,49.977238]]]}},{"type":"Feature","id":"w991056366","properties":{"type":"house","address":"Graniczna 23","residential":true,"residents_est":0,"h3_10":"8a1e05a608cffff","h3_11":"8b1e05a608cbfff"},"geometry":{"type":"Polygon","coordinates":[[[19.862564,49.977468],[19.8627,49.977466],[19.862703,49.977559],[19.862567,49.977561],[19.862564,49.977468]]]}},{"type":"Feature","id":"w1034475445","properties":{"type":"house","levels":2.0,"address":"Leona Petrażyckiego 154G","residential":true,"residents_est":0,"h3_10":"8a1e05a6085ffff","h3_11":"8b1e05a60859fff"},"geometry":{"type":"Polygon","coordinates":[[[19.864412,49.979668],[19.864434,49.979573],[19.864557,49.979584],[19.864535,49.97968],[19.864412,49.979668]]]}},{"type":"Feature","id":"w1034475454","properties":{"type":"detached","levels":2.0,"address":"Leona Petrażyckiego 156D","residential":true,"residents_est":0,"h3_10":"8a1e05a6085ffff","h3_11":"8b1e05a60858fff"},"geometry":{"type":"Polygon","coordinates":[[[19.863814,49.979704],[19.863837,49.979625],[19.863928,49.979636],[19.863945,49.979579],[19.864071,49.979594],[19.864055,49.979652],[19.864039,49.97965],[19.864033,49.979671],[19.86412,49.979681],[19.864104,49.979739],[19.863814,49.979704]]]}},{"type":"Feature","id":"w1084498632","properties":{"type":"house","residential":true,"residents_est":1,"h3_10":"8a1e05a608dffff","h3_11":"8b1e05a608ddfff"},"geometry":{"type":"Polygon","coordinates":[[[19.861406,49.977511],[19.861407,49.97744],[19.861445,49.97744],[19.861445,49.977409],[19.861551,49.977409],[19.861551,49.977428],[19.861596,49.977428],[19.861594,49.977543],[19.861447,49.977542],[19.861447,49.977511],[19.861406,49.977511]]]}},{"type":"Feature","id":"w1084498633","properties":{"type":"yes","residential":true,"residents_est":0,"h3_10":"8a1e05a608dffff","h3_11":"8b1e05a608ddfff"},"geometry":{"type":"Polygon","coordinates":[[[19.861594,49.977543],[19.861596,49.977452],[19.861684,49.97745],[19.861689,49.977541],[19.861594,49.977543]]]}},{"type":"Feature","id":"w1084498638","properties":{"type":"house","residential":true,"residents_est":0,"h3_10":"8a1e05a6085ffff","h3_11":"8b1e05a60859fff"},"geometry":{"type":"Polygon","coordinates":[[[19.864304,49.979958],[19.864318,49.979866],[19.864481,49.979877],[19.864461,49.979971],[19.864304,49.979958]]]}},{"type":"Feature","id":"w1084498639","properties":{"type":"house","residential":true,"residents_est":0,"h3_10":"8a1e05a6085ffff","h3_11":"8b1e05a60859fff"},"geometry":{"type":"Polygon","coordinates":[[[19.864318,49.979866],[19.864337,49.979751],[19.8645,49.979762],[19.864481,49.979877],[19.864318,49.979866]]]}},{"type":"Feature","id":"w1171628797","properties":{"type":"yes","address":"Graniczna 73","residential":true,"residents_est":0,"h3_10":"8a1e05a6085ffff","h3_11":"8b1e05a6085cfff"},"geometry":{"type":"Polygon","coordinates":[[[19.86308,49.980163],[19.863089,49.980089],[19.863252,49.980097],[19.863245,49.98017],[19.86308,49.980163]]]}},{"type":"Feature","id":"w1171628798","properties":{"type":"yes","address":"Graniczna 75","residential":true,"residents_est":0,"h3_10":"8a1e05a6085ffff","h3_11":"8b1e05a6085cfff"},"geometry":{"type":"Polygon","coordinates":[[[19.863089,49.980089],[19.863096,49.980032],[19.863258,49.980039],[19.863252,49.980097],[19.863089,49.980089]]]}},{"type":"Feature","id":"w1171628799","properties":{"type":"yes","address":"Graniczna 27","residential":true,"residents_est":0,"h3_10":"8a1e05a608c7fff","h3_11":"8b1e05a608c2fff"},"geometry":{"type":"Polygon","coordinates":[[[19.860659,49.977914],[19.860772,49.977911],[19.860772,49.977925],[19.86091,49.977922],[19.860915,49.978004],[19.860665,49.978011],[19.860659,49.977914]]]}},{"type":"Feature","id":"w1271897916","properties":{"type":"shed","residential":false,"residents_est":0,"h3_10":"8a1e05a608dffff","h3_11":"8b1e05a608dcfff"},"geometry":{"type":"Polygon","coordinates":[[[19.860547,49.977374],[19.86066,49.977365],[19.86067,49.977418],[19.860556,49.977426],[19.860547,49.977374]]]}},{"type":"Feature","id":"w1299372587","properties":{"type":"yes","address":"Graniczna 75","residential":true,"residents_est":0,"h3_10":"8a1e05a60857fff","h3_11":"8b1e05a60851fff"},"geometry":{"type":"Polygon","coordinates":[[[19.862645,49.980025],[19.862652,49.979968],[19.862815,49.979976],[19.862808,49.980033],[19.862645,49.980025]]]}},{"type":"Feature","id":"w1299372588","properties":{"type":"yes","address":"Graniczna 75","residential":true,"residents_est":0,"h3_10":"8a1e05a60857fff","h3_11":"8b1e05a60851fff"},"geometry":{"type":"Polygon","coordinates":[[[19.862638,49.980082],[19.862645,49.980025],[19.862808,49.980033],[19.862802,49.98009],[19.862638,49.980082]]]}},{"type":"Feature","id":"w1299372589","properties":{"type":"yes","address":"Graniczna 75","residential":true,"residents_est":0,"h3_10":"8a1e05a60857fff","h3_11":"8b1e05a60851fff"},"geometry":{"type":"Polygon","coordinates":[[[19.862615,49.98024],[19.862622,49.980182],[19.862784,49.98019],[19.862778,49.980248],[19.862615,49.98024]]]}},{"type":"Feature","id":"w1299372590","properties":{"type":"yes","address":"Graniczna 75","residential":true,"residents_est":0,"h3_10":"8a1e05a60857fff","h3_11":"8b1e05a60851fff"},"geometry":{"type":"Polygon","coordinates":[[[19.862608,49.980297],[19.862615,49.98024],[19.862778,49.980248],[19.862771,49.980305],[19.862608,49.980297]]]}},{"type":"Feature","id":"w1299372591","properties":{"type":"yes","address":"Graniczna 75","residential":true,"residents_est":0,"h3_10":"8a1e05a6085ffff","h3_11":"8b1e05a6085cfff"},"geometry":{"type":"Polygon","coordinates":[[[19.863071,49.980309],[19.863077,49.980251],[19.86324,49.980259],[19.863234,49.980317],[19.863071,49.980309]]]}},{"type":"Feature","id":"w1299372592","properties":{"type":"yes","address":"Graniczna 75","residential":true,"residents_est":2,"h3_10":"8a1e05a60847fff","h3_11":"8b1e05a60842fff"},"geometry":{"type":"Polygon","coordinates":[[[19.863064,49.980366],[19.863071,49.980309],[19.863234,49.980317],[19.863227,49.980374],[19.863064,49.980366]]]}},{"type":"Feature","id":"w1301534954","properties":{"type":"yes","residential":false,"residents_est":0,"h3_10":"8a1e05a608cffff","h3_11":"8b1e05a608cefff"},"geometry":{"type":"Polygon","coordinates":[[[19.861665,49.977927],[19.861749,49.977918],[19.861761,49.977968],[19.861677,49.977977],[19.861665,49.977927]]]}},{"type":"Feature","id":"w1301534955","properties":{"type":"yes","residential":false,"residents_est":0,"h3_10":"8a1e05a608cffff","h3_11":"8b1e05a608cbfff"},"geometry":{"type":"Polygon","coordinates":[[[19.862726,49.977691],[19.862812,49.977689],[19.862814,49.977728],[19.862729,49.977731],[19.862726,49.977691]]]}},{"type":"Feature","id":"w1301599979","properties":{"type":"yes","residential":false,"residents_est":0,"h3_10":"8a1e05a6085ffff","h3_11":"8b1e05a60858fff"},"geometry":{"type":"Polygon","coordinates":[[[19.86363,49.979855],[19.863633,49.979827],[19.863701,49.97983],[19.863697,49.979859],[19.86363,49.979855]]]}}]}