{"type":"FeatureCollection","features":[{"type":"Feature","id":"w133414887","properties":{"type":"yes","address":"Młotków 3","residential":true,"residents_est":4,"h3_10":"8a1e2e6f65b7fff","h3_11":"8b1e2e6f65b6fff"},"geometry":{"type":"Polygon","coordinates":[[[20.105624,50.059076],[20.105646,50.059013],[20.105817,50.059039],[20.105799,50.059102],[20.105624,50.059076]]]}},{"type":"Feature","id":"w133414889","properties":{"type":"yes","residential":false,"residents_est":0,"h3_10":"8a1e2e6f65b7fff","h3_11":"8b1e2e6f65b2fff"},"geometry":{"type":"Polygon","coordinates":[[[20.105839,50.058871],[20.105854,50.058816],[20.105936,50.058826],[20.105921,50.058881],[20.105839,50.058871]]]}},{"type":"Feature","id":"w133414899","properties":{"type":"yes","address":"Karowa 28","residential":true,"residents_est":5,"h3_10":"8a1e2e6f65b7fff","h3_11":"8b1e2e6f65b0fff"},"geometry":{"type":"Polygon","coordinates":[[[20.106327,50.059437],[20.106351,50.059369],[20.106538,50.059396],[20.106515,50.059464],[20.106327,50.059437]]]}},{"type":"Feature","id":"w337834037","properties":{"type":"yes","residential":true,"residents_est":2,"h3_10":"8a1e2e6f658ffff","h3_11":"8b1e2e6f6589fff"},"geometry":{"type":"Polygon","coordinates":[[[20.110288,50.058592],[20.110318,50.058545],[20.110444,50.058588],[20.110422,50.058623],[20.110288,50.058592]]]}},{"type":"Feature","id":"w337834051","properties":{"type":"yes","residential":false,"residents_est":0,"h3_10":"8a1e2e6f64a7fff","h3_11":"8b1e2e6f64a5fff"},"geometry":{"type":"Polygon","coordinates":[[[20.110665,50.05802],[20.110694,50.057983],[20.110737,50.057997],[20.110746,50.057985],[20.110795,50.058],[20.110756,50.05805],[20.110665,50.05802]]]}},{"type":"Feature","id":"w337834062","properties":{"type":"yes","residential":true,"residents_est":4,"h3_10":"8a1e2e6f65a7fff","h3_11":"8b1e2e6f65a6fff"},"geometry":{"type":"Polygon","coordinates":[[[20.106937,50.05987],[20.106952,50.059848],[20.106965,50.059852],[20.107009,50.059785],[20.10705,50.059796],[20.10704,50.059813],[20.107154,50.059847],[20.107095,50.059918],[20.107024,50.059896],[20.107041,50.059875],[20.107004,50.059864],[20.106987,50.059885],[20.106937,50.05987]]]}},{"type":"Feature","id":"w337834068","properties":{"type":"yes","residential":true,"residents_est":5,"h3_10":"8a1e2e6f648ffff","h3_11":"8b1e2e6f648afff"},"geometry":{"type":"Polygon","coordinates":[[[20.112008,50.05553],[20.112063,50.055457],[20.112109,50.055472],[20.112098,50.055487],[20.11214,50.0555],[20.112155,50.055483],[20.112186,50.055493],[20.112173,50.055511],[20.112213,50.055524],[20.112166,50.055582],[20.112008,50.05553]]]}},{"type":"Feature","id":"w337834083","properties":{"type":"yes","residential":true,"residents_est":2,"h3_10":"8a1e2e6f64effff","h3_11":"8b1e2e6f64ebfff"},"geometry":{"type":"Polygon","coordinates":[[[20.117073,50.05675],[20.117106,50.056701],[20.117224,50.056728],[20.117193,50.056778],[20.117073,50.05675]]]}},{"type":"Feature","id":"w337834084","properties":{"type":"yes","residential":false,"residents_est":0,"h3_10":"8a1e2e6f648ffff","h3_11":"8b1e2e6f648efff"},"geometry":{"type":"Polygon","coordinates":[[[20.1117,50.056062],[20.111734,50.056015],[20.111742,50.056017],[20.111736,50.056025],[20.111786,50.056041],[20.111793,50.056034],[20.111816,50.056041],[20.111782,50.056087],[20.1117,50.056062]]]}},{"type":"Feature","id":"w337834095","properties":{"type":"yes","residential":true,"residents_est":5,"h3_10":"8a1e2e6f65a7fff","h3_11":"8b1e2e6f65a6fff"},"geometry":{"type":"Polygon","coordinates":[[[20.106969,50.060018],[20.107,50.059964],[20.107224,50.060019],[20.107193,50.060074],[20.106969,50.060018]]]}},{"type":"Feature","id":"w337834108","properties":{"type":"yes","residential":true,"residents_est":5,"h3_10":"8a1e2e6f64cffff","h3_11":"8b1e2e6f64ccfff"},"geometry":{"type":"Polygon","coordinates":[[[20.11673,50.05651],[20.11674,50.056491],[20.116733,50.056479],[20.116738,50.056468],[20.116756,50.056463],[20.116778,50.056426],[20.11687,50.056449],[20.116863,50.056463],[20.116909,50.056475],[20.116867,50.056546],[20.11673,50.05651]]]}},{"type":"Feature","id":"w337834119","properties":{"type":"yes","residential":true,"residents_est":2,"h3_10":"8a1e2e6f65a7fff","h3_11":"8b1e2e6f65a1fff"},"geometry":{"type":"Polygon","coordinates":[[[20.108906,50.060108],[20.108942,50.060062],[20.109068,50.060101],[20.10903,50.060147],[20.108906,50.060108]]]}},{"type":"Feature","id":"w337834149","properties":{"type":"yes","residential":true,"residents_est":4,"h3_10":"8a1e2e6f6457fff","h3_11":"8b1e2e6f6450fff"},"geometry":{"type":"Polygon","coordinates":[[[20.116655,50.058034],[20.116808,50.057992],[20.116852,50.058058],[20.116699,50.0581],[20.116655,50.058034]]]}},{"type":"Feature","id":"w337834164","properties":{"type":"yes","residential":true,"residents_est":4,"h3_10":"8a1e2e6f6417fff","h3_11":"8b1e2e6f6416fff"},"geometry":{"type":"Polygon","coordinates":[[[20.110797,50.058049],[20.110832,50.057999],[20.111012,50.058053],[20.110976,50.058102],[20.110797,50.058049]]]}},{"type":"Feature","id":"w337834173","properties":{"type":"yes","residential":true,"residents_est":3,"h3_10":"8a1e2e6f65affff","h3_11":"8b1e2e6f65adfff"},"geometry":{"type":"Polygon","coordinates":[[[20.109752,50.060122],[20.109755,50.060051],[20.109895,50.060054],[20.10989,50.060126],[20.109752,50.060122]]]}},{"type":"Feature","id":"w337834177","properties":{"type":"yes","residential":true,"residents_est":4,"h3_10":"8a1e2e6f648ffff","h3_11":"8b1e2e6f648afff"},"geometry":{"type":"Polygon","coordinates":[[[20.111668,50.055621],[20.111736,50.055521],[20.111843,50.05555],[20.111773,50.05565],[20.111668,50.055621]]]}},{"type":"Feature","id":"w337834182","properties":{"type":"yes","residential":true,"residents_est":2,"h3_10":"8a1e2e6f65b7fff","h3_11":"8b1e2e6f65b4fff"},"geometry":{"type":"Polygon","coordinates":[[[20.106012,50.059704],[20.106052,50.059648],[20.106147,50.059676],[20.106102,50.059733],[20.106012,50.059704]]]}},{"type":"Feature","id":"w337834186","properties":{"type":"yes","residential":true,"residents_est":3,"h3_10":"8a1e2e6f6517fff","h3_11":"8b1e2e6f6515fff"},"geometry":{"type":"Polygon","coordinates":[[[20.109565,50.061192],[20.109566,50.061137],[20.109703,50.061137],[20.109702,50.061191],[20.109565,50.061192]]]}},{"type":"Feature","id":"w337834188","properties":{"type":"yes","residential":true,"residents_est":2,"h3_10":"8a1e2e6f64affff","h3_11":"8b1e2e6f64aefff"},"geometry":{"type":"Polygon","coordinates":[[[20.111176,50.057214],[20.111218,50.057148],[20.111297,50.057167],[20.111255,50.057235],[20.111176,50.057214]]]}},{"type":"Feature","id":"w337834192","properties":{"type":"yes","residential":true,"residents_est":5,"h3_10":"8a1e2e6f65a7fff","h3_11":"8b1e2e6f65a5fff"},"geometry":{"type":"Polygon","coordinates":[[[20.108266,50.060501],[20.108312,50.060445],[20.108501,50.060511],[20.108454,50.060567],[20.108266,50.060501]]]}},{"type":"Feature","id":"w337834203","properties":{"type":"yes","residential":true,"residents_est":5,"h3_10":"8a1e2e6f6517fff","h3_11":"8b1e2e6f6513fff"},"geometry":{"type":"Polygon","coordinates":[[[20.109585,50.060344],[20.109779,50.060344],[20.10978,50.060412],[20.109586,50.060413],[20.109585,50.060344]]]}},{"type":"Feature","id":"w337834210","properties":{"type":"yes","residential":true,"residents_est":3,"h3_10":"8a1e2e6f65affff","h3_11":"8b1e2e6f65abfff"},"geometry":{"type":"Polygon","coordinates":[[[20.110023,50.059143],[20.110056,50.059082],[20.110194,50.059112],[20.110161,50.059173],[20.110023,50.059143]]]}},{"type":"Feature","id":"w337834230","properties":{"type":"yes","residential":true,"residents_est":3,"h3_10":"8a1e2e6f65affff","h3_11":"8b1e2e6f65acfff"},"geometry":{"type":"Polygon","coordinates":[[[20.109191,50.059856],[20.109247,50.059811],[20.109351,50.059863],[20.109295,50.059909],[20.109191,50.059856]]]}},{"type":"Feature","id":"w337834237","properties":{"type":"yes","residential":false,"residents_est":0,"h3_10":"8a1e2e6f65affff","h3_11":"8b1e2e6f65a8fff"},"geometry":{"type":"Polygon","coordinates":[[[20.109586,50.059647],[20.109645,50.059592],[20.109679,50.059607],[20.109619,50.059662],[20.109586,50.059647]]]}},{"type":"Feature","id":"w337834241","properties":{"type":"yes","residential":true,"residents_est":2,"h3_10":"8a1e2e6f65b7fff","h3_11":"8b1e2e6f65b4fff"},"geometry":{"type":"Polygon","coordinates":[[[20.106185,50.059573],[20.106202,50.0595],[20.106271,50.059507],[20.106252,50.059581],[20.106185,50.059573]]]}},{"type":"Feature","id":"w337834289","properties":{"type":"yes","residential":false,"residents_est":0,"h3_10":"8a1e2e6f6517fff","h3_11":"8b1e2e6f6513fff"},"geometry":{"type":"Polygon","coordinates":[[[20.109874,50.060215],[20.109933,50.060215],[20.109936,50.060292],[20.109876,50.060292],[20.109874,50.060215]]]}},{"type":"Feature","id":"w337834293","properties":{"type":"yes","residential":true,"residents_est":3,"h3_10":"8a1e2e6f658ffff","h3_11":"8b1e2e6f658dfff"},"geometry":{"type":"Polygon","coordinates":[[[20.1103,50.058712],[20.110343,50.058648],[20.110475,50.058685],[20.110432,50.058749],[20.1103,50.058712]]]}},{"type":"Feature","id":"w337834306","properties":{"type":"yes","residential":true,"residents_est":6,"h3_10":"8a1e2e6f65affff","h3_11":"8b1e2e6f65aafff"},"geometry":{"type":"Polygon","coordinates":[[[20.109527,50.059165],[20.109595,50.059049],[20.10972,50.059081],[20.109651,50.059196],[20.109527,50.059165]]]}},{"type":"Feature","id":"w337834313","properties":{"type":"yes","residential":true,"residents_est":4,"h3_10":"8a1e2e6f649ffff","h3_11":"8b1e2e6f6499fff"},"geometry":{"type":"Polygon","coordinates":[[[20.111798,50.055341],[20.111859,50.055267],[20.111969,50.055304],[20.111908,50.055378],[20.111798,50.055341]]]}},{"type":"Feature","id":"w337834322","properties":{"type":"yes","residential":true,"residents_est":3,"h3_10":"8a1e2e6f65affff","h3_11":"8b1e2e6f65abfff"},"geometry":{"type":"Polygon","coordinates":[[[20.109907,50.059067],[20.109934,50.059016],[20.110064,50.059044],[20.110036,50.059096],[20.109907,50.059067]]]}},{"type":"Feature","id":"w337834325","properties":{"type":"yes","residential":true,"residents_est":3,"h3_10":"8a1e2e6f6537fff","h3_11":"8b1e2e6f6533fff"},"geometry":{"type":"Polygon","coordinates":[[[20.109538,50.061354],[20.109553,50.061256],[20.109645,50.061262],[20.10963,50.06136],[20.109538,50.061354]]]}},{"type":"Feature","id":"w337834330","properties":{"type":"yes","residential":true,"residents_est":3,"h3_10":"8a1e2e6f648ffff","h3_11":"8b1e2e6f648efff"},"geometry":{"type":"Polygon","coordinates":[[[20.111876,50.056025],[20.111901,50.055963],[20.11205,50.055987],[20.112023,50.056049],[20.111876,50.056025]]]}},{"type":"Feature","id":"w337834342","properties":{"type":"yes","residential":true,"residents_est":3,"h3_10":"8a1e2e6f65b7fff","h3_11":"8b1e2e6f65b5fff"},"geometry":{"type":"Polygon","coordinates":[[[20.107019,50.059688],[20.107053,50.059645],[20.107193,50.059691],[20.10716,50.059733],[20.107019,50.059688]]]}},{"type":"Feature","id":"w337834349","properties":{"type":"yes","residential":true,"residents_est":3,"h3_10":"8a1e2e6f64d7fff","h3_11":"8b1e2e6f64d5fff"},"geometry":{"type":"Polygon","coordinates":[[[20.114585,50.056016],[20.114599,50.055974],[20.114717,50.055989],[20.114702,50.056033],[20.114585,50.056016]]]}},{"type":"Feature","id":"w337834351","properties":{"type":"yes","residential":true,"residents_est":3,"h3_10":"8a1e2e6f65affff","h3_11":"8b1e2e6f65acfff"},"geometry":{"type":"Polygon","coordinates":[[[20.108933,50.059958],[20.109007,50.059865],[20.109094,50.059895],[20.109019,50.059987],[20.108933,50.059958]]]}},{"type":"Feature","id":"w337834359","properties":{"type":"yes","residential":true,"residents_est":3,"h3_10":"8a1e2e6f64affff","h3_11":"8b1e2e6f64aefff"},"geometry":{"type":"Polygon","coordinates":[[[20.111445,50.056985],[20.111474,50.056936],[20.111659,50.056983],[20.11163,50.057031],[20.111445,50.056985]]]}},{"type":"Feature","id":"w337834377","properties":{"type":"yes","residential":true,"residents_est":4,"h3_10":"8a1e2e6f645ffff","h3_11":"8b1e2e6f645cfff"},"geometry":{"type":"Polygon","coordinates":[[[20.118086,50.058225],[20.118086,50.058165],[20.118127,50.058166],[20.118127,50.058153],[20.118269,50.058153],[20.118269,50.058225],[20.118086,50.058225]]]}},{"type":"Feature","id":"w337834382","properties":{"type":"yes","residential":true,"residents_est":5,"h3_10":"8a1e2e6f6407fff","h3_11":"8b1e2e6f6400fff"},"geometry":{"type":"Polygon","coordinates":[[[20.113433,50.058959],[20.11359,50.058957],[20.113595,50.059093],[20.113533,50.059094],[20.113532,50.059037],[20.113436,50.059039],[20.113433,50.058959]]]}},{"type":"Feature","id":"w337834394","properties":{"type":"yes","residential":true,"residents_est":3,"h3_10":"8a1e2e6f64affff","h3_11":"8b1e2e6f64aefff"},"geometry":{"type":"Polygon","coordinates":[[[20.1114,50.057205],[20.111426,50.057147],[20.11155,50.057171],[20.111523,50.05723],[20.1114,50.057205]]]}},{"type":"Feature","id":"w337834395","properties":{"type":"yes","residential":true,"residents_est":7,"h3_10":"8a1e2e6f65a7fff","h3_11":"8b1e2e6f65a5fff"},"geometry":{"type":"Polygon","coordinates":[[[20.108045,50.060406],[20.108152,50.060247],[20.108282,50.060282],[20.10825,50.060333],[20.108208,50.060321],[20.108133,50.06043],[20.108045,50.060406]]]}},{"type":"Feature","id":"w337834397","properties":{"type":"yes","residential":false,"residents_est":0,"h3_10":"8a1e2e6f648ffff","h3_11":"8b1e2e6f648efff"},"geometry":{"type":"Polygon","coordinates":[[[20.111656,50.05574],[20.11169,50.0557],[20.11176,50.055724],[20.111748,50.055738],[20.111776,50.055749],[20.111756,50.055772],[20.111656,50.05574]]]}},{"type":"Feature","id":"w337834410","properties":{"type":"yes","residential":true,"residents_est":4,"h3_10":"8a1e2e6f64effff","h3_11":"8b1e2e6f64ebfff"},"geometry":{"type":"Polygon","coordinates":[[[20.117312,50.05676],[20.117344,50.056681],[20.117498,50.056707],[20.117466,50.056786],[20.117312,50.05676]]]}},{"type":"Feature","id":"w337834419","properties":{"type":"yes","residential":true,"residents_est":6,"h3_10":"8a1e2e6f64c7fff","h3_11":"8b1e2e6f64c0fff"},"geometry":{"type":"Polygon","coordinates":[[[20.115313,50.056182],[20.115327,50.056142],[20.115486,50.056166],[20.115449,50.056279],[20.115324,50.056261],[20.115348,50.056187],[20.115313,50.056182]]]}},{"type":"Feature","id":"w337834433","properties":{"type":"yes","residential":false,"residents_est":0,"h3_10":"8a1e2e6f65a7fff","h3_11":"8b1e2e6f65a0fff"},"geometry":{"type":"Polygon","coordinates":[[[20.107796,50.060213],[20.107828,50.060159],[20.107907,50.060179],[20.107882,50.060221],[20.107847,50.060212],[20.10784,50.060223],[20.107796,50.060213]]]}},{"type":"Feature","id":"w337834436","properties":{"type":"yes","residential":false,"residents_est":0,"h3_10":"8a1e2e6f658ffff","h3_11":"8b1e2e6f658cfff"},"geometry":{"type":"Polygon","coordinates":[[[20.109753,50.059058],[20.10979,50.059007],[20.109844,50.059023],[20.109806,50.059074],[20.109753,50.059058]]]}},{"type":"Feature","id":"w337834478","properties":{"type":"yes","residential":true,"residents_est":2,"h3_10":"8a1e2e6f64c7fff","h3_11":"8b1e2e6f64c0fff"},"geometry":{"type":"Polygon","coordinates":[[[20.115655,50.056363],[20.115675,50.056279],[20.115771,50.056289],[20.115756,50.056351],[20.115697,50.056345],[20.11569,50.056368],[20.115655,50.056363]]]}},{"type":"Feature","id":"w337834484","properties":{"type":"yes","residential":true,"residents_est":3,"h3_10":"8a1e2e6f64affff","h3_11":"8b1e2e6f64aafff"},"geometry":{"type":"Polygon","coordinates":[[[20.111402,50.05667],[20.111448,50.056609],[20.111466,50.056615],[20.111478,50.056599],[20.111562,50.056626],[20.111504,50.056702],[20.111402,50.05667]]]}},{"type":"Feature","id":"w337834502","properties":{"type":"yes","residential":true,"residents_est":4,"h3_10":"8a1e2e6f64c7fff","h3_11":"8b1e2e6f64c3fff"},"geometry":{"type":"Polygon","coordinates":[[[20.115786,50.05596],[20.11581,50.055881],[20.115963,50.055899],[20.11594,50.055979],[20.115786,50.05596]]]}},{"type":"Feature","id":"w337834510","properties":{"type":"yes","residential":true,"residents_est":2,"h3_10":"8a1e2e6f64cffff","h3_11":"8b1e2e6f64ccfff"},"geometry":{"type":"Polygon","coordinates":[[[20.116982,50.056528],[20.117008,50.056486],[20.117147,50.056522],[20.117118,50.056569],[20.117073,50.056557],[20.117076,50.056551],[20.116982,50.056528]]]}},{"type":"Feature","id":"w337834525","properties":{"type":"yes","residential":true,"residents_est":3,"h3_10":"8a1e2e6f64a7fff","h3_11":"8b1e2e6f64a1fff"},"geometry":{"type":"Polygon","coordinates":[[[20.111063,50.057578],[20.1111,50.057487],[20.111198,50.057505],[20.111166,50.057593],[20.111063,50.057578]]]}},{"type":"Feature","id":"w337834533","properties":{"type":"yes","residential":false,"residents_est":0,"h3_10":"8a1e2e6f64c7fff","h3_11":"8b1e2e6f64c0fff"},"geometry":{"type":"Polygon","coordinates":[[[20.115637,50.056239],[20.115659,50.056146],[20.115715,50.056153],[20.115703,50.056202],[20.115684,50.056201],[20.115675,50.056242],[20.115637,50.056239]]]}},{"type":"Feature","id":"w337834543","properties":{"type":"yes","residential":true,"residents_est":5,"h3_10":"8a1e2e6f6417fff","h3_11":"8b1e2e6f6412fff"},"geometry":{"type":"Polygon","coordinates":[[[20.111003,50.057823],[20.111036,50.05777],[20.111063,50.057777],[20.111066,50.057771],[20.111186,50.057802],[20.111131,50.057888],[20.111012,50.057856],[20.11103,50.05783],[20.111003,50.057823]]]}},{"type":"Feature","id":"w337834545","properties":{"type":"yes","residential":true,"residents_est":8,"h3_10":"8a1e2e6f648ffff","h3_11":"8b1e2e6f648bfff"},"geometry":{"type":"Polygon","coordinates":[[[20.112741,50.055727],[20.112765,50.05567],[20.112802,50.055676],[20.112838,50.055584],[20.112959,50.055604],[20.112894,50.055766],[20.112771,50.055745],[20.112775,50.055733],[20.112741,50.055727]]]}},{"type":"Feature","id":"w337834548","properties":{"type":"yes","residential":true,"residents_est":4,"h3_10":"8a1e2e6f65a7fff","h3_11":"8b1e2e6f65a5fff"},"geometry":{"type":"Polygon","coordinates":[[[20.108427,50.060385],[20.108481,50.060341],[20.108646,50.060424],[20.108595,50.060465],[20.108583,50.060459],[20.108591,50.060452],[20.108494,50.060404],[20.108483,50.060413],[20.108427,50.060385]]]}},{"type":"Feature","id":"w337834554","properties":{"type":"yes","residential":true,"residents_est":7,"h3_10":"8a1e2e6f65affff","h3_11":"8b1e2e6f65aafff"},"geometry":{"type":"Polygon","coordinates":[[[20.109463,50.059452],[20.109476,50.059337],[20.109682,50.059347],[20.109671,50.059447],[20.109585,50.059443],[20.109587,50.059422],[20.109538,50.059419],[20.109534,50.059456],[20.109463,50.059452]]]}},{"type":"Feature","id":"w337834560","properties":{"type":"yes","residential":true,"residents_est":4,"h3_10":"8a1e2e6f658ffff","h3_11":"8b1e2e6f6589fff"},"geometry":{"type":"Polygon","coordinates":[[[20.110473,50.05852],[20.110515,50.058455],[20.110649,50.05849],[20.110606,50.058556],[20.110562,50.058544],[20.110552,50.05856],[20.110504,50.058547],[20.110514,50.058531],[20.110473,50.05852]]]}},{"type":"Feature","id":"w337834569","properties":{"type":"yes","residential":true,"residents_est":4,"h3_10":"8a1e2e6f648ffff","h3_11":"8b1e2e6f648afff"},"geometry":{"type":"Polygon","coordinates":[[[20.112337,50.055685],[20.112353,50.055627],[20.112524,50.055646],[20.112506,50.055706],[20.112337,50.055685]]]}},{"type":"Feature","id":"w337834579","properties":{"type":"yes","residential":true,"residents_est":4,"h3_10":"8a1e2e6f64c7fff","h3_11":"8b1e2e6f64c6fff"},"geometry":{"type":"Polygon","coordinates":[[[20.115044,50.056179],[20.115068,50.0561],[20.115206,50.056117],[20.115181,50.056197],[20.115123,50.05619],[20.115118,50.056206],[20.115079,50.056201],[20.115084,50.056184],[20.115044,50.056179]]]}},{"type":"Feature","id":"w337834584","properties":{"type":"yes","residential":true,"residents_est":3,"h3_10":"8a1e2e6f65affff","h3_11":"8b1e2e6f65a8fff"},"geometry":{"type":"Polygon","coordinates":[[[20.109696,50.059511],[20.109748,50.05946],[20.10989,50.05952],[20.109839,50.059571],[20.109776,50.059545],[20.109788,50.059533],[20.10976,50.059521],[20.109748,50.059533],[20.109696,50.059511]]]}},{"type":"Feature","id":"w337834593","properties":{"type":"yes","residential":true,"residents_est":2,"h3_10":"8a1e2e6f648ffff","h3_11":"8b1e2e6f648efff"},"geometry":{"type":"Polygon","coordinates":[[[20.111826,50.056103],[20.111851,50.056069],[20.111967,50.056101],[20.111938,50.056143],[20.111826,50.056103]]]}},{"type":"Feature","id":"w337834594","properties":{"type":"yes","residential":true,"residents_est":4,"h3_10":"8a1e2e6f64a7fff","h3_11":"8b1e2e6f64a5fff"},"geometry":{"type":"Polygon","coordinates":[[[20.110726,50.05778],[20.110745,50.057749],[20.11076,50.057753],[20.110777,50.057727],[20.110764,50.057723],[20.110784,50.057692],[20.110903,50.057725],[20.110843,50.057812],[20.110726,50.05778]]]}},{"type":"Feature","id":"w337834597","properties":{"type":"yes","residential":true,"residents_est":3,"h3_10":"8a1e2e6f65a7fff","h3_11":"8b1e2e6f65a2fff"},"geometry":{"type":"Polygon","coordinates":[[[20.107246,50.059705],[20.107284,50.059644],[20.107257,50.059636],[20.107278,50.059602],[20.10739,50.059631],[20.10734,50.05971],[20.107289,50.059697],[20.107278,50.059714],[20.107246,50.059705]]]}},{"type":"Feature","id":"w337834603","properties":{"type":"yes","residential":true,"residents_est":7,"h3_10":"8a1e2e6f648ffff","h3_11":"8b1e2e6f648afff"},"geometry":{"type":"Polygon","coordinates":[[[20.111832,50.055798],[20.111895,50.055703],[20.112128,50.055769],[20.112088,50.055827],[20.111928,50.055783],[20.111902,50.055821],[20.111832,50.055798]]]}},{"type":"Feature","id":"w337834609","properties":{"type":"yes","residential":true,"residents_est":3,"h3_10":"8a1e2e6f64affff","h3_11":"8b1e2e6f64aafff"},"geometry":{"type":"Polygon","coordinates":[[[20.111584,50.056759],[20.11162,50.0567],[20.111749,50.056732],[20.111714,50.056791],[20.111584,50.056759]]]}},{"type":"Feature","id":"w462434319","properties":{"type":"yes","residential":true,"residents_est":4,"h3_10":"8a1e2e6f64dffff","h3_11":"8b1e2e6f64ddfff"},"geometry":{"type":"Polygon","coordinates":[[[20.116247,50.055405],[20.116269,50.055334],[20.116408,50.055351],[20.116387,50.055422],[20.116247,50.055405]]]}},{"type":"Feature","id":"w723489741","properties":{"type":"yes","residential":false,"residents_est":0,"h3_10":"8a1e2e6f65b7fff","h3_11":"8b1e2e6f65b2fff"},"geometry":{"type":"Polygon","coordinates":[[[20.105808,50.058931],[20.105839,50.058873],[20.105904,50.058888],[20.105875,50.058945],[20.105808,50.058931]]]}},{"type":"Feature","id":"w723489742","properties":{"type":"yes","residential":false,"residents_est":0,"h3_10":"8a1e2e6f65b7fff","h3_11":"8b1e2e6f65b2fff"},"geometry":{"type":"Polygon","coordinates":[[[20.105854,50.058816],[20.105867,50.058771],[20.105948,50.05878],[20.105936,50.058826],[20.105854,50.058816]]]}},{"type":"Feature","id":"w723489743","properties":{"type":"yes","residential":false,"residents_est":0,"h3_10":"8a1e2e6f65b7fff","h3_11":"8b1e2e6f65b6fff"},"geometry":{"type":"Polygon","coordinates":[[[20.105809,50.05907],[20.105827,50.059005],[20.10588,50.059011],[20.105863,50.059078],[20.105809,50.05907]]]}},{"type":"Feature","id":"w723489745","properties":{"type":"yes","residential":false,"residents_est":0,"h3_10":"8a1e2e6f65b7fff","h3_11":"8b1e2e6f65b6fff"},"geometry":{"type":"Polygon","coordinates":[[[20.10581,50.059154],[20.105833,50.059089],[20.105892,50.059098],[20.10587,50.059163],[20.10581,50.059154]]]}},{"type":"Feature","id":"w723489748","properties":{"type":"yes","residential":false,"residents_est":0,"h3_10":"8a1e2e6f65a7fff","h3_11":"8b1e2e6f65a6fff"},"geometry":{"type":"Polygon","coordinates":[[[20.10713,50.05977],[20.107151,50.059744],[20.107214,50.059765],[20.107193,50.059791],[20.10713,50.05977]]]}},{"type":"Feature","id":"w723489749","properties":{"type":"yes","residential":false,"residents_est":0,"h3_10":"8a1e2e6f65a7fff","h3_11":"8b1e2e6f65a6fff"},"geometry":{"type":"Polygon","coordinates":[[[20.107259,50.060006],[20.107286,50.059966],[20.107342,50.059982],[20.107316,50.060022],[20.107259,50.060006]]]}},{"type":"Feature","id":"w723489750","properties":{"type":"yes","residential":false,"residents_est":0,"h3_10":"8a1e2e6f65a7fff","h3_11":"8b1e2e6f65a5fff"},"geometry":{"type":"Polygon","coordinates":[[[20.107889,50.060259],[20.107919,50.060212],[20.107972,50.060225],[20.107942,50.060273],[20.107889,50.060259]]]}},{"type":"Feature","id":"w723489753","properties":{"type":"yes","residential":false,"residents_est":0,"h3_10":"8a1e2e6f65a7fff","h3_11":"8b1e2e6f65a5fff"},"geometry":{"type":"Polygon","coordinates":[[[20.108223,50.060486],[20.108269,50.06043],[20.108312,50.060445],[20.108266,50.060501],[20.108223,50.060486]]]}},{"type":"Feature","id":"w723489755","properties":{"type":"yes","residential":false,"residents_est":0,"h3_10":"8a1e2e6f65affff","h3_11":"8b1e2e6f65a8fff"},"geometry":{"type":"Polygon","coordinates":[[[20.109682,50.059443],[20.109728,50.059403],[20.109773,50.059425],[20.109727,50.059465],[20.109682,50.059443]]]}},{"type":"Feature","id":"w723489756","properties":{"type":"yes","residential":false,"residents_est":0,"h3_10":"8a1e2e6f658ffff","h3_11":"8b1e2e6f658cfff"},"geometry":{"type":"Polygon","coordinates":[[[20.109708,50.059039],[20.109742,50.058991],[20.10979,50.059007],[20.109756,50.059053],[20.109708,50.059039]]]}},{"type":"Feature","id":"w723489757","properties":{"type":"yes","residential":true,"residents_est":2,"h3_10":"8a1e2e6f658ffff","h3_11":"8b1e2e6f658cfff"},"geometry":{"type":"Polygon","coordinates":[[[20.109934,50.059016],[20.109957,50.058973],[20.110088,50.059003],[20.110064,50.059044],[20.109934,50.059016]]]}},{"type":"Feature","id":"w723489759","properties":{"type":"yes","residential":false,"residents_est":0,"h3_10":"8a1e2e6f64a7fff","h3_11":"8b1e2e6f64a5fff"},"geometry":{"type":"Polygon","coordinates":[[[20.110736,50.057981],[20.110757,50.057955],[20.110815,50.057973],[20.110795,50.058],[20.110736,50.057981]]]}},{"type":"Feature","id":"w723489760","properties":{"type":"yes","residential":false,"residents_est":0,"h3_10":"8a1e2e6f658ffff","h3_11":"8b1e2e6f658bfff"},"geometry":{"type":"Polygon","coordinates":[[[20.110642,50.05805],[20.110665,50.05802],[20.110718,50.058038],[20.110695,50.058067],[20.110642,50.05805]]]}},{"type":"Feature","id":"w723489762","properties":{"type":"yes","residential":true,"residents_est":2,"h3_10":"8a1e2e6f64a7fff","h3_11":"8b1e2e6f64a1fff"},"geometry":{"type":"Polygon","coordinates":[[[20.111184,50.057552],[20.111198,50.057505],[20.111327,50.057527],[20.111307,50.057574],[20.111184,50.057552]]]}},{"type":"Feature","id":"w723489764","properties":{"type":"yes","residential":false,"residents_est":0,"h3_10":"8a1e2e6f64affff","h3_11":"8b1e2e6f64aefff"},"geometry":{"type":"Polygon","coordinates":[[[20.111362,50.057199],[20.11139,50.05714],[20.111426,50.057147],[20.1114,50.057205],[20.111362,50.057199]]]}},{"type":"Feature","id":"w723489765","properties":{"type":"yes","residential":false,"residents_est":0,"h3_10":"8a1e2e6f64affff","h3_11":"8b1e2e6f64aefff"},"geometry":{"type":"Polygon","coordinates":[[[20.111411,50.056894],[20.111432,50.056869],[20.111492,50.056889],[20.111472,50.056914],[20.111411,50.056894]]]}},{"type":"Feature","id":"w723489767","properties":{"type":"yes","residential":true,"residents_est":2,"h3_10":"8a1e2e6f64affff","h3_11":"8b1e2e6f64aafff"},"geometry":{"type":"Polygon","coordinates":[[[20.111491,50.05674],[20.111529,50.056677],[20.11162,50.0567],[20.111582,50.056763],[20.111491,50.05674]]]}},{"type":"Feature","id":"w723489768","properties":{"type":"yes","residential":false,"residents_est":0,"h3_10":"8a1e2e6f64affff","h3_11":"8b1e2e6f64aafff"},"geometry":{"type":"Polygon","coordinates":[[[20.111714,50.056791],[20.111749,50.056732],[20.111799,50.056744],[20.111764,50.056804],[20.111714,50.056791]]]}},{"type":"Feature","id":"w723489770","properties":{"type":"yes","residential":false,"residents_est":0,"h3_10":"8a1e2e6f648ffff","h3_11":"8b1e2e6f648efff"},"geometry":{"type":"Polygon","coordinates":[[[20.111637,50.05605],[20.111679,50.055995],[20.111734,50.056015],[20.111695,50.056068],[20.111637,50.05605]]]}},{"type":"Feature","id":"w723489771","properties":{"type":"yes","residential":true,"residents_est":5,"h3_10":"8a1e2e6f6487fff","h3_11":"8b1e2e6f6481fff"},"geometry":{"type":"Polygon","coordinates":[[[20.111625,50.056273],[20.111647,50.056244],[20.111638,50.056241],[20.111705,50.056152],[20.111811,50.056185],[20.111744,50.056274],[20.111735,50.056272],[20.111714,50.056301],[20.111625,50.056273]]]}},{"type":"Feature","id":"w723489793","properties":{"type":"greenhouse","residential":false,"residents_est":0,"h3_10":"8a1e2e6f64dffff","h3_11":"8b1e2e6f64ddfff"},"geometry":{"type":"Polygon","coordinates":[[[20.116035,50.055716],[20.116049,50.055661],[20.116085,50.055664],[20.116071,50.05572],[20.116035,50.055716]]]}},{"type":"Feature","id":"w723489797","properties":{"type":"yes","residential":true,"residents_est":4,"h3_10":"8a1e2e6f64cffff","h3_11":"8b1e2e6f64cafff"},"geometry":{"type":"Polygon","coordinates":[[[20.117026,50.055554],[20.117041,50.055526],[20.117034,50.055524],[20.117044,50.055521],[20.117055,50.055501],[20.117047,50.055499],[20.117068,50.05546],[20.117196,50.055489],[20.117146,50.055581],[20.117026,50.055554]]]}},{"type":"Feature","id":"w723489798","properties":{"type":"yes","residential":true,"residents_est":4,"h3_10":"8a1e2e6f64cffff","h3_11":"8b1e2e6f64cafff"},"geometry":{"type":"Polygon","coordinates":[[[20.116922,50.055773],[20.116957,50.055685],[20.117067,50.055703],[20.117032,50.055791],[20.116922,50.055773]]]}},{"type":"Feature","id":"w723489809","properties":{"type":"yes","residential":false,"residents_est":0,"h3_10":"8a1e2e6f649ffff","h3_11":"8b1e2e6f6499fff"},"geometry":{"type":"Polygon","coordinates":[[[20.111779,50.055363],[20.111798,50.055341],[20.111908,50.055378],[20.111891,50.0554],[20.111779,50.055363]]]}},{"type":"Feature","id":"w723489810","properties":{"type":"yes","residential":false,"residents_est":0,"h3_10":"8a1e2e6f648ffff","h3_11":"8b1e2e6f648afff"},"geometry":{"type":"Polygon","coordinates":[[[20.111959,50.055514],[20.112002,50.055456],[20.112051,50.055472],[20.112008,50.05553],[20.111959,50.055514]]]}},{"type":"Feature","id":"w723489811","properties":{"type":"yes","residential":true,"residents_est":3,"h3_10":"8a1e2e6f648ffff","h3_11":"8b1e2e6f648bfff"},"geometry":{"type":"Polygon","coordinates":[[[20.1125,50.055727],[20.112516,50.055673],[20.11267,50.055691],[20.112655,50.055745],[20.1125,50.055727]]]}},{"type":"Feature","id":"w723489813","properties":{"type":"yes","residential":false,"residents_est":0,"h3_10":"8a1e2e6f64d7fff","h3_11":"8b1e2e6f64d5fff"},"geometry":{"type":"Polygon","coordinates":[[[20.114449,50.056062],[20.114468,50.056008],[20.114532,50.056016],[20.114513,50.056071],[20.114449,50.056062]]]}},{"type":"Feature","id":"w723489814","properties":{"type":"yes","residential":false,"residents_est":0,"h3_10":"8a1e2e6f64c7fff","h3_11":"8b1e2e6f64c3fff"},"geometry":{"type":"Polygon","coordinates":[[[20.11594,50.055979],[20.115964,50.055895],[20.116007,50.0559],[20.115982,50.055984],[20.11594,50.055979]]]}},{"type":"Feature","id":"w723489815","properties":{"type":"yes","residential":false,"residents_est":0,"h3_10":"8a1e2e6f64c7fff","h3_11":"8b1e2e6f64c3fff"},"geometry":{"type":"Polygon","coordinates":[[[20.115694,50.056075],[20.115707,50.056045],[20.115769,50.056058],[20.115757,50.056085],[20.115694,50.056075]]]}},{"type":"Feature","id":"w723489817","properties":{"type":"yes","residential":true,"residents_est":4,"h3_10":"8a1e2e6f64effff","h3_11":"8b1e2e6f64eafff"},"geometry":{"type":"Polygon","coordinates":[[[20.116969,50.056721],[20.117027,50.056636],[20.117129,50.056666],[20.117073,50.05675],[20.116969,50.056721]]]}},{"type":"Feature","id":"w723489818","properties":{"type":"yes","residential":true,"residents_est":3,"h3_10":"8a1e2e6f64effff","h3_11":"8b1e2e6f64ebfff"},"geometry":{"type":"Polygon","coordinates":[[[20.117142,50.056708],[20.117218,50.056572],[20.117287,50.056591],[20.117211,50.056724],[20.117142,50.056708]]]}},{"type":"Feature","id":"w723813870","properties":{"type":"detached","residential":false,"residents_est":0,"h3_10":"8a1e2e6f64b7fff","h3_11":"8b1e2e6f64b6fff"},"geometry":{"type":"Polygon","coordinates":[[[20.107818,50.056636],[20.107857,50.056575],[20.107926,50.056593],[20.107888,50.056655],[20.107818,50.056636]]]}},{"type":"Feature","id":"w723813918","properties":{"type":"greenhouse","residential":false,"residents_est":0,"h3_10":"8a1e2e6f65a7fff","h3_11":"8b1e2e6f65a1fff"},"geometry":{"type":"Polygon","coordinates":[[[20.108394,50.060153],[20.10844,50.06009],[20.108478,50.060102],[20.108432,50.060165],[20.108394,50.060153]]]}},{"type":"Feature","id":"w1047643362","properties":{"type":"detached","levels":2.0,"residential":true,"residents_est":11,"h3_10":"8a1e2e6f65affff","h3_11":"8b1e2e6f65a8fff"},"geometry":{"type":"Polygon","coordinates":[[[20.10942,50.059578],[20.109488,50.059515],[20.10965,50.059587],[20.109582,50.05965],[20.10942,50.059578]]]}},{"type":"Feature","id":"w1047643368","properties":{"type":"detached","levels":2.0,"residential":true,"residents_est":8,"h3_10":"8a1e2e6f6487fff","h3_11":"8b1e2e6f6481fff"},"geometry":{"type":"Polygon","coordinates":[[[20.111182,50.056356],[20.111231,50.056288],[20.111379,50.056332],[20.111331,50.0564],[20.111182,50.056356]]]}},{"type":"Feature","id":"w1047643369","properties":{"type":"detached","levels":2.0,"residential":true,"residents_est":14,"h3_10":"8a1e2e6f6487fff","h3_11":"8b1e2e6f6481fff"},"geometry":{"type":"Polygon","coordinates":[[[20.111549,50.056519],[20.111637,50.056406],[20.111779,50.056452],[20.111691,50.056564],[20.111549,50.056519]]]}},{"type":"Feature","id":"w1047643377","properties":{"type":"detached","levels":2.0,"residential":true,"residents_est":7,"h3_10":"8a1e2e6f6497fff","h3_11":"8b1e2e6f6492fff"},"geometry":{"type":"Polygon","coordinates":[[[20.108617,50.055205],[20.108657,50.055136],[20.10879,50.05517],[20.108749,50.055239],[20.108617,50.055205]]]}},{"type":"Feature","id":"w1301625048","properties":{"type":"construction","residential":false,"residents_est":0,"h3_10":"8a1e2e6f6497fff","h3_11":"8b1e2e6f6496fff"},"geometry":{"type":"Polygon","coordinates":[[[20.108396,50.055529],[20.108446,50.05545],[20.108542,50.055476],[20.108491,50.055554],[20.108396,50.055529]]]}},{"type":"Feature","id":"w1301626034","properties":{"type":"detached","residential":true,"residents_est":10,"h3_10":"8a1e2e6f64effff","h3_11":"8b1e2e6f64e9fff"},"geometry":{"type":"Polygon","coordinates":[[[20.117612,50.056965],[20.117649,50.056887],[20.117821,50.05692],[20.117785,50.056998],[20.117612,50.056965]]]}},{"type":"Feature","id":"w1335590130","properties":{"type":"yes","residential":true,"residents_est":5,"h3_10":"8a1e2e6f6487fff","h3_11":"8b1e2e6f6480fff"},"geometry":{"type":"Polygon","coordinates":[[[20.11074,50.056217],[20.110816,50.056113],[20.11093,50.056147],[20.110855,50.056251],[20.11074,50.056217]]]}},{"type":"Feature","id":"w1335590131","properties":{"type":"yes","residential":true,"residents_est":5,"h3_10":"8a1e2e6f64cffff","h3_11":"8b1e2e6f64c9fff"},"geometry":{"type":"Polygon","coordinates":[[[20.11799,50.056134],[20.118025,50.056051],[20.118202,50.056082],[20.118167,50.056164],[20.11799,50.056134]]]}}]}