{"type":"FeatureCollection","features":[{"type":"Feature","id":"w82873646","properties":{"type":"university","address":"Aleja Jana Pawła II 68a","name":"Budynek Główny","residential":false,"residents_est":0,"h3_10":"8a1e2e684b6ffff","h3_11":"8b1e2e684b69fff"},"geometry":{"type":"Polygon","coordinates":[[[19.997467,50.072103],[19.997479,50.072011],[19.997504,50.072013],[19.99751,50.071967],[19.99752,50.071968],[19.997555,50.071699],[19.997747,50.071709],[19.997712,50.071978],[19.997978,50.071993],[19.998016,50.071707],[19.998234,50.071719],[19.998197,50.072004],[19.998458,50.072018],[19.998495,50.071733],[19.998695,50.071743],[19.998658,50.072029],[19.998925,50.072043],[19.998962,50.071758],[19.999161,50.071768],[19.999124,50.072054],[19.999801,50.07209],[19.999803,50.072074],[19.999844,50.072076],[19.999842,50.072092],[19.999919,50.072097],[19.9999,50.072243],[19.998381,50.072161],[19.998377,50.072191],[19.998155,50.072203],[19.998158,50.072179],[19.997951,50.072192],[19.997958,50.072139],[19.997491,50.072114],[19.997492,50.072104],[19.997467,50.072103]]]}},{"type":"Feature","id":"w124601179","properties":{"type":"yes","address":"Aleja Pokoju 62","residential":true,"residents_est":2,"h3_10":"8a1e2e684a8ffff","h3_11":"8b1e2e684a88fff"},"geometry":{"type":"Polygon","coordinates":[[[19.993515,50.065763],[19.993568,50.065632],[19.993771,50.065666],[19.993719,50.065797],[19.993515,50.065763]]]}},{"type":"Feature","id":"w132985265","properties":{"type":"commercial","levels":1.0,"address":"Aleja Pokoju 68","residential":false,"residents_est":0,"h3_10":"8a1e2e684ac7fff","h3_11":"8b1e2e684ac5fff"},"geometry":{"type":"Polygon","coordinates":[[[19.997194,50.06668],[19.997405,50.066643],[19.997422,50.066681],[19.99721,50.066718],[19.997194,50.06668]]]}},{"type":"Feature","id":"w132985266","properties":{"type":"service","residential":false,"residents_est":0,"h3_10":"8a1e2e684aeffff","h3_11":"8b1e2e684aeefff"},"geometry":{"type":"Polygon","coordinates":[[[19.99711,50.066811],[19.997149,50.066732],[19.997239,50.06675],[19.997199,50.066829],[19.99711,50.066811]]]}},{"type":"Feature","id":"w177355432","properties":{"type":"stadium","name":"Mała Hala","residential":false,"residents_est":0,"h3_10":"8a1e2e684a17fff","h3_11":"8b1e2e684a14fff"},"geometry":{"type":"Polygon","coordinates":[[[19.99199,50.06838],[19.992189,50.068309],[19.992305,50.068249],[19.992406,50.06818],[19.992495,50.0681],[19.992589,50.068119],[19.992727,50.068174],[19.992823,50.068259],[19.992865,50.068361],[19.992845,50.068465],[19.992766,50.068556],[19.992741,50.068575],[19.992628,50.068631],[19.992486,50.068659],[19.992337,50.068655],[19.992203,50.068621],[19.99214,50.068591],[19.992079,50.06855],[19.99203,50.068497],[19.991999,50.068437],[19.99199,50.06838]]]}},{"type":"Feature","id":"w292584677","properties":{"type":"yes","residential":true,"residents_est":2,"h3_10":"8a1e2e684b4ffff","h3_11":"8b1e2e684b4cfff"},"geometry":{"type":"Polygon","coordinates":[[[19.997954,50.071563],[19.997975,50.071423],[19.998182,50.071435],[19.998161,50.071576],[19.997954,50.071563]]]}},{"type":"Feature","id":"w292867512","properties":{"type":"stadium","address":"Stanisława Lema 7","name":"Tauron Arena Kraków","residential":false,"residents_est":0,"h3_10":"8a1e2e684aa7fff","h3_11":"8b1e2e684aa5fff"},"geometry":{"type":"Polygon","coordinates":[[[19.990531,50.067795],[19.990587,50.067791],[19.990582,50.067687],[19.990605,50.067579],[19.99055,50.067571],[19.990565,50.067534],[19.990592,50.067481],[19.990632,50.067423],[19.990699,50.06735],[19.990758,50.067299],[19.990896,50.06721],[19.991066,50.067137],[19.991092,50.067168],[19.991222,50.067131],[19.991204,50.067098],[19.991345,50.067073],[19.991493,50.06706],[19.991496,50.067096],[19.991706,50.067103],[19.991716,50.067068],[19.991889,50.067096],[19.991996,50.067125],[19.991972,50.067157],[19.992095,50.067203],[19.992127,50.067173],[19.992235,50.067228],[19.992321,50.067284],[19.992389,50.067339],[19.992473,50.067431],[19.99254,50.067545],[19.992559,50.067599],[19.992574,50.067683],[19.992516,50.067684],[19.992518,50.06773],[19.992505,50.06782],[19.992562,50.067826],[19.992497,50.067971],[19.992382,50.068103],[19.992224,50.068214],[19.992032,50.068299],[19.992006,50.068269],[19.991876,50.068306],[19.991894,50.068338],[19.991778,50.06836],[19.991647,50.068374],[19.991605,50.068376],[19.991602,50.068341],[19.99146,50.068342],[19.991393,50.068334],[19.991384,50.068368],[19.991314,50.068359],[19.991103,50.068311],[19.991126,50.068279],[19.991004,50.068233],[19.990972,50.068262],[19.990805,50.068171],[19.990672,50.068059],[19.990579,50.067932],[19.990531,50.067795]]]}},{"type":"Feature","id":"w360922119","properties":{"type":"yes","levels":1.0,"residential":true,"residents_est":0,"h3_10":"8a1e2e684b8ffff","h3_11":"8b1e2e684b8efff"},"geometry":{"type":"Polygon","coordinates":[[[19.990197,50.068159],[19.990269,50.068131],[19.990369,50.068239],[19.990297,50.068267],[19.990197,50.068159]]]}},{"type":"Feature","id":"w360922120","properties":{"type":"yes","levels":1.0,"residential":true,"residents_est":0,"h3_10":"8a1e2e684b8ffff","h3_11":"8b1e2e684b8cfff"},"geometry":{"type":"Polygon","coordinates":[[[19.99028,50.068646],[19.990352,50.068618],[19.990452,50.068727],[19.99038,50.068754],[19.99028,50.068646]]]}},{"type":"Feature","id":"w360922121","properties":{"type":"yes","levels":1.0,"residential":true,"residents_est":0,"h3_10":"8a1e2e684b8ffff","h3_11":"8b1e2e684b88fff"},"geometry":{"type":"Polygon","coordinates":[[[19.990659,50.0685],[19.990731,50.068473],[19.990831,50.068581],[19.990759,50.068609],[19.990659,50.0685]]]}},{"type":"Feature","id":"w455181786","properties":{"type":"yes","name":"Spotkajmy się pod jabłonią","residential":true,"residents_est":0,"h3_10":"8a1e2e684a8ffff","h3_11":"8b1e2e684a88fff"},"geometry":{"type":"Polygon","coordinates":[[[19.993181,50.065829],[19.993182,50.06577],[19.993301,50.065772],[19.993295,50.065829],[19.993181,50.065829]]]}},{"type":"Feature","id":"w455181787","properties":{"type":"yes","address":"Aleja Pokoju 60","name":"Pod Jabłonią","residential":false,"residents_est":0,"h3_10":"8a1e2e684a8ffff","h3_11":"8b1e2e684a88fff"},"geometry":{"type":"Polygon","coordinates":[[[19.993183,50.065736],[19.993187,50.065622],[19.993259,50.065623],[19.993259,50.06564],[19.993303,50.065642],[19.993302,50.065738],[19.993183,50.065736]]]}},{"type":"Feature","id":"w455181788","properties":{"type":"house","levels":1.0,"residential":true,"residents_est":0,"h3_10":"8a1e2e684a8ffff","h3_11":"8b1e2e684a8afff"},"geometry":{"type":"Polygon","coordinates":[[[19.992922,50.06569],[19.992925,50.065671],[19.992956,50.065673],[19.992951,50.06566],[19.992953,50.065616],[19.99299,50.065619],[19.992987,50.065631],[19.993008,50.065632],[19.993029,50.065624],[19.993038,50.065632],[19.993059,50.065634],[19.993046,50.065708],[19.992951,50.065701],[19.992952,50.065692],[19.992922,50.06569]]]}},{"type":"Feature","id":"w455181789","properties":{"type":"yes","residential":true,"residents_est":0,"h3_10":"8a1e2e684a8ffff","h3_11":"8b1e2e684a8afff"},"geometry":{"type":"Polygon","coordinates":[[[19.993069,50.065705],[19.993071,50.065626],[19.993141,50.065626],[19.993139,50.065708],[19.993069,50.065705]]]}},{"type":"Feature","id":"w487711326","properties":{"type":"apartments","address":"Dąbska 26","residential":true,"residents_est":46,"h3_10":"8a1e2e684b97fff","h3_11":"8b1e2e684b92fff"},"geometry":{"type":"Polygon","coordinates":[[[19.98671,50.067639],[19.987018,50.06753],[19.987119,50.067647],[19.986991,50.067693],[19.987184,50.067916],[19.987308,50.067872],[19.987405,50.067985],[19.987102,50.068093],[19.98671,50.067639]]]}},{"type":"Feature","id":"w542580568","properties":{"type":"apartments","address":"Stanisława Lema 15C","residential":true,"residents_est":23,"h3_10":"8a1e2e684ab7fff","h3_11":"8b1e2e684ab1fff"},"geometry":{"type":"Polygon","coordinates":[[[19.99044,50.066285],[19.990537,50.066264],[19.990546,50.066281],[19.990634,50.066262],[19.99065,50.066292],[19.990663,50.066289],[19.990797,50.066542],[19.990783,50.066545],[19.990797,50.066572],[19.990612,50.066613],[19.990597,50.066585],[19.990583,50.066588],[19.990521,50.06647],[19.990536,50.066467],[19.990516,50.066429],[19.990502,50.066432],[19.990441,50.066318],[19.990456,50.066315],[19.99044,50.066285]]]}},{"type":"Feature","id":"w542580569","properties":{"type":"apartments","levels":4.0,"address":"Stanisława Lema 15D","residential":true,"residents_est":20,"h3_10":"8a1e2e684ab7fff","h3_11":"8b1e2e684ab3fff"},"geometry":{"type":"Polygon","coordinates":[[[19.990064,50.06593],[19.990236,50.065871],[19.990264,50.065905],[19.990278,50.0659],[19.990483,50.066143],[19.990469,50.066148],[19.990498,50.066182],[19.990326,50.066242],[19.990303,50.066214],[19.99029,50.066219],[19.990195,50.066106],[19.990217,50.066099],[19.990189,50.066064],[19.990166,50.066072],[19.990075,50.065965],[19.990089,50.06596],[19.990064,50.06593]]]}},{"type":"Feature","id":"w542580570","properties":{"type":"apartments","levels":4.0,"address":"Stanisława Lema 15B","residential":true,"residents_est":19,"h3_10":"8a1e2e684ab7fff","h3_11":"8b1e2e684ab0fff"},"geometry":{"type":"Polygon","coordinates":[[[19.989865,50.066559],[19.990064,50.06649],[19.99017,50.066617],[19.990157,50.066622],[19.990186,50.066656],[19.9902,50.066651],[19.990288,50.066757],[19.990274,50.066762],[19.990297,50.06679],[19.990126,50.066849],[19.990103,50.066821],[19.990089,50.066825],[19.989865,50.066559]]]}},{"type":"Feature","id":"w542580571","properties":{"type":"apartments","levels":4.0,"address":"Stanisława Lema 15A","residential":true,"residents_est":17,"h3_10":"8a1e2e684ab7fff","h3_11":"8b1e2e684ab0fff"},"geometry":{"type":"Polygon","coordinates":[[[19.98966,50.066295],[19.989833,50.066235],[19.989857,50.066264],[19.98987,50.06626],[19.989958,50.066364],[19.989945,50.066369],[19.989973,50.066402],[19.989986,50.066398],[19.990064,50.06649],[19.989865,50.066559],[19.989671,50.066329],[19.989685,50.066324],[19.98966,50.066295]]]}},{"type":"Feature","id":"w542580572","properties":{"type":"apartments","levels":4.0,"address":"Stanisława Lema 15E","residential":true,"residents_est":23,"h3_10":"8a1e2e684a97fff","h3_11":"8b1e2e684a94fff"},"geometry":{"type":"Polygon","coordinates":[[[19.989669,50.065579],[19.989721,50.065561],[19.989689,50.065523],[19.989723,50.065511],[19.989708,50.065494],[19.989807,50.065459],[19.98983,50.065487],[19.989846,50.065482],[19.99011,50.065798],[19.990097,50.065802],[19.99012,50.06583],[19.989947,50.06589],[19.989925,50.065863],[19.989911,50.065867],[19.989822,50.065761],[19.989836,50.065757],[19.989807,50.065722],[19.989793,50.065727],[19.989669,50.065579]]]}},{"type":"Feature","id":"w547897652","properties":{"type":"apartments","levels":8.0,"address":"Stanisława Lema 32","name":"Apartamenty Lema","residential":true,"residents_est":47,"h3_10":"8a1e2e684b97fff","h3_11":"8b1e2e684b94fff"},"geometry":{"type":"Polygon","coordinates":[[[19.987257,50.068265],[19.987444,50.068178],[19.9876,50.068316],[19.987701,50.068269],[19.987816,50.068371],[19.987714,50.068418],[19.987731,50.068433],[19.987686,50.068454],[19.987702,50.068469],[19.987561,50.068534],[19.987257,50.068265]]]}},{"type":"Feature","id":"w586580463","properties":{"type":"roof","residential":false,"residents_est":0,"h3_10":"8a1e2e684a0ffff","h3_11":"8b1e2e684a0cfff"},"geometry":{"type":"Polygon","coordinates":[[[19.995617,50.068849],[19.995635,50.068833],[19.995664,50.068829],[19.995691,50.068838],[19.995702,50.068856],[19.995693,50.068875],[19.995668,50.068885],[19.995638,50.068882],[19.995618,50.068868],[19.995617,50.068849]]]}},{"type":"Feature","id":"w586580465","properties":{"type":"roof","residential":false,"residents_est":0,"h3_10":"8a1e2e684a57fff","h3_11":"8b1e2e684a51fff"},"geometry":{"type":"Polygon","coordinates":[[[19.998287,50.06797],[19.998363,50.067954],[19.998381,50.06799],[19.998304,50.068005],[19.998287,50.06797]]]}},{"type":"Feature","id":"w586580467","properties":{"type":"roof","residential":false,"residents_est":0,"h3_10":"8a1e2e684a77fff","h3_11":"8b1e2e684a71fff"},"geometry":{"type":"Polygon","coordinates":[[[19.997871,50.069156],[19.997896,50.069139],[19.997932,50.069139],[19.997958,50.069155],[19.997958,50.069178],[19.997933,50.069195],[19.997897,50.069195],[19.997871,50.069179],[19.997871,50.069156]]]}},{"type":"Feature","id":"w627571478","properties":{"type":"service","residential":false,"residents_est":0,"h3_10":"8a1e2e684ac7fff","h3_11":"8b1e2e684ac3fff"},"geometry":{"type":"Polygon","coordinates":[[[19.997049,50.066049],[19.997074,50.065997],[19.997154,50.066012],[19.99713,50.066064],[19.997049,50.066049]]]}},{"type":"Feature","id":"w700266187","properties":{"type":"retail","residential":false,"residents_est":0,"h3_10":"8a1e2e684a8ffff","h3_11":"8b1e2e684a8bfff"},"geometry":{"type":"Polygon","coordinates":[[[19.993312,50.065523],[19.993333,50.065486],[19.993313,50.065481],[19.993368,50.065371],[19.993557,50.065406],[19.993511,50.065514],[19.993477,50.065508],[19.993454,50.065554],[19.993312,50.065523]]]}},{"type":"Feature","id":"w700266188","properties":{"type":"roof","residential":false,"residents_est":0,"h3_10":"8a1e2e684a8ffff","h3_11":"8b1e2e684a8bfff"},"geometry":{"type":"Polygon","coordinates":[[[19.993573,50.065556],[19.993662,50.065371],[19.993784,50.065391],[19.9937,50.065582],[19.993573,50.065556]]]}},{"type":"Feature","id":"w745638359","properties":{"type":"apartments","levels":5.0,"address":"Stanisława Lema 19","residential":true,"residents_est":52,"h3_10":"8a1e2e684ba7fff","h3_11":"8b1e2e684ba6fff"},"geometry":{"type":"Polygon","coordinates":[[[19.987462,50.069811],[19.987893,50.069583],[19.988431,50.070074],[19.988292,50.070137],[19.988269,50.070115],[19.988251,50.070123],[19.987871,50.069778],[19.98776,50.069838],[19.987776,50.06985],[19.987729,50.069876],[19.987672,50.069832],[19.987536,50.069904],[19.987491,50.069864],[19.98751,50.069855],[19.987462,50.069811]]]}},{"type":"Feature","id":"w865352750","properties":{"type":"apartments","levels":7.0,"address":"Stanisława Lema 26","residential":true,"residents_est":49,"h3_10":"8a1e2e684bb7fff","h3_11":"8b1e2e684bb6fff"},"geometry":{"type":"Polygon","coordinates":[[[19.986123,50.068859],[19.986317,50.068781],[19.986397,50.068853],[19.98638,50.068861],[19.986398,50.068877],[19.986416,50.068869],[19.986496,50.068942],[19.986478,50.06895],[19.986497,50.068967],[19.986514,50.068959],[19.98657,50.069009],[19.986553,50.069017],[19.986573,50.069035],[19.986591,50.069027],[19.986619,50.069053],[19.986602,50.069061],[19.986624,50.069081],[19.986641,50.069073],[19.986758,50.069178],[19.986577,50.069269],[19.98651,50.069208],[19.986503,50.069211],[19.986473,50.069184],[19.986501,50.069171],[19.986492,50.069162],[19.986483,50.069154],[19.986461,50.069164],[19.98638,50.069091],[19.986391,50.069086],[19.986349,50.069047],[19.986343,50.069042],[19.986332,50.069048],[19.986328,50.069044],[19.98635,50.069034],[19.986332,50.069019],[19.986311,50.069029],[19.986123,50.068859]]]}},{"type":"Feature","id":"w926589684","properties":{"type":"retail","address":"Aleja Pokoju 66","name":"Malediva Cafe Bar","residential":false,"residents_est":0,"h3_10":"8a1e2e684af7fff","h3_11":"8b1e2e684af5fff"},"geometry":{"type":"Polygon","coordinates":[[[19.995275,50.066939],[19.995287,50.066896],[19.995511,50.066923],[19.995489,50.067006],[19.995293,50.066983],[19.995306,50.066943],[19.995275,50.066939]]]}},{"type":"Feature","id":"w964950160","properties":{"type":"apartments","address":"Aleja Pokoju 52B","residential":true,"residents_est":20,"h3_10":"8a1e2e684a87fff","h3_11":"8b1e2e684a83fff"},"geometry":{"type":"Polygon","coordinates":[[[19.991402,50.065863],[19.991572,50.065795],[19.991613,50.065835],[19.99163,50.065829],[19.991788,50.065993],[19.991775,50.066002],[19.991813,50.066045],[19.991646,50.066111],[19.991402,50.065863]]]}},{"type":"Feature","id":"w964950161","properties":{"type":"apartments","address":"Aleja Pokoju 52A","residential":true,"residents_est":21,"h3_10":"8a1e2e684a87fff","h3_11":"8b1e2e684a82fff"},"geometry":{"type":"Polygon","coordinates":[[[19.991148,50.065604],[19.991339,50.06553],[19.991552,50.065747],[19.991532,50.065756],[19.991572,50.065795],[19.991402,50.065863],[19.991148,50.065604]]]}},{"type":"Feature","id":"w1077642255","properties":{"type":"yes","residential":true,"residents_est":0,"h3_10":"8a1e2e684ab7fff","h3_11":"8b1e2e684ab2fff"},"geometry":{"type":"Polygon","coordinates":[[[19.98963,50.066135],[19.989696,50.066112],[19.989774,50.066203],[19.989708,50.066226],[19.98963,50.066135]]]}},{"type":"Feature","id":"w1077642256","properties":{"type":"yes","residential":true,"residents_est":0,"h3_10":"8a1e2e684a97fff","h3_11":"8b1e2e684a94fff"},"geometry":{"type":"Polygon","coordinates":[[[19.989815,50.065948],[19.989957,50.065897],[19.989993,50.065939],[19.989852,50.06599],[19.989815,50.065948]]]}},{"type":"Feature","id":"w1323580064","properties":{"type":"apartments","levels":7.0,"address":"Stanisława Lema 28","residential":true,"residents_est":89,"h3_10":"8a1e2e684bb7fff","h3_11":"8b1e2e684bb2fff"},"geometry":{"type":"Polygon","coordinates":[[[19.98641,50.068623],[19.98675,50.068468],[19.986984,50.068679],[19.986972,50.068685],[19.98709,50.068791],[19.987103,50.068787],[19.987184,50.068859],[19.987117,50.06889],[19.987137,50.068908],[19.986935,50.069067],[19.98661,50.068775],[19.986693,50.068737],[19.986649,50.068697],[19.986568,50.068734],[19.986542,50.068711],[19.986519,50.068721],[19.986451,50.06866],[19.98646,50.068655],[19.986445,50.068642],[19.986436,50.068646],[19.98641,50.068623]]]}},{"type":"Feature","id":"w1394048623","properties":{"type":"greenhouse","residential":false,"residents_est":0,"h3_10":"8a1e2e684a07fff","h3_11":"8b1e2e684a03fff"},"geometry":{"type":"Polygon","coordinates":[[[19.994696,50.068578],[19.994785,50.06853],[19.994806,50.068546],[19.994718,50.068594],[19.994696,50.068578]]]}},{"type":"Feature","id":"w1394048631","properties":{"type":"yes","residential":true,"residents_est":3,"h3_10":"8a1e2e684a57fff","h3_11":"8b1e2e684a51fff"},"geometry":{"type":"Polygon","coordinates":[[[19.998426,50.068181],[19.998537,50.068161],[19.998556,50.068204],[19.998445,50.068224],[19.998426,50.068181]]]}},{"type":"Feature","id":"w1394048647","properties":{"type":"yes","name":"Planetarium","residential":false,"residents_est":0,"h3_10":"8a1e2e684a0ffff","h3_11":"8b1e2e684a0dfff"},"geometry":{"type":"Polygon","coordinates":[[[19.996216,50.068667],[19.996233,50.068646],[19.996268,50.068637],[19.996273,50.068627],[19.996308,50.068635],[19.996304,50.068644],[19.996324,50.068665],[19.996319,50.068689],[19.996291,50.068705],[19.996253,50.068706],[19.996223,50.068691],[19.996216,50.068667]]]}},{"type":"Feature","id":"w1428629879","properties":{"type":"yes","residential":true,"residents_est":0,"h3_10":"8a1e2e684a9ffff","h3_11":"8b1e2e684a9efff"},"geometry":{"type":"Polygon","coordinates":[[[19.991231,50.065245],[19.991294,50.065212],[19.991358,50.065263],[19.991294,50.065296],[19.991231,50.065245]]]}},{"type":"Feature","id":"w1428629880","properties":{"type":"yes","residential":true,"residents_est":1,"h3_10":"8a1e2e684a9ffff","h3_11":"8b1e2e684a9cfff"},"geometry":{"type":"Polygon","coordinates":[[[19.991389,50.065299],[19.991478,50.065253],[19.991506,50.065275],[19.991462,50.065298],[19.991489,50.065319],[19.991431,50.06535],[19.991397,50.065323],[19.99141,50.065316],[19.991389,50.065299]]]}},{"type":"Feature","id":"w1428629881","properties":{"type":"yes","residential":true,"residents_est":0,"h3_10":"8a1e2e684a9ffff","h3_11":"8b1e2e684a9cfff"},"geometry":{"type":"Polygon","coordinates":[[[19.991497,50.065435],[19.991517,50.065427],[19.991512,50.065422],[19.991582,50.065395],[19.991624,50.065439],[19.991534,50.065474],[19.991497,50.065435]]]}},{"type":"Feature","id":"w1428629883","properties":{"type":"yes","residential":false,"residents_est":0,"h3_10":"8a1e2e684a9ffff","h3_11":"8b1e2e684a9cfff"},"geometry":{"type":"Polygon","coordinates":[[[19.991831,50.065584],[19.991884,50.065558],[19.991916,50.065584],[19.991864,50.065611],[19.991831,50.065584]]]}},{"type":"Feature","id":"w1428629884","properties":{"type":"yes","residential":false,"residents_est":0,"h3_10":"8a1e2e684a87fff","h3_11":"8b1e2e684a83fff"},"geometry":{"type":"Polygon","coordinates":[[[19.991874,50.065692],[19.991943,50.065659],[19.991975,50.065687],[19.991906,50.06572],[19.991874,50.065692]]]}},{"type":"Feature","id":"w1428629885","properties":{"type":"yes","residential":false,"residents_est":0,"h3_10":"8a1e2e684a87fff","h3_11":"8b1e2e684a83fff"},"geometry":{"type":"Polygon","coordinates":[[[19.99195,50.065808],[19.99199,50.065789],[19.992045,50.065836],[19.991989,50.065863],[19.991955,50.065834],[19.991971,50.065826],[19.99195,50.065808]]]}},{"type":"Feature","id":"w1428629886","properties":{"type":"yes","residential":true,"residents_est":0,"h3_10":"8a1e2e684a8ffff","h3_11":"8b1e2e684a8efff"},"geometry":{"type":"Polygon","coordinates":[[[19.992447,50.065673],[19.992531,50.065624],[19.992603,50.065674],[19.992518,50.065723],[19.992447,50.065673]]]}},{"type":"Feature","id":"w1428629887","properties":{"type":"yes","residential":true,"residents_est":0,"h3_10":"8a1e2e684a8ffff","h3_11":"8b1e2e684a8afff"},"geometry":{"type":"Polygon","coordinates":[[[19.992716,50.06552],[19.992774,50.065479],[19.992793,50.06549],[19.992816,50.065473],[19.99286,50.065498],[19.992761,50.065569],[19.99272,50.065545],[19.992738,50.065533],[19.992716,50.06552]]]}},{"type":"Feature","id":"w1428629888","properties":{"type":"yes","residential":true,"residents_est":1,"h3_10":"8a1e2e684a9ffff","h3_11":"8b1e2e684a9dfff"},"geometry":{"type":"Polygon","coordinates":[[[19.992548,50.065418],[19.992611,50.065369],[19.992678,50.065404],[19.992615,50.065453],[19.992548,50.065418]]]}},{"type":"Feature","id":"w1428629889","properties":{"type":"yes","residential":true,"residents_est":0,"h3_10":"8a1e2e684a9ffff","h3_11":"8b1e2e684a9dfff"},"geometry":{"type":"Polygon","coordinates":[[[19.992437,50.065299],[19.992493,50.065261],[19.992567,50.065306],[19.992511,50.065344],[19.992437,50.065299]]]}},{"type":"Feature","id":"w1428629890","properties":{"type":"yes","residential":false,"residents_est":0,"h3_10":"8a1e2e684a8ffff","h3_11":"8b1e2e684a8afff"},"geometry":{"type":"Polygon","coordinates":[[[19.992993,50.065374],[19.99306,50.065331],[19.993113,50.065365],[19.993045,50.065408],[19.992993,50.065374]]]}},{"type":"Feature","id":"w1428629891","properties":{"type":"yes","residential":false,"residents_est":0,"h3_10":"8a1e2e684a9ffff","h3_11":"8b1e2e684a98fff"},"geometry":{"type":"Polygon","coordinates":[[[19.991891,50.065123],[19.991976,50.065072],[19.992012,50.065097],[19.991927,50.065148],[19.991891,50.065123]]]}},{"type":"Feature","id":"w1428629892","properties":{"type":"allotment_house","residential":false,"residents_est":0,"h3_10":"8a1e2e684a9ffff","h3_11":"8b1e2e684a98fff"},"geometry":{"type":"Polygon","coordinates":[[[19.99172,50.065032],[19.991768,50.065002],[19.991807,50.065028],[19.991815,50.065023],[19.991847,50.065043],[19.991792,50.065078],[19.99172,50.065032]]]}},{"type":"Feature","id":"w1428629893","properties":{"type":"yes","residential":false,"residents_est":0,"h3_10":"8a1e2e684a9ffff","h3_11":"8b1e2e684a99fff"},"geometry":{"type":"Polygon","coordinates":[[[19.992865,50.06525],[19.992942,50.065214],[19.992979,50.065241],[19.992909,50.065281],[19.992865,50.06525]]]}},{"type":"Feature","id":"w1428629894","properties":{"type":"yes","residential":false,"residents_est":0,"h3_10":"8a1e2e684a9ffff","h3_11":"8b1e2e684a9dfff"},"geometry":{"type":"Polygon","coordinates":[[[19.992145,50.065329],[19.992181,50.065307],[19.992233,50.065342],[19.992208,50.065357],[19.992199,50.065352],[19.992188,50.065359],[19.992145,50.065329]]]}},{"type":"Feature","id":"w1428629895","properties":{"type":"yes","residential":false,"residents_est":0,"h3_10":"8a1e2e684a9ffff","h3_11":"8b1e2e684a9dfff"},"geometry":{"type":"Polygon","coordinates":[[[19.992254,50.065425],[19.992301,50.065399],[19.992345,50.065432],[19.992298,50.065458],[19.992254,50.065425]]]}},{"type":"Feature","id":"w1428629896","properties":{"type":"yes","residential":false,"residents_est":0,"h3_10":"8a1e2e684a87fff","h3_11":"8b1e2e684a83fff"},"geometry":{"type":"Polygon","coordinates":[[[19.992079,50.065917],[19.992127,50.065889],[19.992176,50.065924],[19.992127,50.065952],[19.992079,50.065917]]]}}]}