{"type":"FeatureCollection","features":[{"type":"Feature","id":"w337963134","properties":{"type":"yes","address":"Cypriana Godebskiego 48","residential":true,"residents_est":1,"h3_10":"8a1e2e61e0e7fff","h3_11":"8b1e2e61e0e3fff"},"geometry":{"type":"Polygon","coordinates":[[[20.109439,50.116124],[20.109451,50.116114],[20.109449,50.116108],[20.109454,50.116112],[20.109492,50.116107],[20.109483,50.116079],[20.109553,50.11607],[20.109557,50.116081],[20.109608,50.116075],[20.109639,50.116169],[20.109476,50.116191],[20.109461,50.116143],[20.109443,50.116138],[20.109439,50.116124]]]}},{"type":"Feature","id":"w337963139","properties":{"type":"yes","address":"Cypriana Godebskiego 61","residential":true,"residents_est":1,"h3_10":"8a1e2e61e0d7fff","h3_11":"8b1e2e61e0d5fff"},"geometry":{"type":"Polygon","coordinates":[[[20.108199,50.114802],[20.10828,50.114791],[20.108264,50.114742],[20.108408,50.114722],[20.108434,50.1148],[20.108462,50.114797],[20.108478,50.114844],[20.108418,50.114852],[20.108405,50.114865],[20.10838,50.114869],[20.108356,50.114861],[20.108225,50.114879],[20.108199,50.114802]]]}},{"type":"Feature","id":"w337963140","properties":{"type":"yes","address":"Karola Irzykowskiego 6a","residential":true,"residents_est":0,"h3_10":"8a1e2e61e0dffff","h3_11":"8b1e2e61e0dbfff"},"geometry":{"type":"Polygon","coordinates":[[[20.109825,50.114],[20.109833,50.113995],[20.109826,50.11397],[20.110015,50.113948],[20.110021,50.113973],[20.110034,50.113987],[20.110027,50.113993],[20.110034,50.114018],[20.109843,50.114039],[20.109838,50.114014],[20.109828,50.11401],[20.109825,50.114]]]}},{"type":"Feature","id":"w337963146","properties":{"type":"yes","address":"Cypriana Godebskiego 40","residential":true,"residents_est":1,"h3_10":"8a1e2e61e0c7fff","h3_11":"8b1e2e61e0c2fff"},"geometry":{"type":"Polygon","coordinates":[[[20.109032,50.114816],[20.109043,50.114815],[20.109039,50.114773],[20.109165,50.11476],[20.109189,50.114854],[20.109129,50.114861],[20.109136,50.114887],[20.109061,50.114895],[20.109053,50.114864],[20.109043,50.114865],[20.109032,50.114816]]]}},{"type":"Feature","id":"w337963147","properties":{"type":"yes","residential":true,"residents_est":1,"h3_10":"8a1e2e61e0affff","h3_11":"8b1e2e61e0adfff"},"geometry":{"type":"Polygon","coordinates":[[[20.106514,50.116463],[20.1066,50.116444],[20.10668,50.116599],[20.106595,50.116617],[20.106514,50.116463]]]}},{"type":"Feature","id":"w337963175","properties":{"type":"yes","residential":true,"residents_est":0,"h3_10":"8a1e2e61e0dffff","h3_11":"8b1e2e61e0dbfff"},"geometry":{"type":"Polygon","coordinates":[[[20.110049,50.114069],[20.110145,50.114058],[20.110163,50.11412],[20.110066,50.114131],[20.110049,50.114069]]]}},{"type":"Feature","id":"w337963185","properties":{"type":"yes","residential":false,"residents_est":0,"h3_10":"8a1e2e61e017fff","h3_11":"8b1e2e61e013fff"},"geometry":{"type":"Polygon","coordinates":[[[20.105894,50.116819],[20.105955,50.116791],[20.106012,50.116843],[20.10595,50.116871],[20.105894,50.116819]]]}},{"type":"Feature","id":"w337963193","properties":{"type":"yes","residential":false,"residents_est":0,"h3_10":"8a1e2e61e05ffff","h3_11":"8b1e2e61e05afff"},"geometry":{"type":"Polygon","coordinates":[[[20.111809,50.116632],[20.111812,50.116578],[20.111896,50.11658],[20.111894,50.116634],[20.111809,50.116632]]]}},{"type":"Feature","id":"w337963200","properties":{"type":"yes","residential":true,"residents_est":1,"h3_10":"8a1e2e61e05ffff","h3_11":"8b1e2e61e058fff"},"geometry":{"type":"Polygon","coordinates":[[[20.112286,50.116655],[20.112293,50.1166],[20.112445,50.116608],[20.112437,50.116663],[20.112286,50.116655]]]}},{"type":"Feature","id":"w337963214","properties":{"type":"yes","residential":true,"residents_est":1,"h3_10":"8a1e2e61e017fff","h3_11":"8b1e2e61e013fff"},"geometry":{"type":"Polygon","coordinates":[[[20.106084,50.116892],[20.106205,50.116839],[20.106299,50.116925],[20.106177,50.116979],[20.106084,50.116892]]]}},{"type":"Feature","id":"w337963239","properties":{"type":"yes","residential":true,"residents_est":0,"h3_10":"8a1e2e61e01ffff","h3_11":"8b1e2e61e01efff"},"geometry":{"type":"Polygon","coordinates":[[[20.106555,50.116812],[20.106617,50.116792],[20.106668,50.116859],[20.106606,50.116878],[20.106555,50.116812]]]}},{"type":"Feature","id":"w337963250","properties":{"type":"yes","residential":true,"residents_est":0,"h3_10":"8a1e2e61e017fff","h3_11":"8b1e2e61e013fff"},"geometry":{"type":"Polygon","coordinates":[[[20.106023,50.116734],[20.106175,50.116688],[20.106217,50.116744],[20.106064,50.11679],[20.106023,50.116734]]]}},{"type":"Feature","id":"w337963262","properties":{"type":"yes","residential":true,"residents_est":0,"h3_10":"8a1e2e61e05ffff","h3_11":"8b1e2e61e05afff"},"geometry":{"type":"Polygon","coordinates":[[[20.111977,50.116588],[20.111984,50.116515],[20.112137,50.116523],[20.112129,50.116594],[20.111977,50.116588]]]}},{"type":"Feature","id":"w337963287","properties":{"type":"yes","address":"Karola Irzykowskiego 3","residential":true,"residents_est":1,"h3_10":"8a1e2e61e0dffff","h3_11":"8b1e2e61e0dcfff"},"geometry":{"type":"Polygon","coordinates":[[[20.10951,50.114737],[20.109616,50.114725],[20.109611,50.114705],[20.109666,50.114699],[20.109697,50.114812],[20.109537,50.114832],[20.10951,50.114737]]]}},{"type":"Feature","id":"w337963313","properties":{"type":"yes","address":"Soczyny 2","residential":true,"residents_est":0,"h3_10":"8a1e2e61e0e7fff","h3_11":"8b1e2e61e0e1fff"},"geometry":{"type":"Polygon","coordinates":[[[20.109593,50.116476],[20.10973,50.116464],[20.10974,50.116507],[20.109773,50.116504],[20.109779,50.116531],[20.109746,50.116534],[20.109747,50.116539],[20.10961,50.116551],[20.109593,50.116476]]]}},{"type":"Feature","id":"w337963319","properties":{"type":"yes","address":"Stadionowa 27","residential":true,"residents_est":0,"h3_10":"8a1e2e61e057fff","h3_11":"8b1e2e61e052fff"},"geometry":{"type":"Polygon","coordinates":[[[20.110321,50.116905],[20.110436,50.116902],[20.110443,50.117014],[20.110426,50.117015],[20.110427,50.117027],[20.11035,50.117029],[20.110349,50.117016],[20.110327,50.117017],[20.110321,50.116905]]]}},{"type":"Feature","id":"w337987702","properties":{"type":"yes","address":"Lipowa 43","residential":true,"residents_est":0,"h3_10":"8a1e2e61e067fff","h3_11":"8b1e2e61e063fff"},"geometry":{"type":"Polygon","coordinates":[[[20.112281,50.118642],[20.112327,50.118622],[20.112359,50.118653],[20.112432,50.118621],[20.112495,50.118683],[20.112447,50.118704],[20.11246,50.118716],[20.112434,50.118727],[20.112422,50.118716],[20.112377,50.118735],[20.112281,50.118642]]]}},{"type":"Feature","id":"w337987708","properties":{"type":"yes","residential":true,"residents_est":0,"h3_10":"8a1e2e61e007fff","h3_11":"8b1e2e61e004fff"},"geometry":{"type":"Polygon","coordinates":[[[20.106476,50.118294],[20.106641,50.118254],[20.106672,50.118311],[20.106624,50.118323],[20.106639,50.118348],[20.106524,50.118376],[20.106476,50.118294]]]}},{"type":"Feature","id":"w337987771","properties":{"type":"yes","address":"Stadionowa 17","residential":true,"residents_est":1,"h3_10":"8a1e2e61e047fff","h3_11":"8b1e2e61e046fff"},"geometry":{"type":"Polygon","coordinates":[[[20.111115,50.118115],[20.111177,50.118078],[20.111229,50.118116],[20.111281,50.118115],[20.111327,50.118091],[20.111376,50.118128],[20.111291,50.118171],[20.111292,50.11821],[20.111196,50.11821],[20.111195,50.11817],[20.111115,50.118115]]]}},{"type":"Feature","id":"w337987783","properties":{"type":"yes","address":"Piastowska 32","residential":true,"residents_est":1,"h3_10":"8a1e2e61e027fff","h3_11":"8b1e2e61e020fff"},"geometry":{"type":"Polygon","coordinates":[[[20.106745,50.11889],[20.106863,50.118795],[20.106895,50.118812],[20.10691,50.118809],[20.106928,50.118819],[20.10693,50.118828],[20.106965,50.118847],[20.106901,50.118898],[20.10697,50.118933],[20.106915,50.118977],[20.106745,50.11889]]]}},{"type":"Feature","id":"w337987822","properties":{"type":"yes","residential":true,"residents_est":1,"h3_10":"8a1e2e61e18ffff","h3_11":"8b1e2e61e188fff"},"geometry":{"type":"Polygon","coordinates":[[[20.103928,50.117384],[20.10396,50.117377],[20.103939,50.117336],[20.104064,50.11731],[20.104077,50.117337],[20.104117,50.117332],[20.104154,50.117406],[20.104051,50.117427],[20.104058,50.117442],[20.103967,50.117461],[20.103928,50.117384]]]}},{"type":"Feature","id":"w337987842","properties":{"type":"yes","address":"Górna 3","residential":true,"residents_est":1,"h3_10":"8a1e2e61e00ffff","h3_11":"8b1e2e61e00afff"},"geometry":{"type":"Polygon","coordinates":[[[20.108021,50.117093],[20.108088,50.117065],[20.108091,50.117069],[20.108183,50.117038],[20.108204,50.117064],[20.108213,50.117061],[20.108242,50.117096],[20.108232,50.117099],[20.108255,50.117128],[20.108093,50.117182],[20.108021,50.117093]]]}},{"type":"Feature","id":"w337987844","properties":{"type":"yes","address":"Górna 7","residential":true,"residents_est":1,"h3_10":"8a1e2e61e007fff","h3_11":"8b1e2e61e003fff"},"geometry":{"type":"Polygon","coordinates":[[[20.107033,50.117472],[20.107076,50.117458],[20.107062,50.117441],[20.10714,50.117414],[20.107154,50.117431],[20.107214,50.117411],[20.107258,50.117465],[20.107198,50.117485],[20.10722,50.117512],[20.107168,50.117529],[20.107156,50.117515],[20.107088,50.117538],[20.107033,50.117472]]]}},{"type":"Feature","id":"w337987851","properties":{"type":"detached","address":"Soczyny 56","residential":true,"residents_est":1,"h3_10":"8a1e2e61e1b7fff","h3_11":"8b1e2e61e1b4fff"},"geometry":{"type":"Polygon","coordinates":[[[20.09971,50.118731],[20.099749,50.118705],[20.099728,50.118693],[20.099765,50.118667],[20.099785,50.11868],[20.099866,50.118629],[20.099946,50.118678],[20.099796,50.118784],[20.09971,50.118731]]]}},{"type":"Feature","id":"w337987876","properties":{"type":"yes","address":"Lipowa 37","residential":true,"residents_est":0,"h3_10":"8a1e2e61e06ffff","h3_11":"8b1e2e61e06efff"},"geometry":{"type":"Polygon","coordinates":[[[20.112864,50.118666],[20.112923,50.11865],[20.112912,50.118634],[20.112951,50.118624],[20.112961,50.118639],[20.113011,50.118625],[20.113056,50.118691],[20.113048,50.118693],[20.11306,50.118711],[20.112973,50.118735],[20.112962,50.118718],[20.112909,50.118733],[20.112864,50.118666]]]}},{"type":"Feature","id":"w337987927","properties":{"type":"yes","residential":true,"residents_est":1,"h3_10":"8a1e2e61e1b7fff","h3_11":"8b1e2e61e1b0fff"},"geometry":{"type":"Polygon","coordinates":[[[20.100137,50.118174],[20.100174,50.118168],[20.100168,50.118156],[20.100202,50.118149],[20.100207,50.11816],[20.100294,50.118138],[20.100332,50.118219],[20.100288,50.118228],[20.100294,50.118243],[20.100179,50.118262],[20.100137,50.118174]]]}},{"type":"Feature","id":"w337988086","properties":{"type":"yes","address":"Górna 5","residential":true,"residents_est":1,"h3_10":"8a1e2e61e01ffff","h3_11":"8b1e2e61e01dfff"},"geometry":{"type":"Polygon","coordinates":[[[20.107521,50.11734],[20.107613,50.117304],[20.107616,50.117308],[20.107658,50.117294],[20.107663,50.1173],[20.107706,50.117285],[20.10775,50.117339],[20.107706,50.117353],[20.107711,50.117359],[20.107573,50.117406],[20.107554,50.117383],[20.107542,50.117382],[20.107531,50.117368],[20.107537,50.117361],[20.107521,50.11734]]]}},{"type":"Feature","id":"w337988203","properties":{"type":"house","levels":2.0,"address":"Górna 12","residential":true,"residents_est":1,"h3_10":"8a1e2e61e007fff","h3_11":"8b1e2e61e003fff"},"geometry":{"type":"Polygon","coordinates":[[[20.107328,50.117703],[20.107454,50.117654],[20.107512,50.117715],[20.107387,50.117765],[20.107328,50.117703]]]}},{"type":"Feature","id":"w337988344","properties":{"type":"outbuilding","levels":1.0,"residential":false,"residents_est":0,"h3_10":"8a1e2e61e00ffff","h3_11":"8b1e2e61e009fff"},"geometry":{"type":"Polygon","coordinates":[[[20.109781,50.117511],[20.109886,50.117487],[20.109928,50.117562],[20.109823,50.117586],[20.109781,50.117511]]]}},{"type":"Feature","id":"w337988347","properties":{"type":"yes","residential":true,"residents_est":0,"h3_10":"8a1e2e61e067fff","h3_11":"8b1e2e61e063fff"},"geometry":{"type":"Polygon","coordinates":[[[20.1117,50.118639],[20.111807,50.118585],[20.111886,50.11865],[20.111779,50.118704],[20.1117,50.118639]]]}},{"type":"Feature","id":"w337988433","properties":{"type":"yes","residential":true,"residents_est":0,"h3_10":"8a1e2e61e1b7fff","h3_11":"8b1e2e61e1b2fff"},"geometry":{"type":"Polygon","coordinates":[[[20.099972,50.117977],[20.100179,50.117931],[20.100213,50.117994],[20.100007,50.11804],[20.099972,50.117977]]]}},{"type":"Feature","id":"w337988454","properties":{"type":"yes","address":"Lipowa 33","residential":true,"residents_est":1,"h3_10":"8a1e2e61e06ffff","h3_11":"8b1e2e61e068fff"},"geometry":{"type":"Polygon","coordinates":[[[20.113149,50.118576],[20.113278,50.118541],[20.113333,50.118624],[20.113204,50.118659],[20.113149,50.118576]]]}},{"type":"Feature","id":"w337988509","properties":{"type":"yes","address":"Lipowa 23","residential":true,"residents_est":1,"h3_10":"8a1e2e61e04ffff","h3_11":"8b1e2e61e04cfff"},"geometry":{"type":"Polygon","coordinates":[[[20.11369,50.117842],[20.113808,50.117787],[20.113917,50.117884],[20.113799,50.117939],[20.11369,50.117842]]]}},{"type":"Feature","id":"w337988513","properties":{"type":"yes","residential":true,"residents_est":0,"h3_10":"8a1e2e61e077fff","h3_11":"8b1e2e61e071fff"},"geometry":{"type":"Polygon","coordinates":[[[20.110919,50.11809],[20.110989,50.118051],[20.111051,50.118098],[20.11098,50.118137],[20.110919,50.11809]]]}},{"type":"Feature","id":"w337988583","properties":{"type":"yes","address":"Lipowa 27","residential":true,"residents_est":1,"h3_10":"8a1e2e61e06ffff","h3_11":"8b1e2e61e06bfff"},"geometry":{"type":"Polygon","coordinates":[[[20.113875,50.118323],[20.114016,50.118277],[20.114083,50.11836],[20.113941,50.118407],[20.113875,50.118323]]]}},{"type":"Feature","id":"w337988587","properties":{"type":"yes","residential":false,"residents_est":0,"h3_10":"8a1e2e61e077fff","h3_11":"8b1e2e61e076fff"},"geometry":{"type":"Polygon","coordinates":[[[20.109645,50.118329],[20.109694,50.118312],[20.109758,50.118388],[20.109709,50.118405],[20.109645,50.118329]]]}},{"type":"Feature","id":"w337988674","properties":{"type":"yes","residential":true,"residents_est":0,"h3_10":"8a1e2e61e0e7fff","h3_11":"8b1e2e61e0e4fff"},"geometry":{"type":"Polygon","coordinates":[[[20.109034,50.116829],[20.10913,50.116798],[20.109166,50.116845],[20.109071,50.116876],[20.109034,50.116829]]]}},{"type":"Feature","id":"w337988699","properties":{"type":"yes","residential":true,"residents_est":0,"h3_10":"8a1e2e61e077fff","h3_11":"8b1e2e61e076fff"},"geometry":{"type":"Polygon","coordinates":[[[20.109637,50.118216],[20.109798,50.118156],[20.109855,50.118218],[20.109693,50.118279],[20.109637,50.118216]]]}},{"type":"Feature","id":"w337988761","properties":{"type":"yes","residential":true,"residents_est":0,"h3_10":"8a1e2e61e187fff","h3_11":"8b1e2e61e186fff"},"geometry":{"type":"Polygon","coordinates":[[[20.100962,50.117968],[20.101054,50.11795],[20.101104,50.118058],[20.101013,50.118076],[20.100962,50.117968]]]}},{"type":"Feature","id":"w337988770","properties":{"type":"house","levels":3.0,"address":"Wesoła 6","residential":true,"residents_est":2,"h3_10":"8a1e2e61e077fff","h3_11":"8b1e2e61e072fff"},"geometry":{"type":"Polygon","coordinates":[[[20.109501,50.118016],[20.109636,50.117969],[20.109701,50.118042],[20.109565,50.11809],[20.109501,50.118016]]]}},{"type":"Feature","id":"w337988805","properties":{"type":"yes","residential":true,"residents_est":0,"h3_10":"8a1e2e61e067fff","h3_11":"8b1e2e61e063fff"},"geometry":{"type":"Polygon","coordinates":[[[20.112049,50.118784],[20.112102,50.11876],[20.112177,50.118828],[20.112124,50.118852],[20.112049,50.118784]]]}},{"type":"Feature","id":"w337988808","properties":{"type":"yes","address":"Górna 10","residential":true,"residents_est":1,"h3_10":"8a1e2e61e007fff","h3_11":"8b1e2e61e003fff"},"geometry":{"type":"Polygon","coordinates":[[[20.107663,50.117608],[20.107779,50.11756],[20.107892,50.117674],[20.107775,50.117721],[20.107663,50.117608]]]}},{"type":"Feature","id":"w337988815","properties":{"type":"house","levels":2.0,"address":"Świętej Faustyny 6","residential":true,"residents_est":1,"h3_10":"8a1e2e61e007fff","h3_11":"8b1e2e61e006fff"},"geometry":{"type":"Polygon","coordinates":[[[20.106568,50.117893],[20.106724,50.117862],[20.10676,50.117936],[20.106605,50.117967],[20.106568,50.117893]]]}},{"type":"Feature","id":"w337988848","properties":{"type":"house","levels":1.0,"address":"Górna 9","residential":true,"residents_est":1,"h3_10":"8a1e2e61e007fff","h3_11":"8b1e2e61e002fff"},"geometry":{"type":"Polygon","coordinates":[[[20.106765,50.117646],[20.10692,50.117584],[20.106979,50.117646],[20.106917,50.11767],[20.106979,50.117734],[20.106886,50.117772],[20.106765,50.117646]]]}},{"type":"Feature","id":"w337988983","properties":{"type":"yes","address":"Soczyny 4","residential":true,"residents_est":1,"h3_10":"8a1e2e61e0e7fff","h3_11":"8b1e2e61e0e4fff"},"geometry":{"type":"Polygon","coordinates":[[[20.108705,50.116867],[20.108788,50.116839],[20.108799,50.116853],[20.10892,50.116813],[20.10899,50.116899],[20.108786,50.116967],[20.108705,50.116867]]]}},{"type":"Feature","id":"w337989069","properties":{"type":"yes","residential":true,"residents_est":0,"h3_10":"8a1e2e61e06ffff","h3_11":"8b1e2e61e06bfff"},"geometry":{"type":"Polygon","coordinates":[[[20.113705,50.118473],[20.113767,50.118452],[20.113856,50.118564],[20.113801,50.118583],[20.113705,50.118473]]]}},{"type":"Feature","id":"w337989121","properties":{"type":"yes","residential":true,"residents_est":1,"h3_10":"8a1e2e61e067fff","h3_11":"8b1e2e61e063fff"},"geometry":{"type":"Polygon","coordinates":[[[20.112033,50.118581],[20.112165,50.118519],[20.112229,50.118575],[20.112142,50.118615],[20.112181,50.118649],[20.112136,50.118671],[20.112033,50.118581]]]}},{"type":"Feature","id":"w337989135","properties":{"type":"yes","address":"Lipowa 21","residential":true,"residents_est":0,"h3_10":"8a1e2e61e04ffff","h3_11":"8b1e2e61e04dfff"},"geometry":{"type":"Polygon","coordinates":[[[20.114282,50.118103],[20.114309,50.118091],[20.114283,50.118066],[20.114381,50.118025],[20.11446,50.118103],[20.114361,50.118144],[20.114338,50.118122],[20.114312,50.118133],[20.114282,50.118103]]]}},{"type":"Feature","id":"w337989171","properties":{"type":"yes","address":"Lipowa 31","residential":true,"residents_est":0,"h3_10":"8a1e2e61e06ffff","h3_11":"8b1e2e61e068fff"},"geometry":{"type":"Polygon","coordinates":[[[20.113416,50.118441],[20.113535,50.118404],[20.1136,50.118489],[20.11348,50.118526],[20.113416,50.118441]]]}},{"type":"Feature","id":"w337989193","properties":{"type":"yes","address":"Lipowa 19","residential":true,"residents_est":1,"h3_10":"8a1e2e61e04ffff","h3_11":"8b1e2e61e04dfff"},"geometry":{"type":"Polygon","coordinates":[[[20.114072,50.117755],[20.114194,50.117701],[20.114228,50.117734],[20.114275,50.117713],[20.114318,50.117754],[20.114206,50.117803],[20.114197,50.117795],[20.114141,50.11782],[20.114072,50.117755]]]}},{"type":"Feature","id":"w337989225","properties":{"type":"yes","address":"Lipowa 47","residential":true,"residents_est":0,"h3_10":"8a1e2e61e067fff","h3_11":"8b1e2e61e063fff"},"geometry":{"type":"Polygon","coordinates":[[[20.111691,50.118741],[20.111761,50.118701],[20.111857,50.118771],[20.111785,50.118812],[20.111747,50.118785],[20.111729,50.118795],[20.111706,50.118778],[20.111726,50.118767],[20.111691,50.118741]]]}},{"type":"Feature","id":"w337989234","properties":{"type":"yes","address":"Wesoła 2","residential":true,"residents_est":0,"h3_10":"8a1e2e61e077fff","h3_11":"8b1e2e61e070fff"},"geometry":{"type":"Polygon","coordinates":[[[20.109874,50.118388],[20.109979,50.118352],[20.110003,50.118382],[20.110022,50.118375],[20.110039,50.118395],[20.110018,50.118402],[20.110045,50.118435],[20.109943,50.11847],[20.109874,50.118388]]]}},{"type":"Feature","id":"w337989282","properties":{"type":"house","levels":2.0,"address":"Stadionowa 28","residential":true,"residents_est":1,"h3_10":"8a1e2e61e057fff","h3_11":"8b1e2e61e054fff"},"geometry":{"type":"Polygon","coordinates":[[[20.11004,50.11764],[20.110157,50.117602],[20.110227,50.117693],[20.110111,50.11773],[20.11004,50.11764]]]}},{"type":"Feature","id":"w337989299","properties":{"type":"house","levels":2.0,"address":"Górna 14","residential":true,"residents_est":2,"h3_10":"8a1e2e61e007fff","h3_11":"8b1e2e61e000fff"},"geometry":{"type":"Polygon","coordinates":[[[20.107004,50.117892],[20.107083,50.117861],[20.107075,50.117853],[20.107218,50.117797],[20.107284,50.117866],[20.10714,50.117923],[20.107133,50.117915],[20.107055,50.117946],[20.107004,50.117892]]]}},{"type":"Feature","id":"w337989467","properties":{"type":"yes","address":"Świętej Faustyny 2","residential":true,"residents_est":0,"h3_10":"8a1e2e61e037fff","h3_11":"8b1e2e61e033fff"},"geometry":{"type":"Polygon","coordinates":[[[20.10547,50.118074],[20.105514,50.118064],[20.105511,50.118059],[20.105641,50.11803],[20.10568,50.118102],[20.105504,50.118137],[20.10547,50.118074]]]}},{"type":"Feature","id":"w706380045","properties":{"type":"yes","residential":false,"residents_est":0,"h3_10":"8a1e2e61e18ffff","h3_11":"8b1e2e61e18bfff"},"geometry":{"type":"Polygon","coordinates":[[[20.104012,50.117205],[20.104064,50.117193],[20.104083,50.117226],[20.104031,50.117238],[20.104012,50.117205]]]}},{"type":"Feature","id":"w724514185","properties":{"type":"yes","residential":false,"residents_est":0,"h3_10":"8a1e2e61e05ffff","h3_11":"8b1e2e61e058fff"},"geometry":{"type":"Polygon","coordinates":[[[20.112445,50.116818],[20.112473,50.116755],[20.1125,50.11676],[20.112478,50.116824],[20.112445,50.116818]]]}},{"type":"Feature","id":"w724514186","properties":{"type":"yes","residential":true,"residents_est":0,"h3_10":"8a1e2e61e05ffff","h3_11":"8b1e2e61e058fff"},"geometry":{"type":"Polygon","coordinates":[[[20.112353,50.116801],[20.11238,50.116738],[20.112473,50.116755],[20.112445,50.116818],[20.112353,50.116801]]]}},{"type":"Feature","id":"w724514187","properties":{"type":"yes","residential":false,"residents_est":0,"h3_10":"8a1e2e61e05ffff","h3_11":"8b1e2e61e05afff"},"geometry":{"type":"Polygon","coordinates":[[[20.11224,50.116546],[20.112245,50.116497],[20.112318,50.1165],[20.112313,50.116549],[20.11224,50.116546]]]}},{"type":"Feature","id":"w724514189","properties":{"type":"yes","residential":true,"residents_est":1,"h3_10":"8a1e2e61e05ffff","h3_11":"8b1e2e61e05afff"},"geometry":{"type":"Polygon","coordinates":[[[20.11209,50.116337],[20.112101,50.116249],[20.112281,50.116258],[20.112269,50.116346],[20.11209,50.116337]]]}},{"type":"Feature","id":"w724514190","properties":{"type":"yes","residential":true,"residents_est":1,"h3_10":"8a1e2e61e0effff","h3_11":"8b1e2e61e0e9fff"},"geometry":{"type":"Polygon","coordinates":[[[20.111781,50.116279],[20.111787,50.116199],[20.111906,50.116203],[20.111908,50.11619],[20.111971,50.116192],[20.111957,50.116328],[20.111862,50.116324],[20.11187,50.116283],[20.111781,50.116279]]]}},{"type":"Feature","id":"w724514193","properties":{"type":"yes","address":"Dworska 16","residential":true,"residents_est":0,"h3_10":"8a1e2e61e06ffff","h3_11":"8b1e2e61e06dfff"},"geometry":{"type":"Polygon","coordinates":[[[20.113708,50.118919],[20.113765,50.118864],[20.1139,50.118921],[20.113843,50.118976],[20.113708,50.118919]]]}},{"type":"Feature","id":"w724573824","properties":{"type":"yes","address":"Cypriana Godebskiego 46","residential":true,"residents_est":1,"h3_10":"8a1e2e61e0c7fff","h3_11":"8b1e2e61e0c4fff"},"geometry":{"type":"Polygon","coordinates":[[[20.109223,50.115574],[20.109286,50.115562],[20.109296,50.115549],[20.109317,50.115545],[20.109359,50.115548],[20.109424,50.115538],[20.109455,50.115612],[20.109393,50.115622],[20.109397,50.115632],[20.109284,50.115653],[20.109275,50.115632],[20.109251,50.115637],[20.109223,50.115574]]]}},{"type":"Feature","id":"w724573825","properties":{"type":"yes","residential":true,"residents_est":0,"h3_10":"8a1e2e61e0c7fff","h3_11":"8b1e2e61e0c4fff"},"geometry":{"type":"Polygon","coordinates":[[[20.109266,50.115671],[20.109364,50.115653],[20.109393,50.115717],[20.109294,50.115735],[20.109266,50.115671]]]}},{"type":"Feature","id":"w724573826","properties":{"type":"yes","residential":false,"residents_est":0,"h3_10":"8a1e2e61e0e7fff","h3_11":"8b1e2e61e0e3fff"},"geometry":{"type":"Polygon","coordinates":[[[20.109633,50.116207],[20.109716,50.116201],[20.109724,50.116246],[20.109641,50.116252],[20.109633,50.116207]]]}},{"type":"Feature","id":"w724573827","properties":{"type":"yes","residential":false,"residents_est":0,"h3_10":"8a1e2e61e0e7fff","h3_11":"8b1e2e61e0e1fff"},"geometry":{"type":"Polygon","coordinates":[[[20.109907,50.116287],[20.109967,50.116282],[20.109978,50.116345],[20.109918,50.116349],[20.109907,50.116287]]]}},{"type":"Feature","id":"w724573828","properties":{"type":"yes","residential":false,"residents_est":0,"h3_10":"8a1e2e61e0e7fff","h3_11":"8b1e2e61e0e1fff"},"geometry":{"type":"Polygon","coordinates":[[[20.109876,50.116526],[20.109983,50.116519],[20.109988,50.116553],[20.109882,50.11656],[20.109876,50.116526]]]}},{"type":"Feature","id":"w724573829","properties":{"type":"house","address":"Karola Irzykowskiego 7E","residential":true,"residents_est":1,"h3_10":"8a1e2e61e0effff","h3_11":"8b1e2e61e0e8fff"},"geometry":{"type":"Polygon","coordinates":[[[20.110812,50.11598],[20.11083,50.115978],[20.110824,50.115955],[20.110933,50.115942],[20.110937,50.115959],[20.110982,50.115953],[20.110999,50.116013],[20.110952,50.116017],[20.110956,50.116034],[20.110845,50.116047],[20.110835,50.116012],[20.110821,50.116014],[20.110812,50.11598]]]}},{"type":"Feature","id":"w724573830","properties":{"type":"house","address":"Karola Irzykowskiego 7F","residential":true,"residents_est":1,"h3_10":"8a1e2e61e0effff","h3_11":"8b1e2e61e0ebfff"},"geometry":{"type":"Polygon","coordinates":[[[20.111102,50.115921],[20.111118,50.115918],[20.111111,50.115894],[20.111214,50.115882],[20.111219,50.115898],[20.111263,50.115892],[20.111279,50.115947],[20.111232,50.115953],[20.111238,50.11597],[20.111138,50.115981],[20.111126,50.115946],[20.11111,50.115949],[20.111102,50.115921]]]}},{"type":"Feature","id":"w724573831","properties":{"type":"house","address":"Karola Irzykowskiego 7G","residential":true,"residents_est":1,"h3_10":"8a1e2e61e0effff","h3_11":"8b1e2e61e0ebfff"},"geometry":{"type":"Polygon","coordinates":[[[20.111421,50.115858],[20.111437,50.115855],[20.11143,50.115831],[20.111534,50.115819],[20.111538,50.115835],[20.111583,50.115829],[20.111599,50.115885],[20.111551,50.11589],[20.111557,50.115907],[20.111457,50.115918],[20.111445,50.115884],[20.111429,50.115886],[20.111421,50.115858]]]}},{"type":"Feature","id":"w724573832","properties":{"type":"house","address":"Karola Irzykowskiego 9D","residential":true,"residents_est":1,"h3_10":"8a1e2e61e0effff","h3_11":"8b1e2e61e0ebfff"},"geometry":{"type":"Polygon","coordinates":[[[20.111383,50.115627],[20.111399,50.115625],[20.11139,50.11559],[20.111494,50.115578],[20.111498,50.115594],[20.111543,50.115589],[20.111559,50.115644],[20.111512,50.11565],[20.111517,50.115666],[20.111417,50.115677],[20.111409,50.115653],[20.111392,50.115655],[20.111383,50.115627]]]}},{"type":"Feature","id":"w724573833","properties":{"type":"house","address":"Karola Irzykowskiego 7","residential":true,"residents_est":1,"h3_10":"8a1e2e61e0dffff","h3_11":"8b1e2e61e0ddfff"},"geometry":{"type":"Polygon","coordinates":[[[20.110362,50.114644],[20.110377,50.114641],[20.110371,50.114617],[20.110474,50.114605],[20.110479,50.114621],[20.110523,50.114616],[20.110539,50.114671],[20.110492,50.114677],[20.110497,50.114693],[20.110397,50.114704],[20.110385,50.11467],[20.11037,50.114672],[20.110362,50.114644]]]}},{"type":"Feature","id":"w724573834","properties":{"type":"house","address":"Karola Irzykowskiego 9","residential":true,"residents_est":1,"h3_10":"8a1e2e61e0cffff","h3_11":"8b1e2e61e0cafff"},"geometry":{"type":"Polygon","coordinates":[[[20.11077,50.114673],[20.110807,50.114669],[20.110804,50.114658],[20.110849,50.114653],[20.110853,50.114663],[20.110906,50.114657],[20.110925,50.114723],[20.1109,50.114726],[20.110908,50.114755],[20.110822,50.114765],[20.110814,50.114736],[20.110789,50.114739],[20.11077,50.114673]]]}},{"type":"Feature","id":"w724573835","properties":{"type":"yes","address":"Karola Irzykowskiego 15B","residential":true,"residents_est":1,"h3_10":"8a1e2e61e0cffff","h3_11":"8b1e2e61e0c9fff"},"geometry":{"type":"Polygon","coordinates":[[[20.11204,50.114918],[20.112124,50.114908],[20.112112,50.114864],[20.112215,50.114853],[20.112246,50.114962],[20.112058,50.114984],[20.11204,50.114918]]]}},{"type":"Feature","id":"w724573842","properties":{"type":"yes","address":"Cypriana Godebskiego 36b","residential":true,"residents_est":0,"h3_10":"8a1e2e61e0dffff","h3_11":"8b1e2e61e0dbfff"},"geometry":{"type":"Polygon","coordinates":[[[20.109846,50.113764],[20.109946,50.113751],[20.109943,50.113742],[20.110033,50.113731],[20.110056,50.113805],[20.109966,50.113817],[20.109969,50.113827],[20.109919,50.113833],[20.109916,50.113823],[20.109865,50.113829],[20.109846,50.113764]]]}},{"type":"Feature","id":"w724573844","properties":{"type":"yes","address":"Karola Irzykowskiego 4a","residential":true,"residents_est":1,"h3_10":"8a1e2e61e0dffff","h3_11":"8b1e2e61e0d8fff"},"geometry":{"type":"Polygon","coordinates":[[[20.109565,50.114312],[20.109583,50.1143],[20.109578,50.114283],[20.109739,50.114264],[20.109746,50.114292],[20.10979,50.114287],[20.109814,50.114371],[20.109718,50.114382],[20.10971,50.114357],[20.1096,50.114364],[20.109591,50.114334],[20.109569,50.114326],[20.109565,50.114312]]]}},{"type":"Feature","id":"w724573845","properties":{"type":"yes","address":"Karola Irzykowskiego 4","residential":true,"residents_est":1,"h3_10":"8a1e2e61e0dffff","h3_11":"8b1e2e61e0defff"},"geometry":{"type":"Polygon","coordinates":[[[20.10922,50.114414],[20.109233,50.114413],[20.109227,50.11439],[20.109349,50.114377],[20.109351,50.114386],[20.109434,50.114377],[20.109452,50.114449],[20.109369,50.114457],[20.109374,50.114475],[20.109252,50.114488],[20.109242,50.114448],[20.109228,50.114449],[20.10922,50.114414]]]}},{"type":"Feature","id":"w724573846","properties":{"type":"yes","address":"Karola Irzykowskiego 2","residential":true,"residents_est":1,"h3_10":"8a1e2e61e0d7fff","h3_11":"8b1e2e61e0d1fff"},"geometry":{"type":"Polygon","coordinates":[[[20.108877,50.114429],[20.109072,50.114409],[20.109102,50.11452],[20.109027,50.114529],[20.109019,50.114498],[20.108898,50.114511],[20.108877,50.114429]]]}},{"type":"Feature","id":"w724573849","properties":{"type":"yes","residential":false,"residents_est":0,"h3_10":"8a1e2e61e0dffff","h3_11":"8b1e2e61e0defff"},"geometry":{"type":"Polygon","coordinates":[[[20.109045,50.11402],[20.109117,50.114013],[20.109127,50.11406],[20.109055,50.114067],[20.109045,50.11402]]]}},{"type":"Feature","id":"w724573850","properties":{"type":"yes","address":"Cypriana Godebskiego 36","residential":true,"residents_est":1,"h3_10":"8a1e2e61e0dffff","h3_11":"8b1e2e61e0dafff"},"geometry":{"type":"Polygon","coordinates":[[[20.10902,50.113837],[20.109221,50.113811],[20.109255,50.113921],[20.109054,50.113947],[20.10902,50.113837]]]}},{"type":"Feature","id":"w724573853","properties":{"type":"yes","residential":false,"residents_est":0,"h3_10":"8a1e2e61e0d7fff","h3_11":"8b1e2e61e0d3fff"},"geometry":{"type":"Polygon","coordinates":[[[20.108499,50.114218],[20.10857,50.114213],[20.10858,50.114266],[20.108509,50.114271],[20.108499,50.114218]]]}},{"type":"Feature","id":"w724573854","properties":{"type":"yes","residential":false,"residents_est":0,"h3_10":"8a1e2e61e0dffff","h3_11":"8b1e2e61e0d8fff"},"geometry":{"type":"Polygon","coordinates":[[[20.110118,50.114234],[20.110215,50.114223],[20.110229,50.114272],[20.110132,50.114283],[20.110118,50.114234]]]}},{"type":"Feature","id":"w724573855","properties":{"type":"house","address":"Karola Irzykowskiego 9C","residential":true,"residents_est":1,"h3_10":"8a1e2e61e0effff","h3_11":"8b1e2e61e0ebfff"},"geometry":{"type":"Polygon","coordinates":[[[20.111044,50.115641],[20.111081,50.115637],[20.111078,50.115626],[20.111123,50.115621],[20.111127,50.115631],[20.11118,50.115625],[20.111199,50.115691],[20.111174,50.115694],[20.111182,50.115723],[20.111096,50.115733],[20.111088,50.115704],[20.111063,50.115707],[20.111044,50.115641]]]}},{"type":"Feature","id":"w724573856","properties":{"type":"house","address":"Karola Irzykowskiego 7D","residential":true,"residents_est":1,"h3_10":"8a1e2e61e0effff","h3_11":"8b1e2e61e0eafff"},"geometry":{"type":"Polygon","coordinates":[[[20.11067,50.115742],[20.110723,50.115736],[20.11072,50.115725],[20.11077,50.11572],[20.110776,50.11573],[20.11081,50.115726],[20.11083,50.115795],[20.110807,50.115797],[20.110815,50.115827],[20.110724,50.115837],[20.110716,50.115809],[20.110688,50.115811],[20.11067,50.115742]]]}},{"type":"Feature","id":"w724573857","properties":{"type":"house","address":"Karola Irzykowskiego 9A","residential":true,"residents_est":1,"h3_10":"8a1e2e61e0cffff","h3_11":"8b1e2e61e0c8fff"},"geometry":{"type":"Polygon","coordinates":[[[20.110868,50.115026],[20.110905,50.115021],[20.110902,50.11501],[20.110947,50.115005],[20.110951,50.115015],[20.111004,50.115009],[20.111023,50.115076],[20.110997,50.115079],[20.111006,50.115107],[20.11092,50.115117],[20.110912,50.115088],[20.110886,50.115091],[20.110868,50.115026]]]}},{"type":"Feature","id":"w724573858","properties":{"type":"house","address":"Karola Irzykowskiego 7B","residential":true,"residents_est":1,"h3_10":"8a1e2e61e0cffff","h3_11":"8b1e2e61e0cefff"},"geometry":{"type":"Polygon","coordinates":[[[20.110506,50.115185],[20.110558,50.115179],[20.110557,50.115167],[20.110608,50.115162],[20.110611,50.115172],[20.110652,50.115168],[20.110672,50.115237],[20.110652,50.115239],[20.110662,50.115278],[20.110563,50.11529],[20.110551,50.115252],[20.110527,50.115255],[20.110506,50.115185]]]}},{"type":"Feature","id":"w724573859","properties":{"type":"house","address":"Karola Irzykowskiego 7C","residential":true,"residents_est":1,"h3_10":"8a1e2e61e0cffff","h3_11":"8b1e2e61e0ccfff"},"geometry":{"type":"Polygon","coordinates":[[[20.110595,50.11547],[20.11065,50.115464],[20.110647,50.115454],[20.110691,50.115448],[20.110695,50.115458],[20.110731,50.115454],[20.11075,50.11552],[20.110727,50.115523],[20.110736,50.115552],[20.11065,50.115562],[20.110641,50.115533],[20.110614,50.115536],[20.110595,50.11547]]]}},{"type":"Feature","id":"w724573860","properties":{"type":"house","address":"Karola Irzykowskiego 9B","residential":true,"residents_est":1,"h3_10":"8a1e2e61e0cffff","h3_11":"8b1e2e61e0ccfff"},"geometry":{"type":"Polygon","coordinates":[[[20.110968,50.115372],[20.111005,50.115368],[20.111002,50.115357],[20.111046,50.115351],[20.11105,50.115361],[20.111104,50.115355],[20.111122,50.115422],[20.111097,50.115425],[20.111105,50.115453],[20.111019,50.115463],[20.111011,50.115435],[20.110986,50.115437],[20.110968,50.115372]]]}},{"type":"Feature","id":"w724574114","properties":{"type":"house","levels":2.0,"address":"Soczyny 36","residential":true,"residents_est":1,"h3_10":"8a1e2e61e187fff","h3_11":"8b1e2e61e184fff"},"geometry":{"type":"Polygon","coordinates":[[[20.101975,50.118219],[20.102046,50.118173],[20.102032,50.118164],[20.102073,50.118137],[20.102136,50.118177],[20.1021,50.1182],[20.102176,50.11825],[20.102129,50.11828],[20.102119,50.118274],[20.10209,50.118293],[20.101975,50.118219]]]}},{"type":"Feature","id":"w724574115","properties":{"type":"outbuilding","levels":1.0,"residential":false,"residents_est":0,"h3_10":"8a1e2e61e1a7fff","h3_11":"8b1e2e61e1a3fff"},"geometry":{"type":"Polygon","coordinates":[[[20.102232,50.118622],[20.102303,50.118584],[20.102363,50.118629],[20.102293,50.118668],[20.102232,50.118622]]]}},{"type":"Feature","id":"w724574116","properties":{"type":"house","levels":2.0,"address":"Soczyny 40","residential":true,"residents_est":2,"h3_10":"8a1e2e61e1a7fff","h3_11":"8b1e2e61e1a3fff"},"geometry":{"type":"Polygon","coordinates":[[[20.10225,50.118497],[20.102384,50.118425],[20.102389,50.118429],[20.102376,50.118436],[20.102416,50.118467],[20.102429,50.11846],[20.102508,50.118521],[20.102374,50.118593],[20.102369,50.118589],[20.102382,50.118582],[20.10234,50.118549],[20.102327,50.118556],[20.10225,50.118497]]]}},{"type":"Feature","id":"w724574117","properties":{"type":"house","levels":2.0,"address":"Soczyny 24","residential":true,"residents_est":2,"h3_10":"8a1e2e61e18ffff","h3_11":"8b1e2e61e18cfff"},"geometry":{"type":"Polygon","coordinates":[[[20.103551,50.11787],[20.103642,50.117855],[20.103639,50.117849],[20.103687,50.117838],[20.103697,50.117856],[20.103786,50.117835],[20.103824,50.117902],[20.103734,50.117923],[20.103745,50.11794],[20.103609,50.117972],[20.10359,50.117937],[20.10357,50.117931],[20.103562,50.117916],[20.103571,50.117904],[20.103551,50.11787]]]}},{"type":"Feature","id":"w724574118","properties":{"type":"house","levels":2.0,"address":"Jarzębinowa 7","residential":true,"residents_est":1,"h3_10":"8a1e2e61e037fff","h3_11":"8b1e2e61e036fff"},"geometry":{"type":"Polygon","coordinates":[[[20.104381,50.118372],[20.104572,50.118266],[20.104643,50.118319],[20.10445,50.118425],[20.104381,50.118372]]]}},{"type":"Feature","id":"w724574119","properties":{"type":"house","levels":2.0,"address":"Jarzębinowa 5","residential":true,"residents_est":1,"h3_10":"8a1e2e61e037fff","h3_11":"8b1e2e61e036fff"},"geometry":{"type":"Polygon","coordinates":[[[20.104769,50.118155],[20.104893,50.11808],[20.104965,50.118133],[20.104832,50.118202],[20.104769,50.118155]]]}},{"type":"Feature","id":"w724574120","properties":{"type":"house","levels":2.0,"residential":true,"residents_est":1,"h3_10":"8a1e2e61e017fff","h3_11":"8b1e2e61e015fff"},"geometry":{"type":"Polygon","coordinates":[[[20.10557,50.117601],[20.105704,50.117571],[20.105743,50.117645],[20.105732,50.117647],[20.105748,50.117677],[20.105612,50.117707],[20.105574,50.117636],[20.105588,50.117633],[20.10557,50.117601]]]}},{"type":"Feature","id":"w724574121","properties":{"type":"house","levels":2.0,"residential":true,"residents_est":1,"h3_10":"8a1e2e61e017fff","h3_11":"8b1e2e61e014fff"},"geometry":{"type":"Polygon","coordinates":[[[20.105527,50.117413],[20.105584,50.1174],[20.105579,50.11739],[20.105624,50.117381],[20.105629,50.11739],[20.105682,50.117378],[20.105724,50.117458],[20.105646,50.117475],[20.105666,50.117512],[20.105574,50.117532],[20.105544,50.117476],[20.105559,50.117472],[20.105527,50.117413]]]}},{"type":"Feature","id":"w724574122","properties":{"type":"house","levels":2.0,"address":"Soczyny 14","residential":true,"residents_est":1,"h3_10":"8a1e2e61e017fff","h3_11":"8b1e2e61e015fff"},"geometry":{"type":"Polygon","coordinates":[[[20.106097,50.117405],[20.106215,50.11738],[20.106279,50.117518],[20.106171,50.117541],[20.106097,50.117405]]]}},{"type":"Feature","id":"w724574123","properties":{"type":"house","levels":2.0,"address":"Soczyny 16","residential":true,"residents_est":2,"h3_10":"8a1e2e61e017fff","h3_11":"8b1e2e61e015fff"},"geometry":{"type":"Polygon","coordinates":[[[20.106214,50.117636],[20.106355,50.117606],[20.106382,50.117658],[20.10639,50.117656],[20.106429,50.117733],[20.106264,50.117774],[20.106234,50.117717],[20.106266,50.11771],[20.106248,50.117675],[20.106237,50.117678],[20.106214,50.117636]]]}},{"type":"Feature","id":"w724574124","properties":{"type":"house","levels":2.0,"address":"Lesisko 6","residential":true,"residents_est":2,"h3_10":"8a1e2e61e007fff","h3_11":"8b1e2e61e005fff"},"geometry":{"type":"Polygon","coordinates":[[[20.10748,50.11815],[20.107576,50.118114],[20.107564,50.1181],[20.107675,50.118057],[20.107702,50.118086],[20.107714,50.118081],[20.107747,50.118118],[20.107735,50.118123],[20.10776,50.118152],[20.107648,50.118193],[20.107621,50.118166],[20.1076,50.118173],[20.107601,50.118182],[20.10753,50.118207],[20.10748,50.11815]]]}},{"type":"Feature","id":"w724574125","properties":{"type":"house","levels":2.0,"residential":true,"residents_est":2,"h3_10":"8a1e2e61e00ffff","h3_11":"8b1e2e61e009fff"},"geometry":{"type":"Polygon","coordinates":[[[20.109443,50.117619],[20.109476,50.117607],[20.109449,50.117577],[20.109575,50.11753],[20.109658,50.117624],[20.109582,50.117652],[20.109594,50.117666],[20.109511,50.117696],[20.109443,50.117619]]]}},{"type":"Feature","id":"w724574126","properties":{"type":"house","levels":2.0,"address":"Wesoła 11","residential":true,"residents_est":2,"h3_10":"8a1e2e61e00ffff","h3_11":"8b1e2e61e00cfff"},"geometry":{"type":"Polygon","coordinates":[[[20.108681,50.11792],[20.108841,50.117859],[20.108953,50.11798],[20.108793,50.118041],[20.108681,50.11792]]]}},{"type":"Feature","id":"w724714706","properties":{"type":"yes","residential":true,"residents_est":0,"h3_10":"8a1e2e61e08ffff","h3_11":"8b1e2e61e08efff"},"geometry":{"type":"Polygon","coordinates":[[[20.10566,50.114943],[20.105769,50.114925],[20.105789,50.114976],[20.10568,50.114993],[20.10566,50.114943]]]}},{"type":"Feature","id":"w725202651","properties":{"type":"yes","residential":false,"residents_est":0,"h3_10":"8a1e2e61e0affff","h3_11":"8b1e2e61e0adfff"},"geometry":{"type":"Polygon","coordinates":[[[20.10661,50.116463],[20.106671,50.11645],[20.106702,50.116509],[20.106641,50.116523],[20.10661,50.116463]]]}},{"type":"Feature","id":"w725202652","properties":{"type":"yes","residential":true,"residents_est":1,"h3_10":"8a1e2e61e01ffff","h3_11":"8b1e2e61e01afff"},"geometry":{"type":"Polygon","coordinates":[[[20.106641,50.116523],[20.106789,50.116491],[20.10682,50.116551],[20.106673,50.116582],[20.106641,50.116523]]]}},{"type":"Feature","id":"w942640696","properties":{"type":"yes","residential":true,"residents_est":0,"h3_10":"8a1e2e61e027fff","h3_11":"8b1e2e61e021fff"},"geometry":{"type":"Polygon","coordinates":[[[20.107371,50.118889],[20.107438,50.11883],[20.107522,50.118869],[20.107455,50.118928],[20.107371,50.118889]]]}},{"type":"Feature","id":"w942640713","properties":{"type":"yes","residential":true,"residents_est":0,"h3_10":"8a1e2e61e06ffff","h3_11":"8b1e2e61e06bfff"},"geometry":{"type":"Polygon","coordinates":[[[20.113885,50.118152],[20.113952,50.118125],[20.114008,50.118183],[20.113942,50.11821],[20.113885,50.118152]]]}},{"type":"Feature","id":"w942640714","properties":{"type":"yes","residential":false,"residents_est":0,"h3_10":"8a1e2e61e067fff","h3_11":"8b1e2e61e063fff"},"geometry":{"type":"Polygon","coordinates":[[[20.111944,50.118711],[20.112,50.118683],[20.112062,50.118733],[20.112006,50.118761],[20.111944,50.118711]]]}},{"type":"Feature","id":"w942640719","properties":{"type":"yes","residential":true,"residents_est":0,"h3_10":"8a1e2e61e017fff","h3_11":"8b1e2e61e015fff"},"geometry":{"type":"Polygon","coordinates":[[[20.105804,50.117429],[20.105936,50.117403],[20.105957,50.117449],[20.105825,50.117475],[20.105804,50.117429]]]}},{"type":"Feature","id":"w942640720","properties":{"type":"yes","residential":false,"residents_est":0,"h3_10":"8a1e2e61e017fff","h3_11":"8b1e2e61e015fff"},"geometry":{"type":"Polygon","coordinates":[[[20.105941,50.117591],[20.106025,50.117576],[20.106045,50.117621],[20.105961,50.117636],[20.105941,50.117591]]]}},{"type":"Feature","id":"w1043850115","properties":{"type":"yes","address":"Cypriana Godebskiego 36A","residential":true,"residents_est":0,"h3_10":"8a1e2e61e0dffff","h3_11":"8b1e2e61e0dafff"},"geometry":{"type":"Polygon","coordinates":[[[20.109443,50.113765],[20.109588,50.113752],[20.109606,50.113831],[20.109461,50.113844],[20.109443,50.113765]]]}},{"type":"Feature","id":"w1043850118","properties":{"type":"yes","address":"Cypriana Godebskiego 59A","residential":true,"residents_est":1,"h3_10":"8a1e2e61e0d7fff","h3_11":"8b1e2e61e0d3fff"},"geometry":{"type":"Polygon","coordinates":[[[20.108195,50.114166],[20.10839,50.114139],[20.108407,50.114192],[20.108381,50.114196],[20.108394,50.114237],[20.108226,50.11426],[20.108195,50.114166]]]}},{"type":"Feature","id":"w1043850119","properties":{"type":"yes","residential":true,"residents_est":1,"h3_10":"8a1e2e61e01ffff","h3_11":"8b1e2e61e018fff"},"geometry":{"type":"Polygon","coordinates":[[[20.107081,50.116695],[20.10724,50.116654],[20.107291,50.116735],[20.107132,50.116776],[20.107081,50.116695]]]}},{"type":"Feature","id":"w1043850120","properties":{"type":"yes","residential":true,"residents_est":0,"h3_10":"8a1e2e61e01ffff","h3_11":"8b1e2e61e01afff"},"geometry":{"type":"Polygon","coordinates":[[[20.106906,50.116403],[20.107004,50.116374],[20.107047,50.116432],[20.106949,50.116462],[20.106906,50.116403]]]}},{"type":"Feature","id":"w1043850122","properties":{"type":"yes","address":"Soczyny 1E","residential":true,"residents_est":1,"h3_10":"8a1e2e61e01ffff","h3_11":"8b1e2e61e01bfff"},"geometry":{"type":"Polygon","coordinates":[[[20.107814,50.116622],[20.107848,50.116614],[20.10784,50.116599],[20.107973,50.116569],[20.107985,50.116592],[20.108014,50.116585],[20.108031,50.116616],[20.108003,50.116622],[20.10802,50.116652],[20.107851,50.116689],[20.107814,50.116622]]]}},{"type":"Feature","id":"w1047828378","properties":{"type":"detached","levels":1.0,"residential":true,"residents_est":1,"h3_10":"8a1e2e61e187fff","h3_11":"8b1e2e61e181fff"},"geometry":{"type":"Polygon","coordinates":[[[20.102657,50.118089],[20.102818,50.117992],[20.102911,50.118056],[20.102749,50.118153],[20.102657,50.118089]]]}},{"type":"Feature","id":"w1047828561","properties":{"type":"house","levels":2.0,"address":"Karola Irzykowskiego 7A","residential":true,"residents_est":2,"h3_10":"8a1e2e61e0cffff","h3_11":"8b1e2e61e0cefff"},"geometry":{"type":"Polygon","coordinates":[[[20.110393,50.114899],[20.110591,50.114874],[20.110619,50.114965],[20.110598,50.114973],[20.110609,50.11501],[20.110475,50.115027],[20.110463,50.114988],[20.110422,50.114993],[20.110393,50.114899]]]}},{"type":"Feature","id":"w1062659645","properties":{"type":"house","address":"Jarzębinowa 9","residential":true,"residents_est":1,"h3_10":"8a1e2e61e1affff","h3_11":"8b1e2e61e1a9fff"},"geometry":{"type":"Polygon","coordinates":[[[20.103877,50.118639],[20.103988,50.118579],[20.104062,50.118634],[20.103951,50.118695],[20.103877,50.118639]]]}},{"type":"Feature","id":"w1062659646","properties":{"type":"house","address":"Jarzębinowa 9A","residential":true,"residents_est":1,"h3_10":"8a1e2e61e1affff","h3_11":"8b1e2e61e1a8fff"},"geometry":{"type":"Polygon","coordinates":[[[20.103573,50.118804],[20.103686,50.118743],[20.10376,50.118799],[20.103647,50.11886],[20.103573,50.118804]]]}},{"type":"Feature","id":"w1062659648","properties":{"type":"house","residential":true,"residents_est":1,"h3_10":"8a1e2e61e11ffff","h3_11":"8b1e2e61e118fff"},"geometry":{"type":"Polygon","coordinates":[[[20.104941,50.119366],[20.104987,50.119341],[20.105009,50.119358],[20.105047,50.119337],[20.105164,50.119426],[20.105115,50.119453],[20.105105,50.119445],[20.10507,50.119464],[20.104941,50.119366]]]}},{"type":"Feature","id":"w1070266681","properties":{"type":"yes","residential":true,"residents_est":1,"h3_10":"8a1e2e61e057fff","h3_11":"8b1e2e61e055fff"},"geometry":{"type":"Polygon","coordinates":[[[20.110707,50.11774],[20.110768,50.117723],[20.110768,50.117737],[20.110817,50.117723],[20.110807,50.117709],[20.110868,50.117693],[20.110943,50.117804],[20.110845,50.117831],[20.110833,50.117812],[20.110768,50.11783],[20.110707,50.11774]]]}},{"type":"Feature","id":"w1075677453","properties":{"type":"house","residential":true,"residents_est":1,"h3_10":"8a1e2e61e1affff","h3_11":"8b1e2e61e1acfff"},"geometry":{"type":"Polygon","coordinates":[[[20.103283,50.118961],[20.103396,50.118901],[20.103469,50.118957],[20.103356,50.119017],[20.103283,50.118961]]]}},{"type":"Feature","id":"w1075677454","properties":{"type":"yes","residential":true,"residents_est":1,"h3_10":"8a1e2e61e187fff","h3_11":"8b1e2e61e184fff"},"geometry":{"type":"Polygon","coordinates":[[[20.10169,50.118296],[20.101781,50.118236],[20.101904,50.118313],[20.101813,50.118373],[20.10169,50.118296]]]}},{"type":"Feature","id":"w1075677455","properties":{"type":"house","address":"Jarzębinowa 15C","residential":true,"residents_est":1,"h3_10":"8a1e2e61e037fff","h3_11":"8b1e2e61e034fff"},"geometry":{"type":"Polygon","coordinates":[[[20.104631,50.118522],[20.104703,50.118483],[20.104735,50.118508],[20.104744,50.118504],[20.104792,50.11854],[20.104783,50.118545],[20.104816,50.118569],[20.104809,50.118573],[20.1048,50.118567],[20.104777,50.11858],[20.104786,50.118586],[20.104745,50.118609],[20.104631,50.118522]]]}},{"type":"Feature","id":"w1075677456","properties":{"type":"house","address":"Jarzębinowa 15D","residential":true,"residents_est":1,"h3_10":"8a1e2e61e037fff","h3_11":"8b1e2e61e034fff"},"geometry":{"type":"Polygon","coordinates":[[[20.10456,50.118561],[20.104631,50.118522],[20.104745,50.118609],[20.104704,50.118631],[20.104696,50.118625],[20.104672,50.118637],[20.104681,50.118644],[20.104673,50.118648],[20.104641,50.118623],[20.104633,50.118627],[20.104585,50.118591],[20.104593,50.118586],[20.10456,50.118561]]]}},{"type":"Feature","id":"w1075677457","properties":{"type":"house","address":"Jarzębinowa 15B","residential":true,"residents_est":1,"h3_10":"8a1e2e61e037fff","h3_11":"8b1e2e61e034fff"},"geometry":{"type":"Polygon","coordinates":[[[20.104783,50.118439],[20.104855,50.1184],[20.104969,50.118486],[20.104928,50.118508],[20.104919,50.118502],[20.104896,50.118515],[20.104904,50.118521],[20.104897,50.118525],[20.104864,50.1185],[20.104856,50.118505],[20.104808,50.118468],[20.104816,50.118464],[20.104783,50.118439]]]}},{"type":"Feature","id":"w1075677458","properties":{"type":"house","address":"Jarzębinowa 15A","residential":true,"residents_est":1,"h3_10":"8a1e2e61e037fff","h3_11":"8b1e2e61e030fff"},"geometry":{"type":"Polygon","coordinates":[[[20.104855,50.1184],[20.104927,50.118361],[20.10496,50.118386],[20.104968,50.118382],[20.105016,50.118418],[20.105007,50.118422],[20.105041,50.118447],[20.105033,50.118451],[20.105024,50.118445],[20.105001,50.118457],[20.10501,50.118464],[20.104969,50.118486],[20.104855,50.1184]]]}},{"type":"Feature","id":"w1075677459","properties":{"type":"residential","address":"Jarzębinowa 15F","residential":true,"residents_est":2,"h3_10":"8a1e2e61e1affff","h3_11":"8b1e2e61e1a9fff"},"geometry":{"type":"Polygon","coordinates":[[[20.104335,50.118684],[20.104407,50.118645],[20.104521,50.118731],[20.10448,50.118753],[20.104472,50.118747],[20.104448,50.118759],[20.104457,50.118766],[20.104449,50.11877],[20.104416,50.118745],[20.104408,50.11875],[20.10436,50.118713],[20.104368,50.118709],[20.104335,50.118684]]]}},{"type":"Feature","id":"w1075677460","properties":{"type":"residential","address":"Jarzębinowa 15E","residential":true,"residents_est":2,"h3_10":"8a1e2e61e1affff","h3_11":"8b1e2e61e1a9fff"},"geometry":{"type":"Polygon","coordinates":[[[20.104407,50.118645],[20.104479,50.118606],[20.104512,50.11863],[20.10452,50.118626],[20.104568,50.118662],[20.104559,50.118667],[20.104593,50.118692],[20.104585,50.118696],[20.104577,50.11869],[20.104554,50.118702],[20.104562,50.118708],[20.104521,50.118731],[20.104407,50.118645]]]}},{"type":"Feature","id":"w1075677462","properties":{"type":"house","address":"Jarzębinowa 10","residential":true,"residents_est":1,"h3_10":"8a1e2e61e037fff","h3_11":"8b1e2e61e035fff"},"geometry":{"type":"Polygon","coordinates":[[[20.105521,50.118687],[20.105605,50.118676],[20.105599,50.118658],[20.105691,50.118645],[20.105725,50.118748],[20.105549,50.118772],[20.105521,50.118687]]]}},{"type":"Feature","id":"w1075677487","properties":{"type":"yes","residential":true,"residents_est":0,"h3_10":"8a1e2e61e0cffff","h3_11":"8b1e2e61e0c9fff"},"geometry":{"type":"Polygon","coordinates":[[[20.111537,50.114919],[20.11171,50.114893],[20.111739,50.114972],[20.111566,50.114999],[20.111537,50.114919]]]}},{"type":"Feature","id":"w1112744429","properties":{"type":"house","address":"Jarzębinowa 17C","residential":true,"residents_est":1,"h3_10":"8a1e2e61e11ffff","h3_11":"8b1e2e61e11afff"},"geometry":{"type":"Polygon","coordinates":[[[20.104328,50.119014],[20.104461,50.118941],[20.104527,50.118991],[20.10451,50.118982],[20.104477,50.119001],[20.104491,50.119011],[20.104394,50.119064],[20.104328,50.119014]]]}},{"type":"Feature","id":"w1112744430","properties":{"type":"house","address":"Jarzębinowa 17B","residential":true,"residents_est":1,"h3_10":"8a1e2e61e11ffff","h3_11":"8b1e2e61e11afff"},"geometry":{"type":"Polygon","coordinates":[[[20.104461,50.118941],[20.104593,50.118869],[20.10466,50.118919],[20.104563,50.118972],[20.104549,50.118961],[20.104516,50.118979],[20.104527,50.118991],[20.104461,50.118941]]]}},{"type":"Feature","id":"w1112744431","properties":{"type":"house","address":"Jarzębinowa 17","residential":true,"residents_est":1,"h3_10":"8a1e2e61e037fff","h3_11":"8b1e2e61e034fff"},"geometry":{"type":"Polygon","coordinates":[[[20.104875,50.118715],[20.105008,50.118642],[20.105074,50.118692],[20.104978,50.118745],[20.104964,50.118734],[20.104931,50.118753],[20.104942,50.118765],[20.104875,50.118715]]]}},{"type":"Feature","id":"w1112744432","properties":{"type":"house","address":"Jarzębinowa 17A","residential":true,"residents_est":1,"h3_10":"8a1e2e61e037fff","h3_11":"8b1e2e61e034fff"},"geometry":{"type":"Polygon","coordinates":[[[20.104743,50.118787],[20.104875,50.118715],[20.104942,50.118765],[20.104925,50.118756],[20.104891,50.118774],[20.104905,50.118785],[20.104809,50.118837],[20.104743,50.118787]]]}},{"type":"Feature","id":"w1155263996","properties":{"type":"yes","residential":true,"residents_est":0,"h3_10":"8a1e2e61e057fff","h3_11":"8b1e2e61e055fff"},"geometry":{"type":"Polygon","coordinates":[[[20.110938,50.117643],[20.11106,50.11761],[20.111084,50.117647],[20.110962,50.11768],[20.110938,50.117643]]]}},{"type":"Feature","id":"w1155263997","properties":{"type":"yes","residential":true,"residents_est":1,"h3_10":"8a1e2e61e0effff","h3_11":"8b1e2e61e0e9fff"},"geometry":{"type":"Polygon","coordinates":[[[20.111393,50.116276],[20.111399,50.116192],[20.11162,50.116199],[20.111611,50.116309],[20.11149,50.116305],[20.111492,50.11628],[20.111393,50.116276]]]}},{"type":"Feature","id":"w1155263998","properties":{"type":"yes","residential":true,"residents_est":1,"h3_10":"8a1e2e61e007fff","h3_11":"8b1e2e61e004fff"},"geometry":{"type":"Polygon","coordinates":[[[20.106641,50.118254],[20.106814,50.118215],[20.10686,50.118298],[20.106748,50.118323],[20.106734,50.118297],[20.106672,50.118311],[20.106641,50.118254]]]}},{"type":"Feature","id":"w1189424733","properties":{"type":"house","residential":true,"residents_est":1,"h3_10":"8a1e2e61e1affff","h3_11":"8b1e2e61e1acfff"},"geometry":{"type":"Polygon","coordinates":[[[20.102991,50.119124],[20.103094,50.119066],[20.10316,50.119115],[20.103057,50.119173],[20.102991,50.119124]]]}},{"type":"Feature","id":"w1242002721","properties":{"type":"house","address":"Jarzębinowa 15H","residential":true,"residents_est":1,"h3_10":"8a1e2e61e1affff","h3_11":"8b1e2e61e1a9fff"},"geometry":{"type":"Polygon","coordinates":[[[20.104112,50.118806],[20.104184,50.118767],[20.104297,50.118853],[20.104256,50.118875],[20.104248,50.118869],[20.104224,50.118882],[20.104233,50.118888],[20.104226,50.118892],[20.104193,50.118867],[20.104183,50.118872],[20.104136,50.118836],[20.104145,50.118831],[20.104112,50.118806]]]}},{"type":"Feature","id":"w1242002722","properties":{"type":"house","address":"Jarzębinowa 15G","residential":true,"residents_est":1,"h3_10":"8a1e2e61e1affff","h3_11":"8b1e2e61e1a9fff"},"geometry":{"type":"Polygon","coordinates":[[[20.104184,50.118767],[20.104255,50.118728],[20.104288,50.118752],[20.104296,50.118748],[20.104344,50.118784],[20.104336,50.118789],[20.104369,50.118814],[20.104361,50.118818],[20.104353,50.118811],[20.104329,50.118824],[20.104338,50.118831],[20.104297,50.118853],[20.104184,50.118767]]]}},{"type":"Feature","id":"w1242002723","properties":{"type":"house","address":"Jarzębinowa 15K","residential":true,"residents_est":1,"h3_10":"8a1e2e61e1affff","h3_11":"8b1e2e61e1adfff"},"geometry":{"type":"Polygon","coordinates":[[[20.103888,50.118928],[20.10396,50.118888],[20.104074,50.118974],[20.104032,50.118997],[20.104024,50.118991],[20.104,50.119003],[20.104009,50.11901],[20.104002,50.119014],[20.103969,50.118989],[20.103959,50.118994],[20.103911,50.118958],[20.103921,50.118953],[20.103888,50.118928]]]}},{"type":"Feature","id":"w1242002724","properties":{"type":"house","address":"Jarzębinowa 15J","residential":true,"residents_est":1,"h3_10":"8a1e2e61e1affff","h3_11":"8b1e2e61e1adfff"},"geometry":{"type":"Polygon","coordinates":[[[20.10396,50.118888],[20.104031,50.11885],[20.104064,50.118874],[20.104074,50.118869],[20.104121,50.118906],[20.104112,50.118911],[20.104145,50.118936],[20.104138,50.11894],[20.104129,50.118933],[20.104105,50.118946],[20.104114,50.118952],[20.104074,50.118974],[20.10396,50.118888]]]}},{"type":"Feature","id":"w1242002726","properties":{"type":"house","address":"Jarzębinowa 19B","residential":true,"residents_est":1,"h3_10":"8a1e2e61e11ffff","h3_11":"8b1e2e61e11afff"},"geometry":{"type":"Polygon","coordinates":[[[20.104507,50.119144],[20.104524,50.119153],[20.104558,50.119135],[20.104543,50.119124],[20.10464,50.119072],[20.104706,50.119122],[20.104574,50.119194],[20.104507,50.119144]]]}},{"type":"Feature","id":"w1242002727","properties":{"type":"house","address":"Jarzębinowa 19","residential":true,"residents_est":1,"h3_10":"8a1e2e61e11ffff","h3_11":"8b1e2e61e11bfff"},"geometry":{"type":"Polygon","coordinates":[[[20.104922,50.118917],[20.104939,50.118926],[20.104973,50.118908],[20.104958,50.118898],[20.105055,50.118845],[20.105121,50.118895],[20.104989,50.118968],[20.104922,50.118917]]]}},{"type":"Feature","id":"w1242002728","properties":{"type":"house","address":"Jarzębinowa 19A","residential":true,"residents_est":1,"h3_10":"8a1e2e61e11ffff","h3_11":"8b1e2e61e11afff"},"geometry":{"type":"Polygon","coordinates":[[[20.104789,50.11899],[20.104886,50.118937],[20.1049,50.118948],[20.104933,50.11893],[20.104922,50.118917],[20.104989,50.118968],[20.104856,50.11904],[20.104789,50.11899]]]}},{"type":"Feature","id":"w1242002729","properties":{"type":"residential","address":"Świętej Faustyny 1A","residential":true,"residents_est":2,"h3_10":"8a1e2e61e037fff","h3_11":"8b1e2e61e030fff"},"geometry":{"type":"Polygon","coordinates":[[[20.105405,50.118435],[20.105549,50.118415],[20.10558,50.118511],[20.105436,50.11853],[20.105405,50.118435]]]}},{"type":"Feature","id":"w1242002730","properties":{"type":"residential","address":"Świętej Faustyny 1","residential":true,"residents_est":2,"h3_10":"8a1e2e61e037fff","h3_11":"8b1e2e61e030fff"},"geometry":{"type":"Polygon","coordinates":[[[20.105373,50.118339],[20.105518,50.11832],[20.105549,50.118415],[20.105405,50.118435],[20.105373,50.118339]]]}},{"type":"Feature","id":"w1242002731","properties":{"type":"residential","address":"Świętej Faustyny 1B","residential":true,"residents_est":2,"h3_10":"8a1e2e61e037fff","h3_11":"8b1e2e61e031fff"},"geometry":{"type":"Polygon","coordinates":[[[20.105759,50.11838],[20.105906,50.11836],[20.105941,50.118464],[20.105793,50.118484],[20.105759,50.11838]]]}},{"type":"Feature","id":"w1242002732","properties":{"type":"residential","address":"Świętej Faustyny 1C","residential":true,"residents_est":3,"h3_10":"8a1e2e61e037fff","h3_11":"8b1e2e61e031fff"},"geometry":{"type":"Polygon","coordinates":[[[20.105724,50.118275],[20.105871,50.118255],[20.105906,50.11836],[20.105759,50.11838],[20.105724,50.118275]]]}},{"type":"Feature","id":"w1242002734","properties":{"type":"yes","residential":false,"residents_est":0,"h3_10":"8a1e2e61e19ffff","h3_11":"8b1e2e61e19dfff"},"geometry":{"type":"Polygon","coordinates":[[[20.10283,50.11719],[20.102888,50.117179],[20.102921,50.117251],[20.102863,50.117262],[20.10283,50.11719]]]}},{"type":"Feature","id":"w1246957730","properties":{"type":"yes","residential":true,"residents_est":1,"h3_10":"8a1e2e61e0e7fff","h3_11":"8b1e2e61e0e1fff"},"geometry":{"type":"Polygon","coordinates":[[[20.109989,50.116431],[20.110153,50.11642],[20.110169,50.116515],[20.110005,50.116526],[20.109989,50.116431]]]}},{"type":"Feature","id":"w1341515316","properties":{"type":"house","address":"Jarzębinowa 15M","residential":true,"residents_est":1,"h3_10":"8a1e2e61e1affff","h3_11":"8b1e2e61e1adfff"},"geometry":{"type":"Polygon","coordinates":[[[20.103664,50.11905],[20.103736,50.119011],[20.103849,50.119097],[20.103807,50.119119],[20.103799,50.119113],[20.103775,50.119126],[20.103784,50.119132],[20.103777,50.119136],[20.103744,50.119111],[20.103735,50.119116],[20.103687,50.11908],[20.103696,50.119075],[20.103664,50.11905]]]}},{"type":"Feature","id":"w1341515317","properties":{"type":"house","address":"Jarzębinowa 15L","residential":true,"residents_est":1,"h3_10":"8a1e2e61e1affff","h3_11":"8b1e2e61e1adfff"},"geometry":{"type":"Polygon","coordinates":[[[20.103736,50.119011],[20.103807,50.118972],[20.10384,50.118997],[20.103849,50.118992],[20.103896,50.119028],[20.103887,50.119033],[20.10392,50.119058],[20.103913,50.119062],[20.103905,50.119056],[20.103881,50.119068],[20.103889,50.119075],[20.103849,50.119097],[20.103736,50.119011]]]}},{"type":"Feature","id":"w1341515318","properties":{"type":"house","address":"Jarzębinowa 15P","residential":true,"residents_est":1,"h3_10":"8a1e2e61e117fff","h3_11":"8b1e2e61e113fff"},"geometry":{"type":"Polygon","coordinates":[[[20.103439,50.119172],[20.103512,50.119133],[20.103625,50.119219],[20.103584,50.119242],[20.103576,50.119235],[20.103553,50.119248],[20.103561,50.119254],[20.103553,50.119258],[20.103521,50.119234],[20.103511,50.119238],[20.103463,50.119202],[20.103472,50.119197],[20.103439,50.119172]]]}},{"type":"Feature","id":"w1341515319","properties":{"type":"house","address":"Jarzębinowa 15N","residential":true,"residents_est":1,"h3_10":"8a1e2e61e1affff","h3_11":"8b1e2e61e1adfff"},"geometry":{"type":"Polygon","coordinates":[[[20.103512,50.119133],[20.103583,50.119094],[20.103615,50.119119],[20.103624,50.119114],[20.103673,50.11915],[20.103663,50.119155],[20.103697,50.11918],[20.103689,50.119184],[20.103681,50.119178],[20.103657,50.11919],[20.103666,50.119197],[20.103625,50.119219],[20.103512,50.119133]]]}},{"type":"Feature","id":"w1341515320","properties":{"type":"house","address":"Jarzębinowa 19C","residential":true,"residents_est":1,"h3_10":"8a1e2e61e11ffff","h3_11":"8b1e2e61e11afff"},"geometry":{"type":"Polygon","coordinates":[[[20.104374,50.119217],[20.104471,50.119164],[20.104485,50.119175],[20.104518,50.119157],[20.104507,50.119144],[20.104574,50.119194],[20.104441,50.119267],[20.104374,50.119217]]]}},{"type":"Feature","id":"w1341515321","properties":{"type":"house","address":"Jarzębinowa 19D","residential":true,"residents_est":1,"h3_10":"8a1e2e61e11ffff","h3_11":"8b1e2e61e11efff"},"geometry":{"type":"Polygon","coordinates":[[[20.104093,50.119371],[20.10411,50.11938],[20.104143,50.119362],[20.104129,50.119351],[20.104225,50.119298],[20.104292,50.119348],[20.104159,50.119421],[20.104093,50.119371]]]}},{"type":"Feature","id":"w1341515322","properties":{"type":"house","address":"Jarzębinowa 19E","residential":true,"residents_est":1,"h3_10":"8a1e2e61e11ffff","h3_11":"8b1e2e61e11efff"},"geometry":{"type":"Polygon","coordinates":[[[20.10396,50.119443],[20.104056,50.119391],[20.10407,50.119401],[20.104104,50.119383],[20.104093,50.119371],[20.104159,50.119421],[20.104026,50.119494],[20.10396,50.119443]]]}},{"type":"Feature","id":"w1341515323","properties":{"type":"house","residential":true,"residents_est":1,"h3_10":"8a1e2e61e117fff","h3_11":"8b1e2e61e112fff"},"geometry":{"type":"Polygon","coordinates":[[[20.102685,50.119281],[20.102794,50.119224],[20.102863,50.119278],[20.102755,50.119335],[20.102685,50.119281]]]}},{"type":"Feature","id":"w1341515324","properties":{"type":"house","residential":true,"residents_est":1,"h3_10":"8a1e2e61e1a7fff","h3_11":"8b1e2e61e1a5fff"},"geometry":{"type":"Polygon","coordinates":[[[20.102372,50.119442],[20.102482,50.119384],[20.10255,50.119438],[20.102441,50.119496],[20.102372,50.119442]]]}},{"type":"Feature","id":"w1341580653","properties":{"type":"yes","residential":false,"residents_est":0,"h3_10":"8a1e2e61e06ffff","h3_11":"8b1e2e61e06afff"},"geometry":{"type":"Polygon","coordinates":[[[20.113144,50.118369],[20.113198,50.118354],[20.113232,50.118404],[20.113179,50.118419],[20.113144,50.118369]]]}},{"type":"Feature","id":"w1419620848","properties":{"type":"yes","residential":true,"residents_est":1,"h3_10":"8a1e2e61e09ffff","h3_11":"8b1e2e61e099fff"},"geometry":{"type":"Polygon","coordinates":[[[20.105321,50.114197],[20.105447,50.11418],[20.105477,50.114269],[20.105453,50.114273],[20.105475,50.114339],[20.105374,50.114353],[20.105321,50.114197]]]}},{"type":"Feature","id":"w1550433674","properties":{"type":"house","address":"Jarzębinowa 19F","residential":true,"residents_est":1,"h3_10":"8a1e2e61e117fff","h3_11":"8b1e2e61e111fff"},"geometry":{"type":"Polygon","coordinates":[[[20.103678,50.119597],[20.103695,50.119606],[20.103729,50.119588],[20.103714,50.119578],[20.103811,50.119525],[20.103877,50.119575],[20.103745,50.119648],[20.103678,50.119597]]]}},{"type":"Feature","id":"w1550433675","properties":{"type":"house","address":"Jarzębinowa 19G","residential":true,"residents_est":1,"h3_10":"8a1e2e61e117fff","h3_11":"8b1e2e61e111fff"},"geometry":{"type":"Polygon","coordinates":[[[20.103545,50.11967],[20.103642,50.119617],[20.103656,50.119628],[20.103689,50.11961],[20.103678,50.119597],[20.103745,50.119648],[20.103612,50.11972],[20.103545,50.11967]]]}},{"type":"Feature","id":"w1550433678","properties":{"type":"house","address":"Jarzębinowa 17E","residential":true,"residents_est":1,"h3_10":"8a1e2e61e11ffff","h3_11":"8b1e2e61e11efff"},"geometry":{"type":"Polygon","coordinates":[[[20.103918,50.119244],[20.104053,50.119171],[20.104107,50.119211],[20.104064,50.119234],[20.104074,50.119241],[20.103982,50.119292],[20.103918,50.119244]]]}},{"type":"Feature","id":"w1550433679","properties":{"type":"house","address":"Jarzębinowa 17D","residential":true,"residents_est":1,"h3_10":"8a1e2e61e1affff","h3_11":"8b1e2e61e1adfff"},"geometry":{"type":"Polygon","coordinates":[[[20.104053,50.119171],[20.104188,50.119097],[20.104252,50.119145],[20.104159,50.119196],[20.104149,50.119188],[20.104107,50.119211],[20.104053,50.119171]]]}},{"type":"Feature","id":"w1550433680","properties":{"type":"house","address":"Jarzębinowa 17G","residential":true,"residents_est":1,"h3_10":"8a1e2e61e117fff","h3_11":"8b1e2e61e113fff"},"geometry":{"type":"Polygon","coordinates":[[[20.1035,50.119472],[20.103635,50.119399],[20.103688,50.119439],[20.103645,50.119462],[20.103656,50.119469],[20.103563,50.11952],[20.1035,50.119472]]]}},{"type":"Feature","id":"w1550433681","properties":{"type":"house","address":"Jarzębinowa 17F","residential":true,"residents_est":1,"h3_10":"8a1e2e61e117fff","h3_11":"8b1e2e61e113fff"},"geometry":{"type":"Polygon","coordinates":[[[20.103635,50.119399],[20.103769,50.119325],[20.103833,50.119373],[20.10374,50.119423],[20.10373,50.119416],[20.103688,50.119439],[20.103635,50.119399]]]}},{"type":"Feature","id":"w1550433682","properties":{"type":"house","address":"Jarzębinowa 15R","residential":true,"residents_est":1,"h3_10":"8a1e2e61e117fff","h3_11":"8b1e2e61e113fff"},"geometry":{"type":"Polygon","coordinates":[[[20.103289,50.119257],[20.103358,50.119219],[20.103391,50.119244],[20.1034,50.119239],[20.103444,50.119272],[20.103435,50.119277],[20.103468,50.119302],[20.103399,50.11934],[20.103289,50.119257]]]}},{"type":"Feature","id":"w1550433683","properties":{"type":"house","address":"Jarzębinowa 15S","residential":true,"residents_est":1,"h3_10":"8a1e2e61e117fff","h3_11":"8b1e2e61e113fff"},"geometry":{"type":"Polygon","coordinates":[[[20.10322,50.119294],[20.103289,50.119257],[20.103399,50.11934],[20.10333,50.119377],[20.103297,50.119353],[20.103288,50.119358],[20.103244,50.119324],[20.103253,50.119319],[20.10322,50.119294]]]}},{"type":"Feature","id":"w1550433684","properties":{"type":"house","address":"Jarzębinowa 15T","residential":true,"residents_est":1,"h3_10":"8a1e2e61e117fff","h3_11":"8b1e2e61e112fff"},"geometry":{"type":"Polygon","coordinates":[[[20.10305,50.119383],[20.103119,50.119345],[20.103152,50.11937],[20.103161,50.119365],[20.103204,50.119399],[20.103195,50.119404],[20.103228,50.119428],[20.103158,50.119466],[20.10305,50.119383]]]}},{"type":"Feature","id":"w1550433685","properties":{"type":"house","address":"Jarzębinowa 15U","residential":true,"residents_est":1,"h3_10":"8a1e2e61e117fff","h3_11":"8b1e2e61e112fff"},"geometry":{"type":"Polygon","coordinates":[[[20.10298,50.11942],[20.10305,50.119383],[20.103158,50.119466],[20.103089,50.119503],[20.103056,50.119478],[20.103047,50.119483],[20.103003,50.11945],[20.103012,50.119445],[20.10298,50.11942]]]}},{"type":"Feature","id":"w1550433688","properties":{"type":"house","address":"Jarzębinowa 15","residential":true,"residents_est":1,"h3_10":"8a1e2e61e037fff","h3_11":"8b1e2e61e030fff"},"geometry":{"type":"Polygon","coordinates":[[[20.10502,50.118306],[20.105033,50.118193],[20.105136,50.118198],[20.105123,50.11831],[20.10502,50.118306]]]}},{"type":"Feature","id":"w1550433689","properties":{"type":"yes","residential":true,"residents_est":1,"h3_10":"8a1e2e61e017fff","h3_11":"8b1e2e61e011fff"},"geometry":{"type":"Polygon","coordinates":[[[20.106528,50.117249],[20.106668,50.117207],[20.106769,50.117345],[20.10663,50.117387],[20.106528,50.117249]]]}},{"type":"Feature","id":"w1550433690","properties":{"type":"yes","residential":true,"residents_est":3,"h3_10":"8a1e2e61e0f7fff","h3_11":"8b1e2e61e0f0fff"},"geometry":{"type":"Polygon","coordinates":[[[20.10724,50.115698],[20.107452,50.115645],[20.107481,50.115692],[20.107462,50.115697],[20.107487,50.115736],[20.107601,50.115708],[20.107641,50.115774],[20.107332,50.115852],[20.107295,50.11579],[20.107367,50.115772],[20.107348,50.11574],[20.107277,50.115757],[20.10724,50.115698]]]}},{"type":"Feature","id":"w1550433691","properties":{"type":"yes","residential":true,"residents_est":1,"h3_10":"8a1e2e61e09ffff","h3_11":"8b1e2e61e09dfff"},"geometry":{"type":"Polygon","coordinates":[[[20.105418,50.114536],[20.105552,50.114516],[20.105596,50.114637],[20.105462,50.114657],[20.105418,50.114536]]]}},{"type":"Feature","id":"w1550433694","properties":{"type":"construction","residential":false,"residents_est":0,"h3_10":"8a1e2e61e0dffff","h3_11":"8b1e2e61e0d9fff"},"geometry":{"type":"Polygon","coordinates":[[[20.110465,50.114238],[20.110657,50.114217],[20.110682,50.114312],[20.110615,50.11432],[20.11061,50.114301],[20.110486,50.114315],[20.110465,50.114238]]]}}]}