{"type":"FeatureCollection","features":[{"type":"Feature","id":"w29332681","properties":{"type":"yes","address":"Nowohucka 52","name":"Selgros","residential":true,"residents_est":428,"h3_10":"8a1e2e6842c7fff","h3_11":"8b1e2e6842c0fff"},"geometry":{"type":"Polygon","coordinates":[[[19.998196,50.058107],[19.999537,50.057655],[20.000468,50.058794],[19.999127,50.059246],[19.998196,50.058107]]]}},{"type":"Feature","id":"w40720915","properties":{"type":"yes","address":"Nowohucka 44","name":"TVP Kraków - studio widowisk artystycznych S-3","residential":true,"residents_est":146,"h3_10":"8a1e2e684247fff","h3_11":"8b1e2e684244fff"},"geometry":{"type":"Polygon","coordinates":[[[20.000678,50.061341],[20.000688,50.061341],[20.000683,50.061312],[20.000733,50.061308],[20.000737,50.061337],[20.001074,50.061313],[20.001106,50.061511],[20.001552,50.061482],[20.001509,50.061274],[20.001721,50.06126],[20.001835,50.061979],[20.000792,50.062048],[20.000678,50.061341]]]}},{"type":"Feature","id":"w80196729","properties":{"type":"yes","residential":false,"residents_est":0,"h3_10":"8a1e2e6842cffff","h3_11":"8b1e2e6842cdfff"},"geometry":{"type":"Polygon","coordinates":[[[20.001281,50.058401],[20.001361,50.058392],[20.001374,50.05844],[20.001294,50.05845],[20.001281,50.058401]]]}},{"type":"Feature","id":"w80196732","properties":{"type":"yes","residential":true,"residents_est":17,"h3_10":"8a1e2e684277fff","h3_11":"8b1e2e684271fff"},"geometry":{"type":"Polygon","coordinates":[[[20.000193,50.061469],[20.000355,50.061458],[20.00043,50.061939],[20.000268,50.061949],[20.000193,50.061469]]]}},{"type":"Feature","id":"w80196751","properties":{"type":"detached","levels":1.0,"residential":true,"residents_est":2,"h3_10":"8a1e2e684257fff","h3_11":"8b1e2e684251fff"},"geometry":{"type":"Polygon","coordinates":[[[20.000471,50.060333],[20.000803,50.060245],[20.00084,50.060304],[20.000508,50.060391],[20.000471,50.060333]]]}},{"type":"Feature","id":"w80196756","properties":{"type":"detached","residential":true,"residents_est":14,"h3_10":"8a1e2e68425ffff","h3_11":"8b1e2e68425efff"},"geometry":{"type":"Polygon","coordinates":[[[20.00119,50.059975],[20.001467,50.059847],[20.001642,50.060005],[20.001365,50.060132],[20.00119,50.059975]]]}},{"type":"Feature","id":"w80196757","properties":{"type":"yes","residential":true,"residents_est":1,"h3_10":"8a1e2e684267fff","h3_11":"8b1e2e684261fff"},"geometry":{"type":"Polygon","coordinates":[[[20.001779,50.062146],[20.001858,50.062143],[20.001866,50.06222],[20.001787,50.062224],[20.001779,50.062146]]]}},{"type":"Feature","id":"w80196770","properties":{"type":"yes","residential":true,"residents_est":1,"h3_10":"8a1e2e684267fff","h3_11":"8b1e2e684266fff"},"geometry":{"type":"Polygon","coordinates":[[[20.000367,50.061988],[20.000441,50.061984],[20.000457,50.062094],[20.000383,50.062098],[20.000367,50.061988]]]}},{"type":"Feature","id":"w80196784","properties":{"type":"yes","residential":true,"residents_est":1,"h3_10":"8a1e2e684257fff","h3_11":"8b1e2e684253fff"},"geometry":{"type":"Polygon","coordinates":[[[20.000393,50.060149],[20.000521,50.060097],[20.000594,50.060171],[20.000466,50.060223],[20.000393,50.060149]]]}},{"type":"Feature","id":"w80196785","properties":{"type":"yes","residential":true,"residents_est":43,"h3_10":"8a1e2e684267fff","h3_11":"8b1e2e684264fff"},"geometry":{"type":"Polygon","coordinates":[[[20.000335,50.062357],[20.001185,50.0623],[20.001222,50.062526],[20.000372,50.062584],[20.000335,50.062357]]]}},{"type":"Feature","id":"w80196796","properties":{"type":"yes","address":"Nowohucka 50","residential":true,"residents_est":64,"h3_10":"8a1e2e6842effff","h3_11":"8b1e2e6842ebfff"},"geometry":{"type":"Polygon","coordinates":[[[20.000632,50.058949],[20.000704,50.05889],[20.000884,50.058879],[20.00087,50.058831],[20.001417,50.058795],[20.00145,50.058999],[20.001418,50.059001],[20.00144,50.059137],[20.001359,50.059203],[20.000714,50.05924],[20.000684,50.059049],[20.000647,50.059051],[20.000632,50.058949]]]}},{"type":"Feature","id":"w82515609","properties":{"type":"yes","residential":true,"residents_est":2,"h3_10":"8a1e2e6843a7fff","h3_11":"8b1e2e6843a4fff"},"geometry":{"type":"Polygon","coordinates":[[[19.99076,50.062638],[19.990894,50.062619],[19.990929,50.062719],[19.990795,50.062738],[19.99076,50.062638]]]}},{"type":"Feature","id":"w82515612","properties":{"type":"yes","residential":false,"residents_est":0,"h3_10":"8a1e2e684387fff","h3_11":"8b1e2e684381fff"},"geometry":{"type":"Polygon","coordinates":[[[19.991924,50.061108],[19.992007,50.061098],[19.99202,50.061146],[19.991937,50.061155],[19.991924,50.061108]]]}},{"type":"Feature","id":"w82515619","properties":{"type":"yes","residential":false,"residents_est":0,"h3_10":"8a1e2e6843a7fff","h3_11":"8b1e2e6843a6fff"},"geometry":{"type":"Polygon","coordinates":[[[19.990701,50.062156],[19.990783,50.062148],[19.990798,50.062207],[19.990717,50.062216],[19.990701,50.062156]]]}},{"type":"Feature","id":"w82515620","properties":{"type":"yes","address":"Sierpowa 3","residential":true,"residents_est":3,"h3_10":"8a1e2e6843a7fff","h3_11":"8b1e2e6843a5fff"},"geometry":{"type":"Polygon","coordinates":[[[19.991098,50.062483],[19.991241,50.062456],[19.991309,50.062607],[19.991166,50.062633],[19.991098,50.062483]]]}},{"type":"Feature","id":"w82515622","properties":{"type":"yes","residential":false,"residents_est":0,"h3_10":"8a1e2e6843a7fff","h3_11":"8b1e2e6843a5fff"},"geometry":{"type":"Polygon","coordinates":[[[19.991273,50.062441],[19.991344,50.062429],[19.991363,50.062475],[19.991293,50.062487],[19.991273,50.062441]]]}},{"type":"Feature","id":"w82515625","properties":{"type":"house","residential":true,"residents_est":8,"h3_10":"8a1e2e684237fff","h3_11":"8b1e2e684230fff"},"geometry":{"type":"Polygon","coordinates":[[[19.994667,50.061464],[19.994692,50.061332],[19.994952,50.061352],[19.994927,50.061484],[19.994667,50.061464]]]}},{"type":"Feature","id":"w82515626","properties":{"type":"garage","residential":false,"residents_est":0,"h3_10":"8a1e2e684237fff","h3_11":"8b1e2e684230fff"},"geometry":{"type":"Polygon","coordinates":[[[19.99474,50.061287],[19.994748,50.061229],[19.994937,50.061241],[19.994928,50.061298],[19.99474,50.061287]]]}},{"type":"Feature","id":"w82515632","properties":{"type":"garage","residential":false,"residents_est":0,"h3_10":"8a1e2e684237fff","h3_11":"8b1e2e684233fff"},"geometry":{"type":"Polygon","coordinates":[[[19.994818,50.061225],[19.994828,50.061175],[19.994928,50.061183],[19.994918,50.061233],[19.994818,50.061225]]]}},{"type":"Feature","id":"w82515644","properties":{"type":"yes","residential":true,"residents_est":1,"h3_10":"8a1e2e68420ffff","h3_11":"8b1e2e684208fff"},"geometry":{"type":"Polygon","coordinates":[[[19.99836,50.060826],[19.998514,50.060797],[19.998547,50.060871],[19.998394,50.060899],[19.99836,50.060826]]]}},{"type":"Feature","id":"w82515649","properties":{"type":"yes","residential":true,"residents_est":2,"h3_10":"8a1e2e6843a7fff","h3_11":"8b1e2e6843a2fff"},"geometry":{"type":"Polygon","coordinates":[[[19.990894,50.061608],[19.991026,50.061596],[19.99106,50.06175],[19.990927,50.061762],[19.990894,50.061608]]]}},{"type":"Feature","id":"w82857302","properties":{"type":"yes","address":"Aleja Pokoju 63A","name":"Lexus","residential":true,"residents_est":13,"h3_10":"8a1e2e684327fff","h3_11":"8b1e2e684321fff"},"geometry":{"type":"Polygon","coordinates":[[[19.994356,50.064555],[19.994378,50.064512],[19.9944,50.064496],[19.994464,50.064471],[19.994542,50.064462],[19.994621,50.064468],[19.994688,50.06449],[19.994735,50.064524],[19.994747,50.064543],[19.994751,50.064564],[19.994744,50.06459],[19.994722,50.064615],[19.994691,50.064635],[19.994654,50.064648],[19.994576,50.064661],[19.994481,50.064653],[19.994405,50.064625],[19.994367,50.06459],[19.994356,50.064555]]]}},{"type":"Feature","id":"w82857303","properties":{"type":"yes","address":"Aleja Pokoju 63","name":"Renault","residential":true,"residents_est":34,"h3_10":"8a1e2e684327fff","h3_11":"8b1e2e684323fff"},"geometry":{"type":"Polygon","coordinates":[[[19.99374,50.064645],[19.993991,50.064295],[19.994153,50.064295],[19.994206,50.064312],[19.99423,50.064298],[19.994265,50.064304],[19.994294,50.064319],[19.994313,50.064339],[19.994319,50.064362],[19.994312,50.064385],[19.994057,50.064741],[19.993964,50.064731],[19.993882,50.064711],[19.993813,50.064685],[19.99374,50.064645]]]}},{"type":"Feature","id":"w82857314","properties":{"type":"yes","address":"Aleja Pokoju 65","name":"Shell","residential":false,"residents_est":0,"h3_10":"8a1e2e68432ffff","h3_11":"8b1e2e68432dfff"},"geometry":{"type":"Polygon","coordinates":[[[19.995441,50.064861],[19.995495,50.064733],[19.995642,50.064757],[19.995587,50.064885],[19.995441,50.064861]]]}},{"type":"Feature","id":"w82857331","properties":{"type":"yes","name":"Shell","residential":false,"residents_est":0,"h3_10":"8a1e2e68432ffff","h3_11":"8b1e2e68432cfff"},"geometry":{"type":"Polygon","coordinates":[[[19.99534,50.064654],[19.995362,50.064602],[19.995469,50.06462],[19.995477,50.064599],[19.995544,50.064611],[19.995515,50.064684],[19.99534,50.064654]]]}},{"type":"Feature","id":"w156791120","properties":{"type":"roof","residential":false,"residents_est":0,"h3_10":"8a1e2e6842dffff","h3_11":"8b1e2e6842dcfff"},"geometry":{"type":"Polygon","coordinates":[[[19.99881,50.057619],[19.99934,50.057441],[19.999512,50.057652],[19.998982,50.05783],[19.99881,50.057619]]]}},{"type":"Feature","id":"w156791121","properties":{"type":"roof","residential":false,"residents_est":0,"h3_10":"8a1e2e6842cffff","h3_11":"8b1e2e6842cefff"},"geometry":{"type":"Polygon","coordinates":[[[19.999604,50.057631],[20.000097,50.057465],[20.000869,50.058409],[20.000715,50.058461],[20.000789,50.058552],[20.00045,50.058666],[20.000353,50.058547],[20.000285,50.05857],[20.000198,50.058463],[20.000267,50.05844],[20.00018,50.058334],[20.000111,50.058357],[19.999954,50.058166],[20.000023,50.058143],[19.999604,50.057631]]]}},{"type":"Feature","id":"w164250193","properties":{"type":"retail","levels":2.0,"address":"Aleja Pokoju 67","name":"M1 Kraków","residential":false,"residents_est":0,"h3_10":"8a1e2e684347fff","h3_11":"8b1e2e684345fff"},"geometry":{"type":"Polygon","coordinates":[[[19.996251,50.063886],[19.996375,50.063585],[19.997082,50.062793],[19.998447,50.063034],[19.998355,50.063249],[19.998677,50.063305],[19.998768,50.063091],[20.001481,50.063569],[20.001402,50.063753],[20.00157,50.063783],[20.001555,50.063668],[20.002437,50.063618],[20.002412,50.063436],[20.002768,50.063416],[20.002927,50.064587],[20.001927,50.064644],[20.001789,50.064754],[20.001696,50.064759],[20.001704,50.064822],[20.001436,50.064836],[20.001428,50.064772],[20.001068,50.064791],[20.000695,50.064726],[20.000671,50.064784],[20.000481,50.064751],[20.000506,50.064692],[19.999735,50.064556],[19.999703,50.064628],[19.999441,50.064582],[19.999471,50.064509],[19.998671,50.064368],[19.998643,50.064433],[19.998447,50.064398],[19.998474,50.064332],[19.997933,50.064238],[19.997955,50.064186],[19.997704,50.064142],[19.997674,50.064212],[19.997415,50.064166],[19.997444,50.064096],[19.996251,50.063886]]]}},{"type":"Feature","id":"w164332316","properties":{"type":"yes","residential":true,"residents_est":2,"h3_10":"8a1e2e684347fff","h3_11":"8b1e2e684343fff"},"geometry":{"type":"Polygon","coordinates":[[[19.99916,50.06316],[19.999179,50.063115],[19.999586,50.063187],[19.999566,50.063232],[19.99916,50.06316]]]}},{"type":"Feature","id":"w164332317","properties":{"type":"yes","residential":true,"residents_est":1,"h3_10":"8a1e2e684357fff","h3_11":"8b1e2e684350fff"},"geometry":{"type":"Polygon","coordinates":[[[19.99777,50.062914],[19.997799,50.062848],[19.997925,50.06287],[19.997896,50.062937],[19.99777,50.062914]]]}},{"type":"Feature","id":"w341327468","properties":{"type":"yes","residential":true,"residents_est":19,"h3_10":"8a1e2e68432ffff","h3_11":"8b1e2e68432efff"},"geometry":{"type":"Polygon","coordinates":[[[19.994488,50.064393],[19.994921,50.064167],[19.995075,50.06429],[19.994691,50.06449],[19.994636,50.064471],[19.99455,50.064461],[19.994549,50.064443],[19.994488,50.064393]]]}},{"type":"Feature","id":"w341327559","properties":{"type":"yes","residential":false,"residents_est":0,"h3_10":"8a1e2e68432ffff","h3_11":"8b1e2e68432afff"},"geometry":{"type":"Polygon","coordinates":[[[19.994921,50.064167],[19.995002,50.064126],[19.995038,50.064154],[19.994958,50.064196],[19.994921,50.064167]]]}},{"type":"Feature","id":"w376073071","properties":{"type":"roof","residential":false,"residents_est":0,"h3_10":"8a1e2e68436ffff","h3_11":"8b1e2e68436cfff"},"geometry":{"type":"Polygon","coordinates":[[[19.999768,50.064594],[19.999781,50.064564],[20.000465,50.064683],[20.000453,50.064716],[19.999768,50.064594]]]}},{"type":"Feature","id":"w376073072","properties":{"type":"roof","residential":false,"residents_est":0,"h3_10":"8a1e2e68436ffff","h3_11":"8b1e2e68436dfff"},"geometry":{"type":"Polygon","coordinates":[[[20.000787,50.064775],[20.0008,50.064744],[20.001068,50.064791],[20.001423,50.064773],[20.001427,50.064805],[20.001071,50.064825],[20.000787,50.064775]]]}},{"type":"Feature","id":"w961013172","properties":{"type":"apartments","levels":6.0,"residential":true,"residents_est":186,"h3_10":"8a1e2e68425ffff","h3_11":"8b1e2e684258fff"},"geometry":{"type":"Polygon","coordinates":[[[20.00167,50.0598],[20.00175,50.059721],[20.002129,50.059696],[20.002149,50.059819],[20.00189,50.059836],[20.001986,50.06043],[20.002115,50.060537],[20.00251,50.06051],[20.002536,50.060653],[20.002029,50.060685],[20.001777,50.060468],[20.001723,50.060058],[20.001777,50.060034],[20.001772,50.059979],[20.00168,50.059907],[20.00167,50.0598]]]}},{"type":"Feature","id":"w961013173","properties":{"type":"apartments","levels":6.0,"residential":true,"residents_est":26,"h3_10":"8a1e2e68425ffff","h3_11":"8b1e2e68425dfff"},"geometry":{"type":"Polygon","coordinates":[[[20.002271,50.060269],[20.002464,50.060256],[20.0025,50.060458],[20.002306,50.060474],[20.002271,50.060269]]]}},{"type":"Feature","id":"w961013174","properties":{"type":"apartments","levels":6.0,"residential":true,"residents_est":45,"h3_10":"8a1e2e68425ffff","h3_11":"8b1e2e68425bfff"},"geometry":{"type":"Polygon","coordinates":[[[20.002191,50.059691],[20.002379,50.059681],[20.002428,50.060042],[20.00224,50.060052],[20.002191,50.059691]]]}},{"type":"Feature","id":"w961013175","properties":{"type":"apartments","levels":5.0,"residential":true,"residents_est":4,"h3_10":"8a1e2e68425ffff","h3_11":"8b1e2e68425bfff"},"geometry":{"type":"Polygon","coordinates":[[[20.002129,50.059696],[20.002191,50.059691],[20.002208,50.059816],[20.002149,50.059819],[20.002129,50.059696]]]}},{"type":"Feature","id":"w961013176","properties":{"type":"apartments","levels":5.0,"residential":true,"residents_est":23,"h3_10":"8a1e2e68425ffff","h3_11":"8b1e2e684259fff"},"geometry":{"type":"Polygon","coordinates":[[[20.00224,50.060052],[20.002428,50.060042],[20.002464,50.060256],[20.002271,50.060269],[20.00224,50.060052]]]}},{"type":"Feature","id":"w961013177","properties":{"type":"apartments","levels":5.0,"residential":true,"residents_est":6,"h3_10":"8a1e2e68425ffff","h3_11":"8b1e2e68425dfff"},"geometry":{"type":"Polygon","coordinates":[[[20.002306,50.060474],[20.0025,50.060458],[20.00251,50.06051],[20.002313,50.060524],[20.002306,50.060474]]]}},{"type":"Feature","id":"w1038785995","properties":{"type":"warehouse","levels":1.0,"residential":false,"residents_est":0,"h3_10":"8a1e2e68434ffff","h3_11":"8b1e2e68434efff"},"geometry":{"type":"Polygon","coordinates":[[[19.999968,50.063183],[20.00001,50.063083],[20.000132,50.063105],[20.00009,50.063204],[19.999968,50.063183]]]}},{"type":"Feature","id":"w1038786035","properties":{"type":"detached","levels":1.0,"residential":true,"residents_est":1,"h3_10":"8a1e2e68425ffff","h3_11":"8b1e2e68425efff"},"geometry":{"type":"Polygon","coordinates":[[[20.001155,50.059818],[20.001275,50.059755],[20.001316,50.059786],[20.001196,50.05985],[20.001155,50.059818]]]}},{"type":"Feature","id":"w1038786237","properties":{"type":"outbuilding","levels":1.0,"residential":false,"residents_est":0,"h3_10":"8a1e2e6843a7fff","h3_11":"8b1e2e6843a2fff"},"geometry":{"type":"Polygon","coordinates":[[[19.99084,50.06181],[19.99109,50.061759],[19.991069,50.061716],[19.991118,50.061706],[19.99116,50.061791],[19.990861,50.061852],[19.99084,50.06181]]]}},{"type":"Feature","id":"w1038786261","properties":{"type":"detached","levels":2.0,"residential":true,"residents_est":4,"h3_10":"8a1e2e6843b7fff","h3_11":"8b1e2e6843b5fff"},"geometry":{"type":"Polygon","coordinates":[[[19.990161,50.061812],[19.990322,50.061781],[19.990361,50.061864],[19.990302,50.061875],[19.990311,50.061894],[19.990218,50.061912],[19.990193,50.061858],[19.990183,50.061859],[19.990161,50.061812]]]}},{"type":"Feature","id":"w1038786262","properties":{"type":"detached","levels":2.0,"residential":true,"residents_est":3,"h3_10":"8a1e2e6843b7fff","h3_11":"8b1e2e6843b5fff"},"geometry":{"type":"Polygon","coordinates":[[[19.990322,50.061781],[19.990469,50.061752],[19.990491,50.0618],[19.990482,50.061802],[19.990507,50.061856],[19.990414,50.061874],[19.990405,50.061855],[19.990361,50.061864],[19.990322,50.061781]]]}},{"type":"Feature","id":"w1038786289","properties":{"type":"outbuilding","levels":1.0,"residential":false,"residents_est":0,"h3_10":"8a1e2e6842f7fff","h3_11":"8b1e2e6842f3fff"},"geometry":{"type":"Polygon","coordinates":[[[19.997445,50.058353],[19.997483,50.058308],[19.997732,50.058395],[19.997694,50.058441],[19.997445,50.058353]]]}},{"type":"Feature","id":"w1038786291","properties":{"type":"bungalow","levels":1.0,"residential":true,"residents_est":1,"h3_10":"8a1e2e6842f7fff","h3_11":"8b1e2e6842f4fff"},"geometry":{"type":"Polygon","coordinates":[[[19.996633,50.059236],[19.996662,50.059172],[19.996743,50.059187],[19.996715,50.059251],[19.996633,50.059236]]]}},{"type":"Feature","id":"w1038786292","properties":{"type":"bungalow","levels":1.0,"residential":true,"residents_est":1,"h3_10":"8a1e2e684257fff","h3_11":"8b1e2e684254fff"},"geometry":{"type":"Polygon","coordinates":[[[19.999607,50.060825],[19.999693,50.060791],[19.999756,50.060857],[19.999669,50.060891],[19.999607,50.060825]]]}},{"type":"Feature","id":"w1038786312","properties":{"type":"detached","levels":1.0,"residential":true,"residents_est":1,"h3_10":"8a1e2e6842f7fff","h3_11":"8b1e2e6842f6fff"},"geometry":{"type":"Polygon","coordinates":[[[19.996142,50.058992],[19.996182,50.058958],[19.99621,50.058971],[19.996264,50.058926],[19.996288,50.058938],[19.996312,50.058918],[19.996345,50.058934],[19.996268,50.058999],[19.996237,50.058984],[19.996197,50.059019],[19.996142,50.058992]]]}},{"type":"Feature","id":"w1038786313","properties":{"type":"detached","levels":2.0,"residential":true,"residents_est":4,"h3_10":"8a1e2e6842f7fff","h3_11":"8b1e2e6842f6fff"},"geometry":{"type":"Polygon","coordinates":[[[19.996265,50.058633],[19.996341,50.058578],[19.996529,50.058685],[19.996492,50.058712],[19.996512,50.058723],[19.996472,50.058751],[19.996386,50.058702],[19.996374,50.058711],[19.996348,50.058696],[19.996361,50.058687],[19.996265,50.058633]]]}},{"type":"Feature","id":"w1038786315","properties":{"type":"detached","levels":1.0,"residential":true,"residents_est":0,"h3_10":"8a1e2e6842e7fff","h3_11":"8b1e2e6842e2fff"},"geometry":{"type":"Polygon","coordinates":[[[19.997927,50.059231],[19.997995,50.059169],[19.998052,50.059195],[19.997982,50.059256],[19.997927,50.059231]]]}},{"type":"Feature","id":"w1038786316","properties":{"type":"outbuilding","levels":1.0,"residential":false,"residents_est":0,"h3_10":"8a1e2e6842f7fff","h3_11":"8b1e2e6842f0fff"},"geometry":{"type":"Polygon","coordinates":[[[19.99697,50.058997],[19.997066,50.058914],[19.997096,50.058928],[19.99708,50.058943],[19.997121,50.058961],[19.997043,50.059032],[19.99697,50.058997]]]}},{"type":"Feature","id":"w1038786342","properties":{"type":"outbuilding","levels":1.0,"residential":false,"residents_est":0,"h3_10":"8a1e2e6842f7fff","h3_11":"8b1e2e6842f2fff"},"geometry":{"type":"Polygon","coordinates":[[[19.996581,50.058643],[19.996678,50.05857],[19.996749,50.058607],[19.99665,50.058681],[19.996581,50.058643]]]}},{"type":"Feature","id":"w1038786348","properties":{"type":"detached","levels":1.0,"residential":true,"residents_est":1,"h3_10":"8a1e2e6842e7fff","h3_11":"8b1e2e6842e2fff"},"geometry":{"type":"Polygon","coordinates":[[[19.99785,50.059303],[19.997927,50.059231],[19.997982,50.059256],[19.997905,50.059327],[19.99785,50.059303]]]}},{"type":"Feature","id":"w1038786349","properties":{"type":"warehouse","levels":1.0,"residential":false,"residents_est":0,"h3_10":"8a1e2e6842e7fff","h3_11":"8b1e2e6842e2fff"},"geometry":{"type":"Polygon","coordinates":[[[19.9983,50.059171],[19.998568,50.059082],[19.998647,50.05918],[19.998379,50.059269],[19.9983,50.059171]]]}},{"type":"Feature","id":"w1038786350","properties":{"type":"detached","levels":1.0,"residential":true,"residents_est":1,"h3_10":"8a1e2e6842d7fff","h3_11":"8b1e2e6842d3fff"},"geometry":{"type":"Polygon","coordinates":[[[19.997526,50.057301],[19.997563,50.057232],[19.99768,50.057259],[19.997643,50.057328],[19.997526,50.057301]]]}},{"type":"Feature","id":"w1038786351","properties":{"type":"detached","levels":1.0,"residential":true,"residents_est":0,"h3_10":"8a1e2e6842d7fff","h3_11":"8b1e2e6842d2fff"},"geometry":{"type":"Polygon","coordinates":[[[19.997229,50.057576],[19.997267,50.057524],[19.997355,50.05755],[19.997317,50.057603],[19.997229,50.057576]]]}},{"type":"Feature","id":"w1038786352","properties":{"type":"detached","levels":3.0,"residential":true,"residents_est":5,"h3_10":"8a1e2e6842f7fff","h3_11":"8b1e2e6842f3fff"},"geometry":{"type":"Polygon","coordinates":[[[19.997231,50.058609],[19.997302,50.058524],[19.997451,50.058577],[19.99738,50.058659],[19.997231,50.058609]]]}},{"type":"Feature","id":"w1038786353","properties":{"type":"outbuilding","levels":1.0,"residential":false,"residents_est":0,"h3_10":"8a1e2e6842d7fff","h3_11":"8b1e2e6842d3fff"},"geometry":{"type":"Polygon","coordinates":[[[19.997649,50.057317],[19.99768,50.057259],[19.997758,50.057276],[19.997727,50.057335],[19.997649,50.057317]]]}},{"type":"Feature","id":"w1038786355","properties":{"type":"detached","levels":2.0,"residential":true,"residents_est":3,"h3_10":"8a1e2e6842f7fff","h3_11":"8b1e2e6842f1fff"},"geometry":{"type":"Polygon","coordinates":[[[19.997488,50.0589],[19.997525,50.058864],[19.997499,50.058853],[19.997535,50.05882],[19.997561,50.058831],[19.997592,50.058801],[19.997683,50.058843],[19.997584,50.058939],[19.997488,50.0589]]]}},{"type":"Feature","id":"w1038786356","properties":{"type":"detached","levels":2.0,"residential":true,"residents_est":4,"h3_10":"8a1e2e68428ffff","h3_11":"8b1e2e684289fff"},"geometry":{"type":"Polygon","coordinates":[[[19.99654,50.058299],[19.996655,50.058198],[19.996772,50.05825],[19.996655,50.058354],[19.99654,50.058299]]]}},{"type":"Feature","id":"w1038786357","properties":{"type":"yes","levels":1.0,"residential":true,"residents_est":1,"h3_10":"8a1e2e68421ffff","h3_11":"8b1e2e68421bfff"},"geometry":{"type":"Polygon","coordinates":[[[19.996924,50.059609],[19.996968,50.059512],[19.997162,50.059548],[19.997118,50.059646],[19.997023,50.059628],[19.997021,50.059635],[19.996977,50.059626],[19.99698,50.059619],[19.996924,50.059609]]]}},{"type":"Feature","id":"w1038786359","properties":{"type":"detached","levels":1.0,"residential":false,"residents_est":0,"h3_10":"8a1e2e6842f7fff","h3_11":"8b1e2e6842f0fff"},"geometry":{"type":"Polygon","coordinates":[[[19.997066,50.058914],[19.997106,50.058877],[19.997144,50.058894],[19.997128,50.05891],[19.997121,50.058907],[19.9971,50.058929],[19.997066,50.058914]]]}},{"type":"Feature","id":"w1095281414","properties":{"type":"roof","residential":false,"residents_est":0,"h3_10":"8a1e2e6842e7fff","h3_11":"8b1e2e6842e2fff"},"geometry":{"type":"Polygon","coordinates":[[[19.998379,50.059269],[19.998647,50.05918],[19.998693,50.059237],[19.998425,50.059326],[19.998379,50.059269]]]}},{"type":"Feature","id":"w1095281473","properties":{"type":"yes","residential":true,"residents_est":2,"h3_10":"8a1e2e6842c7fff","h3_11":"8b1e2e6842c2fff"},"geometry":{"type":"Polygon","coordinates":[[[19.998123,50.058132],[19.998196,50.058107],[19.998332,50.058274],[19.998251,50.05829],[19.998123,50.058132]]]}},{"type":"Feature","id":"w1095281474","properties":{"type":"yes","residential":false,"residents_est":0,"h3_10":"8a1e2e6842c7fff","h3_11":"8b1e2e6842c6fff"},"geometry":{"type":"Polygon","coordinates":[[[19.998354,50.058416],[19.998428,50.058391],[19.998465,50.058436],[19.99843,50.058447],[19.998376,50.058443],[19.998354,50.058416]]]}},{"type":"Feature","id":"w1095281476","properties":{"type":"yes","residential":true,"residents_est":1,"h3_10":"8a1e2e6842c7fff","h3_11":"8b1e2e6842c4fff"},"geometry":{"type":"Polygon","coordinates":[[[19.998552,50.05866],[19.998627,50.058634],[19.998681,50.0587],[19.998606,50.058726],[19.998552,50.05866]]]}},{"type":"Feature","id":"w1095281477","properties":{"type":"yes","residential":true,"residents_est":8,"h3_10":"8a1e2e6842e7fff","h3_11":"8b1e2e6842e3fff"},"geometry":{"type":"Polygon","coordinates":[[[19.998756,50.058907],[19.99883,50.058882],[19.999127,50.059246],[19.999051,50.059272],[19.998756,50.058907]]]}},{"type":"Feature","id":"w1176001139","properties":{"type":"roof","residential":false,"residents_est":0,"h3_10":"8a1e2e68432ffff","h3_11":"8b1e2e68432cfff"},"geometry":{"type":"Polygon","coordinates":[[[19.995098,50.064821],[19.995161,50.064674],[19.995423,50.06472],[19.995418,50.064729],[19.995491,50.064742],[19.995436,50.064871],[19.995364,50.064858],[19.99536,50.064867],[19.995098,50.064821]]]}},{"type":"Feature","id":"w1443579763","properties":{"type":"construction","residential":false,"residents_est":0,"h3_10":"8a1e2e68425ffff","h3_11":"8b1e2e68425cfff"},"geometry":{"type":"Polygon","coordinates":[[[20.001276,50.060373],[20.001549,50.060358],[20.001649,50.060513],[20.001552,50.060535],[20.001431,50.060528],[20.001276,50.060373]]]}},{"type":"Feature","id":"w1443579764","properties":{"type":"yes","residential":true,"residents_est":2,"h3_10":"8a1e2e6842d7fff","h3_11":"8b1e2e6842d0fff"},"geometry":{"type":"Polygon","coordinates":[[[19.997291,50.057726],[19.9974,50.05761],[19.997515,50.057654],[19.997406,50.05777],[19.997291,50.057726]]]}},{"type":"Feature","id":"w1509912719","properties":{"type":"yes","residential":true,"residents_est":3,"h3_10":"8a1e2e684267fff","h3_11":"8b1e2e684265fff"},"geometry":{"type":"Polygon","coordinates":[[[20.001539,50.062459],[20.001818,50.062446],[20.001829,50.062537],[20.00155,50.06255],[20.001539,50.062459]]]}},{"type":"Feature","id":"w1509912733","properties":{"type":"yes","residential":false,"residents_est":0,"h3_10":"8a1e2e68435ffff","h3_11":"8b1e2e68435bfff"},"geometry":{"type":"Polygon","coordinates":[[[19.99999,50.062157],[20.000054,50.062151],[20.000062,50.062187],[19.999997,50.062192],[19.99999,50.062157]]]}},{"type":"Feature","id":"w1509912739","properties":{"type":"yes","residential":true,"residents_est":1,"h3_10":"8a1e2e684267fff","h3_11":"8b1e2e684260fff"},"geometry":{"type":"Polygon","coordinates":[[[20.000769,50.062063],[20.000866,50.062057],[20.000877,50.062125],[20.000779,50.062131],[20.000769,50.062063]]]}}]}