{"type":"FeatureCollection","features":[{"type":"Feature","id":"w110159677","properties":{"type":"yes","residential":true,"residents_est":34,"h3_10":"8a1e2e68d19ffff","h3_11":"8b1e2e68d199fff"},"geometry":{"type":"Polygon","coordinates":[[[20.101256,50.045122],[20.102057,50.04485],[20.102098,50.044901],[20.101295,50.045172],[20.101256,50.045122]]]}},{"type":"Feature","id":"w337834029","properties":{"type":"yes","residential":true,"residents_est":9,"h3_10":"8a1e2e68d007fff","h3_11":"8b1e2e68d002fff"},"geometry":{"type":"Polygon","coordinates":[[[20.104955,50.045538],[20.105224,50.045502],[20.105256,50.045602],[20.104987,50.045638],[20.104955,50.045538]]]}},{"type":"Feature","id":"w337834055","properties":{"type":"yes","residential":true,"residents_est":7,"h3_10":"8a1e2e68d02ffff","h3_11":"8b1e2e68d02afff"},"geometry":{"type":"Polygon","coordinates":[[[20.106258,50.046464],[20.106345,50.04645],[20.106351,50.046467],[20.106407,50.046458],[20.106401,50.046441],[20.106458,50.046432],[20.106465,50.046449],[20.10648,50.046447],[20.10651,50.046523],[20.106294,50.046558],[20.106258,50.046464]]]}},{"type":"Feature","id":"w337834075","properties":{"type":"yes","residential":true,"residents_est":26,"h3_10":"8a1e2e68d02ffff","h3_11":"8b1e2e68d02afff"},"geometry":{"type":"Polygon","coordinates":[[[20.106143,50.046222],[20.106427,50.046165],[20.106538,50.04633],[20.106604,50.046442],[20.106537,50.046459],[20.106494,50.046385],[20.106479,50.046388],[20.106439,50.046329],[20.10646,50.046324],[20.106411,50.046248],[20.106171,50.046295],[20.106143,50.046222]]]}},{"type":"Feature","id":"w337834106","properties":{"type":"yes","residential":true,"residents_est":3,"h3_10":"8a1e2e68d18ffff","h3_11":"8b1e2e68d18bfff"},"geometry":{"type":"Polygon","coordinates":[[[20.102407,50.045198],[20.102526,50.045169],[20.102565,50.045237],[20.102447,50.045266],[20.102407,50.045198]]]}},{"type":"Feature","id":"w337834115","properties":{"type":"yes","residential":true,"residents_est":5,"h3_10":"8a1e2e68d01ffff","h3_11":"8b1e2e68d01cfff"},"geometry":{"type":"Polygon","coordinates":[[[20.105406,50.045519],[20.105454,50.045443],[20.105621,50.045485],[20.105573,50.045562],[20.105406,50.045519]]]}},{"type":"Feature","id":"w337834129","properties":{"type":"yes","residential":true,"residents_est":5,"h3_10":"8a1e2e68d017fff","h3_11":"8b1e2e68d010fff"},"geometry":{"type":"Polygon","coordinates":[[[20.104305,50.04533],[20.104508,50.045309],[20.104526,50.045382],[20.104322,50.045402],[20.104305,50.04533]]]}},{"type":"Feature","id":"w337834134","properties":{"type":"apartments","residential":true,"residents_est":31,"h3_10":"8a1e2e68d1b7fff","h3_11":"8b1e2e68d1b6fff"},"geometry":{"type":"Polygon","coordinates":[[[20.097868,50.046542],[20.097988,50.046503],[20.098087,50.046627],[20.097968,50.046667],[20.097868,50.046542]]]}},{"type":"Feature","id":"w337834147","properties":{"type":"yes","residential":true,"residents_est":4,"h3_10":"8a1e2e68d127fff","h3_11":"8b1e2e68d122fff"},"geometry":{"type":"Polygon","coordinates":[[[20.102243,50.049279],[20.102391,50.049248],[20.102433,50.049329],[20.102287,50.049361],[20.102243,50.049279]]]}},{"type":"Feature","id":"w337834183","properties":{"type":"outbuilding","levels":1.0,"residential":false,"residents_est":0,"h3_10":"8a1e2e68d187fff","h3_11":"8b1e2e68d183fff"},"geometry":{"type":"Polygon","coordinates":[[[20.100725,50.045583],[20.100794,50.045581],[20.100801,50.045689],[20.100731,50.045691],[20.100725,50.045583]]]}},{"type":"Feature","id":"w337834194","properties":{"type":"yes","residential":true,"residents_est":3,"h3_10":"8a1e2e68d137fff","h3_11":"8b1e2e68d133fff"},"geometry":{"type":"Polygon","coordinates":[[[20.101418,50.048666],[20.101546,50.048628],[20.101587,50.048685],[20.10146,50.048723],[20.101418,50.048666]]]}},{"type":"Feature","id":"w337834251","properties":{"type":"yes","residential":true,"residents_est":4,"h3_10":"8a1e2e68d127fff","h3_11":"8b1e2e68d121fff"},"geometry":{"type":"Polygon","coordinates":[[[20.103325,50.049745],[20.103331,50.049676],[20.103524,50.049684],[20.103518,50.049752],[20.103325,50.049745]]]}},{"type":"Feature","id":"w337834319","properties":{"type":"office","residential":false,"residents_est":0,"h3_10":"8a1e2e68d187fff","h3_11":"8b1e2e68d182fff"},"geometry":{"type":"Polygon","coordinates":[[[20.099939,50.045582],[20.100087,50.045525],[20.100147,50.045589],[20.099999,50.045647],[20.099939,50.045582]]]}},{"type":"Feature","id":"w337834332","properties":{"type":"yes","residential":true,"residents_est":2,"h3_10":"8a1e2e68d19ffff","h3_11":"8b1e2e68d19dfff"},"geometry":{"type":"Polygon","coordinates":[[[20.100954,50.045278],[20.101066,50.045237],[20.101103,50.045279],[20.100992,50.04532],[20.100954,50.045278]]]}},{"type":"Feature","id":"w337834337","properties":{"type":"yes","residential":true,"residents_est":3,"h3_10":"8a1e2e68d127fff","h3_11":"8b1e2e68d123fff"},"geometry":{"type":"Polygon","coordinates":[[[20.103229,50.049484],[20.103364,50.049434],[20.103413,50.049488],[20.103277,50.049538],[20.103229,50.049484]]]}},{"type":"Feature","id":"w337834366","properties":{"type":"house","levels":1.0,"residential":true,"residents_est":3,"h3_10":"8a1e2e68d187fff","h3_11":"8b1e2e68d183fff"},"geometry":{"type":"Polygon","coordinates":[[[20.100865,50.045533],[20.101006,50.045523],[20.101017,50.045595],[20.100876,50.045605],[20.100865,50.045533]]]}},{"type":"Feature","id":"w337834369","properties":{"type":"yes","residential":true,"residents_est":4,"h3_10":"8a1e2e68d187fff","h3_11":"8b1e2e68d183fff"},"geometry":{"type":"Polygon","coordinates":[[[20.100769,50.045764],[20.100859,50.045759],[20.100874,50.045882],[20.100785,50.045885],[20.100769,50.045764]]]}},{"type":"Feature","id":"w337834375","properties":{"type":"house","residential":true,"residents_est":5,"h3_10":"8a1e2e68d1a7fff","h3_11":"8b1e2e68d1a2fff"},"geometry":{"type":"Polygon","coordinates":[[[20.099678,50.046937],[20.099777,50.046909],[20.099819,50.046969],[20.099719,50.046998],[20.099678,50.046937]]]}},{"type":"Feature","id":"w337834376","properties":{"type":"yes","residential":true,"residents_est":2,"h3_10":"8a1e2e68d127fff","h3_11":"8b1e2e68d122fff"},"geometry":{"type":"Polygon","coordinates":[[[20.10211,50.049198],[20.102195,50.049179],[20.102234,50.049241],[20.10216,50.049258],[20.102146,50.049233],[20.102136,50.049236],[20.10211,50.049198]]]}},{"type":"Feature","id":"w337834381","properties":{"type":"yes","residential":true,"residents_est":2,"h3_10":"8a1e2e68d137fff","h3_11":"8b1e2e68d131fff"},"geometry":{"type":"Polygon","coordinates":[[[20.102152,50.049067],[20.102234,50.04905],[20.102267,50.049117],[20.102186,50.049134],[20.102152,50.049067]]]}},{"type":"Feature","id":"w337834464","properties":{"type":"yes","residential":true,"residents_est":4,"h3_10":"8a1e2e68d127fff","h3_11":"8b1e2e68d124fff"},"geometry":{"type":"Polygon","coordinates":[[[20.102323,50.049976],[20.102324,50.049905],[20.102443,50.049905],[20.102443,50.049884],[20.102492,50.049884],[20.102491,50.049977],[20.102323,50.049976]]]}},{"type":"Feature","id":"w337834517","properties":{"type":"yes","residential":true,"residents_est":5,"h3_10":"8a1e2e68d017fff","h3_11":"8b1e2e68d010fff"},"geometry":{"type":"Polygon","coordinates":[[[20.104146,50.045113],[20.104312,50.045089],[20.104336,50.045165],[20.104277,50.045173],[20.104283,50.045192],[20.104233,50.0452],[20.104225,50.045181],[20.104171,50.045188],[20.104146,50.045113]]]}},{"type":"Feature","id":"w337834541","properties":{"type":"industrial","residential":false,"residents_est":0,"h3_10":"8a1e2e68d18ffff","h3_11":"8b1e2e68d18bfff"},"geometry":{"type":"Polygon","coordinates":[[[20.10236,50.045334],[20.102561,50.045298],[20.102678,50.045564],[20.102478,50.045601],[20.10236,50.045334]]]}},{"type":"Feature","id":"w337834546","properties":{"type":"yes","residential":true,"residents_est":2,"h3_10":"8a1e2e68d01ffff","h3_11":"8b1e2e68d01cfff"},"geometry":{"type":"Polygon","coordinates":[[[20.105224,50.045294],[20.105283,50.045207],[20.105347,50.045225],[20.105287,50.045312],[20.105224,50.045294]]]}},{"type":"Feature","id":"w337834576","properties":{"type":"yes","residential":true,"residents_est":4,"h3_10":"8a1e2e68d127fff","h3_11":"8b1e2e68d120fff"},"geometry":{"type":"Polygon","coordinates":[[[20.102323,50.049796],[20.102329,50.049717],[20.102467,50.049721],[20.10246,50.049822],[20.102412,50.049821],[20.102413,50.049813],[20.102377,50.049812],[20.102378,50.049797],[20.102323,50.049796]]]}},{"type":"Feature","id":"w337834578","properties":{"type":"yes","residential":true,"residents_est":2,"h3_10":"8a1e2e68d017fff","h3_11":"8b1e2e68d012fff"},"geometry":{"type":"Polygon","coordinates":[[[20.103774,50.044959],[20.103891,50.044939],[20.103898,50.044958],[20.103932,50.044952],[20.103949,50.044991],[20.103852,50.045007],[20.103839,50.044976],[20.103785,50.044986],[20.103774,50.044959]]]}},{"type":"Feature","id":"w723687996","properties":{"type":"greenhouse","residential":false,"residents_est":0,"h3_10":"8a1e2e68d107fff","h3_11":"8b1e2e68d104fff"},"geometry":{"type":"Polygon","coordinates":[[[20.102518,50.04901],[20.102623,50.049],[20.102629,50.049028],[20.102524,50.049037],[20.102518,50.04901]]]}},{"type":"Feature","id":"w723687997","properties":{"type":"greenhouse","residential":false,"residents_est":0,"h3_10":"8a1e2e68d107fff","h3_11":"8b1e2e68d104fff"},"geometry":{"type":"Polygon","coordinates":[[[20.102529,50.04905],[20.102638,50.04904],[20.102643,50.049062],[20.102534,50.049072],[20.102529,50.04905]]]}},{"type":"Feature","id":"w723687998","properties":{"type":"greenhouse","residential":false,"residents_est":0,"h3_10":"8a1e2e68d107fff","h3_11":"8b1e2e68d104fff"},"geometry":{"type":"Polygon","coordinates":[[[20.102538,50.049089],[20.102637,50.049077],[20.102644,50.049101],[20.102545,50.049113],[20.102538,50.049089]]]}},{"type":"Feature","id":"w723687999","properties":{"type":"greenhouse","residential":false,"residents_est":0,"h3_10":"8a1e2e68d107fff","h3_11":"8b1e2e68d104fff"},"geometry":{"type":"Polygon","coordinates":[[[20.10255,50.04912],[20.102651,50.04911],[20.102659,50.049141],[20.102557,50.049151],[20.10255,50.04912]]]}},{"type":"Feature","id":"w723688000","properties":{"type":"yes","residential":false,"residents_est":0,"h3_10":"8a1e2e68d107fff","h3_11":"8b1e2e68d104fff"},"geometry":{"type":"Polygon","coordinates":[[[20.102376,50.049089],[20.102449,50.049075],[20.102478,50.049138],[20.102405,50.049152],[20.102376,50.049089]]]}},{"type":"Feature","id":"w723688007","properties":{"type":"yes","residential":false,"residents_est":0,"h3_10":"8a1e2e68d137fff","h3_11":"8b1e2e68d133fff"},"geometry":{"type":"Polygon","coordinates":[[[20.101546,50.048628],[20.101585,50.048616],[20.101626,50.048673],[20.101587,50.048685],[20.101546,50.048628]]]}},{"type":"Feature","id":"w723688009","properties":{"type":"yes","residential":false,"residents_est":0,"h3_10":"8a1e2e68d137fff","h3_11":"8b1e2e68d131fff"},"geometry":{"type":"Polygon","coordinates":[[[20.102234,50.04905],[20.102296,50.049037],[20.102329,50.049104],[20.102267,50.049117],[20.102234,50.04905]]]}},{"type":"Feature","id":"w723688011","properties":{"type":"yes","residential":false,"residents_est":0,"h3_10":"8a1e2e68d127fff","h3_11":"8b1e2e68d125fff"},"geometry":{"type":"Polygon","coordinates":[[[20.103076,50.049933],[20.103077,50.049885],[20.103126,50.049885],[20.103125,50.049933],[20.103076,50.049933]]]}},{"type":"Feature","id":"w723688034","properties":{"type":"yes","residential":false,"residents_est":0,"h3_10":"8a1e2e68d19ffff","h3_11":"8b1e2e68d198fff"},"geometry":{"type":"Polygon","coordinates":[[[20.10053,50.044918],[20.100604,50.044894],[20.100624,50.044919],[20.10055,50.044943],[20.10053,50.044918]]]}},{"type":"Feature","id":"w723688035","properties":{"type":"yes","residential":false,"residents_est":0,"h3_10":"8a1e2e68d19ffff","h3_11":"8b1e2e68d19afff"},"geometry":{"type":"Polygon","coordinates":[[[20.100378,50.044725],[20.100452,50.044699],[20.100472,50.044723],[20.100398,50.044749],[20.100378,50.044725]]]}},{"type":"Feature","id":"w723688036","properties":{"type":"yes","residential":true,"residents_est":3,"h3_10":"8a1e2e68d017fff","h3_11":"8b1e2e68d012fff"},"geometry":{"type":"Polygon","coordinates":[[[20.103717,50.044969],[20.103774,50.044959],[20.103785,50.044986],[20.103839,50.044976],[20.103852,50.045007],[20.103807,50.045015],[20.103817,50.045037],[20.10375,50.045049],[20.103717,50.044969]]]}},{"type":"Feature","id":"w723688038","properties":{"type":"yes","residential":true,"residents_est":3,"h3_10":"8a1e2e68d017fff","h3_11":"8b1e2e68d013fff"},"geometry":{"type":"Polygon","coordinates":[[[20.104312,50.045089],[20.104379,50.04508],[20.104404,50.045155],[20.104336,50.045165],[20.104312,50.045089]]]}},{"type":"Feature","id":"w723688040","properties":{"type":"yes","residential":true,"residents_est":5,"h3_10":"8a1e2e68d01ffff","h3_11":"8b1e2e68d01cfff"},"geometry":{"type":"Polygon","coordinates":[[[20.105304,50.045289],[20.105336,50.045241],[20.10558,50.04531],[20.105545,50.04536],[20.105304,50.045289]]]}},{"type":"Feature","id":"w723688041","properties":{"type":"yes","residential":false,"residents_est":0,"h3_10":"8a1e2e68d007fff","h3_11":"8b1e2e68d002fff"},"geometry":{"type":"Polygon","coordinates":[[[20.105224,50.045502],[20.105268,50.045496],[20.105291,50.045567],[20.105246,50.045573],[20.105224,50.045502]]]}},{"type":"Feature","id":"w723688043","properties":{"type":"yes","residential":false,"residents_est":0,"h3_10":"8a1e2e68d007fff","h3_11":"8b1e2e68d006fff"},"geometry":{"type":"Polygon","coordinates":[[[20.104695,50.045866],[20.104745,50.045857],[20.104765,50.045905],[20.104715,50.045913],[20.104695,50.045866]]]}},{"type":"Feature","id":"w723694682","properties":{"type":"yes","residential":false,"residents_est":0,"h3_10":"8a1e2e68d017fff","h3_11":"8b1e2e68d012fff"},"geometry":{"type":"Polygon","coordinates":[[[20.103295,50.044916],[20.10335,50.044905],[20.103381,50.04497],[20.103326,50.044981],[20.103295,50.044916]]]}},{"type":"Feature","id":"w723694683","properties":{"type":"yes","residential":false,"residents_est":0,"h3_10":"8a1e2e68d017fff","h3_11":"8b1e2e68d012fff"},"geometry":{"type":"Polygon","coordinates":[[[20.103579,50.045121],[20.103686,50.045108],[20.103699,50.045153],[20.103593,50.045166],[20.103579,50.045121]]]}},{"type":"Feature","id":"w723694684","properties":{"type":"yes","residential":false,"residents_est":0,"h3_10":"8a1e2e68d017fff","h3_11":"8b1e2e68d010fff"},"geometry":{"type":"Polygon","coordinates":[[[20.103946,50.045231],[20.104011,50.045219],[20.104024,50.045247],[20.103959,50.045259],[20.103946,50.045231]]]}},{"type":"Feature","id":"w723694685","properties":{"type":"greenhouse","residential":false,"residents_est":0,"h3_10":"8a1e2e68d017fff","h3_11":"8b1e2e68d015fff"},"geometry":{"type":"Polygon","coordinates":[[[20.104391,50.045537],[20.104439,50.045527],[20.104478,50.045602],[20.104431,50.045612],[20.104391,50.045537]]]}},{"type":"Feature","id":"w723694686","properties":{"type":"greenhouse","residential":false,"residents_est":0,"h3_10":"8a1e2e68d017fff","h3_11":"8b1e2e68d010fff"},"geometry":{"type":"Polygon","coordinates":[[[20.104056,50.04544],[20.104099,50.045431],[20.104133,50.045502],[20.10409,50.04551],[20.104056,50.04544]]]}},{"type":"Feature","id":"w1216833740","properties":{"type":"industrial","residential":false,"residents_est":0,"h3_10":"8a1e2e68d18ffff","h3_11":"8b1e2e68d18dfff"},"geometry":{"type":"Polygon","coordinates":[[[20.102526,50.045729],[20.102737,50.04569],[20.102869,50.045993],[20.102658,50.046031],[20.102526,50.045729]]]}},{"type":"Feature","id":"w1299032597","properties":{"type":"yes","residential":false,"residents_est":0,"h3_10":"8a1e2e68d187fff","h3_11":"8b1e2e68d183fff"},"geometry":{"type":"Polygon","coordinates":[[[20.101006,50.045523],[20.101055,50.04552],[20.101066,50.045592],[20.101017,50.045595],[20.101006,50.045523]]]}}]}