{"type":"FeatureCollection","features":[{"type":"Feature","id":"w233371628","properties":{"type":"yes","residential":true,"residents_est":4,"h3_10":"8a1e05b4b85ffff","h3_11":"8b1e05b4b85bfff"},"geometry":{"type":"Polygon","coordinates":[[[19.864753,50.015479],[19.864768,50.015404],[19.864815,50.015407],[19.864818,50.01539],[19.8649,50.015396],[19.864881,50.015507],[19.864868,50.015507],[19.86486,50.015551],[19.864768,50.015546],[19.864779,50.015482],[19.864753,50.015479]]]}},{"type":"Feature","id":"w233372011","properties":{"type":"yes","residential":true,"residents_est":3,"h3_10":"8a1e05b4b85ffff","h3_11":"8b1e05b4b85bfff"},"geometry":{"type":"Polygon","coordinates":[[[19.864699,50.015232],[19.864709,50.015144],[19.864805,50.015149],[19.864806,50.015138],[19.864856,50.01514],[19.86485,50.015197],[19.864842,50.015196],[19.864838,50.015234],[19.864699,50.015232]]]}},{"type":"Feature","id":"w233372216","properties":{"type":"yes","residential":true,"residents_est":5,"h3_10":"8a1e05b4b85ffff","h3_11":"8b1e05b4b85afff"},"geometry":{"type":"Polygon","coordinates":[[[19.863629,50.01526],[19.863642,50.015173],[19.863736,50.015178],[19.863739,50.015166],[19.863865,50.015173],[19.863858,50.015232],[19.863806,50.015228],[19.8638,50.015269],[19.863752,50.015267],[19.863738,50.015274],[19.86372,50.015273],[19.863708,50.015264],[19.863629,50.01526]]]}},{"type":"Feature","id":"w233372563","properties":{"type":"yes","residential":true,"residents_est":6,"h3_10":"8a1e05b4b85ffff","h3_11":"8b1e05b4b85efff"},"geometry":{"type":"Polygon","coordinates":[[[19.863451,50.01582],[19.863458,50.01577],[19.863604,50.015778],[19.863611,50.015727],[19.863661,50.01573],[19.863663,50.015721],[19.863785,50.015728],[19.863777,50.01578],[19.863805,50.015782],[19.863797,50.015841],[19.863451,50.01582]]]}},{"type":"Feature","id":"w233372644","properties":{"type":"yes","residential":true,"residents_est":6,"h3_10":"8a1e05b4b847fff","h3_11":"8b1e05b4b841fff"},"geometry":{"type":"Polygon","coordinates":[[[19.864526,50.016631],[19.864542,50.016539],[19.864736,50.016552],[19.864735,50.016564],[19.864819,50.01657],[19.864806,50.016641],[19.864723,50.016636],[19.864721,50.016646],[19.864652,50.01664],[19.864651,50.016652],[19.864637,50.016659],[19.864602,50.016656],[19.864591,50.016648],[19.864593,50.016636],[19.864526,50.016631]]]}},{"type":"Feature","id":"w233372671","properties":{"type":"yes","residential":true,"residents_est":5,"h3_10":"8a1e05b4b85ffff","h3_11":"8b1e05b4b858fff"},"geometry":{"type":"Polygon","coordinates":[[[19.864161,50.015606],[19.864169,50.015567],[19.864318,50.015578],[19.864296,50.015677],[19.864311,50.015679],[19.864301,50.015738],[19.864208,50.015731],[19.864218,50.015671],[19.864227,50.015672],[19.864229,50.015658],[19.864169,50.015653],[19.864175,50.015616],[19.864161,50.015606]]]}},{"type":"Feature","id":"w233373014","properties":{"type":"yes","residential":true,"residents_est":16,"h3_10":"8a1e05b4b84ffff","h3_11":"8b1e05b4b84efff"},"geometry":{"type":"Polygon","coordinates":[[[19.864955,50.016603],[19.864982,50.016463],[19.865205,50.016481],[19.865168,50.016681],[19.865081,50.016671],[19.865079,50.016657],[19.865101,50.016552],[19.865073,50.01655],[19.864997,50.016619],[19.864969,50.016618],[19.864955,50.016603]]]}},{"type":"Feature","id":"w233373458","properties":{"type":"yes","residential":false,"residents_est":0,"h3_10":"8a1e05b4b84ffff","h3_11":"8b1e05b4b849fff"},"geometry":{"type":"Polygon","coordinates":[[[19.866559,50.016455],[19.866566,50.016415],[19.866661,50.016421],[19.866655,50.016462],[19.866559,50.016455]]]}},{"type":"Feature","id":"w233374013","properties":{"type":"yes","residential":true,"residents_est":2,"h3_10":"8a1e05b4b85ffff","h3_11":"8b1e05b4b858fff"},"geometry":{"type":"Polygon","coordinates":[[[19.864419,50.015738],[19.864433,50.015658],[19.864545,50.015666],[19.864531,50.015747],[19.864419,50.015738]]]}},{"type":"Feature","id":"w233374290","properties":{"type":"yes","residential":false,"residents_est":0,"h3_10":"8a1e05b4b85ffff","h3_11":"8b1e05b4b859fff"},"geometry":{"type":"Polygon","coordinates":[[[19.86519,50.01579],[19.865203,50.015717],[19.865264,50.015722],[19.86525,50.015795],[19.86519,50.01579]]]}},{"type":"Feature","id":"w233374635","properties":{"type":"yes","residential":true,"residents_est":3,"h3_10":"8a1e05b4b85ffff","h3_11":"8b1e05b4b85bfff"},"geometry":{"type":"Polygon","coordinates":[[[19.864291,50.015447],[19.864299,50.015355],[19.864451,50.01536],[19.864443,50.015453],[19.864291,50.015447]]]}},{"type":"Feature","id":"w233374748","properties":{"type":"yes","residential":true,"residents_est":1,"h3_10":"8a1e05b4b85ffff","h3_11":"8b1e05b4b85afff"},"geometry":{"type":"Polygon","coordinates":[[[19.864109,50.015356],[19.864122,50.015299],[19.864209,50.015307],[19.864197,50.015364],[19.864109,50.015356]]]}},{"type":"Feature","id":"w233374786","properties":{"type":"yes","residential":true,"residents_est":3,"h3_10":"8a1e05b4b85ffff","h3_11":"8b1e05b4b85dfff"},"geometry":{"type":"Polygon","coordinates":[[[19.864312,50.01618],[19.864328,50.016101],[19.864488,50.016114],[19.864471,50.016194],[19.864312,50.01618]]]}},{"type":"Feature","id":"w233374940","properties":{"type":"house","levels":3.0,"address":"Batalionów Chłopskich 34b","residential":true,"residents_est":8,"h3_10":"8a1e05b4b84ffff","h3_11":"8b1e05b4b84afff"},"geometry":{"type":"Polygon","coordinates":[[[19.86558,50.016045],[19.865594,50.015948],[19.865721,50.015956],[19.865711,50.016036],[19.865624,50.016031],[19.865622,50.016047],[19.86558,50.016045]]]}},{"type":"Feature","id":"w233374946","properties":{"type":"yes","residential":true,"residents_est":3,"h3_10":"8a1e05b4b84ffff","h3_11":"8b1e05b4b84dfff"},"geometry":{"type":"Polygon","coordinates":[[[19.866283,50.016741],[19.86631,50.016636],[19.866416,50.016648],[19.866389,50.016752],[19.866283,50.016741]]]}},{"type":"Feature","id":"w233375332","properties":{"type":"yes","residential":true,"residents_est":3,"h3_10":"8a1e05b4b8cffff","h3_11":"8b1e05b4b8ccfff"},"geometry":{"type":"Polygon","coordinates":[[[19.862572,50.014409],[19.862591,50.01431],[19.862661,50.014316],[19.862642,50.014415],[19.862572,50.014409]]]}},{"type":"Feature","id":"w233376287","properties":{"type":"yes","address":"Batalionów Chłopskich 32b","residential":true,"residents_est":5,"h3_10":"8a1e05b4b84ffff","h3_11":"8b1e05b4b849fff"},"geometry":{"type":"Polygon","coordinates":[[[19.866541,50.016414],[19.866565,50.016257],[19.866704,50.016266],[19.866679,50.016423],[19.866541,50.016414]]]}},{"type":"Feature","id":"w233377183","properties":{"type":"yes","residential":true,"residents_est":7,"h3_10":"8a1e05b4b84ffff","h3_11":"8b1e05b4b848fff"},"geometry":{"type":"Polygon","coordinates":[[[19.865337,50.016672],[19.865365,50.016534],[19.865451,50.016541],[19.865455,50.016517],[19.865502,50.016521],[19.865498,50.016546],[19.86558,50.016553],[19.865551,50.01669],[19.865337,50.016672]]]}},{"type":"Feature","id":"w233377261","properties":{"type":"yes","residential":true,"residents_est":4,"h3_10":"8a1e05b4b847fff","h3_11":"8b1e05b4b846fff"},"geometry":{"type":"Polygon","coordinates":[[[19.862884,50.016762],[19.862913,50.016609],[19.863005,50.016616],[19.863002,50.016634],[19.863044,50.016638],[19.86303,50.016714],[19.863011,50.016712],[19.862999,50.016771],[19.862884,50.016762]]]}},{"type":"Feature","id":"w233377323","properties":{"type":"yes","residential":true,"residents_est":3,"h3_10":"8a1e05b4b85ffff","h3_11":"8b1e05b4b85dfff"},"geometry":{"type":"Polygon","coordinates":[[[19.864645,50.016115],[19.864661,50.016028],[19.864796,50.016038],[19.86478,50.016124],[19.86473,50.01612],[19.864728,50.016132],[19.864697,50.01613],[19.864699,50.016119],[19.864645,50.016115]]]}},{"type":"Feature","id":"w233377485","properties":{"type":"yes","residential":true,"residents_est":4,"h3_10":"8a1e05b4b85ffff","h3_11":"8b1e05b4b859fff"},"geometry":{"type":"Polygon","coordinates":[[[19.864952,50.0158],[19.864968,50.015703],[19.865019,50.015707],[19.86502,50.015697],[19.865098,50.015703],[19.865097,50.015712],[19.865147,50.015715],[19.86513,50.015813],[19.864952,50.0158]]]}},{"type":"Feature","id":"w233377630","properties":{"type":"yes","residential":true,"residents_est":6,"h3_10":"8a1e05b4b84ffff","h3_11":"8b1e05b4b84bfff"},"geometry":{"type":"Polygon","coordinates":[[[19.866023,50.016236],[19.866045,50.016118],[19.866166,50.016127],[19.866154,50.016194],[19.866245,50.016201],[19.866231,50.016278],[19.86604,50.016263],[19.866045,50.016237],[19.866023,50.016236]]]}},{"type":"Feature","id":"w233377634","properties":{"type":"yes","residential":true,"residents_est":5,"h3_10":"8a1e05b4b877fff","h3_11":"8b1e05b4b873fff"},"geometry":{"type":"Polygon","coordinates":[[[19.862531,50.01676],[19.862562,50.016606],[19.862654,50.016614],[19.862651,50.016633],[19.862692,50.016636],[19.862677,50.016713],[19.862659,50.016711],[19.862647,50.01677],[19.862531,50.01676]]]}},{"type":"Feature","id":"w233378192","properties":{"type":"yes","residential":true,"residents_est":7,"h3_10":"8a1e05b4b847fff","h3_11":"8b1e05b4b844fff"},"geometry":{"type":"Polygon","coordinates":[[[19.863623,50.017085],[19.863634,50.017023],[19.863668,50.017025],[19.863691,50.016912],[19.863856,50.016925],[19.863838,50.017021],[19.863824,50.017021],[19.863808,50.017098],[19.863623,50.017085]]]}},{"type":"Feature","id":"w431935772","properties":{"type":"house","residential":true,"residents_est":9,"h3_10":"8a1e05b4b857fff","h3_11":"8b1e05b4b850fff"},"geometry":{"type":"Polygon","coordinates":[[[19.862576,50.0161],[19.862585,50.016041],[19.862635,50.016044],[19.862638,50.016021],[19.862663,50.016023],[19.862666,50.015997],[19.8628,50.016006],[19.862786,50.016112],[19.862576,50.0161]]]}},{"type":"Feature","id":"w431935774","properties":{"type":"house","residential":true,"residents_est":9,"h3_10":"8a1e05b4b857fff","h3_11":"8b1e05b4b853fff"},"geometry":{"type":"Polygon","coordinates":[[[19.862609,50.015867],[19.862618,50.015808],[19.862669,50.015811],[19.862672,50.015789],[19.862696,50.015791],[19.8627,50.015765],[19.862834,50.015773],[19.862817,50.01588],[19.862609,50.015867]]]}},{"type":"Feature","id":"w431935776","properties":{"type":"house","residential":true,"residents_est":9,"h3_10":"8a1e05b4b857fff","h3_11":"8b1e05b4b853fff"},"geometry":{"type":"Polygon","coordinates":[[[19.862644,50.015623],[19.862652,50.015562],[19.862701,50.015565],[19.862704,50.015542],[19.86273,50.015543],[19.862733,50.015518],[19.862868,50.015525],[19.862853,50.015635],[19.862644,50.015623]]]}},{"type":"Feature","id":"w431935777","properties":{"type":"house","residential":true,"residents_est":9,"h3_10":"8a1e05b4b8effff","h3_11":"8b1e05b4b8ecfff"},"geometry":{"type":"Polygon","coordinates":[[[19.862678,50.015375],[19.862686,50.015316],[19.862737,50.015319],[19.86274,50.015297],[19.862764,50.015298],[19.862768,50.015272],[19.862904,50.015279],[19.86289,50.015387],[19.862678,50.015375]]]}},{"type":"Feature","id":"w431935779","properties":{"type":"house","residential":true,"residents_est":9,"h3_10":"8a1e05b4b8effff","h3_11":"8b1e05b4b8e8fff"},"geometry":{"type":"Polygon","coordinates":[[[19.862711,50.015129],[19.86272,50.015069],[19.862771,50.015072],[19.862774,50.01505],[19.862799,50.015051],[19.862802,50.015026],[19.862936,50.015034],[19.862922,50.015141],[19.862711,50.015129]]]}},{"type":"Feature","id":"w431935781","properties":{"type":"house","residential":true,"residents_est":9,"h3_10":"8a1e05b4b8effff","h3_11":"8b1e05b4b8e8fff"},"geometry":{"type":"Polygon","coordinates":[[[19.862745,50.014882],[19.862753,50.014823],[19.862805,50.014826],[19.862808,50.014804],[19.862833,50.014805],[19.862836,50.014779],[19.86297,50.014786],[19.862956,50.014894],[19.862745,50.014882]]]}},{"type":"Feature","id":"w431935782","properties":{"type":"house","residential":true,"residents_est":5,"h3_10":"8a1e05b4b85ffff","h3_11":"8b1e05b4b85efff"},"geometry":{"type":"Polygon","coordinates":[[[19.863661,50.015596],[19.863668,50.015554],[19.863684,50.015555],[19.863687,50.015536],[19.863803,50.015543],[19.863796,50.015637],[19.863674,50.015629],[19.863679,50.015597],[19.863661,50.015596]]]}},{"type":"Feature","id":"w431935791","properties":{"type":"house","residential":true,"residents_est":4,"h3_10":"8a1e05b4b867fff","h3_11":"8b1e05b4b861fff"},"geometry":{"type":"Polygon","coordinates":[[[19.863965,50.01787],[19.863982,50.017788],[19.864089,50.017797],[19.864074,50.017878],[19.863965,50.01787]]]}},{"type":"Feature","id":"w431935793","properties":{"type":"yes","residential":true,"residents_est":1,"h3_10":"8a1e05b4b867fff","h3_11":"8b1e05b4b860fff"},"geometry":{"type":"Polygon","coordinates":[[[19.863872,50.017862],[19.863885,50.017799],[19.863978,50.017806],[19.863965,50.01787],[19.863872,50.017862]]]}},{"type":"Feature","id":"w431935794","properties":{"type":"house","address":"Józefa Unruga 102","residential":true,"residents_est":9,"h3_10":"8a1e05b4b877fff","h3_11":"8b1e05b4b870fff"},"geometry":{"type":"Polygon","coordinates":[[[19.862415,50.017339],[19.862445,50.017185],[19.862536,50.017193],[19.862532,50.017212],[19.862575,50.017215],[19.86256,50.017291],[19.862543,50.01729],[19.862532,50.017348],[19.862415,50.017339]]]}},{"type":"Feature","id":"w431935796","properties":{"type":"house","residential":true,"residents_est":8,"h3_10":"8a1e05b4b877fff","h3_11":"8b1e05b4b871fff"},"geometry":{"type":"Polygon","coordinates":[[[19.862775,50.017341],[19.862802,50.017189],[19.862894,50.017195],[19.862891,50.017215],[19.862932,50.017218],[19.862919,50.017294],[19.862898,50.017293],[19.862888,50.017349],[19.862775,50.017341]]]}},{"type":"Feature","id":"w431935798","properties":{"type":"house","residential":true,"residents_est":5,"h3_10":"8a1e05b4b847fff","h3_11":"8b1e05b4b844fff"},"geometry":{"type":"Polygon","coordinates":[[[19.86328,50.017266],[19.863295,50.017192],[19.863336,50.017194],[19.863341,50.017176],[19.863429,50.017184],[19.863409,50.017276],[19.86328,50.017266]]]}},{"type":"Feature","id":"w431935799","properties":{"type":"yes","residential":true,"residents_est":2,"h3_10":"8a1e05b4b847fff","h3_11":"8b1e05b4b844fff"},"geometry":{"type":"Polygon","coordinates":[[[19.863289,50.017326],[19.863301,50.017268],[19.863409,50.017276],[19.863401,50.017334],[19.863289,50.017326]]]}},{"type":"Feature","id":"w431935801","properties":{"type":"house","residential":true,"residents_est":7,"h3_10":"8a1e05b4b877fff","h3_11":"8b1e05b4b873fff"},"geometry":{"type":"Polygon","coordinates":[[[19.862483,50.016997],[19.862509,50.016873],[19.862599,50.016881],[19.862595,50.016898],[19.862638,50.016902],[19.862622,50.016979],[19.862604,50.016977],[19.862597,50.017007],[19.862483,50.016997]]]}},{"type":"Feature","id":"w431935803","properties":{"type":"yes","residential":true,"residents_est":1,"h3_10":"8a1e05b4b877fff","h3_11":"8b1e05b4b873fff"},"geometry":{"type":"Polygon","coordinates":[[[19.862472,50.017047],[19.862483,50.016997],[19.862597,50.017007],[19.862587,50.017057],[19.862472,50.017047]]]}},{"type":"Feature","id":"w431935805","properties":{"type":"house","residential":true,"residents_est":7,"h3_10":"8a1e05b4b877fff","h3_11":"8b1e05b4b871fff"},"geometry":{"type":"Polygon","coordinates":[[[19.86289,50.017021],[19.862912,50.016911],[19.862955,50.016915],[19.862956,50.016905],[19.863001,50.016908],[19.863,50.016918],[19.863043,50.016922],[19.863022,50.017032],[19.86289,50.017021]]]}},{"type":"Feature","id":"w431935807","properties":{"type":"yes","residential":true,"residents_est":2,"h3_10":"8a1e05b4b877fff","h3_11":"8b1e05b4b871fff"},"geometry":{"type":"Polygon","coordinates":[[[19.862887,50.01708],[19.862898,50.017023],[19.863015,50.017031],[19.863004,50.017089],[19.862887,50.01708]]]}},{"type":"Feature","id":"w431935809","properties":{"type":"house","residential":true,"residents_est":9,"h3_10":"8a1e05b4b847fff","h3_11":"8b1e05b4b846fff"},"geometry":{"type":"Polygon","coordinates":[[[19.863348,50.016802],[19.863359,50.016746],[19.86335,50.016744],[19.86337,50.01664],[19.863413,50.016644],[19.863428,50.016636],[19.863488,50.01665],[19.863482,50.016684],[19.863504,50.016685],[19.863498,50.016723],[19.863492,50.016723],[19.863485,50.016756],[19.863463,50.016755],[19.863453,50.01681],[19.863348,50.016802]]]}},{"type":"Feature","id":"w431935811","properties":{"type":"house","address":"Józefa Unruga 86a","residential":true,"residents_est":10,"h3_10":"8a1e05b4b847fff","h3_11":"8b1e05b4b842fff"},"geometry":{"type":"Polygon","coordinates":[[[19.863759,50.016527],[19.863775,50.016438],[19.863801,50.016439],[19.863807,50.016407],[19.863916,50.016416],[19.863909,50.016454],[19.8639,50.016454],[19.863892,50.016501],[19.863947,50.016505],[19.863934,50.016573],[19.86381,50.016564],[19.863815,50.016531],[19.863759,50.016527]]]}},{"type":"Feature","id":"w702649272","properties":{"type":"yes","residential":true,"residents_est":34,"h3_10":"8a1e05b4b947fff","h3_11":"8b1e05b4b940fff"},"geometry":{"type":"Polygon","coordinates":[[[19.86151,50.019397],[19.861701,50.019048],[19.861886,50.01909],[19.861694,50.019439],[19.86151,50.019397]]]}},{"type":"Feature","id":"w702649273","properties":{"type":"yes","residential":true,"residents_est":17,"h3_10":"8a1e05b4b947fff","h3_11":"8b1e05b4b946fff"},"geometry":{"type":"Polygon","coordinates":[[[19.860807,50.019276],[19.861217,50.019167],[19.861266,50.019243],[19.860856,50.019352],[19.860807,50.019276]]]}},{"type":"Feature","id":"w702649294","properties":{"type":"garage","residential":false,"residents_est":0,"h3_10":"8a1e05b4b85ffff","h3_11":"8b1e05b4b85bfff"},"geometry":{"type":"Polygon","coordinates":[[[19.864523,50.015289],[19.864529,50.01524],[19.864576,50.015243],[19.86457,50.015291],[19.864523,50.015289]]]}},{"type":"Feature","id":"w702649297","properties":{"type":"yes","residential":true,"residents_est":1,"h3_10":"8a1e05b4b85ffff","h3_11":"8b1e05b4b85efff"},"geometry":{"type":"Polygon","coordinates":[[[19.863622,50.015863],[19.863626,50.01583],[19.863794,50.01584],[19.863789,50.015873],[19.863622,50.015863]]]}},{"type":"Feature","id":"w702649312","properties":{"type":"garage","residential":false,"residents_est":0,"h3_10":"8a1e05b4b84ffff","h3_11":"8b1e05b4b84bfff"},"geometry":{"type":"Polygon","coordinates":[[[19.866162,50.015951],[19.866168,50.0159],[19.866224,50.015903],[19.866218,50.015954],[19.866162,50.015951]]]}},{"type":"Feature","id":"w702649315","properties":{"type":"yes","residential":true,"residents_est":4,"h3_10":"8a1e05b4b84ffff","h3_11":"8b1e05b4b848fff"},"geometry":{"type":"Polygon","coordinates":[[[19.865906,50.01662],[19.865917,50.016576],[19.865939,50.016578],[19.865943,50.016562],[19.866196,50.016587],[19.866182,50.016647],[19.865906,50.01662]]]}},{"type":"Feature","id":"w702649316","properties":{"type":"residential","residential":true,"residents_est":20,"h3_10":"8a1e05b4b84ffff","h3_11":"8b1e05b4b84dfff"},"geometry":{"type":"Polygon","coordinates":[[[19.865856,50.016838],[19.865871,50.01677],[19.865884,50.016771],[19.865891,50.016743],[19.866003,50.016754],[19.866005,50.016746],[19.8661,50.016755],[19.866076,50.016859],[19.865856,50.016838]]]}},{"type":"Feature","id":"w702649317","properties":{"type":"residential","residential":true,"residents_est":15,"h3_10":"8a1e05b4b877fff","h3_11":"8b1e05b4b870fff"},"geometry":{"type":"Polygon","coordinates":[[[19.861841,50.017348],[19.861853,50.017287],[19.861868,50.017287],[19.86187,50.017279],[19.861904,50.017282],[19.861902,50.01729],[19.861994,50.017297],[19.861996,50.017289],[19.86203,50.017292],[19.862029,50.0173],[19.862083,50.017305],[19.86207,50.017366],[19.862018,50.017361],[19.862016,50.01737],[19.861982,50.017367],[19.861984,50.017359],[19.86195,50.017356],[19.861948,50.017365],[19.861914,50.017362],[19.861916,50.017354],[19.861891,50.017352],[19.861889,50.01736],[19.861855,50.017357],[19.861857,50.017349],[19.861841,50.017348]]]}},{"type":"Feature","id":"w702649319","properties":{"type":"yes","residential":false,"residents_est":0,"h3_10":"8a1e05b4b95ffff","h3_11":"8b1e05b4b95cfff"},"geometry":{"type":"Polygon","coordinates":[[[19.861852,50.018673],[19.861861,50.018628],[19.861923,50.018633],[19.861913,50.018679],[19.861852,50.018673]]]}},{"type":"Feature","id":"w702649320","properties":{"type":"residential","residential":true,"residents_est":15,"h3_10":"8a1e05b4b95ffff","h3_11":"8b1e05b4b958fff"},"geometry":{"type":"Polygon","coordinates":[[[19.861696,50.018117],[19.861708,50.018055],[19.861725,50.018056],[19.861727,50.018049],[19.861758,50.018051],[19.861757,50.018059],[19.861851,50.018066],[19.861852,50.018058],[19.861885,50.018061],[19.861884,50.018069],[19.861938,50.018073],[19.861926,50.018134],[19.861874,50.01813],[19.861872,50.018138],[19.861806,50.018125],[19.861804,50.018133],[19.86177,50.018131],[19.861771,50.018123],[19.861747,50.018121],[19.861746,50.018129],[19.86171,50.018126],[19.861711,50.018118],[19.861696,50.018117]]]}},{"type":"Feature","id":"w702649321","properties":{"type":"residential","residential":true,"residents_est":15,"h3_10":"8a1e05b4b95ffff","h3_11":"8b1e05b4b95afff"},"geometry":{"type":"Polygon","coordinates":[[[19.861726,50.017964],[19.861739,50.017902],[19.861753,50.017903],[19.861755,50.017895],[19.861789,50.017898],[19.861787,50.017906],[19.861879,50.017913],[19.861881,50.017905],[19.861916,50.017908],[19.861914,50.017916],[19.861968,50.017921],[19.861956,50.017982],[19.861903,50.017978],[19.861901,50.017986],[19.861867,50.017983],[19.861869,50.017975],[19.861835,50.017972],[19.861833,50.017981],[19.8618,50.017978],[19.861801,50.01797],[19.861776,50.017968],[19.861774,50.017976],[19.86174,50.017973],[19.861742,50.017965],[19.861726,50.017964]]]}},{"type":"Feature","id":"w702649322","properties":{"type":"residential","residential":true,"residents_est":15,"h3_10":"8a1e05b4b95ffff","h3_11":"8b1e05b4b95afff"},"geometry":{"type":"Polygon","coordinates":[[[19.861755,50.01781],[19.861767,50.017748],[19.861781,50.017749],[19.861783,50.017741],[19.861817,50.017744],[19.861815,50.017752],[19.861907,50.017759],[19.861909,50.017751],[19.861944,50.017754],[19.861942,50.017762],[19.861996,50.017767],[19.861984,50.017828],[19.861931,50.017823],[19.861929,50.017832],[19.861895,50.017829],[19.861897,50.017821],[19.861863,50.017818],[19.861861,50.017827],[19.861828,50.017824],[19.861829,50.017816],[19.861804,50.017814],[19.861802,50.017822],[19.861768,50.017819],[19.86177,50.017811],[19.861755,50.01781]]]}},{"type":"Feature","id":"w702649323","properties":{"type":"residential","residential":true,"residents_est":15,"h3_10":"8a1e05b4b877fff","h3_11":"8b1e05b4b874fff"},"geometry":{"type":"Polygon","coordinates":[[[19.861786,50.017655],[19.861798,50.017593],[19.861813,50.017594],[19.861815,50.017586],[19.861849,50.017589],[19.861847,50.017597],[19.861939,50.017605],[19.861941,50.017596],[19.861975,50.017599],[19.861974,50.017607],[19.862027,50.017612],[19.862015,50.017673],[19.861963,50.017669],[19.861961,50.017677],[19.861927,50.017674],[19.861928,50.017666],[19.861894,50.017664],[19.861893,50.017672],[19.861859,50.017669],[19.861861,50.017661],[19.861836,50.017659],[19.861834,50.017667],[19.8618,50.017664],[19.861801,50.017656],[19.861786,50.017655]]]}},{"type":"Feature","id":"w702649324","properties":{"type":"yes","residential":true,"residents_est":5,"h3_10":"8a1e05b4b857fff","h3_11":"8b1e05b4b854fff"},"geometry":{"type":"Polygon","coordinates":[[[19.862291,50.016442],[19.862327,50.016294],[19.862469,50.016309],[19.862432,50.016457],[19.862291,50.016442]]]}},{"type":"Feature","id":"w702649325","properties":{"type":"yes","residential":true,"residents_est":4,"h3_10":"8a1e05b4b877fff","h3_11":"8b1e05b4b873fff"},"geometry":{"type":"Polygon","coordinates":[[[19.862194,50.016763],[19.862205,50.016695],[19.862426,50.016708],[19.862415,50.016777],[19.862194,50.016763]]]}},{"type":"Feature","id":"w702649326","properties":{"type":"residential","residential":true,"residents_est":15,"h3_10":"8a1e05b4b877fff","h3_11":"8b1e05b4b870fff"},"geometry":{"type":"Polygon","coordinates":[[[19.861871,50.017194],[19.861883,50.017131],[19.861898,50.017132],[19.861899,50.017124],[19.861933,50.017127],[19.861932,50.017135],[19.862024,50.017142],[19.862025,50.017134],[19.86206,50.017137],[19.862058,50.017145],[19.862112,50.01715],[19.8621,50.017213],[19.862047,50.017208],[19.862046,50.017216],[19.86201,50.017213],[19.862012,50.017206],[19.86198,50.017203],[19.861978,50.017211],[19.861944,50.017208],[19.861946,50.0172],[19.86192,50.017198],[19.861919,50.017206],[19.861884,50.017203],[19.861885,50.017195],[19.861871,50.017194]]]}},{"type":"Feature","id":"w702649327","properties":{"type":"residential","residential":true,"residents_est":15,"h3_10":"8a1e05b4b877fff","h3_11":"8b1e05b4b874fff"},"geometry":{"type":"Polygon","coordinates":[[[19.861814,50.017502],[19.861826,50.01744],[19.861841,50.017441],[19.861843,50.017433],[19.861877,50.017436],[19.861875,50.017444],[19.861967,50.017451],[19.861969,50.017443],[19.862003,50.017446],[19.862002,50.017454],[19.862055,50.017458],[19.862043,50.01752],[19.861991,50.017516],[19.861989,50.017524],[19.861955,50.017521],[19.861956,50.017513],[19.861922,50.01751],[19.861921,50.017519],[19.861887,50.017516],[19.861889,50.017508],[19.861863,50.017506],[19.861862,50.017514],[19.861828,50.017511],[19.861829,50.017503],[19.861814,50.017502]]]}},{"type":"Feature","id":"w702649328","properties":{"type":"yes","residential":false,"residents_est":0,"h3_10":"8a1e05b4b85ffff","h3_11":"8b1e05b4b85cfff"},"geometry":{"type":"Polygon","coordinates":[[[19.864273,50.016177],[19.864289,50.016097],[19.864328,50.016101],[19.864312,50.01618],[19.864273,50.016177]]]}},{"type":"Feature","id":"w702649329","properties":{"type":"yes","residential":false,"residents_est":0,"h3_10":"8a1e05b4b85ffff","h3_11":"8b1e05b4b85dfff"},"geometry":{"type":"Polygon","coordinates":[[[19.864387,50.016106],[19.864392,50.016081],[19.864493,50.01609],[19.864488,50.016114],[19.864387,50.016106]]]}},{"type":"Feature","id":"w702649331","properties":{"type":"yes","residential":true,"residents_est":5,"h3_10":"8a1e05b4b857fff","h3_11":"8b1e05b4b855fff"},"geometry":{"type":"Polygon","coordinates":[[[19.862653,50.016474],[19.862664,50.016418],[19.862657,50.016418],[19.862664,50.016385],[19.862655,50.016384],[19.862665,50.016337],[19.862699,50.01634],[19.862704,50.016313],[19.862807,50.016321],[19.862801,50.016349],[19.862811,50.01635],[19.862802,50.016395],[19.862797,50.016394],[19.86279,50.016429],[19.862783,50.016429],[19.862773,50.016484],[19.862653,50.016474]]]}},{"type":"Feature","id":"w702649332","properties":{"type":"yes","residential":true,"residents_est":4,"h3_10":"8a1e05b4b847fff","h3_11":"8b1e05b4b844fff"},"geometry":{"type":"Polygon","coordinates":[[[19.863588,50.017319],[19.863608,50.01721],[19.863723,50.017219],[19.863703,50.017328],[19.863692,50.017327],[19.863685,50.017361],[19.863591,50.017354],[19.863598,50.017321],[19.863588,50.017319]]]}},{"type":"Feature","id":"w702649333","properties":{"type":"yes","residential":true,"residents_est":4,"h3_10":"8a1e05b4b877fff","h3_11":"8b1e05b4b875fff"},"geometry":{"type":"Polygon","coordinates":[[[19.862763,50.017591],[19.862772,50.017546],[19.862789,50.017548],[19.862795,50.017516],[19.862914,50.017526],[19.8629,50.017596],[19.862913,50.017597],[19.8629,50.017658],[19.862771,50.017648],[19.862782,50.017593],[19.862763,50.017591]]]}},{"type":"Feature","id":"w702649334","properties":{"type":"yes","address":"Józefa Unruga 104","residential":true,"residents_est":4,"h3_10":"8a1e05b4b877fff","h3_11":"8b1e05b4b875fff"},"geometry":{"type":"Polygon","coordinates":[[[19.862364,50.017615],[19.862391,50.017463],[19.862482,50.01747],[19.862477,50.01749],[19.862518,50.017492],[19.862505,50.017567],[19.862486,50.017566],[19.862476,50.017624],[19.862364,50.017615]]]}},{"type":"Feature","id":"w702649335","properties":{"type":"yes","residential":true,"residents_est":4,"h3_10":"8a1e05b4b95ffff","h3_11":"8b1e05b4b95bfff"},"geometry":{"type":"Polygon","coordinates":[[[19.862302,50.017885],[19.862329,50.017745],[19.862456,50.017755],[19.86243,50.017895],[19.862302,50.017885]]]}},{"type":"Feature","id":"w702649336","properties":{"type":"yes","residential":true,"residents_est":4,"h3_10":"8a1e05b4b867fff","h3_11":"8b1e05b4b862fff"},"geometry":{"type":"Polygon","coordinates":[[[19.863225,50.017547],[19.863242,50.017472],[19.863283,50.017476],[19.863285,50.017457],[19.863377,50.017463],[19.863348,50.017616],[19.863233,50.017607],[19.863243,50.01755],[19.863225,50.017547]]]}},{"type":"Feature","id":"w702649337","properties":{"type":"yes","residential":true,"residents_est":5,"h3_10":"8a1e05b4b867fff","h3_11":"8b1e05b4b862fff"},"geometry":{"type":"Polygon","coordinates":[[[19.863571,50.017634],[19.863601,50.017482],[19.863728,50.017493],[19.863698,50.017644],[19.863571,50.017634]]]}},{"type":"Feature","id":"w702649338","properties":{"type":"yes","residential":true,"residents_est":5,"h3_10":"8a1e05b4b867fff","h3_11":"8b1e05b4b866fff"},"geometry":{"type":"Polygon","coordinates":[[[19.863077,50.017907],[19.863089,50.017843],[19.863172,50.017849],[19.863176,50.017832],[19.863226,50.017836],[19.863223,50.017852],[19.863332,50.01786],[19.863317,50.017942],[19.863158,50.01793],[19.863161,50.017913],[19.863077,50.017907]]]}},{"type":"Feature","id":"w702649339","properties":{"type":"yes","residential":true,"residents_est":5,"h3_10":"8a1e05b4b867fff","h3_11":"8b1e05b4b864fff"},"geometry":{"type":"Polygon","coordinates":[[[19.863461,50.018186],[19.863475,50.018109],[19.863552,50.018115],[19.863551,50.01812],[19.863582,50.018123],[19.86359,50.018079],[19.86368,50.018086],[19.863658,50.018201],[19.863605,50.018196],[19.8636,50.01822],[19.863513,50.018214],[19.863517,50.018191],[19.863461,50.018186]]]}},{"type":"Feature","id":"w702649340","properties":{"type":"yes","residential":true,"residents_est":4,"h3_10":"8a1e05b4b867fff","h3_11":"8b1e05b4b864fff"},"geometry":{"type":"Polygon","coordinates":[[[19.863083,50.018221],[19.86311,50.018066],[19.863225,50.018074],[19.863215,50.018128],[19.863227,50.018129],[19.863221,50.018163],[19.863238,50.018164],[19.863232,50.018197],[19.863214,50.018196],[19.863208,50.01823],[19.863083,50.018221]]]}},{"type":"Feature","id":"w702649341","properties":{"type":"yes","residential":true,"residents_est":6,"h3_10":"8a1e05b4b847fff","h3_11":"8b1e05b4b846fff"},"geometry":{"type":"Polygon","coordinates":[[[19.863276,50.017063],[19.863308,50.016892],[19.863433,50.016902],[19.863423,50.016954],[19.863499,50.016961],[19.863486,50.01703],[19.863409,50.017024],[19.8634,50.017073],[19.863276,50.017063]]]}},{"type":"Feature","id":"w702673928","properties":{"type":"yes","address":"Laurowa 40B","residential":true,"residents_est":4,"h3_10":"8a1e05b4b96ffff","h3_11":"8b1e05b4b96dfff"},"geometry":{"type":"Polygon","coordinates":[[[19.86343,50.020413],[19.863432,50.020399],[19.863446,50.020392],[19.863453,50.020365],[19.863658,50.020381],[19.863653,50.020408],[19.863664,50.020417],[19.863661,50.020431],[19.863647,50.020438],[19.863642,50.020465],[19.863587,50.020461],[19.863584,50.020479],[19.863487,50.020472],[19.86349,50.020454],[19.863436,50.020449],[19.863441,50.020422],[19.86343,50.020413]]]}},{"type":"Feature","id":"w702673929","properties":{"type":"yes","address":"Laurowa 40C","residential":true,"residents_est":5,"h3_10":"8a1e05b4b96ffff","h3_11":"8b1e05b4b96dfff"},"geometry":{"type":"Polygon","coordinates":[[[19.863308,50.020655],[19.86331,50.02064],[19.863324,50.020633],[19.863329,50.020606],[19.863384,50.02061],[19.863388,50.020592],[19.863484,50.0206],[19.863481,50.020618],[19.863536,50.020622],[19.863531,50.020649],[19.863542,50.020658],[19.863539,50.020673],[19.863525,50.020679],[19.86352,50.020707],[19.863314,50.020691],[19.863319,50.020664],[19.863308,50.020655]]]}},{"type":"Feature","id":"w997754628","properties":{"type":"house","address":"Józefa Unruga 150","residential":true,"residents_est":5,"h3_10":"8a1e05b4b80ffff","h3_11":"8b1e05b4b809fff"},"geometry":{"type":"Polygon","coordinates":[[[19.861336,50.016293],[19.861356,50.016189],[19.861465,50.016197],[19.861445,50.016302],[19.861336,50.016293]]]}},{"type":"Feature","id":"w997754629","properties":{"type":"house","address":"Józefa Unruga 148","residential":true,"residents_est":5,"h3_10":"8a1e05b4b857fff","h3_11":"8b1e05b4b856fff"},"geometry":{"type":"Polygon","coordinates":[[[19.861662,50.016317],[19.861682,50.016213],[19.861791,50.016222],[19.861771,50.016326],[19.861662,50.016317]]]}},{"type":"Feature","id":"w997754630","properties":{"type":"house","address":"Józefa Unruga 150A","residential":true,"residents_est":5,"h3_10":"8a1e05b4b80ffff","h3_11":"8b1e05b4b809fff"},"geometry":{"type":"Polygon","coordinates":[[[19.861298,50.016505],[19.861317,50.016401],[19.861427,50.01641],[19.861407,50.016514],[19.861298,50.016505]]]}},{"type":"Feature","id":"w997754631","properties":{"type":"house","address":"Józefa Unruga 150B","residential":true,"residents_est":6,"h3_10":"8a1e05b4b80ffff","h3_11":"8b1e05b4b80dfff"},"geometry":{"type":"Polygon","coordinates":[[[19.861251,50.016721],[19.86127,50.016617],[19.86138,50.016625],[19.86136,50.016729],[19.861251,50.016721]]]}},{"type":"Feature","id":"w997754632","properties":{"type":"house","address":"Józefa Unruga 150C","residential":true,"residents_est":5,"h3_10":"8a1e05b4b80ffff","h3_11":"8b1e05b4b80dfff"},"geometry":{"type":"Polygon","coordinates":[[[19.861209,50.016941],[19.861229,50.016837],[19.861338,50.016846],[19.861318,50.01695],[19.861209,50.016941]]]}},{"type":"Feature","id":"w997754633","properties":{"type":"house","address":"Józefa Unruga 148A","residential":true,"residents_est":5,"h3_10":"8a1e05b4b80ffff","h3_11":"8b1e05b4b809fff"},"geometry":{"type":"Polygon","coordinates":[[[19.861621,50.016531],[19.86164,50.016427],[19.86175,50.016435],[19.86173,50.016539],[19.861621,50.016531]]]}},{"type":"Feature","id":"w997754634","properties":{"type":"house","address":"Józefa Unruga 148B","residential":true,"residents_est":6,"h3_10":"8a1e05b4b877fff","h3_11":"8b1e05b4b872fff"},"geometry":{"type":"Polygon","coordinates":[[[19.861577,50.016749],[19.861597,50.016645],[19.861707,50.016653],[19.861687,50.016757],[19.861577,50.016749]]]}},{"type":"Feature","id":"w997754635","properties":{"type":"house","address":"Józefa Unruga 148C","residential":true,"residents_est":6,"h3_10":"8a1e05b4b877fff","h3_11":"8b1e05b4b872fff"},"geometry":{"type":"Polygon","coordinates":[[[19.861528,50.016967],[19.861548,50.016863],[19.861658,50.016871],[19.861638,50.016975],[19.861528,50.016967]]]}},{"type":"Feature","id":"w997754636","properties":{"type":"residential","residential":true,"residents_est":15,"h3_10":"8a1e05b4b95ffff","h3_11":"8b1e05b4b958fff"},"geometry":{"type":"Polygon","coordinates":[[[19.861668,50.018271],[19.86168,50.018209],[19.861697,50.01821],[19.861698,50.018203],[19.86173,50.018205],[19.861729,50.018213],[19.861822,50.01822],[19.861824,50.018212],[19.861857,50.018215],[19.861856,50.018223],[19.861909,50.018227],[19.861898,50.018288],[19.861845,50.018284],[19.861844,50.018292],[19.861777,50.018279],[19.861776,50.018287],[19.861741,50.018285],[19.861743,50.018277],[19.861719,50.018275],[19.861717,50.018283],[19.861681,50.01828],[19.861683,50.018272],[19.861668,50.018271]]]}},{"type":"Feature","id":"w997754637","properties":{"type":"residential","residential":true,"residents_est":15,"h3_10":"8a1e05b4b95ffff","h3_11":"8b1e05b4b958fff"},"geometry":{"type":"Polygon","coordinates":[[[19.861637,50.018423],[19.861649,50.018361],[19.861666,50.018363],[19.861668,50.018355],[19.861699,50.018358],[19.861698,50.018365],[19.861792,50.018373],[19.861793,50.018365],[19.861826,50.018367],[19.861825,50.018375],[19.861879,50.01838],[19.861867,50.01844],[19.861815,50.018436],[19.861813,50.018445],[19.861779,50.018442],[19.86178,50.018434],[19.861747,50.018432],[19.861745,50.01844],[19.861711,50.018437],[19.861712,50.018429],[19.861688,50.018427],[19.861687,50.018435],[19.861651,50.018432],[19.861652,50.018425],[19.861637,50.018423]]]}},{"type":"Feature","id":"w997754638","properties":{"type":"residential","residential":true,"residents_est":15,"h3_10":"8a1e05b4b95ffff","h3_11":"8b1e05b4b95cfff"},"geometry":{"type":"Polygon","coordinates":[[[19.861608,50.018578],[19.86162,50.018516],[19.861637,50.018518],[19.861638,50.01851],[19.86167,50.018512],[19.861669,50.01852],[19.861762,50.018528],[19.861764,50.018519],[19.861797,50.018522],[19.861795,50.01853],[19.861849,50.018535],[19.861838,50.018596],[19.861785,50.018591],[19.861784,50.0186],[19.861749,50.018597],[19.861751,50.018589],[19.861718,50.018586],[19.861716,50.018595],[19.861681,50.018592],[19.861683,50.018584],[19.861659,50.018582],[19.861657,50.01859],[19.861621,50.018587],[19.861623,50.018579],[19.861608,50.018578]]]}},{"type":"Feature","id":"w997754640","properties":{"type":"house","address":"Józefa Unruga 112","residential":true,"residents_est":9,"h3_10":"8a1e05b4b95ffff","h3_11":"8b1e05b4b959fff"},"geometry":{"type":"Polygon","coordinates":[[[19.862261,50.018174],[19.862279,50.018079],[19.862361,50.018086],[19.862358,50.018105],[19.862382,50.018107],[19.862385,50.018088],[19.862474,50.018094],[19.862456,50.018193],[19.862261,50.018174]]]}},{"type":"Feature","id":"w997754641","properties":{"type":"house","address":"Józefa Unruga 108","residential":true,"residents_est":8,"h3_10":"8a1e05b4b867fff","h3_11":"8b1e05b4b866fff"},"geometry":{"type":"Polygon","coordinates":[[[19.862725,50.017846],[19.862738,50.017774],[19.862892,50.017786],[19.862884,50.017828],[19.862864,50.017826],[19.862848,50.017911],[19.862726,50.017901],[19.862736,50.017847],[19.862725,50.017846]]]}},{"type":"Feature","id":"w997754642","properties":{"type":"house","address":"Józefa Unruga 90","residential":true,"residents_est":9,"h3_10":"8a1e05b4b857fff","h3_11":"8b1e05b4b855fff"},"geometry":{"type":"Polygon","coordinates":[[[19.862992,50.016441],[19.863007,50.016364],[19.863125,50.016368],[19.863124,50.016374],[19.863162,50.016377],[19.863152,50.016428],[19.863138,50.016427],[19.863121,50.016512],[19.863003,50.016502],[19.863015,50.016443],[19.862992,50.016441]]]}},{"type":"Feature","id":"w997754643","properties":{"type":"house","address":"Józefa Unruga 59","residential":true,"residents_est":9,"h3_10":"8a1e05b4b84ffff","h3_11":"8b1e05b4b848fff"},"geometry":{"type":"Polygon","coordinates":[[[19.865406,50.01633],[19.865422,50.016242],[19.86564,50.016258],[19.865624,50.016347],[19.86553,50.01634],[19.865531,50.01633],[19.865477,50.016326],[19.865475,50.016335],[19.865406,50.01633]]]}},{"type":"Feature","id":"w1039516900","properties":{"type":"detached","levels":2.0,"residential":true,"residents_est":10,"h3_10":"8a1e05b4b847fff","h3_11":"8b1e05b4b845fff"},"geometry":{"type":"Polygon","coordinates":[[[19.864083,50.017388],[19.86411,50.017232],[19.864248,50.017242],[19.864221,50.017398],[19.864083,50.017388]]]}},{"type":"Feature","id":"w1211788697","properties":{"type":"house","address":"Laurowa 4","residential":true,"residents_est":10,"h3_10":"8a1e05b4b86ffff","h3_11":"8b1e05b4b86bfff"},"geometry":{"type":"Polygon","coordinates":[[[19.865782,50.01717],[19.865803,50.017087],[19.865798,50.017082],[19.865837,50.017086],[19.865836,50.017091],[19.865974,50.017105],[19.865947,50.01721],[19.865918,50.017206],[19.865909,50.01724],[19.865802,50.017233],[19.865817,50.017173],[19.865782,50.01717]]]}},{"type":"Feature","id":"w1211788698","properties":{"type":"residential","address":"Batalionów Chłopskich 34G","residential":true,"residents_est":17,"h3_10":"8a1e05b4b84ffff","h3_11":"8b1e05b4b84afff"},"geometry":{"type":"Polygon","coordinates":[[[19.865241,50.016137],[19.865256,50.01601],[19.86539,50.016017],[19.86538,50.016101],[19.86541,50.016112],[19.865365,50.016164],[19.865296,50.01614],[19.865241,50.016137]]]}},{"type":"Feature","id":"w1211788699","properties":{"type":"residential","address":"Józefa Unruga 61","residential":true,"residents_est":18,"h3_10":"8a1e05b4b85ffff","h3_11":"8b1e05b4b85dfff"},"geometry":{"type":"Polygon","coordinates":[[[19.864909,50.0162],[19.864919,50.016116],[19.865125,50.016127],[19.865112,50.016235],[19.865019,50.01623],[19.865023,50.016198],[19.864986,50.016196],[19.864985,50.016204],[19.864909,50.0162]]]}},{"type":"Feature","id":"w1211788704","properties":{"type":"yes","residential":true,"residents_est":7,"h3_10":"8a1e05b4b8effff","h3_11":"8b1e05b4b8e9fff"},"geometry":{"type":"Polygon","coordinates":[[[19.863736,50.015075],[19.863753,50.0149],[19.863918,50.014907],[19.863901,50.015082],[19.863736,50.015075]]]}},{"type":"Feature","id":"w1211788781","properties":{"type":"residential","residential":true,"residents_est":19,"h3_10":"8a1e05b4b847fff","h3_11":"8b1e05b4b840fff"},"geometry":{"type":"Polygon","coordinates":[[[19.86376,50.016826],[19.863792,50.016661],[19.863917,50.016671],[19.863904,50.016741],[19.86389,50.01674],[19.863886,50.016765],[19.863899,50.016766],[19.863885,50.016836],[19.86376,50.016826]]]}},{"type":"Feature","id":"w1211788783","properties":{"type":"residential","address":"Józefa Unruga 114","residential":true,"residents_est":18,"h3_10":"8a1e05b4b95ffff","h3_11":"8b1e05b4b959fff"},"geometry":{"type":"Polygon","coordinates":[[[19.86263,50.018132],[19.862642,50.018072],[19.862833,50.018087],[19.862822,50.018148],[19.862776,50.018144],[19.862773,50.018158],[19.862787,50.018159],[19.862775,50.018219],[19.862671,50.01821],[19.862682,50.018151],[19.8627,50.018152],[19.862703,50.018138],[19.86263,50.018132]]]}},{"type":"Feature","id":"w1211788785","properties":{"type":"residential","address":"Józefa Unruga 86E","residential":true,"residents_est":17,"h3_10":"8a1e05b4b867fff","h3_11":"8b1e05b4b860fff"},"geometry":{"type":"Polygon","coordinates":[[[19.863512,50.017941],[19.863528,50.017857],[19.863614,50.017864],[19.863613,50.017872],[19.863736,50.017874],[19.86372,50.017957],[19.863512,50.017941]]]}},{"type":"Feature","id":"w1211788786","properties":{"type":"construction","address":"Józefa Unruga 116","residential":false,"residents_est":0,"h3_10":"8a1e05b4b95ffff","h3_11":"8b1e05b4b959fff"},"geometry":{"type":"Polygon","coordinates":[[[19.862274,50.018406],[19.862286,50.018338],[19.862338,50.018342],[19.862342,50.018319],[19.862436,50.018325],[19.862426,50.018383],[19.86241,50.018397],[19.862399,50.018461],[19.862277,50.018452],[19.862285,50.018407],[19.862274,50.018406]]]}},{"type":"Feature","id":"w1211788787","properties":{"type":"construction","address":"Józefa Unruga 118","residential":false,"residents_est":0,"h3_10":"8a1e05b4b95ffff","h3_11":"8b1e05b4b959fff"},"geometry":{"type":"Polygon","coordinates":[[[19.862571,50.018432],[19.862595,50.018303],[19.86273,50.018313],[19.862719,50.018371],[19.86271,50.018371],[19.862697,50.018441],[19.862571,50.018432]]]}},{"type":"Feature","id":"w1217477915","properties":{"type":"shed","residential":false,"residents_est":0,"h3_10":"8a1e05b4b82ffff","h3_11":"8b1e05b4b82bfff"},"geometry":{"type":"Polygon","coordinates":[[[19.86104,50.017348],[19.861057,50.017272],[19.861041,50.017271],[19.861061,50.017177],[19.861212,50.01719],[19.861182,50.017329],[19.861216,50.017332],[19.861209,50.017363],[19.86104,50.017348]]]}},{"type":"Feature","id":"w1266691887","properties":{"type":"yes","residential":true,"residents_est":6,"h3_10":"8a1e05b4b867fff","h3_11":"8b1e05b4b863fff"},"geometry":{"type":"Polygon","coordinates":[[[19.864008,50.017657],[19.864043,50.017485],[19.864195,50.017498],[19.86416,50.017669],[19.864008,50.017657]]]}},{"type":"Feature","id":"w1416186170","properties":{"type":"residential","address":"Batalionów Chłopskich 34H","residential":false,"residents_est":0,"h3_10":"8a1e05b4b84ffff","h3_11":"8b1e05b4b84afff"},"geometry":{"type":"Polygon","coordinates":[[[19.865582,50.016152],[19.865586,50.016107],[19.865683,50.016111],[19.865679,50.016156],[19.865582,50.016152]]]}},{"type":"Feature","id":"w1416186172","properties":{"type":"residential","address":"Józefa Unruga 84B","residential":true,"residents_est":14,"h3_10":"8a1e05b4b847fff","h3_11":"8b1e05b4b845fff"},"geometry":{"type":"Polygon","coordinates":[[[19.864127,50.017093],[19.864144,50.017009],[19.86431,50.017021],[19.864293,50.017106],[19.864127,50.017093]]]}},{"type":"Feature","id":"w1427680814","properties":{"type":"semidetached_house","address":"Generała Jana Karcza 59C","residential":true,"residents_est":4,"h3_10":"8a1e05b4b8cffff","h3_11":"8b1e05b4b8cdfff"},"geometry":{"type":"Polygon","coordinates":[[[19.863813,50.014195],[19.863814,50.014149],[19.863914,50.01415],[19.863912,50.01424],[19.863844,50.01424],[19.863845,50.014195],[19.863813,50.014195]]]}},{"type":"Feature","id":"w1427680818","properties":{"type":"construction","residential":false,"residents_est":0,"h3_10":"8a1e05b4b85ffff","h3_11":"8b1e05b4b858fff"},"geometry":{"type":"Polygon","coordinates":[[[19.864162,50.015992],[19.864179,50.01592],[19.864203,50.015922],[19.864215,50.01587],[19.864437,50.015891],[19.864412,50.015999],[19.864311,50.015989],[19.864307,50.016006],[19.864162,50.015992]]]}},{"type":"Feature","id":"w1427680820","properties":{"type":"construction","residential":false,"residents_est":0,"h3_10":"8a1e05b4b857fff","h3_11":"8b1e05b4b854fff"},"geometry":{"type":"Polygon","coordinates":[[[19.861916,50.016591],[19.861931,50.016517],[19.861973,50.016521],[19.861976,50.016509],[19.862019,50.016512],[19.862017,50.016524],[19.862062,50.016528],[19.862047,50.0166],[19.862036,50.016599],[19.86203,50.016631],[19.861926,50.016623],[19.861933,50.016592],[19.861916,50.016591]]]}},{"type":"Feature","id":"w1541368153","properties":{"type":"semidetached_house","address":"Generała Jana Karcza 57A","residential":true,"residents_est":4,"h3_10":"8a1e05b4b8cffff","h3_11":"8b1e05b4b8c9fff"},"geometry":{"type":"Polygon","coordinates":[[[19.864176,50.013948],[19.864178,50.013888],[19.86421,50.013889],[19.864211,50.013854],[19.864277,50.013855],[19.864274,50.013949],[19.864176,50.013948]]]}},{"type":"Feature","id":"w1541368155","properties":{"type":"semidetached_house","address":"Generała Jana Karcza 57C","residential":true,"residents_est":4,"h3_10":"8a1e05b4b8cffff","h3_11":"8b1e05b4b8c9fff"},"geometry":{"type":"Polygon","coordinates":[[[19.863849,50.013982],[19.863851,50.013922],[19.863883,50.013922],[19.863884,50.013888],[19.86395,50.013889],[19.863947,50.013983],[19.863849,50.013982]]]}},{"type":"Feature","id":"w1541368156","properties":{"type":"semidetached_house","address":"Generała Jana Karcza 57B","residential":true,"residents_est":4,"h3_10":"8a1e05b4b8cffff","h3_11":"8b1e05b4b8c9fff"},"geometry":{"type":"Polygon","coordinates":[[[19.863947,50.013983],[19.86395,50.013889],[19.864016,50.013889],[19.864015,50.013937],[19.864047,50.013938],[19.864046,50.013984],[19.863947,50.013983]]]}}]}