{"type":"FeatureCollection","features":[{"type":"Feature","id":"w233371863","properties":{"type":"yes","residential":true,"residents_est":7,"h3_10":"8a1e05b4a22ffff","h3_11":"8b1e05b4a22efff"},"geometry":{"type":"Polygon","coordinates":[[[19.839386,50.007216],[19.839463,50.007148],[19.839482,50.007157],[19.839527,50.007117],[19.839636,50.007168],[19.839573,50.007224],[19.839585,50.00723],[19.839545,50.007266],[19.839533,50.00726],[19.839515,50.007276],[19.839386,50.007216]]]}},{"type":"Feature","id":"w233371867","properties":{"type":"house","levels":1.0,"address":"Podgórki Tynieckie 65","residential":true,"residents_est":4,"h3_10":"8a1e05b4a2effff","h3_11":"8b1e05b4a2eefff"},"geometry":{"type":"Polygon","coordinates":[[[19.842179,50.004785],[19.842228,50.004719],[19.842343,50.004755],[19.842328,50.004776],[19.842349,50.004782],[19.842358,50.00477],[19.842402,50.004783],[19.842367,50.00483],[19.842303,50.00481],[19.842295,50.004821],[19.842179,50.004785]]]}},{"type":"Feature","id":"w233371877","properties":{"type":"yes","residential":true,"residents_est":4,"h3_10":"8a1e05b4a34ffff","h3_11":"8b1e05b4a34dfff"},"geometry":{"type":"Polygon","coordinates":[[[19.843823,50.008968],[19.843908,50.008959],[19.843941,50.009087],[19.843873,50.009095],[19.843864,50.009057],[19.843843,50.00906],[19.843835,50.009031],[19.843855,50.009028],[19.84385,50.009006],[19.843834,50.009008],[19.843823,50.008968]]]}},{"type":"Feature","id":"w233371956","properties":{"type":"yes","address":"Kozienicka 78a","residential":true,"residents_est":6,"h3_10":"8a1e05b4a267fff","h3_11":"8b1e05b4a260fff"},"geometry":{"type":"Polygon","coordinates":[[[19.843701,50.007606],[19.843813,50.00753],[19.843818,50.007533],[19.843843,50.007516],[19.843889,50.007544],[19.843877,50.007553],[19.843946,50.007596],[19.843836,50.00767],[19.843769,50.007629],[19.843754,50.007639],[19.843701,50.007606]]]}},{"type":"Feature","id":"w233371958","properties":{"type":"house","levels":2.0,"address":"Podgórki Tynieckie 62","residential":true,"residents_est":9,"h3_10":"8a1e05b4a2effff","h3_11":"8b1e05b4a2e8fff"},"geometry":{"type":"Polygon","coordinates":[[[19.84262,50.004505],[19.842678,50.004438],[19.84281,50.004485],[19.842754,50.004551],[19.842717,50.004538],[19.842694,50.004562],[19.842635,50.004541],[19.842655,50.004517],[19.84262,50.004505]]]}},{"type":"Feature","id":"w233371986","properties":{"type":"house","levels":1.0,"address":"Podgórki Tynieckie 70","residential":true,"residents_est":6,"h3_10":"8a1e05b4a247fff","h3_11":"8b1e05b4a246fff"},"geometry":{"type":"Polygon","coordinates":[[[19.843262,50.00632],[19.843331,50.00632],[19.843331,50.006312],[19.843346,50.006302],[19.843371,50.006302],[19.843386,50.006319],[19.843448,50.006321],[19.843449,50.006405],[19.843263,50.006405],[19.843262,50.00632]]]}},{"type":"Feature","id":"w233371997","properties":{"type":"yes","address":"Podgórki Tynieckie 101","residential":true,"residents_est":6,"h3_10":"8a1e05b4a367fff","h3_11":"8b1e05b4a362fff"},"geometry":{"type":"Polygon","coordinates":[[[19.840526,50.009509],[19.840647,50.009491],[19.840674,50.009569],[19.840712,50.009558],[19.840725,50.009596],[19.840572,50.009641],[19.840526,50.009509]]]}},{"type":"Feature","id":"w233372040","properties":{"type":"yes","residential":true,"residents_est":6,"h3_10":"8a1e05b4a247fff","h3_11":"8b1e05b4a242fff"},"geometry":{"type":"Polygon","coordinates":[[[19.843577,50.005989],[19.843617,50.005977],[19.843591,50.005942],[19.843714,50.005905],[19.843793,50.006019],[19.843687,50.006052],[19.843669,50.006027],[19.843615,50.00604],[19.843577,50.005989]]]}},{"type":"Feature","id":"w233372092","properties":{"type":"yes","address":"Podgórki Tynieckie 74","residential":true,"residents_est":5,"h3_10":"8a1e05b4a277fff","h3_11":"8b1e05b4a275fff"},"geometry":{"type":"Polygon","coordinates":[[[19.842746,50.007243],[19.842841,50.007177],[19.842944,50.007238],[19.842824,50.00732],[19.842771,50.007289],[19.842795,50.007269],[19.842746,50.007243]]]}},{"type":"Feature","id":"w233372165","properties":{"type":"yes","address":"Podgórki Tynieckie 90a","residential":true,"residents_est":4,"h3_10":"8a1e05b4a36ffff","h3_11":"8b1e05b4a36bfff"},"geometry":{"type":"Polygon","coordinates":[[[19.843069,50.009471],[19.843086,50.009407],[19.843206,50.00942],[19.8432,50.009444],[19.843231,50.009447],[19.843222,50.009487],[19.84319,50.009484],[19.843185,50.009507],[19.843077,50.009496],[19.843083,50.009473],[19.843069,50.009471]]]}},{"type":"Feature","id":"w233372179","properties":{"type":"house","levels":1.0,"address":"Podgórki Tynieckie 60","residential":true,"residents_est":11,"h3_10":"8a1e05b4a2effff","h3_11":"8b1e05b4a2ebfff"},"geometry":{"type":"Polygon","coordinates":[[[19.842863,50.004112],[19.842997,50.003986],[19.843067,50.004016],[19.843056,50.004027],[19.843063,50.00403],[19.84303,50.004064],[19.843193,50.004135],[19.843106,50.004217],[19.842863,50.004112]]]}},{"type":"Feature","id":"w233372326","properties":{"type":"yes","address":"Bagienna 11","residential":true,"residents_est":4,"h3_10":"8a1e05b4a357fff","h3_11":"8b1e05b4a356fff"},"geometry":{"type":"Polygon","coordinates":[[[19.839334,50.008075],[19.839395,50.007993],[19.839443,50.008008],[19.839438,50.008014],[19.839519,50.008039],[19.83953,50.008035],[19.839471,50.008116],[19.839389,50.00809],[19.839392,50.008085],[19.839344,50.008071],[19.839334,50.008075]]]}},{"type":"Feature","id":"w233372554","properties":{"type":"house","levels":1.0,"address":"Podgórki Tynieckie 69","residential":true,"residents_est":6,"h3_10":"8a1e05b4a2effff","h3_11":"8b1e05b4a2ecfff"},"geometry":{"type":"Polygon","coordinates":[[[19.842619,50.005027],[19.842644,50.004993],[19.842641,50.004983],[19.842686,50.004939],[19.842722,50.00495],[19.842738,50.004947],[19.842801,50.004967],[19.842774,50.005003],[19.842832,50.005021],[19.842782,50.005083],[19.842619,50.005027]]]}},{"type":"Feature","id":"w233372582","properties":{"type":"yes","address":"Kozienicka 78b","residential":true,"residents_est":5,"h3_10":"8a1e05b4a267fff","h3_11":"8b1e05b4a261fff"},"geometry":{"type":"Polygon","coordinates":[[[19.84428,50.007643],[19.844282,50.007528],[19.844323,50.007528],[19.84434,50.00752],[19.844373,50.007529],[19.844415,50.00753],[19.844414,50.007576],[19.844405,50.007576],[19.844405,50.007596],[19.844413,50.007596],[19.844412,50.007644],[19.84428,50.007643]]]}},{"type":"Feature","id":"w233372773","properties":{"type":"yes","address":"Podgórki Tynieckie 93i","residential":true,"residents_est":6,"h3_10":"8a1e05b4a35ffff","h3_11":"8b1e05b4a35efff"},"geometry":{"type":"Polygon","coordinates":[[[19.841071,50.007793],[19.841163,50.007719],[19.841215,50.007745],[19.84123,50.007733],[19.841289,50.007763],[19.841241,50.007801],[19.841265,50.007814],[19.841226,50.007845],[19.841202,50.007833],[19.841166,50.007862],[19.841093,50.007825],[19.841111,50.007813],[19.841071,50.007793]]]}},{"type":"Feature","id":"w233372820","properties":{"type":"yes","address":"Podgórki Tynieckie 90f","residential":true,"residents_est":5,"h3_10":"8a1e05b4a36ffff","h3_11":"8b1e05b4a36afff"},"geometry":{"type":"Polygon","coordinates":[[[19.84257,50.00931],[19.842581,50.009281],[19.842602,50.009276],[19.842589,50.009252],[19.842622,50.009244],[19.842607,50.009216],[19.842613,50.009197],[19.842659,50.009186],[19.842683,50.009198],[19.842734,50.009289],[19.842682,50.009302],[19.84269,50.009317],[19.842638,50.009329],[19.842644,50.009341],[19.842595,50.009353],[19.84257,50.00931]]]}},{"type":"Feature","id":"w233372886","properties":{"type":"yes","address":"Podgórki Tynieckie 93f","residential":true,"residents_est":4,"h3_10":"8a1e05b4a22ffff","h3_11":"8b1e05b4a22cfff"},"geometry":{"type":"Polygon","coordinates":[[[19.839764,50.007433],[19.839781,50.007421],[19.839805,50.00742],[19.839835,50.007398],[19.839869,50.007418],[19.839902,50.007395],[19.839963,50.007431],[19.839928,50.007456],[19.839921,50.007452],[19.83983,50.007516],[19.839767,50.007478],[19.839764,50.007433]]]}},{"type":"Feature","id":"w233372891","properties":{"type":"yes","residential":true,"residents_est":7,"h3_10":"8a1e05b4a34ffff","h3_11":"8b1e05b4a349fff"},"geometry":{"type":"Polygon","coordinates":[[[19.843566,50.00862],[19.843614,50.008614],[19.84361,50.008598],[19.843663,50.008592],[19.84366,50.008579],[19.843741,50.00857],[19.843745,50.008584],[19.843799,50.008578],[19.843821,50.008657],[19.843641,50.008677],[19.843644,50.00869],[19.843588,50.008696],[19.843566,50.00862]]]}},{"type":"Feature","id":"w233372893","properties":{"type":"yes","address":"Podgórki Tynieckie 99","residential":true,"residents_est":6,"h3_10":"8a1e05b4a347fff","h3_11":"8b1e05b4a344fff"},"geometry":{"type":"Polygon","coordinates":[[[19.840714,50.009444],[19.840744,50.009441],[19.840733,50.009371],[19.840823,50.009365],[19.840829,50.009399],[19.840812,50.0094],[19.840818,50.009437],[19.840903,50.009431],[19.840913,50.009499],[19.840869,50.009501],[19.84087,50.009512],[19.840846,50.009514],[19.840845,50.009503],[19.840756,50.009508],[19.840753,50.009489],[19.840722,50.009491],[19.840714,50.009444]]]}},{"type":"Feature","id":"w233372903","properties":{"type":"yes","residential":true,"residents_est":10,"h3_10":"8a1e05b4a22ffff","h3_11":"8b1e05b4a22cfff"},"geometry":{"type":"Polygon","coordinates":[[[19.840007,50.007608],[19.840095,50.007546],[19.840118,50.007559],[19.84018,50.007515],[19.840156,50.007502],[19.840245,50.007439],[19.840331,50.00749],[19.8403,50.007512],[19.84032,50.007523],[19.840196,50.007605],[19.840202,50.007608],[19.840146,50.007648],[19.840127,50.007636],[19.840094,50.007659],[19.840007,50.007608]]]}},{"type":"Feature","id":"w233372956","properties":{"type":"yes","address":"Podgórki Tynieckie 96","name":"Dom pomocy społecznej","residential":false,"residents_est":0,"h3_10":"8a1e05b4a367fff","h3_11":"8b1e05b4a361fff"},"geometry":{"type":"Polygon","coordinates":[[[19.841468,50.010192],[19.841535,50.010071],[19.84152,50.010052],[19.841546,50.010005],[19.841575,50.009998],[19.841676,50.009815],[19.841874,50.009861],[19.841758,50.010066],[19.841744,50.010062],[19.841728,50.010092],[19.84174,50.010094],[19.841664,50.010236],[19.841601,50.010222],[19.841555,50.010235],[19.841532,50.010207],[19.841468,50.010192]]]}},{"type":"Feature","id":"w233372961","properties":{"type":"yes","address":"Podgórki Tynieckie 92","residential":true,"residents_est":7,"h3_10":"8a1e05b4a347fff","h3_11":"8b1e05b4a345fff"},"geometry":{"type":"Polygon","coordinates":[[[19.841461,50.009348],[19.841466,50.009292],[19.841532,50.009294],[19.841534,50.009267],[19.841594,50.00927],[19.841615,50.009258],[19.841644,50.009258],[19.841663,50.009271],[19.841724,50.009273],[19.84172,50.009321],[19.841748,50.009322],[19.841745,50.009357],[19.841656,50.009354],[19.841655,50.009366],[19.841615,50.009365],[19.841616,50.00935],[19.841461,50.009348]]]}},{"type":"Feature","id":"w233372986","properties":{"type":"yes","address":"Podgórki Tynieckie 97","residential":true,"residents_est":10,"h3_10":"8a1e05b4a377fff","h3_11":"8b1e05b4a371fff"},"geometry":{"type":"Polygon","coordinates":[[[19.84028,50.00913],[19.840299,50.009129],[19.840295,50.009094],[19.840514,50.009082],[19.840519,50.009116],[19.840539,50.009116],[19.840546,50.009172],[19.840526,50.009173],[19.840531,50.009207],[19.84046,50.009211],[19.840462,50.009223],[19.840381,50.009227],[19.84038,50.009216],[19.84031,50.009219],[19.840306,50.009184],[19.840287,50.009185],[19.84028,50.00913]]]}},{"type":"Feature","id":"w233373016","properties":{"type":"house","levels":1.0,"address":"Podgórki Tynieckie 71","residential":true,"residents_est":12,"h3_10":"8a1e05b4a257fff","h3_11":"8b1e05b4a253fff"},"geometry":{"type":"Polygon","coordinates":[[[19.842786,50.005196],[19.842818,50.005155],[19.842834,50.00516],[19.842892,50.005084],[19.842931,50.005097],[19.842938,50.005089],[19.842928,50.005086],[19.842964,50.005039],[19.843053,50.005068],[19.843029,50.0051],[19.84306,50.00511],[19.843072,50.005128],[19.843053,50.005157],[19.843024,50.005163],[19.842992,50.005153],[19.842958,50.005199],[19.843043,50.005225],[19.843003,50.00528],[19.842794,50.005217],[19.842805,50.005202],[19.842786,50.005196]]]}},{"type":"Feature","id":"w233373019","properties":{"type":"yes","address":"Podgórki Tynieckie 90d","residential":true,"residents_est":7,"h3_10":"8a1e05b4a34ffff","h3_11":"8b1e05b4a34cfff"},"geometry":{"type":"Polygon","coordinates":[[[19.842854,50.008799],[19.84292,50.008792],[19.842923,50.008801],[19.842945,50.0088],[19.842975,50.008777],[19.843018,50.008798],[19.842993,50.008818],[19.843011,50.008904],[19.843032,50.008902],[19.843041,50.008938],[19.842893,50.008953],[19.842885,50.008917],[19.842895,50.008915],[19.842892,50.008898],[19.842876,50.008886],[19.842872,50.008868],[19.842881,50.008854],[19.842878,50.008843],[19.842866,50.008843],[19.842854,50.008799]]]}},{"type":"Feature","id":"w233373028","properties":{"type":"yes","address":"Kozienicka 78","residential":true,"residents_est":7,"h3_10":"8a1e05b4a267fff","h3_11":"8b1e05b4a263fff"},"geometry":{"type":"Polygon","coordinates":[[[19.843557,50.007155],[19.843689,50.007053],[19.843714,50.007066],[19.843724,50.007058],[19.843763,50.007079],[19.843753,50.007087],[19.843761,50.007095],[19.843829,50.007133],[19.84378,50.007172],[19.843733,50.007148],[19.843702,50.007171],[19.843723,50.007182],[19.843674,50.007219],[19.843647,50.007209],[19.84365,50.007206],[19.843557,50.007155]]]}},{"type":"Feature","id":"w233373029","properties":{"type":"yes","address":"Podgórki Tynieckie 93","residential":true,"residents_est":5,"h3_10":"8a1e05b4a357fff","h3_11":"8b1e05b4a351fff"},"geometry":{"type":"Polygon","coordinates":[[[19.840989,50.008206],[19.840999,50.008157],[19.841031,50.008159],[19.841037,50.008128],[19.841052,50.00813],[19.841068,50.008122],[19.841091,50.008124],[19.841104,50.008135],[19.841143,50.008137],[19.841136,50.008174],[19.841131,50.008174],[19.841121,50.008248],[19.840992,50.008237],[19.840998,50.008206],[19.840989,50.008206]]]}},{"type":"Feature","id":"w233373114","properties":{"type":"church","address":"Podgórki Tynieckie 96","name":"Kościół pw. Świętego Kazimierza","residential":false,"residents_est":0,"h3_10":"8a1e05b4a367fff","h3_11":"8b1e05b4a360fff"},"geometry":{"type":"Polygon","coordinates":[[[19.841085,50.010269],[19.841105,50.010263],[19.841095,50.01025],[19.841115,50.010244],[19.841104,50.010229],[19.841155,50.010213],[19.841165,50.010225],[19.841184,50.010219],[19.841195,50.010234],[19.841215,50.010227],[19.841224,50.01024],[19.841259,50.010247],[19.841276,50.010242],[19.841287,50.010255],[19.841309,50.010248],[19.84132,50.010263],[19.841339,50.010256],[19.841362,50.010286],[19.841341,50.010292],[19.841349,50.010303],[19.841325,50.010311],[19.841335,50.010323],[19.841253,50.010351],[19.841233,50.010386],[19.841177,50.010404],[19.841179,50.010399],[19.841137,50.010389],[19.841134,50.010394],[19.841109,50.010365],[19.841129,50.010326],[19.841085,50.010269]]]}},{"type":"Feature","id":"w233373160","properties":{"type":"yes","residential":false,"residents_est":0,"h3_10":"8a1e05b4a277fff","h3_11":"8b1e05b4a275fff"},"geometry":{"type":"Polygon","coordinates":[[[19.84249,50.007273],[19.842521,50.007242],[19.842626,50.007286],[19.842595,50.007316],[19.84249,50.007273]]]}},{"type":"Feature","id":"w233373168","properties":{"type":"yes","address":"Podgórki Tynieckie 80","residential":true,"residents_est":4,"h3_10":"8a1e05b4a35ffff","h3_11":"8b1e05b4a359fff"},"geometry":{"type":"Polygon","coordinates":[[[19.842306,50.00785],[19.842378,50.007785],[19.842498,50.007841],[19.842426,50.007905],[19.842306,50.00785]]]}},{"type":"Feature","id":"w233373187","properties":{"type":"yes","residential":true,"residents_est":2,"h3_10":"8a1e05b4a347fff","h3_11":"8b1e05b4a342fff"},"geometry":{"type":"Polygon","coordinates":[[[19.840818,50.008662],[19.840884,50.008602],[19.840948,50.008632],[19.840882,50.008691],[19.840818,50.008662]]]}},{"type":"Feature","id":"w233373225","properties":{"type":"yes","residential":false,"residents_est":0,"h3_10":"8a1e05b4a267fff","h3_11":"8b1e05b4a265fff"},"geometry":{"type":"Polygon","coordinates":[[[19.843899,50.007742],[19.843929,50.007692],[19.844006,50.007712],[19.843976,50.007762],[19.843899,50.007742]]]}},{"type":"Feature","id":"w233373486","properties":{"type":"school","levels":1.0,"address":"Podgórki Tynieckie 72","residential":false,"residents_est":0,"h3_10":"8a1e05b4a247fff","h3_11":"8b1e05b4a246fff"},"geometry":{"type":"Polygon","coordinates":[[[19.843278,50.006652],[19.843283,50.006568],[19.843776,50.006435],[19.843819,50.006502],[19.843278,50.006652]]]}},{"type":"Feature","id":"w233373572","properties":{"type":"yes","residential":false,"residents_est":0,"h3_10":"8a1e05b4a247fff","h3_11":"8b1e05b4a244fff"},"geometry":{"type":"Polygon","coordinates":[[[19.843782,50.00671],[19.84384,50.006698],[19.843872,50.006759],[19.843816,50.006771],[19.843782,50.00671]]]}},{"type":"Feature","id":"w233373609","properties":{"type":"yes","address":"Podgórki Tynieckie 93g","residential":true,"residents_est":3,"h3_10":"8a1e05b4a22ffff","h3_11":"8b1e05b4a22efff"},"geometry":{"type":"Polygon","coordinates":[[[19.839595,50.007317],[19.839675,50.007246],[19.839753,50.007281],[19.839672,50.007353],[19.839595,50.007317]]]}},{"type":"Feature","id":"w233373624","properties":{"type":"yes","residential":true,"residents_est":5,"h3_10":"8a1e05b4a35ffff","h3_11":"8b1e05b4a35cfff"},"geometry":{"type":"Polygon","coordinates":[[[19.841394,50.008287],[19.841397,50.008205],[19.841571,50.008207],[19.841569,50.008289],[19.841394,50.008287]]]}},{"type":"Feature","id":"w233373660","properties":{"type":"yes","residential":true,"residents_est":2,"h3_10":"8a1e05b4a257fff","h3_11":"8b1e05b4a254fff"},"geometry":{"type":"Polygon","coordinates":[[[19.842345,50.00613],[19.842396,50.006101],[19.842478,50.006161],[19.842427,50.00619],[19.842345,50.00613]]]}},{"type":"Feature","id":"w233373671","properties":{"type":"yes","address":"Bagienna 29","residential":true,"residents_est":4,"h3_10":"8a1e05b4a3b7fff","h3_11":"8b1e05b4a3b2fff"},"geometry":{"type":"Polygon","coordinates":[[[19.832013,50.006339],[19.832013,50.006274],[19.832179,50.006275],[19.832179,50.00634],[19.832013,50.006339]]]}},{"type":"Feature","id":"w233373688","properties":{"type":"yes","address":"Podgórki Tynieckie 68","residential":true,"residents_est":7,"h3_10":"8a1e05b4a247fff","h3_11":"8b1e05b4a242fff"},"geometry":{"type":"Polygon","coordinates":[[[19.843326,50.006041],[19.843502,50.006003],[19.84356,50.006106],[19.843379,50.006146],[19.843326,50.006041]]]}},{"type":"Feature","id":"w233373754","properties":{"type":"yes","residential":false,"residents_est":0,"h3_10":"8a1e05b4a34ffff","h3_11":"8b1e05b4a34dfff"},"geometry":{"type":"Polygon","coordinates":[[[19.843809,50.008913],[19.843894,50.008904],[19.843908,50.008959],[19.843823,50.008968],[19.843809,50.008913]]]}},{"type":"Feature","id":"w233373819","properties":{"type":"yes","address":"Podgórki Tynieckie 84","residential":true,"residents_est":4,"h3_10":"8a1e05b4a35ffff","h3_11":"8b1e05b4a35dfff"},"geometry":{"type":"Polygon","coordinates":[[[19.842095,50.008123],[19.842169,50.008064],[19.842293,50.00813],[19.84222,50.008189],[19.842095,50.008123]]]}},{"type":"Feature","id":"w233373984","properties":{"type":"yes","residential":true,"residents_est":3,"h3_10":"8a1e05b4a267fff","h3_11":"8b1e05b4a266fff"},"geometry":{"type":"Polygon","coordinates":[[[19.842732,50.007478],[19.842824,50.007425],[19.842897,50.007478],[19.842806,50.00753],[19.842732,50.007478]]]}},{"type":"Feature","id":"w233374008","properties":{"type":"yes","address":"Podgórki Tynieckie 87","residential":true,"residents_est":5,"h3_10":"8a1e05b4a277fff","h3_11":"8b1e05b4a274fff"},"geometry":{"type":"Polygon","coordinates":[[[19.841881,50.007174],[19.841995,50.007098],[19.842096,50.007162],[19.841983,50.007237],[19.841881,50.007174]]]}},{"type":"Feature","id":"w233374021","properties":{"type":"yes","residential":true,"residents_est":3,"h3_10":"8a1e05b4a35ffff","h3_11":"8b1e05b4a358fff"},"geometry":{"type":"Polygon","coordinates":[[[19.842016,50.007861],[19.842101,50.007811],[19.842186,50.007869],[19.842102,50.007918],[19.842016,50.007861]]]}},{"type":"Feature","id":"w233374034","properties":{"type":"yes","residential":false,"residents_est":0,"h3_10":"8a1e05b4a267fff","h3_11":"8b1e05b4a264fff"},"geometry":{"type":"Polygon","coordinates":[[[19.843251,50.007897],[19.843317,50.007856],[19.843358,50.007884],[19.843293,50.007925],[19.843251,50.007897]]]}},{"type":"Feature","id":"w233374074","properties":{"type":"yes","residential":true,"residents_est":3,"h3_10":"8a1e05b4a35ffff","h3_11":"8b1e05b4a359fff"},"geometry":{"type":"Polygon","coordinates":[[[19.842351,50.008068],[19.84242,50.008012],[19.842528,50.008072],[19.842461,50.008127],[19.842351,50.008068]]]}},{"type":"Feature","id":"w233374099","properties":{"type":"yes","address":"Podgórki Tynieckie 86","residential":true,"residents_est":8,"h3_10":"8a1e05b4a35ffff","h3_11":"8b1e05b4a358fff"},"geometry":{"type":"Polygon","coordinates":[[[19.841464,50.007969],[19.841549,50.007895],[19.841745,50.007989],[19.841662,50.008062],[19.841464,50.007969]]]}},{"type":"Feature","id":"w233374125","properties":{"type":"yes","address":"Bagienna 9","residential":true,"residents_est":4,"h3_10":"8a1e05b4a357fff","h3_11":"8b1e05b4a350fff"},"geometry":{"type":"Polygon","coordinates":[[[19.839658,50.008175],[19.839721,50.008092],[19.839849,50.008132],[19.839787,50.008215],[19.839658,50.008175]]]}},{"type":"Feature","id":"w233374218","properties":{"type":"yes","residential":false,"residents_est":0,"h3_10":"8a1e05b4a357fff","h3_11":"8b1e05b4a351fff"},"geometry":{"type":"Polygon","coordinates":[[[19.840994,50.00827],[19.841001,50.008237],[19.841111,50.008247],[19.841105,50.00828],[19.840994,50.00827]]]}},{"type":"Feature","id":"w233374315","properties":{"type":"yes","residential":true,"residents_est":3,"h3_10":"8a1e05b4a267fff","h3_11":"8b1e05b4a263fff"},"geometry":{"type":"Polygon","coordinates":[[[19.843805,50.00725],[19.843895,50.007197],[19.843973,50.007252],[19.843884,50.007305],[19.843805,50.00725]]]}},{"type":"Feature","id":"w233374442","properties":{"type":"yes","residential":true,"residents_est":3,"h3_10":"8a1e05b4a247fff","h3_11":"8b1e05b4a242fff"},"geometry":{"type":"Polygon","coordinates":[[[19.843549,50.005882],[19.843672,50.005846],[19.843714,50.005905],[19.843591,50.005942],[19.843549,50.005882]]]}},{"type":"Feature","id":"w233374474","properties":{"type":"yes","residential":true,"residents_est":2,"h3_10":"8a1e05b4a367fff","h3_11":"8b1e05b4a363fff"},"geometry":{"type":"Polygon","coordinates":[[[19.841675,50.009594],[19.841679,50.009537],[19.841769,50.009538],[19.841766,50.009594],[19.841675,50.009594]]]}},{"type":"Feature","id":"w233374697","properties":{"type":"yes","residential":true,"residents_est":2,"h3_10":"8a1e05b4a267fff","h3_11":"8b1e05b4a260fff"},"geometry":{"type":"Polygon","coordinates":[[[19.843611,50.007675],[19.843665,50.007641],[19.843763,50.007706],[19.843708,50.00774],[19.843611,50.007675]]]}},{"type":"Feature","id":"w233374784","properties":{"type":"yes","residential":false,"residents_est":0,"h3_10":"8a1e05b4a36ffff","h3_11":"8b1e05b4a36bfff"},"geometry":{"type":"Polygon","coordinates":[[[19.843015,50.009464],[19.843031,50.009401],[19.843086,50.009407],[19.84307,50.009469],[19.843015,50.009464]]]}},{"type":"Feature","id":"w233374900","properties":{"type":"yes","address":"Podgórki Tynieckie 94a","residential":true,"residents_est":4,"h3_10":"8a1e05b4a36ffff","h3_11":"8b1e05b4a369fff"},"geometry":{"type":"Polygon","coordinates":[[[19.843847,50.009665],[19.843991,50.009641],[19.844025,50.009728],[19.843882,50.009752],[19.843847,50.009665]]]}},{"type":"Feature","id":"w233374918","properties":{"type":"yes","residential":false,"residents_est":0,"h3_10":"8a1e05b4a357fff","h3_11":"8b1e05b4a356fff"},"geometry":{"type":"Polygon","coordinates":[[[19.839419,50.008232],[19.83945,50.008182],[19.839527,50.008201],[19.839497,50.008252],[19.839419,50.008232]]]}},{"type":"Feature","id":"w233374965","properties":{"type":"yes","address":"Podgórki Tynieckie 94","residential":true,"residents_est":4,"h3_10":"8a1e05b4a367fff","h3_11":"8b1e05b4a363fff"},"geometry":{"type":"Polygon","coordinates":[[[19.841359,50.009552],[19.84136,50.009484],[19.841551,50.009486],[19.841549,50.009554],[19.841359,50.009552]]]}},{"type":"Feature","id":"w233375331","properties":{"type":"yes","residential":true,"residents_est":2,"h3_10":"8a1e05b4a267fff","h3_11":"8b1e05b4a261fff"},"geometry":{"type":"Polygon","coordinates":[[[19.844221,50.007712],[19.844293,50.007668],[19.844354,50.007711],[19.844282,50.007754],[19.844221,50.007712]]]}},{"type":"Feature","id":"w233375391","properties":{"type":"yes","residential":true,"residents_est":4,"h3_10":"8a1e05b4a357fff","h3_11":"8b1e05b4a355fff"},"geometry":{"type":"Polygon","coordinates":[[[19.840674,50.008595],[19.84074,50.008536],[19.840883,50.008602],[19.840818,50.008662],[19.840674,50.008595]]]}},{"type":"Feature","id":"w233375443","properties":{"type":"yes","address":"Podgórki Tynieckie 76","residential":true,"residents_est":4,"h3_10":"8a1e05b4a277fff","h3_11":"8b1e05b4a275fff"},"geometry":{"type":"Polygon","coordinates":[[[19.842397,50.007362],[19.84249,50.007273],[19.842595,50.007316],[19.842501,50.007407],[19.842397,50.007362]]]}},{"type":"Feature","id":"w233375482","properties":{"type":"yes","residential":true,"residents_est":2,"h3_10":"8a1e05b4a277fff","h3_11":"8b1e05b4a275fff"},"geometry":{"type":"Polygon","coordinates":[[[19.842488,50.007418],[19.842541,50.007371],[19.84263,50.007408],[19.842579,50.007456],[19.842488,50.007418]]]}},{"type":"Feature","id":"w233375497","properties":{"type":"yes","address":"Kozienicka 109a","residential":true,"residents_est":5,"h3_10":"8a1e05b4a24ffff","h3_11":"8b1e05b4a24afff"},"geometry":{"type":"Polygon","coordinates":[[[19.845174,50.005696],[19.845342,50.005687],[19.845354,50.005773],[19.845187,50.005782],[19.845174,50.005696]]]}},{"type":"Feature","id":"w233375568","properties":{"type":"yes","residential":true,"residents_est":3,"h3_10":"8a1e05b4a357fff","h3_11":"8b1e05b4a355fff"},"geometry":{"type":"Polygon","coordinates":[[[19.840567,50.008594],[19.840669,50.008503],[19.84074,50.008536],[19.840637,50.008626],[19.840567,50.008594]]]}},{"type":"Feature","id":"w233375659","properties":{"type":"yes","residential":false,"residents_est":0,"h3_10":"8a1e05b4a24ffff","h3_11":"8b1e05b4a24afff"},"geometry":{"type":"Polygon","coordinates":[[[19.84511,50.005692],[19.845173,50.005687],[19.845183,50.005751],[19.84512,50.005755],[19.84511,50.005692]]]}},{"type":"Feature","id":"w233375708","properties":{"type":"yes","residential":true,"residents_est":4,"h3_10":"8a1e05b4a247fff","h3_11":"8b1e05b4a245fff"},"geometry":{"type":"Polygon","coordinates":[[[19.843987,50.006666],[19.844086,50.006643],[19.844138,50.006739],[19.844039,50.006762],[19.843987,50.006666]]]}},{"type":"Feature","id":"w233375747","properties":{"type":"yes","address":"Kozienicka 109b","residential":true,"residents_est":5,"h3_10":"8a1e05b4a25ffff","h3_11":"8b1e05b4a25dfff"},"geometry":{"type":"Polygon","coordinates":[[[19.844274,50.005697],[19.844512,50.005687],[19.844518,50.005751],[19.84428,50.005761],[19.844274,50.005697]]]}},{"type":"Feature","id":"w233375776","properties":{"type":"yes","residential":true,"residents_est":4,"h3_10":"8a1e05b4a35ffff","h3_11":"8b1e05b4a35cfff"},"geometry":{"type":"Polygon","coordinates":[[[19.841655,50.00813],[19.841756,50.008049],[19.841841,50.008098],[19.841748,50.00817],[19.841655,50.00813]]]}},{"type":"Feature","id":"w233376005","properties":{"type":"house","address":"Podgórki Tynieckie 67","residential":true,"residents_est":8,"h3_10":"8a1e05b4a2effff","h3_11":"8b1e05b4a2ecfff"},"geometry":{"type":"Polygon","coordinates":[[[19.842383,50.004923],[19.84244,50.004851],[19.842567,50.004892],[19.84251,50.004964],[19.842383,50.004923]]]}},{"type":"Feature","id":"w233376089","properties":{"type":"yes","address":"Podgórki Tynieckie 88","residential":true,"residents_est":9,"h3_10":"8a1e05b4a347fff","h3_11":"8b1e05b4a343fff"},"geometry":{"type":"Polygon","coordinates":[[[19.841516,50.008793],[19.841558,50.008702],[19.841819,50.008749],[19.841778,50.008841],[19.841516,50.008793]]]}},{"type":"Feature","id":"w233376453","properties":{"type":"yes","residential":true,"residents_est":2,"h3_10":"8a1e05b4a35ffff","h3_11":"8b1e05b4a358fff"},"geometry":{"type":"Polygon","coordinates":[[[19.841957,50.007895],[19.842016,50.007861],[19.842102,50.007918],[19.842065,50.00794],[19.842032,50.007919],[19.842009,50.00793],[19.841957,50.007895]]]}},{"type":"Feature","id":"w233376536","properties":{"type":"yes","residential":true,"residents_est":3,"h3_10":"8a1e05b4a357fff","h3_11":"8b1e05b4a355fff"},"geometry":{"type":"Polygon","coordinates":[[[19.84067,50.008737],[19.84071,50.0087],[19.840874,50.008771],[19.84085,50.008815],[19.84067,50.008737]]]}},{"type":"Feature","id":"w233376543","properties":{"type":"yes","address":"Podgórki Tynieckie 74a","residential":true,"residents_est":5,"h3_10":"8a1e05b4a267fff","h3_11":"8b1e05b4a260fff"},"geometry":{"type":"Polygon","coordinates":[[[19.843508,50.007738],[19.843611,50.007675],[19.843708,50.00774],[19.843581,50.007818],[19.843519,50.007777],[19.843544,50.007762],[19.843508,50.007738]]]}},{"type":"Feature","id":"w233376699","properties":{"type":"yes","address":"Podgórki Tynieckie 81","residential":true,"residents_est":5,"h3_10":"8a1e05b4a257fff","h3_11":"8b1e05b4a254fff"},"geometry":{"type":"Polygon","coordinates":[[[19.842013,50.006025],[19.842129,50.005956],[19.842227,50.006021],[19.842181,50.006049],[19.842205,50.006065],[19.842133,50.006108],[19.842013,50.006025]]]}},{"type":"Feature","id":"w233376763","properties":{"type":"yes","residential":true,"residents_est":29,"h3_10":"8a1e05b4a22ffff","h3_11":"8b1e05b4a228fff"},"geometry":{"type":"Polygon","coordinates":[[[19.840209,50.006997],[19.840216,50.006992],[19.840244,50.007009],[19.840293,50.006972],[19.840335,50.006991],[19.840343,50.006981],[19.840385,50.006993],[19.840379,50.007004],[19.840394,50.007005],[19.840406,50.007004],[19.84041,50.006997],[19.840419,50.006999],[19.840446,50.006978],[19.84045,50.006951],[19.840441,50.006949],[19.840445,50.006943],[19.840409,50.006904],[19.840361,50.006872],[19.840413,50.006829],[19.840476,50.00687],[19.840512,50.006904],[19.84053,50.0069],[19.840549,50.006926],[19.840531,50.006932],[19.840551,50.006974],[19.840674,50.007003],[19.840665,50.007017],[19.840659,50.007015],[19.840635,50.007052],[19.840642,50.007054],[19.840632,50.007067],[19.84057,50.007045],[19.84055,50.007063],[19.840504,50.007079],[19.840499,50.007067],[19.840415,50.007067],[19.840331,50.007052],[19.84027,50.007031],[19.840209,50.006997]]]}},{"type":"Feature","id":"w233376866","properties":{"type":"yes","residential":false,"residents_est":0,"h3_10":"8a1e05b4a367fff","h3_11":"8b1e05b4a362fff"},"geometry":{"type":"Polygon","coordinates":[[[19.840605,50.009654],[19.840646,50.009643],[19.840653,50.009654],[19.840714,50.009638],[19.840736,50.009673],[19.840633,50.0097],[19.840605,50.009654]]]}},{"type":"Feature","id":"w233376919","properties":{"type":"yes","address":"Podgórki Tynieckie 95","residential":true,"residents_est":5,"h3_10":"8a1e05b4a347fff","h3_11":"8b1e05b4a342fff"},"geometry":{"type":"Polygon","coordinates":[[[19.841004,50.008641],[19.841141,50.00864],[19.841143,50.00875],[19.841006,50.008751],[19.841004,50.008641]]]}},{"type":"Feature","id":"w233376951","properties":{"type":"yes","address":"Kozienicka 76","residential":true,"residents_est":4,"h3_10":"8a1e05b4a247fff","h3_11":"8b1e05b4a244fff"},"geometry":{"type":"Polygon","coordinates":[[[19.84384,50.006698],[19.843987,50.006666],[19.84403,50.006745],[19.843882,50.006776],[19.84384,50.006698]]]}},{"type":"Feature","id":"w233377007","properties":{"type":"yes","address":"Podgórki Tynieckie 82","residential":true,"residents_est":6,"h3_10":"8a1e05b4a35ffff","h3_11":"8b1e05b4a358fff"},"geometry":{"type":"Polygon","coordinates":[[[19.841671,50.007785],[19.841739,50.007714],[19.841944,50.007797],[19.841904,50.007837],[19.841888,50.007831],[19.841861,50.007858],[19.841671,50.007785]]]}},{"type":"Feature","id":"w233377017","properties":{"type":"yes","residential":true,"residents_est":4,"h3_10":"8a1e05b4a347fff","h3_11":"8b1e05b4a343fff"},"geometry":{"type":"Polygon","coordinates":[[[19.841558,50.008702],[19.841605,50.0086],[19.841717,50.00862],[19.841671,50.008722],[19.841558,50.008702]]]}},{"type":"Feature","id":"w233377268","properties":{"type":"house","levels":1.0,"address":"Podgórki Tynieckie 64","residential":true,"residents_est":5,"h3_10":"8a1e05b4a25ffff","h3_11":"8b1e05b4a25afff"},"geometry":{"type":"Polygon","coordinates":[[[19.843621,50.004867],[19.843699,50.004801],[19.843813,50.004857],[19.843678,50.004967],[19.843629,50.004942],[19.843683,50.004898],[19.843621,50.004867]]]}},{"type":"Feature","id":"w233377295","properties":{"type":"yes","address":"Podgórki Tynieckie 103","residential":true,"residents_est":5,"h3_10":"8a1e05b4a367fff","h3_11":"8b1e05b4a362fff"},"geometry":{"type":"Polygon","coordinates":[[[19.840805,50.009756],[19.840823,50.009647],[19.840881,50.009651],[19.840886,50.009621],[19.840974,50.009626],[19.840969,50.009657],[19.840947,50.009656],[19.84093,50.009764],[19.840805,50.009756]]]}},{"type":"Feature","id":"w233377348","properties":{"type":"yes","address":"Podgórki Tynieckie 88a","residential":true,"residents_est":8,"h3_10":"8a1e05b4a35ffff","h3_11":"8b1e05b4a35cfff"},"geometry":{"type":"Polygon","coordinates":[[[19.841545,50.008382],[19.841558,50.008326],[19.841743,50.008344],[19.841732,50.008388],[19.84172,50.008387],[19.841695,50.008488],[19.841611,50.008479],[19.841614,50.008467],[19.841548,50.008461],[19.841567,50.008384],[19.841545,50.008382]]]}},{"type":"Feature","id":"w233377482","properties":{"type":"yes","address":"Podgórki Tynieckie 90c","residential":true,"residents_est":6,"h3_10":"8a1e05b4a34ffff","h3_11":"8b1e05b4a348fff"},"geometry":{"type":"Polygon","coordinates":[[[19.843178,50.008674],[19.843225,50.008669],[19.843221,50.008656],[19.843376,50.00864],[19.8434,50.008737],[19.843246,50.008752],[19.84324,50.008726],[19.843192,50.008731],[19.843178,50.008674]]]}},{"type":"Feature","id":"w233377611","properties":{"type":"yes","address":"Podgórki Tynieckie 97a","residential":true,"residents_est":5,"h3_10":"8a1e05b4a347fff","h3_11":"8b1e05b4a346fff"},"geometry":{"type":"Polygon","coordinates":[[[19.840762,50.008988],[19.84081,50.008924],[19.840994,50.008982],[19.840946,50.009046],[19.84089,50.009028],[19.840878,50.009044],[19.840841,50.009032],[19.840853,50.009016],[19.840762,50.008988]]]}},{"type":"Feature","id":"w233377700","properties":{"type":"yes","address":"Podgórki Tynieckie 90b","residential":true,"residents_est":5,"h3_10":"8a1e05b4a34ffff","h3_11":"8b1e05b4a34dfff"},"geometry":{"type":"Polygon","coordinates":[[[19.843347,50.008988],[19.843465,50.008976],[19.843475,50.009016],[19.843483,50.009015],[19.84349,50.00904],[19.843481,50.009041],[19.843497,50.009102],[19.843378,50.009115],[19.843347,50.008988]]]}},{"type":"Feature","id":"w233377710","properties":{"type":"yes","address":"Podgórki Tynieckie 76a","residential":true,"residents_est":5,"h3_10":"8a1e05b4a267fff","h3_11":"8b1e05b4a264fff"},"geometry":{"type":"Polygon","coordinates":[[[19.84315,50.007834],[19.843251,50.00777],[19.843349,50.007836],[19.843228,50.007912],[19.843176,50.007877],[19.843196,50.007864],[19.84315,50.007834]]]}},{"type":"Feature","id":"w233377995","properties":{"type":"garage","residential":false,"residents_est":0,"h3_10":"8a1e05b4a2effff","h3_11":"8b1e05b4a2e8fff"},"geometry":{"type":"Polygon","coordinates":[[[19.842819,50.004612],[19.842884,50.004533],[19.842966,50.004561],[19.8429,50.004641],[19.842819,50.004612]]]}},{"type":"Feature","id":"w233378118","properties":{"type":"yes","address":"Bagienna 4","residential":true,"residents_est":7,"h3_10":"8a1e05b4a357fff","h3_11":"8b1e05b4a355fff"},"geometry":{"type":"Polygon","coordinates":[[[19.840159,50.008734],[19.840222,50.008651],[19.840414,50.008711],[19.840352,50.008795],[19.840159,50.008734]]]}},{"type":"Feature","id":"w233378199","properties":{"type":"yes","address":"Podgórki Tynieckie 78","residential":true,"residents_est":4,"h3_10":"8a1e05b4a35ffff","h3_11":"8b1e05b4a35bfff"},"geometry":{"type":"Polygon","coordinates":[[[19.842129,50.007534],[19.842173,50.007479],[19.842207,50.00749],[19.842212,50.007484],[19.842347,50.007528],[19.842296,50.007593],[19.842129,50.007534]]]}},{"type":"Feature","id":"w334712934","properties":{"type":"yes","residential":true,"residents_est":7,"h3_10":"8a1e05b4a35ffff","h3_11":"8b1e05b4a35efff"},"geometry":{"type":"Polygon","coordinates":[[[19.840705,50.007992],[19.840739,50.007964],[19.840719,50.007954],[19.840769,50.007912],[19.840788,50.007922],[19.840823,50.007894],[19.840924,50.007945],[19.840853,50.008001],[19.840937,50.008043],[19.840884,50.008084],[19.840705,50.007992]]]}},{"type":"Feature","id":"w334712935","properties":{"type":"yes","residential":true,"residents_est":5,"h3_10":"8a1e05b4a277fff","h3_11":"8b1e05b4a270fff"},"geometry":{"type":"Polygon","coordinates":[[[19.84201,50.007005],[19.84207,50.006965],[19.842117,50.006995],[19.842156,50.006969],[19.842191,50.006992],[19.842178,50.007],[19.842227,50.007031],[19.842189,50.007057],[19.842209,50.007069],[19.842161,50.007101],[19.84201,50.007005]]]}},{"type":"Feature","id":"w338151962","properties":{"type":"yes","residential":false,"residents_est":0,"h3_10":"8a1e05b4a35ffff","h3_11":"8b1e05b4a359fff"},"geometry":{"type":"Polygon","coordinates":[[[19.84228,50.007873],[19.842306,50.00785],[19.842426,50.007905],[19.8424,50.007929],[19.84228,50.007873]]]}},{"type":"Feature","id":"w338151966","properties":{"type":"yes","residential":true,"residents_est":3,"h3_10":"8a1e05b4a347fff","h3_11":"8b1e05b4a346fff"},"geometry":{"type":"Polygon","coordinates":[[[19.840526,50.009173],[19.840546,50.009172],[19.840541,50.009138],[19.840654,50.009132],[19.840663,50.009201],[19.840531,50.009207],[19.840526,50.009173]]]}},{"type":"Feature","id":"w338151969","properties":{"type":"yes","residential":false,"residents_est":0,"h3_10":"8a1e05b4a347fff","h3_11":"8b1e05b4a346fff"},"geometry":{"type":"Polygon","coordinates":[[[19.840729,50.009129],[19.84075,50.009089],[19.840818,50.009104],[19.840808,50.009123],[19.840847,50.009131],[19.840836,50.009152],[19.840729,50.009129]]]}},{"type":"Feature","id":"w514747195","properties":{"type":"house","levels":2.0,"residential":true,"residents_est":16,"h3_10":"8a1e05b4a367fff","h3_11":"8b1e05b4a366fff"},"geometry":{"type":"Polygon","coordinates":[[[19.840022,50.010193],[19.840101,50.010041],[19.840242,50.010072],[19.840164,50.010224],[19.840022,50.010193]]]}},{"type":"Feature","id":"w705235030","properties":{"type":"yes","residential":false,"residents_est":0,"h3_10":"8a1e05b4a24ffff","h3_11":"8b1e05b4a24afff"},"geometry":{"type":"Polygon","coordinates":[[[19.845176,50.005842],[19.845219,50.005838],[19.845227,50.005883],[19.845185,50.005886],[19.845176,50.005842]]]}},{"type":"Feature","id":"w705235031","properties":{"type":"yes","residential":false,"residents_est":0,"h3_10":"8a1e05b4a24ffff","h3_11":"8b1e05b4a24afff"},"geometry":{"type":"Polygon","coordinates":[[[19.844965,50.005759],[19.845051,50.005754],[19.845056,50.00579],[19.844969,50.005796],[19.844965,50.005759]]]}},{"type":"Feature","id":"w705235034","properties":{"type":"yes","residential":false,"residents_est":0,"h3_10":"8a1e05b4a277fff","h3_11":"8b1e05b4a274fff"},"geometry":{"type":"Polygon","coordinates":[[[19.841648,50.007207],[19.841691,50.007179],[19.841727,50.007202],[19.841683,50.00723],[19.841648,50.007207]]]}},{"type":"Feature","id":"w705235036","properties":{"type":"yes","residential":false,"residents_est":0,"h3_10":"8a1e05b4a22ffff","h3_11":"8b1e05b4a229fff"},"geometry":{"type":"Polygon","coordinates":[[[19.840816,50.007106],[19.840854,50.00708],[19.840902,50.00711],[19.840865,50.007135],[19.840816,50.007106]]]}},{"type":"Feature","id":"w705235037","properties":{"type":"yes","residential":false,"residents_est":0,"h3_10":"8a1e05b4a22ffff","h3_11":"8b1e05b4a229fff"},"geometry":{"type":"Polygon","coordinates":[[[19.840759,50.007144],[19.840816,50.007106],[19.840865,50.007135],[19.840807,50.007174],[19.840759,50.007144]]]}},{"type":"Feature","id":"w705235038","properties":{"type":"yes","residential":true,"residents_est":6,"h3_10":"8a1e05b4a207fff","h3_11":"8b1e05b4a201fff"},"geometry":{"type":"Polygon","coordinates":[[[19.839562,50.00662],[19.839635,50.00659],[19.839661,50.006592],[19.839674,50.006605],[19.839664,50.006633],[19.839653,50.006633],[19.83963,50.006666],[19.839582,50.00665],[19.839563,50.006635],[19.839578,50.006623],[19.839562,50.00662]]]}},{"type":"Feature","id":"w705235043","properties":{"type":"yes","residential":true,"residents_est":7,"h3_10":"8a1e05b4a36ffff","h3_11":"8b1e05b4a368fff"},"geometry":{"type":"Polygon","coordinates":[[[19.842693,50.009599],[19.842732,50.009518],[19.842971,50.009566],[19.842932,50.009646],[19.842693,50.009599]]]}},{"type":"Feature","id":"w705235044","properties":{"type":"yes","residential":false,"residents_est":0,"h3_10":"8a1e05b4a34ffff","h3_11":"8b1e05b4a34efff"},"geometry":{"type":"Polygon","coordinates":[[[19.842857,50.008705],[19.842894,50.008673],[19.842946,50.008699],[19.842907,50.00873],[19.842857,50.008705]]]}},{"type":"Feature","id":"w705235046","properties":{"type":"yes","residential":false,"residents_est":0,"h3_10":"8a1e05b4a267fff","h3_11":"8b1e05b4a266fff"},"geometry":{"type":"Polygon","coordinates":[[[19.842827,50.007319],[19.842885,50.00728],[19.842929,50.007306],[19.842872,50.007346],[19.842827,50.007319]]]}},{"type":"Feature","id":"w705235047","properties":{"type":"yes","residential":false,"residents_est":0,"h3_10":"8a1e05b4a267fff","h3_11":"8b1e05b4a266fff"},"geometry":{"type":"Polygon","coordinates":[[[19.842686,50.007377],[19.842722,50.007341],[19.842771,50.007362],[19.842735,50.007398],[19.842686,50.007377]]]}},{"type":"Feature","id":"w705235048","properties":{"type":"yes","residential":true,"residents_est":3,"h3_10":"8a1e05b4a267fff","h3_11":"8b1e05b4a260fff"},"geometry":{"type":"Polygon","coordinates":[[[19.843295,50.007586],[19.843325,50.007568],[19.843325,50.00756],[19.843339,50.007551],[19.843351,50.007552],[19.843383,50.007532],[19.843465,50.007587],[19.843376,50.007641],[19.843295,50.007586]]]}},{"type":"Feature","id":"w719343681","properties":{"type":"yes","residential":false,"residents_est":0,"h3_10":"8a1e05b4a25ffff","h3_11":"8b1e05b4a25cfff"},"geometry":{"type":"Polygon","coordinates":[[[19.844088,50.005542],[19.844168,50.005536],[19.844177,50.005584],[19.844098,50.005591],[19.844088,50.005542]]]}},{"type":"Feature","id":"w719386039","properties":{"type":"yes","residential":false,"residents_est":0,"h3_10":"8a1e05b4a357fff","h3_11":"8b1e05b4a355fff"},"geometry":{"type":"Polygon","coordinates":[[[19.840253,50.008808],[19.840279,50.008772],[19.840352,50.008795],[19.840325,50.00883],[19.840253,50.008808]]]}},{"type":"Feature","id":"w719386041","properties":{"type":"yes","residential":false,"residents_est":0,"h3_10":"8a1e05b4a357fff","h3_11":"8b1e05b4a355fff"},"geometry":{"type":"Polygon","coordinates":[[[19.840038,50.00874],[19.840116,50.008725],[19.840131,50.008756],[19.840052,50.008771],[19.840038,50.00874]]]}},{"type":"Feature","id":"w719386045","properties":{"type":"yes","address":"Podgórki Tynieckie 74c","residential":true,"residents_est":5,"h3_10":"8a1e05b4a277fff","h3_11":"8b1e05b4a275fff"},"geometry":{"type":"Polygon","coordinates":[[[19.84278,50.007079],[19.842853,50.007022],[19.843006,50.007104],[19.842933,50.00716],[19.84278,50.007079]]]}},{"type":"Feature","id":"w719386046","properties":{"type":"yes","residential":true,"residents_est":2,"h3_10":"8a1e05b4a277fff","h3_11":"8b1e05b4a274fff"},"geometry":{"type":"Polygon","coordinates":[[[19.841463,50.00704],[19.841513,50.00701],[19.841591,50.007063],[19.84154,50.007094],[19.841463,50.00704]]]}},{"type":"Feature","id":"w719386061","properties":{"type":"yes","residential":false,"residents_est":0,"h3_10":"8a1e05b4a2cffff","h3_11":"8b1e05b4a2cdfff"},"geometry":{"type":"Polygon","coordinates":[[[19.843125,50.003774],[19.84317,50.003726],[19.843246,50.003757],[19.843201,50.003805],[19.843125,50.003774]]]}},{"type":"Feature","id":"w719386062","properties":{"type":"yes","address":"Podgórki Tynieckie 62c","residential":true,"residents_est":6,"h3_10":"8a1e05b4a2effff","h3_11":"8b1e05b4a2ebfff"},"geometry":{"type":"Polygon","coordinates":[[[19.843198,50.004243],[19.843304,50.004134],[19.843409,50.004176],[19.84333,50.004257],[19.843375,50.004275],[19.843344,50.004307],[19.843198,50.004243]]]}},{"type":"Feature","id":"w1038752846","properties":{"type":"garage","levels":1.0,"residential":false,"residents_est":0,"h3_10":"8a1e05b4a2effff","h3_11":"8b1e05b4a2ecfff"},"geometry":{"type":"Polygon","coordinates":[[[19.84251,50.004965],[19.842568,50.004892],[19.842622,50.004909],[19.842564,50.004982],[19.84251,50.004965]]]}},{"type":"Feature","id":"w1184197255","properties":{"type":"yes","residential":true,"residents_est":7,"h3_10":"8a1e05b4a357fff","h3_11":"8b1e05b4a354fff"},"geometry":{"type":"Polygon","coordinates":[[[19.839364,50.008562],[19.839452,50.008485],[19.83963,50.008568],[19.839541,50.008646],[19.839364,50.008562]]]}},{"type":"Feature","id":"w1517884291","properties":{"type":"yes","residential":true,"residents_est":9,"h3_10":"8a1e05b4a267fff","h3_11":"8b1e05b4a260fff"},"geometry":{"type":"Polygon","coordinates":[[[19.843395,50.007396],[19.84347,50.007351],[19.843534,50.007395],[19.843595,50.007359],[19.8437,50.007431],[19.843538,50.007528],[19.843443,50.007463],[19.843469,50.007447],[19.843395,50.007396]]]}}]}