{"type":"FeatureCollection","features":[{"type":"Feature","id":"w54520876","properties":{"type":"retail","address":"Osiedle Tysiąclecia 15","residential":false,"residents_est":0,"h3_10":"8a1e2e6a395ffff","h3_11":"8b1e2e6a395cfff"},"geometry":{"type":"Polygon","coordinates":[[[20.001759,50.091339],[20.00182,50.091219],[20.001774,50.091209],[20.001828,50.091102],[20.001807,50.091098],[20.001862,50.09099],[20.002342,50.09109],[20.002289,50.091195],[20.002335,50.091205],[20.002281,50.091311],[20.002329,50.091321],[20.002266,50.091445],[20.001759,50.091339]]]}},{"type":"Feature","id":"w54520883","properties":{"type":"apartments","levels":5.0,"address":"Osiedle Tysiąclecia 52","residential":true,"residents_est":36,"h3_10":"8a1e2e6a3967fff","h3_11":"8b1e2e6a3962fff"},"geometry":{"type":"Polygon","coordinates":[[[20.000971,50.092692],[20.000989,50.092505],[20.00122,50.092514],[20.001202,50.092701],[20.001126,50.092698],[20.001128,50.092678],[20.001051,50.092675],[20.00105,50.092695],[20.000971,50.092692]]]}},{"type":"Feature","id":"w54520885","properties":{"type":"apartments","levels":5.0,"address":"Osiedle Tysiąclecia 51","residential":true,"residents_est":36,"h3_10":"8a1e2e6a3967fff","h3_11":"8b1e2e6a3966fff"},"geometry":{"type":"Polygon","coordinates":[[[20.001242,50.093166],[20.00126,50.092979],[20.001492,50.092988],[20.001474,50.093175],[20.001398,50.093172],[20.0014,50.093152],[20.001323,50.093149],[20.001321,50.093169],[20.001242,50.093166]]]}},{"type":"Feature","id":"w54520886","properties":{"type":"kindergarten","levels":2.0,"address":"Osiedle Tysiąclecia 37","residential":false,"residents_est":0,"h3_10":"8a1e2e6a3947fff","h3_11":"8b1e2e6a3941fff"},"geometry":{"type":"Polygon","coordinates":[[[20.002363,50.092011],[20.002418,50.091904],[20.0029,50.092006],[20.002845,50.092112],[20.002363,50.092011]]]}},{"type":"Feature","id":"w54520892","properties":{"type":"apartments","levels":5.0,"address":"Osiedle Tysiąclecia 55","residential":true,"residents_est":36,"h3_10":"8a1e2e6a3977fff","h3_11":"8b1e2e6a3974fff"},"geometry":{"type":"Polygon","coordinates":[[[19.999554,50.092739],[19.999572,50.092552],[19.999804,50.092561],[19.999786,50.092748],[19.99971,50.092745],[19.999712,50.092725],[19.999635,50.092722],[19.999633,50.092742],[19.999554,50.092739]]]}},{"type":"Feature","id":"w54520893","properties":{"type":"apartments","levels":5.0,"address":"Osiedle Tysiąclecia 56","residential":true,"residents_est":36,"h3_10":"8a1e2e6a3977fff","h3_11":"8b1e2e6a3970fff"},"geometry":{"type":"Polygon","coordinates":[[[19.999961,50.092354],[19.999979,50.092167],[20.00021,50.092176],[20.000192,50.092363],[20.000116,50.09236],[20.000118,50.09234],[20.000041,50.092337],[20.000039,50.092357],[19.999961,50.092354]]]}},{"type":"Feature","id":"w54520894","properties":{"type":"apartments","levels":5.0,"address":"Osiedle Tysiąclecia 54","residential":true,"residents_est":36,"h3_10":"8a1e2e6a3977fff","h3_11":"8b1e2e6a3975fff"},"geometry":{"type":"Polygon","coordinates":[[[20.000274,50.092745],[20.000292,50.092557],[20.000523,50.092566],[20.000505,50.092754],[20.000429,50.092751],[20.000431,50.092731],[20.000355,50.092728],[20.000353,50.092748],[20.000274,50.092745]]]}},{"type":"Feature","id":"w54520895","properties":{"type":"apartments","levels":5.0,"address":"Osiedle Tysiąclecia 53","residential":true,"residents_est":36,"h3_10":"8a1e2e6a3977fff","h3_11":"8b1e2e6a3971fff"},"geometry":{"type":"Polygon","coordinates":[[[20.000611,50.092351],[20.000629,50.092164],[20.00086,50.092173],[20.000842,50.09236],[20.000767,50.092357],[20.000769,50.092337],[20.000692,50.092334],[20.00069,50.092354],[20.000611,50.092351]]]}},{"type":"Feature","id":"w54520902","properties":{"type":"yes","address":"Osiedle Tysiąclecia 61","residential":true,"residents_est":27,"h3_10":"8a1e2e6a3907fff","h3_11":"8b1e2e6a3904fff"},"geometry":{"type":"Polygon","coordinates":[[[19.996469,50.092267],[19.996478,50.092162],[19.997214,50.092185],[19.997207,50.092288],[19.997131,50.092285],[19.99713,50.092311],[19.997122,50.092311],[19.997123,50.092299],[19.99709,50.092298],[19.997046,50.092309],[19.997048,50.092282],[19.996893,50.092277],[19.996891,50.092303],[19.996886,50.092303],[19.996886,50.092292],[19.996847,50.092291],[19.996808,50.0923],[19.99681,50.092274],[19.996655,50.092268],[19.996653,50.092295],[19.996647,50.092295],[19.996648,50.092285],[19.996605,50.092283],[19.996566,50.092292],[19.996569,50.092265],[19.996561,50.09227],[19.996469,50.092267]]]}},{"type":"Feature","id":"w54520903","properties":{"type":"yes","address":"Osiedle Tysiąclecia 62","residential":true,"residents_est":29,"h3_10":"8a1e2e6a3907fff","h3_11":"8b1e2e6a3906fff"},"geometry":{"type":"Polygon","coordinates":[[[19.995747,50.091978],[19.995754,50.091869],[19.996502,50.091896],[19.996494,50.092001],[19.996415,50.091999],[19.996413,50.092026],[19.996402,50.092026],[19.996403,50.092014],[19.996367,50.092013],[19.996324,50.092025],[19.996326,50.091995],[19.996174,50.09199],[19.996172,50.092015],[19.996165,50.092014],[19.996165,50.092007],[19.996119,50.092006],[19.996082,50.092016],[19.996086,50.091985],[19.995935,50.091979],[19.995933,50.092004],[19.995926,50.092004],[19.995927,50.091995],[19.995887,50.091993],[19.995848,50.092003],[19.995851,50.091982],[19.995747,50.091978]]]}},{"type":"Feature","id":"w54520904","properties":{"type":"yes","address":"Osiedle Tysiąclecia 63","residential":true,"residents_est":29,"h3_10":"8a1e2e6a3927fff","h3_11":"8b1e2e6a3922fff"},"geometry":{"type":"Polygon","coordinates":[[[19.995698,50.092502],[19.995707,50.092395],[19.996452,50.092417],[19.996444,50.092526],[19.996363,50.092523],[19.99636,50.092551],[19.996353,50.092551],[19.996353,50.092539],[19.996321,50.092537],[19.996276,50.092549],[19.996277,50.09252],[19.996126,50.092515],[19.996123,50.092541],[19.996117,50.092541],[19.996118,50.092531],[19.996083,50.09253],[19.996038,50.092543],[19.99604,50.092513],[19.995889,50.092509],[19.995887,50.092535],[19.995872,50.092523],[19.995841,50.092523],[19.995798,50.092533],[19.9958,50.092506],[19.995698,50.092502]]]}},{"type":"Feature","id":"w54520905","properties":{"type":"apartments","levels":11.0,"address":"Osiedle Tysiąclecia 64","residential":true,"residents_est":109,"h3_10":"8a1e2e6a3927fff","h3_11":"8b1e2e6a3920fff"},"geometry":{"type":"Polygon","coordinates":[[[19.996218,50.093056],[19.996229,50.09292],[19.996404,50.092926],[19.996401,50.092956],[19.996733,50.092967],[19.996723,50.093093],[19.996602,50.093088],[19.996604,50.093057],[19.996343,50.093048],[19.996342,50.09306],[19.996218,50.093056]]]}},{"type":"Feature","id":"w54520906","properties":{"type":"yes","address":"Osiedle Tysiąclecia 65","residential":true,"residents_est":20,"h3_10":"8a1e2e6a3927fff","h3_11":"8b1e2e6a3925fff"},"geometry":{"type":"Polygon","coordinates":[[[19.996696,50.093445],[19.996707,50.093308],[19.99688,50.093314],[19.996877,50.093345],[19.997211,50.093357],[19.9972,50.093482],[19.997077,50.093477],[19.997079,50.093446],[19.99682,50.093437],[19.996819,50.093449],[19.996696,50.093445]]]}},{"type":"Feature","id":"w54520909","properties":{"type":"apartments","levels":5.0,"address":"Osiedle Tysiąclecia 34","residential":true,"residents_est":104,"h3_10":"8a1e2e6a396ffff","h3_11":"8b1e2e6a3969fff"},"geometry":{"type":"Polygon","coordinates":[[[20.004233,50.092527],[20.004371,50.092475],[20.00497,50.093129],[20.004831,50.093182],[20.004233,50.092527]]]}},{"type":"Feature","id":"w54520910","properties":{"type":"apartments","levels":5.0,"address":"Osiedle Tysiąclecia 35","residential":true,"residents_est":123,"h3_10":"8a1e2e6a396ffff","h3_11":"8b1e2e6a396dfff"},"geometry":{"type":"Polygon","coordinates":[[[20.003585,50.092551],[20.003729,50.092499],[20.004393,50.093264],[20.004248,50.093316],[20.003585,50.092551]]]}},{"type":"Feature","id":"w54520915","properties":{"type":"yes","address":"Osiedle Tysiąclecia 59","residential":true,"residents_est":27,"h3_10":"8a1e2e6a392ffff","h3_11":"8b1e2e6a392cfff"},"geometry":{"type":"Polygon","coordinates":[[[19.997976,50.092868],[19.997981,50.092765],[19.998735,50.092789],[19.998724,50.092892],[19.998638,50.092889],[19.998635,50.092913],[19.998629,50.092913],[19.99863,50.0929],[19.998599,50.092899],[19.998556,50.092911],[19.998558,50.092883],[19.9984,50.092879],[19.998398,50.092904],[19.998393,50.092904],[19.998393,50.092892],[19.998358,50.092891],[19.998317,50.092902],[19.998318,50.092877],[19.998157,50.092873],[19.998155,50.092896],[19.998149,50.092896],[19.99815,50.092885],[19.998114,50.092884],[19.998074,50.092894],[19.998075,50.092871],[19.997976,50.092868]]]}},{"type":"Feature","id":"w54520916","properties":{"type":"yes","address":"Osiedle Tysiąclecia 60","residential":true,"residents_est":28,"h3_10":"8a1e2e6a392ffff","h3_11":"8b1e2e6a392efff"},"geometry":{"type":"Polygon","coordinates":[[[19.997189,50.092556],[19.997196,50.09245],[19.997934,50.092477],[19.997925,50.09258],[19.997847,50.092577],[19.997845,50.092602],[19.997843,50.092592],[19.997803,50.09259],[19.997762,50.092599],[19.997764,50.092574],[19.997606,50.092568],[19.997599,50.092594],[19.997601,50.092584],[19.997562,50.092582],[19.997523,50.092591],[19.997525,50.092565],[19.997372,50.09256],[19.99737,50.092586],[19.997364,50.092586],[19.997365,50.092575],[19.997329,50.092574],[19.997287,50.092583],[19.997289,50.092556],[19.997189,50.092556]]]}},{"type":"Feature","id":"w54520918","properties":{"type":"apartments","levels":5.0,"address":"Osiedle Tysiąclecia 36","residential":true,"residents_est":81,"h3_10":"8a1e2e6a394ffff","h3_11":"8b1e2e6a394cfff"},"geometry":{"type":"Polygon","coordinates":[[[20.003244,50.091786],[20.003375,50.091739],[20.003851,50.092295],[20.00372,50.092342],[20.003244,50.091786]]]}},{"type":"Feature","id":"w54520920","properties":{"type":"apartments","levels":5.0,"address":"Osiedle Tysiąclecia 31","residential":true,"residents_est":97,"h3_10":"8a1e2e6a394ffff","h3_11":"8b1e2e6a394dfff"},"geometry":{"type":"Polygon","coordinates":[[[20.003895,50.091797],[20.004054,50.09174],[20.00453,50.092284],[20.004371,50.092342],[20.003895,50.091797]]]}},{"type":"Feature","id":"w54520930","properties":{"type":"apartments","levels":5.0,"address":"Osiedle Tysiąclecia 24","residential":true,"residents_est":70,"h3_10":"8a1e2e6a3867fff","h3_11":"8b1e2e6a3866fff"},"geometry":{"type":"Polygon","coordinates":[[[20.003458,50.090537],[20.003502,50.090449],[20.00435,50.090625],[20.004305,50.090713],[20.003458,50.090537]]]}},{"type":"Feature","id":"w54520933","properties":{"type":"apartments","levels":5.0,"address":"Osiedle Tysiąclecia 25","residential":true,"residents_est":70,"h3_10":"8a1e2e6a3867fff","h3_11":"8b1e2e6a3864fff"},"geometry":{"type":"Polygon","coordinates":[[[20.003572,50.090916],[20.003616,50.090828],[20.004464,50.091004],[20.004419,50.091092],[20.003572,50.090916]]]}},{"type":"Feature","id":"w54520934","properties":{"type":"apartments","levels":5.0,"address":"Osiedle Tysiąclecia 26","residential":true,"residents_est":70,"h3_10":"8a1e2e6a394ffff","h3_11":"8b1e2e6a394bfff"},"geometry":{"type":"Polygon","coordinates":[[[20.003704,50.091295],[20.003748,50.091207],[20.004596,50.091383],[20.004551,50.091471],[20.003704,50.091295]]]}},{"type":"Feature","id":"w54520936","properties":{"type":"apartments","levels":5.0,"address":"Osiedle Tysiąclecia 16","residential":true,"residents_est":54,"h3_10":"8a1e2e6a395ffff","h3_11":"8b1e2e6a395dfff"},"geometry":{"type":"Polygon","coordinates":[[[20.002684,50.091307],[20.002731,50.091216],[20.003364,50.091351],[20.003317,50.091442],[20.002684,50.091307]]]}},{"type":"Feature","id":"w54520937","properties":{"type":"kindergarten","levels":2.0,"address":"Osiedle Tysiąclecia 14","residential":false,"residents_est":0,"h3_10":"8a1e2e6a3957fff","h3_11":"8b1e2e6a3950fff"},"geometry":{"type":"Polygon","coordinates":[[[20.000419,50.09115],[20.000486,50.091071],[20.00055,50.091095],[20.000581,50.091072],[20.001,50.091228],[20.000965,50.091257],[20.001067,50.091288],[20.001025,50.091356],[20.000419,50.09115]]]}},{"type":"Feature","id":"w54520940","properties":{"type":"apartments","levels":5.0,"address":"Osiedle Tysiąclecia 8","residential":true,"residents_est":106,"h3_10":"8a1e2e6a382ffff","h3_11":"8b1e2e6a382cfff"},"geometry":{"type":"Polygon","coordinates":[[[20.000438,50.090409],[20.000528,50.090311],[20.001001,50.090489],[20.000988,50.090504],[20.001462,50.090683],[20.001373,50.09078],[20.000898,50.090601],[20.000911,50.090588],[20.000438,50.090409]]]}},{"type":"Feature","id":"w54520943","properties":{"type":"apartments","levels":5.0,"address":"Osiedle Tysiąclecia 22","residential":true,"residents_est":109,"h3_10":"8a1e2e6a3877fff","h3_11":"8b1e2e6a3870fff"},"geometry":{"type":"Polygon","coordinates":[[[20.001994,50.089715],[20.002039,50.089623],[20.003311,50.089887],[20.003265,50.089978],[20.001994,50.089715]]]}},{"type":"Feature","id":"w54520948","properties":{"type":"apartments","levels":5.0,"address":"Osiedle Tysiąclecia 21","residential":true,"residents_est":109,"h3_10":"8a1e2e6a3877fff","h3_11":"8b1e2e6a3874fff"},"geometry":{"type":"Polygon","coordinates":[[[20.001666,50.09001],[20.001712,50.089918],[20.002984,50.090182],[20.002938,50.090273],[20.001666,50.09001]]]}},{"type":"Feature","id":"w54520953","properties":{"type":"apartments","levels":5.0,"address":"Osiedle Tysiąclecia 19","residential":true,"residents_est":109,"h3_10":"8a1e2e6a395ffff","h3_11":"8b1e2e6a395afff"},"geometry":{"type":"Polygon","coordinates":[[[20.001798,50.090387],[20.001844,50.090296],[20.003116,50.090559],[20.00307,50.09065],[20.001798,50.090387]]]}},{"type":"Feature","id":"w54520960","properties":{"type":"apartments","levels":5.0,"address":"Osiedle Tysiąclecia 18","residential":true,"residents_est":109,"h3_10":"8a1e2e6a395ffff","h3_11":"8b1e2e6a3958fff"},"geometry":{"type":"Polygon","coordinates":[[[20.001925,50.090775],[20.001971,50.090684],[20.003243,50.090947],[20.003197,50.091039],[20.001925,50.090775]]]}},{"type":"Feature","id":"w54520972","properties":{"type":"apartments","address":"Osiedle Tysiąclecia 5","residential":true,"residents_est":106,"h3_10":"8a1e2e6a3807fff","h3_11":"8b1e2e6a3800fff"},"geometry":{"type":"Polygon","coordinates":[[[19.99908,50.089408],[19.99917,50.08931],[19.999643,50.089488],[19.99963,50.089503],[20.000105,50.089681],[20.000015,50.089779],[19.99954,50.0896],[19.999553,50.089587],[19.99908,50.089408]]]}},{"type":"Feature","id":"w54520973","properties":{"type":"apartments","levels":5.0,"address":"Osiedle Tysiąclecia 6","residential":true,"residents_est":127,"h3_10":"8a1e2e6a3827fff","h3_11":"8b1e2e6a3823fff"},"geometry":{"type":"Polygon","coordinates":[[[19.998959,50.089778],[19.999053,50.089676],[19.999365,50.089794],[19.99935,50.08981],[20.000137,50.090108],[20.000044,50.090208],[19.999258,50.089911],[19.999272,50.089896],[19.998959,50.089778]]]}},{"type":"Feature","id":"w54520974","properties":{"type":"apartments","levels":5.0,"address":"Osiedle Tysiąclecia 10","residential":true,"residents_est":124,"h3_10":"8a1e2e6a3827fff","h3_11":"8b1e2e6a3820fff"},"geometry":{"type":"Polygon","coordinates":[[[19.99899,50.090205],[19.999081,50.090106],[19.999399,50.090226],[19.999386,50.090241],[20.000176,50.090539],[20.000087,50.090636],[19.999297,50.090338],[19.999309,50.090325],[19.99899,50.090205]]]}},{"type":"Feature","id":"w54520975","properties":{"type":"apartments","levels":5.0,"address":"Osiedle Tysiąclecia 2","residential":true,"residents_est":88,"h3_10":"8a1e2e6a382ffff","h3_11":"8b1e2e6a382afff"},"geometry":{"type":"Polygon","coordinates":[[[20.000451,50.089553],[20.000541,50.089454],[20.001014,50.089633],[20.001001,50.089647],[20.001308,50.089763],[20.001219,50.089861],[20.000911,50.089745],[20.000924,50.089731],[20.000451,50.089553]]]}},{"type":"Feature","id":"w54520979","properties":{"type":"apartments","levels":5.0,"address":"Osiedle Tysiąclecia 7","residential":true,"residents_est":106,"h3_10":"8a1e2e6a382ffff","h3_11":"8b1e2e6a3828fff"},"geometry":{"type":"Polygon","coordinates":[[[20.000408,50.089959],[20.000498,50.089861],[20.000972,50.090039],[20.000958,50.090053],[20.001433,50.090232],[20.001344,50.09033],[20.000869,50.090151],[20.000881,50.090137],[20.000408,50.089959]]]}},{"type":"Feature","id":"w54520981","properties":{"type":"apartments","residential":true,"residents_est":74,"h3_10":"8a1e2e6a3997fff","h3_11":"8b1e2e6a3996fff"},"geometry":{"type":"Polygon","coordinates":[[[19.992213,50.088828],[19.992392,50.088754],[19.992411,50.088774],[19.992604,50.088694],[19.992473,50.08856],[19.992463,50.088565],[19.992428,50.08853],[19.992512,50.088496],[19.9925,50.088484],[19.99256,50.088459],[19.992614,50.088515],[19.992635,50.088506],[19.992659,50.088531],[19.992638,50.08854],[19.992706,50.088609],[19.992726,50.088601],[19.992752,50.088628],[19.992732,50.088636],[19.992785,50.08869],[19.992724,50.088715],[19.992714,50.088704],[19.992625,50.08874],[19.99267,50.088785],[19.992601,50.088813],[19.992618,50.088832],[19.99258,50.088847],[19.992562,50.08883],[19.992489,50.088859],[19.99247,50.088841],[19.992403,50.08887],[19.992418,50.088884],[19.99238,50.088901],[19.992363,50.088884],[19.992299,50.088911],[19.992213,50.088828]]]}},{"type":"Feature","id":"w54520982","properties":{"type":"apartments","levels":5.0,"residential":true,"residents_est":56,"h3_10":"8a1e2e6a3997fff","h3_11":"8b1e2e6a3992fff"},"geometry":{"type":"Polygon","coordinates":[[[19.992341,50.088302],[19.992359,50.088204],[19.992567,50.088218],[19.992573,50.088187],[19.992999,50.088215],[19.992981,50.088314],[19.99289,50.088307],[19.992886,50.08833],[19.992841,50.088326],[19.992845,50.088305],[19.992674,50.088292],[19.99267,50.088314],[19.992624,50.08831],[19.992628,50.088291],[19.992556,50.088285],[19.99255,50.088316],[19.992464,50.088309],[19.99246,50.088331],[19.992418,50.088327],[19.992421,50.088307],[19.992341,50.088302]]]}},{"type":"Feature","id":"w54520983","properties":{"type":"apartments","levels":5.0,"address":"Osiedle Tysiąclecia 1","residential":true,"residents_est":142,"h3_10":"8a1e2e6a380ffff","h3_11":"8b1e2e6a380cfff"},"geometry":{"type":"Polygon","coordinates":[[[20.000096,50.088989],[20.000187,50.08889],[20.001136,50.089248],[20.001122,50.089262],[20.00143,50.089378],[20.00134,50.089476],[20.001033,50.08936],[20.001045,50.089346],[20.000096,50.088989]]]}},{"type":"Feature","id":"w54520984","properties":{"type":"apartments","levels":5.0,"address":"Osiedle Tysiąclecia 3","residential":true,"residents_est":88,"h3_10":"8a1e2e6a3807fff","h3_11":"8b1e2e6a3800fff"},"geometry":{"type":"Polygon","coordinates":[[[19.999451,50.08914],[19.999541,50.089041],[20.000014,50.08922],[20.000001,50.089234],[20.000308,50.08935],[20.000219,50.089447],[19.999911,50.089332],[19.999924,50.089318],[19.999451,50.08914]]]}},{"type":"Feature","id":"w54520985","properties":{"type":"yes","address":"Osiedle Oświecenia 21","residential":true,"residents_est":63,"h3_10":"8a1e2e6a399ffff","h3_11":"8b1e2e6a399cfff"},"geometry":{"type":"Polygon","coordinates":[[[19.993864,50.088631],[19.993956,50.088539],[19.994006,50.08856],[19.994016,50.08855],[19.994124,50.088593],[19.994115,50.088603],[19.994168,50.088623],[19.994177,50.088613],[19.994294,50.088657],[19.99459,50.088348],[19.994765,50.088416],[19.994805,50.088375],[19.99502,50.088462],[19.994973,50.08851],[19.995009,50.088526],[19.994932,50.088606],[19.9948,50.088554],[19.994833,50.088519],[19.994749,50.088486],[19.994741,50.088494],[19.994685,50.088472],[19.99466,50.088498],[19.99472,50.088521],[19.994608,50.088639],[19.994552,50.088616],[19.994534,50.088635],[19.994593,50.088659],[19.994519,50.088733],[19.994441,50.088699],[19.994324,50.08882],[19.994158,50.088753],[19.994179,50.088729],[19.994149,50.088716],[19.994105,50.088698],[19.994085,50.088718],[19.994048,50.088703],[19.994057,50.088694],[19.994005,50.088672],[19.993987,50.08869],[19.993951,50.088675],[19.993957,50.088669],[19.993864,50.088631]]]}},{"type":"Feature","id":"w54520988","properties":{"type":"yes","residential":true,"residents_est":33,"h3_10":"8a1e2e6a398ffff","h3_11":"8b1e2e6a398afff"},"geometry":{"type":"Polygon","coordinates":[[[19.995276,50.088433],[19.995394,50.088319],[19.995458,50.088347],[19.995448,50.088356],[19.995516,50.088387],[19.995508,50.088395],[19.995594,50.088433],[19.995612,50.088416],[19.995968,50.08857],[19.996002,50.088537],[19.996181,50.088614],[19.996092,50.088698],[19.995916,50.08862],[19.99588,50.088655],[19.995526,50.088502],[19.995509,50.088518],[19.995385,50.088465],[19.995375,50.088475],[19.995276,50.088433]]]}},{"type":"Feature","id":"w54520989","properties":{"type":"yes","residential":true,"residents_est":31,"h3_10":"8a1e2e6a398ffff","h3_11":"8b1e2e6a398efff"},"geometry":{"type":"Polygon","coordinates":[[[19.995198,50.088799],[19.99534,50.088662],[19.995399,50.088688],[19.99539,50.088698],[19.995474,50.088734],[19.995432,50.088774],[19.99542,50.088769],[19.995379,50.088808],[19.995745,50.088968],[19.99576,50.088954],[19.995938,50.089031],[19.995852,50.089113],[19.995673,50.089036],[19.995655,50.089053],[19.9953,50.0889],[19.995351,50.08885],[19.995271,50.088816],[19.99526,50.088825],[19.995198,50.088799]]]}},{"type":"Feature","id":"w54520993","properties":{"type":"apartments","residential":true,"residents_est":77,"h3_10":"8a1e2e6a39a7fff","h3_11":"8b1e2e6a39a1fff"},"geometry":{"type":"Polygon","coordinates":[[[19.994369,50.090156],[19.994461,50.090071],[19.994526,50.090094],[19.994521,50.0901],[19.994585,50.090128],[19.99459,50.090124],[19.994608,50.090132],[19.994602,50.090137],[19.994812,50.090232],[19.994833,50.090212],[19.99501,50.090291],[19.995031,50.090271],[19.995067,50.090288],[19.995076,50.09028],[19.995092,50.090287],[19.995083,50.090295],[19.995147,50.090324],[19.995156,50.090316],[19.995175,50.090325],[19.995167,50.090333],[19.995201,50.090348],[19.995113,50.090428],[19.995054,50.090401],[19.995019,50.090432],[19.994975,50.090412],[19.99501,50.09038],[19.99494,50.090348],[19.994917,50.090369],[19.994854,50.090341],[19.994834,50.090359],[19.994795,50.090342],[19.994815,50.090324],[19.994745,50.090292],[19.994722,50.090313],[19.994652,50.090282],[19.994631,50.090301],[19.994594,50.090284],[19.994615,50.090265],[19.994482,50.090205],[19.994461,50.090225],[19.994419,50.090206],[19.994439,50.090188],[19.994369,50.090156]]]}},{"type":"Feature","id":"w54520995","properties":{"type":"apartments","residential":true,"residents_est":76,"h3_10":"8a1e2e6a3987fff","h3_11":"8b1e2e6a3985fff"},"geometry":{"type":"Polygon","coordinates":[[[19.994441,50.089738],[19.994499,50.089683],[19.994475,50.089673],[19.994499,50.08965],[19.994524,50.089661],[19.994603,50.089588],[19.994575,50.089576],[19.994599,50.089554],[19.994627,50.089566],[19.994686,50.089511],[19.994741,50.089535],[19.994729,50.089546],[19.994813,50.089583],[19.994778,50.089616],[19.994766,50.089611],[19.99462,50.089748],[19.994843,50.089845],[19.994856,50.089833],[19.994875,50.089841],[19.994864,50.089851],[19.994932,50.089881],[19.994939,50.089873],[19.994961,50.089883],[19.994954,50.08989],[19.994988,50.089905],[19.994901,50.089987],[19.994833,50.089958],[19.994804,50.089987],[19.994765,50.08997],[19.994794,50.089941],[19.994653,50.089882],[19.994635,50.0899],[19.994598,50.089884],[19.994616,50.089867],[19.994544,50.089835],[19.994591,50.089791],[19.994507,50.089754],[19.994498,50.089762],[19.994441,50.089738]]]}},{"type":"Feature","id":"w54520998","properties":{"type":"yes","residential":true,"residents_est":5,"h3_10":"8a1e2e6a3987fff","h3_11":"8b1e2e6a3985fff"},"geometry":{"type":"Polygon","coordinates":[[[19.995078,50.089702],[19.995199,50.08959],[19.995263,50.089618],[19.995251,50.08963],[19.995322,50.089661],[19.995314,50.08967],[19.995394,50.089704],[19.995308,50.089786],[19.995219,50.08975],[19.995201,50.089766],[19.995167,50.089751],[19.995173,50.089745],[19.995078,50.089702]]]}},{"type":"Feature","id":"w54521000","properties":{"type":"yes","residential":true,"residents_est":24,"h3_10":"8a1e2e6a3987fff","h3_11":"8b1e2e6a3981fff"},"geometry":{"type":"Polygon","coordinates":[[[19.994818,50.089386],[19.994874,50.089334],[19.994846,50.089322],[19.994872,50.089297],[19.994899,50.089308],[19.99496,50.089251],[19.995015,50.089275],[19.995006,50.089286],[19.995088,50.089322],[19.995142,50.089277],[19.995489,50.089431],[19.995399,50.089515],[19.995334,50.089487],[19.995317,50.089503],[19.995277,50.089486],[19.995294,50.089469],[19.995158,50.08941],[19.995141,50.089425],[19.995104,50.089409],[19.995122,50.089392],[19.99504,50.089356],[19.994995,50.089398],[19.995008,50.089404],[19.99497,50.089439],[19.994882,50.089401],[19.994872,50.08941],[19.994818,50.089386]]]}},{"type":"Feature","id":"w54521005","properties":{"type":"apartments","address":"Osiedle Oświecenia 8","residential":true,"residents_est":87,"h3_10":"8a1e2e6a39a7fff","h3_11":"8b1e2e6a39a4fff"},"geometry":{"type":"Polygon","coordinates":[[[19.993744,50.090878],[19.993748,50.090852],[19.993772,50.090853],[19.993787,50.09073],[19.99376,50.090729],[19.993763,50.090702],[19.993771,50.090702],[19.993782,50.090624],[19.99399,50.090634],[19.993984,50.090686],[19.993963,50.090685],[19.993957,50.090738],[19.993934,50.090737],[19.993906,50.090977],[19.994284,50.090995],[19.994273,50.091094],[19.99419,50.091089],[19.994188,50.091107],[19.994144,50.091105],[19.994146,50.091088],[19.993982,50.091079],[19.993979,50.091096],[19.993819,50.091082],[19.993825,50.09104],[19.99381,50.091039],[19.993813,50.091014],[19.993837,50.091015],[19.993848,50.090937],[19.993761,50.090933],[19.993767,50.09088],[19.993744,50.090878]]]}},{"type":"Feature","id":"w54521017","properties":{"type":"apartments","residential":true,"residents_est":61,"h3_10":"8a1e2e6a39b7fff","h3_11":"8b1e2e6a39b6fff"},"geometry":{"type":"Polygon","coordinates":[[[19.991905,50.089695],[19.992359,50.089515],[19.992348,50.089503],[19.992417,50.089475],[19.992407,50.089464],[19.992473,50.089438],[19.992582,50.089553],[19.992484,50.089595],[19.992488,50.089599],[19.992452,50.089615],[19.992434,50.089599],[19.992273,50.089663],[19.992284,50.089674],[19.992247,50.089689],[19.992231,50.089671],[19.992089,50.089727],[19.992105,50.089744],[19.992066,50.08976],[19.99205,50.089743],[19.991978,50.089771],[19.991905,50.089695]]]}},{"type":"Feature","id":"w54521020","properties":{"type":"apartments","residential":true,"residents_est":104,"h3_10":"8a1e2e6a39b7fff","h3_11":"8b1e2e6a39b4fff"},"geometry":{"type":"Polygon","coordinates":[[[19.99166,50.090181],[19.992023,50.090037],[19.992068,50.090085],[19.992251,50.090011],[19.992279,50.090039],[19.992365,50.090004],[19.992356,50.089995],[19.992424,50.089966],[19.992323,50.089863],[19.992316,50.089866],[19.992284,50.089832],[19.992364,50.089799],[19.99235,50.089785],[19.992408,50.089761],[19.992467,50.08982],[19.992494,50.089808],[19.992517,50.089832],[19.992489,50.089843],[19.992523,50.089877],[19.992466,50.089901],[19.992486,50.089921],[19.992476,50.089925],[19.992594,50.090044],[19.992492,50.090085],[19.9925,50.090094],[19.992464,50.090109],[19.992445,50.090089],[19.992355,50.090124],[19.99233,50.090097],[19.992263,50.090124],[19.992279,50.090141],[19.992241,50.090156],[19.992224,50.090139],[19.992151,50.090168],[19.992106,50.090122],[19.992037,50.09015],[19.992053,50.090167],[19.992016,50.090182],[19.991999,50.090164],[19.991857,50.090221],[19.991875,50.090239],[19.991838,50.090254],[19.99182,50.090236],[19.991746,50.090266],[19.99166,50.090181]]]}},{"type":"Feature","id":"w54521023","properties":{"type":"apartments","address":"Osiedle Oświecenia 16","residential":true,"residents_est":135,"h3_10":"8a1e2e6a39a7fff","h3_11":"8b1e2e6a39a6fff"},"geometry":{"type":"Polygon","coordinates":[[[19.993033,50.090433],[19.993053,50.090298],[19.993134,50.090303],[19.993132,50.090316],[19.993216,50.090321],[19.993215,50.090333],[19.993314,50.090339],[19.993318,50.090311],[19.99355,50.090325],[19.993572,50.090179],[19.99355,50.090177],[19.993558,50.090121],[19.993537,50.09012],[19.993545,50.090071],[19.993752,50.090083],[19.993754,50.090073],[19.993773,50.090074],[19.993795,50.089924],[19.993777,50.089923],[19.993785,50.089871],[19.993764,50.08987],[19.993771,50.089817],[19.993981,50.089828],[19.99397,50.089904],[19.993985,50.089905],[19.993981,50.089932],[19.993951,50.089929],[19.993932,50.090043],[19.993967,50.090043],[19.993963,50.090071],[19.993927,50.090069],[19.993918,50.090135],[19.993855,50.090131],[19.993857,50.090118],[19.99375,50.090111],[19.993743,50.090159],[19.993757,50.090159],[19.993753,50.090187],[19.993721,50.090185],[19.993706,50.090292],[19.993739,50.090294],[19.993735,50.090322],[19.993702,50.09032],[19.993693,50.090387],[19.993624,50.090383],[19.993625,50.090371],[19.993522,50.090365],[19.993514,50.090421],[19.993431,50.090416],[19.993428,50.090437],[19.993389,50.090435],[19.993392,50.090414],[19.993305,50.090409],[19.993301,50.090433],[19.993198,50.090427],[19.993195,50.09045],[19.993153,50.090448],[19.993153,50.09044],[19.993033,50.090433]]]}},{"type":"Feature","id":"w54566477","properties":{"type":"apartments","levels":11.0,"address":"Osiedle Dywizjonu 303 19","residential":true,"residents_est":228,"h3_10":"8a1e2e6a38dffff","h3_11":"8b1e2e6a38d9fff"},"geometry":{"type":"Polygon","coordinates":[[[20.002315,50.085666],[20.002316,50.085607],[20.00237,50.085607],[20.002371,50.085594],[20.002351,50.085594],[20.002357,50.08554],[20.002981,50.085561],[20.002985,50.085546],[20.003272,50.085556],[20.003272,50.085572],[20.003302,50.085572],[20.003306,50.085558],[20.003392,50.08556],[20.003384,50.08567],[20.002976,50.085657],[20.002975,50.085675],[20.002536,50.08566],[20.002532,50.085691],[20.002454,50.085689],[20.002453,50.08567],[20.002315,50.085666]]]}},{"type":"Feature","id":"w54566480","properties":{"type":"garage","residential":false,"residents_est":0,"h3_10":"8a1e2e6a38cffff","h3_11":"8b1e2e6a38cafff"},"geometry":{"type":"Polygon","coordinates":[[[20.003007,50.086107],[20.003929,50.086086],[20.003932,50.08614],[20.00301,50.086163],[20.003007,50.086107]]]}},{"type":"Feature","id":"w54566492","properties":{"type":"apartments","levels":11.0,"address":"Osiedle Dywizjonu 303 18","residential":true,"residents_est":91,"h3_10":"8a1e2e6a38dffff","h3_11":"8b1e2e6a38dafff"},"geometry":{"type":"Polygon","coordinates":[[[20.002066,50.085285],[20.002073,50.085198],[20.002161,50.085199],[20.002161,50.085211],[20.002192,50.085212],[20.002194,50.085186],[20.002291,50.085187],[20.002291,50.085166],[20.002382,50.085169],[20.002363,50.085364],[20.002276,50.085361],[20.002277,50.085345],[20.002077,50.08534],[20.002081,50.085284],[20.002066,50.085285]]]}},{"type":"Feature","id":"w83005409","properties":{"type":"office","address":"Osiedle Kombatantów 18","residential":false,"residents_est":0,"h3_10":"8a1e2e6a3847fff","h3_11":"8b1e2e6a3841fff"},"geometry":{"type":"Polygon","coordinates":[[[20.004966,50.089207],[20.005088,50.089126],[20.005472,50.089364],[20.005349,50.089446],[20.004966,50.089207]]]}},{"type":"Feature","id":"w83005410","properties":{"type":"retail","address":"Osiedle Kombatantów 19","name":"Norauto","residential":false,"residents_est":0,"h3_10":"8a1e2e6a3847fff","h3_11":"8b1e2e6a3843fff"},"geometry":{"type":"Polygon","coordinates":[[[20.004292,50.088937],[20.004385,50.088808],[20.00479,50.088929],[20.004761,50.088968],[20.004737,50.088961],[20.004654,50.089077],[20.004356,50.088988],[20.004292,50.088937]]]}},{"type":"Feature","id":"w83005425","properties":{"type":"yes","residential":true,"residents_est":3,"h3_10":"8a1e2e6a3847fff","h3_11":"8b1e2e6a3841fff"},"geometry":{"type":"Polygon","coordinates":[[[20.005057,50.089429],[20.005107,50.089394],[20.005376,50.08955],[20.005326,50.089586],[20.005057,50.089429]]]}},{"type":"Feature","id":"w83005428","properties":{"type":"yes","address":"Osiedle Kombatantów 18a","residential":true,"residents_est":16,"h3_10":"8a1e2e6a3847fff","h3_11":"8b1e2e6a3841fff"},"geometry":{"type":"Polygon","coordinates":[[[20.004727,50.089325],[20.004794,50.089277],[20.005326,50.089586],[20.005259,50.089633],[20.004727,50.089325]]]}},{"type":"Feature","id":"w83005432","properties":{"type":"retail","address":"Osiedle Kombatantów 20","residential":false,"residents_est":0,"h3_10":"8a1e2e6a3847fff","h3_11":"8b1e2e6a3846fff"},"geometry":{"type":"Polygon","coordinates":[[[20.003689,50.089186],[20.003812,50.089111],[20.004018,50.08925],[20.003893,50.089324],[20.003689,50.089186]]]}},{"type":"Feature","id":"w83005462","properties":{"type":"retail","levels":1.0,"name":"MOL","residential":false,"residents_est":0,"h3_10":"8a1e2e6a3857fff","h3_11":"8b1e2e6a3855fff"},"geometry":{"type":"Polygon","coordinates":[[[20.003448,50.089078],[20.003598,50.089064],[20.003609,50.089113],[20.00346,50.089127],[20.003448,50.089078]]]}},{"type":"Feature","id":"w83334185","properties":{"type":"apartments","levels":8.0,"residential":true,"residents_est":152,"h3_10":"8a1e2e6a38cffff","h3_11":"8b1e2e6a38c8fff"},"geometry":{"type":"Polygon","coordinates":[[[20.003841,50.086337],[20.004224,50.086334],[20.004229,50.086643],[20.004104,50.086644],[20.004103,50.086584],[20.004045,50.086584],[20.004046,50.086645],[20.003937,50.086645],[20.003937,50.086608],[20.003846,50.086609],[20.003841,50.086337]]]}},{"type":"Feature","id":"w162215516","properties":{"type":"dormitory","levels":11.0,"address":"Stanisława Skarżyńskiego 5","name":"DS-2 \"Leon\"","residential":true,"residents_est":181,"h3_10":"8a1e2e6a389ffff","h3_11":"8b1e2e6a389afff"},"geometry":{"type":"Polygon","coordinates":[[[19.996779,50.085585],[19.996832,50.085176],[19.996876,50.085178],[19.996879,50.085159],[19.996965,50.085164],[19.996963,50.085183],[19.997061,50.085188],[19.997008,50.085597],[19.996915,50.085592],[19.996913,50.085608],[19.996865,50.085606],[19.996868,50.085589],[19.996779,50.085585]]]}},{"type":"Feature","id":"w162215517","properties":{"type":"dormitory","levels":11.0,"address":"Stanisława Skarżyńskiego 7","name":"DS-3 \"Bartek\"","residential":true,"residents_est":174,"h3_10":"8a1e2e6a389ffff","h3_11":"8b1e2e6a389cfff"},"geometry":{"type":"Polygon","coordinates":[[[19.996993,50.086191],[19.997047,50.085782],[19.997273,50.085794],[19.997219,50.086203],[19.997128,50.086199],[19.997125,50.086217],[19.997081,50.086215],[19.997083,50.086196],[19.996993,50.086191]]]}},{"type":"Feature","id":"w162215518","properties":{"type":"dormitory","levels":11.0,"address":"Stanisława Skarżyńskiego 9","name":"DS-4 \"Balon\"","residential":true,"residents_est":216,"h3_10":"8a1e2e6a3887fff","h3_11":"8b1e2e6a3886fff"},"geometry":{"type":"Polygon","coordinates":[[[19.996301,50.086508],[19.996306,50.086427],[19.996392,50.086432],[19.996416,50.086264],[19.996644,50.086277],[19.996581,50.086742],[19.996567,50.086741],[19.996564,50.08676],[19.996444,50.086753],[19.996447,50.086733],[19.996356,50.086728],[19.996384,50.086511],[19.996301,50.086508]]]}},{"type":"Feature","id":"w162215529","properties":{"type":"yes","levels":1.0,"residential":false,"residents_est":0,"h3_10":"8a1e2e6a389ffff","h3_11":"8b1e2e6a389afff"},"geometry":{"type":"Polygon","coordinates":[[[19.996747,50.085364],[19.996753,50.085316],[19.996814,50.085319],[19.996807,50.085368],[19.996747,50.085364]]]}},{"type":"Feature","id":"w162215532","properties":{"type":"yes","levels":1.0,"residential":false,"residents_est":0,"h3_10":"8a1e2e6a389ffff","h3_11":"8b1e2e6a389cfff"},"geometry":{"type":"Polygon","coordinates":[[[19.996955,50.085969],[19.996961,50.085917],[19.997029,50.08592],[19.997023,50.085972],[19.996955,50.085969]]]}},{"type":"Feature","id":"w162215545","properties":{"type":"yes","address":"Stanisława Skarżyńskiego 14","residential":true,"residents_est":43,"h3_10":"8a1e2e6a3887fff","h3_11":"8b1e2e6a3880fff"},"geometry":{"type":"Polygon","coordinates":[[[19.996515,50.087037],[19.996837,50.086928],[19.997086,50.086959],[19.997167,50.0867],[19.997342,50.086602],[19.99718,50.087123],[19.996515,50.087037]]]}},{"type":"Feature","id":"w162320884","properties":{"type":"retail","levels":1.0,"address":"Osiedle Kombatantów 16a","name":"Kaufland","residential":false,"residents_est":0,"h3_10":"8a1e2e6a386ffff","h3_11":"8b1e2e6a386dfff"},"geometry":{"type":"Polygon","coordinates":[[[20.005435,50.090447],[20.006397,50.089753],[20.007022,50.09011],[20.006059,50.090804],[20.005435,50.090447]]]}},{"type":"Feature","id":"w162320885","properties":{"type":"retail","levels":1.0,"address":"Osiedle Józefa Strusia 21","name":"Lidl","residential":false,"residents_est":0,"h3_10":"8a1e2e6a384ffff","h3_11":"8b1e2e6a384bfff"},"geometry":{"type":"Polygon","coordinates":[[[20.006332,50.088741],[20.00693,50.088323],[20.007141,50.088446],[20.007197,50.088406],[20.007313,50.088474],[20.006612,50.088966],[20.006337,50.088806],[20.006332,50.088741]]]}},{"type":"Feature","id":"w163030731","properties":{"type":"roof","residential":false,"residents_est":0,"h3_10":"8a1e2e6a385ffff","h3_11":"8b1e2e6a385bfff"},"geometry":{"type":"Polygon","coordinates":[[[20.005216,50.088005],[20.005553,50.087907],[20.005613,50.087991],[20.005276,50.088089],[20.005216,50.088005]]]}},{"type":"Feature","id":"w163030733","properties":{"type":"retail","residential":false,"residents_est":0,"h3_10":"8a1e2e6a385ffff","h3_11":"8b1e2e6a3859fff"},"geometry":{"type":"Polygon","coordinates":[[[20.005432,50.088113],[20.005693,50.088034],[20.005759,50.088124],[20.005695,50.088143],[20.005712,50.088166],[20.005514,50.088226],[20.005432,50.088113]]]}},{"type":"Feature","id":"w185687738","properties":{"type":"school","levels":4.0,"address":"Osiedle Tysiąclecia 38","residential":false,"residents_est":0,"h3_10":"8a1e2e6a396ffff","h3_11":"8b1e2e6a396efff"},"geometry":{"type":"Polygon","coordinates":[[[20.002419,50.092503],[20.002605,50.092436],[20.003118,50.093022],[20.002932,50.093089],[20.002782,50.092918],[20.002817,50.092906],[20.002522,50.092568],[20.002487,50.092581],[20.002419,50.092503]]]}},{"type":"Feature","id":"w185687842","properties":{"type":"yes","residential":true,"residents_est":2,"h3_10":"8a1e2e6a396ffff","h3_11":"8b1e2e6a396efff"},"geometry":{"type":"Polygon","coordinates":[[[20.002937,50.092815],[20.003117,50.09275],[20.003138,50.092774],[20.003104,50.092785],[20.003119,50.092802],[20.002972,50.092855],[20.002937,50.092815]]]}},{"type":"Feature","id":"w185687847","properties":{"type":"yes","residential":true,"residents_est":4,"h3_10":"8a1e2e6a396ffff","h3_11":"8b1e2e6a396cfff"},"geometry":{"type":"Polygon","coordinates":[[[20.003104,50.092785],[20.003216,50.092745],[20.003342,50.092889],[20.003223,50.092931],[20.003104,50.092785]]]}},{"type":"Feature","id":"w185687851","properties":{"type":"yes","residential":true,"residents_est":16,"h3_10":"8a1e2e6a396ffff","h3_11":"8b1e2e6a396efff"},"geometry":{"type":"Polygon","coordinates":[[[20.002745,50.092387],[20.00286,50.092343],[20.002878,50.092371],[20.002951,50.092345],[20.003115,50.092532],[20.002976,50.092582],[20.002945,50.092547],[20.0029,50.092564],[20.002745,50.092387]]]}},{"type":"Feature","id":"w185687853","properties":{"type":"yes","residential":true,"residents_est":13,"h3_10":"8a1e2e6a396ffff","h3_11":"8b1e2e6a396efff"},"geometry":{"type":"Polygon","coordinates":[[[20.002971,50.092584],[20.003124,50.092528],[20.003291,50.092718],[20.003138,50.092774],[20.002971,50.092584]]]}},{"type":"Feature","id":"w227349155","properties":{"type":"apartments","levels":8.0,"residential":true,"residents_est":152,"h3_10":"8a1e2e6a38cffff","h3_11":"8b1e2e6a38c9fff"},"geometry":{"type":"Polygon","coordinates":[[[20.00457,50.086263],[20.00459,50.086262],[20.004589,50.08625],[20.00465,50.086248],[20.004648,50.086225],[20.004686,50.086225],[20.004685,50.086208],[20.004833,50.086205],[20.004835,50.086248],[20.004816,50.086248],[20.004819,50.086315],[20.004899,50.086314],[20.004905,50.086442],[20.005006,50.08644],[20.005011,50.086541],[20.004878,50.086544],[20.004877,50.086558],[20.004832,50.08656],[20.004832,50.086574],[20.004743,50.086576],[20.004744,50.086587],[20.004628,50.08659],[20.004625,50.086525],[20.004645,50.086525],[20.004646,50.086455],[20.00458,50.086457],[20.00457,50.086263]]]}},{"type":"Feature","id":"w230171550","properties":{"type":"school","levels":3.0,"address":"Osiedle Tysiąclecia 57","residential":false,"residents_est":0,"h3_10":"8a1e2e6a390ffff","h3_11":"8b1e2e6a390dfff"},"geometry":{"type":"Polygon","coordinates":[[[19.998147,50.091838],[19.998219,50.091736],[19.998988,50.091951],[19.999006,50.091924],[19.998985,50.091918],[19.998998,50.091898],[19.99902,50.091904],[19.999038,50.091878],[19.999123,50.091901],[19.999105,50.091927],[19.999127,50.091933],[19.999113,50.091953],[19.999092,50.091947],[19.999074,50.091974],[19.999304,50.092038],[19.999235,50.092142],[19.998147,50.091838]]]}},{"type":"Feature","id":"w230171552","properties":{"type":"yes","levels":1.0,"address":"Osiedle Tysiąclecia 57A","residential":true,"residents_est":4,"h3_10":"8a1e2e6a390ffff","h3_11":"8b1e2e6a390dfff"},"geometry":{"type":"Polygon","coordinates":[[[19.998944,50.091852],[19.999049,50.091698],[19.999067,50.091703],[19.999101,50.091653],[19.999301,50.091709],[19.999165,50.091912],[19.998944,50.091852]]]}},{"type":"Feature","id":"w230556392","properties":{"type":"roof","residential":false,"residents_est":0,"h3_10":"8a1e2e6a3847fff","h3_11":"8b1e2e6a3846fff"},"geometry":{"type":"Polygon","coordinates":[[[20.003555,50.089353],[20.003756,50.089231],[20.003899,50.089327],[20.003699,50.08945],[20.003555,50.089353]]]}},{"type":"Feature","id":"w233072942","properties":{"type":"kindergarten","levels":2.0,"address":"Osiedle Tysiąclecia 12","residential":false,"residents_est":0,"h3_10":"8a1e2e6a3827fff","h3_11":"8b1e2e6a3825fff"},"geometry":{"type":"Polygon","coordinates":[[[19.999401,50.090975],[19.999484,50.090884],[19.999694,50.090963],[19.999736,50.090918],[19.999927,50.09099],[19.999845,50.09108],[19.999653,50.091008],[19.999611,50.091054],[19.999401,50.090975]]]}},{"type":"Feature","id":"w233072946","properties":{"type":"service","address":"Osiedle Tysiąclecia 13","residential":false,"residents_est":0,"h3_10":"8a1e2e6a390ffff","h3_11":"8b1e2e6a3909fff"},"geometry":{"type":"Polygon","coordinates":[[[19.999558,50.091545],[19.999586,50.091504],[19.99965,50.091522],[19.999622,50.091563],[19.999558,50.091545]]]}},{"type":"Feature","id":"w233072947","properties":{"type":"yes","address":"Osiedle Tysiąclecia 58","residential":true,"residents_est":5,"h3_10":"8a1e2e6a392ffff","h3_11":"8b1e2e6a392bfff"},"geometry":{"type":"Polygon","coordinates":[[[19.998798,50.092361],[19.999007,50.092228],[19.999124,50.092305],[19.998914,50.092436],[19.998798,50.092361]]]}},{"type":"Feature","id":"w233072948","properties":{"type":"yes","residential":false,"residents_est":0,"h3_10":"8a1e2e6a3967fff","h3_11":"8b1e2e6a3961fff"},"geometry":{"type":"Polygon","coordinates":[[[20.002718,50.092898],[20.002788,50.092873],[20.002817,50.092906],[20.002747,50.092931],[20.002718,50.092898]]]}},{"type":"Feature","id":"w233266625","properties":{"type":"yes","address":"Osiedle Tysiąclecia 53a","residential":true,"residents_est":3,"h3_10":"8a1e2e6a3957fff","h3_11":"8b1e2e6a3955fff"},"geometry":{"type":"Polygon","coordinates":[[[20.000933,50.091719],[20.00097,50.091624],[20.001022,50.091632],[20.001017,50.091644],[20.001177,50.09167],[20.001144,50.091753],[20.000933,50.091719]]]}},{"type":"Feature","id":"w288125797","properties":{"type":"apartments","levels":5.0,"address":"Osiedle Akademickie 7","residential":true,"residents_est":148,"h3_10":"8a1e2e6a3897fff","h3_11":"8b1e2e6a3896fff"},"geometry":{"type":"Polygon","coordinates":[[[19.994373,50.086083],[19.994385,50.085997],[19.994579,50.086007],[19.994583,50.085981],[19.994601,50.085982],[19.994642,50.085674],[19.994668,50.085468],[19.994455,50.085457],[19.994466,50.085371],[19.994868,50.085395],[19.994818,50.08579],[19.994826,50.085791],[19.994822,50.085822],[19.994814,50.085822],[19.994792,50.085991],[19.994801,50.085992],[19.994796,50.086024],[19.994788,50.086023],[19.994777,50.086104],[19.99451,50.086089],[19.994509,50.086099],[19.99446,50.086096],[19.994461,50.086087],[19.994373,50.086083]]]}},{"type":"Feature","id":"w299527375","properties":{"type":"garages","residential":false,"residents_est":0,"h3_10":"8a1e2e6a38a7fff","h3_11":"8b1e2e6a38a4fff"},"geometry":{"type":"Polygon","coordinates":[[[19.996079,50.087954],[19.996127,50.087952],[19.996143,50.087936],[19.996212,50.087967],[19.996222,50.087958],[19.996289,50.087989],[19.996299,50.087981],[19.996368,50.088011],[19.996376,50.088003],[19.99645,50.088036],[19.996469,50.088019],[19.996538,50.088048],[19.996558,50.088029],[19.996629,50.088059],[19.996648,50.088039],[19.996718,50.08807],[19.996735,50.088053],[19.996807,50.088081],[19.996825,50.088064],[19.996897,50.088095],[19.996892,50.0881],[19.996897,50.088131],[19.996853,50.088135],[19.996838,50.088147],[19.996772,50.088121],[19.996754,50.088137],[19.996685,50.08811],[19.996666,50.088124],[19.996593,50.088098],[19.996577,50.088114],[19.996505,50.088087],[19.996486,50.088102],[19.99641,50.08807],[19.996384,50.088092],[19.996244,50.088037],[19.996236,50.088045],[19.996166,50.088014],[19.996157,50.088022],[19.996084,50.08799],[19.996089,50.087984],[19.996079,50.087954]]]}},{"type":"Feature","id":"w299556327","properties":{"type":"apartments","levels":5.0,"residential":true,"residents_est":75,"h3_10":"8a1e2e6a3997fff","h3_11":"8b1e2e6a3995fff"},"geometry":{"type":"Polygon","coordinates":[[[19.993167,50.088997],[19.993171,50.088966],[19.993201,50.088968],[19.993207,50.088926],[19.993274,50.08893],[19.993295,50.088766],[19.993375,50.08877],[19.993373,50.088783],[19.993461,50.088788],[19.993459,50.088799],[19.993559,50.088805],[19.993557,50.088825],[19.993656,50.088831],[19.993657,50.088822],[19.993744,50.088827],[19.993746,50.088815],[19.993816,50.088818],[19.993802,50.088953],[19.993682,50.088947],[19.99368,50.088956],[19.993638,50.088954],[19.993642,50.088931],[19.99354,50.088925],[19.993542,50.088905],[19.993438,50.088899],[19.993435,50.088921],[19.993394,50.088918],[19.993395,50.088909],[19.993363,50.088908],[19.993349,50.089017],[19.993366,50.089018],[19.99336,50.089062],[19.993259,50.089057],[19.993257,50.089071],[19.993187,50.089067],[19.993196,50.088998],[19.993167,50.088997]]]}},{"type":"Feature","id":"w299556328","properties":{"type":"apartments","residential":true,"residents_est":45,"h3_10":"8a1e2e6a39b7fff","h3_11":"8b1e2e6a39b3fff"},"geometry":{"type":"Polygon","coordinates":[[[19.993075,50.08935],[19.993092,50.089215],[19.993168,50.089219],[19.993166,50.089232],[19.993249,50.089237],[19.993248,50.089246],[19.993564,50.089262],[19.993551,50.089361],[19.993462,50.089357],[19.99346,50.089375],[19.993421,50.089373],[19.993424,50.089355],[19.993236,50.089345],[19.993233,50.089366],[19.99319,50.089364],[19.993191,50.089356],[19.993075,50.08935]]]}},{"type":"Feature","id":"w300507859","properties":{"type":"garages","residential":false,"residents_est":0,"h3_10":"8a1e2e6a38a7fff","h3_11":"8b1e2e6a38a4fff"},"geometry":{"type":"Polygon","coordinates":[[[19.995931,50.088086],[19.99598,50.088085],[19.995991,50.088068],[19.996068,50.088098],[19.996079,50.088087],[19.996151,50.088116],[19.996158,50.088107],[19.996231,50.088137],[19.996239,50.088127],[19.996308,50.088154],[19.996318,50.088145],[19.996394,50.088175],[19.996413,50.088156],[19.996483,50.088184],[19.996501,50.088165],[19.996572,50.088194],[19.996588,50.088175],[19.996662,50.088205],[19.996679,50.088184],[19.996751,50.088213],[19.996745,50.08822],[19.996756,50.08825],[19.996708,50.088256],[19.996695,50.08827],[19.996662,50.088257],[19.996648,50.08827],[19.996539,50.088233],[19.996521,50.08825],[19.996451,50.088223],[19.996434,50.088241],[19.996353,50.088211],[19.996336,50.088228],[19.996267,50.088203],[19.99626,50.08821],[19.996185,50.088183],[19.996177,50.088191],[19.996104,50.088164],[19.996098,50.088172],[19.996025,50.088144],[19.996018,50.088153],[19.995938,50.088122],[19.995931,50.088086]]]}},{"type":"Feature","id":"w300507860","properties":{"type":"garages","residential":false,"residents_est":0,"h3_10":"8a1e2e6a38a7fff","h3_11":"8b1e2e6a38a5fff"},"geometry":{"type":"Polygon","coordinates":[[[19.997025,50.088076],[19.997091,50.088014],[19.997129,50.088009],[19.997128,50.088],[19.997378,50.087964],[19.99738,50.087973],[19.997449,50.08797],[19.997497,50.087992],[19.997517,50.088032],[19.997526,50.088031],[19.997577,50.088196],[19.997561,50.088197],[19.99757,50.088223],[19.997502,50.08828],[19.997387,50.088295],[19.997389,50.088305],[19.997306,50.088316],[19.99731,50.088328],[19.997205,50.088336],[19.997179,50.088316],[19.997213,50.088281],[19.997209,50.088273],[19.997369,50.088248],[19.997365,50.088236],[19.997406,50.088231],[19.997402,50.088222],[19.997435,50.088218],[19.997455,50.088198],[19.997406,50.08804],[19.997391,50.088032],[19.997144,50.088064],[19.997119,50.088088],[19.997136,50.08814],[19.99712,50.088142],[19.997137,50.088195],[19.997122,50.088197],[19.997138,50.088246],[19.99713,50.088247],[19.9971,50.088281],[19.997091,50.088282],[19.997064,50.088276],[19.997052,50.088267],[19.997031,50.088208],[19.997048,50.088205],[19.997031,50.088153],[19.997047,50.088151],[19.997025,50.088076]]]}},{"type":"Feature","id":"w310855076","properties":{"type":"apartments","address":"Osiedle Oświecenia 38a","residential":true,"residents_est":66,"h3_10":"8a1e2e6a3937fff","h3_11":"8b1e2e6a3936fff"},"geometry":{"type":"Polygon","coordinates":[[[19.99406,50.092461],[19.994269,50.092253],[19.994375,50.092297],[19.994414,50.092258],[19.99446,50.092277],[19.994421,50.092315],[19.994524,50.092358],[19.994315,50.092567],[19.99406,50.092461]]]}},{"type":"Feature","id":"w340012584","properties":{"type":"yes","residential":true,"residents_est":5,"h3_10":"8a1e2e6a39affff","h3_11":"8b1e2e6a39aefff"},"geometry":{"type":"Polygon","coordinates":[[[19.995205,50.089911],[19.995264,50.089856],[19.995238,50.089844],[19.99526,50.089824],[19.995269,50.089828],[19.995337,50.089765],[19.995512,50.089838],[19.995469,50.089879],[19.995453,50.089872],[19.995402,50.089917],[19.995393,50.089913],[19.995334,50.089967],[19.995205,50.089911]]]}},{"type":"Feature","id":"w340012585","properties":{"type":"apartments","levels":5.0,"address":"Osiedle Oświecenia 17","residential":true,"residents_est":55,"h3_10":"8a1e2e6a39b7fff","h3_11":"8b1e2e6a39b5fff"},"geometry":{"type":"Polygon","coordinates":[[[19.993122,50.089911],[19.993125,50.089882],[19.993155,50.089883],[19.993163,50.089815],[19.993275,50.089819],[19.993294,50.089682],[19.993493,50.089692],[19.993496,50.089679],[19.993576,50.089683],[19.993558,50.089821],[19.993438,50.089815],[19.993436,50.089835],[19.993395,50.089833],[19.993396,50.089825],[19.993317,50.089821],[19.993306,50.08993],[19.993326,50.089931],[19.993322,50.089971],[19.993222,50.089967],[19.993219,50.089985],[19.993146,50.08998],[19.993151,50.089912],[19.993122,50.089911]]]}},{"type":"Feature","id":"w340012586","properties":{"type":"apartments","address":"Osiedle Oświecenia 22A","residential":true,"residents_est":8,"h3_10":"8a1e2e6a3997fff","h3_11":"8b1e2e6a3993fff"},"geometry":{"type":"Polygon","coordinates":[[[19.993395,50.088385],[19.993413,50.088287],[19.993488,50.088291],[19.993484,50.088319],[19.993504,50.08832],[19.993495,50.088403],[19.993448,50.0884],[19.99345,50.088388],[19.993435,50.088387],[19.993436,50.088382],[19.993395,50.088385]]]}},{"type":"Feature","id":"w340012588","properties":{"type":"house","levels":3.0,"residential":true,"residents_est":3,"h3_10":"8a1e2e6a3997fff","h3_11":"8b1e2e6a3993fff"},"geometry":{"type":"Polygon","coordinates":[[[19.993496,50.088396],[19.993504,50.08832],[19.993555,50.088293],[19.993603,50.088333],[19.9936,50.088347],[19.99359,50.088357],[19.993564,50.088355],[19.993546,50.088365],[19.993544,50.08838],[19.993496,50.088396]]]}},{"type":"Feature","id":"w340012594","properties":{"type":"apartments","levels":4.0,"address":"Osiedle Oświecenia 22","residential":true,"residents_est":30,"h3_10":"8a1e2e6a3997fff","h3_11":"8b1e2e6a3993fff"},"geometry":{"type":"Polygon","coordinates":[[[19.992977,50.088334],[19.992996,50.088238],[19.993205,50.088251],[19.993202,50.088272],[19.993413,50.088287],[19.993395,50.088385],[19.993311,50.08838],[19.993307,50.088399],[19.993264,50.088396],[19.993268,50.088377],[19.993182,50.08837],[19.993186,50.088349],[19.993101,50.088343],[19.993097,50.088366],[19.993056,50.088363],[19.99306,50.088341],[19.992977,50.088334]]]}},{"type":"Feature","id":"w340012596","properties":{"type":"apartments","levels":5.0,"address":"Osiedle Oświecenia 27","residential":true,"residents_est":43,"h3_10":"8a1e2e6a39b7fff","h3_11":"8b1e2e6a39b2fff"},"geometry":{"type":"Polygon","coordinates":[[[19.99212,50.089221],[19.992302,50.089146],[19.992362,50.089208],[19.992373,50.089204],[19.992395,50.089229],[19.992366,50.08924],[19.992454,50.08933],[19.992483,50.089319],[19.992507,50.089343],[19.992478,50.089355],[19.992511,50.089389],[19.992456,50.089411],[19.992477,50.089433],[19.992404,50.089463],[19.99224,50.089294],[19.992228,50.0893],[19.992175,50.089251],[19.99216,50.089258],[19.99212,50.089221]]]}},{"type":"Feature","id":"w340012598","properties":{"type":"apartments","residential":true,"residents_est":81,"h3_10":"8a1e2e6a3987fff","h3_11":"8b1e2e6a3986fff"},"geometry":{"type":"Polygon","coordinates":[[[19.993549,50.089381],[19.993561,50.089282],[19.994001,50.089304],[19.99402,50.08916],[19.994002,50.089159],[19.994009,50.089106],[19.993989,50.089105],[19.993995,50.089053],[19.994208,50.089064],[19.994198,50.089142],[19.99421,50.089143],[19.994207,50.089169],[19.994174,50.089168],[19.994161,50.089271],[19.994196,50.089273],[19.994193,50.089302],[19.994157,50.0893],[19.994149,50.089366],[19.99408,50.089363],[19.994081,50.089351],[19.993976,50.089345],[19.993968,50.089403],[19.993549,50.089381]]]}},{"type":"Feature","id":"w340012605","properties":{"type":"yes","residential":true,"residents_est":33,"h3_10":"8a1e2e6a39a7fff","h3_11":"8b1e2e6a39a5fff"},"geometry":{"type":"Polygon","coordinates":[[[19.994483,50.090531],[19.994604,50.090418],[19.994672,50.090448],[19.994678,50.090443],[19.994711,50.090457],[19.994691,50.090476],[19.994723,50.09049],[19.994711,50.0905],[19.994798,50.090538],[19.994737,50.090595],[19.994917,50.090674],[19.994873,50.090715],[19.994854,50.090707],[19.994788,50.09077],[19.994809,50.090779],[19.994796,50.090791],[19.994972,50.090868],[19.994929,50.090909],[19.994911,50.090902],[19.994865,50.090945],[19.994854,50.090941],[19.994791,50.090996],[19.994664,50.090941],[19.994723,50.090883],[19.994698,50.090873],[19.994718,50.090853],[19.994725,50.090856],[19.994768,50.090814],[19.99461,50.090745],[19.994668,50.090691],[19.994643,50.09068],[19.994665,50.090659],[19.994674,50.090662],[19.994714,50.09062],[19.994627,50.090583],[19.994611,50.090598],[19.994578,50.090583],[19.994586,50.090576],[19.994483,50.090531]]]}},{"type":"Feature","id":"w340012606","properties":{"type":"garbage_shed","residential":false,"residents_est":0,"h3_10":"8a1e2e6a398ffff","h3_11":"8b1e2e6a398cfff"},"geometry":{"type":"Polygon","coordinates":[[[19.995934,50.089481],[19.995942,50.089447],[19.996016,50.089454],[19.996009,50.089487],[19.995934,50.089481]]]}},{"type":"Feature","id":"w340012607","properties":{"type":"service","residential":false,"residents_est":0,"h3_10":"8a1e2e6a3937fff","h3_11":"8b1e2e6a3931fff"},"geometry":{"type":"Polygon","coordinates":[[[19.995723,50.092135],[19.995727,50.092088],[19.995798,50.092091],[19.995794,50.092137],[19.995723,50.092135]]]}},{"type":"Feature","id":"w340012615","properties":{"type":"service","residential":false,"residents_est":0,"h3_10":"8a1e2e6a39a7fff","h3_11":"8b1e2e6a39a0fff"},"geometry":{"type":"Polygon","coordinates":[[[19.993885,50.090446],[19.993888,50.0904],[19.99396,50.090402],[19.993957,50.090448],[19.993885,50.090446]]]}},{"type":"Feature","id":"w340012618","properties":{"type":"garbage_shed","residential":false,"residents_est":0,"h3_10":"8a1e2e6a39b7fff","h3_11":"8b1e2e6a39b5fff"},"geometry":{"type":"Polygon","coordinates":[[[19.992985,50.090157],[19.992994,50.090113],[19.993045,50.090118],[19.993036,50.090162],[19.992985,50.090157]]]}},{"type":"Feature","id":"w340012620","properties":{"type":"garbage_shed","residential":false,"residents_est":0,"h3_10":"8a1e2e6a3987fff","h3_11":"8b1e2e6a3983fff"},"geometry":{"type":"Polygon","coordinates":[[[19.994586,50.088952],[19.994624,50.088909],[19.994678,50.088929],[19.99464,50.088972],[19.994586,50.088952]]]}},{"type":"Feature","id":"w340012629","properties":{"type":"service","residential":false,"residents_est":0,"h3_10":"8a1e2e6a3987fff","h3_11":"8b1e2e6a3983fff"},"geometry":{"type":"Polygon","coordinates":[[[19.99501,50.089123],[19.995047,50.089086],[19.995103,50.089109],[19.995067,50.089146],[19.99501,50.089123]]]}},{"type":"Feature","id":"w340012630","properties":{"type":"garbage_shed","residential":false,"residents_est":0,"h3_10":"8a1e2e6a3987fff","h3_11":"8b1e2e6a3983fff"},"geometry":{"type":"Polygon","coordinates":[[[19.994816,50.088776],[19.994842,50.088747],[19.994906,50.088772],[19.994878,50.0888],[19.994816,50.088776]]]}},{"type":"Feature","id":"w340012631","properties":{"type":"service","residential":false,"residents_est":0,"h3_10":"8a1e2e6a39b7fff","h3_11":"8b1e2e6a39b4fff"},"geometry":{"type":"Polygon","coordinates":[[[19.99242,50.090266],[19.992426,50.090222],[19.992496,50.090226],[19.992489,50.09027],[19.99242,50.090266]]]}},{"type":"Feature","id":"w340012632","properties":{"type":"yes","residential":false,"residents_est":0,"h3_10":"8a1e2e6a3917fff","h3_11":"8b1e2e6a3916fff"},"geometry":{"type":"Polygon","coordinates":[[[19.994918,50.091213],[19.994931,50.091182],[19.995002,50.091195],[19.994989,50.091226],[19.994918,50.091213]]]}},{"type":"Feature","id":"w340012635","properties":{"type":"service","residential":false,"residents_est":0,"h3_10":"8a1e2e6a3917fff","h3_11":"8b1e2e6a3916fff"},"geometry":{"type":"Polygon","coordinates":[[[19.994746,50.091199],[19.994767,50.091156],[19.994835,50.091169],[19.994814,50.091212],[19.994746,50.091199]]]}},{"type":"Feature","id":"w340012637","properties":{"type":"service","residential":false,"residents_est":0,"h3_10":"8a1e2e6a3927fff","h3_11":"8b1e2e6a3921fff"},"geometry":{"type":"Polygon","coordinates":[[[19.997445,50.092773],[19.997447,50.092728],[19.997515,50.09273],[19.997512,50.092775],[19.997445,50.092773]]]}},{"type":"Feature","id":"w340012641","properties":{"type":"service","address":"Osiedle Tysiąclecia 62a","residential":false,"residents_est":0,"h3_10":"8a1e2e6a3927fff","h3_11":"8b1e2e6a3922fff"},"geometry":{"type":"Polygon","coordinates":[[[19.996556,50.092475],[19.99656,50.092429],[19.996636,50.092432],[19.996631,50.092478],[19.996556,50.092475]]]}},{"type":"Feature","id":"w340012676","properties":{"type":"yes","residential":true,"residents_est":4,"h3_10":"8a1e2e6a39affff","h3_11":"8b1e2e6a39aafff"},"geometry":{"type":"Polygon","coordinates":[[[19.995421,50.089498],[19.995513,50.089415],[19.995683,50.089493],[19.995594,50.089574],[19.995531,50.089545],[19.995501,50.089572],[19.99546,50.089554],[19.995488,50.089528],[19.995421,50.089498]]]}},{"type":"Feature","id":"w340012677","properties":{"type":"yes","residential":false,"residents_est":0,"h3_10":"8a1e2e6a3997fff","h3_11":"8b1e2e6a3993fff"},"geometry":{"type":"Polygon","coordinates":[[[19.993484,50.088319],[19.993491,50.088274],[19.99352,50.088274],[19.993556,50.088292],[19.993504,50.08832],[19.993484,50.088319]]]}},{"type":"Feature","id":"w340394664","properties":{"type":"yes","residential":true,"residents_est":3,"h3_10":"8a1e2e6a3897fff","h3_11":"8b1e2e6a3896fff"},"geometry":{"type":"Polygon","coordinates":[[[19.994542,50.086005],[19.994586,50.085672],[19.994642,50.085674],[19.994601,50.085982],[19.994583,50.085981],[19.994579,50.086007],[19.994542,50.086005]]]}},{"type":"Feature","id":"w443382776","properties":{"type":"retail","levels":1.0,"address":"Osiedle Tysiąclecia 1b","residential":false,"residents_est":0,"h3_10":"8a1e2e6a380ffff","h3_11":"8b1e2e6a380afff"},"geometry":{"type":"Polygon","coordinates":[[[20.001192,50.08853],[20.001252,50.088513],[20.001379,50.088677],[20.001319,50.088695],[20.001192,50.08853]]]}},{"type":"Feature","id":"w443383493","properties":{"type":"garages","levels":1.0,"address":"Osiedle Tysiąclecia 23","residential":false,"residents_est":0,"h3_10":"8a1e2e6a3867fff","h3_11":"8b1e2e6a3862fff"},"geometry":{"type":"Polygon","coordinates":[[[20.003318,50.090153],[20.003323,50.090153],[20.003339,50.090113],[20.003347,50.090114],[20.003375,50.090081],[20.003383,50.090083],[20.003424,50.090053],[20.00343,50.090056],[20.003482,50.090035],[20.003484,50.090039],[20.003546,50.09003],[20.003547,50.090035],[20.003608,50.09003],[20.00367,50.090045],[20.003667,50.09005],[20.003724,50.090068],[20.003719,50.090074],[20.003766,50.0901],[20.003757,50.090105],[20.003793,50.090139],[20.003785,50.090142],[20.003802,50.090178],[20.003791,50.090181],[20.003798,50.09022],[20.003786,50.09022],[20.003776,50.090257],[20.003766,50.090255],[20.003735,50.090291],[20.00373,50.090289],[20.003686,50.090317],[20.003568,50.090345],[20.003565,50.090337],[20.003504,50.090339],[20.003505,50.090332],[20.003444,50.090322],[20.003448,50.090317],[20.003391,50.090297],[20.003396,50.090294],[20.003349,50.090267],[20.003419,50.090227],[20.003452,50.090245],[20.003448,50.090251],[20.003515,50.090274],[20.003515,50.09028],[20.003591,50.09028],[20.003628,50.090268],[20.003652,50.090251],[20.003658,50.090253],[20.003676,50.090234],[20.003684,50.090235],[20.003698,50.090212],[20.0037,50.09019],[20.003708,50.090189],[20.003695,50.090164],[20.0037,50.090162],[20.003681,50.090143],[20.003687,50.090139],[20.003656,50.090122],[20.003661,50.090118],[20.00363,50.090107],[20.003633,50.090102],[20.003597,50.090097],[20.003598,50.090092],[20.00352,50.090097],[20.003516,50.090093],[20.00348,50.090099],[20.003461,50.090117],[20.003452,50.090114],[20.003429,50.090135],[20.003419,50.090159],[20.003411,50.090159],[20.003414,50.090185],[20.003323,50.090193],[20.003318,50.090153]]]}},{"type":"Feature","id":"w587326247","properties":{"type":"yes","address":"Osiedle Oświecenia 27a","residential":false,"residents_est":0,"h3_10":"8a1e2e6a39b7fff","h3_11":"8b1e2e6a39b2fff"},"geometry":{"type":"Polygon","coordinates":[[[19.99257,50.089146],[19.992571,50.08911],[19.992662,50.089111],[19.99266,50.089148],[19.99257,50.089146]]]}},{"type":"Feature","id":"w593138055","properties":{"type":"service","residential":false,"residents_est":0,"h3_10":"8a1e2e6a3887fff","h3_11":"8b1e2e6a3886fff"},"geometry":{"type":"Polygon","coordinates":[[[19.996283,50.086836],[19.996369,50.086836],[19.996369,50.086886],[19.996283,50.086886],[19.996283,50.086836]]]}},{"type":"Feature","id":"w603522302","properties":{"type":"service","address":"Osiedle Tysiąclecia 17","residential":false,"residents_est":0,"h3_10":"8a1e2e6a394ffff","h3_11":"8b1e2e6a394afff"},"geometry":{"type":"Polygon","coordinates":[[[20.003279,50.091222],[20.003301,50.091181],[20.003369,50.091196],[20.003347,50.091237],[20.003279,50.091222]]]}},{"type":"Feature","id":"w603522303","properties":{"type":"service","address":"Osiedle Tysiąclecia 20","residential":false,"residents_est":0,"h3_10":"8a1e2e6a395ffff","h3_11":"8b1e2e6a395bfff"},"geometry":{"type":"Polygon","coordinates":[[[20.003021,50.090451],[20.003042,50.09041],[20.00311,50.090425],[20.003089,50.090466],[20.003021,50.090451]]]}},{"type":"Feature","id":"w663295240","properties":{"type":"apartments","levels":4.0,"address":"Osiedle Akademickie 8","residential":true,"residents_est":86,"h3_10":"8a1e2e6a3897fff","h3_11":"8b1e2e6a3896fff"},"geometry":{"type":"Polygon","coordinates":[[[19.99508,50.086133],[19.995092,50.086044],[19.995164,50.086041],[19.995201,50.085771],[19.995121,50.085761],[19.995132,50.08567],[19.995455,50.085688],[19.995389,50.086144],[19.995245,50.086144],[19.995228,50.086163],[19.995192,50.086158],[19.995186,50.086138],[19.99508,50.086133]]]}},{"type":"Feature","id":"w705917332","properties":{"type":"service","residential":false,"residents_est":0,"h3_10":"8a1e2e6a38c7fff","h3_11":"8b1e2e6a38c3fff"},"geometry":{"type":"Polygon","coordinates":[[[20.002604,50.086426],[20.002657,50.086396],[20.002702,50.086429],[20.00265,50.086459],[20.002604,50.086426]]]}},{"type":"Feature","id":"w705917333","properties":{"type":"garages","residential":false,"residents_est":0,"h3_10":"8a1e2e6a38cffff","h3_11":"8b1e2e6a38cafff"},"geometry":{"type":"Polygon","coordinates":[[[20.003003,50.086047],[20.003925,50.086025],[20.003929,50.086086],[20.003007,50.086107],[20.003003,50.086047]]]}},{"type":"Feature","id":"w705917424","properties":{"type":"apartments","levels":8.0,"address":"Osiedle Dywizjonu 303 20","residential":true,"residents_est":112,"h3_10":"8a1e2e6a38cffff","h3_11":"8b1e2e6a38ccfff"},"geometry":{"type":"Polygon","coordinates":[[[20.00311,50.087024],[20.003139,50.086961],[20.003129,50.086959],[20.003199,50.086804],[20.003216,50.086808],[20.003231,50.086775],[20.003216,50.086768],[20.003297,50.086783],[20.003291,50.086795],[20.003678,50.086868],[20.003623,50.086988],[20.003328,50.086933],[20.003282,50.087034],[20.00311,50.087024]]]}},{"type":"Feature","id":"w705917425","properties":{"type":"apartments","levels":8.0,"address":"Osiedle Dywizjonu 303 20a","residential":true,"residents_est":104,"h3_10":"8a1e2e6a38effff","h3_11":"8b1e2e6a38e8fff"},"geometry":{"type":"Polygon","coordinates":[[[20.003017,50.087409],[20.003036,50.087258],[20.003521,50.087283],[20.003506,50.087404],[20.003496,50.087437],[20.003356,50.087442],[20.003358,50.087426],[20.00331,50.087424],[20.003308,50.087443],[20.003251,50.087445],[20.003252,50.087431],[20.003223,50.087429],[20.00322,50.087446],[20.003214,50.087445],[20.003218,50.087419],[20.003017,50.087409]]]}},{"type":"Feature","id":"w727081670","properties":{"type":"yes","residential":true,"residents_est":3,"h3_10":"8a1e2e6a3967fff","h3_11":"8b1e2e6a3965fff"},"geometry":{"type":"Polygon","coordinates":[[[20.002168,50.093432],[20.002247,50.093424],[20.002266,50.093497],[20.002187,50.093505],[20.002168,50.093432]]]}},{"type":"Feature","id":"w970236242","properties":{"type":"garbage_shed","residential":false,"residents_est":0,"h3_10":"8a1e2e6a39a7fff","h3_11":"8b1e2e6a39a3fff"},"geometry":{"type":"Polygon","coordinates":[[[19.994345,50.089924],[19.994351,50.08989],[19.994413,50.089894],[19.994408,50.089928],[19.994345,50.089924]]]}},{"type":"Feature","id":"w1080995715","properties":{"type":"roof","residential":false,"residents_est":0,"h3_10":"8a1e2e6a391ffff","h3_11":"8b1e2e6a3918fff"},"geometry":{"type":"Polygon","coordinates":[[[19.997489,50.090735],[19.997494,50.090713],[19.997522,50.0907],[19.997556,50.090704],[19.997576,50.090721],[19.99757,50.090743],[19.997543,50.090756],[19.997509,50.090753],[19.997489,50.090735]]]}},{"type":"Feature","id":"w1086768441","properties":{"type":"service","residential":false,"residents_est":0,"h3_10":"8a1e2e6a38effff","h3_11":"8b1e2e6a38ebfff"},"geometry":{"type":"Polygon","coordinates":[[[20.003507,50.087166],[20.003511,50.08713],[20.003578,50.087133],[20.003574,50.087169],[20.003507,50.087166]]]}},{"type":"Feature","id":"w1211593034","properties":{"type":"service","address":"Osiedle Tysiąclecia 39","residential":false,"residents_est":0,"h3_10":"8a1e2e6a396ffff","h3_11":"8b1e2e6a396dfff"},"geometry":{"type":"Polygon","coordinates":[[[20.00348,50.092905],[20.00355,50.09288],[20.003585,50.092919],[20.003516,50.092945],[20.00348,50.092905]]]}},{"type":"Feature","id":"w1211593035","properties":{"type":"service","address":"Osiedle Tysiąclecia 9","residential":false,"residents_est":0,"h3_10":"8a1e2e6a3827fff","h3_11":"8b1e2e6a3821fff"},"geometry":{"type":"Polygon","coordinates":[[[20.000059,50.090368],[20.0001,50.090322],[20.000169,50.090348],[20.000128,50.090394],[20.000059,50.090368]]]}},{"type":"Feature","id":"w1211593036","properties":{"type":"service","address":"Osiedle Tysiąclecia 4","residential":false,"residents_est":0,"h3_10":"8a1e2e6a3807fff","h3_11":"8b1e2e6a3805fff"},"geometry":{"type":"Polygon","coordinates":[[[20.000015,50.089534],[20.000056,50.089489],[20.000119,50.089512],[20.000078,50.089558],[20.000015,50.089534]]]}},{"type":"Feature","id":"w1276442057","properties":{"type":"yes","residential":false,"residents_est":0,"h3_10":"8a1e2e6a3947fff","h3_11":"8b1e2e6a3941fff"},"geometry":{"type":"Polygon","coordinates":[[[20.002993,50.091742],[20.003036,50.091727],[20.003069,50.091767],[20.003027,50.091782],[20.002993,50.091742]]]}},{"type":"Feature","id":"w1368179497","properties":{"type":"service","residential":false,"residents_est":0,"h3_10":"8a1e2e6a386ffff","h3_11":"8b1e2e6a386cfff"},"geometry":{"type":"Polygon","coordinates":[[[20.00536,50.090605],[20.005419,50.090562],[20.005446,50.090578],[20.005388,50.09062],[20.00536,50.090605]]]}},{"type":"Feature","id":"w1535574048","properties":{"type":"yes","residential":false,"residents_est":0,"h3_10":"8a1e2e6a3847fff","h3_11":"8b1e2e6a3842fff"},"geometry":{"type":"Polygon","coordinates":[[[20.00391,50.089091],[20.003971,50.089054],[20.004,50.089073],[20.003939,50.089111],[20.00391,50.089091]]]}}]}