{"type":"FeatureCollection","features":[{"type":"Feature","id":"w337472303","properties":{"type":"yes","address":"Grabówki 243","residential":true,"residents_est":1,"h3_10":"8a1e2e69a06ffff","h3_11":"8b1e2e69a068fff"},"geometry":{"type":"Polygon","coordinates":[[[20.006033,49.974688],[20.006151,49.974679],[20.006146,49.974656],[20.006249,49.974649],[20.006256,49.974672],[20.006287,49.974669],[20.006305,49.974756],[20.006126,49.97477],[20.006044,49.974748],[20.006033,49.974688]]]}},{"type":"Feature","id":"w337472323","properties":{"type":"yes","address":"Grabówki 43","residential":true,"residents_est":0,"h3_10":"8a1e2e69a027fff","h3_11":"8b1e2e69a022fff"},"geometry":{"type":"Polygon","coordinates":[[[19.998561,49.974453],[19.998578,49.974379],[19.99872,49.974392],[19.998715,49.974422],[19.998756,49.974425],[19.998748,49.974471],[19.998704,49.974466],[19.998701,49.974479],[19.998678,49.974477],[19.998681,49.974464],[19.998561,49.974453]]]}},{"type":"Feature","id":"w337472325","properties":{"type":"yes","address":"Grabówki 267","residential":true,"residents_est":0,"h3_10":"8a1e2e69a077fff","h3_11":"8b1e2e69a076fff"},"geometry":{"type":"Polygon","coordinates":[[[20.0022,49.973978],[20.002227,49.973916],[20.002287,49.973927],[20.002298,49.973903],[20.002395,49.973921],[20.00238,49.973954],[20.002394,49.973957],[20.002383,49.97398],[20.00237,49.973978],[20.002357,49.974007],[20.0022,49.973978]]]}},{"type":"Feature","id":"w337472351","properties":{"type":"yes","address":"Grabówki 114","residential":true,"residents_est":1,"h3_10":"8a1e2e69a007fff","h3_11":"8b1e2e69a004fff"},"geometry":{"type":"Polygon","coordinates":[[[19.999186,49.974246],[19.999253,49.974232],[19.999271,49.974276],[19.999391,49.974255],[19.99943,49.974345],[19.999309,49.974367],[19.999292,49.974329],[19.999254,49.974337],[19.999231,49.974282],[19.999205,49.974285],[19.999186,49.974246]]]}},{"type":"Feature","id":"w337472407","properties":{"type":"yes","residential":true,"residents_est":0,"h3_10":"8a1e2e69a027fff","h3_11":"8b1e2e69a026fff"},"geometry":{"type":"Polygon","coordinates":[[[19.998773,49.974947],[19.998858,49.974921],[19.998933,49.975024],[19.998835,49.975054],[19.998811,49.975021],[19.998825,49.975017],[19.998773,49.974947]]]}},{"type":"Feature","id":"w337472437","properties":{"type":"yes","address":"Golkowice 135","residential":true,"residents_est":1,"h3_10":"8a1e2e69a197fff","h3_11":"8b1e2e69a195fff"},"geometry":{"type":"Polygon","coordinates":[[[19.993724,49.973424],[19.993751,49.973317],[19.993825,49.973324],[19.99381,49.973373],[19.993948,49.97339],[19.993942,49.973411],[19.993997,49.973418],[19.993987,49.97345],[19.993937,49.973444],[19.993928,49.973463],[19.993788,49.973447],[19.993793,49.973434],[19.993724,49.973424]]]}},{"type":"Feature","id":"w337472442","properties":{"type":"yes","residential":false,"residents_est":0,"h3_10":"8a1e2e69a15ffff","h3_11":"8b1e2e69a15dfff"},"geometry":{"type":"Polygon","coordinates":[[[20.002734,49.975543],[20.002783,49.975537],[20.002788,49.975554],[20.00284,49.975547],[20.002848,49.975572],[20.002746,49.975585],[20.002734,49.975543]]]}},{"type":"Feature","id":"w337472443","properties":{"type":"yes","address":"Golkowice 25a","residential":true,"residents_est":0,"h3_10":"8a1e2e69a18ffff","h3_11":"8b1e2e69a18cfff"},"geometry":{"type":"Polygon","coordinates":[[[19.996067,49.973609],[19.996091,49.973536],[19.996202,49.973549],[19.996171,49.973646],[19.996116,49.973638],[19.996123,49.973618],[19.996067,49.973609]]]}},{"type":"Feature","id":"w337472471","properties":{"type":"yes","address":"Elżbiety Drużbackiej 107","residential":true,"residents_est":1,"h3_10":"8a1e2e69a157fff","h3_11":"8b1e2e69a150fff"},"geometry":{"type":"Polygon","coordinates":[[[20.000583,49.975685],[20.000626,49.97567],[20.000612,49.975652],[20.000658,49.975639],[20.000675,49.975662],[20.000746,49.975643],[20.00079,49.975715],[20.000637,49.975756],[20.000583,49.975685]]]}},{"type":"Feature","id":"w337472487","properties":{"type":"yes","address":"Sygneczów 20","residential":true,"residents_est":1,"h3_10":"8a1e2e69a04ffff","h3_11":"8b1e2e69a048fff"},"geometry":{"type":"Polygon","coordinates":[[[20.006414,49.973403],[20.006429,49.9733],[20.006645,49.973312],[20.006643,49.973327],[20.006711,49.973331],[20.006707,49.973364],[20.006725,49.973365],[20.006722,49.97339],[20.0067,49.973388],[20.006695,49.973424],[20.006538,49.973414],[20.006537,49.97342],[20.006466,49.973416],[20.006468,49.973407],[20.006414,49.973403]]]}},{"type":"Feature","id":"w337472495","properties":{"type":"yes","address":"Grabówki 49","residential":true,"residents_est":1,"h3_10":"8a1e2e69a01ffff","h3_11":"8b1e2e69a01efff"},"geometry":{"type":"Polygon","coordinates":[[[19.999071,49.972648],[19.999107,49.972631],[19.999105,49.972614],[19.999121,49.972606],[19.999144,49.972612],[19.999179,49.972595],[19.999248,49.972654],[19.999276,49.97264],[19.999332,49.972688],[19.999236,49.972734],[19.999213,49.972714],[19.999171,49.972734],[19.999071,49.972648]]]}},{"type":"Feature","id":"w337472500","properties":{"type":"yes","address":"Grabówki 198","residential":true,"residents_est":0,"h3_10":"8a1e2e69a027fff","h3_11":"8b1e2e69a023fff"},"geometry":{"type":"Polygon","coordinates":[[[19.999547,49.974253],[19.999581,49.974246],[19.999573,49.974227],[19.999636,49.974216],[19.999646,49.974238],[19.999665,49.974234],[19.999692,49.974313],[19.999578,49.974332],[19.999547,49.974253]]]}},{"type":"Feature","id":"w337472568","properties":{"type":"yes","address":"Sygneczów 153","residential":true,"residents_est":0,"h3_10":"8a1e2e69a05ffff","h3_11":"8b1e2e69a05cfff"},"geometry":{"type":"Polygon","coordinates":[[[20.004317,49.973002],[20.004323,49.972911],[20.004442,49.972915],[20.004436,49.973005],[20.004317,49.973002]]]}},{"type":"Feature","id":"w337472588","properties":{"type":"yes","address":"Grabówki 346","residential":true,"residents_est":1,"h3_10":"8a1e2e69a02ffff","h3_11":"8b1e2e69a02afff"},"geometry":{"type":"Polygon","coordinates":[[[20.000545,49.974203],[20.000661,49.974188],[20.000691,49.974285],[20.000576,49.9743],[20.000548,49.974238],[20.000556,49.974237],[20.000545,49.974203]]]}},{"type":"Feature","id":"w337472592","properties":{"type":"yes","residential":true,"residents_est":1,"h3_10":"8a1e2e69a06ffff","h3_11":"8b1e2e69a069fff"},"geometry":{"type":"Polygon","coordinates":[[[20.006662,49.974346],[20.006664,49.974257],[20.006803,49.974257],[20.0068,49.974348],[20.006662,49.974346]]]}},{"type":"Feature","id":"w337472601","properties":{"type":"yes","address":"Golkowice 626","residential":true,"residents_est":0,"h3_10":"8a1e2e69a187fff","h3_11":"8b1e2e69a182fff"},"geometry":{"type":"Polygon","coordinates":[[[19.994149,49.973498],[19.994173,49.973386],[19.994287,49.973396],[19.994264,49.973508],[19.994149,49.973498]]]}},{"type":"Feature","id":"w337472606","properties":{"type":"yes","address":"Grabówki 128","residential":true,"residents_est":0,"h3_10":"8a1e2e69a077fff","h3_11":"8b1e2e69a071fff"},"geometry":{"type":"Polygon","coordinates":[[[20.003207,49.974182],[20.00322,49.974096],[20.003369,49.974106],[20.003356,49.974192],[20.003302,49.974188],[20.0033,49.974201],[20.003261,49.974198],[20.003262,49.974186],[20.003207,49.974182]]]}},{"type":"Feature","id":"w337472621","properties":{"type":"yes","residential":true,"residents_est":0,"h3_10":"8a1e2e69a077fff","h3_11":"8b1e2e69a072fff"},"geometry":{"type":"Polygon","coordinates":[[[20.002506,49.973756],[20.002577,49.973754],[20.002578,49.973772],[20.002675,49.97377],[20.002676,49.973842],[20.002508,49.973845],[20.002506,49.973756]]]}},{"type":"Feature","id":"w337472647","properties":{"type":"yes","address":"Golkowice 133","residential":true,"residents_est":0,"h3_10":"8a1e2e69a18ffff","h3_11":"8b1e2e69a18dfff"},"geometry":{"type":"Polygon","coordinates":[[[19.99695,49.973764],[19.996963,49.973673],[19.997042,49.973678],[19.997028,49.973769],[19.99695,49.973764]]]}},{"type":"Feature","id":"w337472728","properties":{"type":"yes","residential":true,"residents_est":0,"h3_10":"8a1e2e69a047fff","h3_11":"8b1e2e69a044fff"},"geometry":{"type":"Polygon","coordinates":[[[20.004056,49.974221],[20.004064,49.9741],[20.004161,49.974103],[20.004156,49.974224],[20.004056,49.974221]]]}},{"type":"Feature","id":"w337472744","properties":{"type":"yes","residential":true,"residents_est":0,"h3_10":"8a1e2e69a0affff","h3_11":"8b1e2e69a0acfff"},"geometry":{"type":"Polygon","coordinates":[[[19.998457,49.972234],[19.998526,49.972216],[19.998573,49.97229],[19.998504,49.972308],[19.998457,49.972234]]]}},{"type":"Feature","id":"w337472759","properties":{"type":"yes","residential":true,"residents_est":0,"h3_10":"8a1e2e69a11ffff","h3_11":"8b1e2e69a119fff"},"geometry":{"type":"Polygon","coordinates":[[[19.998224,49.975296],[19.998313,49.975264],[19.998353,49.975313],[19.998264,49.975345],[19.998224,49.975296]]]}},{"type":"Feature","id":"w337472766","properties":{"type":"yes","address":"Grabówki 70","residential":true,"residents_est":1,"h3_10":"8a1e2e69a00ffff","h3_11":"8b1e2e69a00dfff"},"geometry":{"type":"Polygon","coordinates":[[[20.001718,49.973873],[20.0019,49.973863],[20.00191,49.97394],[20.001728,49.97395],[20.001718,49.973873]]]}},{"type":"Feature","id":"w337472769","properties":{"type":"yes","address":"Grabówki 34","residential":true,"residents_est":1,"h3_10":"8a1e2e69a15ffff","h3_11":"8b1e2e69a15bfff"},"geometry":{"type":"Polygon","coordinates":[[[20.00255,49.974703],[20.002738,49.97465],[20.002801,49.974743],[20.002613,49.974796],[20.00255,49.974703]]]}},{"type":"Feature","id":"w337472771","properties":{"type":"yes","residential":true,"residents_est":0,"h3_10":"8a1e2e69a037fff","h3_11":"8b1e2e69a031fff"},"geometry":{"type":"Polygon","coordinates":[[[19.9984,49.97395],[19.998403,49.973859],[19.998497,49.973861],[19.998496,49.97389],[19.998479,49.97389],[19.998478,49.973922],[19.998495,49.973922],[19.998494,49.973951],[19.9984,49.97395]]]}},{"type":"Feature","id":"w337472776","properties":{"type":"yes","residential":true,"residents_est":0,"h3_10":"8a1e2e69a037fff","h3_11":"8b1e2e69a031fff"},"geometry":{"type":"Polygon","coordinates":[[[19.998651,49.974333],[19.998661,49.974265],[19.998776,49.974271],[19.998767,49.974339],[19.998651,49.974333]]]}},{"type":"Feature","id":"w337472781","properties":{"type":"yes","address":"Elżbiety Drużbackiej 127","residential":true,"residents_est":0,"h3_10":"8a1e2e69a10ffff","h3_11":"8b1e2e69a10efff"},"geometry":{"type":"Polygon","coordinates":[[[19.998425,49.975867],[19.998523,49.97583],[19.998602,49.975917],[19.998503,49.975954],[19.998425,49.975867]]]}},{"type":"Feature","id":"w337472806","properties":{"type":"yes","residential":true,"residents_est":0,"h3_10":"8a1e2e69a1b7fff","h3_11":"8b1e2e69a1b3fff"},"geometry":{"type":"Polygon","coordinates":[[[19.993323,49.973732],[19.993326,49.973641],[19.99342,49.973642],[19.993417,49.973733],[19.993323,49.973732]]]}},{"type":"Feature","id":"w337472816","properties":{"type":"yes","residential":true,"residents_est":0,"h3_10":"8a1e2e69a057fff","h3_11":"8b1e2e69a051fff"},"geometry":{"type":"Polygon","coordinates":[[[20.004038,49.973065],[20.004047,49.973007],[20.004138,49.973013],[20.004129,49.973072],[20.004038,49.973065]]]}},{"type":"Feature","id":"w337472826","properties":{"type":"yes","address":"Sygneczów 52","residential":true,"residents_est":1,"h3_10":"8a1e2e69a05ffff","h3_11":"8b1e2e69a058fff"},"geometry":{"type":"Polygon","coordinates":[[[20.004793,49.972703],[20.004825,49.97263],[20.005006,49.972666],[20.004972,49.972737],[20.004793,49.972703]]]}},{"type":"Feature","id":"w337472837","properties":{"type":"yes","address":"Grabówki 45","residential":true,"residents_est":0,"h3_10":"8a1e2e69a037fff","h3_11":"8b1e2e69a031fff"},"geometry":{"type":"Polygon","coordinates":[[[19.998667,49.973986],[19.998669,49.973905],[19.998809,49.973906],[19.998806,49.973987],[19.998759,49.973987],[19.998759,49.974006],[19.998717,49.974006],[19.998717,49.973986],[19.998667,49.973986]]]}},{"type":"Feature","id":"w337472847","properties":{"type":"yes","address":"Elżbiety Drużbackiej 93","residential":true,"residents_est":1,"h3_10":"8a1e2e69a037fff","h3_11":"8b1e2e69a036fff"},"geometry":{"type":"Polygon","coordinates":[[[19.996818,49.974009],[19.99686,49.973938],[19.997076,49.973991],[19.997033,49.974062],[19.996818,49.974009]]]}},{"type":"Feature","id":"w337472851","properties":{"type":"yes","address":"Golkowice 25","residential":true,"residents_est":0,"h3_10":"8a1e2e69a18ffff","h3_11":"8b1e2e69a18cfff"},"geometry":{"type":"Polygon","coordinates":[[[19.996151,49.973709],[19.996174,49.973639],[19.996368,49.973658],[19.996344,49.973728],[19.996151,49.973709]]]}},{"type":"Feature","id":"w337472866","properties":{"type":"yes","address":"Sygneczów 182","residential":true,"residents_est":0,"h3_10":"8a1e2e69a077fff","h3_11":"8b1e2e69a072fff"},"geometry":{"type":"Polygon","coordinates":[[[20.002476,49.973698],[20.002574,49.973696],[20.002577,49.973754],[20.002479,49.973759],[20.002476,49.973698]]]}},{"type":"Feature","id":"w337472893","properties":{"type":"yes","residential":true,"residents_est":0,"h3_10":"8a1e2e69a1b7fff","h3_11":"8b1e2e69a1b2fff"},"geometry":{"type":"Polygon","coordinates":[[[19.992698,49.973655],[19.992733,49.973549],[19.992804,49.973559],[19.992769,49.973665],[19.992698,49.973655]]]}},{"type":"Feature","id":"w337472916","properties":{"type":"yes","residential":true,"residents_est":0,"h3_10":"8a1e2e69a057fff","h3_11":"8b1e2e69a056fff"},"geometry":{"type":"Polygon","coordinates":[[[20.002754,49.972977],[20.002769,49.972904],[20.002857,49.972911],[20.002841,49.972985],[20.002754,49.972977]]]}},{"type":"Feature","id":"w337472952","properties":{"type":"yes","address":"Sygneczów 25","residential":true,"residents_est":0,"h3_10":"8a1e2e69a057fff","h3_11":"8b1e2e69a050fff"},"geometry":{"type":"Polygon","coordinates":[[[20.003084,49.973033],[20.003107,49.972962],[20.003279,49.972986],[20.003256,49.973057],[20.003084,49.973033]]]}},{"type":"Feature","id":"w337472972","properties":{"type":"yes","address":"Grabówki 122A","residential":true,"residents_est":0,"h3_10":"8a1e2e69a06ffff","h3_11":"8b1e2e69a06dfff"},"geometry":{"type":"Polygon","coordinates":[[[20.00643,49.974663],[20.006539,49.974657],[20.006548,49.974736],[20.006437,49.97474],[20.00643,49.974663]]]}},{"type":"Feature","id":"w337472976","properties":{"type":"yes","residential":false,"residents_est":0,"h3_10":"8a1e2e69a157fff","h3_11":"8b1e2e69a154fff"},"geometry":{"type":"Polygon","coordinates":[[[20.000366,49.975789],[20.000452,49.975768],[20.000476,49.975809],[20.000389,49.97583],[20.000366,49.975789]]]}},{"type":"Feature","id":"w337472981","properties":{"type":"yes","residential":true,"residents_est":0,"h3_10":"8a1e2e69a11ffff","h3_11":"8b1e2e69a11afff"},"geometry":{"type":"Polygon","coordinates":[[[19.997325,49.974763],[19.997465,49.97472],[19.997487,49.97475],[19.997347,49.974793],[19.997325,49.974763]]]}},{"type":"Feature","id":"w337473006","properties":{"type":"yes","residential":true,"residents_est":0,"h3_10":"8a1e2e69a067fff","h3_11":"8b1e2e69a060fff"},"geometry":{"type":"Polygon","coordinates":[[[20.004456,49.975011],[20.004595,49.974958],[20.004629,49.974995],[20.00449,49.975048],[20.004456,49.975011]]]}},{"type":"Feature","id":"w337473015","properties":{"type":"yes","address":"Elżbiety Drużbackiej 97","residential":true,"residents_est":1,"h3_10":"8a1e2e69a037fff","h3_11":"8b1e2e69a034fff"},"geometry":{"type":"Polygon","coordinates":[[[19.997668,49.974569],[19.997825,49.974498],[19.997895,49.974562],[19.997738,49.974633],[19.997668,49.974569]]]}},{"type":"Feature","id":"w337473040","properties":{"type":"yes","residential":true,"residents_est":1,"h3_10":"8a1e2e69a00ffff","h3_11":"8b1e2e69a008fff"},"geometry":{"type":"Polygon","coordinates":[[[20.001442,49.973517],[20.001529,49.973503],[20.001601,49.973688],[20.001514,49.973702],[20.001442,49.973517]]]}},{"type":"Feature","id":"w337473043","properties":{"type":"yes","residential":true,"residents_est":1,"h3_10":"8a1e2e69a15ffff","h3_11":"8b1e2e69a15afff"},"geometry":{"type":"Polygon","coordinates":[[[20.00208,49.974862],[20.00225,49.974807],[20.00232,49.974898],[20.00215,49.974952],[20.00208,49.974862]]]}},{"type":"Feature","id":"w337473045","properties":{"type":"yes","address":"Grabówki 272","residential":true,"residents_est":1,"h3_10":"8a1e2e69a047fff","h3_11":"8b1e2e69a045fff"},"geometry":{"type":"Polygon","coordinates":[[[20.004957,49.974345],[20.004967,49.97428],[20.005012,49.974283],[20.005016,49.974257],[20.005146,49.974266],[20.00514,49.974303],[20.005153,49.974305],[20.005147,49.974339],[20.005134,49.974338],[20.005129,49.97437],[20.005001,49.974361],[20.005003,49.974348],[20.004957,49.974345]]]}},{"type":"Feature","id":"w337473052","properties":{"type":"yes","residential":true,"residents_est":0,"h3_10":"8a1e2e69a1affff","h3_11":"8b1e2e69a1acfff"},"geometry":{"type":"Polygon","coordinates":[[[19.995945,49.974659],[19.996034,49.974644],[19.996058,49.974708],[19.995969,49.974722],[19.995945,49.974659]]]}},{"type":"Feature","id":"w337473056","properties":{"type":"yes","address":"Elżbiety Drużbackiej 83","residential":true,"residents_est":0,"h3_10":"8a1e2e69a187fff","h3_11":"8b1e2e69a185fff"},"geometry":{"type":"Polygon","coordinates":[[[19.995143,49.97409],[19.995283,49.974086],[19.995289,49.974179],[19.995149,49.974182],[19.995143,49.97409]]]}},{"type":"Feature","id":"w337473064","properties":{"type":"yes","residential":true,"residents_est":1,"h3_10":"8a1e2e69a05ffff","h3_11":"8b1e2e69a05cfff"},"geometry":{"type":"Polygon","coordinates":[[[20.004788,49.973081],[20.004975,49.973067],[20.004988,49.973149],[20.004801,49.973162],[20.004788,49.973081]]]}},{"type":"Feature","id":"w337473068","properties":{"type":"yes","address":"Sygneczów 61","residential":true,"residents_est":0,"h3_10":"8a1e2e69a047fff","h3_11":"8b1e2e69a043fff"},"geometry":{"type":"Polygon","coordinates":[[[20.005077,49.97326],[20.005098,49.973172],[20.005224,49.973185],[20.005195,49.973297],[20.005093,49.973287],[20.005098,49.973263],[20.005077,49.97326]]]}},{"type":"Feature","id":"w337473070","properties":{"type":"yes","address":"Elżbiety Drużbackiej 77a","residential":true,"residents_est":1,"h3_10":"8a1e2e69a1b7fff","h3_11":"8b1e2e69a1b3fff"},"geometry":{"type":"Polygon","coordinates":[[[19.992896,49.973635],[19.992917,49.973551],[19.993062,49.973565],[19.993042,49.97365],[19.992896,49.973635]]]}},{"type":"Feature","id":"w337473085","properties":{"type":"yes","residential":true,"residents_est":1,"h3_10":"8a1e2e69a1b7fff","h3_11":"8b1e2e69a1b3fff"},"geometry":{"type":"Polygon","coordinates":[[[19.993194,49.973888],[19.993208,49.973817],[19.993383,49.973832],[19.993369,49.973903],[19.993194,49.973888]]]}},{"type":"Feature","id":"w337473156","properties":{"type":"yes","address":"Grabówki 252","residential":true,"residents_est":0,"h3_10":"8a1e2e69a007fff","h3_11":"8b1e2e69a006fff"},"geometry":{"type":"Polygon","coordinates":[[[19.999154,49.973785],[19.999277,49.973739],[19.999349,49.973819],[19.999227,49.973865],[19.999154,49.973785]]]}},{"type":"Feature","id":"w337473159","properties":{"type":"yes","address":"Elżbiety Drużbackiej 79","residential":true,"residents_est":1,"h3_10":"8a1e2e69a1b7fff","h3_11":"8b1e2e69a1b3fff"},"geometry":{"type":"Polygon","coordinates":[[[19.993469,49.973709],[19.993485,49.973631],[19.993639,49.973644],[19.993623,49.973721],[19.993469,49.973709]]]}},{"type":"Feature","id":"w337473162","properties":{"type":"yes","address":"Golkowice 211","residential":true,"residents_est":0,"h3_10":"8a1e2e69a037fff","h3_11":"8b1e2e69a032fff"},"geometry":{"type":"Polygon","coordinates":[[[19.997245,49.973566],[19.997355,49.973562],[19.997359,49.973631],[19.997295,49.973633],[19.997297,49.973646],[19.997262,49.973647],[19.997261,49.973634],[19.997249,49.973634],[19.997245,49.973566]]]}},{"type":"Feature","id":"w337473204","properties":{"type":"yes","address":"Grabówki 322","residential":true,"residents_est":0,"h3_10":"8a1e2e69a02ffff","h3_11":"8b1e2e69a02afff"},"geometry":{"type":"Polygon","coordinates":[[[20.00072,49.974104],[20.000763,49.974097],[20.000758,49.974082],[20.000801,49.974076],[20.000806,49.974091],[20.000851,49.974084],[20.00087,49.97414],[20.000738,49.974159],[20.00072,49.974104]]]}},{"type":"Feature","id":"w337473210","properties":{"type":"yes","address":"Elżbiety Drużbackiej 105","residential":true,"residents_est":1,"h3_10":"8a1e2e69a027fff","h3_11":"8b1e2e69a025fff"},"geometry":{"type":"Polygon","coordinates":[[[19.999563,49.975071],[19.999758,49.975045],[19.999759,49.97505],[19.999776,49.975048],[19.999781,49.975064],[19.999764,49.975066],[19.999779,49.975115],[19.9997,49.975125],[19.999704,49.975139],[19.999672,49.975143],[19.999667,49.975129],[19.999584,49.97514],[19.999563,49.975071]]]}},{"type":"Feature","id":"w337473212","properties":{"type":"yes","address":"Golkowice 288","residential":true,"residents_est":0,"h3_10":"8a1e2e69a197fff","h3_11":"8b1e2e69a194fff"},"geometry":{"type":"Polygon","coordinates":[[[19.993126,49.973268],[19.993191,49.973187],[19.993303,49.973224],[19.993251,49.97329],[19.993193,49.97327],[19.993181,49.973286],[19.993126,49.973268]]]}},{"type":"Feature","id":"w337473232","properties":{"type":"yes","address":"Elżbiety Drużbackiej 91","residential":true,"residents_est":0,"h3_10":"8a1e2e69a18ffff","h3_11":"8b1e2e69a18cfff"},"geometry":{"type":"Polygon","coordinates":[[[19.996218,49.973933],[19.996248,49.973876],[19.996346,49.973896],[19.996316,49.973954],[19.996218,49.973933]]]}},{"type":"Feature","id":"w337473246","properties":{"type":"yes","address":"Podstolice 167","residential":true,"residents_est":1,"h3_10":"8a1e2e69a00ffff","h3_11":"8b1e2e69a00cfff"},"geometry":{"type":"Polygon","coordinates":[[[20.00113,49.973599],[20.001329,49.97356],[20.001365,49.973646],[20.001232,49.973672],[20.001218,49.973641],[20.001155,49.973653],[20.00113,49.973599]]]}},{"type":"Feature","id":"w337473251","properties":{"type":"yes","address":"Elżbiety Drużbackiej 105b","residential":true,"residents_est":0,"h3_10":"8a1e2e69a157fff","h3_11":"8b1e2e69a156fff"},"geometry":{"type":"Polygon","coordinates":[[[19.99973,49.975469],[19.999798,49.975453],[19.999804,49.975463],[19.999874,49.975446],[19.999917,49.975523],[19.999779,49.975555],[19.99973,49.975469]]]}},{"type":"Feature","id":"w337473253","properties":{"type":"yes","address":"Elżbiety Drużbackiej 87","residential":true,"residents_est":1,"h3_10":"8a1e2e69a1affff","h3_11":"8b1e2e69a1a8fff"},"geometry":{"type":"Polygon","coordinates":[[[19.995914,49.974519],[19.996111,49.974492],[19.99614,49.97458],[19.996015,49.974597],[19.996011,49.974582],[19.995938,49.974592],[19.995914,49.974519]]]}},{"type":"Feature","id":"w337473266","properties":{"type":"yes","address":"Sygneczów 130","residential":true,"residents_est":0,"h3_10":"8a1e2e69a047fff","h3_11":"8b1e2e69a045fff"},"geometry":{"type":"Polygon","coordinates":[[[20.004838,49.974088],[20.004849,49.973999],[20.004934,49.974003],[20.004933,49.974012],[20.004987,49.974015],[20.004978,49.974096],[20.004838,49.974088]]]}},{"type":"Feature","id":"w337473286","properties":{"type":"yes","address":"Grabówki 287","residential":true,"residents_est":1,"h3_10":"8a1e2e69a01ffff","h3_11":"8b1e2e69a01cfff"},"geometry":{"type":"Polygon","coordinates":[[[19.999344,49.97286],[19.999411,49.972845],[19.99943,49.972874],[19.999451,49.972869],[19.999442,49.972856],[19.99951,49.972838],[19.999565,49.972929],[19.999498,49.972946],[19.999489,49.972931],[19.999449,49.972941],[19.999457,49.972956],[19.999408,49.972968],[19.999344,49.97286]]]}},{"type":"Feature","id":"w337473291","properties":{"type":"yes","address":"Romana Żelazowskiego 89a","residential":true,"residents_est":1,"h3_10":"8a1e2e69a067fff","h3_11":"8b1e2e69a061fff"},"geometry":{"type":"Polygon","coordinates":[[[20.004609,49.974759],[20.004785,49.97472],[20.004833,49.974811],[20.004656,49.974849],[20.004609,49.974759]]]}},{"type":"Feature","id":"w337473297","properties":{"type":"yes","address":"Elżbiety Drużbackiej 85","residential":true,"residents_est":0,"h3_10":"8a1e2e69a1affff","h3_11":"8b1e2e69a1aafff"},"geometry":{"type":"Polygon","coordinates":[[[19.995455,49.974027],[19.995458,49.973955],[19.995613,49.973957],[19.995608,49.97403],[19.995455,49.974027]]]}},{"type":"Feature","id":"w337473326","properties":{"type":"yes","address":"Grabówki 34a","residential":true,"residents_est":1,"h3_10":"8a1e2e69a15ffff","h3_11":"8b1e2e69a15afff"},"geometry":{"type":"Polygon","coordinates":[[[20.002306,49.974783],[20.002485,49.97473],[20.002563,49.974838],[20.002384,49.974891],[20.002306,49.974783]]]}},{"type":"Feature","id":"w337473355","properties":{"type":"yes","address":"Elżbiety Drużbackiej 89","residential":true,"residents_est":0,"h3_10":"8a1e2e69a18ffff","h3_11":"8b1e2e69a18cfff"},"geometry":{"type":"Polygon","coordinates":[[[19.995856,49.973925],[19.995867,49.973847],[19.995997,49.973855],[19.99599,49.973901],[19.996025,49.973904],[19.996019,49.973936],[19.995856,49.973925]]]}},{"type":"Feature","id":"w337473359","properties":{"type":"yes","address":"Sygneczów 151","residential":true,"residents_est":1,"h3_10":"8a1e2e69a047fff","h3_11":"8b1e2e69a042fff"},"geometry":{"type":"Polygon","coordinates":[[[20.004254,49.973303],[20.004275,49.973187],[20.004342,49.973192],[20.004337,49.973221],[20.004413,49.973228],[20.004407,49.973274],[20.004392,49.973273],[20.004384,49.973314],[20.004254,49.973303]]]}},{"type":"Feature","id":"w337473363","properties":{"type":"yes","address":"Sygneczów 32","residential":true,"residents_est":0,"h3_10":"8a1e2e69a05ffff","h3_11":"8b1e2e69a05efff"},"geometry":{"type":"Polygon","coordinates":[[[20.004366,49.972765],[20.004385,49.972677],[20.004434,49.972682],[20.00443,49.972698],[20.004497,49.972705],[20.00448,49.972773],[20.004366,49.972765]]]}},{"type":"Feature","id":"w337473380","properties":{"type":"yes","address":"Elżbiety Drużbackiej 79a","residential":true,"residents_est":1,"h3_10":"8a1e2e69a187fff","h3_11":"8b1e2e69a186fff"},"geometry":{"type":"Polygon","coordinates":[[[19.993749,49.973751],[19.993767,49.973658],[19.993918,49.97367],[19.99391,49.973714],[19.99394,49.973716],[19.993929,49.973766],[19.993749,49.973751]]]}},{"type":"Feature","id":"w337473432","properties":{"type":"yes","residential":true,"residents_est":0,"h3_10":"8a1e2e69a187fff","h3_11":"8b1e2e69a181fff"},"geometry":{"type":"Polygon","coordinates":[[[19.995339,49.973895],[19.995379,49.973894],[19.995377,49.97384],[19.995448,49.97384],[19.995448,49.973928],[19.99534,49.973928],[19.995339,49.973895]]]}},{"type":"Feature","id":"w337473443","properties":{"type":"yes","address":"Golkowice 48","residential":true,"residents_est":1,"h3_10":"8a1e2e69a18ffff","h3_11":"8b1e2e69a18cfff"},"geometry":{"type":"Polygon","coordinates":[[[19.995819,49.973636],[19.995831,49.973572],[19.995987,49.973586],[19.995962,49.973708],[19.995907,49.973704],[19.995912,49.973665],[19.995843,49.973661],[19.995847,49.973636],[19.995819,49.973636]]]}},{"type":"Feature","id":"w337473451","properties":{"type":"yes","address":"Grabówki 188","residential":true,"residents_est":1,"h3_10":"8a1e2e69a047fff","h3_11":"8b1e2e69a044fff"},"geometry":{"type":"Polygon","coordinates":[[[20.004353,49.9743],[20.00436,49.974222],[20.004507,49.974227],[20.004498,49.974318],[20.004404,49.974315],[20.004405,49.974302],[20.004353,49.9743]]]}},{"type":"Feature","id":"w337473480","properties":{"type":"yes","address":"Sygneczów 27","residential":true,"residents_est":1,"h3_10":"8a1e2e69a047fff","h3_11":"8b1e2e69a044fff"},"geometry":{"type":"Polygon","coordinates":[[[20.004211,49.974052],[20.004221,49.97398],[20.004252,49.973982],[20.004254,49.97397],[20.004411,49.973979],[20.004401,49.974062],[20.004211,49.974052]]]}},{"type":"Feature","id":"w337473482","properties":{"type":"yes","address":"Elżbiety Drużbackiej 99","residential":true,"residents_est":1,"h3_10":"8a1e2e69a11ffff","h3_11":"8b1e2e69a11bfff"},"geometry":{"type":"Polygon","coordinates":[[[19.997977,49.974803],[19.997978,49.974691],[19.998102,49.974691],[19.998102,49.974705],[19.998161,49.974705],[19.99816,49.974804],[19.997977,49.974803]]]}},{"type":"Feature","id":"w337473499","properties":{"type":"yes","address":"Romana Żelazowskiego 102","residential":true,"residents_est":1,"h3_10":"8a1e2e69a15ffff","h3_11":"8b1e2e69a159fff"},"geometry":{"type":"Polygon","coordinates":[[[20.00342,49.97525],[20.003483,49.975242],[20.003479,49.97523],[20.003523,49.975227],[20.003526,49.975241],[20.003587,49.975236],[20.003607,49.975324],[20.003444,49.975338],[20.00342,49.97525]]]}},{"type":"Feature","id":"w337473501","properties":{"type":"yes","address":"Elżbiety Drużbackiej 77","residential":true,"residents_est":1,"h3_10":"8a1e2e69a1b7fff","h3_11":"8b1e2e69a1b2fff"},"geometry":{"type":"Polygon","coordinates":[[[19.992479,49.973589],[19.992482,49.97356],[19.99251,49.973565],[19.992522,49.973534],[19.992646,49.973555],[19.992614,49.973635],[19.992495,49.973615],[19.992503,49.973593],[19.992479,49.973589]]]}},{"type":"Feature","id":"w337473509","properties":{"type":"yes","address":"Grabówki 199","residential":true,"residents_est":1,"h3_10":"8a1e2e69a007fff","h3_11":"8b1e2e69a005fff"},"geometry":{"type":"Polygon","coordinates":[[[19.999661,49.974178],[19.999848,49.974144],[19.999882,49.974223],[19.999774,49.974242],[19.999757,49.974208],[19.999734,49.97421],[19.999731,49.974204],[19.999675,49.974213],[19.999661,49.974178]]]}},{"type":"Feature","id":"w337473511","properties":{"type":"yes","address":"Romana Żelazowskiego 89","residential":true,"residents_est":1,"h3_10":"8a1e2e69a067fff","h3_11":"8b1e2e69a060fff"},"geometry":{"type":"Polygon","coordinates":[[[20.004078,49.974971],[20.00424,49.974971],[20.004241,49.975053],[20.004078,49.975052],[20.004078,49.974971]]]}},{"type":"Feature","id":"w337473560","properties":{"type":"yes","address":"Sygneczów 154","residential":true,"residents_est":1,"h3_10":"8a1e2e69a057fff","h3_11":"8b1e2e69a051fff"},"geometry":{"type":"Polygon","coordinates":[[[20.003626,49.973027],[20.003633,49.972985],[20.00372,49.972991],[20.003727,49.972946],[20.003853,49.972955],[20.003839,49.973044],[20.003626,49.973027]]]}},{"type":"Feature","id":"w337473571","properties":{"type":"yes","address":"Sygneczów 60","residential":true,"residents_est":1,"h3_10":"8a1e2e69a06ffff","h3_11":"8b1e2e69a06afff"},"geometry":{"type":"Polygon","coordinates":[[[20.005845,49.974174],[20.005852,49.974098],[20.006055,49.974105],[20.006046,49.974191],[20.005966,49.974188],[20.005966,49.9742],[20.005895,49.974198],[20.005896,49.974175],[20.005845,49.974174]]]}},{"type":"Feature","id":"w337473582","properties":{"type":"detached","address":"Grabówki 139","residential":true,"residents_est":1,"h3_10":"8a1e2e69a02ffff","h3_11":"8b1e2e69a02efff"},"geometry":{"type":"Polygon","coordinates":[[[20.000046,49.974337],[20.00018,49.974313],[20.000211,49.974386],[20.000198,49.974389],[20.000209,49.974413],[20.000145,49.974425],[20.000134,49.9744],[20.000078,49.97441],[20.000046,49.974337]]]}},{"type":"Feature","id":"w337473587","properties":{"type":"yes","address":"Golkowice 119a","residential":true,"residents_est":0,"h3_10":"8a1e2e69a197fff","h3_11":"8b1e2e69a194fff"},"geometry":{"type":"Polygon","coordinates":[[[19.992791,49.973253],[19.992833,49.973172],[19.992958,49.9732],[19.992915,49.97328],[19.992791,49.973253]]]}},{"type":"Feature","id":"w337473595","properties":{"type":"yes","residential":true,"residents_est":0,"h3_10":"8a1e2e69a11ffff","h3_11":"8b1e2e69a11bfff"},"geometry":{"type":"Polygon","coordinates":[[[19.997529,49.974939],[19.997703,49.974858],[19.997761,49.974909],[19.997652,49.974959],[19.997665,49.974972],[19.997613,49.974994],[19.997622,49.975003],[19.997607,49.97501],[19.997529,49.974939]]]}},{"type":"Feature","id":"w337473603","properties":{"type":"yes","address":"Elżbiety Drużbackiej 103","residential":true,"residents_est":1,"h3_10":"8a1e2e69a027fff","h3_11":"8b1e2e69a026fff"},"geometry":{"type":"Polygon","coordinates":[[[19.99854,49.974866],[19.998552,49.974777],[19.998717,49.974786],[19.998705,49.974875],[19.99864,49.974871],[19.998639,49.974883],[19.998601,49.974881],[19.998603,49.974869],[19.99854,49.974866]]]}},{"type":"Feature","id":"w337473607","properties":{"type":"yes","residential":true,"residents_est":0,"h3_10":"8a1e2e69a06ffff","h3_11":"8b1e2e69a06afff"},"geometry":{"type":"Polygon","coordinates":[[[20.005725,49.974068],[20.005749,49.973955],[20.005856,49.973965],[20.005846,49.974012],[20.005831,49.974011],[20.005824,49.97405],[20.005837,49.974051],[20.005832,49.974077],[20.005725,49.974068]]]}},{"type":"Feature","id":"w337473634","properties":{"type":"yes","address":"Elżbiety Drużbackiej 101a","residential":true,"residents_est":1,"h3_10":"8a1e2e69a11ffff","h3_11":"8b1e2e69a119fff"},"geometry":{"type":"Polygon","coordinates":[[[19.998431,49.975199],[19.998547,49.975152],[19.998578,49.975183],[19.998606,49.975172],[19.998643,49.975209],[19.998569,49.97524],[19.998584,49.975255],[19.998511,49.975285],[19.998431,49.975199]]]}},{"type":"Feature","id":"w337473637","properties":{"type":"yes","address":"Grabówki 63","residential":true,"residents_est":0,"h3_10":"8a1e2e69a06ffff","h3_11":"8b1e2e69a06efff"},"geometry":{"type":"Polygon","coordinates":[[[20.005407,49.974457],[20.005417,49.974375],[20.00556,49.974383],[20.005548,49.974466],[20.005493,49.974463],[20.005491,49.97448],[20.00545,49.974478],[20.005451,49.97446],[20.005407,49.974457]]]}},{"type":"Feature","id":"w337473638","properties":{"type":"yes","address":"Grabówki 214","residential":true,"residents_est":1,"h3_10":"8a1e2e69a007fff","h3_11":"8b1e2e69a003fff"},"geometry":{"type":"Polygon","coordinates":[[[19.999991,49.973376],[20.000024,49.973371],[20.000004,49.973306],[20.00012,49.973291],[20.000153,49.973413],[20.000009,49.973432],[19.999991,49.973376]]]}},{"type":"Feature","id":"w337473645","properties":{"type":"detached","address":"Golkowice 163","residential":true,"residents_est":1,"h3_10":"8a1e2e69a187fff","h3_11":"8b1e2e69a181fff"},"geometry":{"type":"Polygon","coordinates":[[[19.995458,49.973632],[19.995488,49.973554],[19.995628,49.973577],[19.995596,49.973654],[19.995548,49.973646],[19.995542,49.973663],[19.9955,49.973656],[19.995506,49.973639],[19.995458,49.973632]]]}},{"type":"Feature","id":"w337473649","properties":{"type":"yes","address":"Sygneczów 180","residential":true,"residents_est":1,"h3_10":"8a1e2e69a047fff","h3_11":"8b1e2e69a043fff"},"geometry":{"type":"Polygon","coordinates":[[[20.004892,49.973582],[20.004919,49.9735],[20.004939,49.973503],[20.004949,49.97347],[20.005061,49.973485],[20.005051,49.973517],[20.005078,49.973522],[20.005051,49.973604],[20.004994,49.973596],[20.004991,49.973604],[20.004939,49.973596],[20.004941,49.973588],[20.004892,49.973582]]]}},{"type":"Feature","id":"w337473650","properties":{"type":"yes","address":"Sygneczów 201","residential":true,"residents_est":0,"h3_10":"8a1e2e69a04ffff","h3_11":"8b1e2e69a04efff"},"geometry":{"type":"Polygon","coordinates":[[[20.005657,49.973419],[20.005683,49.973357],[20.005786,49.973368],[20.005784,49.973374],[20.005828,49.973381],[20.005802,49.973444],[20.005657,49.973419]]]}},{"type":"Feature","id":"w337473663","properties":{"type":"yes","address":"Grabówki 89","residential":true,"residents_est":0,"h3_10":"8a1e2e69a007fff","h3_11":"8b1e2e69a002fff"},"geometry":{"type":"Polygon","coordinates":[[[19.99936,49.973437],[19.999468,49.973418],[19.999502,49.973495],[19.999461,49.973502],[19.99947,49.973523],[19.999401,49.973538],[19.99936,49.973437]]]}},{"type":"Feature","id":"w337473671","properties":{"type":"yes","address":"Elżbiety Drużbackiej 101","residential":true,"residents_est":1,"h3_10":"8a1e2e69a11ffff","h3_11":"8b1e2e69a119fff"},"geometry":{"type":"Polygon","coordinates":[[[19.998071,49.975101],[19.998165,49.975067],[19.998272,49.975194],[19.998252,49.975201],[19.998265,49.975217],[19.998212,49.975236],[19.998198,49.97522],[19.998178,49.975228],[19.998071,49.975101]]]}},{"type":"Feature","id":"w337473674","properties":{"type":"yes","address":"Grabówki 191","residential":true,"residents_est":0,"h3_10":"8a1e2e69a02ffff","h3_11":"8b1e2e69a028fff"},"geometry":{"type":"Polygon","coordinates":[[[20.000798,49.974417],[20.000905,49.974403],[20.000931,49.974487],[20.000824,49.974501],[20.000798,49.974417]]]}},{"type":"Feature","id":"w337473709","properties":{"type":"yes","address":"Grabówki 27","residential":true,"residents_est":1,"h3_10":"8a1e2e69a0affff","h3_11":"8b1e2e69a0adfff"},"geometry":{"type":"Polygon","coordinates":[[[19.99869,49.972319],[19.998751,49.972312],[19.998755,49.972327],[19.998889,49.972314],[19.998915,49.972409],[19.998775,49.972425],[19.998763,49.972381],[19.998707,49.972388],[19.99869,49.972319]]]}},{"type":"Feature","id":"w337473725","properties":{"type":"yes","residential":true,"residents_est":0,"h3_10":"8a1e2e69a067fff","h3_11":"8b1e2e69a064fff"},"geometry":{"type":"Polygon","coordinates":[[[20.003966,49.975131],[20.004041,49.975099],[20.004095,49.97515],[20.004022,49.975182],[20.003966,49.975131]]]}},{"type":"Feature","id":"w337473737","properties":{"type":"yes","address":"Grabówki 122","residential":true,"residents_est":0,"h3_10":"8a1e2e69a06ffff","h3_11":"8b1e2e69a069fff"},"geometry":{"type":"Polygon","coordinates":[[[20.006617,49.974707],[20.006621,49.974626],[20.00676,49.97463],[20.006755,49.97471],[20.006699,49.974709],[20.006699,49.974727],[20.00666,49.974727],[20.006661,49.974709],[20.006617,49.974707]]]}},{"type":"Feature","id":"w337473744","properties":{"type":"yes","address":"Golkowice 301","residential":true,"residents_est":0,"h3_10":"8a1e2e69a187fff","h3_11":"8b1e2e69a183fff"},"geometry":{"type":"Polygon","coordinates":[[[19.994651,49.973476],[19.994658,49.973384],[19.994793,49.97339],[19.994787,49.97348],[19.994651,49.973476]]]}},{"type":"Feature","id":"w337473745","properties":{"type":"yes","address":"Sygneczów 184","residential":true,"residents_est":1,"h3_10":"8a1e2e69a077fff","h3_11":"8b1e2e69a070fff"},"geometry":{"type":"Polygon","coordinates":[[[20.002863,49.973947],[20.002896,49.973928],[20.002901,49.973878],[20.003014,49.973882],[20.003014,49.973874],[20.003076,49.973877],[20.003066,49.973981],[20.002891,49.973974],[20.002891,49.973968],[20.002863,49.973947]]]}},{"type":"Feature","id":"w337473757","properties":{"type":"yes","address":"Sygneczów 68","residential":true,"residents_est":0,"h3_10":"8a1e2e69a04ffff","h3_11":"8b1e2e69a04dfff"},"geometry":{"type":"Polygon","coordinates":[[[20.00683,49.973715],[20.006841,49.973703],[20.006859,49.973705],[20.006865,49.973679],[20.006981,49.973689],[20.006965,49.973764],[20.006848,49.973753],[20.006853,49.973731],[20.006835,49.97373],[20.00683,49.973715]]]}},{"type":"Feature","id":"w337473761","properties":{"type":"yes","address":"Golkowice 244","residential":true,"residents_est":1,"h3_10":"8a1e2e69a197fff","h3_11":"8b1e2e69a196fff"},"geometry":{"type":"Polygon","coordinates":[[[19.992365,49.973135],[19.992388,49.973066],[19.992568,49.973091],[19.992545,49.97316],[19.992482,49.973151],[19.992476,49.973168],[19.992391,49.973156],[19.992397,49.97314],[19.992365,49.973135]]]}},{"type":"Feature","id":"w660652254","properties":{"type":"house","levels":2.0,"address":"Sygneczów 243","residential":true,"residents_est":1,"h3_10":"8a1e2e69a057fff","h3_11":"8b1e2e69a052fff"},"geometry":{"type":"Polygon","coordinates":[[[20.002626,49.972772],[20.00266,49.972701],[20.002714,49.972713],[20.002719,49.972704],[20.002769,49.972714],[20.002765,49.972723],[20.002818,49.972734],[20.002785,49.972804],[20.002626,49.972772]]]}},{"type":"Feature","id":"w708546980","properties":{"type":"yes","residential":false,"residents_est":0,"h3_10":"8a1e2e69a10ffff","h3_11":"8b1e2e69a108fff"},"geometry":{"type":"Polygon","coordinates":[[[19.998605,49.975944],[19.998664,49.975924],[19.998691,49.975957],[19.998632,49.975977],[19.998605,49.975944]]]}},{"type":"Feature","id":"w708546983","properties":{"type":"yes","residential":false,"residents_est":0,"h3_10":"8a1e2e69a1affff","h3_11":"8b1e2e69a1aafff"},"geometry":{"type":"Polygon","coordinates":[[[19.995442,49.974027],[19.995521,49.97403],[19.995519,49.974068],[19.995444,49.974067],[19.995442,49.974027]]]}},{"type":"Feature","id":"w708546986","properties":{"type":"yes","residential":false,"residents_est":0,"h3_10":"8a1e2e69a1affff","h3_11":"8b1e2e69a1abfff"},"geometry":{"type":"Polygon","coordinates":[[[19.996184,49.973999],[19.996229,49.973987],[19.996254,49.974028],[19.996208,49.97404],[19.996184,49.973999]]]}},{"type":"Feature","id":"w708546988","properties":{"type":"yes","residential":false,"residents_est":0,"h3_10":"8a1e2e69a1affff","h3_11":"8b1e2e69a1abfff"},"geometry":{"type":"Polygon","coordinates":[[[19.996316,49.973954],[19.996346,49.973896],[19.996409,49.97391],[19.996379,49.973968],[19.996316,49.973954]]]}},{"type":"Feature","id":"w708546990","properties":{"type":"yes","residential":false,"residents_est":0,"h3_10":"8a1e2e69a11ffff","h3_11":"8b1e2e69a11afff"},"geometry":{"type":"Polygon","coordinates":[[[19.996942,49.974674],[19.996992,49.974657],[19.997028,49.974704],[19.996977,49.974721],[19.996942,49.974674]]]}},{"type":"Feature","id":"w708546991","properties":{"type":"yes","residential":false,"residents_est":0,"h3_10":"8a1e2e69a11ffff","h3_11":"8b1e2e69a11afff"},"geometry":{"type":"Polygon","coordinates":[[[19.996841,49.974705],[19.996892,49.974689],[19.996928,49.974736],[19.996876,49.974753],[19.996841,49.974705]]]}},{"type":"Feature","id":"w712483010","properties":{"type":"yes","address":"Grabówki 351","residential":true,"residents_est":1,"h3_10":"8a1e2e69a157fff","h3_11":"8b1e2e69a150fff"},"geometry":{"type":"Polygon","coordinates":[[[20.000972,49.975485],[20.001116,49.975406],[20.001241,49.975493],[20.001172,49.97553],[20.001113,49.975485],[20.001092,49.975496],[20.001105,49.975507],[20.001045,49.97554],[20.001002,49.975513],[20.001006,49.975511],[20.000972,49.975485]]]}},{"type":"Feature","id":"w712483011","properties":{"type":"yes","address":"Grabówki 355","residential":true,"residents_est":1,"h3_10":"8a1e2e69a157fff","h3_11":"8b1e2e69a153fff"},"geometry":{"type":"Polygon","coordinates":[[[20.000685,49.97527],[20.000782,49.975218],[20.000787,49.975223],[20.000827,49.975201],[20.000898,49.975256],[20.000857,49.975278],[20.000862,49.975282],[20.000766,49.975333],[20.000736,49.97531],[20.000719,49.97531],[20.000704,49.975298],[20.000705,49.975287],[20.000685,49.97527]]]}},{"type":"Feature","id":"w712483012","properties":{"type":"yes","address":"Grabówki 472","residential":true,"residents_est":1,"h3_10":"8a1e2e69a157fff","h3_11":"8b1e2e69a152fff"},"geometry":{"type":"Polygon","coordinates":[[[20.00028,49.975146],[20.000386,49.975087],[20.000464,49.975146],[20.000442,49.975158],[20.000475,49.975183],[20.000404,49.975221],[20.000373,49.975198],[20.000359,49.975205],[20.00028,49.975146]]]}},{"type":"Feature","id":"w867873416","properties":{"type":"detached","address":"Grabówki 467","residential":true,"residents_est":2,"h3_10":"8a1e2e69a077fff","h3_11":"8b1e2e69a074fff"},"geometry":{"type":"Polygon","coordinates":[[[20.002336,49.974378],[20.002472,49.974367],[20.002492,49.97446],[20.002474,49.974461],[20.002486,49.974518],[20.002382,49.974527],[20.00237,49.97447],[20.002356,49.974471],[20.002336,49.974378]]]}},{"type":"Feature","id":"w867873417","properties":{"type":"yes","residential":false,"residents_est":0,"h3_10":"8a1e2e69a027fff","h3_11":"8b1e2e69a026fff"},"geometry":{"type":"Polygon","coordinates":[[[19.998879,49.974949],[19.998915,49.974938],[19.99895,49.974986],[19.998914,49.974997],[19.998879,49.974949]]]}},{"type":"Feature","id":"w867873419","properties":{"type":"yes","residential":false,"residents_est":0,"h3_10":"8a1e2e69a157fff","h3_11":"8b1e2e69a154fff"},"geometry":{"type":"Polygon","coordinates":[[[20.000339,49.975743],[20.000425,49.975722],[20.000452,49.975768],[20.000366,49.975789],[20.000339,49.975743]]]}},{"type":"Feature","id":"w867873421","properties":{"type":"yes","address":"Romana Żelazowskiego 106","residential":true,"residents_est":1,"h3_10":"8a1e2e69a15ffff","h3_11":"8b1e2e69a15dfff"},"geometry":{"type":"Polygon","coordinates":[[[20.002723,49.975417],[20.002905,49.975393],[20.002932,49.975479],[20.002751,49.975503],[20.002723,49.975417]]]}},{"type":"Feature","id":"w867873424","properties":{"type":"yes","residential":false,"residents_est":0,"h3_10":"8a1e2e69a067fff","h3_11":"8b1e2e69a064fff"},"geometry":{"type":"Polygon","coordinates":[[[20.003668,49.975307],[20.0037,49.975267],[20.003739,49.975279],[20.003706,49.975319],[20.003668,49.975307]]]}},{"type":"Feature","id":"w867873425","properties":{"type":"yes","residential":false,"residents_est":0,"h3_10":"8a1e2e69a067fff","h3_11":"8b1e2e69a064fff"},"geometry":{"type":"Polygon","coordinates":[[[20.003908,49.975155],[20.00396,49.975132],[20.004015,49.975185],[20.003963,49.975207],[20.003908,49.975155]]]}},{"type":"Feature","id":"w867873426","properties":{"type":"yes","residential":true,"residents_est":0,"h3_10":"8a1e2e69a067fff","h3_11":"8b1e2e69a060fff"},"geometry":{"type":"Polygon","coordinates":[[[20.004557,49.974785],[20.004616,49.974772],[20.004656,49.974849],[20.004597,49.974862],[20.004557,49.974785]]]}},{"type":"Feature","id":"w867873427","properties":{"type":"yes","residential":true,"residents_est":0,"h3_10":"8a1e2e69a067fff","h3_11":"8b1e2e69a062fff"},"geometry":{"type":"Polygon","coordinates":[[[20.00406,49.974619],[20.00407,49.974561],[20.004132,49.974565],[20.004129,49.974585],[20.004217,49.974592],[20.00421,49.97463],[20.00406,49.974619]]]}},{"type":"Feature","id":"w867873429","properties":{"type":"yes","residential":false,"residents_est":0,"h3_10":"8a1e2e69a06ffff","h3_11":"8b1e2e69a069fff"},"geometry":{"type":"Polygon","coordinates":[[[20.006778,49.974749],[20.006781,49.974722],[20.006819,49.974723],[20.006818,49.974701],[20.006853,49.9747],[20.00685,49.974752],[20.006778,49.974749]]]}},{"type":"Feature","id":"w870728758","properties":{"type":"yes","address":"Sygneczów 241","residential":true,"residents_est":0,"h3_10":"8a1e2e69a04ffff","h3_11":"8b1e2e69a049fff"},"geometry":{"type":"Polygon","coordinates":[[[20.00711,49.973469],[20.007132,49.973371],[20.007247,49.973381],[20.007225,49.97348],[20.00711,49.973469]]]}},{"type":"Feature","id":"w870932214","properties":{"type":"yes","residential":false,"residents_est":0,"h3_10":"8a1e2e69a01ffff","h3_11":"8b1e2e69a01efff"},"geometry":{"type":"Polygon","coordinates":[[[19.999135,49.972772],[19.999196,49.972751],[19.999219,49.972779],[19.999158,49.9728],[19.999135,49.972772]]]}},{"type":"Feature","id":"w870932216","properties":{"type":"yes","residential":false,"residents_est":0,"h3_10":"8a1e2e69a007fff","h3_11":"8b1e2e69a003fff"},"geometry":{"type":"Polygon","coordinates":[[[19.999844,49.973457],[19.999947,49.973447],[19.999956,49.973484],[19.999853,49.973494],[19.999844,49.973457]]]}},{"type":"Feature","id":"w870932219","properties":{"type":"yes","residential":false,"residents_est":0,"h3_10":"8a1e2e69a007fff","h3_11":"8b1e2e69a006fff"},"geometry":{"type":"Polygon","coordinates":[[[19.998807,49.973965],[19.998809,49.973906],[19.998867,49.973907],[19.998865,49.973965],[19.998807,49.973965]]]}},{"type":"Feature","id":"w870932220","properties":{"type":"yes","address":"Grabówki 45a","residential":true,"residents_est":0,"h3_10":"8a1e2e69a037fff","h3_11":"8b1e2e69a031fff"},"geometry":{"type":"Polygon","coordinates":[[[19.998573,49.973985],[19.998575,49.973904],[19.998669,49.973905],[19.998667,49.973986],[19.998573,49.973985]]]}},{"type":"Feature","id":"w870932221","properties":{"type":"yes","residential":false,"residents_est":0,"h3_10":"8a1e2e69a007fff","h3_11":"8b1e2e69a004fff"},"geometry":{"type":"Polygon","coordinates":[[[19.999148,49.974295],[19.999231,49.974282],[19.999254,49.974337],[19.999171,49.974351],[19.999148,49.974295]]]}},{"type":"Feature","id":"w870932222","properties":{"type":"yes","residential":false,"residents_est":0,"h3_10":"8a1e2e69a027fff","h3_11":"8b1e2e69a023fff"},"geometry":{"type":"Polygon","coordinates":[[[19.999339,49.974426],[19.999419,49.974406],[19.99944,49.97444],[19.99936,49.97446],[19.999339,49.974426]]]}},{"type":"Feature","id":"w870932223","properties":{"type":"yes","residential":true,"residents_est":0,"h3_10":"8a1e2e69a027fff","h3_11":"8b1e2e69a023fff"},"geometry":{"type":"Polygon","coordinates":[[[19.999702,49.974345],[19.999791,49.974327],[19.999813,49.974392],[19.999724,49.974405],[19.999702,49.974345]]]}},{"type":"Feature","id":"w870932224","properties":{"type":"yes","residential":true,"residents_est":0,"h3_10":"8a1e2e69a027fff","h3_11":"8b1e2e69a023fff"},"geometry":{"type":"Polygon","coordinates":[[[19.999665,49.974234],[19.999748,49.974221],[19.999775,49.97428],[19.999795,49.974277],[19.999803,49.974296],[19.999692,49.974313],[19.999665,49.974234]]]}},{"type":"Feature","id":"w870932225","properties":{"type":"yes","residential":false,"residents_est":0,"h3_10":"8a1e2e69a007fff","h3_11":"8b1e2e69a005fff"},"geometry":{"type":"Polygon","coordinates":[[[19.999953,49.974126],[20.000007,49.974118],[20.000038,49.974196],[19.999984,49.974205],[19.999953,49.974126]]]}},{"type":"Feature","id":"w870932226","properties":{"type":"yes","address":"Grabówki 35","residential":true,"residents_est":0,"h3_10":"8a1e2e69a007fff","h3_11":"8b1e2e69a005fff"},"geometry":{"type":"Polygon","coordinates":[[[19.999848,49.974144],[19.999953,49.974126],[19.999984,49.974205],[19.999882,49.974223],[19.999848,49.974144]]]}},{"type":"Feature","id":"w870932237","properties":{"type":"yes","address":"Grabówki 213","residential":true,"residents_est":0,"h3_10":"8a1e2e69a02ffff","h3_11":"8b1e2e69a028fff"},"geometry":{"type":"Polygon","coordinates":[[[20.000694,49.974438],[20.0008,49.974424],[20.000827,49.974511],[20.00072,49.974525],[20.000694,49.974438]]]}},{"type":"Feature","id":"w870932239","properties":{"type":"yes","residential":false,"residents_est":0,"h3_10":"8a1e2e69a02ffff","h3_11":"8b1e2e69a028fff"},"geometry":{"type":"Polygon","coordinates":[[[20.00099,49.974517],[20.001038,49.97451],[20.001056,49.974562],[20.001009,49.97457],[20.00099,49.974517]]]}},{"type":"Feature","id":"w870932240","properties":{"type":"yes","residential":false,"residents_est":0,"h3_10":"8a1e2e69a02ffff","h3_11":"8b1e2e69a028fff"},"geometry":{"type":"Polygon","coordinates":[[[20.000943,49.974524],[20.000983,49.974518],[20.001,49.974566],[20.000959,49.974572],[20.000943,49.974524]]]}},{"type":"Feature","id":"w876076745","properties":{"type":"yes","residential":true,"residents_est":1,"h3_10":"8a1e2e69a057fff","h3_11":"8b1e2e69a055fff"},"geometry":{"type":"Polygon","coordinates":[[[20.00357,49.973272],[20.00358,49.973202],[20.003847,49.973221],[20.003837,49.973289],[20.00357,49.973272]]]}},{"type":"Feature","id":"w876076746","properties":{"type":"yes","residential":false,"residents_est":0,"h3_10":"8a1e2e69a05ffff","h3_11":"8b1e2e69a05efff"},"geometry":{"type":"Polygon","coordinates":[[[20.004463,49.972789],[20.004466,49.972772],[20.00448,49.972773],[20.004497,49.972705],[20.004545,49.97271],[20.004527,49.972794],[20.004463,49.972789]]]}},{"type":"Feature","id":"w876076748","properties":{"type":"yes","residential":false,"residents_est":0,"h3_10":"8a1e2e69a05ffff","h3_11":"8b1e2e69a058fff"},"geometry":{"type":"Polygon","coordinates":[[[20.005071,49.972693],[20.005097,49.972632],[20.005149,49.97264],[20.005123,49.972702],[20.005071,49.972693]]]}},{"type":"Feature","id":"w876076749","properties":{"type":"yes","residential":true,"residents_est":0,"h3_10":"8a1e2e69a05ffff","h3_11":"8b1e2e69a059fff"},"geometry":{"type":"Polygon","coordinates":[[[20.005297,49.972819],[20.005325,49.972747],[20.005465,49.972771],[20.005461,49.972778],[20.005514,49.972786],[20.005492,49.972841],[20.005439,49.972832],[20.005435,49.972842],[20.005297,49.972819]]]}},{"type":"Feature","id":"w876076750","properties":{"type":"yes","residential":true,"residents_est":1,"h3_10":"8a1e2e69a05ffff","h3_11":"8b1e2e69a059fff"},"geometry":{"type":"Polygon","coordinates":[[[20.005492,49.972841],[20.005514,49.972786],[20.005567,49.972795],[20.00557,49.972788],[20.005709,49.972811],[20.005679,49.972884],[20.005541,49.97286],[20.005545,49.97285],[20.005492,49.972841]]]}},{"type":"Feature","id":"w876076752","properties":{"type":"yes","address":"Sygneczów 257","residential":true,"residents_est":1,"h3_10":"8a1e2e69a047fff","h3_11":"8b1e2e69a041fff"},"geometry":{"type":"Polygon","coordinates":[[[20.005417,49.973693],[20.005438,49.973637],[20.005422,49.973634],[20.005435,49.973601],[20.005491,49.97361],[20.005507,49.973603],[20.005527,49.973607],[20.005536,49.973617],[20.005593,49.973625],[20.005571,49.973684],[20.00555,49.973681],[20.005539,49.973711],[20.005417,49.973693]]]}},{"type":"Feature","id":"w876076753","properties":{"type":"yes","residential":false,"residents_est":0,"h3_10":"8a1e2e69a06ffff","h3_11":"8b1e2e69a06bfff"},"geometry":{"type":"Polygon","coordinates":[[[20.006378,49.973991],[20.006388,49.973953],[20.006483,49.973963],[20.006473,49.974001],[20.006378,49.973991]]]}},{"type":"Feature","id":"w876076754","properties":{"type":"yes","residential":true,"residents_est":1,"h3_10":"8a1e2e69a04ffff","h3_11":"8b1e2e69a04cfff"},"geometry":{"type":"Polygon","coordinates":[[[20.006201,49.973937],[20.006228,49.973826],[20.006352,49.973839],[20.006343,49.973876],[20.006369,49.973878],[20.006359,49.973918],[20.006334,49.973915],[20.006326,49.973949],[20.006201,49.973937]]]}},{"type":"Feature","id":"w876076755","properties":{"type":"yes","address":"Sygneczów 27a","residential":true,"residents_est":0,"h3_10":"8a1e2e69a047fff","h3_11":"8b1e2e69a044fff"},"geometry":{"type":"Polygon","coordinates":[[[20.004401,49.974062],[20.004411,49.973979],[20.004507,49.973984],[20.004497,49.974067],[20.004401,49.974062]]]}},{"type":"Feature","id":"w876076756","properties":{"type":"yes","residential":false,"residents_est":0,"h3_10":"8a1e2e69a047fff","h3_11":"8b1e2e69a040fff"},"geometry":{"type":"Polygon","coordinates":[[[20.004423,49.973932],[20.004429,49.973872],[20.004497,49.973875],[20.004491,49.973935],[20.004423,49.973932]]]}},{"type":"Feature","id":"w876076758","properties":{"type":"yes","residential":false,"residents_est":0,"h3_10":"8a1e2e69a06ffff","h3_11":"8b1e2e69a06afff"},"geometry":{"type":"Polygon","coordinates":[[[20.005388,49.974284],[20.00539,49.974247],[20.005479,49.97425],[20.005477,49.974287],[20.005388,49.974284]]]}},{"type":"Feature","id":"w876076759","properties":{"type":"yes","residential":true,"residents_est":1,"h3_10":"8a1e2e69a06ffff","h3_11":"8b1e2e69a068fff"},"geometry":{"type":"Polygon","coordinates":[[[20.006085,49.974363],[20.006165,49.974359],[20.00616,49.974332],[20.006359,49.974321],[20.00637,49.974404],[20.006093,49.974419],[20.006085,49.974363]]]}},{"type":"Feature","id":"w876076760","properties":{"type":"yes","residential":false,"residents_est":0,"h3_10":"8a1e2e69a077fff","h3_11":"8b1e2e69a071fff"},"geometry":{"type":"Polygon","coordinates":[[[20.003424,49.974152],[20.003434,49.974107],[20.003518,49.974114],[20.003508,49.974159],[20.003424,49.974152]]]}},{"type":"Feature","id":"w876076761","properties":{"type":"yes","residential":false,"residents_est":0,"h3_10":"8a1e2e69a00ffff","h3_11":"8b1e2e69a00dfff"},"geometry":{"type":"Polygon","coordinates":[[[20.001617,49.973815],[20.001673,49.973813],[20.001675,49.973859],[20.001619,49.97386],[20.001617,49.973815]]]}},{"type":"Feature","id":"w876076762","properties":{"type":"yes","address":"Grabówki 71","residential":true,"residents_est":0,"h3_10":"8a1e2e69a00ffff","h3_11":"8b1e2e69a00dfff"},"geometry":{"type":"Polygon","coordinates":[[[20.0019,49.97386],[20.002053,49.973886],[20.002022,49.973961],[20.00191,49.973942],[20.0019,49.97386]]]}},{"type":"Feature","id":"w997992853","properties":{"type":"house","address":"Sygneczów 314","residential":true,"residents_est":1,"h3_10":"8a1e2e69a057fff","h3_11":"8b1e2e69a054fff"},"geometry":{"type":"Polygon","coordinates":[[[20.002846,49.973572],[20.002854,49.973518],[20.002897,49.97352],[20.002901,49.973494],[20.002959,49.973497],[20.002957,49.973507],[20.003,49.973509],[20.002998,49.973523],[20.003016,49.973524],[20.003018,49.973515],[20.003072,49.973518],[20.003063,49.97358],[20.002846,49.973572]]]}},{"type":"Feature","id":"w1008667525","properties":{"type":"house","address":"Sygneczów 317","residential":true,"residents_est":1,"h3_10":"8a1e2e69a077fff","h3_11":"8b1e2e69a072fff"},"geometry":{"type":"Polygon","coordinates":[[[20.002093,49.973756],[20.002107,49.973672],[20.00224,49.973681],[20.002242,49.973667],[20.0023,49.973671],[20.002284,49.97377],[20.002093,49.973756]]]}},{"type":"Feature","id":"w1312278771","properties":{"type":"yes","residential":false,"residents_est":0,"h3_10":"8a1e2e69a037fff","h3_11":"8b1e2e69a036fff"},"geometry":{"type":"Polygon","coordinates":[[[19.99721,49.974084],[19.997233,49.974063],[19.997316,49.974098],[19.997294,49.97412],[19.99721,49.974084]]]}},{"type":"Feature","id":"w1312278772","properties":{"type":"yes","residential":true,"residents_est":0,"h3_10":"8a1e2e69a037fff","h3_11":"8b1e2e69a036fff"},"geometry":{"type":"Polygon","coordinates":[[[19.997217,49.974056],[19.997302,49.973973],[19.997401,49.974015],[19.997316,49.974098],[19.997217,49.974056]]]}},{"type":"Feature","id":"w1312278786","properties":{"type":"yes","residential":false,"residents_est":0,"h3_10":"8a1e2e69a197fff","h3_11":"8b1e2e69a196fff"},"geometry":{"type":"Polygon","coordinates":[[[19.992253,49.973021],[19.99227,49.972959],[19.992303,49.972962],[19.992286,49.973025],[19.992253,49.973021]]]}},{"type":"Feature","id":"w1312278788","properties":{"type":"yes","residential":false,"residents_est":0,"h3_10":"8a1e2e69a197fff","h3_11":"8b1e2e69a196fff"},"geometry":{"type":"Polygon","coordinates":[[[19.992419,49.973001],[19.992435,49.972956],[19.992534,49.97297],[19.992518,49.973016],[19.992419,49.973001]]]}},{"type":"Feature","id":"w1312278790","properties":{"type":"yes","address":"Golkowice 609","residential":true,"residents_est":1,"h3_10":"8a1e2e69a197fff","h3_11":"8b1e2e69a192fff"},"geometry":{"type":"Polygon","coordinates":[[[19.992804,49.972403],[19.992929,49.972396],[19.992951,49.972549],[19.992826,49.972557],[19.992804,49.972403]]]}},{"type":"Feature","id":"w1312278791","properties":{"type":"yes","address":"Golkowice 119","residential":true,"residents_est":0,"h3_10":"8a1e2e69a197fff","h3_11":"8b1e2e69a194fff"},"geometry":{"type":"Polygon","coordinates":[[[19.992919,49.973274],[19.992953,49.973208],[19.993079,49.973236],[19.993044,49.973301],[19.992919,49.973274]]]}},{"type":"Feature","id":"w1312278793","properties":{"type":"yes","residential":true,"residents_est":0,"h3_10":"8a1e2e69a047fff","h3_11":"8b1e2e69a040fff"},"geometry":{"type":"Polygon","coordinates":[[[20.004501,49.973679],[20.00457,49.973679],[20.004572,49.973781],[20.004503,49.973781],[20.004501,49.973679]]]}},{"type":"Feature","id":"w1312278794","properties":{"type":"yes","address":"Sygneczów 312","residential":true,"residents_est":0,"h3_10":"8a1e2e69a057fff","h3_11":"8b1e2e69a055fff"},"geometry":{"type":"Polygon","coordinates":[[[20.00375,49.973523],[20.003755,49.973489],[20.003766,49.97349],[20.003772,49.97346],[20.003874,49.973463],[20.003875,49.973454],[20.003966,49.97346],[20.003954,49.973536],[20.003908,49.973533],[20.003903,49.973563],[20.003773,49.973555],[20.003777,49.973524],[20.00375,49.973523]]]}},{"type":"Feature","id":"w1312278801","properties":{"type":"yes","residential":true,"residents_est":0,"h3_10":"8a1e2e69a077fff","h3_11":"8b1e2e69a070fff"},"geometry":{"type":"Polygon","coordinates":[[[20.002525,49.974042],[20.002563,49.973961],[20.002626,49.973973],[20.002588,49.974054],[20.002525,49.974042]]]}},{"type":"Feature","id":"w1312278805","properties":{"type":"yes","residential":true,"residents_est":1,"h3_10":"8a1e2e69a187fff","h3_11":"8b1e2e69a183fff"},"geometry":{"type":"Polygon","coordinates":[[[19.995019,49.973468],[19.995046,49.973382],[19.995185,49.9734],[19.995179,49.973418],[19.995193,49.97342],[19.995183,49.973451],[19.99517,49.973449],[19.995161,49.973477],[19.995112,49.973471],[19.995109,49.973481],[19.995077,49.973476],[19.99508,49.973467],[19.995067,49.973465],[19.995064,49.973474],[19.995019,49.973468]]]}},{"type":"Feature","id":"w1312278806","properties":{"type":"yes","residential":false,"residents_est":0,"h3_10":"8a1e2e69a187fff","h3_11":"8b1e2e69a183fff"},"geometry":{"type":"Polygon","coordinates":[[[19.995176,49.97355],[19.9952,49.973501],[19.995277,49.973517],[19.995253,49.973566],[19.995176,49.97355]]]}},{"type":"Feature","id":"w1312278808","properties":{"type":"yes","residential":false,"residents_est":0,"h3_10":"8a1e2e69a18ffff","h3_11":"8b1e2e69a18cfff"},"geometry":{"type":"Polygon","coordinates":[[[19.996188,49.973593],[19.996198,49.97356],[19.996269,49.973574],[19.996255,49.973607],[19.996188,49.973593]]]}},{"type":"Feature","id":"w1312278810","properties":{"type":"yes","residential":false,"residents_est":0,"h3_10":"8a1e2e69a187fff","h3_11":"8b1e2e69a180fff"},"geometry":{"type":"Polygon","coordinates":[[[19.994815,49.973586],[19.994832,49.97351],[19.994875,49.973514],[19.994858,49.97359],[19.994815,49.973586]]]}},{"type":"Feature","id":"w1312278811","properties":{"type":"yes","residential":false,"residents_est":0,"h3_10":"8a1e2e69a187fff","h3_11":"8b1e2e69a182fff"},"geometry":{"type":"Polygon","coordinates":[[[19.994532,49.973354],[19.994538,49.973308],[19.99463,49.973313],[19.994624,49.973359],[19.994532,49.973354]]]}},{"type":"Feature","id":"w1312278812","properties":{"type":"yes","residential":false,"residents_est":0,"h3_10":"8a1e2e69a187fff","h3_11":"8b1e2e69a180fff"},"geometry":{"type":"Polygon","coordinates":[[[19.994365,49.97373],[19.994371,49.973672],[19.994408,49.973674],[19.994402,49.973732],[19.994365,49.97373]]]}},{"type":"Feature","id":"w1312278813","properties":{"type":"yes","residential":false,"residents_est":0,"h3_10":"8a1e2e69a187fff","h3_11":"8b1e2e69a180fff"},"geometry":{"type":"Polygon","coordinates":[[[19.994409,49.973731],[19.994423,49.973677],[19.994492,49.973684],[19.994477,49.973739],[19.994409,49.973731]]]}},{"type":"Feature","id":"w1312278814","properties":{"type":"yes","residential":false,"residents_est":0,"h3_10":"8a1e2e69a187fff","h3_11":"8b1e2e69a180fff"},"geometry":{"type":"Polygon","coordinates":[[[19.994477,49.973739],[19.994492,49.973684],[19.994559,49.973692],[19.994545,49.973746],[19.994477,49.973739]]]}},{"type":"Feature","id":"w1312278815","properties":{"type":"yes","residential":false,"residents_est":0,"h3_10":"8a1e2e69a187fff","h3_11":"8b1e2e69a185fff"},"geometry":{"type":"Polygon","coordinates":[[[19.994772,49.974212],[19.994818,49.974153],[19.994848,49.974163],[19.994802,49.974222],[19.994772,49.974212]]]}},{"type":"Feature","id":"w1312278820","properties":{"type":"yes","residential":false,"residents_est":0,"h3_10":"8a1e2e69a187fff","h3_11":"8b1e2e69a180fff"},"geometry":{"type":"Polygon","coordinates":[[[19.994695,49.973754],[19.994705,49.973704],[19.994783,49.973711],[19.994772,49.973761],[19.994695,49.973754]]]}},{"type":"Feature","id":"w1312278824","properties":{"type":"yes","residential":false,"residents_est":0,"h3_10":"8a1e2e69a11ffff","h3_11":"8b1e2e69a11afff"},"geometry":{"type":"Polygon","coordinates":[[[19.997207,49.974851],[19.997245,49.974838],[19.997296,49.974899],[19.997258,49.974912],[19.997207,49.974851]]]}},{"type":"Feature","id":"w1312278826","properties":{"type":"yes","residential":false,"residents_est":0,"h3_10":"8a1e2e69a11ffff","h3_11":"8b1e2e69a11afff"},"geometry":{"type":"Polygon","coordinates":[[[19.99714,49.974767],[19.997177,49.974753],[19.997224,49.974806],[19.997187,49.974819],[19.99714,49.974767]]]}},{"type":"Feature","id":"w1312278827","properties":{"type":"yes","residential":false,"residents_est":0,"h3_10":"8a1e2e69a11ffff","h3_11":"8b1e2e69a11afff"},"geometry":{"type":"Polygon","coordinates":[[[19.997239,49.974789],[19.997325,49.974763],[19.997347,49.974793],[19.997261,49.974819],[19.997239,49.974789]]]}},{"type":"Feature","id":"w1312278831","properties":{"type":"yes","residential":false,"residents_est":0,"h3_10":"8a1e2e69a1affff","h3_11":"8b1e2e69a1abfff"},"geometry":{"type":"Polygon","coordinates":[[[19.996411,49.974109],[19.996479,49.974093],[19.996494,49.974117],[19.996426,49.974134],[19.996411,49.974109]]]}},{"type":"Feature","id":"w1312278832","properties":{"type":"yes","residential":false,"residents_est":0,"h3_10":"8a1e2e69a11ffff","h3_11":"8b1e2e69a11afff"},"geometry":{"type":"Polygon","coordinates":[[[19.997058,49.974958],[19.997178,49.974905],[19.997199,49.974924],[19.997078,49.974977],[19.997058,49.974958]]]}},{"type":"Feature","id":"w1312278837","properties":{"type":"yes","residential":false,"residents_est":0,"h3_10":"8a1e2e69a11ffff","h3_11":"8b1e2e69a11dfff"},"geometry":{"type":"Polygon","coordinates":[[[19.997837,49.975529],[19.997887,49.975511],[19.997936,49.975567],[19.997885,49.975585],[19.997837,49.975529]]]}},{"type":"Feature","id":"w1312278838","properties":{"type":"yes","residential":false,"residents_est":0,"h3_10":"8a1e2e69a11ffff","h3_11":"8b1e2e69a11dfff"},"geometry":{"type":"Polygon","coordinates":[[[19.997704,49.97561],[19.997749,49.97559],[19.997796,49.975632],[19.997751,49.975653],[19.997704,49.97561]]]}},{"type":"Feature","id":"w1312278840","properties":{"type":"yes","residential":true,"residents_est":0,"h3_10":"8a1e2e69a11ffff","h3_11":"8b1e2e69a119fff"},"geometry":{"type":"Polygon","coordinates":[[[19.99834,49.975099],[19.998422,49.975063],[19.998471,49.975109],[19.998389,49.975145],[19.99834,49.975099]]]}},{"type":"Feature","id":"w1312278844","properties":{"type":"yes","residential":false,"residents_est":0,"h3_10":"8a1e2e69a157fff","h3_11":"8b1e2e69a152fff"},"geometry":{"type":"Polygon","coordinates":[[[20.000383,49.975442],[20.000446,49.975415],[20.000472,49.97544],[20.000409,49.975468],[20.000383,49.975442]]]}},{"type":"Feature","id":"w1312278846","properties":{"type":"yes","address":"Elżbiety Drużbackiej 107a","residential":true,"residents_est":0,"h3_10":"8a1e2e69a157fff","h3_11":"8b1e2e69a150fff"},"geometry":{"type":"Polygon","coordinates":[[[20.000501,49.975707],[20.000583,49.975685],[20.000651,49.975774],[20.000607,49.975786],[20.000595,49.975768],[20.000547,49.97578],[20.000501,49.975707]]]}},{"type":"Feature","id":"w1312278849","properties":{"type":"yes","residential":false,"residents_est":0,"h3_10":"8a1e2e69a02ffff","h3_11":"8b1e2e69a028fff"},"geometry":{"type":"Polygon","coordinates":[[[20.00104,49.974457],[20.001137,49.974442],[20.001145,49.974465],[20.001049,49.97448],[20.00104,49.974457]]]}},{"type":"Feature","id":"w1312278851","properties":{"type":"yes","residential":false,"residents_est":0,"h3_10":"8a1e2e69a02ffff","h3_11":"8b1e2e69a028fff"},"geometry":{"type":"Polygon","coordinates":[[[20.001052,49.974525],[20.001088,49.97452],[20.001108,49.974578],[20.001072,49.974583],[20.001052,49.974525]]]}},{"type":"Feature","id":"w1312278853","properties":{"type":"yes","residential":true,"residents_est":0,"h3_10":"8a1e2e69a02ffff","h3_11":"8b1e2e69a02efff"},"geometry":{"type":"Polygon","coordinates":[[[20.000633,49.9746],[20.000708,49.974589],[20.000734,49.974664],[20.000659,49.974674],[20.000633,49.9746]]]}},{"type":"Feature","id":"w1312278863","properties":{"type":"yes","residential":false,"residents_est":0,"h3_10":"8a1e2e69a15ffff","h3_11":"8b1e2e69a159fff"},"geometry":{"type":"Polygon","coordinates":[[[20.003066,49.975333],[20.003108,49.975322],[20.00314,49.975371],[20.003098,49.975383],[20.003066,49.975333]]]}},{"type":"Feature","id":"w1312278867","properties":{"type":"yes","residential":true,"residents_est":0,"h3_10":"8a1e2e69a067fff","h3_11":"8b1e2e69a063fff"},"geometry":{"type":"Polygon","coordinates":[[[20.00429,49.974579],[20.004299,49.974539],[20.004436,49.974552],[20.004427,49.974592],[20.00429,49.974579]]]}},{"type":"Feature","id":"w1312278868","properties":{"type":"yes","residential":false,"residents_est":0,"h3_10":"8a1e2e69a067fff","h3_11":"8b1e2e69a062fff"},"geometry":{"type":"Polygon","coordinates":[[[20.003571,49.974587],[20.003575,49.974534],[20.003616,49.974535],[20.003612,49.974589],[20.003571,49.974587]]]}},{"type":"Feature","id":"w1312278870","properties":{"type":"yes","residential":false,"residents_est":0,"h3_10":"8a1e2e69a02ffff","h3_11":"8b1e2e69a02cfff"},"geometry":{"type":"Polygon","coordinates":[[[20.00048,49.974962],[20.000542,49.974952],[20.00056,49.975002],[20.000498,49.975011],[20.00048,49.974962]]]}},{"type":"Feature","id":"w1312278871","properties":{"type":"yes","residential":true,"residents_est":0,"h3_10":"8a1e2e69a077fff","h3_11":"8b1e2e69a074fff"},"geometry":{"type":"Polygon","coordinates":[[[20.002198,49.974498],[20.002304,49.974491],[20.002316,49.974564],[20.00221,49.974572],[20.002198,49.974498]]]}},{"type":"Feature","id":"w1312278872","properties":{"type":"yes","address":"Grabówki 470","residential":true,"residents_est":0,"h3_10":"8a1e2e69a02ffff","h3_11":"8b1e2e69a02bfff"},"geometry":{"type":"Polygon","coordinates":[[[20.001054,49.97413],[20.001203,49.974109],[20.001223,49.974168],[20.001073,49.974188],[20.001054,49.97413]]]}},{"type":"Feature","id":"w1312278873","properties":{"type":"yes","address":"Grabówki 470A","residential":true,"residents_est":1,"h3_10":"8a1e2e69a02ffff","h3_11":"8b1e2e69a02bfff"},"geometry":{"type":"Polygon","coordinates":[[[20.001073,49.974188],[20.001223,49.974168],[20.001242,49.974227],[20.001093,49.974247],[20.001073,49.974188]]]}},{"type":"Feature","id":"w1312278874","properties":{"type":"yes","address":"Grabówki 470B","residential":true,"residents_est":0,"h3_10":"8a1e2e69a02ffff","h3_11":"8b1e2e69a028fff"},"geometry":{"type":"Polygon","coordinates":[[[20.001116,49.97432],[20.001267,49.9743],[20.001286,49.974359],[20.001136,49.974379],[20.001116,49.97432]]]}},{"type":"Feature","id":"w1312278875","properties":{"type":"yes","address":"Grabówki 470C","residential":true,"residents_est":0,"h3_10":"8a1e2e69a02ffff","h3_11":"8b1e2e69a028fff"},"geometry":{"type":"Polygon","coordinates":[[[20.001136,49.974379],[20.001286,49.974359],[20.001305,49.974417],[20.001154,49.974438],[20.001136,49.974379]]]}},{"type":"Feature","id":"w1312278876","properties":{"type":"yes","address":"Grabówki 470D","residential":true,"residents_est":0,"h3_10":"8a1e2e69a02ffff","h3_11":"8b1e2e69a028fff"},"geometry":{"type":"Polygon","coordinates":[[[20.001177,49.974511],[20.001327,49.97449],[20.001347,49.97455],[20.001197,49.97457],[20.001177,49.974511]]]}},{"type":"Feature","id":"w1312278877","properties":{"type":"yes","address":"Grabówki 470E","residential":true,"residents_est":0,"h3_10":"8a1e2e69a02ffff","h3_11":"8b1e2e69a028fff"},"geometry":{"type":"Polygon","coordinates":[[[20.001197,49.97457],[20.001347,49.97455],[20.001366,49.974608],[20.001216,49.974629],[20.001197,49.97457]]]}},{"type":"Feature","id":"w1312856696","properties":{"type":"yes","residential":false,"residents_est":0,"h3_10":"8a1e2e69a187fff","h3_11":"8b1e2e69a186fff"},"geometry":{"type":"Polygon","coordinates":[[[19.9937,49.97386],[19.99371,49.973816],[19.993794,49.973824],[19.993784,49.973869],[19.9937,49.97386]]]}},{"type":"Feature","id":"w1551580451","properties":{"type":"yes","residential":true,"residents_est":1,"h3_10":"8a1e2e69a15ffff","h3_11":"8b1e2e69a15afff"},"geometry":{"type":"Polygon","coordinates":[[[20.001848,49.974939],[20.002018,49.974884],[20.002088,49.974975],[20.001918,49.975029],[20.001848,49.974939]]]}},{"type":"Feature","id":"w1551580452","properties":{"type":"yes","residential":true,"residents_est":1,"h3_10":"8a1e2e69a15ffff","h3_11":"8b1e2e69a15efff"},"geometry":{"type":"Polygon","coordinates":[[[20.002015,49.975144],[20.002185,49.97509],[20.002255,49.97518],[20.002084,49.975235],[20.002015,49.975144]]]}},{"type":"Feature","id":"w1551580453","properties":{"type":"yes","residential":true,"residents_est":0,"h3_10":"8a1e2e69a15ffff","h3_11":"8b1e2e69a158fff"},"geometry":{"type":"Polygon","coordinates":[[[20.002251,49.975071],[20.002421,49.975017],[20.002491,49.975107],[20.002321,49.975162],[20.002251,49.975071]]]}},{"type":"Feature","id":"w1551580454","properties":{"type":"yes","residential":true,"residents_est":1,"h3_10":"8a1e2e69a15ffff","h3_11":"8b1e2e69a158fff"},"geometry":{"type":"Polygon","coordinates":[[[20.002485,49.974992],[20.002656,49.974938],[20.002726,49.975028],[20.002555,49.975083],[20.002485,49.974992]]]}},{"type":"Feature","id":"w1551580455","properties":{"type":"yes","residential":true,"residents_est":1,"h3_10":"8a1e2e69a15ffff","h3_11":"8b1e2e69a15bfff"},"geometry":{"type":"Polygon","coordinates":[[[20.002723,49.974914],[20.002894,49.97486],[20.002963,49.97495],[20.002793,49.975005],[20.002723,49.974914]]]}},{"type":"Feature","id":"w1551580456","properties":{"type":"yes","residential":true,"residents_est":4,"h3_10":"8a1e2e69a02ffff","h3_11":"8b1e2e69a029fff"},"geometry":{"type":"Polygon","coordinates":[[[20.001542,49.974239],[20.00168,49.974221],[20.001786,49.974564],[20.001649,49.974582],[20.001542,49.974239]]]}}]}