{"type":"FeatureCollection","features":[{"type":"Feature","id":"w328490823","properties":{"type":"yes","residential":true,"residents_est":4,"h3_10":"8a1e2e68a98ffff","h3_11":"8b1e2e68a98afff"},"geometry":{"type":"Polygon","coordinates":[[[20.063998,50.016916],[20.064083,50.016851],[20.064197,50.016912],[20.064121,50.016971],[20.064069,50.016942],[20.064058,50.016951],[20.063998,50.016916]]]}},{"type":"Feature","id":"w328490876","properties":{"type":"yes","residential":true,"residents_est":4,"h3_10":"8a1e2e68a81ffff","h3_11":"8b1e2e68a818fff"},"geometry":{"type":"Polygon","coordinates":[[[20.067569,50.016567],[20.067724,50.016552],[20.067744,50.016634],[20.067655,50.016644],[20.067648,50.016613],[20.067582,50.016618],[20.067569,50.016567]]]}},{"type":"Feature","id":"w328490880","properties":{"type":"yes","residential":true,"residents_est":4,"h3_10":"8a1e2e68a98ffff","h3_11":"8b1e2e68a98afff"},"geometry":{"type":"Polygon","coordinates":[[[20.063762,50.016965],[20.063764,50.016901],[20.063941,50.016909],[20.063939,50.016962],[20.063889,50.016962],[20.063889,50.016967],[20.06388,50.016967],[20.06388,50.016981],[20.063845,50.01698],[20.063845,50.016966],[20.063762,50.016965]]]}},{"type":"Feature","id":"w328490892","properties":{"type":"yes","residential":true,"residents_est":4,"h3_10":"8a1e2e68a8a7fff","h3_11":"8b1e2e68a8a4fff"},"geometry":{"type":"Polygon","coordinates":[[[20.06453,50.016573],[20.064613,50.016573],[20.064614,50.016589],[20.064653,50.016589],[20.064654,50.016685],[20.064603,50.016685],[20.064602,50.016669],[20.064531,50.016669],[20.06453,50.016573]]]}},{"type":"Feature","id":"w328490922","properties":{"type":"yes","residential":true,"residents_est":9,"h3_10":"8a1e2e68a99ffff","h3_11":"8b1e2e68a998fff"},"geometry":{"type":"Polygon","coordinates":[[[20.062983,50.016579],[20.063073,50.016578],[20.06307,50.016515],[20.063174,50.016513],[20.063174,50.016531],[20.063236,50.01653],[20.063239,50.01661],[20.063185,50.016611],[20.063175,50.016634],[20.063083,50.016636],[20.063084,50.016676],[20.062985,50.016677],[20.062983,50.016579]]]}},{"type":"Feature","id":"w328490925","properties":{"type":"yes","residential":true,"residents_est":6,"h3_10":"8a1e2e68a987fff","h3_11":"8b1e2e68a983fff"},"geometry":{"type":"Polygon","coordinates":[[[20.062897,50.017279],[20.062907,50.017187],[20.063068,50.017196],[20.063065,50.017213],[20.063112,50.017215],[20.063103,50.017282],[20.062978,50.017275],[20.062976,50.017284],[20.062897,50.017279]]]}},{"type":"Feature","id":"w328490931","properties":{"type":"yes","residential":true,"residents_est":4,"h3_10":"8a1e2e68a99ffff","h3_11":"8b1e2e68a99dfff"},"geometry":{"type":"Polygon","coordinates":[[[20.063378,50.016931],[20.063381,50.016856],[20.063437,50.016856],[20.063437,50.016841],[20.063449,50.016832],[20.063467,50.016832],[20.063479,50.016842],[20.063529,50.016842],[20.063526,50.016882],[20.063541,50.016889],[20.063539,50.016903],[20.063526,50.016909],[20.063525,50.016931],[20.063378,50.016931]]]}},{"type":"Feature","id":"w328490961","properties":{"type":"yes","residential":true,"residents_est":7,"h3_10":"8a1e2e68a98ffff","h3_11":"8b1e2e68a98efff"},"geometry":{"type":"Polygon","coordinates":[[[20.063715,50.017143],[20.063802,50.017143],[20.063803,50.017103],[20.063903,50.017103],[20.063902,50.01722],[20.06385,50.017221],[20.063851,50.017234],[20.063836,50.017243],[20.063806,50.017243],[20.06379,50.017235],[20.063788,50.017221],[20.063715,50.017222],[20.063715,50.017143]]]}},{"type":"Feature","id":"w328491097","properties":{"type":"yes","residential":false,"residents_est":0,"h3_10":"8a1e2e68a81ffff","h3_11":"8b1e2e68a818fff"},"geometry":{"type":"Polygon","coordinates":[[[20.067986,50.01655],[20.06807,50.016545],[20.068077,50.016584],[20.067992,50.016589],[20.067986,50.01655]]]}},{"type":"Feature","id":"w328491106","properties":{"type":"yes","residential":true,"residents_est":5,"h3_10":"8a1e2e68a81ffff","h3_11":"8b1e2e68a81cfff"},"geometry":{"type":"Polygon","coordinates":[[[20.067212,50.016815],[20.067393,50.016812],[20.067398,50.016894],[20.067214,50.016893],[20.067212,50.016815]]]}},{"type":"Feature","id":"w328491112","properties":{"type":"yes","residential":true,"residents_est":3,"h3_10":"8a1e2e68a817fff","h3_11":"8b1e2e68a811fff"},"geometry":{"type":"Polygon","coordinates":[[[20.066884,50.016732],[20.067,50.016705],[20.067043,50.016781],[20.066925,50.016806],[20.066884,50.016732]]]}},{"type":"Feature","id":"w328491145","properties":{"type":"yes","residential":true,"residents_est":3,"h3_10":"8a1e2e68a81ffff","h3_11":"8b1e2e68a81dfff"},"geometry":{"type":"Polygon","coordinates":[[[20.068234,50.016825],[20.068235,50.016762],[20.068392,50.016766],[20.068389,50.016829],[20.068234,50.016825]]]}},{"type":"Feature","id":"w328491149","properties":{"type":"yes","address":"Kokotów 90","residential":true,"residents_est":5,"h3_10":"8a1e2e68a857fff","h3_11":"8b1e2e68a854fff"},"geometry":{"type":"Polygon","coordinates":[[[20.070715,50.017212],[20.070911,50.017162],[20.070949,50.017226],[20.070753,50.017275],[20.070715,50.017212]]]}},{"type":"Feature","id":"w328491191","properties":{"type":"yes","residential":true,"residents_est":3,"h3_10":"8a1e2e68a80ffff","h3_11":"8b1e2e68a80afff"},"geometry":{"type":"Polygon","coordinates":[[[20.068817,50.016913],[20.068828,50.016841],[20.068946,50.016848],[20.068934,50.016921],[20.068817,50.016913]]]}},{"type":"Feature","id":"w328491239","properties":{"type":"yes","residential":true,"residents_est":2,"h3_10":"8a1e2e68a98ffff","h3_11":"8b1e2e68a98afff"},"geometry":{"type":"Polygon","coordinates":[[[20.064093,50.017106],[20.064095,50.017024],[20.064162,50.017025],[20.064158,50.017107],[20.064093,50.017106]]]}},{"type":"Feature","id":"w328491240","properties":{"type":"yes","residential":true,"residents_est":5,"h3_10":"8a1e2e68a817fff","h3_11":"8b1e2e68a810fff"},"geometry":{"type":"Polygon","coordinates":[[[20.065791,50.017],[20.065946,50.016983],[20.065968,50.017074],[20.065885,50.017085],[20.065882,50.017073],[20.065809,50.01708],[20.065791,50.017]]]}},{"type":"Feature","id":"w328491254","properties":{"type":"outbuilding","levels":1.0,"residential":false,"residents_est":0,"h3_10":"8a1e2e68a8e7fff","h3_11":"8b1e2e68a8e1fff"},"geometry":{"type":"Polygon","coordinates":[[[20.070645,50.016163],[20.070669,50.016004],[20.070783,50.016012],[20.070758,50.01617],[20.070645,50.016163]]]}},{"type":"Feature","id":"w328491303","properties":{"type":"house","levels":1.0,"address":"Kokotów 38","residential":true,"residents_est":6,"h3_10":"8a1e2e68a8effff","h3_11":"8b1e2e68a8eefff"},"geometry":{"type":"Polygon","coordinates":[[[20.070824,50.016008],[20.070848,50.015927],[20.071036,50.01595],[20.071012,50.016031],[20.070952,50.016024],[20.070945,50.016047],[20.070866,50.016037],[20.070873,50.016014],[20.070824,50.016008]]]}},{"type":"Feature","id":"w328491415","properties":{"type":"yes","residential":true,"residents_est":5,"h3_10":"8a1e2e68a81ffff","h3_11":"8b1e2e68a819fff"},"geometry":{"type":"Polygon","coordinates":[[[20.06844,50.016539],[20.068607,50.016528],[20.068624,50.016622],[20.068455,50.016633],[20.06844,50.016539]]]}},{"type":"Feature","id":"w328491426","properties":{"type":"yes","residential":true,"residents_est":6,"h3_10":"8a1e2e68a80ffff","h3_11":"8b1e2e68a808fff"},"geometry":{"type":"Polygon","coordinates":[[[20.069091,50.017198],[20.069354,50.017196],[20.069358,50.017257],[20.069093,50.017261],[20.069091,50.017198]]]}},{"type":"Feature","id":"w328491437","properties":{"type":"residential","address":"Kokotów 277","residential":true,"residents_est":16,"h3_10":"8a1e2e68a857fff","h3_11":"8b1e2e68a854fff"},"geometry":{"type":"Polygon","coordinates":[[[20.070864,50.017347],[20.071,50.017319],[20.071038,50.017398],[20.070905,50.017425],[20.070864,50.017347]]]}},{"type":"Feature","id":"w328491438","properties":{"type":"yes","residential":true,"residents_est":4,"h3_10":"8a1e2e68a81ffff","h3_11":"8b1e2e68a81efff"},"geometry":{"type":"Polygon","coordinates":[[[20.067227,50.01648],[20.067303,50.016471],[20.067324,50.016541],[20.067247,50.01655],[20.067227,50.01648]]]}},{"type":"Feature","id":"w328491483","properties":{"type":"yes","residential":true,"residents_est":5,"h3_10":"8a1e2e68a8a7fff","h3_11":"8b1e2e68a8a5fff"},"geometry":{"type":"Polygon","coordinates":[[[20.065229,50.016534],[20.065416,50.016512],[20.065441,50.016602],[20.065322,50.016615],[20.065314,50.016591],[20.065246,50.016598],[20.065229,50.016534]]]}},{"type":"Feature","id":"w328491600","properties":{"type":"yes","residential":true,"residents_est":4,"h3_10":"8a1e2e68a81ffff","h3_11":"8b1e2e68a81cfff"},"geometry":{"type":"Polygon","coordinates":[[[20.06752,50.016939],[20.067529,50.016862],[20.06764,50.016867],[20.06763,50.016961],[20.067533,50.016957],[20.067534,50.01694],[20.06752,50.016939]]]}},{"type":"Feature","id":"w328491612","properties":{"type":"yes","residential":true,"residents_est":5,"h3_10":"8a1e2e68a98ffff","h3_11":"8b1e2e68a98efff"},"geometry":{"type":"Polygon","coordinates":[[[20.063376,50.017266],[20.063379,50.017181],[20.063426,50.017182],[20.063427,50.017163],[20.063542,50.017165],[20.063536,50.017277],[20.063476,50.017276],[20.063477,50.017267],[20.063376,50.017266]]]}},{"type":"Feature","id":"w328491615","properties":{"type":"yes","residential":true,"residents_est":2,"h3_10":"8a1e2e68a857fff","h3_11":"8b1e2e68a854fff"},"geometry":{"type":"Polygon","coordinates":[[[20.070735,50.017318],[20.070854,50.017292],[20.070872,50.017326],[20.070807,50.01734],[20.070817,50.017359],[20.070763,50.01737],[20.070735,50.017318]]]}},{"type":"Feature","id":"w328491629","properties":{"type":"yes","residential":true,"residents_est":6,"h3_10":"8a1e2e68a98ffff","h3_11":"8b1e2e68a98bfff"},"geometry":{"type":"Polygon","coordinates":[[[20.064956,50.016781],[20.064998,50.016776],[20.064989,50.016748],[20.065114,50.016732],[20.065148,50.016839],[20.064981,50.016861],[20.064956,50.016781]]]}},{"type":"Feature","id":"w328491702","properties":{"type":"yes","residential":true,"residents_est":4,"h3_10":"8a1e2e68a817fff","h3_11":"8b1e2e68a811fff"},"geometry":{"type":"Polygon","coordinates":[[[20.066798,50.016964],[20.066834,50.016957],[20.066838,50.016962],[20.066942,50.016941],[20.066975,50.017008],[20.066832,50.017038],[20.066798,50.016964]]]}},{"type":"Feature","id":"w328491710","properties":{"type":"yes","residential":true,"residents_est":9,"h3_10":"8a1e2e68a80ffff","h3_11":"8b1e2e68a80afff"},"geometry":{"type":"Polygon","coordinates":[[[20.068791,50.017145],[20.068803,50.017046],[20.069064,50.017058],[20.069054,50.017141],[20.068997,50.017138],[20.068994,50.017155],[20.068791,50.017145]]]}},{"type":"Feature","id":"w328491712","properties":{"type":"yes","residential":true,"residents_est":6,"h3_10":"8a1e2e68a817fff","h3_11":"8b1e2e68a810fff"},"geometry":{"type":"Polygon","coordinates":[[[20.066406,50.016971],[20.06647,50.016957],[20.066475,50.016968],[20.066601,50.016943],[20.066639,50.01702],[20.066451,50.017059],[20.066406,50.016971]]]}},{"type":"Feature","id":"w328491747","properties":{"type":"yes","residential":true,"residents_est":4,"h3_10":"8a1e2e68a987fff","h3_11":"8b1e2e68a982fff"},"geometry":{"type":"Polygon","coordinates":[[[20.062528,50.017278],[20.062542,50.017195],[20.06269,50.017205],[20.06268,50.017267],[20.062582,50.01726],[20.062578,50.017281],[20.062528,50.017278]]]}},{"type":"Feature","id":"w328491807","properties":{"type":"yes","residential":true,"residents_est":4,"h3_10":"8a1e2e68a817fff","h3_11":"8b1e2e68a811fff"},"geometry":{"type":"Polygon","coordinates":[[[20.066592,50.016795],[20.066721,50.01677],[20.066759,50.01685],[20.066704,50.016861],[20.066711,50.016877],[20.066643,50.01689],[20.066592,50.016795]]]}},{"type":"Feature","id":"w328491831","properties":{"type":"yes","residential":true,"residents_est":5,"h3_10":"8a1e2e68a99ffff","h3_11":"8b1e2e68a998fff"},"geometry":{"type":"Polygon","coordinates":[[[20.062622,50.016587],[20.062626,50.016508],[20.062778,50.01651],[20.062774,50.016589],[20.062724,50.016588],[20.062723,50.016604],[20.062673,50.016603],[20.062674,50.016588],[20.062622,50.016587]]]}},{"type":"Feature","id":"w328491838","properties":{"type":"yes","residential":true,"residents_est":6,"h3_10":"8a1e2e68a817fff","h3_11":"8b1e2e68a810fff"},"geometry":{"type":"Polygon","coordinates":[[[20.066206,50.017046],[20.066396,50.017019],[20.066435,50.017135],[20.06636,50.017145],[20.066352,50.017121],[20.066287,50.01713],[20.06627,50.017078],[20.066219,50.017085],[20.066206,50.017046]]]}},{"type":"Feature","id":"w328491856","properties":{"type":"yes","residential":true,"residents_est":4,"h3_10":"8a1e2e68a99ffff","h3_11":"8b1e2e68a99dfff"},"geometry":{"type":"Polygon","coordinates":[[[20.062988,50.016951],[20.062992,50.016871],[20.063131,50.016874],[20.063127,50.016954],[20.062988,50.016951]]]}},{"type":"Feature","id":"w337487546","properties":{"type":"house","levels":3.0,"address":"Kokotów 546","residential":true,"residents_est":15,"h3_10":"8a1e2e68a8d7fff","h3_11":"8b1e2e68a8d5fff"},"geometry":{"type":"Polygon","coordinates":[[[20.068777,50.014779],[20.068904,50.014751],[20.068921,50.014783],[20.068943,50.014778],[20.068958,50.014807],[20.068942,50.01481],[20.068965,50.014851],[20.068838,50.01488],[20.068777,50.014779]]]}},{"type":"Feature","id":"w337487551","properties":{"type":"house","levels":3.0,"address":"Kokotów 405","residential":true,"residents_est":18,"h3_10":"8a1e2e68a8f7fff","h3_11":"8b1e2e68a8f3fff"},"geometry":{"type":"Polygon","coordinates":[[[20.068521,50.014814],[20.06858,50.014801],[20.068597,50.014834],[20.068676,50.014816],[20.068713,50.014888],[20.0687,50.014891],[20.068715,50.01492],[20.068655,50.014933],[20.06866,50.014942],[20.068596,50.014956],[20.068521,50.014814]]]}},{"type":"Feature","id":"w337487662","properties":{"type":"house","levels":2.0,"address":"Kokotów 680","residential":true,"residents_est":15,"h3_10":"8a1e2e68a8d7fff","h3_11":"8b1e2e68a8d3fff"},"geometry":{"type":"Polygon","coordinates":[[[20.068743,50.013787],[20.068992,50.013751],[20.069021,50.013832],[20.068772,50.013868],[20.068743,50.013787]]]}},{"type":"Feature","id":"w337487760","properties":{"type":"house","levels":1.0,"address":"Kokotów 122","residential":true,"residents_est":5,"h3_10":"8a1e2e68a8c7fff","h3_11":"8b1e2e68a8c1fff"},"geometry":{"type":"Polygon","coordinates":[[[20.07081,50.015204],[20.070999,50.01516],[20.071042,50.015237],[20.070989,50.015249],[20.070981,50.015234],[20.070928,50.015246],[20.070936,50.015259],[20.070895,50.015268],[20.070888,50.015255],[20.070844,50.015265],[20.07081,50.015204]]]}},{"type":"Feature","id":"w337487766","properties":{"type":"yes","residential":false,"residents_est":0,"h3_10":"8a1e2e68a8c7fff","h3_11":"8b1e2e68a8c2fff"},"geometry":{"type":"Polygon","coordinates":[[[20.069852,50.014843],[20.069931,50.014825],[20.069955,50.014867],[20.069876,50.014885],[20.069852,50.014843]]]}},{"type":"Feature","id":"w337487772","properties":{"type":"house","levels":1.0,"address":"Kokotów 106","residential":true,"residents_est":4,"h3_10":"8a1e2e68a8c7fff","h3_11":"8b1e2e68a8c5fff"},"geometry":{"type":"Polygon","coordinates":[[[20.070426,50.015301],[20.070621,50.015279],[20.070638,50.015342],[20.070444,50.015365],[20.070426,50.015301]]]}},{"type":"Feature","id":"w337487808","properties":{"type":"house","levels":1.0,"address":"Kokotów 97","residential":true,"residents_est":2,"h3_10":"8a1e2e68a8c7fff","h3_11":"8b1e2e68a8c1fff"},"geometry":{"type":"Polygon","coordinates":[[[20.070356,50.015166],[20.070371,50.015103],[20.070471,50.015112],[20.070456,50.015176],[20.070356,50.015166]]]}},{"type":"Feature","id":"w337487875","properties":{"type":"garage","levels":1.0,"residential":false,"residents_est":0,"h3_10":"8a1e2e68a8c7fff","h3_11":"8b1e2e68a8c6fff"},"geometry":{"type":"Polygon","coordinates":[[[20.069191,50.014897],[20.06933,50.014862],[20.06936,50.014911],[20.069222,50.014949],[20.069191,50.014897]]]}},{"type":"Feature","id":"w337487886","properties":{"type":"house","levels":1.0,"address":"Kokotów 133","residential":true,"residents_est":4,"h3_10":"8a1e2e68a8c7fff","h3_11":"8b1e2e68a8c5fff"},"geometry":{"type":"Polygon","coordinates":[[[20.070568,50.015504],[20.070696,50.015489],[20.070717,50.015562],[20.070662,50.015568],[20.070667,50.015583],[20.070624,50.015588],[20.070619,50.015573],[20.070588,50.015577],[20.070568,50.015504]]]}},{"type":"Feature","id":"w337487914","properties":{"type":"house","levels":2.0,"address":"Kokotów 358","residential":true,"residents_est":9,"h3_10":"8a1e2e68a8dffff","h3_11":"8b1e2e68a8dafff"},"geometry":{"type":"Polygon","coordinates":[[[20.069906,50.013563],[20.070051,50.013563],[20.070051,50.013658],[20.069906,50.013658],[20.069906,50.013563]]]}},{"type":"Feature","id":"w337487917","properties":{"type":"house","levels":2.0,"residential":true,"residents_est":5,"h3_10":"8a1e2e68a8dffff","h3_11":"8b1e2e68a8defff"},"geometry":{"type":"Polygon","coordinates":[[[20.069672,50.013774],[20.069774,50.013768],[20.069788,50.013845],[20.069715,50.01385],[20.069712,50.013815],[20.069678,50.013817],[20.069672,50.013774]]]}},{"type":"Feature","id":"w337487926","properties":{"type":"house","levels":3.0,"address":"Kokotów 237","residential":true,"residents_est":15,"h3_10":"8a1e2e68a8d7fff","h3_11":"8b1e2e68a8d1fff"},"geometry":{"type":"Polygon","coordinates":[[[20.069523,50.014285],[20.069662,50.014249],[20.069718,50.014337],[20.069579,50.014373],[20.069523,50.014285]]]}},{"type":"Feature","id":"w337487959","properties":{"type":"yes","residential":false,"residents_est":0,"h3_10":"8a1e2e68a8effff","h3_11":"8b1e2e68a8eafff"},"geometry":{"type":"Polygon","coordinates":[[[20.070959,50.015274],[20.071018,50.015263],[20.071047,50.015322],[20.070987,50.015334],[20.070959,50.015274]]]}},{"type":"Feature","id":"w337487987","properties":{"type":"outbuilding","levels":1.0,"residential":false,"residents_est":0,"h3_10":"8a1e2e68a8dffff","h3_11":"8b1e2e68a8d8fff"},"geometry":{"type":"Polygon","coordinates":[[[20.070127,50.014071],[20.070138,50.013999],[20.070281,50.014008],[20.070271,50.01408],[20.070127,50.014071]]]}},{"type":"Feature","id":"w337488001","properties":{"type":"house","levels":1.0,"address":"Kokotów 131","residential":true,"residents_est":4,"h3_10":"8a1e2e68a8c7fff","h3_11":"8b1e2e68a8c0fff"},"geometry":{"type":"Polygon","coordinates":[[[20.069935,50.015018],[20.070099,50.015004],[20.070112,50.015077],[20.07006,50.015081],[20.070063,50.015095],[20.070027,50.015098],[20.070025,50.015084],[20.069949,50.01509],[20.069935,50.015018]]]}},{"type":"Feature","id":"w337488100","properties":{"type":"yes","residential":true,"residents_est":2,"h3_10":"8a1e2e68a8d7fff","h3_11":"8b1e2e68a8d3fff"},"geometry":{"type":"Polygon","coordinates":[[[20.068912,50.014153],[20.068992,50.014132],[20.069035,50.014199],[20.068955,50.01422],[20.068912,50.014153]]]}},{"type":"Feature","id":"w337488112","properties":{"type":"yes","residential":true,"residents_est":2,"h3_10":"8a1e2e68a8dffff","h3_11":"8b1e2e68a8defff"},"geometry":{"type":"Polygon","coordinates":[[[20.069606,50.014168],[20.069681,50.014149],[20.06973,50.014228],[20.069655,50.014248],[20.069606,50.014168]]]}},{"type":"Feature","id":"w337488167","properties":{"type":"outbuilding","levels":1.0,"residential":false,"residents_est":0,"h3_10":"8a1e2e68a8c7fff","h3_11":"8b1e2e68a8c0fff"},"geometry":{"type":"Polygon","coordinates":[[[20.070212,50.015201],[20.070346,50.015186],[20.070362,50.015255],[20.070297,50.015262],[20.070289,50.015236],[20.070221,50.015243],[20.070212,50.015201]]]}},{"type":"Feature","id":"w337488269","properties":{"type":"yes","address":"Kokotów 525","residential":true,"residents_est":5,"h3_10":"8a1e2e68a8d7fff","h3_11":"8b1e2e68a8d2fff"},"geometry":{"type":"Polygon","coordinates":[[[20.067994,50.01381],[20.068112,50.013791],[20.068144,50.013872],[20.068114,50.013878],[20.068131,50.013913],[20.068041,50.013928],[20.067994,50.01381]]]}},{"type":"Feature","id":"w337488361","properties":{"type":"house","levels":2.0,"address":"Kokotów 333","residential":true,"residents_est":10,"h3_10":"8a1e2e68a8c7fff","h3_11":"8b1e2e68a8c2fff"},"geometry":{"type":"Polygon","coordinates":[[[20.069453,50.014624],[20.069577,50.014594],[20.069598,50.014632],[20.069618,50.014627],[20.069631,50.014649],[20.069611,50.014654],[20.069621,50.014656],[20.069645,50.014698],[20.069521,50.014727],[20.069485,50.014665],[20.069477,50.014667],[20.069453,50.014624]]]}},{"type":"Feature","id":"w337488366","properties":{"type":"house","levels":2.0,"address":"Kokotów 658","residential":true,"residents_est":8,"h3_10":"8a1e2e68a8d7fff","h3_11":"8b1e2e68a8d1fff"},"geometry":{"type":"Polygon","coordinates":[[[20.069272,50.014237],[20.069338,50.01422],[20.069335,50.014209],[20.069431,50.014364],[20.06942,50.01435],[20.069387,50.014359],[20.069396,50.014372],[20.069349,50.014384],[20.069314,50.014327],[20.069326,50.014324],[20.069272,50.014237]]]}},{"type":"Feature","id":"w337488403","properties":{"type":"house","levels":1.0,"address":"Kokotów 37","residential":true,"residents_est":3,"h3_10":"8a1e2e68a8c7fff","h3_11":"8b1e2e68a8c3fff"},"geometry":{"type":"Polygon","coordinates":[[[20.070294,50.01499],[20.070313,50.0149],[20.070396,50.014908],[20.070383,50.014968],[20.070428,50.014972],[20.070422,50.015002],[20.070294,50.01499]]]}},{"type":"Feature","id":"w337488418","properties":{"type":"house","levels":2.0,"address":"Kokotów 324","residential":true,"residents_est":9,"h3_10":"8a1e2e68a8d7fff","h3_11":"8b1e2e68a8d5fff"},"geometry":{"type":"Polygon","coordinates":[[[20.069147,50.014722],[20.069176,50.014716],[20.069166,50.014697],[20.069286,50.014671],[20.069331,50.014757],[20.069196,50.014786],[20.069173,50.014744],[20.069159,50.014747],[20.069147,50.014722]]]}},{"type":"Feature","id":"w337488425","properties":{"type":"yes","address":"Kokotów 573","residential":true,"residents_est":4,"h3_10":"8a1e2e68a8d7fff","h3_11":"8b1e2e68a8d1fff"},"geometry":{"type":"Polygon","coordinates":[[[20.06906,50.014339],[20.069117,50.014325],[20.069102,50.014299],[20.069178,50.01428],[20.069229,50.014365],[20.069145,50.014386],[20.069161,50.014414],[20.069112,50.014426],[20.06906,50.014339]]]}},{"type":"Feature","id":"w337488450","properties":{"type":"house","levels":2.0,"address":"Kokotów 433","residential":true,"residents_est":10,"h3_10":"8a1e2e68a8c7fff","h3_11":"8b1e2e68a8c2fff"},"geometry":{"type":"Polygon","coordinates":[[[20.069806,50.01464],[20.069831,50.014618],[20.069817,50.014592],[20.069857,50.014583],[20.069863,50.014574],[20.069877,50.014578],[20.069917,50.014568],[20.069943,50.014613],[20.069937,50.014614],[20.069946,50.014631],[20.069952,50.014629],[20.069978,50.014673],[20.069938,50.014683],[20.069932,50.014692],[20.069918,50.014688],[20.069878,50.014697],[20.069863,50.014672],[20.069817,50.014664],[20.069807,50.014653],[20.069806,50.01464]]]}},{"type":"Feature","id":"w394746041","properties":{"type":"house","levels":2.0,"residential":true,"residents_est":9,"h3_10":"8a1e2e68a8d7fff","h3_11":"8b1e2e68a8d0fff"},"geometry":{"type":"Polygon","coordinates":[[[20.068373,50.014513],[20.068389,50.014509],[20.068377,50.014486],[20.068455,50.01447],[20.068467,50.014493],[20.068493,50.014487],[20.068531,50.014564],[20.068464,50.014578],[20.068476,50.014601],[20.068426,50.014612],[20.068373,50.014513]]]}},{"type":"Feature","id":"w394746427","properties":{"type":"house","levels":2.0,"address":"Kokotów 246","residential":true,"residents_est":6,"h3_10":"8a1e2e68a8d7fff","h3_11":"8b1e2e68a8d0fff"},"geometry":{"type":"Polygon","coordinates":[[[20.068574,50.014467],[20.068688,50.014442],[20.068727,50.014515],[20.068612,50.01454],[20.068574,50.014467]]]}},{"type":"Feature","id":"w394746782","properties":{"type":"yes","address":"Kokotów 35","residential":true,"residents_est":5,"h3_10":"8a1e2e68a8dffff","h3_11":"8b1e2e68a8dcfff"},"geometry":{"type":"Polygon","coordinates":[[[20.069934,50.014378],[20.069939,50.014294],[20.070088,50.014298],[20.070081,50.014393],[20.069985,50.014391],[20.069986,50.014379],[20.069934,50.014378]]]}},{"type":"Feature","id":"w394746862","properties":{"type":"commercial","levels":2.0,"address":"Kokotów 492","name":"Wypożyczalnia Sprzętu Eurosprzet.eu","residential":false,"residents_est":0,"h3_10":"8a1e2e68a8c7fff","h3_11":"8b1e2e68a8c3fff"},"geometry":{"type":"Polygon","coordinates":[[[20.070301,50.014532],[20.070336,50.014453],[20.070415,50.014467],[20.07051,50.01453],[20.07045,50.014567],[20.07039,50.014528],[20.070382,50.014547],[20.070301,50.014532]]]}},{"type":"Feature","id":"w394746893","properties":{"type":"house","levels":3.0,"address":"Kokotów 283","residential":true,"residents_est":16,"h3_10":"8a1e2e68a8d7fff","h3_11":"8b1e2e68a8d0fff"},"geometry":{"type":"Polygon","coordinates":[[[20.068793,50.014385],[20.06886,50.014368],[20.068879,50.014398],[20.06895,50.01438],[20.068997,50.014456],[20.068925,50.014474],[20.068934,50.014489],[20.068868,50.014506],[20.068793,50.014385]]]}},{"type":"Feature","id":"w612229060","properties":{"type":"garage","residential":false,"residents_est":0,"h3_10":"8a1e2e68a817fff","h3_11":"8b1e2e68a815fff"},"geometry":{"type":"Polygon","coordinates":[[[20.066756,50.0172],[20.066849,50.01717],[20.066882,50.01724],[20.066793,50.017258],[20.066756,50.0172]]]}},{"type":"Feature","id":"w612229726","properties":{"type":"garage","residential":false,"residents_est":0,"h3_10":"8a1e2e68a817fff","h3_11":"8b1e2e68a815fff"},"geometry":{"type":"Polygon","coordinates":[[[20.066385,50.017284],[20.066437,50.01727],[20.06646,50.017304],[20.066408,50.017316],[20.066385,50.017284]]]}},{"type":"Feature","id":"w707569120","properties":{"type":"yes","residential":true,"residents_est":4,"h3_10":"8a1e2e68a81ffff","h3_11":"8b1e2e68a81cfff"},"geometry":{"type":"Polygon","coordinates":[[[20.06763,50.016961],[20.06764,50.016867],[20.067707,50.016871],[20.06771,50.016848],[20.067788,50.016852],[20.067776,50.016951],[20.067651,50.016946],[20.067641,50.016948],[20.067639,50.016962],[20.06763,50.016961]]]}},{"type":"Feature","id":"w707569121","properties":{"type":"yes","residential":true,"residents_est":4,"h3_10":"8a1e2e68a81ffff","h3_11":"8b1e2e68a818fff"},"geometry":{"type":"Polygon","coordinates":[[[20.067724,50.016552],[20.067869,50.016537],[20.067889,50.016622],[20.067829,50.016627],[20.067834,50.016648],[20.067787,50.016652],[20.067784,50.016631],[20.067744,50.016634],[20.067724,50.016552]]]}},{"type":"Feature","id":"w707569122","properties":{"type":"yes","residential":false,"residents_est":0,"h3_10":"8a1e2e68a81ffff","h3_11":"8b1e2e68a818fff"},"geometry":{"type":"Polygon","coordinates":[[[20.067981,50.016512],[20.068064,50.016507],[20.06807,50.016545],[20.067986,50.01655],[20.067981,50.016512]]]}},{"type":"Feature","id":"w707569125","properties":{"type":"yes","residential":false,"residents_est":0,"h3_10":"8a1e2e68a81ffff","h3_11":"8b1e2e68a819fff"},"geometry":{"type":"Polygon","coordinates":[[[20.068607,50.016528],[20.068628,50.016526],[20.068645,50.01662],[20.068624,50.016622],[20.068607,50.016528]]]}},{"type":"Feature","id":"w715566028","properties":{"type":"yes","residential":true,"residents_est":2,"h3_10":"8a1e2e68a997fff","h3_11":"8b1e2e68a996fff"},"geometry":{"type":"Polygon","coordinates":[[[20.060319,50.016977],[20.060325,50.016904],[20.060428,50.016908],[20.060422,50.01698],[20.060319,50.016977]]]}},{"type":"Feature","id":"w715566029","properties":{"type":"yes","residential":true,"residents_est":2,"h3_10":"8a1e2e68a997fff","h3_11":"8b1e2e68a996fff"},"geometry":{"type":"Polygon","coordinates":[[[20.060145,50.017048],[20.060179,50.016969],[20.060239,50.01698],[20.060205,50.017059],[20.060145,50.017048]]]}},{"type":"Feature","id":"w715566030","properties":{"type":"yes","residential":true,"residents_est":4,"h3_10":"8a1e2e68a8a7fff","h3_11":"8b1e2e68a8a4fff"},"geometry":{"type":"Polygon","coordinates":[[[20.064653,50.016589],[20.064695,50.016589],[20.064695,50.016572],[20.064773,50.016571],[20.064774,50.016672],[20.064714,50.016672],[20.064713,50.016685],[20.064654,50.016685],[20.064653,50.016589]]]}},{"type":"Feature","id":"w715566031","properties":{"type":"yes","residential":false,"residents_est":0,"h3_10":"8a1e2e68a98ffff","h3_11":"8b1e2e68a98afff"},"geometry":{"type":"Polygon","coordinates":[[[20.064,50.016877],[20.064049,50.016836],[20.064079,50.016852],[20.064028,50.016892],[20.064,50.016877]]]}},{"type":"Feature","id":"w715566032","properties":{"type":"yes","residential":false,"residents_est":0,"h3_10":"8a1e2e68a99ffff","h3_11":"8b1e2e68a99dfff"},"geometry":{"type":"Polygon","coordinates":[[[20.063127,50.016946],[20.063131,50.01688],[20.063183,50.016881],[20.06318,50.016948],[20.063127,50.016946]]]}},{"type":"Feature","id":"w715566033","properties":{"type":"yes","residential":false,"residents_est":0,"h3_10":"8a1e2e68a98ffff","h3_11":"8b1e2e68a98efff"},"geometry":{"type":"Polygon","coordinates":[[[20.063904,50.017266],[20.063904,50.017176],[20.063956,50.017176],[20.063958,50.017266],[20.063904,50.017266]]]}},{"type":"Feature","id":"w715566034","properties":{"type":"yes","residential":false,"residents_est":0,"h3_10":"8a1e2e68a98ffff","h3_11":"8b1e2e68a98efff"},"geometry":{"type":"Polygon","coordinates":[[[20.063652,50.017286],[20.0637,50.017285],[20.063704,50.017328],[20.063655,50.017329],[20.063652,50.017286]]]}},{"type":"Feature","id":"w715566035","properties":{"type":"yes","residential":true,"residents_est":7,"h3_10":"8a1e2e68a987fff","h3_11":"8b1e2e68a983fff"},"geometry":{"type":"Polygon","coordinates":[[[20.062695,50.01727],[20.062707,50.017178],[20.062907,50.017187],[20.062897,50.017279],[20.062808,50.017275],[20.062806,50.017291],[20.062754,50.017289],[20.062756,50.017273],[20.062695,50.01727]]]}},{"type":"Feature","id":"w715566036","properties":{"type":"yes","residential":true,"residents_est":3,"h3_10":"8a1e2e68a987fff","h3_11":"8b1e2e68a983fff"},"geometry":{"type":"Polygon","coordinates":[[[20.063115,50.017192],[20.063118,50.017112],[20.063218,50.017114],[20.063215,50.017194],[20.063115,50.017192]]]}},{"type":"Feature","id":"w715566060","properties":{"type":"yes","residential":false,"residents_est":0,"h3_10":"8a1e2e68a81ffff","h3_11":"8b1e2e68a81efff"},"geometry":{"type":"Polygon","coordinates":[[[20.066985,50.016516],[20.067031,50.016509],[20.067046,50.016552],[20.066999,50.01656],[20.066985,50.016516]]]}},{"type":"Feature","id":"w715566063","properties":{"type":"yes","residential":false,"residents_est":0,"h3_10":"8a1e2e68a817fff","h3_11":"8b1e2e68a815fff"},"geometry":{"type":"Polygon","coordinates":[[[20.066453,50.017082],[20.066493,50.017074],[20.066516,50.017122],[20.066472,50.017129],[20.066453,50.017082]]]}},{"type":"Feature","id":"w715566064","properties":{"type":"yes","residential":true,"residents_est":3,"h3_10":"8a1e2e68a8a7fff","h3_11":"8b1e2e68a8a1fff"},"geometry":{"type":"Polygon","coordinates":[[[20.065544,50.016307],[20.065672,50.01629],[20.06569,50.016349],[20.065563,50.016366],[20.065544,50.016307]]]}},{"type":"Feature","id":"w715566065","properties":{"type":"yes","residential":true,"residents_est":2,"h3_10":"8a1e2e68a8a7fff","h3_11":"8b1e2e68a8a1fff"},"geometry":{"type":"Polygon","coordinates":[[[20.065563,50.016366],[20.06569,50.016349],[20.065709,50.016407],[20.065582,50.016424],[20.065563,50.016366]]]}},{"type":"Feature","id":"w715566066","properties":{"type":"yes","residential":true,"residents_est":6,"h3_10":"8a1e2e68a817fff","h3_11":"8b1e2e68a816fff"},"geometry":{"type":"Polygon","coordinates":[[[20.065295,50.016794],[20.065353,50.016787],[20.065365,50.016777],[20.06539,50.016774],[20.065406,50.016781],[20.065463,50.016774],[20.065484,50.016832],[20.06551,50.016828],[20.065519,50.016859],[20.06532,50.016882],[20.065295,50.016794]]]}},{"type":"Feature","id":"w715566067","properties":{"type":"yes","residential":false,"residents_est":0,"h3_10":"8a1e2e68a8a7fff","h3_11":"8b1e2e68a8a5fff"},"geometry":{"type":"Polygon","coordinates":[[[20.065358,50.016645],[20.065443,50.016635],[20.065453,50.016671],[20.065368,50.016681],[20.065358,50.016645]]]}},{"type":"Feature","id":"w715566068","properties":{"type":"yes","residential":true,"residents_est":4,"h3_10":"8a1e2e68a817fff","h3_11":"8b1e2e68a812fff"},"geometry":{"type":"Polygon","coordinates":[[[20.065713,50.016644],[20.06583,50.016629],[20.065864,50.016735],[20.065746,50.016751],[20.065713,50.016644]]]}},{"type":"Feature","id":"w1323105224","properties":{"type":"roof","residential":false,"residents_est":0,"h3_10":"8a1e2e68a967fff","h3_11":"8b1e2e68a964fff"},"geometry":{"type":"Polygon","coordinates":[[[20.069755,50.021818],[20.069833,50.02172],[20.069867,50.021731],[20.069789,50.021829],[20.069755,50.021818]]]}},{"type":"Feature","id":"w1349989444","properties":{"type":"outbuilding","levels":1.0,"residential":false,"residents_est":0,"h3_10":"8a1e2e68a8dffff","h3_11":"8b1e2e68a8d8fff"},"geometry":{"type":"Polygon","coordinates":[[[20.070121,50.01411],[20.070127,50.014071],[20.070208,50.014076],[20.070201,50.014115],[20.070121,50.01411]]]}},{"type":"Feature","id":"w1349989516","properties":{"type":"yes","residential":false,"residents_est":0,"h3_10":"8a1e2e68a8dffff","h3_11":"8b1e2e68a8dcfff"},"geometry":{"type":"Polygon","coordinates":[[[20.070171,50.014459],[20.070186,50.014427],[20.070282,50.014446],[20.070268,50.014477],[20.070171,50.014459]]]}},{"type":"Feature","id":"w1349989517","properties":{"type":"yes","residential":false,"residents_est":0,"h3_10":"8a1e2e68a8dffff","h3_11":"8b1e2e68a8d8fff"},"geometry":{"type":"Polygon","coordinates":[[[20.070295,50.014186],[20.070296,50.014149],[20.070369,50.014149],[20.070369,50.014186],[20.070295,50.014186]]]}},{"type":"Feature","id":"w1349989528","properties":{"type":"yes","residential":false,"residents_est":0,"h3_10":"8a1e2e68a8d7fff","h3_11":"8b1e2e68a8d0fff"},"geometry":{"type":"Polygon","coordinates":[[[20.068401,50.014251],[20.068459,50.014235],[20.068484,50.014271],[20.068427,50.014286],[20.068401,50.014251]]]}},{"type":"Feature","id":"w1349989529","properties":{"type":"yes","residential":false,"residents_est":0,"h3_10":"8a1e2e68a8d7fff","h3_11":"8b1e2e68a8d0fff"},"geometry":{"type":"Polygon","coordinates":[[[20.068673,50.014194],[20.068724,50.014183],[20.068755,50.014241],[20.068704,50.014252],[20.068673,50.014194]]]}},{"type":"Feature","id":"w1349989530","properties":{"type":"house","levels":2.0,"residential":true,"residents_est":8,"h3_10":"8a1e2e68a8d7fff","h3_11":"8b1e2e68a8d1fff"},"geometry":{"type":"Polygon","coordinates":[[[20.069335,50.014209],[20.069344,50.014217],[20.069411,50.0142],[20.069465,50.014289],[20.069476,50.014285],[20.069511,50.014342],[20.069466,50.014354],[20.069457,50.014341],[20.069425,50.014349],[20.069431,50.014364],[20.069335,50.014209]]]}},{"type":"Feature","id":"w1349989535","properties":{"type":"yes","residential":false,"residents_est":0,"h3_10":"8a1e2e68a8dffff","h3_11":"8b1e2e68a8dafff"},"geometry":{"type":"Polygon","coordinates":[[[20.069657,50.013617],[20.069721,50.013615],[20.069726,50.013667],[20.069662,50.01367],[20.069657,50.013617]]]}},{"type":"Feature","id":"w1392647449","properties":{"type":"roof","residential":false,"residents_est":0,"h3_10":"8a1e2e68a877fff","h3_11":"8b1e2e68a873fff"},"geometry":{"type":"Polygon","coordinates":[[[20.0711,50.017817],[20.071101,50.017793],[20.071292,50.017797],[20.07129,50.017821],[20.0711,50.017817]]]}},{"type":"Feature","id":"w1392647462","properties":{"type":"roof","residential":false,"residents_est":0,"h3_10":"8a1e2e68a877fff","h3_11":"8b1e2e68a873fff"},"geometry":{"type":"Polygon","coordinates":[[[20.071068,50.017929],[20.071069,50.017906],[20.071269,50.017911],[20.071268,50.017934],[20.071068,50.017929]]]}}]}