{"type":"FeatureCollection","features":[{"type":"Feature","id":"w214451266","properties":{"type":"yes","residential":true,"residents_est":2,"h3_10":"8a1e2e61a927fff","h3_11":"8b1e2e61a925fff"},"geometry":{"type":"Polygon","coordinates":[[[20.119143,50.111708],[20.119176,50.111636],[20.119324,50.111665],[20.119288,50.111737],[20.119143,50.111708]]]}},{"type":"Feature","id":"w214451311","properties":{"type":"yes","address":"Jana Stanisława Bystronia 25","residential":true,"residents_est":5,"h3_10":"8a1e2e61a937fff","h3_11":"8b1e2e61a936fff"},"geometry":{"type":"Polygon","coordinates":[[[20.116484,50.11063],[20.116551,50.11053],[20.116634,50.110552],[20.116622,50.11057],[20.116658,50.11058],[20.116663,50.110573],[20.116732,50.110591],[20.116674,50.11068],[20.116646,50.110673],[20.11662,50.110712],[20.116545,50.110691],[20.116571,50.110653],[20.116484,50.11063]]]}},{"type":"Feature","id":"w214451328","properties":{"type":"yes","residential":true,"residents_est":3,"h3_10":"8a1e2e61a937fff","h3_11":"8b1e2e61a932fff"},"geometry":{"type":"Polygon","coordinates":[[[20.116916,50.110354],[20.116969,50.110225],[20.117054,50.110239],[20.117001,50.110368],[20.116916,50.110354]]]}},{"type":"Feature","id":"w214451353","properties":{"type":"yes","address":"Jana Stanisława Bystronia 33","residential":true,"residents_est":5,"h3_10":"8a1e2e61a937fff","h3_11":"8b1e2e61a935fff"},"geometry":{"type":"Polygon","coordinates":[[[20.117912,50.111086],[20.117987,50.110989],[20.118164,50.111046],[20.118096,50.111135],[20.118038,50.111116],[20.118028,50.11113],[20.117912,50.111086]]]}},{"type":"Feature","id":"w214451368","properties":{"type":"yes","address":"Piotra Michałowskiego 2","residential":true,"residents_est":3,"h3_10":"8a1e2e61a92ffff","h3_11":"8b1e2e61a92dfff"},"geometry":{"type":"Polygon","coordinates":[[[20.12086,50.111522],[20.120868,50.111412],[20.120994,50.111416],[20.120985,50.111526],[20.12086,50.111522]]]}},{"type":"Feature","id":"w214451371","properties":{"type":"yes","address":"Jana Stanisława Bystronia 39","residential":true,"residents_est":2,"h3_10":"8a1e2e61a927fff","h3_11":"8b1e2e61a920fff"},"geometry":{"type":"Polygon","coordinates":[[[20.119062,50.111442],[20.119109,50.111356],[20.119215,50.11138],[20.119168,50.111466],[20.119062,50.111442]]]}},{"type":"Feature","id":"w214451410","properties":{"type":"yes","residential":true,"residents_est":3,"h3_10":"8a1e2e61a927fff","h3_11":"8b1e2e61a926fff"},"geometry":{"type":"Polygon","coordinates":[[[20.118124,50.111485],[20.118176,50.111407],[20.118344,50.111453],[20.118293,50.111531],[20.118124,50.111485]]]}},{"type":"Feature","id":"w214451414","properties":{"type":"yes","address":"Jana Stanisława Bystronia 41","residential":true,"residents_est":3,"h3_10":"8a1e2e61a927fff","h3_11":"8b1e2e61a921fff"},"geometry":{"type":"Polygon","coordinates":[[[20.119315,50.111488],[20.119361,50.111403],[20.119499,50.111434],[20.119453,50.111519],[20.119315,50.111488]]]}},{"type":"Feature","id":"w214451427","properties":{"type":"yes","residential":true,"residents_est":1,"h3_10":"8a1e2e61a937fff","h3_11":"8b1e2e61a931fff"},"geometry":{"type":"Polygon","coordinates":[[[20.118195,50.110596],[20.11821,50.110506],[20.118279,50.11051],[20.118264,50.110601],[20.118195,50.110596]]]}},{"type":"Feature","id":"w214451442","properties":{"type":"yes","address":"Jana Stanisława Bystronia 35","residential":true,"residents_est":3,"h3_10":"8a1e2e61a927fff","h3_11":"8b1e2e61a926fff"},"geometry":{"type":"Polygon","coordinates":[[[20.118351,50.111179],[20.1184,50.111103],[20.118535,50.111138],[20.118487,50.111215],[20.118441,50.111203],[20.11843,50.111221],[20.118389,50.11121],[20.1184,50.111192],[20.118351,50.111179]]]}},{"type":"Feature","id":"w214451456","properties":{"type":"house","levels":2.0,"address":"Jana Stanisława Bystronia 40","residential":true,"residents_est":6,"h3_10":"8a1e2e61a92ffff","h3_11":"8b1e2e61a92efff"},"geometry":{"type":"Polygon","coordinates":[[[20.119864,50.111214],[20.11987,50.111118],[20.120014,50.111122],[20.120007,50.111218],[20.119864,50.111214]]]}},{"type":"Feature","id":"w214451461","properties":{"type":"yes","address":"Jana Stanisława Bystronia 38","residential":true,"residents_est":2,"h3_10":"8a1e2e61a927fff","h3_11":"8b1e2e61a923fff"},"geometry":{"type":"Polygon","coordinates":[[[20.119504,50.111145],[20.119532,50.111085],[20.119665,50.111111],[20.119636,50.111171],[20.119504,50.111145]]]}},{"type":"Feature","id":"w214451511","properties":{"type":"yes","address":"Jana Stanisława Bystronia 31","residential":true,"residents_est":3,"h3_10":"8a1e2e61a937fff","h3_11":"8b1e2e61a935fff"},"geometry":{"type":"Polygon","coordinates":[[[20.1175,50.110957],[20.117571,50.110869],[20.117706,50.110914],[20.117648,50.110986],[20.11759,50.110967],[20.117577,50.110983],[20.1175,50.110957]]]}},{"type":"Feature","id":"w214451528","properties":{"type":"yes","address":"Jana Stanisława Bystronia 36","residential":true,"residents_est":2,"h3_10":"8a1e2e61a927fff","h3_11":"8b1e2e61a923fff"},"geometry":{"type":"Polygon","coordinates":[[[20.119302,50.111064],[20.119303,50.110976],[20.119422,50.110977],[20.119421,50.111064],[20.119302,50.111064]]]}},{"type":"Feature","id":"w214451536","properties":{"type":"yes","residential":true,"residents_est":3,"h3_10":"8a1e2e61a927fff","h3_11":"8b1e2e61a923fff"},"geometry":{"type":"Polygon","coordinates":[[[20.119224,50.110893],[20.119228,50.110794],[20.119377,50.110796],[20.119373,50.110894],[20.119312,50.110893],[20.119313,50.110872],[20.119269,50.110871],[20.119268,50.110894],[20.119224,50.110893]]]}},{"type":"Feature","id":"w214451545","properties":{"type":"yes","address":"Jana Stanisława Bystronia 30","residential":true,"residents_est":2,"h3_10":"8a1e2e61a937fff","h3_11":"8b1e2e61a931fff"},"geometry":{"type":"Polygon","coordinates":[[[20.118242,50.110717],[20.118264,50.110641],[20.118381,50.110655],[20.118358,50.110732],[20.118242,50.110717]]]}},{"type":"Feature","id":"w214451562","properties":{"type":"yes","residential":true,"residents_est":4,"h3_10":"8a1e2e61a937fff","h3_11":"8b1e2e61a934fff"},"geometry":{"type":"Polygon","coordinates":[[[20.116821,50.111013],[20.116876,50.110937],[20.117055,50.110994],[20.116999,50.111069],[20.116821,50.111013]]]}},{"type":"Feature","id":"w214451584","properties":{"type":"yes","address":"Jana Stanisława Bystronia 27","residential":true,"residents_est":3,"h3_10":"8a1e2e61a937fff","h3_11":"8b1e2e61a936fff"},"geometry":{"type":"Polygon","coordinates":[[[20.116892,50.110748],[20.116937,50.11068],[20.117,50.110698],[20.117007,50.110687],[20.11706,50.110702],[20.117007,50.11078],[20.116968,50.11077],[20.116956,50.110787],[20.116909,50.110774],[20.116921,50.110756],[20.116892,50.110748]]]}},{"type":"Feature","id":"w214451590","properties":{"type":"yes","address":"Jana Stanisława Bystronia 37","residential":true,"residents_est":5,"h3_10":"8a1e2e61a927fff","h3_11":"8b1e2e61a920fff"},"geometry":{"type":"Polygon","coordinates":[[[20.118613,50.1114],[20.118674,50.111302],[20.118855,50.111349],[20.118829,50.11139],[20.118848,50.111395],[20.118812,50.111452],[20.118613,50.1114]]]}},{"type":"Feature","id":"w214451610","properties":{"type":"yes","residential":true,"residents_est":4,"h3_10":"8a1e2e61a907fff","h3_11":"8b1e2e61a904fff"},"geometry":{"type":"Polygon","coordinates":[[[20.119024,50.110662],[20.119073,50.110661],[20.119073,50.110598],[20.119134,50.110598],[20.119136,50.110773],[20.119027,50.110772],[20.119024,50.110662]]]}},{"type":"Feature","id":"w214451680","properties":{"type":"yes","address":"Jana Stanisława Bystronia 26","residential":true,"residents_est":2,"h3_10":"8a1e2e61a937fff","h3_11":"8b1e2e61a932fff"},"geometry":{"type":"Polygon","coordinates":[[[20.117192,50.110387],[20.11723,50.110303],[20.117291,50.110315],[20.117282,50.110335],[20.117336,50.110345],[20.117303,50.110416],[20.117192,50.110387]]]}},{"type":"Feature","id":"w214451682","properties":{"type":"yes","address":"Jana Stanisława Bystronia 34","residential":true,"residents_est":3,"h3_10":"8a1e2e61a927fff","h3_11":"8b1e2e61a923fff"},"geometry":{"type":"Polygon","coordinates":[[[20.118928,50.11096],[20.118935,50.110868],[20.119063,50.110871],[20.119057,50.110964],[20.118928,50.11096]]]}},{"type":"Feature","id":"w214451738","properties":{"type":"yes","address":"Jana Stanisława Bystronia 30a","residential":true,"residents_est":4,"h3_10":"8a1e2e61a937fff","h3_11":"8b1e2e61a930fff"},"geometry":{"type":"Polygon","coordinates":[[[20.117659,50.110544],[20.117724,50.110406],[20.117772,50.110415],[20.11779,50.110409],[20.117816,50.110414],[20.117826,50.110425],[20.117871,50.110433],[20.117832,50.110518],[20.117763,50.110505],[20.117739,50.110559],[20.117659,50.110544]]]}},{"type":"Feature","id":"w214451754","properties":{"type":"yes","address":"Lasowisko 11i","residential":true,"residents_est":3,"h3_10":"8a1e2e61a8b7fff","h3_11":"8b1e2e61a8b6fff"},"geometry":{"type":"Polygon","coordinates":[[[20.116293,50.105452],[20.116381,50.105427],[20.116416,50.105476],[20.116432,50.105472],[20.116469,50.105524],[20.116394,50.105546],[20.116406,50.105563],[20.116363,50.105576],[20.116313,50.105507],[20.116328,50.105502],[20.116293,50.105452]]]}},{"type":"Feature","id":"w214451792","properties":{"type":"yes","residential":true,"residents_est":2,"h3_10":"8a1e2e61a927fff","h3_11":"8b1e2e61a925fff"},"geometry":{"type":"Polygon","coordinates":[[[20.118952,50.111652],[20.118988,50.111581],[20.119103,50.111605],[20.119067,50.111676],[20.118952,50.111652]]]}},{"type":"Feature","id":"w214451797","properties":{"type":"yes","address":"Jana Stanisława Bystronia 32","residential":true,"residents_est":5,"h3_10":"8a1e2e61a937fff","h3_11":"8b1e2e61a931fff"},"geometry":{"type":"Polygon","coordinates":[[[20.118456,50.110791],[20.118463,50.110674],[20.118541,50.110676],[20.118538,50.110714],[20.118559,50.110715],[20.11856,50.110689],[20.118634,50.110691],[20.118626,50.110822],[20.118553,50.11082],[20.118554,50.110793],[20.118456,50.110791]]]}},{"type":"Feature","id":"w214451800","properties":{"type":"yes","residential":true,"residents_est":3,"h3_10":"8a1e2e61a8b7fff","h3_11":"8b1e2e61a8b6fff"},"geometry":{"type":"Polygon","coordinates":[[[20.116515,50.105397],[20.11654,50.10539],[20.116536,50.105384],[20.116587,50.105369],[20.116591,50.105375],[20.116613,50.105368],[20.116708,50.105503],[20.11666,50.105516],[20.116625,50.105466],[20.116575,50.105481],[20.116515,50.105397]]]}},{"type":"Feature","id":"w214451807","properties":{"type":"yes","residential":true,"residents_est":4,"h3_10":"8a1e2e61a937fff","h3_11":"8b1e2e61a930fff"},"geometry":{"type":"Polygon","coordinates":[[[20.117382,50.110447],[20.117431,50.110354],[20.117615,50.110394],[20.117567,50.110487],[20.117514,50.110475],[20.117506,50.110491],[20.117432,50.110475],[20.117439,50.11046],[20.117382,50.110447]]]}},{"type":"Feature","id":"w337950104","properties":{"type":"yes","residential":true,"residents_est":3,"h3_10":"8a1e2e61a8f7fff","h3_11":"8b1e2e61a8f3fff"},"geometry":{"type":"Polygon","coordinates":[[[20.122643,50.104959],[20.122725,50.104893],[20.122839,50.104942],[20.122766,50.105012],[20.12271,50.104987],[20.122693,50.105004],[20.122656,50.104987],[20.122673,50.104971],[20.122643,50.104959]]]}},{"type":"Feature","id":"w337950124","properties":{"type":"yes","residential":true,"residents_est":4,"h3_10":"8a1e2e61a8f7fff","h3_11":"8b1e2e61a8f6fff"},"geometry":{"type":"Polygon","coordinates":[[[20.121312,50.105486],[20.121321,50.105397],[20.121483,50.105409],[20.121477,50.105465],[20.121485,50.105466],[20.12148,50.105515],[20.121341,50.10551],[20.121343,50.105488],[20.121312,50.105486]]]}},{"type":"Feature","id":"w337950145","properties":{"type":"yes","address":"Glinik 166","residential":true,"residents_est":5,"h3_10":"8a1e2e61a90ffff","h3_11":"8b1e2e61a90cfff"},"geometry":{"type":"Polygon","coordinates":[[[20.120906,50.110353],[20.120907,50.110293],[20.120947,50.110294],[20.120949,50.110215],[20.121076,50.110216],[20.121075,50.11027],[20.121091,50.11027],[20.12109,50.110302],[20.121078,50.110301],[20.121077,50.110355],[20.120906,50.110353]]]}},{"type":"Feature","id":"w337950161","properties":{"type":"yes","address":"Glinik 154","residential":true,"residents_est":4,"h3_10":"8a1e2e61a827fff","h3_11":"8b1e2e61a826fff"},"geometry":{"type":"Polygon","coordinates":[[[20.120956,50.108734],[20.120958,50.108656],[20.121124,50.108653],[20.12112,50.108735],[20.121105,50.108735],[20.121104,50.108769],[20.120983,50.108768],[20.120983,50.108735],[20.120956,50.108734]]]}},{"type":"Feature","id":"w337950165","properties":{"type":"yes","residential":true,"residents_est":14,"h3_10":"8a1e2e61a837fff","h3_11":"8b1e2e61a835fff"},"geometry":{"type":"Polygon","coordinates":[[[20.119786,50.108394],[20.119903,50.108394],[20.119903,50.108374],[20.120057,50.108374],[20.120057,50.108393],[20.120273,50.108393],[20.120273,50.108478],[20.120201,50.108478],[20.1202,50.10845],[20.119786,50.10845],[20.119786,50.108394]]]}},{"type":"Feature","id":"w337950176","properties":{"type":"yes","address":"Glinik 138","residential":true,"residents_est":3,"h3_10":"8a1e2e61a807fff","h3_11":"8b1e2e61a805fff"},"geometry":{"type":"Polygon","coordinates":[[[20.121894,50.108],[20.121926,50.107904],[20.121989,50.107913],[20.121985,50.107925],[20.122048,50.107933],[20.122035,50.107971],[20.12209,50.107979],[20.12207,50.108048],[20.122012,50.10804],[20.12202,50.108017],[20.121894,50.108]]]}},{"type":"Feature","id":"w337950187","properties":{"type":"yes","residential":true,"residents_est":3,"h3_10":"8a1e2e61a8c7fff","h3_11":"8b1e2e61a8c6fff"},"geometry":{"type":"Polygon","coordinates":[[[20.123224,50.104971],[20.123286,50.104917],[20.123382,50.104956],[20.123378,50.10496],[20.123461,50.104999],[20.123403,50.10505],[20.123359,50.105029],[20.123354,50.105033],[20.123224,50.104971]]]}},{"type":"Feature","id":"w337950225","properties":{"type":"yes","residential":true,"residents_est":3,"h3_10":"8a1e2e61a81ffff","h3_11":"8b1e2e61a81cfff"},"geometry":{"type":"Polygon","coordinates":[[[20.1218,50.106976],[20.121869,50.106909],[20.121913,50.106928],[20.121942,50.106926],[20.12195,50.106944],[20.121994,50.106963],[20.121953,50.107013],[20.121946,50.10701],[20.121924,50.10703],[20.1218,50.106976]]]}},{"type":"Feature","id":"w337950226","properties":{"type":"yes","residential":true,"residents_est":3,"h3_10":"8a1e2e61a8f7fff","h3_11":"8b1e2e61a8f4fff"},"geometry":{"type":"Polygon","coordinates":[[[20.122291,50.105745],[20.12235,50.10569],[20.122403,50.105713],[20.122415,50.105702],[20.122491,50.105735],[20.122412,50.10581],[20.122363,50.105788],[20.122371,50.10578],[20.122291,50.105745]]]}},{"type":"Feature","id":"w337950227","properties":{"type":"yes","residential":true,"residents_est":4,"h3_10":"8a1e2e61a81ffff","h3_11":"8b1e2e61a81bfff"},"geometry":{"type":"Polygon","coordinates":[[[20.122232,50.106318],[20.122326,50.10623],[20.122297,50.106217],[20.122343,50.106172],[20.122459,50.106222],[20.122317,50.106355],[20.122232,50.106318]]]}},{"type":"Feature","id":"w337950233","properties":{"type":"yes","address":"Glinik 162","residential":true,"residents_est":3,"h3_10":"8a1e2e61a90ffff","h3_11":"8b1e2e61a908fff"},"geometry":{"type":"Polygon","coordinates":[[[20.120915,50.109806],[20.120916,50.109704],[20.120967,50.109704],[20.120982,50.109695],[20.121007,50.109695],[20.121024,50.109705],[20.121024,50.10973],[20.121049,50.10973],[20.121049,50.109777],[20.121011,50.109777],[20.12101,50.109807],[20.120915,50.109806]]]}},{"type":"Feature","id":"w337950246","properties":{"type":"yes","residential":true,"residents_est":3,"h3_10":"8a1e2e61a907fff","h3_11":"8b1e2e61a901fff"},"geometry":{"type":"Polygon","coordinates":[[[20.120003,50.110255],[20.120007,50.110215],[20.120012,50.110215],[20.120018,50.110183],[20.120076,50.110188],[20.120079,50.110179],[20.12014,50.110185],[20.120138,50.110194],[20.120189,50.110198],[20.120174,50.11027],[20.120123,50.110265],[20.120121,50.110274],[20.120059,50.110269],[20.120061,50.11026],[20.120003,50.110255]]]}},{"type":"Feature","id":"w337950251","properties":{"type":"yes","residential":true,"residents_est":3,"h3_10":"8a1e2e61a8d7fff","h3_11":"8b1e2e61a8d3fff"},"geometry":{"type":"Polygon","coordinates":[[[20.122975,50.10402],[20.122986,50.104012],[20.122979,50.103978],[20.122994,50.103965],[20.123014,50.103963],[20.123039,50.103943],[20.123173,50.104007],[20.123093,50.104076],[20.123047,50.104054],[20.123045,50.104045],[20.123018,50.104032],[20.123003,50.104033],[20.122975,50.10402]]]}},{"type":"Feature","id":"w337950268","properties":{"type":"yes","residential":true,"residents_est":3,"h3_10":"8a1e2e61a81ffff","h3_11":"8b1e2e61a81bfff"},"geometry":{"type":"Polygon","coordinates":[[[20.122597,50.106103],[20.122655,50.106047],[20.122798,50.106102],[20.122731,50.106167],[20.122698,50.106153],[20.122682,50.106168],[20.122653,50.106156],[20.122669,50.10614],[20.122633,50.106126],[20.122639,50.106121],[20.122597,50.106103]]]}},{"type":"Feature","id":"w337950301","properties":{"type":"yes","address":"Glinik 161","residential":true,"residents_est":5,"h3_10":"8a1e2e61a91ffff","h3_11":"8b1e2e61a919fff"},"geometry":{"type":"Polygon","coordinates":[[[20.119995,50.109052],[20.120027,50.109032],[20.120071,50.109032],[20.120094,50.109046],[20.120197,50.109047],[20.120196,50.109114],[20.120145,50.109114],[20.120121,50.10913],[20.120121,50.109176],[20.120016,50.109176],[20.120015,50.109094],[20.119996,50.109081],[20.119995,50.109052]]]}},{"type":"Feature","id":"w337950337","properties":{"type":"yes","residential":true,"residents_est":3,"h3_10":"8a1e2e61a817fff","h3_11":"8b1e2e61a815fff"},"geometry":{"type":"Polygon","coordinates":[[[20.120579,50.107503],[20.120582,50.10745],[20.12062,50.107451],[20.120621,50.107427],[20.120636,50.107417],[20.12066,50.107418],[20.120678,50.107428],[20.120725,50.10743],[20.12072,50.107506],[20.120709,50.107506],[20.120705,50.107561],[20.12062,50.107559],[20.120623,50.107503],[20.120579,50.107503]]]}},{"type":"Feature","id":"w337950350","properties":{"type":"yes","residential":true,"residents_est":4,"h3_10":"8a1e2e61a817fff","h3_11":"8b1e2e61a815fff"},"geometry":{"type":"Polygon","coordinates":[[[20.120862,50.107223],[20.12087,50.107131],[20.12089,50.107131],[20.120906,50.107123],[20.120928,50.107124],[20.120943,50.107133],[20.121,50.107135],[20.120996,50.107186],[20.121009,50.107187],[20.121006,50.107228],[20.120992,50.107227],[20.120989,50.10727],[20.120887,50.107267],[20.12089,50.107224],[20.120862,50.107223]]]}},{"type":"Feature","id":"w337950355","properties":{"type":"yes","residential":true,"residents_est":4,"h3_10":"8a1e2e61a8affff","h3_11":"8b1e2e61a8a9fff"},"geometry":{"type":"Polygon","coordinates":[[[20.121136,50.105831],[20.121142,50.105777],[20.121227,50.105781],[20.121231,50.105749],[20.121344,50.105754],[20.12134,50.105793],[20.121326,50.105793],[20.121317,50.10588],[20.121255,50.105877],[20.121246,50.105886],[20.121215,50.105884],[20.121207,50.105875],[20.121148,50.105872],[20.121153,50.105832],[20.121136,50.105831]]]}},{"type":"Feature","id":"w337950356","properties":{"type":"yes","address":"Glinik 132","residential":true,"residents_est":3,"h3_10":"8a1e2e61a807fff","h3_11":"8b1e2e61a800fff"},"geometry":{"type":"Polygon","coordinates":[[[20.121299,50.107688],[20.121327,50.107615],[20.121405,50.107627],[20.121408,50.107622],[20.121465,50.107631],[20.121469,50.107621],[20.121526,50.10763],[20.121502,50.107694],[20.121445,50.107685],[20.121434,50.10771],[20.121379,50.107702],[20.121374,50.107715],[20.12134,50.10771],[20.121346,50.107696],[20.121299,50.107688]]]}},{"type":"Feature","id":"w337950363","properties":{"type":"yes","residential":true,"residents_est":3,"h3_10":"8a1e2e61a81ffff","h3_11":"8b1e2e61a81afff"},"geometry":{"type":"Polygon","coordinates":[[[20.121977,50.106178],[20.122047,50.106109],[20.122167,50.10616],[20.122078,50.106246],[20.122001,50.106212],[20.122019,50.106196],[20.121977,50.106178]]]}},{"type":"Feature","id":"w337950365","properties":{"type":"yes","address":"Glinik 150","residential":true,"residents_est":3,"h3_10":"8a1e2e61a827fff","h3_11":"8b1e2e61a822fff"},"geometry":{"type":"Polygon","coordinates":[[[20.121051,50.108356],[20.121082,50.108283],[20.12113,50.108291],[20.121149,50.108284],[20.121173,50.108288],[20.121184,50.1083],[20.121175,50.108323],[20.121212,50.108329],[20.121191,50.10838],[20.121171,50.108376],[20.121155,50.108411],[20.121057,50.108395],[20.121072,50.10836],[20.121051,50.108356]]]}},{"type":"Feature","id":"w337950384","properties":{"type":"yes","address":"Glinik 157","residential":true,"residents_est":4,"h3_10":"8a1e2e61a837fff","h3_11":"8b1e2e61a835fff"},"geometry":{"type":"Polygon","coordinates":[[[20.120228,50.108568],[20.120229,50.10853],[20.120449,50.108535],[20.120446,50.108571],[20.120394,50.10857],[20.120379,50.108575],[20.120378,50.108595],[20.120392,50.108596],[20.120385,50.108601],[20.120383,50.108635],[20.120345,50.108635],[20.120329,50.108645],[20.12031,50.108645],[20.120297,50.108633],[20.120258,50.108632],[20.12026,50.10857],[20.120228,50.108568]]]}},{"type":"Feature","id":"w337950477","properties":{"type":"yes","address":"Glinik 141","residential":true,"residents_est":2,"h3_10":"8a1e2e61a807fff","h3_11":"8b1e2e61a806fff"},"geometry":{"type":"Polygon","coordinates":[[[20.120634,50.107788],[20.120639,50.107717],[20.120782,50.107721],[20.120777,50.107794],[20.120634,50.107788]]]}},{"type":"Feature","id":"w337950486","properties":{"type":"yes","residential":true,"residents_est":2,"h3_10":"8a1e2e61a8f7fff","h3_11":"8b1e2e61a8f4fff"},"geometry":{"type":"Polygon","coordinates":[[[20.122212,50.105971],[20.122302,50.105889],[20.122401,50.105934],[20.122312,50.106016],[20.122212,50.105971]]]}},{"type":"Feature","id":"w337950566","properties":{"type":"yes","residential":true,"residents_est":2,"h3_10":"8a1e2e61a88ffff","h3_11":"8b1e2e61a88dfff"},"geometry":{"type":"Polygon","coordinates":[[[20.121296,50.105205],[20.121303,50.105106],[20.121403,50.105108],[20.121401,50.105149],[20.121434,50.10515],[20.121432,50.105182],[20.121399,50.105181],[20.121398,50.105208],[20.121296,50.105205]]]}},{"type":"Feature","id":"w337950859","properties":{"type":"yes","residential":true,"residents_est":3,"h3_10":"8a1e2e61a817fff","h3_11":"8b1e2e61a811fff"},"geometry":{"type":"Polygon","coordinates":[[[20.120732,50.106924],[20.120741,50.106834],[20.120881,50.10684],[20.120871,50.106929],[20.120732,50.106924]]]}},{"type":"Feature","id":"w337950874","properties":{"type":"yes","address":"Glinik 145","residential":true,"residents_est":3,"h3_10":"8a1e2e61a837fff","h3_11":"8b1e2e61a830fff"},"geometry":{"type":"Polygon","coordinates":[[[20.120152,50.107986],[20.120155,50.107927],[20.120372,50.107931],[20.120369,50.10799],[20.120152,50.107986]]]}},{"type":"Feature","id":"w337950882","properties":{"type":"yes","residential":true,"residents_est":3,"h3_10":"8a1e2e61a8c7fff","h3_11":"8b1e2e61a8c2fff"},"geometry":{"type":"Polygon","coordinates":[[[20.123438,50.104726],[20.123552,50.104623],[20.123655,50.10467],[20.123542,50.104773],[20.123438,50.104726]]]}},{"type":"Feature","id":"w337950884","properties":{"type":"yes","address":"Glinik 130","residential":true,"residents_est":3,"h3_10":"8a1e2e61a807fff","h3_11":"8b1e2e61a802fff"},"geometry":{"type":"Polygon","coordinates":[[[20.121408,50.107471],[20.121485,50.107395],[20.121604,50.107446],[20.121526,50.107522],[20.121408,50.107471]]]}},{"type":"Feature","id":"w337950932","properties":{"type":"yes","residential":true,"residents_est":2,"h3_10":"8a1e2e61a837fff","h3_11":"8b1e2e61a832fff"},"geometry":{"type":"Polygon","coordinates":[[[20.11969,50.107558],[20.119696,50.107474],[20.119823,50.107477],[20.119815,50.107562],[20.11969,50.107558]]]}},{"type":"Feature","id":"w337950940","properties":{"type":"yes","residential":true,"residents_est":2,"h3_10":"8a1e2e61a88ffff","h3_11":"8b1e2e61a88dfff"},"geometry":{"type":"Polygon","coordinates":[[[20.121252,50.10501],[20.121262,50.104914],[20.12137,50.104919],[20.121361,50.105015],[20.121252,50.10501]]]}},{"type":"Feature","id":"w337950991","properties":{"type":"yes","residential":true,"residents_est":3,"h3_10":"8a1e2e61a8affff","h3_11":"8b1e2e61a8adfff"},"geometry":{"type":"Polygon","coordinates":[[[20.120959,50.106095],[20.120971,50.105981],[20.121105,50.105987],[20.121093,50.106101],[20.120959,50.106095]]]}},{"type":"Feature","id":"w337951008","properties":{"type":"yes","residential":true,"residents_est":1,"h3_10":"8a1e2e61a81ffff","h3_11":"8b1e2e61a81dfff"},"geometry":{"type":"Polygon","coordinates":[[[20.122043,50.106996],[20.122083,50.106958],[20.122204,50.107011],[20.122163,50.10705],[20.122043,50.106996]]]}},{"type":"Feature","id":"w337951016","properties":{"type":"yes","residential":true,"residents_est":2,"h3_10":"8a1e2e61a98ffff","h3_11":"8b1e2e61a98dfff"},"geometry":{"type":"Polygon","coordinates":[[[20.11896,50.10767],[20.119101,50.107669],[20.119103,50.107741],[20.118962,50.107742],[20.11896,50.10767]]]}},{"type":"Feature","id":"w337951044","properties":{"type":"yes","address":"Krzysztoforzyce 116","residential":true,"residents_est":2,"h3_10":"8a1e2e61a82ffff","h3_11":"8b1e2e61a828fff"},"geometry":{"type":"Polygon","coordinates":[[[20.123166,50.108633],[20.123175,50.108558],[20.123271,50.108563],[20.123262,50.108638],[20.123166,50.108633]]]}},{"type":"Feature","id":"w337951110","properties":{"type":"yes","residential":true,"residents_est":2,"h3_10":"8a1e2e61a837fff","h3_11":"8b1e2e61a830fff"},"geometry":{"type":"Polygon","coordinates":[[[20.119891,50.107972],[20.119894,50.107916],[20.120045,50.10792],[20.120042,50.107976],[20.119891,50.107972]]]}},{"type":"Feature","id":"w337951150","properties":{"type":"yes","address":"Glinik 144","residential":true,"residents_est":5,"h3_10":"8a1e2e61a827fff","h3_11":"8b1e2e61a823fff"},"geometry":{"type":"Polygon","coordinates":[[[20.121784,50.108347],[20.121823,50.108255],[20.122052,50.108297],[20.122013,50.108388],[20.121784,50.108347]]]}},{"type":"Feature","id":"w337951172","properties":{"type":"yes","residential":true,"residents_est":1,"h3_10":"8a1e2e61a8d7fff","h3_11":"8b1e2e61a8d6fff"},"geometry":{"type":"Polygon","coordinates":[[[20.121786,50.104449],[20.121792,50.104397],[20.121889,50.104402],[20.121883,50.104454],[20.121786,50.104449]]]}},{"type":"Feature","id":"w337951249","properties":{"type":"yes","residential":true,"residents_est":2,"h3_10":"8a1e2e61a88ffff","h3_11":"8b1e2e61a88dfff"},"geometry":{"type":"Polygon","coordinates":[[[20.121095,50.105336],[20.121101,50.105257],[20.121244,50.105262],[20.121238,50.105341],[20.121095,50.105336]]]}},{"type":"Feature","id":"w337951255","properties":{"type":"yes","residential":true,"residents_est":3,"h3_10":"8a1e2e61a907fff","h3_11":"8b1e2e61a904fff"},"geometry":{"type":"Polygon","coordinates":[[[20.118874,50.110645],[20.118877,50.110426],[20.118949,50.110427],[20.118945,50.110645],[20.118874,50.110645]]]}},{"type":"Feature","id":"w337951282","properties":{"type":"yes","residential":true,"residents_est":3,"h3_10":"8a1e2e61a8d7fff","h3_11":"8b1e2e61a8d1fff"},"geometry":{"type":"Polygon","coordinates":[[[20.123276,50.104234],[20.123392,50.104132],[20.123493,50.104181],[20.123377,50.104282],[20.123276,50.104234]]]}},{"type":"Feature","id":"w337951332","properties":{"type":"yes","residential":true,"residents_est":4,"h3_10":"8a1e2e61a807fff","h3_11":"8b1e2e61a803fff"},"geometry":{"type":"Polygon","coordinates":[[[20.121762,50.107489],[20.121895,50.107363],[20.121987,50.107403],[20.121855,50.107529],[20.121762,50.107489]]]}},{"type":"Feature","id":"w337951387","properties":{"type":"yes","residential":true,"residents_est":1,"h3_10":"8a1e2e61a88ffff","h3_11":"8b1e2e61a889fff"},"geometry":{"type":"Polygon","coordinates":[[[20.121383,50.104711],[20.121388,50.104663],[20.121502,50.104668],[20.121497,50.104716],[20.121383,50.104711]]]}},{"type":"Feature","id":"w337951425","properties":{"type":"yes","residential":true,"residents_est":2,"h3_10":"8a1e2e61a8d7fff","h3_11":"8b1e2e61a8d6fff"},"geometry":{"type":"Polygon","coordinates":[[[20.122068,50.104509],[20.122086,50.10443],[20.122222,50.104443],[20.122203,50.104522],[20.122068,50.104509]]]}},{"type":"Feature","id":"w337951427","properties":{"type":"yes","address":"Glinik 153","residential":true,"residents_est":2,"h3_10":"8a1e2e61a837fff","h3_11":"8b1e2e61a835fff"},"geometry":{"type":"Polygon","coordinates":[[[20.120314,50.108227],[20.12032,50.108151],[20.12043,50.108155],[20.120424,50.108231],[20.120405,50.10823],[20.120403,50.108249],[20.120334,50.108247],[20.120335,50.108228],[20.120314,50.108227]]]}},{"type":"Feature","id":"w337951557","properties":{"type":"yes","residential":true,"residents_est":4,"h3_10":"8a1e2e61a8f7fff","h3_11":"8b1e2e61a8f6fff"},"geometry":{"type":"Polygon","coordinates":[[[20.121316,50.105666],[20.121323,50.105605],[20.12147,50.105612],[20.121472,50.105599],[20.121598,50.105604],[20.121588,50.105691],[20.121464,50.105685],[20.121465,50.105674],[20.121316,50.105666]]]}},{"type":"Feature","id":"w337951576","properties":{"type":"yes","residential":true,"residents_est":3,"h3_10":"8a1e2e61a837fff","h3_11":"8b1e2e61a832fff"},"geometry":{"type":"Polygon","coordinates":[[[20.119532,50.107963],[20.119537,50.107886],[20.119594,50.107888],[20.119596,50.107865],[20.119606,50.107858],[20.119647,50.107859],[20.119657,50.107868],[20.119686,50.107869],[20.119679,50.107967],[20.119532,50.107963]]]}},{"type":"Feature","id":"w337951587","properties":{"type":"yes","address":"Glinik 128","residential":true,"residents_est":3,"h3_10":"8a1e2e61a807fff","h3_11":"8b1e2e61a802fff"},"geometry":{"type":"Polygon","coordinates":[[[20.121551,50.107333],[20.121619,50.107254],[20.121746,50.107299],[20.121678,50.107378],[20.121551,50.107333]]]}},{"type":"Feature","id":"w337951626","properties":{"type":"yes","residential":true,"residents_est":7,"h3_10":"8a1e2e61a8dffff","h3_11":"8b1e2e61a8dbfff"},"geometry":{"type":"Polygon","coordinates":[[[20.124441,50.103561],[20.124564,50.103447],[20.124801,50.103553],[20.124719,50.103629],[20.124541,50.10355],[20.1245,50.103588],[20.124441,50.103561]]]}},{"type":"Feature","id":"w337951675","properties":{"type":"yes","address":"Krzysztoforzyce 159","residential":true,"residents_est":4,"h3_10":"8a1e2e61a827fff","h3_11":"8b1e2e61a824fff"},"geometry":{"type":"Polygon","coordinates":[[[20.120909,50.10901],[20.120911,50.108976],[20.120953,50.108976],[20.120955,50.108915],[20.12112,50.108917],[20.121117,50.109013],[20.120909,50.10901]]]}},{"type":"Feature","id":"w337951725","properties":{"type":"yes","address":"Glinik 136","residential":true,"residents_est":3,"h3_10":"8a1e2e61a807fff","h3_11":"8b1e2e61a800fff"},"geometry":{"type":"Polygon","coordinates":[[[20.121625,50.107969],[20.121655,50.107886],[20.121753,50.107901],[20.121759,50.107885],[20.121822,50.107895],[20.121786,50.107993],[20.121625,50.107969]]]}},{"type":"Feature","id":"w337951770","properties":{"type":"yes","residential":true,"residents_est":3,"h3_10":"8a1e2e61a98ffff","h3_11":"8b1e2e61a98cfff"},"geometry":{"type":"Polygon","coordinates":[[[20.118179,50.107481],[20.118181,50.107461],[20.118194,50.107452],[20.118195,50.107437],[20.118219,50.107438],[20.118235,50.10743],[20.118267,50.107431],[20.11828,50.107439],[20.118364,50.107442],[20.118358,50.107535],[20.118297,50.107533],[20.118285,50.107525],[20.118189,50.107527],[20.118191,50.10749],[20.118179,50.107481]]]}},{"type":"Feature","id":"w337951884","properties":{"type":"yes","residential":true,"residents_est":1,"h3_10":"8a1e2e61a807fff","h3_11":"8b1e2e61a803fff"},"geometry":{"type":"Polygon","coordinates":[[[20.12202,50.107123],[20.122048,50.107096],[20.122067,50.107104],[20.122106,50.107066],[20.122169,50.107092],[20.122101,50.107157],[20.12202,50.107123]]]}},{"type":"Feature","id":"w337951979","properties":{"type":"yes","residential":true,"residents_est":4,"h3_10":"8a1e2e61a88ffff","h3_11":"8b1e2e61a889fff"},"geometry":{"type":"Polygon","coordinates":[[[20.121575,50.105018],[20.121588,50.104879],[20.121689,50.104883],[20.121683,50.104934],[20.121773,50.104938],[20.121766,50.105008],[20.121664,50.105004],[20.121662,50.105021],[20.121575,50.105018]]]}},{"type":"Feature","id":"w337951992","properties":{"type":"yes","address":"Glinik 164","residential":true,"residents_est":3,"h3_10":"8a1e2e61a90ffff","h3_11":"8b1e2e61a908fff"},"geometry":{"type":"Polygon","coordinates":[[[20.120917,50.110046],[20.120918,50.109978],[20.121062,50.109979],[20.121061,50.110026],[20.121042,50.110026],[20.12104,50.110096],[20.120929,50.110095],[20.12093,50.110046],[20.120917,50.110046]]]}},{"type":"Feature","id":"w337951998","properties":{"type":"yes","residential":true,"residents_est":3,"h3_10":"8a1e2e61a88ffff","h3_11":"8b1e2e61a889fff"},"geometry":{"type":"Polygon","coordinates":[[[20.121594,50.104717],[20.121609,50.104598],[20.121703,50.104603],[20.1217,50.104632],[20.12173,50.104633],[20.121726,50.104666],[20.121696,50.104665],[20.121689,50.104722],[20.121594,50.104717]]]}},{"type":"Feature","id":"w337952020","properties":{"type":"yes","residential":true,"residents_est":3,"h3_10":"8a1e2e61a98ffff","h3_11":"8b1e2e61a989fff"},"geometry":{"type":"Polygon","coordinates":[[[20.119125,50.107518],[20.119131,50.107443],[20.119207,50.107445],[20.119208,50.107434],[20.1193,50.107437],[20.119291,50.107559],[20.119228,50.107557],[20.11923,50.107521],[20.119125,50.107518]]]}},{"type":"Feature","id":"w337952052","properties":{"type":"yes","residential":true,"residents_est":2,"h3_10":"8a1e2e61a8d7fff","h3_11":"8b1e2e61a8d5fff"},"geometry":{"type":"Polygon","coordinates":[[[20.122765,50.104773],[20.122799,50.104741],[20.122786,50.104735],[20.122825,50.104701],[20.122936,50.104753],[20.12287,50.104822],[20.122765,50.104773]]]}},{"type":"Feature","id":"w337952062","properties":{"type":"yes","residential":true,"residents_est":3,"h3_10":"8a1e2e61a837fff","h3_11":"8b1e2e61a833fff"},"geometry":{"type":"Polygon","coordinates":[[[20.120264,50.107496],[20.120397,50.107494],[20.120408,50.107591],[20.120267,50.107587],[20.120264,50.107496]]]}},{"type":"Feature","id":"w337952064","properties":{"type":"yes","residential":true,"residents_est":2,"h3_10":"8a1e2e61a8f7fff","h3_11":"8b1e2e61a8f3fff"},"geometry":{"type":"Polygon","coordinates":[[[20.122518,50.105092],[20.122559,50.105055],[20.122547,50.10505],[20.122578,50.105021],[20.122691,50.105072],[20.122646,50.105113],[20.12261,50.105097],[20.122582,50.105121],[20.122518,50.105092]]]}},{"type":"Feature","id":"w337952068","properties":{"type":"yes","address":"Krzysztoforzyce 158","residential":true,"residents_est":3,"h3_10":"8a1e2e61a827fff","h3_11":"8b1e2e61a824fff"},"geometry":{"type":"Polygon","coordinates":[[[20.120915,50.109263],[20.120917,50.109207],[20.120943,50.109207],[20.120944,50.109162],[20.1211,50.109165],[20.121098,50.109232],[20.121076,50.109232],[20.121074,50.109265],[20.120915,50.109263]]]}},{"type":"Feature","id":"w337952080","properties":{"type":"yes","address":"Glinik 140","residential":true,"residents_est":5,"h3_10":"8a1e2e61a807fff","h3_11":"8b1e2e61a805fff"},"geometry":{"type":"Polygon","coordinates":[[[20.122211,50.108113],[20.122237,50.108044],[20.122247,50.108046],[20.122265,50.108],[20.122456,50.108031],[20.122438,50.108081],[20.122385,50.108073],[20.122361,50.108137],[20.122211,50.108113]]]}},{"type":"Feature","id":"w337952129","properties":{"type":"house","levels":2.0,"address":"Glinik 118a","residential":true,"residents_est":5,"h3_10":"8a1e2e61a8f7fff","h3_11":"8b1e2e61a8f0fff"},"geometry":{"type":"Polygon","coordinates":[[[20.122354,50.105373],[20.12243,50.105308],[20.12254,50.105357],[20.122467,50.105423],[20.122354,50.105373]]]}},{"type":"Feature","id":"w337952131","properties":{"type":"yes","residential":true,"residents_est":5,"h3_10":"8a1e2e61a817fff","h3_11":"8b1e2e61a810fff"},"geometry":{"type":"Polygon","coordinates":[[[20.120397,50.10687],[20.120407,50.106775],[20.120426,50.106776],[20.120448,50.106765],[20.120594,50.106771],[20.120615,50.106784],[20.120635,50.106785],[20.120625,50.106879],[20.120397,50.10687]]]}},{"type":"Feature","id":"w337952142","properties":{"type":"yes","residential":true,"residents_est":3,"h3_10":"8a1e2e61a8d7fff","h3_11":"8b1e2e61a8d3fff"},"geometry":{"type":"Polygon","coordinates":[[[20.122867,50.104212],[20.122953,50.104134],[20.12302,50.104165],[20.123009,50.104175],[20.123074,50.104205],[20.123029,50.104245],[20.123006,50.104235],[20.122977,50.104262],[20.122867,50.104212]]]}},{"type":"Feature","id":"w337952159","properties":{"type":"yes","residential":true,"residents_est":4,"h3_10":"8a1e2e61a837fff","h3_11":"8b1e2e61a832fff"},"geometry":{"type":"Polygon","coordinates":[[[20.119418,50.107555],[20.119423,50.10747],[20.11947,50.107472],[20.119471,50.107453],[20.119587,50.107456],[20.119579,50.107568],[20.119519,50.107566],[20.11952,50.107558],[20.119418,50.107555]]]}},{"type":"Feature","id":"w337952182","properties":{"type":"yes","residential":true,"residents_est":3,"h3_10":"8a1e2e61a8affff","h3_11":"8b1e2e61a8a9fff"},"geometry":{"type":"Polygon","coordinates":[[[20.121262,50.10611],[20.121271,50.106008],[20.121397,50.106012],[20.121393,50.106057],[20.12141,50.106058],[20.121406,50.106102],[20.121359,50.1061],[20.121357,50.106114],[20.121262,50.10611]]]}},{"type":"Feature","id":"w337952218","properties":{"type":"yes","address":"Glinik 134","residential":true,"residents_est":4,"h3_10":"8a1e2e61a807fff","h3_11":"8b1e2e61a804fff"},"geometry":{"type":"Polygon","coordinates":[[[20.1212,50.107896],[20.121214,50.107861],[20.121227,50.107864],[20.12125,50.107809],[20.121434,50.107841],[20.121419,50.107878],[20.121431,50.10788],[20.12141,50.107932],[20.1212,50.107896]]]}},{"type":"Feature","id":"w337952225","properties":{"type":"yes","residential":true,"residents_est":3,"h3_10":"8a1e2e61a8d7fff","h3_11":"8b1e2e61a8d5fff"},"geometry":{"type":"Polygon","coordinates":[[[20.122939,50.104661],[20.123024,50.104582],[20.123092,50.104613],[20.123082,50.104623],[20.123145,50.104652],[20.123101,50.104692],[20.123077,50.104682],[20.123047,50.10471],[20.122939,50.104661]]]}},{"type":"Feature","id":"w337952236","properties":{"type":"yes","address":"Glinik 146","residential":true,"residents_est":3,"h3_10":"8a1e2e61a807fff","h3_11":"8b1e2e61a804fff"},"geometry":{"type":"Polygon","coordinates":[[[20.121519,50.108254],[20.121552,50.108166],[20.121641,50.10818],[20.121637,50.108192],[20.121691,50.1082],[20.12166,50.108284],[20.121602,50.108275],[20.121605,50.108267],[20.121519,50.108254]]]}},{"type":"Feature","id":"w337952239","properties":{"type":"yes","residential":true,"residents_est":3,"h3_10":"8a1e2e61a817fff","h3_11":"8b1e2e61a814fff"},"geometry":{"type":"Polygon","coordinates":[[[20.119967,50.107591],[20.119975,50.107478],[20.120106,50.107482],[20.120103,50.107512],[20.120125,50.107513],[20.12012,50.107582],[20.120074,50.107581],[20.120073,50.107594],[20.119967,50.107591]]]}},{"type":"Feature","id":"w337952264","properties":{"type":"yes","residential":true,"residents_est":4,"h3_10":"8a1e2e61a8affff","h3_11":"8b1e2e61a8adfff"},"geometry":{"type":"Polygon","coordinates":[[[20.120971,50.10638],[20.120979,50.106272],[20.121126,50.106277],[20.121123,50.106302],[20.121155,50.106303],[20.121151,50.106336],[20.121119,50.106335],[20.121115,50.106384],[20.120971,50.10638]]]}},{"type":"Feature","id":"w337952270","properties":{"type":"yes","residential":true,"residents_est":3,"h3_10":"8a1e2e61a98ffff","h3_11":"8b1e2e61a98dfff"},"geometry":{"type":"Polygon","coordinates":[[[20.118787,50.107544],[20.118792,50.107465],[20.118922,50.107469],[20.118921,50.107481],[20.11896,50.107483],[20.118972,50.107496],[20.118971,50.10751],[20.118958,50.107518],[20.118955,50.107549],[20.118787,50.107544]]]}},{"type":"Feature","id":"w337952293","properties":{"type":"yes","address":"Glinik 155","residential":true,"residents_est":3,"h3_10":"8a1e2e61a837fff","h3_11":"8b1e2e61a835fff"},"geometry":{"type":"Polygon","coordinates":[[[20.120321,50.108424],[20.120327,50.108345],[20.120343,50.108346],[20.120345,50.108327],[20.120466,50.108331],[20.120463,50.108373],[20.120488,50.108374],[20.120484,50.108429],[20.120321,50.108424]]]}},{"type":"Feature","id":"w337952295","properties":{"type":"yes","residential":true,"residents_est":1,"h3_10":"8a1e2e61a807fff","h3_11":"8b1e2e61a800fff"},"geometry":{"type":"Polygon","coordinates":[[[20.121622,50.107581],[20.121698,50.10751],[20.12175,50.107533],[20.121739,50.107544],[20.12176,50.107552],[20.121748,50.107563],[20.121728,50.107554],[20.121676,50.107604],[20.121622,50.107581]]]}},{"type":"Feature","id":"w337952299","properties":{"type":"yes","residential":true,"residents_est":3,"h3_10":"8a1e2e61a98ffff","h3_11":"8b1e2e61a988fff"},"geometry":{"type":"Polygon","coordinates":[[[20.118483,50.107502],[20.118485,50.107486],[20.118499,50.107475],[20.118515,50.107476],[20.118516,50.107452],[20.118681,50.107457],[20.118676,50.107534],[20.11863,50.107532],[20.118629,50.10754],[20.118492,50.107536],[20.118494,50.10751],[20.118483,50.107502]]]}},{"type":"Feature","id":"w337963127","properties":{"type":"yes","residential":true,"residents_est":3,"h3_10":"8a1e2e61a9a7fff","h3_11":"8b1e2e61a9a3fff"},"geometry":{"type":"Polygon","coordinates":[[[20.116385,50.108533],[20.11641,50.108474],[20.116404,50.108472],[20.116438,50.108403],[20.116496,50.108413],[20.116508,50.108408],[20.116537,50.108413],[20.116551,50.108423],[20.116542,50.108446],[20.116564,50.108449],[20.116541,50.108503],[20.116501,50.108497],[20.116476,50.108549],[20.116385,50.108533]]]}},{"type":"Feature","id":"w337963133","properties":{"type":"yes","residential":true,"residents_est":4,"h3_10":"8a1e2e61a9a7fff","h3_11":"8b1e2e61a9a0fff"},"geometry":{"type":"Polygon","coordinates":[[[20.116288,50.108742],[20.116347,50.108619],[20.116462,50.108636],[20.116448,50.108677],[20.116477,50.108682],[20.116461,50.108726],[20.11641,50.108718],[20.116394,50.108759],[20.116288,50.108742]]]}},{"type":"Feature","id":"w337963136","properties":{"type":"yes","residential":true,"residents_est":5,"h3_10":"8a1e2e61a997fff","h3_11":"8b1e2e61a993fff"},"geometry":{"type":"Polygon","coordinates":[[[20.115274,50.106473],[20.115474,50.10642],[20.115535,50.106514],[20.115325,50.10657],[20.115309,50.106546],[20.115284,50.106542],[20.115275,50.106528],[20.115282,50.106515],[20.115298,50.10651],[20.115274,50.106473]]]}},{"type":"Feature","id":"w337963137","properties":{"type":"yes","address":"Glinik 168","residential":true,"residents_est":5,"h3_10":"8a1e2e61a92ffff","h3_11":"8b1e2e61a92bfff"},"geometry":{"type":"Polygon","coordinates":[[[20.120871,50.110613],[20.120873,50.11055],[20.120889,50.11055],[20.120891,50.110488],[20.121052,50.110492],[20.121047,50.110544],[20.121075,50.110545],[20.121073,50.110595],[20.120963,50.110593],[20.120962,50.110615],[20.120871,50.110613]]]}},{"type":"Feature","id":"w337963138","properties":{"type":"yes","residential":true,"residents_est":2,"h3_10":"8a1e2e61a9b7fff","h3_11":"8b1e2e61a9b3fff"},"geometry":{"type":"Polygon","coordinates":[[[20.115617,50.107591],[20.115715,50.107569],[20.115732,50.107597],[20.115745,50.107595],[20.115759,50.10762],[20.115744,50.107624],[20.115761,50.107652],[20.115664,50.107675],[20.115647,50.107645],[20.115634,50.107648],[20.11562,50.107623],[20.115634,50.10762],[20.115617,50.107591]]]}},{"type":"Feature","id":"w337963155","properties":{"type":"yes","residential":true,"residents_est":3,"h3_10":"8a1e2e61a9affff","h3_11":"8b1e2e61a9aefff"},"geometry":{"type":"Polygon","coordinates":[[[20.117224,50.108393],[20.117249,50.108339],[20.117286,50.108346],[20.117295,50.108325],[20.117314,50.108319],[20.117339,50.108323],[20.117348,50.108336],[20.117397,50.108345],[20.117363,50.108419],[20.117353,50.108417],[20.117328,50.108471],[20.117241,50.108455],[20.117266,50.108401],[20.117224,50.108393]]]}},{"type":"Feature","id":"w337963160","properties":{"type":"yes","residential":true,"residents_est":3,"h3_10":"8a1e2e61a997fff","h3_11":"8b1e2e61a992fff"},"geometry":{"type":"Polygon","coordinates":[[[20.114927,50.106545],[20.11505,50.106511],[20.115066,50.106535],[20.115097,50.106538],[20.115104,50.10655],[20.115097,50.106561],[20.115084,50.106564],[20.115101,50.106589],[20.115085,50.106594],[20.115105,50.106623],[20.115015,50.106647],[20.114996,50.106619],[20.114979,50.106624],[20.114962,50.106598],[20.11495,50.106601],[20.114933,50.106574],[20.114944,50.106571],[20.114927,50.106545]]]}},{"type":"Feature","id":"w337963166","properties":{"type":"yes","residential":true,"residents_est":3,"h3_10":"8a1e2e61a997fff","h3_11":"8b1e2e61a994fff"},"geometry":{"type":"Polygon","coordinates":[[[20.115107,50.107168],[20.115226,50.10714],[20.115288,50.107253],[20.115169,50.107282],[20.115107,50.107168]]]}},{"type":"Feature","id":"w337963173","properties":{"type":"yes","residential":true,"residents_est":4,"h3_10":"8a1e2e61a997fff","h3_11":"8b1e2e61a992fff"},"geometry":{"type":"Polygon","coordinates":[[[20.115067,50.106726],[20.115252,50.106675],[20.1153,50.106747],[20.115115,50.106798],[20.115067,50.106726]]]}},{"type":"Feature","id":"w337963178","properties":{"type":"yes","residential":true,"residents_est":14,"h3_10":"8a1e2e61a9b7fff","h3_11":"8b1e2e61a9b3fff"},"geometry":{"type":"Polygon","coordinates":[[[20.115187,50.107481],[20.115507,50.107405],[20.115558,50.107494],[20.115238,50.10757],[20.115187,50.107481]]]}},{"type":"Feature","id":"w337963186","properties":{"type":"yes","residential":true,"residents_est":2,"h3_10":"8a1e2e61a997fff","h3_11":"8b1e2e61a994fff"},"geometry":{"type":"Polygon","coordinates":[[[20.115089,50.107374],[20.115188,50.107346],[20.115233,50.107411],[20.115134,50.107439],[20.115089,50.107374]]]}},{"type":"Feature","id":"w337963188","properties":{"type":"yes","residential":true,"residents_est":1,"h3_10":"8a1e2e61a917fff","h3_11":"8b1e2e61a914fff"},"geometry":{"type":"Polygon","coordinates":[[[20.11737,50.110087],[20.117404,50.110011],[20.11749,50.110027],[20.117456,50.110102],[20.11737,50.110087]]]}},{"type":"Feature","id":"w337963189","properties":{"type":"yes","residential":true,"residents_est":3,"h3_10":"8a1e2e61a997fff","h3_11":"8b1e2e61a990fff"},"geometry":{"type":"Polygon","coordinates":[[[20.114982,50.106956],[20.115152,50.106911],[20.115202,50.106991],[20.115032,50.107035],[20.114982,50.106956]]]}},{"type":"Feature","id":"w337963206","properties":{"type":"yes","residential":true,"residents_est":1,"h3_10":"8a1e2e61a997fff","h3_11":"8b1e2e61a995fff"},"geometry":{"type":"Polygon","coordinates":[[[20.115337,50.10726],[20.115415,50.107244],[20.115451,50.107317],[20.115372,50.107333],[20.115337,50.10726]]]}},{"type":"Feature","id":"w337963207","properties":{"type":"yes","residential":true,"residents_est":0,"h3_10":"8a1e2e61a927fff","h3_11":"8b1e2e61a924fff"},"geometry":{"type":"Polygon","coordinates":[[[20.118469,50.111632],[20.1185,50.111589],[20.118599,50.111617],[20.118569,50.11166],[20.118469,50.111632]]]}},{"type":"Feature","id":"w337963217","properties":{"type":"yes","residential":true,"residents_est":2,"h3_10":"8a1e2e61a997fff","h3_11":"8b1e2e61a990fff"},"geometry":{"type":"Polygon","coordinates":[[[20.115293,50.106947],[20.115435,50.10691],[20.115462,50.106955],[20.11532,50.106991],[20.115293,50.106947]]]}},{"type":"Feature","id":"w337963223","properties":{"type":"yes","residential":false,"residents_est":0,"h3_10":"8a1e2e61a937fff","h3_11":"8b1e2e61a934fff"},"geometry":{"type":"Polygon","coordinates":[[[20.117373,50.111056],[20.117407,50.111],[20.117475,50.111017],[20.117441,50.111073],[20.117373,50.111056]]]}},{"type":"Feature","id":"w337963243","properties":{"type":"yes","residential":true,"residents_est":3,"h3_10":"8a1e2e61a9a7fff","h3_11":"8b1e2e61a9a0fff"},"geometry":{"type":"Polygon","coordinates":[[[20.116657,50.108946],[20.11671,50.108826],[20.116826,50.108847],[20.116774,50.108967],[20.116657,50.108946]]]}},{"type":"Feature","id":"w337963248","properties":{"type":"yes","residential":false,"residents_est":0,"h3_10":"8a1e2e61a937fff","h3_11":"8b1e2e61a932fff"},"geometry":{"type":"Polygon","coordinates":[[[20.117347,50.110242],[20.117383,50.110155],[20.117435,50.110165],[20.117399,50.110251],[20.117347,50.110242]]]}},{"type":"Feature","id":"w337963268","properties":{"type":"yes","residential":true,"residents_est":1,"h3_10":"8a1e2e61a937fff","h3_11":"8b1e2e61a933fff"},"geometry":{"type":"Polygon","coordinates":[[[20.117513,50.110295],[20.117541,50.110232],[20.117637,50.11025],[20.117608,50.110312],[20.117513,50.110295]]]}},{"type":"Feature","id":"w337963272","properties":{"type":"yes","residential":true,"residents_est":5,"h3_10":"8a1e2e61a987fff","h3_11":"8b1e2e61a984fff"},"geometry":{"type":"Polygon","coordinates":[[[20.116002,50.108054],[20.116154,50.108038],[20.116197,50.108202],[20.116086,50.108214],[20.116068,50.108146],[20.116027,50.108151],[20.116002,50.108054]]]}},{"type":"Feature","id":"w337963285","properties":{"type":"yes","residential":true,"residents_est":3,"h3_10":"8a1e2e61a927fff","h3_11":"8b1e2e61a921fff"},"geometry":{"type":"Polygon","coordinates":[[[20.11964,50.111539],[20.119682,50.111468],[20.11984,50.111506],[20.119787,50.111597],[20.119727,50.111582],[20.119739,50.111563],[20.11964,50.111539]]]}},{"type":"Feature","id":"w337963305","properties":{"type":"yes","residential":true,"residents_est":4,"h3_10":"8a1e2e61a9a7fff","h3_11":"8b1e2e61a9a3fff"},"geometry":{"type":"Polygon","coordinates":[[[20.116877,50.108392],[20.116898,50.108342],[20.117055,50.108371],[20.116999,50.108499],[20.116894,50.10848],[20.11692,50.10842],[20.116903,50.108416],[20.11691,50.108398],[20.116877,50.108392]]]}},{"type":"Feature","id":"w337963312","properties":{"type":"yes","residential":true,"residents_est":3,"h3_10":"8a1e2e61a9b7fff","h3_11":"8b1e2e61a9b1fff"},"geometry":{"type":"Polygon","coordinates":[[[20.115738,50.108134],[20.11589,50.108115],[20.115915,50.108198],[20.115843,50.108207],[20.11585,50.108232],[20.115814,50.108236],[20.115807,50.108213],[20.115763,50.108218],[20.115738,50.108134]]]}},{"type":"Feature","id":"w337963314","properties":{"type":"yes","residential":true,"residents_est":4,"h3_10":"8a1e2e61a9affff","h3_11":"8b1e2e61a9aefff"},"geometry":{"type":"Polygon","coordinates":[[[20.117406,50.108597],[20.117435,50.10853],[20.117412,50.108526],[20.117436,50.10847],[20.117614,50.1085],[20.11759,50.108557],[20.117527,50.108546],[20.117498,50.108612],[20.117406,50.108597]]]}},{"type":"Feature","id":"w337963318","properties":{"type":"yes","residential":true,"residents_est":3,"h3_10":"8a1e2e61a997fff","h3_11":"8b1e2e61a992fff"},"geometry":{"type":"Polygon","coordinates":[[[20.114637,50.106626],[20.114683,50.106614],[20.114676,50.106604],[20.114781,50.106574],[20.114843,50.106667],[20.114758,50.106691],[20.114738,50.10666],[20.114672,50.106679],[20.114637,50.106626]]]}},{"type":"Feature","id":"w337963330","properties":{"type":"yes","residential":true,"residents_est":2,"h3_10":"8a1e2e61a92ffff","h3_11":"8b1e2e61a92dfff"},"geometry":{"type":"Polygon","coordinates":[[[20.121257,50.111458],[20.121261,50.111385],[20.121352,50.111387],[20.121349,50.111438],[20.121329,50.111438],[20.121327,50.111478],[20.121291,50.111477],[20.121292,50.111459],[20.121257,50.111458]]]}},{"type":"Feature","id":"w337963331","properties":{"type":"yes","residential":true,"residents_est":4,"h3_10":"8a1e2e61a9affff","h3_11":"8b1e2e61a9aefff"},"geometry":{"type":"Polygon","coordinates":[[[20.117525,50.108359],[20.117545,50.108304],[20.117581,50.10831],[20.117608,50.108243],[20.117732,50.108263],[20.117705,50.108329],[20.117697,50.108328],[20.117668,50.108405],[20.117611,50.108396],[20.117619,50.108374],[20.117525,50.108359]]]}},{"type":"Feature","id":"w337963332","properties":{"type":"yes","residential":true,"residents_est":4,"h3_10":"8a1e2e61a9a7fff","h3_11":"8b1e2e61a9a5fff"},"geometry":{"type":"Polygon","coordinates":[[[20.11674,50.109313],[20.11678,50.109229],[20.116909,50.109256],[20.116901,50.109271],[20.116947,50.10928],[20.116909,50.109361],[20.116818,50.109343],[20.116825,50.109329],[20.11674,50.109313]]]}},{"type":"Feature","id":"w584779139","properties":{"type":"yes","residential":true,"residents_est":2,"h3_10":"8a1e2e61a9a7fff","h3_11":"8b1e2e61a9a4fff"},"geometry":{"type":"Polygon","coordinates":[[[20.116177,50.109071],[20.1162,50.10901],[20.116252,50.109009],[20.116262,50.10902],[20.116311,50.109028],[20.116289,50.109085],[20.116302,50.109087],[20.116288,50.109122],[20.116197,50.109107],[20.116209,50.109076],[20.116177,50.109071]]]}},{"type":"Feature","id":"w585145428","properties":{"type":"yes","address":"Glinik 175","residential":true,"residents_est":4,"h3_10":"8a1e2e61a907fff","h3_11":"8b1e2e61a901fff"},"geometry":{"type":"Polygon","coordinates":[[[20.119954,50.110421],[20.11996,50.110398],[20.119979,50.110389],[20.11998,50.110383],[20.119992,50.110383],[20.119998,50.110357],[20.120052,50.110362],[20.120066,50.110352],[20.120092,50.110355],[20.120102,50.110366],[20.120152,50.110371],[20.120144,50.11041],[20.120133,50.110409],[20.12013,50.110422],[20.12019,50.110428],[20.120181,50.110468],[20.12009,50.11046],[20.120092,50.110451],[20.119967,50.11044],[20.119969,50.110433],[20.119954,50.110421]]]}},{"type":"Feature","id":"w585145429","properties":{"type":"yes","address":"Glinik 171A","residential":true,"residents_est":3,"h3_10":"8a1e2e61a907fff","h3_11":"8b1e2e61a903fff"},"geometry":{"type":"Polygon","coordinates":[[[20.119883,50.110022],[20.119889,50.109991],[20.119926,50.109994],[20.11993,50.109974],[20.120049,50.109983],[20.120047,50.109995],[20.120098,50.109999],[20.120086,50.11006],[20.120034,50.110056],[20.120032,50.110068],[20.11989,50.110056],[20.119896,50.110023],[20.119883,50.110022]]]}},{"type":"Feature","id":"w596375189","properties":{"type":"house","levels":2.0,"address":"Jana Stanisława Bystronia 42","residential":true,"residents_est":9,"h3_10":"8a1e2e61a92ffff","h3_11":"8b1e2e61a92cfff"},"geometry":{"type":"Polygon","coordinates":[[[20.120107,50.111319],[20.120117,50.111227],[20.120177,50.111229],[20.120191,50.111221],[20.120215,50.111222],[20.120228,50.111232],[20.120287,50.111234],[20.120284,50.111268],[20.120289,50.111268],[20.120275,50.111271],[20.120273,50.111291],[20.120306,50.111293],[20.1203,50.111353],[20.120187,50.111348],[20.12019,50.111322],[20.120107,50.111319]]]}},{"type":"Feature","id":"w706050094","properties":{"type":"yes","residential":true,"residents_est":5,"h3_10":"8a1e2e61a837fff","h3_11":"8b1e2e61a831fff"},"geometry":{"type":"Polygon","coordinates":[[[20.120565,50.108042],[20.12057,50.10797],[20.120592,50.10797],[20.120595,50.107923],[20.120735,50.107927],[20.120731,50.10799],[20.120775,50.107992],[20.120771,50.108048],[20.120565,50.108042]]]}},{"type":"Feature","id":"w706050095","properties":{"type":"yes","residential":true,"residents_est":4,"h3_10":"8a1e2e61a837fff","h3_11":"8b1e2e61a836fff"},"geometry":{"type":"Polygon","coordinates":[[[20.119199,50.107908],[20.119212,50.107896],[20.119216,50.107857],[20.119358,50.107863],[20.119349,50.107988],[20.119297,50.107987],[20.119298,50.107969],[20.119208,50.107966],[20.11921,50.107927],[20.119199,50.107918],[20.119199,50.107908]]]}},{"type":"Feature","id":"w706050096","properties":{"type":"yes","residential":true,"residents_est":3,"h3_10":"8a1e2e61a98ffff","h3_11":"8b1e2e61a98dfff"},"geometry":{"type":"Polygon","coordinates":[[[20.118911,50.10794],[20.118915,50.107867],[20.119068,50.107871],[20.119064,50.107944],[20.118911,50.10794]]]}},{"type":"Feature","id":"w706050098","properties":{"type":"yes","residential":true,"residents_est":3,"h3_10":"8a1e2e61a98ffff","h3_11":"8b1e2e61a98bfff"},"geometry":{"type":"Polygon","coordinates":[[[20.118776,50.106808],[20.118786,50.106713],[20.118828,50.106713],[20.118829,50.106705],[20.118932,50.106709],[20.118921,50.106816],[20.11882,50.106812],[20.118821,50.106803],[20.118779,50.106802],[20.118776,50.106808]]]}},{"type":"Feature","id":"w706050099","properties":{"type":"yes","residential":true,"residents_est":3,"h3_10":"8a1e2e61a8a7fff","h3_11":"8b1e2e61a8a4fff"},"geometry":{"type":"Polygon","coordinates":[[[20.118632,50.106804],[20.118642,50.106697],[20.118744,50.106701],[20.118742,50.106711],[20.118786,50.106713],[20.118776,50.106808],[20.118773,50.106801],[20.118732,50.1068],[20.118731,50.106808],[20.118632,50.106804]]]}},{"type":"Feature","id":"w706050100","properties":{"type":"yes","residential":true,"residents_est":3,"h3_10":"8a1e2e61a99ffff","h3_11":"8b1e2e61a999fff"},"geometry":{"type":"Polygon","coordinates":[[[20.117776,50.106771],[20.117785,50.106663],[20.117888,50.106667],[20.117887,50.10668],[20.117932,50.106682],[20.117924,50.106769],[20.117879,50.106767],[20.117878,50.106775],[20.117776,50.106771]]]}},{"type":"Feature","id":"w706050101","properties":{"type":"yes","residential":true,"residents_est":3,"h3_10":"8a1e2e61a8a7fff","h3_11":"8b1e2e61a8a4fff"},"geometry":{"type":"Polygon","coordinates":[[[20.118206,50.106786],[20.118217,50.106679],[20.118318,50.106683],[20.118317,50.106693],[20.118361,50.106695],[20.118352,50.10679],[20.118348,50.106783],[20.118306,50.106781],[20.118305,50.10679],[20.118206,50.106786]]]}},{"type":"Feature","id":"w706050102","properties":{"type":"yes","residential":true,"residents_est":3,"h3_10":"8a1e2e61a8a7fff","h3_11":"8b1e2e61a8a4fff"},"geometry":{"type":"Polygon","coordinates":[[[20.118353,50.106784],[20.118361,50.106695],[20.118402,50.106695],[20.118404,50.106687],[20.118506,50.106691],[20.118495,50.106798],[20.118395,50.106794],[20.118396,50.106785],[20.118353,50.106784]]]}},{"type":"Feature","id":"w706050103","properties":{"type":"yes","residential":true,"residents_est":3,"h3_10":"8a1e2e61a817fff","h3_11":"8b1e2e61a816fff"},"geometry":{"type":"Polygon","coordinates":[[[20.11952,50.106844],[20.119531,50.106738],[20.119633,50.106742],[20.119631,50.106755],[20.119673,50.106757],[20.119664,50.106843],[20.119622,50.106842],[20.119621,50.106848],[20.11952,50.106844]]]}},{"type":"Feature","id":"w706050104","properties":{"type":"yes","residential":true,"residents_est":3,"h3_10":"8a1e2e61a817fff","h3_11":"8b1e2e61a816fff"},"geometry":{"type":"Polygon","coordinates":[[[20.119664,50.106843],[20.119673,50.106757],[20.119716,50.106758],[20.119718,50.106746],[20.119818,50.10675],[20.119807,50.106857],[20.119706,50.106853],[20.119706,50.106845],[20.119664,50.106843]]]}},{"type":"Feature","id":"w706050105","properties":{"type":"yes","residential":true,"residents_est":3,"h3_10":"8a1e2e61a817fff","h3_11":"8b1e2e61a810fff"},"geometry":{"type":"Polygon","coordinates":[[[20.119967,50.106868],[20.119977,50.10676],[20.12008,50.106764],[20.120079,50.106776],[20.120115,50.106778],[20.120121,50.106766],[20.12011,50.106872],[20.120107,50.106867],[20.120069,50.106865],[20.120068,50.106872],[20.119967,50.106868]]]}},{"type":"Feature","id":"w706050106","properties":{"type":"yes","residential":true,"residents_est":3,"h3_10":"8a1e2e61a817fff","h3_11":"8b1e2e61a810fff"},"geometry":{"type":"Polygon","coordinates":[[[20.12011,50.106872],[20.120121,50.106766],[20.120124,50.106778],[20.12016,50.10678],[20.120162,50.106767],[20.120267,50.106772],[20.120256,50.10688],[20.120151,50.106876],[20.120153,50.106869],[20.120115,50.106867],[20.12011,50.106872]]]}},{"type":"Feature","id":"w706050108","properties":{"type":"yes","residential":false,"residents_est":0,"h3_10":"8a1e2e61a8f7fff","h3_11":"8b1e2e61a8f5fff"},"geometry":{"type":"Polygon","coordinates":[[[20.122412,50.10581],[20.122447,50.105776],[20.122507,50.105804],[20.12247,50.105837],[20.122412,50.10581]]]}},{"type":"Feature","id":"w706050110","properties":{"type":"house","levels":2.0,"address":"Glinik 118D","residential":true,"residents_est":6,"h3_10":"8a1e2e61a8e7fff","h3_11":"8b1e2e61a8e2fff"},"geometry":{"type":"Polygon","coordinates":[[[20.123366,50.105857],[20.123462,50.10577],[20.12356,50.105815],[20.123464,50.105902],[20.123366,50.105857]]]}},{"type":"Feature","id":"w706050115","properties":{"type":"yes","residential":false,"residents_est":0,"h3_10":"8a1e2e61a8dffff","h3_11":"8b1e2e61a8dafff"},"geometry":{"type":"Polygon","coordinates":[[[20.124027,50.103501],[20.124057,50.103472],[20.124109,50.103494],[20.124078,50.103523],[20.124027,50.103501]]]}},{"type":"Feature","id":"w706380049","properties":{"type":"yes","address":"Glinik 169","name":"Euro","residential":true,"residents_est":26,"h3_10":"8a1e2e61a90ffff","h3_11":"8b1e2e61a90efff"},"geometry":{"type":"Polygon","coordinates":[[[20.119838,50.109885],[20.119839,50.109742],[20.120244,50.109739],[20.120243,50.109891],[20.119838,50.109885]]]}},{"type":"Feature","id":"w706380050","properties":{"type":"yes","residential":true,"residents_est":3,"h3_10":"8a1e2e61a90ffff","h3_11":"8b1e2e61a90efff"},"geometry":{"type":"Polygon","coordinates":[[[20.120086,50.11006],[20.120098,50.109999],[20.12015,50.110003],[20.120153,50.109992],[20.120271,50.110002],[20.120267,50.110022],[20.120304,50.110025],[20.120298,50.110056],[20.120284,50.110055],[20.120278,50.110088],[20.120136,50.110076],[20.120138,50.110065],[20.120086,50.11006]]]}},{"type":"Feature","id":"w720476849","properties":{"type":"yes","residential":true,"residents_est":3,"h3_10":"8a1e2e61a987fff","h3_11":"8b1e2e61a985fff"},"geometry":{"type":"Polygon","coordinates":[[[20.117298,50.107999],[20.117306,50.107988],[20.117301,50.107978],[20.117462,50.107951],[20.117494,50.108017],[20.117337,50.108054],[20.117318,50.108015],[20.117303,50.10801],[20.117298,50.107999]]]}},{"type":"Feature","id":"w720476850","properties":{"type":"yes","residential":true,"residents_est":5,"h3_10":"8a1e2e61a9affff","h3_11":"8b1e2e61a9aafff"},"geometry":{"type":"Polygon","coordinates":[[[20.117712,50.107928],[20.117921,50.107885],[20.117966,50.107977],[20.117758,50.10802],[20.117712,50.107928]]]}},{"type":"Feature","id":"w720476851","properties":{"type":"yes","residential":false,"residents_est":0,"h3_10":"8a1e2e61a92ffff","h3_11":"8b1e2e61a92efff"},"geometry":{"type":"Polygon","coordinates":[[[20.11979,50.111034],[20.11981,50.110949],[20.119861,50.110953],[20.119843,50.111038],[20.11979,50.111034]]]}},{"type":"Feature","id":"w720476853","properties":{"type":"house","levels":2.0,"address":"Glinik 116h","residential":true,"residents_est":8,"h3_10":"8a1e2e61a8f7fff","h3_11":"8b1e2e61a8f3fff"},"geometry":{"type":"Polygon","coordinates":[[[20.122777,50.105302],[20.122831,50.105254],[20.122827,50.105241],[20.122842,50.105229],[20.122863,50.105225],[20.122899,50.105242],[20.122914,50.105229],[20.122987,50.105262],[20.122964,50.105282],[20.122996,50.105297],[20.122917,50.105367],[20.122777,50.105302]]]}},{"type":"Feature","id":"w720476854","properties":{"type":"yes","residential":false,"residents_est":0,"h3_10":"8a1e2e61a8d7fff","h3_11":"8b1e2e61a8d5fff"},"geometry":{"type":"Polygon","coordinates":[[[20.122985,50.104812],[20.123033,50.104769],[20.123068,50.104784],[20.12302,50.104828],[20.122985,50.104812]]]}},{"type":"Feature","id":"w724373519","properties":{"type":"yes","address":"Glinik 170","residential":true,"residents_est":3,"h3_10":"8a1e2e61a92ffff","h3_11":"8b1e2e61a92bfff"},"geometry":{"type":"Polygon","coordinates":[[[20.120902,50.110824],[20.120902,50.110748],[20.121056,50.110749],[20.121054,50.11082],[20.121069,50.110821],[20.121068,50.110867],[20.120972,50.110867],[20.120973,50.110824],[20.120902,50.110824]]]}},{"type":"Feature","id":"w725202654","properties":{"type":"yes","residential":true,"residents_est":3,"h3_10":"8a1e2e61a927fff","h3_11":"8b1e2e61a926fff"},"geometry":{"type":"Polygon","coordinates":[[[20.117985,50.111447],[20.118037,50.111369],[20.118176,50.111407],[20.118124,50.111485],[20.117985,50.111447]]]}},{"type":"Feature","id":"w725202659","properties":{"type":"yes","residential":false,"residents_est":0,"h3_10":"8a1e2e61a88ffff","h3_11":"8b1e2e61a88dfff"},"geometry":{"type":"Polygon","coordinates":[[[20.121037,50.105113],[20.121105,50.105111],[20.121107,50.105145],[20.121039,50.105147],[20.121037,50.105113]]]}},{"type":"Feature","id":"w725202660","properties":{"type":"yes","residential":true,"residents_est":1,"h3_10":"8a1e2e61a8d7fff","h3_11":"8b1e2e61a8d6fff"},"geometry":{"type":"Polygon","coordinates":[[[20.121661,50.104442],[20.121668,50.10439],[20.121792,50.104397],[20.121786,50.104449],[20.121661,50.104442]]]}},{"type":"Feature","id":"w725202663","properties":{"type":"yes","residential":true,"residents_est":3,"h3_10":"8a1e2e61a8b7fff","h3_11":"8b1e2e61a8b6fff"},"geometry":{"type":"Polygon","coordinates":[[[20.116613,50.105368],[20.116679,50.105344],[20.116684,50.10535],[20.116709,50.105343],[20.116765,50.105422],[20.116715,50.105437],[20.116755,50.105489],[20.116708,50.105503],[20.116613,50.105368]]]}},{"type":"Feature","id":"w923406271","properties":{"type":"detached","levels":2.0,"residential":true,"residents_est":6,"h3_10":"8a1e2e61a917fff","h3_11":"8b1e2e61a914fff"},"geometry":{"type":"Polygon","coordinates":[[[20.11737,50.10993],[20.117408,50.109855],[20.11746,50.109866],[20.117467,50.109854],[20.117514,50.109866],[20.117517,50.109878],[20.117565,50.109887],[20.117529,50.109963],[20.11737,50.10993]]]}},{"type":"Feature","id":"w923406272","properties":{"type":"retail","levels":1.0,"residential":false,"residents_est":0,"h3_10":"8a1e2e61a837fff","h3_11":"8b1e2e61a832fff"},"geometry":{"type":"Polygon","coordinates":[[[20.119265,50.107761],[20.119267,50.107706],[20.119317,50.107707],[20.119316,50.107735],[20.119351,50.107735],[20.119356,50.10772],[20.119376,50.107706],[20.119401,50.107703],[20.119934,50.107712],[20.119963,50.107718],[20.119982,50.107731],[20.119981,50.107746],[20.120016,50.107747],[20.120017,50.10772],[20.120068,50.107721],[20.120065,50.107776],[20.119889,50.107772],[20.119889,50.107782],[20.119811,50.107781],[20.119811,50.107772],[20.119519,50.107766],[20.119518,50.107775],[20.119439,50.107774],[20.119439,50.107765],[20.119265,50.107761]]]}},{"type":"Feature","id":"w923406280","properties":{"type":"detached","levels":2.0,"residential":true,"residents_est":7,"h3_10":"8a1e2e61a807fff","h3_11":"8b1e2e61a804fff"},"geometry":{"type":"Polygon","coordinates":[[[20.121098,50.108194],[20.121111,50.108159],[20.121152,50.108166],[20.121172,50.108111],[20.121222,50.108119],[20.121225,50.108112],[20.121272,50.10812],[20.12127,50.108127],[20.121319,50.108134],[20.121285,50.108223],[20.121098,50.108194]]]}},{"type":"Feature","id":"w923406284","properties":{"type":"farm_auxiliary","levels":1.0,"residential":false,"residents_est":0,"h3_10":"8a1e2e61a927fff","h3_11":"8b1e2e61a924fff"},"geometry":{"type":"Polygon","coordinates":[[[20.118792,50.111623],[20.118819,50.11155],[20.118988,50.111581],[20.118952,50.111652],[20.118792,50.111623]]]}},{"type":"Feature","id":"w1008899761","properties":{"type":"house","levels":2.0,"address":"Glinik 118E","residential":true,"residents_est":6,"h3_10":"8a1e2e61a8f7fff","h3_11":"8b1e2e61a8f5fff"},"geometry":{"type":"Polygon","coordinates":[[[20.122865,50.105814],[20.122899,50.105781],[20.122877,50.105772],[20.122917,50.105737],[20.123064,50.105804],[20.122991,50.105872],[20.122865,50.105814]]]}},{"type":"Feature","id":"w1047828274","properties":{"type":"garage","levels":1.0,"residential":false,"residents_est":0,"h3_10":"8a1e2e61a9a7fff","h3_11":"8b1e2e61a9a3fff"},"geometry":{"type":"Polygon","coordinates":[[[20.116798,50.108665],[20.116823,50.108609],[20.116924,50.108628],[20.116899,50.108683],[20.116798,50.108665]]]}},{"type":"Feature","id":"w1047828344","properties":{"type":"yes","levels":2.0,"residential":true,"residents_est":2,"h3_10":"8a1e2e61a9affff","h3_11":"8b1e2e61a9acfff"},"geometry":{"type":"Polygon","coordinates":[[[20.117573,50.108962],[20.117603,50.108877],[20.117729,50.108895],[20.117699,50.108981],[20.117573,50.108962]]]}},{"type":"Feature","id":"w1047828427","properties":{"type":"outbuilding","levels":1.0,"residential":false,"residents_est":0,"h3_10":"8a1e2e61a8dffff","h3_11":"8b1e2e61a8defff"},"geometry":{"type":"Polygon","coordinates":[[[20.123896,50.103923],[20.123951,50.103875],[20.12406,50.103925],[20.124005,50.103974],[20.123896,50.103923]]]}},{"type":"Feature","id":"w1047828451","properties":{"type":"detached","levels":2.0,"residential":true,"residents_est":6,"h3_10":"8a1e2e61a8a7fff","h3_11":"8b1e2e61a8a5fff"},"geometry":{"type":"Polygon","coordinates":[[[20.119212,50.106823],[20.119222,50.106735],[20.119264,50.106737],[20.119266,50.106725],[20.119368,50.10673],[20.119356,50.106838],[20.119253,50.106833],[20.119254,50.106825],[20.119212,50.106823]]]}},{"type":"Feature","id":"w1047828473","properties":{"type":"detached","levels":2.0,"residential":true,"residents_est":6,"h3_10":"8a1e2e61a917fff","h3_11":"8b1e2e61a914fff"},"geometry":{"type":"Polygon","coordinates":[[[20.117149,50.109851],[20.117198,50.109757],[20.11726,50.109771],[20.11727,50.109752],[20.117324,50.109764],[20.117297,50.109816],[20.117304,50.109817],[20.117293,50.109838],[20.117286,50.109837],[20.117266,50.109877],[20.117149,50.109851]]]}},{"type":"Feature","id":"w1047828579","properties":{"type":"construction","levels":1.0,"residential":false,"residents_est":0,"h3_10":"8a1e2e61a81ffff","h3_11":"8b1e2e61a81bfff"},"geometry":{"type":"Polygon","coordinates":[[[20.122586,50.106395],[20.122648,50.10634],[20.122783,50.106403],[20.122721,50.106458],[20.122586,50.106395]]]}},{"type":"Feature","id":"w1047828592","properties":{"type":"detached","levels":2.0,"residential":true,"residents_est":7,"h3_10":"8a1e2e61a8a7fff","h3_11":"8b1e2e61a8a5fff"},"geometry":{"type":"Polygon","coordinates":[[[20.119066,50.106823],[20.119079,50.106716],[20.119183,50.10672],[20.119181,50.106733],[20.119222,50.106735],[20.119212,50.106823],[20.119171,50.106821],[20.11917,50.106829],[20.119066,50.106823]]]}},{"type":"Feature","id":"w1068302642","properties":{"type":"yes","residential":true,"residents_est":4,"h3_10":"8a1e2e61a827fff","h3_11":"8b1e2e61a821fff"},"geometry":{"type":"Polygon","coordinates":[[[20.122035,50.108679],[20.122041,50.108596],[20.122069,50.108596],[20.122072,50.108552],[20.122196,50.108555],[20.12219,50.10865],[20.12217,50.10865],[20.122168,50.108683],[20.122035,50.108679]]]}},{"type":"Feature","id":"w1075692797","properties":{"type":"residential","address":"Glinik 118G","residential":true,"residents_est":12,"h3_10":"8a1e2e61a8f7fff","h3_11":"8b1e2e61a8f0fff"},"geometry":{"type":"Polygon","coordinates":[[[20.122242,50.105526],[20.122306,50.10547],[20.122466,50.105545],[20.122402,50.105601],[20.122242,50.105526]]]}},{"type":"Feature","id":"w1075692798","properties":{"type":"residential","address":"Glinik 118F","residential":true,"residents_est":12,"h3_10":"8a1e2e61a8f7fff","h3_11":"8b1e2e61a8f0fff"},"geometry":{"type":"Polygon","coordinates":[[[20.122402,50.105601],[20.122466,50.105545],[20.122626,50.105621],[20.122562,50.105677],[20.122402,50.105601]]]}},{"type":"Feature","id":"w1165114711","properties":{"type":"yes","residential":true,"residents_est":6,"h3_10":"8a1e2e61a92ffff","h3_11":"8b1e2e61a929fff"},"geometry":{"type":"Polygon","coordinates":[[[20.121344,50.111171],[20.12136,50.111026],[20.121537,50.111034],[20.121529,50.111109],[20.121568,50.111111],[20.121561,50.111181],[20.121344,50.111171]]]}},{"type":"Feature","id":"w1165114713","properties":{"type":"yes","address":"Glinik 152C","residential":true,"residents_est":4,"h3_10":"8a1e2e61a827fff","h3_11":"8b1e2e61a825fff"},"geometry":{"type":"Polygon","coordinates":[[[20.121986,50.109086],[20.121994,50.108945],[20.122131,50.108948],[20.122122,50.109089],[20.121986,50.109086]]]}},{"type":"Feature","id":"w1166315274","properties":{"type":"yes","residential":true,"residents_est":5,"h3_10":"8a1e2e61a987fff","h3_11":"8b1e2e61a986fff"},"geometry":{"type":"Polygon","coordinates":[[[20.116143,50.107712],[20.116363,50.107665],[20.116411,50.107758],[20.116191,50.107805],[20.116143,50.107712]]]}},{"type":"Feature","id":"w1166315275","properties":{"type":"yes","residential":true,"residents_est":4,"h3_10":"8a1e2e61a987fff","h3_11":"8b1e2e61a980fff"},"geometry":{"type":"Polygon","coordinates":[[[20.116834,50.107554],[20.11705,50.107514],[20.117088,50.107599],[20.116872,50.107638],[20.116834,50.107554]]]}},{"type":"Feature","id":"w1235310309","properties":{"type":"yes","residential":true,"residents_est":2,"h3_10":"8a1e2e61a837fff","h3_11":"8b1e2e61a833fff"},"geometry":{"type":"Polygon","coordinates":[[[20.120153,50.107824],[20.120158,50.107718],[20.120241,50.10772],[20.120236,50.107825],[20.120153,50.107824]]]}},{"type":"Feature","id":"w1286909514","properties":{"type":"yes","residential":true,"residents_est":2,"h3_10":"8a1e2e61a9a7fff","h3_11":"8b1e2e61a9a3fff"},"geometry":{"type":"Polygon","coordinates":[[[20.116862,50.108581],[20.116892,50.108512],[20.116999,50.108531],[20.11697,50.1086],[20.116862,50.108581]]]}},{"type":"Feature","id":"w1286909515","properties":{"type":"yes","residential":false,"residents_est":0,"h3_10":"8a1e2e61a9a7fff","h3_11":"8b1e2e61a9a3fff"},"geometry":{"type":"Polygon","coordinates":[[[20.117056,50.108539],[20.117077,50.108486],[20.117162,50.108499],[20.117141,50.108553],[20.117056,50.108539]]]}},{"type":"Feature","id":"w1286909517","properties":{"type":"yes","residential":false,"residents_est":0,"h3_10":"8a1e2e61a997fff","h3_11":"8b1e2e61a990fff"},"geometry":{"type":"Polygon","coordinates":[[[20.115272,50.106818],[20.115355,50.106796],[20.115383,50.106839],[20.1153,50.106862],[20.115272,50.106818]]]}},{"type":"Feature","id":"w1286909518","properties":{"type":"yes","residential":false,"residents_est":0,"h3_10":"8a1e2e61a997fff","h3_11":"8b1e2e61a993fff"},"geometry":{"type":"Polygon","coordinates":[[[20.115461,50.106632],[20.115507,50.10662],[20.115537,50.106665],[20.115491,50.106677],[20.115461,50.106632]]]}},{"type":"Feature","id":"w1286909519","properties":{"type":"yes","residential":true,"residents_est":1,"h3_10":"8a1e2e61a997fff","h3_11":"8b1e2e61a993fff"},"geometry":{"type":"Polygon","coordinates":[[[20.115371,50.106649],[20.115457,50.106625],[20.115491,50.106677],[20.115405,50.106701],[20.115371,50.106649]]]}},{"type":"Feature","id":"w1332416575","properties":{"type":"yes","residential":false,"residents_est":0,"h3_10":"8a1e2e61a8f7fff","h3_11":"8b1e2e61a8f0fff"},"geometry":{"type":"Polygon","coordinates":[[[20.122353,50.105328],[20.122402,50.105284],[20.122439,50.1053],[20.122387,50.105344],[20.122353,50.105328]]]}},{"type":"Feature","id":"w1332416576","properties":{"type":"house","levels":2.0,"address":"Glinik 118b","residential":true,"residents_est":5,"h3_10":"8a1e2e61a8f7fff","h3_11":"8b1e2e61a8f0fff"},"geometry":{"type":"Polygon","coordinates":[[[20.122467,50.105423],[20.12254,50.105357],[20.122656,50.105409],[20.122583,50.105475],[20.122467,50.105423]]]}},{"type":"Feature","id":"w1332499163","properties":{"type":"yes","residential":false,"residents_est":0,"h3_10":"8a1e2e61a92ffff","h3_11":"8b1e2e61a92dfff"},"geometry":{"type":"Polygon","coordinates":[[[20.120994,50.111224],[20.120998,50.111168],[20.121027,50.111169],[20.121028,50.111157],[20.121055,50.111158],[20.12105,50.111226],[20.120994,50.111224]]]}}]}