{"type":"FeatureCollection","features":[{"type":"Feature","id":"w214820083","properties":{"type":"yes","residential":true,"residents_est":18,"h3_10":"8a1e2e6ad917fff","h3_11":"8b1e2e6ad916fff"},"geometry":{"type":"Polygon","coordinates":[[[20.082515,50.109327],[20.082549,50.109254],[20.082696,50.109277],[20.082694,50.109283],[20.082736,50.109291],[20.082725,50.109314],[20.082735,50.109323],[20.082725,50.109344],[20.082709,50.109347],[20.082698,50.10937],[20.082598,50.109357],[20.082601,50.109352],[20.082558,50.109343],[20.082561,50.109336],[20.082515,50.109327]]]}},{"type":"Feature","id":"w214820092","properties":{"type":"house","levels":2.0,"address":"Pruska 5","residential":true,"residents_est":40,"h3_10":"8a1e2e6ad917fff","h3_11":"8b1e2e6ad914fff"},"geometry":{"type":"Polygon","coordinates":[[[20.082668,50.109894],[20.082697,50.109779],[20.082851,50.109793],[20.082822,50.109909],[20.082668,50.109894]]]}},{"type":"Feature","id":"w214820104","properties":{"type":"yes","levels":1.0,"residential":true,"residents_est":22,"h3_10":"8a1e2e6ad937fff","h3_11":"8b1e2e6ad933fff"},"geometry":{"type":"Polygon","coordinates":[[[20.082802,50.110394],[20.08281,50.110278],[20.083159,50.110288],[20.083152,50.110404],[20.082802,50.110394]]]}},{"type":"Feature","id":"w214820126","properties":{"type":"yes","address":"Kocmyrzowska 162","residential":true,"residents_est":13,"h3_10":"8a1e2e6ad937fff","h3_11":"8b1e2e6ad936fff"},"geometry":{"type":"Polygon","coordinates":[[[20.082206,50.110359],[20.082323,50.110354],[20.082328,50.110395],[20.082362,50.110393],[20.082365,50.110421],[20.082329,50.110422],[20.082332,50.11045],[20.082217,50.110456],[20.082206,50.110359]]]}},{"type":"Feature","id":"w214820132","properties":{"type":"yes","residential":true,"residents_est":7,"h3_10":"8a1e2e6ad9a7fff","h3_11":"8b1e2e6ad9a6fff"},"geometry":{"type":"Polygon","coordinates":[[[20.081087,50.108843],[20.081133,50.108743],[20.081191,50.108754],[20.081146,50.108854],[20.081087,50.108843]]]}},{"type":"Feature","id":"w214820149","properties":{"type":"yes","address":"Pruska 30","residential":true,"residents_est":14,"h3_10":"8a1e2e6ad917fff","h3_11":"8b1e2e6ad916fff"},"geometry":{"type":"Polygon","coordinates":[[[20.082158,50.109468],[20.082196,50.109385],[20.082332,50.10941],[20.082295,50.109494],[20.082158,50.109468]]]}},{"type":"Feature","id":"w214820158","properties":{"type":"yes","address":"Sybiraków 1","residential":true,"residents_est":83,"h3_10":"8a1e2e6ad91ffff","h3_11":"8b1e2e6ad91dfff"},"geometry":{"type":"Polygon","coordinates":[[[20.085205,50.109291],[20.085219,50.109175],[20.085543,50.109192],[20.085528,50.109309],[20.085205,50.109291]]]}},{"type":"Feature","id":"w214820177","properties":{"type":"yes","address":"Kocmyrzowska 168","residential":true,"residents_est":13,"h3_10":"8a1e2e6ad937fff","h3_11":"8b1e2e6ad930fff"},"geometry":{"type":"Polygon","coordinates":[[[20.082711,50.110645],[20.082713,50.110554],[20.082842,50.110554],[20.082841,50.110646],[20.082711,50.110645]]]}},{"type":"Feature","id":"w214820180","properties":{"type":"yes","levels":1.0,"address":"Pruska 24","residential":true,"residents_est":7,"h3_10":"8a1e2e6ad9a7fff","h3_11":"8b1e2e6ad9a4fff"},"geometry":{"type":"Polygon","coordinates":[[[20.081205,50.109024],[20.081248,50.10894],[20.081394,50.108972],[20.08135,50.109055],[20.081205,50.109024]]]}},{"type":"Feature","id":"w214820182","properties":{"type":"yes","residential":true,"residents_est":7,"h3_10":"8a1e2e6ad927fff","h3_11":"8b1e2e6ad926fff"},"geometry":{"type":"Polygon","coordinates":[[[20.083109,50.111203],[20.083135,50.111153],[20.083247,50.111176],[20.083222,50.111227],[20.083109,50.111203]]]}},{"type":"Feature","id":"w214820189","properties":{"type":"yes","residential":true,"residents_est":8,"h3_10":"8a1e2e6ad9a7fff","h3_11":"8b1e2e6ad9a4fff"},"geometry":{"type":"Polygon","coordinates":[[[20.081071,50.109107],[20.0811,50.109054],[20.081217,50.10908],[20.081188,50.109133],[20.081071,50.109107]]]}},{"type":"Feature","id":"w214820194","properties":{"type":"yes","residential":true,"residents_est":11,"h3_10":"8a1e2e6ad917fff","h3_11":"8b1e2e6ad912fff"},"geometry":{"type":"Polygon","coordinates":[[[20.082297,50.109172],[20.08233,50.109103],[20.082463,50.109128],[20.082432,50.109198],[20.082297,50.109172]]]}},{"type":"Feature","id":"w214820205","properties":{"type":"outbuilding","levels":1.0,"residential":false,"residents_est":0,"h3_10":"8a1e2e6ad937fff","h3_11":"8b1e2e6ad932fff"},"geometry":{"type":"Polygon","coordinates":[[[20.082545,50.110333],[20.08255,50.110249],[20.082667,50.110251],[20.082662,50.110337],[20.082545,50.110333]]]}},{"type":"Feature","id":"w214820214","properties":{"type":"yes","residential":true,"residents_est":27,"h3_10":"8a1e2e6ad937fff","h3_11":"8b1e2e6ad935fff"},"geometry":{"type":"Polygon","coordinates":[[[20.082895,50.110743],[20.082896,50.110679],[20.083284,50.110682],[20.083283,50.110747],[20.082895,50.110743]]]}},{"type":"Feature","id":"w214820216","properties":{"type":"yes","address":"Pruska 26","residential":true,"residents_est":16,"h3_10":"8a1e2e6ad9a7fff","h3_11":"8b1e2e6ad9a4fff"},"geometry":{"type":"Polygon","coordinates":[[[20.081533,50.108998],[20.081575,50.108909],[20.081727,50.10894],[20.081684,50.109028],[20.081533,50.108998]]]}},{"type":"Feature","id":"w214820219","properties":{"type":"yes","address":"Szewska 6","residential":true,"residents_est":15,"h3_10":"8a1e2e6ad927fff","h3_11":"8b1e2e6ad926fff"},"geometry":{"type":"Polygon","coordinates":[[[20.083348,50.111291],[20.083394,50.111198],[20.083524,50.111224],[20.083478,50.111317],[20.083348,50.111291]]]}},{"type":"Feature","id":"w214820229","properties":{"type":"house","levels":1.0,"address":"Kocmyrzowska 158","residential":true,"residents_est":17,"h3_10":"8a1e2e6ad937fff","h3_11":"8b1e2e6ad932fff"},"geometry":{"type":"Polygon","coordinates":[[[20.082105,50.110234],[20.082113,50.110121],[20.082243,50.110126],[20.08224,50.110167],[20.082265,50.110168],[20.082263,50.110194],[20.082238,50.110193],[20.082234,50.110238],[20.082105,50.110234]]]}},{"type":"Feature","id":"w214820232","properties":{"type":"yes","address":"Pruska 22","residential":true,"residents_est":19,"h3_10":"8a1e2e6ad9a7fff","h3_11":"8b1e2e6ad9a6fff"},"geometry":{"type":"Polygon","coordinates":[[[20.080657,50.108722],[20.080698,50.10864],[20.080876,50.108677],[20.080856,50.108715],[20.080881,50.10872],[20.080862,50.10876],[20.080657,50.108722]]]}},{"type":"Feature","id":"w214820251","properties":{"type":"yes","residential":true,"residents_est":28,"h3_10":"8a1e2e6ad927fff","h3_11":"8b1e2e6ad926fff"},"geometry":{"type":"Polygon","coordinates":[[[20.083597,50.111381],[20.083618,50.111341],[20.083632,50.111344],[20.083701,50.11121],[20.083832,50.111238],[20.083742,50.111412],[20.083597,50.111381]]]}},{"type":"Feature","id":"w214820258","properties":{"type":"yes","address":"Kocmyrzowska 166","residential":true,"residents_est":26,"h3_10":"8a1e2e6ad937fff","h3_11":"8b1e2e6ad931fff"},"geometry":{"type":"Polygon","coordinates":[[[20.083496,50.110419],[20.083505,50.110306],[20.083578,50.110308],[20.083578,50.110317],[20.083668,50.110319],[20.083669,50.110311],[20.083743,50.110313],[20.083736,50.11041],[20.083572,50.110405],[20.08357,50.110422],[20.083496,50.110419]]]}},{"type":"Feature","id":"w214820260","properties":{"type":"yes","address":"Szewska 10","residential":true,"residents_est":7,"h3_10":"8a1e2e6ad927fff","h3_11":"8b1e2e6ad925fff"},"geometry":{"type":"Polygon","coordinates":[[[20.084488,50.111526],[20.084518,50.111472],[20.084619,50.111495],[20.08459,50.111549],[20.084488,50.111526]]]}},{"type":"Feature","id":"w214820279","properties":{"type":"yes","residential":true,"residents_est":12,"h3_10":"8a1e2e6ad927fff","h3_11":"8b1e2e6ad925fff"},"geometry":{"type":"Polygon","coordinates":[[[20.08466,50.111543],[20.084702,50.111492],[20.084839,50.11154],[20.084767,50.111624],[20.084708,50.111603],[20.084736,50.11157],[20.08466,50.111543]]]}},{"type":"Feature","id":"w337987710","properties":{"type":"yes","residential":true,"residents_est":15,"h3_10":"8a1e2e6ad9b7fff","h3_11":"8b1e2e6ad9b5fff"},"geometry":{"type":"Polygon","coordinates":[[[20.080518,50.108192],[20.080539,50.108146],[20.080548,50.108147],[20.080566,50.108107],[20.0807,50.108132],[20.08066,50.108219],[20.080624,50.108212],[20.080617,50.108228],[20.080568,50.108219],[20.080575,50.108203],[20.080518,50.108192]]]}},{"type":"Feature","id":"w337987819","properties":{"type":"yes","residential":true,"residents_est":14,"h3_10":"8a1e2e6ad9b7fff","h3_11":"8b1e2e6ad9b1fff"},"geometry":{"type":"Polygon","coordinates":[[[20.080766,50.107804],[20.080789,50.107753],[20.080801,50.107755],[20.080824,50.107716],[20.080939,50.107738],[20.080896,50.107829],[20.080766,50.107804]]]}},{"type":"Feature","id":"w337988156","properties":{"type":"yes","residential":true,"residents_est":13,"h3_10":"8a1e2e6ad937fff","h3_11":"8b1e2e6ad932fff"},"geometry":{"type":"Polygon","coordinates":[[[20.082447,50.110144],[20.082462,50.110033],[20.082571,50.110038],[20.082557,50.11015],[20.082447,50.110144]]]}},{"type":"Feature","id":"w337988182","properties":{"type":"outbuilding","levels":1.0,"residential":false,"residents_est":0,"h3_10":"8a1e2e6ad917fff","h3_11":"8b1e2e6ad914fff"},"geometry":{"type":"Polygon","coordinates":[[[20.082813,50.109927],[20.082832,50.109874],[20.082879,50.109879],[20.08288,50.109873],[20.083059,50.109894],[20.083043,50.109952],[20.082813,50.109927]]]}},{"type":"Feature","id":"w337988208","properties":{"type":"yes","residential":true,"residents_est":11,"h3_10":"8a1e2e6ad92ffff","h3_11":"8b1e2e6ad92cfff"},"geometry":{"type":"Polygon","coordinates":[[[20.085281,50.111181],[20.085292,50.111125],[20.085415,50.111134],[20.085404,50.111191],[20.085281,50.111181]]]}},{"type":"Feature","id":"w337988231","properties":{"type":"yes","residential":true,"residents_est":14,"h3_10":"8a1e2e6ad9a7fff","h3_11":"8b1e2e6ad9a5fff"},"geometry":{"type":"Polygon","coordinates":[[[20.081716,50.109109],[20.08174,50.109058],[20.081754,50.109061],[20.08177,50.109026],[20.081783,50.109029],[20.0818,50.108994],[20.08188,50.109011],[20.081823,50.10913],[20.081716,50.109109]]]}},{"type":"Feature","id":"w337988406","properties":{"type":"yes","residential":true,"residents_est":17,"h3_10":"8a1e2e6ad9b7fff","h3_11":"8b1e2e6ad9b1fff"},"geometry":{"type":"Polygon","coordinates":[[[20.080798,50.108013],[20.080823,50.107957],[20.080646,50.107924],[20.080605,50.108012],[20.080738,50.108039],[20.080756,50.108005],[20.080798,50.108013]]]}},{"type":"Feature","id":"w337988480","properties":{"type":"yes","residential":true,"residents_est":13,"h3_10":"8a1e2e6ad917fff","h3_11":"8b1e2e6ad910fff"},"geometry":{"type":"Polygon","coordinates":[[[20.083286,50.109326],[20.083319,50.109249],[20.083464,50.109274],[20.083431,50.109352],[20.083286,50.109326]]]}},{"type":"Feature","id":"w337988546","properties":{"type":"yes","residential":false,"residents_est":0,"h3_10":"8a1e2e6ad937fff","h3_11":"8b1e2e6ad930fff"},"geometry":{"type":"Polygon","coordinates":[[[20.083034,50.110508],[20.083122,50.110508],[20.083123,50.11056],[20.083034,50.11056],[20.083034,50.110508]]]}},{"type":"Feature","id":"w337988757","properties":{"type":"yes","residential":false,"residents_est":0,"h3_10":"8a1e2e6ad9b7fff","h3_11":"8b1e2e6ad9b3fff"},"geometry":{"type":"Polygon","coordinates":[[[20.08064,50.107613],[20.080661,50.107569],[20.080738,50.107584],[20.080717,50.107627],[20.08064,50.107613]]]}},{"type":"Feature","id":"w337988834","properties":{"type":"yes","residential":true,"residents_est":9,"h3_10":"8a1e2e6ad917fff","h3_11":"8b1e2e6ad910fff"},"geometry":{"type":"Polygon","coordinates":[[[20.083026,50.10944],[20.083063,50.109357],[20.083158,50.109373],[20.083122,50.109455],[20.083026,50.10944]]]}},{"type":"Feature","id":"w337988946","properties":{"type":"yes","residential":true,"residents_est":15,"h3_10":"8a1e2e6ad9b7fff","h3_11":"8b1e2e6ad9b5fff"},"geometry":{"type":"Polygon","coordinates":[[[20.080418,50.108425],[20.080458,50.108343],[20.080623,50.108376],[20.080595,50.108434],[20.080556,50.108426],[20.080544,50.10845],[20.080418,50.108425]]]}},{"type":"Feature","id":"w337989028","properties":{"type":"yes","residential":true,"residents_est":31,"h3_10":"8a1e2e6ad917fff","h3_11":"8b1e2e6ad910fff"},"geometry":{"type":"Polygon","coordinates":[[[20.083075,50.109561],[20.083117,50.109456],[20.083301,50.109482],[20.083309,50.109458],[20.083366,50.109466],[20.083321,50.109596],[20.083075,50.109561]]]}},{"type":"Feature","id":"w337989057","properties":{"type":"house","levels":1.0,"residential":true,"residents_est":12,"h3_10":"8a1e2e6ad9a7fff","h3_11":"8b1e2e6ad9a6fff"},"geometry":{"type":"Polygon","coordinates":[[[20.080792,50.108566],[20.080828,50.108489],[20.080956,50.108514],[20.080919,50.108591],[20.080792,50.108566]]]}},{"type":"Feature","id":"w337989093","properties":{"type":"yes","residential":true,"residents_est":19,"h3_10":"8a1e2e6ad997fff","h3_11":"8b1e2e6ad995fff"},"geometry":{"type":"Polygon","coordinates":[[[20.080821,50.107359],[20.080848,50.107306],[20.080858,50.107308],[20.080881,50.107261],[20.080872,50.107256],[20.081021,50.107286],[20.08097,50.107389],[20.080904,50.107376],[20.080895,50.107394],[20.080825,50.10738],[20.080834,50.107362],[20.080821,50.107359]]]}},{"type":"Feature","id":"w337989116","properties":{"type":"yes","residential":true,"residents_est":15,"h3_10":"8a1e2e6ad987fff","h3_11":"8b1e2e6ad986fff"},"geometry":{"type":"Polygon","coordinates":[[[20.080826,50.107591],[20.08087,50.1075],[20.081007,50.107527],[20.080962,50.107617],[20.080826,50.107591]]]}},{"type":"Feature","id":"w706306674","properties":{"type":"yes","residential":true,"residents_est":9,"h3_10":"8a1e2e6ad91ffff","h3_11":"8b1e2e6ad919fff"},"geometry":{"type":"Polygon","coordinates":[[[20.085735,50.109147],[20.085741,50.109101],[20.085922,50.10911],[20.085915,50.109156],[20.085735,50.109147]]]}},{"type":"Feature","id":"w706306675","properties":{"type":"yes","residential":false,"residents_est":0,"h3_10":"8a1e2e6ad917fff","h3_11":"8b1e2e6ad910fff"},"geometry":{"type":"Polygon","coordinates":[[[20.082985,50.109257],[20.082999,50.109218],[20.083066,50.109229],[20.083052,50.109267],[20.082985,50.109257]]]}},{"type":"Feature","id":"w706306676","properties":{"type":"yes","residential":true,"residents_est":10,"h3_10":"8a1e2e6ad917fff","h3_11":"8b1e2e6ad913fff"},"geometry":{"type":"Polygon","coordinates":[[[20.083158,50.109128],[20.08319,50.109053],[20.083309,50.109074],[20.083278,50.109149],[20.083158,50.109128]]]}},{"type":"Feature","id":"w706306677","properties":{"type":"yes","residential":true,"residents_est":12,"h3_10":"8a1e2e6ad917fff","h3_11":"8b1e2e6ad913fff"},"geometry":{"type":"Polygon","coordinates":[[[20.083392,50.108982],[20.083429,50.108895],[20.083539,50.108914],[20.083509,50.109003],[20.083392,50.108982]]]}},{"type":"Feature","id":"w706306678","properties":{"type":"yes","residential":true,"residents_est":21,"h3_10":"8a1e2e6ad9affff","h3_11":"8b1e2e6ad9acfff"},"geometry":{"type":"Polygon","coordinates":[[[20.082772,50.108902],[20.082788,50.10887],[20.082779,50.108868],[20.082796,50.108833],[20.082777,50.108829],[20.082803,50.108774],[20.082889,50.108787],[20.082895,50.108793],[20.082952,50.108804],[20.082927,50.108855],[20.082947,50.10886],[20.082956,50.108855],[20.082934,50.108899],[20.082901,50.108893],[20.082885,50.108925],[20.082772,50.108902]]]}},{"type":"Feature","id":"w706306679","properties":{"type":"yes","residential":true,"residents_est":21,"h3_10":"8a1e2e6ad9a7fff","h3_11":"8b1e2e6ad9a5fff"},"geometry":{"type":"Polygon","coordinates":[[[20.081951,50.109032],[20.08203,50.108875],[20.082138,50.108897],[20.082119,50.108934],[20.082133,50.108937],[20.082118,50.10897],[20.082104,50.108967],[20.08206,50.109054],[20.081951,50.109032]]]}},{"type":"Feature","id":"w706306688","properties":{"type":"house","levels":2.0,"address":"Luborzycka 56P","residential":true,"residents_est":33,"h3_10":"8a1e2e6ad997fff","h3_11":"8b1e2e6ad992fff"},"geometry":{"type":"Polygon","coordinates":[[[20.080019,50.106448],[20.080074,50.106328],[20.080191,50.106353],[20.080127,50.10647],[20.080019,50.106448]]]}},{"type":"Feature","id":"w706380040","properties":{"type":"yes","residential":true,"residents_est":14,"h3_10":"8a1e2e6ad9b7fff","h3_11":"8b1e2e6ad9b0fff"},"geometry":{"type":"Polygon","coordinates":[[[20.080084,50.107999],[20.080121,50.107925],[20.080244,50.107949],[20.080238,50.107961],[20.080273,50.107968],[20.080281,50.107984],[20.080275,50.107997],[20.080258,50.108002],[20.080245,50.108031],[20.080084,50.107999]]]}},{"type":"Feature","id":"w725205332","properties":{"type":"yes","residential":false,"residents_est":0,"h3_10":"8a1e2e6ad9b7fff","h3_11":"8b1e2e6ad9b1fff"},"geometry":{"type":"Polygon","coordinates":[[[20.080757,50.10783],[20.080769,50.107805],[20.080846,50.10782],[20.080834,50.107845],[20.080757,50.10783]]]}},{"type":"Feature","id":"w725205333","properties":{"type":"yes","residential":true,"residents_est":9,"h3_10":"8a1e2e6ad987fff","h3_11":"8b1e2e6ad986fff"},"geometry":{"type":"Polygon","coordinates":[[[20.08097,50.107602],[20.081007,50.107527],[20.081109,50.107548],[20.081073,50.107622],[20.08097,50.107602]]]}},{"type":"Feature","id":"w1047828452","properties":{"type":"detached","levels":2.0,"residential":true,"residents_est":21,"h3_10":"8a1e2e6ad967fff","h3_11":"8b1e2e6ad960fff"},"geometry":{"type":"Polygon","coordinates":[[[20.089172,50.11116],[20.089179,50.111065],[20.089278,50.111068],[20.089271,50.111163],[20.089172,50.11116]]]}},{"type":"Feature","id":"w1075838026","properties":{"type":"yes","residential":true,"residents_est":16,"h3_10":"8a1e2e6ad9a7fff","h3_11":"8b1e2e6ad9a1fff"},"geometry":{"type":"Polygon","coordinates":[[[20.082468,50.108847],[20.082506,50.108744],[20.082535,50.108748],[20.08254,50.108733],[20.082602,50.108743],[20.082596,50.108759],[20.082633,50.108765],[20.082595,50.108866],[20.082468,50.108847]]]}},{"type":"Feature","id":"w1395689168","properties":{"type":"outbuilding","levels":1.0,"residential":false,"residents_est":0,"h3_10":"8a1e2e6ad9a7fff","h3_11":"8b1e2e6ad9a6fff"},"geometry":{"type":"Polygon","coordinates":[[[20.080883,50.108646],[20.08091,50.108589],[20.080919,50.108591],[20.080945,50.108536],[20.081016,50.108551],[20.080963,50.108662],[20.080883,50.108646]]]}},{"type":"Feature","id":"w1395689169","properties":{"type":"yes","residential":true,"residents_est":17,"h3_10":"8a1e2e6ad937fff","h3_11":"8b1e2e6ad930fff"},"geometry":{"type":"Polygon","coordinates":[[[20.082658,50.11039],[20.082666,50.110282],[20.082809,50.110286],[20.082802,50.110394],[20.082658,50.11039]]]}},{"type":"Feature","id":"w1395689170","properties":{"type":"outbuilding","levels":1.0,"residential":false,"residents_est":0,"h3_10":"8a1e2e6ad937fff","h3_11":"8b1e2e6ad931fff"},"geometry":{"type":"Polygon","coordinates":[[[20.083209,50.110399],[20.083215,50.110297],[20.083312,50.110301],[20.083306,50.110405],[20.083209,50.110399]]]}},{"type":"Feature","id":"w1395689171","properties":{"type":"outbuilding","levels":1.0,"residential":false,"residents_est":0,"h3_10":"8a1e2e6ad937fff","h3_11":"8b1e2e6ad933fff"},"geometry":{"type":"Polygon","coordinates":[[[20.083152,50.110398],[20.083159,50.110288],[20.083202,50.110289],[20.083201,50.110311],[20.083215,50.110311],[20.083209,50.110399],[20.083152,50.110398]]]}},{"type":"Feature","id":"w1559357992","properties":{"type":"garage","levels":1.0,"residential":false,"residents_est":0,"h3_10":"8a1e2e6ad997fff","h3_11":"8b1e2e6ad992fff"},"geometry":{"type":"Polygon","coordinates":[[[20.079769,50.106448],[20.079789,50.106401],[20.07988,50.106417],[20.079859,50.106464],[20.079769,50.106448]]]}},{"type":"Feature","id":"w1559357993","properties":{"type":"garage","levels":1.0,"residential":false,"residents_est":0,"h3_10":"8a1e2e6ad997fff","h3_11":"8b1e2e6ad992fff"},"geometry":{"type":"Polygon","coordinates":[[[20.080155,50.106521],[20.080178,50.106475],[20.080261,50.106492],[20.080239,50.106538],[20.080155,50.106521]]]}}]}