{"type":"FeatureCollection","features":[{"type":"Feature","id":"w301414565","properties":{"type":"yes","levels":1.0,"residential":true,"residents_est":0,"h3_10":"8a1e05a65b37fff","h3_11":"8b1e05a65b32fff"},"geometry":{"type":"Polygon","coordinates":[[[19.883627,49.999037],[19.883776,49.999035],[19.883778,49.999133],[19.883629,49.999134],[19.883627,49.999037]]]}},{"type":"Feature","id":"w301414570","properties":{"type":"yes","residential":true,"residents_est":1,"h3_10":"8a1e05a65b37fff","h3_11":"8b1e05a65b32fff"},"geometry":{"type":"Polygon","coordinates":[[[19.883597,49.998943],[19.88377,49.998941],[19.883771,49.998986],[19.883598,49.998988],[19.883597,49.998943]]]}},{"type":"Feature","id":"w337662308","properties":{"type":"yes","residential":true,"residents_est":2,"h3_10":"8a1e05a65b37fff","h3_11":"8b1e05a65b36fff"},"geometry":{"type":"Polygon","coordinates":[[[19.883518,49.999241],[19.883638,49.999237],[19.883641,49.99928],[19.883523,49.999284],[19.883518,49.999241]]]}},{"type":"Feature","id":"w448090038","properties":{"type":"detached","address":"Spacerowa 59","residential":true,"residents_est":1,"h3_10":"8a1e05a65b17fff","h3_11":"8b1e05a65b14fff"},"geometry":{"type":"Polygon","coordinates":[[[19.884076,49.998507],[19.884238,49.998496],[19.88425,49.998567],[19.884088,49.998578],[19.884076,49.998507]]]}},{"type":"Feature","id":"w448090039","properties":{"type":"detached","address":"Spacerowa 71a","residential":true,"residents_est":2,"h3_10":"8a1e05a65ba7fff","h3_11":"8b1e05a65ba6fff"},"geometry":{"type":"Polygon","coordinates":[[[19.882149,49.997376],[19.882185,49.997375],[19.882198,49.997366],[19.882226,49.997373],[19.882263,49.997372],[19.882274,49.997488],[19.882261,49.997489],[19.882264,49.997518],[19.882174,49.997522],[19.882172,49.997492],[19.882159,49.997492],[19.882149,49.997376]]]}},{"type":"Feature","id":"w586087921","properties":{"type":"apartments","residential":true,"residents_est":31,"h3_10":"8a1e05a65b6ffff","h3_11":"8b1e05a65b6dfff"},"geometry":{"type":"Polygon","coordinates":[[[19.892486,50.000303],[19.892657,50.000279],[19.892665,50.0003],[19.892688,50.000297],[19.893061,50.000081],[19.893244,50.00008],[19.89328,50.000106],[19.892574,50.000515],[19.892553,50.0005],[19.892486,50.000303]]]}},{"type":"Feature","id":"w590996499","properties":{"type":"detached","address":"Spacerowa 53","residential":true,"residents_est":2,"h3_10":"8a1e05a65b17fff","h3_11":"8b1e05a65b15fff"},"geometry":{"type":"Polygon","coordinates":[[[19.885069,49.998729],[19.885126,49.998722],[19.885121,49.998705],[19.88524,49.99869],[19.885269,49.998786],[19.885092,49.998808],[19.885069,49.998729]]]}},{"type":"Feature","id":"w595748333","properties":{"type":"semidetached_house","address":"Komuny Paryskiej 86","residential":true,"residents_est":2,"h3_10":"8a1e05a65b67fff","h3_11":"8b1e05a65b64fff"},"geometry":{"type":"Polygon","coordinates":[[[19.889989,50.000518],[19.890122,50.000499],[19.890154,50.000591],[19.890168,50.000589],[19.890183,50.000632],[19.89007,50.000648],[19.890067,50.00064],[19.890033,50.000645],[19.889989,50.000518]]]}},{"type":"Feature","id":"w595748334","properties":{"type":"semidetached_house","address":"Komuny Paryskiej 80","residential":true,"residents_est":2,"h3_10":"8a1e05a65b67fff","h3_11":"8b1e05a65b64fff"},"geometry":{"type":"Polygon","coordinates":[[[19.890269,50.000478],[19.890401,50.000459],[19.890445,50.000586],[19.890411,50.000591],[19.890414,50.000599],[19.890315,50.000613],[19.890307,50.000589],[19.890292,50.000591],[19.890277,50.000548],[19.890292,50.000546],[19.890269,50.000478]]]}},{"type":"Feature","id":"w595748335","properties":{"type":"semidetached_house","address":"Komuny Paryskiej 78","residential":true,"residents_est":2,"h3_10":"8a1e05a65b67fff","h3_11":"8b1e05a65b64fff"},"geometry":{"type":"Polygon","coordinates":[[[19.890425,50.000456],[19.890558,50.000437],[19.89059,50.000528],[19.890604,50.000526],[19.890619,50.000569],[19.890506,50.000586],[19.890503,50.000578],[19.890469,50.000582],[19.890425,50.000456]]]}},{"type":"Feature","id":"w595748336","properties":{"type":"semidetached_house","address":"Komuny Paryskiej 72","residential":true,"residents_est":2,"h3_10":"8a1e05a65b67fff","h3_11":"8b1e05a65b65fff"},"geometry":{"type":"Polygon","coordinates":[[[19.890703,50.000415],[19.890836,50.000397],[19.89088,50.000524],[19.890847,50.000528],[19.890851,50.000537],[19.890749,50.000551],[19.890742,50.000527],[19.890726,50.00053],[19.890712,50.000485],[19.890727,50.000482],[19.890703,50.000415]]]}},{"type":"Feature","id":"w595748337","properties":{"type":"semidetached_house","address":"Komuny Paryskiej 70","residential":true,"residents_est":2,"h3_10":"8a1e05a65b67fff","h3_11":"8b1e05a65b65fff"},"geometry":{"type":"Polygon","coordinates":[[[19.890861,50.000393],[19.890993,50.000374],[19.891025,50.000465],[19.891039,50.000463],[19.891054,50.000507],[19.890942,50.000523],[19.890939,50.000515],[19.890905,50.00052],[19.890861,50.000393]]]}},{"type":"Feature","id":"w595748658","properties":{"type":"yes","residential":false,"residents_est":0,"h3_10":"8a1e05a65b67fff","h3_11":"8b1e05a65b65fff"},"geometry":{"type":"Polygon","coordinates":[[[19.89076,50.000592],[19.890801,50.000587],[19.89082,50.000641],[19.890779,50.000647],[19.89076,50.000592]]]}},{"type":"Feature","id":"w595748661","properties":{"type":"yes","residential":false,"residents_est":0,"h3_10":"8a1e05a65b67fff","h3_11":"8b1e05a65b65fff"},"geometry":{"type":"Polygon","coordinates":[[[19.891034,50.000553],[19.891075,50.000547],[19.891094,50.000602],[19.891053,50.000608],[19.891034,50.000553]]]}},{"type":"Feature","id":"w702790590","properties":{"type":"detached","address":"Spacerowa 61B","residential":true,"residents_est":2,"h3_10":"8a1e05a65ba7fff","h3_11":"8b1e05a65ba5fff"},"geometry":{"type":"Polygon","coordinates":[[[19.883586,49.997977],[19.883633,49.997974],[19.883622,49.997911],[19.883733,49.997903],[19.883739,49.997937],[19.883761,49.997935],[19.883768,49.997975],[19.883759,49.997976],[19.883767,49.998027],[19.883597,49.998038],[19.883586,49.997977]]]}},{"type":"Feature","id":"w702790615","properties":{"type":"detached","address":"Spacerowa 55","residential":true,"residents_est":2,"h3_10":"8a1e05a65b17fff","h3_11":"8b1e05a65b15fff"},"geometry":{"type":"Polygon","coordinates":[[[19.884759,49.998767],[19.884952,49.998743],[19.884976,49.998824],[19.884784,49.998848],[19.884759,49.998767]]]}},{"type":"Feature","id":"w702796313","properties":{"type":"yes","residential":false,"residents_est":0,"h3_10":"8a1e05a65b67fff","h3_11":"8b1e05a65b65fff"},"geometry":{"type":"Polygon","coordinates":[[[19.890993,50.000559],[19.891034,50.000553],[19.891053,50.000608],[19.891012,50.000614],[19.890993,50.000559]]]}},{"type":"Feature","id":"w707818653","properties":{"type":"yes","address":"Biskupa Albina Małysiaka 14","residential":true,"residents_est":9,"h3_10":"8a1e05a65b6ffff","h3_11":"8b1e05a65b6afff"},"geometry":{"type":"Polygon","coordinates":[[[19.892102,49.999368],[19.892307,49.999339],[19.892334,49.999414],[19.892312,49.999417],[19.892315,49.999426],[19.892319,49.999436],[19.892339,49.999433],[19.892355,49.99948],[19.89233,49.999484],[19.892343,49.999516],[19.892373,49.999523],[19.892378,49.999549],[19.892405,49.999545],[19.892402,49.999531],[19.892478,49.99952],[19.892523,49.999652],[19.892217,49.999696],[19.892102,49.999368]]]}},{"type":"Feature","id":"w707818654","properties":{"type":"yes","address":"Biskupa Albina Małysiaka 16","residential":true,"residents_est":9,"h3_10":"8a1e05a65b4ffff","h3_11":"8b1e05a65b4cfff"},"geometry":{"type":"Polygon","coordinates":[[[19.891944,49.998906],[19.892249,49.998863],[19.892296,49.998993],[19.892222,49.999004],[19.892217,49.998991],[19.892189,49.998995],[19.892197,49.999019],[19.892177,49.999034],[19.892187,49.999066],[19.892212,49.999063],[19.892228,49.999111],[19.892209,49.999114],[19.892216,49.999132],[19.892235,49.999129],[19.892261,49.999206],[19.892057,49.999234],[19.891944,49.998906]]]}},{"type":"Feature","id":"w724265748","properties":{"type":"detached","address":"Spacerowa 69B","residential":true,"residents_est":3,"h3_10":"8a1e05a65ba7fff","h3_11":"8b1e05a65ba6fff"},"geometry":{"type":"Polygon","coordinates":[[[19.882522,49.997282],[19.88268,49.997261],[19.882697,49.997318],[19.882682,49.997321],[19.882687,49.997341],[19.882812,49.997325],[19.882826,49.997383],[19.882635,49.997409],[19.882621,49.997374],[19.882641,49.99737],[19.882631,49.997329],[19.882542,49.997342],[19.882522,49.997282]]]}},{"type":"Feature","id":"w759383352","properties":{"type":"detached","address":"Spacerowa 61A","residential":true,"residents_est":1,"h3_10":"8a1e05a65b17fff","h3_11":"8b1e05a65b16fff"},"geometry":{"type":"Polygon","coordinates":[[[19.883657,49.998191],[19.883682,49.998189],[19.883674,49.998139],[19.8838,49.998131],[19.883817,49.998237],[19.883666,49.998247],[19.883657,49.998191]]]}},{"type":"Feature","id":"w759383353","properties":{"type":"detached","address":"Spacerowa 61","residential":true,"residents_est":2,"h3_10":"8a1e05a65b17fff","h3_11":"8b1e05a65b16fff"},"geometry":{"type":"Polygon","coordinates":[[[19.883698,49.998361],[19.883744,49.998358],[19.883756,49.998345],[19.883779,49.998343],[19.883796,49.998355],[19.883827,49.998354],[19.883834,49.998396],[19.883849,49.998395],[19.883855,49.998432],[19.88384,49.998433],[19.883845,49.998466],[19.883716,49.998474],[19.883698,49.998361]]]}},{"type":"Feature","id":"w769991345","properties":{"type":"yes","address":"Biskupa Albina Małysiaka 6","residential":true,"residents_est":17,"h3_10":"8a1e05a65b4ffff","h3_11":"8b1e05a65b4dfff"},"geometry":{"type":"Polygon","coordinates":[[[19.892932,49.998944],[19.892936,49.998797],[19.893669,49.998804],[19.893662,49.999145],[19.893446,49.999143],[19.893451,49.998939],[19.893266,49.998937],[19.893266,49.998947],[19.892932,49.998944]]]}},{"type":"Feature","id":"w769991346","properties":{"type":"yes","address":"Biskupa Albina Małysiaka 8","residential":true,"residents_est":5,"h3_10":"8a1e05a65b4ffff","h3_11":"8b1e05a65b4cfff"},"geometry":{"type":"Polygon","coordinates":[[[19.892568,49.998962],[19.892776,49.998932],[19.892841,49.999123],[19.892633,49.999153],[19.892604,49.999068],[19.892626,49.999065],[19.892621,49.999051],[19.8926,49.999054],[19.892568,49.998962]]]}},{"type":"Feature","id":"w769991347","properties":{"type":"yes","address":"Komuny Paryskiej 134","residential":true,"residents_est":5,"h3_10":"8a1e05a65b6ffff","h3_11":"8b1e05a65b68fff"},"geometry":{"type":"Polygon","coordinates":[[[19.89236,49.999816],[19.892566,49.999787],[19.892639,49.999999],[19.892433,50.000028],[19.89236,49.999816]]]}},{"type":"Feature","id":"w769991348","properties":{"type":"yes","address":"Biskupa Albina Małysiaka 2","residential":true,"residents_est":10,"h3_10":"8a1e05a65b6ffff","h3_11":"8b1e05a65b69fff"},"geometry":{"type":"Polygon","coordinates":[[[19.8931,49.999901],[19.893104,49.999763],[19.893426,49.999767],[19.893428,49.999696],[19.893635,49.999698],[19.893629,49.999908],[19.8931,49.999901]]]}},{"type":"Feature","id":"w769991353","properties":{"type":"apartments","address":"Biskupa Albina Małysiaka 24A","residential":true,"residents_est":33,"h3_10":"8a1e05a65b4ffff","h3_11":"8b1e05a65b48fff"},"geometry":{"type":"Polygon","coordinates":[[[19.892351,49.998352],[19.892558,49.998323],[19.892584,49.998395],[19.89257,49.998397],[19.892576,49.998414],[19.89259,49.998412],[19.892621,49.998501],[19.892592,49.998505],[19.892599,49.998523],[19.892791,49.998495],[19.892794,49.998504],[19.892819,49.9985],[19.892816,49.998492],[19.892933,49.998475],[19.89298,49.99861],[19.892467,49.998684],[19.892351,49.998352]]]}},{"type":"Feature","id":"w769991354","properties":{"type":"apartments","address":"Biskupa Albina Małysiaka 24","residential":true,"residents_est":20,"h3_10":"8a1e05a65b4ffff","h3_11":"8b1e05a65b49fff"},"geometry":{"type":"Polygon","coordinates":[[[19.893166,49.998622],[19.893169,49.998484],[19.893684,49.99849],[19.89368,49.998628],[19.893166,49.998622]]]}},{"type":"Feature","id":"w769991355","properties":{"type":"apartments","address":"Biskupa Albina Małysiaka 24C","residential":true,"residents_est":27,"h3_10":"8a1e05a65b4ffff","h3_11":"8b1e05a65b4bfff"},"geometry":{"type":"Polygon","coordinates":[[[19.893162,49.99824],[19.893165,49.998102],[19.893694,49.998108],[19.893687,49.998349],[19.893474,49.998347],[19.893475,49.998295],[19.893491,49.998295],[19.893493,49.998231],[19.893499,49.998227],[19.893462,49.998226],[19.893461,49.998243],[19.893307,49.998242],[19.893308,49.998235],[19.893286,49.998235],[19.893286,49.998241],[19.893162,49.99824]]]}},{"type":"Feature","id":"w769991356","properties":{"type":"apartments","address":"Biskupa Albina Małysiaka 24G","residential":true,"residents_est":8,"h3_10":"8a1e05a65b4ffff","h3_11":"8b1e05a65b4bfff"},"geometry":{"type":"Polygon","coordinates":[[[19.892692,49.998246],[19.892695,49.998108],[19.892908,49.99811],[19.892905,49.998248],[19.892799,49.998247],[19.892799,49.998237],[19.892766,49.998237],[19.892766,49.998247],[19.892692,49.998246]]]}},{"type":"Feature","id":"w769991357","properties":{"type":"apartments","address":"Biskupa Albina Małysiaka 24E","residential":true,"residents_est":45,"h3_10":"8a1e05a65a67fff","h3_11":"8b1e05a65a64fff"},"geometry":{"type":"Polygon","coordinates":[[[19.892171,49.997829],[19.89289,49.997726],[19.892937,49.99786],[19.892816,49.997877],[19.892813,49.997869],[19.8928,49.99787],[19.892788,49.997872],[19.892791,49.997881],[19.892639,49.997903],[19.892636,49.997894],[19.892607,49.997898],[19.892611,49.997907],[19.892436,49.997932],[19.89243,49.997915],[19.892398,49.99792],[19.892408,49.997949],[19.89243,49.997946],[19.892477,49.998083],[19.892447,49.998087],[19.892452,49.998101],[19.892482,49.998097],[19.892513,49.998189],[19.892306,49.998219],[19.892284,49.998157],[19.892256,49.998161],[19.892246,49.998133],[19.892275,49.998129],[19.89225,49.998056],[19.892221,49.998061],[19.892212,49.998034],[19.89224,49.99803],[19.892228,49.997993],[19.892199,49.997997],[19.892188,49.997966],[19.892217,49.997962],[19.892171,49.997829]]]}},{"type":"Feature","id":"w769991358","properties":{"type":"apartments","address":"Biskupa Albina Małysiaka 24D","residential":true,"residents_est":26,"h3_10":"8a1e05a65a67fff","h3_11":"8b1e05a65a65fff"},"geometry":{"type":"Polygon","coordinates":[[[19.893089,49.997697],[19.893604,49.997623],[19.893686,49.997858],[19.893478,49.997888],[19.893459,49.997837],[19.893476,49.997835],[19.893458,49.997785],[19.893464,49.997785],[19.893458,49.997768],[19.893421,49.997773],[19.893427,49.99779],[19.893277,49.997811],[19.893275,49.997805],[19.893254,49.997808],[19.893256,49.997814],[19.893136,49.997831],[19.893089,49.997697]]]}},{"type":"Feature","id":"w769991359","properties":{"type":"apartments","address":"Biskupa Albina Małysiaka 26","residential":true,"residents_est":26,"h3_10":"8a1e05a65a67fff","h3_11":"8b1e05a65a60fff"},"geometry":{"type":"Polygon","coordinates":[[[19.892946,49.997313],[19.893402,49.997248],[19.893473,49.997272],[19.893543,49.997475],[19.893334,49.997505],[19.893316,49.997453],[19.893332,49.997451],[19.893313,49.997396],[19.89332,49.997395],[19.893316,49.997384],[19.893279,49.997389],[19.893285,49.997406],[19.893135,49.997428],[19.893133,49.997422],[19.893112,49.997425],[19.893115,49.997431],[19.892993,49.997448],[19.892946,49.997313]]]}},{"type":"Feature","id":"w769991360","properties":{"type":"apartments","address":"Biskupa Albina Małysiaka 26A","residential":true,"residents_est":27,"h3_10":"8a1e05a65a67fff","h3_11":"8b1e05a65a66fff"},"geometry":{"type":"Polygon","coordinates":[[[19.892183,49.997424],[19.892698,49.99735],[19.892724,49.997424],[19.892739,49.997422],[19.892747,49.997447],[19.892732,49.997449],[19.892745,49.997484],[19.892624,49.997501],[19.892622,49.997495],[19.892601,49.997498],[19.892603,49.997504],[19.892454,49.997526],[19.892448,49.997509],[19.892411,49.997514],[19.892415,49.997526],[19.892421,49.997525],[19.89244,49.99758],[19.892456,49.997578],[19.892474,49.997629],[19.892264,49.997659],[19.89222,49.997531],[19.892204,49.997533],[19.892193,49.997503],[19.892209,49.9975],[19.892183,49.997424]]]}},{"type":"Feature","id":"w769991361","properties":{"type":"apartments","address":"Biskupa Albina Małysiaka 26B","residential":true,"residents_est":27,"h3_10":"8a1e05a65b5ffff","h3_11":"8b1e05a65b5bfff"},"geometry":{"type":"Polygon","coordinates":[[[19.89146,49.997527],[19.891976,49.997453],[19.892023,49.997588],[19.891903,49.997605],[19.891901,49.997599],[19.891879,49.997602],[19.891881,49.997608],[19.891732,49.99763],[19.891726,49.997613],[19.891689,49.997618],[19.891717,49.997684],[19.891734,49.997682],[19.891751,49.997733],[19.891543,49.997763],[19.89146,49.997527]]]}},{"type":"Feature","id":"w769991362","properties":{"type":"apartments","address":"Biskupa Albina Małysiaka 24F","residential":true,"residents_est":24,"h3_10":"8a1e05a65b5ffff","h3_11":"8b1e05a65b59fff"},"geometry":{"type":"Polygon","coordinates":[[[19.891596,49.997913],[19.891804,49.997883],[19.891829,49.997955],[19.891806,49.997958],[19.891813,49.997977],[19.891836,49.997974],[19.891869,49.99807],[19.891856,49.998072],[19.891864,49.998096],[19.891896,49.998091],[19.891891,49.998077],[19.891975,49.998065],[19.892021,49.9982],[19.891711,49.998245],[19.891596,49.997913]]]}},{"type":"Feature","id":"w769991363","properties":{"type":"apartments","address":"Biskupa Albina Małysiaka 24B","residential":true,"residents_est":24,"h3_10":"8a1e05a65b4ffff","h3_11":"8b1e05a65b4efff"},"geometry":{"type":"Polygon","coordinates":[[[19.891777,49.998436],[19.892087,49.998392],[19.892134,49.998526],[19.892064,49.998537],[19.89206,49.998526],[19.892015,49.998532],[19.892021,49.998548],[19.892034,49.998547],[19.892068,49.998645],[19.892055,49.998647],[19.892058,49.998656],[19.892062,49.998666],[19.892075,49.998664],[19.892101,49.998738],[19.891892,49.998768],[19.891777,49.998436]]]}},{"type":"Feature","id":"w769991364","properties":{"type":"yes","address":"Biskupa Albina Małysiaka 10","residential":true,"residents_est":8,"h3_10":"8a1e05a65b6ffff","h3_11":"8b1e05a65b6bfff"},"geometry":{"type":"Polygon","coordinates":[[[19.892676,49.999281],[19.892886,49.999251],[19.893001,49.999584],[19.892795,49.999614],[19.892766,49.999529],[19.892786,49.999527],[19.892783,49.999518],[19.89278,49.999511],[19.892758,49.999514],[19.892715,49.999388],[19.892735,49.999386],[19.892733,49.999379],[19.89273,49.999372],[19.892708,49.999375],[19.892676,49.999281]]]}},{"type":"Feature","id":"w974090155","properties":{"type":"detached","address":"Spacerowa 53A","residential":true,"residents_est":2,"h3_10":"8a1e05a65b07fff","h3_11":"8b1e05a65b06fff"},"geometry":{"type":"Polygon","coordinates":[[[19.885157,49.998938],[19.885207,49.998932],[19.885203,49.998918],[19.88527,49.99891],[19.885274,49.998923],[19.885333,49.998916],[19.885359,49.999004],[19.885266,49.999015],[19.885262,49.999001],[19.885179,49.999012],[19.885157,49.998938]]]}},{"type":"Feature","id":"w1306042271","properties":{"type":"yes","residential":true,"residents_est":4,"h3_10":"8a1e05a65ba7fff","h3_11":"8b1e05a65ba6fff"},"geometry":{"type":"Polygon","coordinates":[[[19.882525,49.997486],[19.882812,49.997453],[19.882838,49.997546],[19.882798,49.997551],[19.882809,49.997589],[19.882562,49.997617],[19.882525,49.997486]]]}},{"type":"Feature","id":"w1306042272","properties":{"type":"detached","address":"Spacerowa 67","residential":true,"residents_est":2,"h3_10":"8a1e05a65ba7fff","h3_11":"8b1e05a65ba4fff"},"geometry":{"type":"Polygon","coordinates":[[[19.882815,49.997858],[19.882985,49.997768],[19.883038,49.997802],[19.883038,49.997811],[19.883069,49.997835],[19.882956,49.997894],[19.882945,49.997886],[19.882889,49.997916],[19.882815,49.997858]]]}},{"type":"Feature","id":"w1337335244","properties":{"type":"service","residential":false,"residents_est":0,"h3_10":"8a1e05a65b4ffff","h3_11":"8b1e05a65b4cfff"},"geometry":{"type":"Polygon","coordinates":[[[19.89264,49.998861],[19.892738,49.998847],[19.892747,49.998873],[19.892649,49.998887],[19.89264,49.998861]]]}},{"type":"Feature","id":"w1337335245","properties":{"type":"service","residential":false,"residents_est":0,"h3_10":"8a1e05a65b4ffff","h3_11":"8b1e05a65b4bfff"},"geometry":{"type":"Polygon","coordinates":[[[19.892958,49.998392],[19.892961,49.998333],[19.892997,49.998333],[19.892994,49.998392],[19.892958,49.998392]]]}},{"type":"Feature","id":"w1425287458","properties":{"type":"house","address":"Spacerowa 61G","residential":true,"residents_est":1,"h3_10":"8a1e05a65ba7fff","h3_11":"8b1e05a65ba3fff"},"geometry":{"type":"Polygon","coordinates":[[[19.88362,49.997042],[19.883683,49.997038],[19.883688,49.997065],[19.883746,49.997061],[19.883759,49.997134],[19.883638,49.997143],[19.88362,49.997042]]]}},{"type":"Feature","id":"w1425287459","properties":{"type":"house","address":"Spacerowa 61F","residential":true,"residents_est":1,"h3_10":"8a1e05a65ba7fff","h3_11":"8b1e05a65ba3fff"},"geometry":{"type":"Polygon","coordinates":[[[19.883496,49.997051],[19.883561,49.997046],[19.883565,49.997073],[19.883624,49.997069],[19.883638,49.997143],[19.883514,49.997152],[19.883496,49.997051]]]}},{"type":"Feature","id":"w1425287460","properties":{"type":"house","address":"Spacerowa 61E","residential":true,"residents_est":1,"h3_10":"8a1e05a65ba7fff","h3_11":"8b1e05a65ba3fff"},"geometry":{"type":"Polygon","coordinates":[[[19.883375,49.997061],[19.88344,49.997056],[19.883445,49.997084],[19.883501,49.997079],[19.883514,49.997152],[19.883393,49.997161],[19.883375,49.997061]]]}},{"type":"Feature","id":"w1425287461","properties":{"type":"house","address":"Spacerowa 61H","residential":true,"residents_est":1,"h3_10":"8a1e05a65b87fff","h3_11":"8b1e05a65b85fff"},"geometry":{"type":"Polygon","coordinates":[[[19.883585,49.996864],[19.883706,49.996855],[19.883724,49.996956],[19.883659,49.996961],[19.883654,49.996933],[19.883598,49.996937],[19.883585,49.996864]]]}},{"type":"Feature","id":"w1425287462","properties":{"type":"house","address":"Spacerowa 61J","residential":true,"residents_est":1,"h3_10":"8a1e05a65ba7fff","h3_11":"8b1e05a65ba3fff"},"geometry":{"type":"Polygon","coordinates":[[[19.883461,49.996874],[19.883585,49.996864],[19.883603,49.996966],[19.883538,49.996971],[19.883533,49.996943],[19.883474,49.996948],[19.883461,49.996874]]]}},{"type":"Feature","id":"w1425287463","properties":{"type":"house","address":"Spacerowa 61K","residential":true,"residents_est":1,"h3_10":"8a1e05a65ba7fff","h3_11":"8b1e05a65ba3fff"},"geometry":{"type":"Polygon","coordinates":[[[19.88334,49.996883],[19.883461,49.996874],[19.883479,49.996974],[19.883416,49.996979],[19.883411,49.996952],[19.883353,49.996956],[19.88334,49.996883]]]}},{"type":"Feature","id":"w1427680789","properties":{"type":"construction","residential":false,"residents_est":0,"h3_10":"8a1e05a65b17fff","h3_11":"8b1e05a65b14fff"},"geometry":{"type":"Polygon","coordinates":[[[19.884376,49.998511],[19.884516,49.9985],[19.884553,49.998698],[19.884414,49.998709],[19.884376,49.998511]]]}},{"type":"Feature","id":"w1485729710","properties":{"type":"construction","address":"Spacerowa 23","residential":false,"residents_est":0,"h3_10":"8a1e05a65b2ffff","h3_11":"8b1e05a65b2cfff"},"geometry":{"type":"Polygon","coordinates":[[[19.887133,50.000052],[19.887312,50.000025],[19.887339,50.0001],[19.887162,50.000127],[19.887133,50.000052]]]}},{"type":"Feature","id":"w1485729711","properties":{"type":"construction","address":"Spacerowa 23A","residential":false,"residents_est":0,"h3_10":"8a1e05a65b2ffff","h3_11":"8b1e05a65b2cfff"},"geometry":{"type":"Polygon","coordinates":[[[19.887106,49.999977],[19.887283,49.99995],[19.887312,50.000025],[19.887133,50.000052],[19.887106,49.999977]]]}},{"type":"Feature","id":"w1485729712","properties":{"type":"construction","address":"Spacerowa 23B","residential":false,"residents_est":0,"h3_10":"8a1e05a65b2ffff","h3_11":"8b1e05a65b2cfff"},"geometry":{"type":"Polygon","coordinates":[[[19.887076,49.999898],[19.887252,49.99987],[19.887283,49.99995],[19.887106,49.999977],[19.887076,49.999898]]]}},{"type":"Feature","id":"w1485729713","properties":{"type":"construction","address":"Spacerowa 23C","residential":false,"residents_est":0,"h3_10":"8a1e05a65b2ffff","h3_11":"8b1e05a65b2cfff"},"geometry":{"type":"Polygon","coordinates":[[[19.887046,49.99982],[19.887222,49.999792],[19.887252,49.99987],[19.887076,49.999898],[19.887046,49.99982]]]}}]}