{"type":"FeatureCollection","features":[{"type":"Feature","id":"w110323281","properties":{"type":"garage","residential":false,"residents_est":0,"h3_10":"8a1e2e6a8477fff","h3_11":"8b1e2e6a8472fff"},"geometry":{"type":"Polygon","coordinates":[[[20.06408,50.076445],[20.064158,50.076406],[20.06519,50.07726],[20.065113,50.077298],[20.06408,50.076445]]]}},{"type":"Feature","id":"w110323294","properties":{"type":"yes","address":"Aleja Solidarności 11","residential":true,"residents_est":39,"h3_10":"8a1e2e6a856ffff","h3_11":"8b1e2e6a856afff"},"geometry":{"type":"Polygon","coordinates":[[[20.064998,50.079826],[20.065016,50.079607],[20.065353,50.079619],[20.065335,50.079838],[20.064998,50.079826]]]}},{"type":"Feature","id":"w110323301","properties":{"type":"garage","residential":false,"residents_est":0,"h3_10":"8a1e2e6a840ffff","h3_11":"8b1e2e6a8409fff"},"geometry":{"type":"Polygon","coordinates":[[[20.063512,50.076305],[20.063658,50.076232],[20.063844,50.076385],[20.063697,50.076457],[20.063512,50.076305]]]}},{"type":"Feature","id":"w110323306","properties":{"type":"garage","residential":false,"residents_est":0,"h3_10":"8a1e2e6a8477fff","h3_11":"8b1e2e6a8473fff"},"geometry":{"type":"Polygon","coordinates":[[[20.06393,50.076099],[20.064018,50.076055],[20.065436,50.077227],[20.065461,50.077279],[20.06542,50.077508],[20.065307,50.077499],[20.065348,50.077271],[20.06393,50.076099]]]}},{"type":"Feature","id":"w110323328","properties":{"type":"garage","residential":false,"residents_est":0,"h3_10":"8a1e2e6a840ffff","h3_11":"8b1e2e6a840dfff"},"geometry":{"type":"Polygon","coordinates":[[[20.063323,50.076394],[20.063398,50.076356],[20.064604,50.077352],[20.064528,50.07739],[20.063323,50.076394]]]}},{"type":"Feature","id":"w110323335","properties":{"type":"garage","residential":false,"residents_est":0,"h3_10":"8a1e2e6a840ffff","h3_11":"8b1e2e6a8409fff"},"geometry":{"type":"Polygon","coordinates":[[[20.063753,50.076184],[20.063834,50.076143],[20.06401,50.076289],[20.06393,50.076329],[20.063753,50.076184]]]}},{"type":"Feature","id":"w110323343","properties":{"type":"garage","residential":false,"residents_est":0,"h3_10":"8a1e2e6a8477fff","h3_11":"8b1e2e6a8472fff"},"geometry":{"type":"Polygon","coordinates":[[[20.06381,50.076558],[20.06397,50.076479],[20.064881,50.077232],[20.064722,50.077312],[20.06381,50.076558]]]}},{"type":"Feature","id":"w128616568","properties":{"type":"garages","residential":false,"residents_est":0,"h3_10":"8a1e2e6a852ffff","h3_11":"8b1e2e6a852afff"},"geometry":{"type":"Polygon","coordinates":[[[20.059748,50.079406],[20.059814,50.079299],[20.060326,50.079427],[20.060262,50.07953],[20.059748,50.079406]]]}},{"type":"Feature","id":"w128616569","properties":{"type":"garages","residential":false,"residents_est":0,"h3_10":"8a1e2e6a850ffff","h3_11":"8b1e2e6a850cfff"},"geometry":{"type":"Polygon","coordinates":[[[20.059874,50.0792],[20.059937,50.079094],[20.060451,50.079219],[20.060386,50.079327],[20.059874,50.0792]]]}},{"type":"Feature","id":"w128616571","properties":{"type":"garage","residential":false,"residents_est":0,"h3_10":"8a1e2e6a852ffff","h3_11":"8b1e2e6a852efff"},"geometry":{"type":"Polygon","coordinates":[[[20.059522,50.079829],[20.05959,50.079728],[20.060097,50.079864],[20.06003,50.079965],[20.059522,50.079829]]]}},{"type":"Feature","id":"w128616572","properties":{"type":"garage","residential":false,"residents_est":0,"h3_10":"8a1e2e6a852ffff","h3_11":"8b1e2e6a852afff"},"geometry":{"type":"Polygon","coordinates":[[[20.05963,50.079615],[20.059694,50.079508],[20.060205,50.079633],[20.060143,50.079738],[20.05963,50.079615]]]}},{"type":"Feature","id":"w161585487","properties":{"type":"hotel","address":"Ujastek Mogilski 7","residential":false,"residents_est":0,"h3_10":"8a1e2e6a840ffff","h3_11":"8b1e2e6a840afff"},"geometry":{"type":"Polygon","coordinates":[[[20.062995,50.076083],[20.063007,50.075717],[20.063122,50.075719],[20.063229,50.07579],[20.063222,50.075794],[20.06322,50.075819],[20.063275,50.07582],[20.063263,50.076092],[20.063286,50.076093],[20.063285,50.076119],[20.063045,50.076118],[20.06304,50.076087],[20.062995,50.076083]]]}},{"type":"Feature","id":"w161585504","properties":{"type":"yes","residential":true,"residents_est":41,"h3_10":"8a1e2e6a84cffff","h3_11":"8b1e2e6a84cafff"},"geometry":{"type":"Polygon","coordinates":[[[20.065094,50.073532],[20.065594,50.073293],[20.06571,50.073393],[20.06521,50.073632],[20.065094,50.073532]]]}},{"type":"Feature","id":"w161585512","properties":{"type":"yes","residential":true,"residents_est":2,"h3_10":"8a1e2e6a84effff","h3_11":"8b1e2e6a84e8fff"},"geometry":{"type":"Polygon","coordinates":[[[20.064934,50.075023],[20.065019,50.074977],[20.065103,50.075043],[20.065017,50.075088],[20.064934,50.075023]]]}},{"type":"Feature","id":"w161585530","properties":{"type":"yes","residential":true,"residents_est":3,"h3_10":"8a1e2e6a845ffff","h3_11":"8b1e2e6a845bfff"},"geometry":{"type":"Polygon","coordinates":[[[20.06691,50.075145],[20.067026,50.075083],[20.067112,50.075151],[20.066996,50.075212],[20.06691,50.075145]]]}},{"type":"Feature","id":"w161585543","properties":{"type":"yes","residential":true,"residents_est":16,"h3_10":"8a1e2e6a84effff","h3_11":"8b1e2e6a84e8fff"},"geometry":{"type":"Polygon","coordinates":[[[20.065014,50.07484],[20.065146,50.074768],[20.065333,50.074909],[20.065201,50.074981],[20.065014,50.07484]]]}},{"type":"Feature","id":"w161585547","properties":{"type":"yes","residential":true,"residents_est":5,"h3_10":"8a1e2e6a8447fff","h3_11":"8b1e2e6a8445fff"},"geometry":{"type":"Polygon","coordinates":[[[20.066824,50.077079],[20.066867,50.07704],[20.067192,50.077188],[20.067148,50.077228],[20.066824,50.077079]]]}},{"type":"Feature","id":"w161585549","properties":{"type":"yes","residential":true,"residents_est":31,"h3_10":"8a1e2e6a84cffff","h3_11":"8b1e2e6a84cefff"},"geometry":{"type":"Polygon","coordinates":[[[20.064785,50.073597],[20.065031,50.073479],[20.06521,50.073632],[20.064964,50.07375],[20.064785,50.073597]]]}},{"type":"Feature","id":"w161585553","properties":{"type":"yes","residential":true,"residents_est":26,"h3_10":"8a1e2e6a8447fff","h3_11":"8b1e2e6a8445fff"},"geometry":{"type":"Polygon","coordinates":[[[20.066675,50.077175],[20.066795,50.077066],[20.067101,50.077206],[20.066981,50.077314],[20.066675,50.077175]]]}},{"type":"Feature","id":"w161585559","properties":{"type":"roof","residential":false,"residents_est":0,"h3_10":"8a1e2e6a84e7fff","h3_11":"8b1e2e6a84e4fff"},"geometry":{"type":"Polygon","coordinates":[[[20.063145,50.075669],[20.063266,50.075594],[20.063248,50.075531],[20.06335,50.075467],[20.063519,50.07558],[20.063254,50.075742],[20.063145,50.075669]]]}},{"type":"Feature","id":"w161585565","properties":{"type":"yes","name":"Air Liquide Polska","residential":true,"residents_est":5,"h3_10":"8a1e2e6a8457fff","h3_11":"8b1e2e6a8453fff"},"geometry":{"type":"Polygon","coordinates":[[[20.065048,50.075419],[20.065138,50.075372],[20.065201,50.075421],[20.065229,50.075433],[20.065247,50.07541],[20.065352,50.075445],[20.065192,50.075522],[20.065059,50.075418],[20.065048,50.075419]]]}},{"type":"Feature","id":"w230003338","properties":{"type":"yes","residential":true,"residents_est":21,"h3_10":"8a1e2e6a84c7fff","h3_11":"8b1e2e6a84c5fff"},"geometry":{"type":"Polygon","coordinates":[[[20.064245,50.074705],[20.064487,50.074585],[20.064615,50.074691],[20.064372,50.074811],[20.064245,50.074705]]]}},{"type":"Feature","id":"w230105427","properties":{"type":"retail","levels":1.0,"address":"Ujastek 2","residential":false,"residents_est":0,"h3_10":"8a1e2e6a856ffff","h3_11":"8b1e2e6a856bfff"},"geometry":{"type":"Polygon","coordinates":[[[20.065579,50.079847],[20.065593,50.07971],[20.065666,50.079712],[20.065653,50.07985],[20.065579,50.079847]]]}},{"type":"Feature","id":"w230105428","properties":{"type":"yes","residential":true,"residents_est":5,"h3_10":"8a1e2e6a8547fff","h3_11":"8b1e2e6a8543fff"},"geometry":{"type":"Polygon","coordinates":[[[20.064448,50.078781],[20.064654,50.078767],[20.064668,50.078857],[20.064463,50.07887],[20.064448,50.078781]]]}},{"type":"Feature","id":"w338010185","properties":{"type":"detached","residential":true,"residents_est":4,"h3_10":"8a1e2e6a8527fff","h3_11":"8b1e2e6a8520fff"},"geometry":{"type":"Polygon","coordinates":[[[20.05854,50.08052],[20.058591,50.080472],[20.058663,50.080498],[20.058659,50.080502],[20.058701,50.080521],[20.058687,50.080534],[20.058675,50.080535],[20.05865,50.080568],[20.05854,50.08052]]]}},{"type":"Feature","id":"w338010191","properties":{"type":"detached","residential":true,"residents_est":4,"h3_10":"8a1e2e6a8527fff","h3_11":"8b1e2e6a8520fff"},"geometry":{"type":"Polygon","coordinates":[[[20.058666,50.080431],[20.058706,50.08038],[20.058746,50.080392],[20.058749,50.080388],[20.058826,50.080418],[20.058792,50.080449],[20.058797,50.080456],[20.058786,50.08047],[20.058666,50.080431]]]}},{"type":"Feature","id":"w338010195","properties":{"type":"yes","residential":true,"residents_est":5,"h3_10":"8a1e2e6a852ffff","h3_11":"8b1e2e6a852cfff"},"geometry":{"type":"Polygon","coordinates":[[[20.05987,50.080234],[20.059988,50.08019],[20.060084,50.080293],[20.060048,50.080307],[20.060067,50.080327],[20.06006,50.080345],[20.060035,50.080354],[20.060005,50.080351],[20.059986,50.080331],[20.059945,50.080346],[20.059912,50.08031],[20.059933,50.080302],[20.05987,50.080234]]]}},{"type":"Feature","id":"w338010197","properties":{"type":"yes","residential":true,"residents_est":5,"h3_10":"8a1e2e6a8527fff","h3_11":"8b1e2e6a8526fff"},"geometry":{"type":"Polygon","coordinates":[[[20.057481,50.080238],[20.057665,50.080177],[20.057721,50.080254],[20.057737,50.080257],[20.057747,50.080272],[20.057739,50.080289],[20.057716,50.080296],[20.057699,50.080292],[20.057634,50.080311],[20.057602,50.080269],[20.057521,50.080293],[20.057481,50.080238]]]}},{"type":"Feature","id":"w338010199","properties":{"type":"yes","address":"Melchiora Wańkowicza 56c","residential":true,"residents_est":5,"h3_10":"8a1e2e6a8527fff","h3_11":"8b1e2e6a8526fff"},"geometry":{"type":"Polygon","coordinates":[[[20.057869,50.08048],[20.057953,50.080461],[20.057939,50.080441],[20.058022,50.080417],[20.058068,50.080482],[20.058032,50.080493],[20.058065,50.080541],[20.057938,50.080578],[20.057915,50.080546],[20.0579,50.080541],[20.057887,50.080524],[20.057892,50.080512],[20.057869,50.08048]]]}},{"type":"Feature","id":"w338010200","properties":{"type":"yes","residential":true,"residents_est":3,"h3_10":"8a1e2e6a8527fff","h3_11":"8b1e2e6a8525fff"},"geometry":{"type":"Polygon","coordinates":[[[20.058829,50.080858],[20.058863,50.080787],[20.058854,50.080786],[20.058856,50.08078],[20.05899,50.0808],[20.05896,50.080882],[20.058829,50.080858]]]}},{"type":"Feature","id":"w338010221","properties":{"type":"yes","residential":true,"residents_est":2,"h3_10":"8a1e2e6a8537fff","h3_11":"8b1e2e6a8532fff"},"geometry":{"type":"Polygon","coordinates":[[[20.056678,50.0794],[20.056781,50.079368],[20.056786,50.079381],[20.05681,50.079382],[20.056817,50.079393],[20.056796,50.079406],[20.056809,50.079441],[20.056724,50.079462],[20.056678,50.0794]]]}},{"type":"Feature","id":"w338010238","properties":{"type":"yes","residential":false,"residents_est":0,"h3_10":"8a1e2e6a84a7fff","h3_11":"8b1e2e6a84a0fff"},"geometry":{"type":"Polygon","coordinates":[[[20.058561,50.075169],[20.058582,50.075113],[20.058651,50.075124],[20.058625,50.075178],[20.058561,50.075169]]]}},{"type":"Feature","id":"w338010252","properties":{"type":"yes","residential":true,"residents_est":4,"h3_10":"8a1e2e6a858ffff","h3_11":"8b1e2e6a858bfff"},"geometry":{"type":"Polygon","coordinates":[[[20.058346,50.075732],[20.058402,50.075708],[20.058577,50.075874],[20.05852,50.075899],[20.058346,50.075732]]]}},{"type":"Feature","id":"w338010257","properties":{"type":"yes","address":"Melchiora Wańkowicza 28","residential":true,"residents_est":3,"h3_10":"8a1e2e6a8517fff","h3_11":"8b1e2e6a8512fff"},"geometry":{"type":"Polygon","coordinates":[[[20.056888,50.07806],[20.057028,50.078042],[20.057049,50.078114],[20.056911,50.078132],[20.056888,50.07806]]]}},{"type":"Feature","id":"w338010276","properties":{"type":"yes","residential":true,"residents_est":4,"h3_10":"8a1e2e6a8527fff","h3_11":"8b1e2e6a8521fff"},"geometry":{"type":"Polygon","coordinates":[[[20.059053,50.080522],[20.059125,50.08045],[20.059254,50.080498],[20.059185,50.080573],[20.059053,50.080522]]]}},{"type":"Feature","id":"w338010284","properties":{"type":"yes","residential":true,"residents_est":30,"h3_10":"8a1e2e6a8437fff","h3_11":"8b1e2e6a8434fff"},"geometry":{"type":"Polygon","coordinates":[[[20.059072,50.077359],[20.059269,50.077057],[20.059433,50.077101],[20.059235,50.077403],[20.059072,50.077359]]]}},{"type":"Feature","id":"w338010320","properties":{"type":"yes","residential":true,"residents_est":25,"h3_10":"8a1e2e6a8437fff","h3_11":"8b1e2e6a8435fff"},"geometry":{"type":"Polygon","coordinates":[[[20.059921,50.077542],[20.060088,50.077292],[20.060248,50.077336],[20.060081,50.077586],[20.059921,50.077542]]]}},{"type":"Feature","id":"w338010332","properties":{"type":"yes","residential":true,"residents_est":4,"h3_10":"8a1e2e6a8437fff","h3_11":"8b1e2e6a8432fff"},"geometry":{"type":"Polygon","coordinates":[[[20.059135,50.07688],[20.059216,50.076752],[20.059306,50.076775],[20.059226,50.076904],[20.059135,50.07688]]]}},{"type":"Feature","id":"w338010349","properties":{"type":"yes","residential":true,"residents_est":3,"h3_10":"8a1e2e6a8427fff","h3_11":"8b1e2e6a8422fff"},"geometry":{"type":"Polygon","coordinates":[[[20.060723,50.077309],[20.060796,50.077202],[20.060887,50.077228],[20.060812,50.077334],[20.060723,50.077309]]]}},{"type":"Feature","id":"w338010352","properties":{"type":"yes","residential":true,"residents_est":8,"h3_10":"8a1e2e6a8597fff","h3_11":"8b1e2e6a8591fff"},"geometry":{"type":"Polygon","coordinates":[[[20.055669,50.075796],[20.055938,50.075759],[20.055974,50.075866],[20.055704,50.075903],[20.055669,50.075796]]]}},{"type":"Feature","id":"w338010370","properties":{"type":"yes","residential":true,"residents_est":5,"h3_10":"8a1e2e6a8527fff","h3_11":"8b1e2e6a8523fff"},"geometry":{"type":"Polygon","coordinates":[[[20.058767,50.080202],[20.058821,50.080117],[20.058991,50.080162],[20.058937,50.080246],[20.058767,50.080202]]]}},{"type":"Feature","id":"w338010371","properties":{"type":"yes","residential":true,"residents_est":3,"h3_10":"8a1e2e6a8437fff","h3_11":"8b1e2e6a8430fff"},"geometry":{"type":"Polygon","coordinates":[[[20.059552,50.076994],[20.05962,50.076891],[20.059712,50.076916],[20.059643,50.077019],[20.059552,50.076994]]]}},{"type":"Feature","id":"w338010377","properties":{"type":"yes","residential":true,"residents_est":1,"h3_10":"8a1e2e6a8537fff","h3_11":"8b1e2e6a8532fff"},"geometry":{"type":"Polygon","coordinates":[[[20.057033,50.079306],[20.05707,50.079257],[20.057159,50.079284],[20.05712,50.079334],[20.057033,50.079306]]]}},{"type":"Feature","id":"w338010378","properties":{"type":"yes","address":"Stanisława Łempickiego 4","residential":true,"residents_est":2,"h3_10":"8a1e2e6a8527fff","h3_11":"8b1e2e6a8524fff"},"geometry":{"type":"Polygon","coordinates":[[[20.057955,50.080715],[20.058076,50.080686],[20.058115,50.080754],[20.057991,50.080782],[20.057955,50.080715]]]}},{"type":"Feature","id":"w338010383","properties":{"type":"yes","residential":true,"residents_est":30,"h3_10":"8a1e2e6a8437fff","h3_11":"8b1e2e6a8436fff"},"geometry":{"type":"Polygon","coordinates":[[[20.058755,50.077277],[20.058952,50.076975],[20.059113,50.077019],[20.058916,50.07732],[20.058755,50.077277]]]}},{"type":"Feature","id":"w338010391","properties":{"type":"yes","residential":true,"residents_est":4,"h3_10":"8a1e2e6a8537fff","h3_11":"8b1e2e6a8534fff"},"geometry":{"type":"Polygon","coordinates":[[[20.05654,50.080157],[20.056574,50.080059],[20.056712,50.08008],[20.056676,50.080177],[20.05654,50.080157]]]}},{"type":"Feature","id":"w338010400","properties":{"type":"yes","residential":true,"residents_est":8,"h3_10":"8a1e2e6a852ffff","h3_11":"8b1e2e6a8528fff"},"geometry":{"type":"Polygon","coordinates":[[[20.060329,50.08],[20.060356,50.07978],[20.060495,50.079787],[20.060468,50.080007],[20.060329,50.08]]]}},{"type":"Feature","id":"w338010402","properties":{"type":"yes","residential":true,"residents_est":2,"h3_10":"8a1e2e6a8537fff","h3_11":"8b1e2e6a8536fff"},"geometry":{"type":"Polygon","coordinates":[[[20.056676,50.079525],[20.056778,50.079496],[20.056827,50.079563],[20.056726,50.07959],[20.056676,50.079525]]]}},{"type":"Feature","id":"w338010409","properties":{"type":"yes","residential":true,"residents_est":7,"h3_10":"8a1e2e6a8437fff","h3_11":"8b1e2e6a8435fff"},"geometry":{"type":"Polygon","coordinates":[[[20.059662,50.077501],[20.059847,50.077225],[20.059928,50.077248],[20.059744,50.077524],[20.059662,50.077501]]]}},{"type":"Feature","id":"w338010412","properties":{"type":"yes","residential":true,"residents_est":4,"h3_10":"8a1e2e6a8537fff","h3_11":"8b1e2e6a8530fff"},"geometry":{"type":"Polygon","coordinates":[[[20.057335,50.079681],[20.057386,50.079608],[20.057547,50.079654],[20.057496,50.079728],[20.057335,50.079681]]]}},{"type":"Feature","id":"w338010414","properties":{"type":"yes","residential":true,"residents_est":2,"h3_10":"8a1e2e6a859ffff","h3_11":"8b1e2e6a859dfff"},"geometry":{"type":"Polygon","coordinates":[[[20.057369,50.076092],[20.057493,50.076026],[20.057551,50.076072],[20.057429,50.076137],[20.057369,50.076092]]]}},{"type":"Feature","id":"w338010421","properties":{"type":"yes","residential":true,"residents_est":3,"h3_10":"8a1e2e6a8537fff","h3_11":"8b1e2e6a8530fff"},"geometry":{"type":"Polygon","coordinates":[[[20.057358,50.079524],[20.057404,50.079459],[20.057539,50.079498],[20.057493,50.079563],[20.057358,50.079524]]]}},{"type":"Feature","id":"w338010444","properties":{"type":"yes","residential":true,"residents_est":3,"h3_10":"8a1e2e6a8537fff","h3_11":"8b1e2e6a8530fff"},"geometry":{"type":"Polygon","coordinates":[[[20.057293,50.07983],[20.057335,50.079768],[20.057449,50.0798],[20.057394,50.079882],[20.057308,50.079858],[20.05732,50.079838],[20.057293,50.07983]]]}},{"type":"Feature","id":"w338010451","properties":{"type":"yes","residential":true,"residents_est":1,"h3_10":"8a1e2e6a8527fff","h3_11":"8b1e2e6a8521fff"},"geometry":{"type":"Polygon","coordinates":[[[20.059299,50.080183],[20.059332,50.080135],[20.059421,50.08016],[20.059388,50.080208],[20.059299,50.080183]]]}},{"type":"Feature","id":"w338010455","properties":{"type":"yes","residential":true,"residents_est":19,"h3_10":"8a1e2e6a84a7fff","h3_11":"8b1e2e6a84a1fff"},"geometry":{"type":"Polygon","coordinates":[[[20.05864,50.075179],[20.058659,50.075128],[20.059363,50.075218],[20.059352,50.075267],[20.05864,50.075179]]]}},{"type":"Feature","id":"w338010456","properties":{"type":"yes","residential":true,"residents_est":2,"h3_10":"8a1e2e6a8537fff","h3_11":"8b1e2e6a8532fff"},"geometry":{"type":"Polygon","coordinates":[[[20.057139,50.079347],[20.057177,50.07929],[20.057296,50.079321],[20.05726,50.079379],[20.057139,50.079347]]]}},{"type":"Feature","id":"w338010478","properties":{"type":"house","address":"Melchiora Wańkowicza 8","residential":true,"residents_est":3,"h3_10":"8a1e2e6a84a7fff","h3_11":"8b1e2e6a84a0fff"},"geometry":{"type":"Polygon","coordinates":[[[20.058408,50.075072],[20.058432,50.075011],[20.05853,50.075026],[20.058507,50.075088],[20.058408,50.075072]]]}},{"type":"Feature","id":"w338010496","properties":{"type":"garages","residential":false,"residents_est":0,"h3_10":"8a1e2e6a84a7fff","h3_11":"8b1e2e6a84a4fff"},"geometry":{"type":"Polygon","coordinates":[[[20.05821,50.075575],[20.058267,50.07555],[20.058387,50.075698],[20.058329,50.075722],[20.05821,50.075575]]]}},{"type":"Feature","id":"w338010499","properties":{"type":"yes","residential":true,"residents_est":2,"h3_10":"8a1e2e6a858ffff","h3_11":"8b1e2e6a858afff"},"geometry":{"type":"Polygon","coordinates":[[[20.057679,50.075953],[20.057777,50.075924],[20.057832,50.076004],[20.057733,50.076032],[20.057679,50.075953]]]}},{"type":"Feature","id":"w338010519","properties":{"type":"garages","residential":false,"residents_est":0,"h3_10":"8a1e2e6a84a7fff","h3_11":"8b1e2e6a84a4fff"},"geometry":{"type":"Polygon","coordinates":[[[20.058091,50.075727],[20.058152,50.075698],[20.058366,50.075891],[20.058292,50.075924],[20.058091,50.075727]]]}},{"type":"Feature","id":"w338010541","properties":{"type":"yes","residential":true,"residents_est":7,"h3_10":"8a1e2e6a852ffff","h3_11":"8b1e2e6a852dfff"},"geometry":{"type":"Polygon","coordinates":[[[20.060541,50.080564],[20.060564,50.080396],[20.060731,50.080406],[20.060711,50.080573],[20.060541,50.080564]]]}},{"type":"Feature","id":"w338010561","properties":{"type":"garages","residential":false,"residents_est":0,"h3_10":"8a1e2e6a8517fff","h3_11":"8b1e2e6a8516fff"},"geometry":{"type":"Polygon","coordinates":[[[20.056626,50.078608],[20.056682,50.078556],[20.056746,50.078583],[20.056692,50.078635],[20.056626,50.078608]]]}},{"type":"Feature","id":"w338010562","properties":{"type":"yes","residential":true,"residents_est":3,"h3_10":"8a1e2e6a8527fff","h3_11":"8b1e2e6a8525fff"},"geometry":{"type":"Polygon","coordinates":[[[20.058821,50.080674],[20.058856,50.080619],[20.059029,50.080666],[20.058996,50.080719],[20.058821,50.080674]]]}},{"type":"Feature","id":"w338010580","properties":{"type":"yes","address":"Melchiora Wańkowicza 14","residential":true,"residents_est":4,"h3_10":"8a1e2e6a858ffff","h3_11":"8b1e2e6a858afff"},"geometry":{"type":"Polygon","coordinates":[[[20.057806,50.075875],[20.057985,50.075824],[20.057974,50.075808],[20.058027,50.075793],[20.058078,50.075867],[20.057846,50.075933],[20.057806,50.075875]]]}},{"type":"Feature","id":"w338010591","properties":{"type":"yes","residential":true,"residents_est":3,"h3_10":"8a1e2e6a8437fff","h3_11":"8b1e2e6a8431fff"},"geometry":{"type":"Polygon","coordinates":[[[20.060508,50.077064],[20.060573,50.076974],[20.060718,50.077019],[20.060692,50.077053],[20.060651,50.07704],[20.06061,50.077095],[20.060508,50.077064]]]}},{"type":"Feature","id":"w338010592","properties":{"type":"yes","residential":true,"residents_est":1,"h3_10":"8a1e2e6a8517fff","h3_11":"8b1e2e6a8512fff"},"geometry":{"type":"Polygon","coordinates":[[[20.057139,50.077966],[20.057211,50.077961],[20.057225,50.078045],[20.057154,50.07805],[20.057139,50.077966]]]}},{"type":"Feature","id":"w338010621","properties":{"type":"yes","residential":true,"residents_est":2,"h3_10":"8a1e2e6a858ffff","h3_11":"8b1e2e6a858afff"},"geometry":{"type":"Polygon","coordinates":[[[20.057992,50.076105],[20.058032,50.076093],[20.058055,50.076123],[20.058112,50.076105],[20.058159,50.076166],[20.058062,50.076197],[20.057992,50.076105]]]}},{"type":"Feature","id":"w338010650","properties":{"type":"yes","residential":false,"residents_est":0,"h3_10":"8a1e2e6a8427fff","h3_11":"8b1e2e6a8422fff"},"geometry":{"type":"Polygon","coordinates":[[[20.060515,50.077295],[20.060533,50.077269],[20.06067,50.077302],[20.060649,50.077333],[20.060515,50.077295]]]}},{"type":"Feature","id":"w338010665","properties":{"type":"yes","residential":true,"residents_est":3,"h3_10":"8a1e2e6a8407fff","h3_11":"8b1e2e6a8404fff"},"geometry":{"type":"Polygon","coordinates":[[[20.060811,50.077065],[20.06084,50.077023],[20.060907,50.077042],[20.060901,50.07705],[20.060993,50.077076],[20.060935,50.07716],[20.060845,50.077132],[20.060878,50.077084],[20.060811,50.077065]]]}},{"type":"Feature","id":"w338010697","properties":{"type":"yes","residential":true,"residents_est":8,"h3_10":"8a1e2e6a8537fff","h3_11":"8b1e2e6a8536fff"},"geometry":{"type":"Polygon","coordinates":[[[20.056282,50.079387],[20.056445,50.079334],[20.056529,50.079442],[20.056541,50.079439],[20.05655,50.079451],[20.056538,50.079455],[20.056556,50.079481],[20.056391,50.079533],[20.056282,50.079387]]]}},{"type":"Feature","id":"w338010707","properties":{"type":"yes","residential":true,"residents_est":3,"h3_10":"8a1e2e6a8517fff","h3_11":"8b1e2e6a8510fff"},"geometry":{"type":"Polygon","coordinates":[[[20.057194,50.078673],[20.057221,50.078602],[20.057253,50.078606],[20.057247,50.078621],[20.057302,50.07863],[20.057308,50.078612],[20.057345,50.078618],[20.057338,50.078636],[20.057375,50.078642],[20.057369,50.07866],[20.057397,50.078664],[20.057384,50.078697],[20.057376,50.0787],[20.057194,50.078673]]]}},{"type":"Feature","id":"w338010738","properties":{"type":"yes","residential":true,"residents_est":5,"h3_10":"8a1e2e6a8537fff","h3_11":"8b1e2e6a8534fff"},"geometry":{"type":"Polygon","coordinates":[[[20.05704,50.079932],[20.057071,50.079874],[20.057231,50.079909],[20.057217,50.079935],[20.057258,50.079945],[20.057246,50.079968],[20.057249,50.079973],[20.057244,50.079972],[20.057233,50.079995],[20.05719,50.079986],[20.057175,50.080014],[20.057056,50.079988],[20.05707,50.079958],[20.05706,50.079955],[20.057069,50.079938],[20.05704,50.079932]]]}},{"type":"Feature","id":"w705942196","properties":{"type":"yes","residential":true,"residents_est":2,"h3_10":"8a1e2e6a8447fff","h3_11":"8b1e2e6a8440fff"},"geometry":{"type":"Polygon","coordinates":[[[20.066466,50.076739],[20.066509,50.076701],[20.066655,50.076769],[20.066612,50.076807],[20.066466,50.076739]]]}},{"type":"Feature","id":"w705942197","properties":{"type":"yes","residential":true,"residents_est":3,"h3_10":"8a1e2e6a8447fff","h3_11":"8b1e2e6a8440fff"},"geometry":{"type":"Polygon","coordinates":[[[20.066345,50.076847],[20.066383,50.076816],[20.066594,50.076915],[20.066557,50.076947],[20.066345,50.076847]]]}},{"type":"Feature","id":"w705942198","properties":{"type":"yes","residential":true,"residents_est":3,"h3_10":"8a1e2e6a840ffff","h3_11":"8b1e2e6a840bfff"},"geometry":{"type":"Polygon","coordinates":[[[20.063687,50.076113],[20.063783,50.07603],[20.063843,50.076059],[20.063833,50.076068],[20.063863,50.076082],[20.063813,50.076127],[20.063783,50.076113],[20.063748,50.076142],[20.063687,50.076113]]]}},{"type":"Feature","id":"w705942199","properties":{"type":"yes","residential":true,"residents_est":2,"h3_10":"8a1e2e6a84effff","h3_11":"8b1e2e6a84e8fff"},"geometry":{"type":"Polygon","coordinates":[[[20.065467,50.075012],[20.065531,50.074979],[20.065548,50.074994],[20.065575,50.07498],[20.065635,50.075026],[20.065544,50.075073],[20.065467,50.075012]]]}},{"type":"Feature","id":"w705942200","properties":{"type":"yes","residential":true,"residents_est":5,"h3_10":"8a1e2e6a84effff","h3_11":"8b1e2e6a84ecfff"},"geometry":{"type":"Polygon","coordinates":[[[20.065017,50.075151],[20.065174,50.075068],[20.065208,50.075094],[20.065051,50.075178],[20.065017,50.075151]]]}},{"type":"Feature","id":"w705948517","properties":{"type":"retail","levels":1.0,"residential":false,"residents_est":0,"h3_10":"8a1e2e6a856ffff","h3_11":"8b1e2e6a856bfff"},"geometry":{"type":"Polygon","coordinates":[[[20.065716,50.079658],[20.06572,50.079614],[20.065749,50.079616],[20.065764,50.079607],[20.065781,50.079621],[20.065774,50.079623],[20.06577,50.079652],[20.065776,50.079657],[20.065758,50.07967],[20.065747,50.079658],[20.065716,50.079658]]]}},{"type":"Feature","id":"w705948520","properties":{"type":"yes","residential":true,"residents_est":4,"h3_10":"8a1e2e6a8467fff","h3_11":"8b1e2e6a8464fff"},"geometry":{"type":"Polygon","coordinates":[[[20.065344,50.078137],[20.065349,50.077995],[20.065463,50.077997],[20.065459,50.078138],[20.065344,50.078137]]]}},{"type":"Feature","id":"w705948522","properties":{"type":"yes","residential":false,"residents_est":0,"h3_10":"8a1e2e6a854ffff","h3_11":"8b1e2e6a854afff"},"geometry":{"type":"Polygon","coordinates":[[[20.065155,50.078751],[20.065213,50.078748],[20.065214,50.078736],[20.065224,50.078736],[20.065225,50.078747],[20.065269,50.078747],[20.065272,50.078771],[20.065231,50.078773],[20.065232,50.078787],[20.06516,50.078791],[20.065155,50.078751]]]}},{"type":"Feature","id":"w705948523","properties":{"type":"yes","address":"Aleja Solidarności 20","residential":false,"residents_est":0,"h3_10":"8a1e2e6a854ffff","h3_11":"8b1e2e6a854efff"},"geometry":{"type":"Polygon","coordinates":[[[20.065013,50.078733],[20.065104,50.078734],[20.065102,50.078764],[20.065122,50.078764],[20.065122,50.078783],[20.065013,50.078783],[20.065013,50.078733]]]}},{"type":"Feature","id":"w705948524","properties":{"type":"transportation","levels":1.0,"address":"Aleja Solidarności 22","name":"Punkt Socjalny MPK","residential":false,"residents_est":0,"h3_10":"8a1e2e6a854ffff","h3_11":"8b1e2e6a854bfff"},"geometry":{"type":"Polygon","coordinates":[[[20.065711,50.078599],[20.065714,50.07857],[20.065729,50.07857],[20.065737,50.078458],[20.065812,50.07846],[20.065803,50.078572],[20.065819,50.078573],[20.065814,50.078601],[20.065711,50.078599]]]}},{"type":"Feature","id":"w725910464","properties":{"type":"yes","residential":false,"residents_est":0,"h3_10":"8a1e2e6a8537fff","h3_11":"8b1e2e6a8531fff"},"geometry":{"type":"Polygon","coordinates":[[[20.057591,50.079763],[20.057611,50.079731],[20.057689,50.079752],[20.057667,50.079784],[20.057591,50.079763]]]}},{"type":"Feature","id":"w725910466","properties":{"type":"yes","residential":false,"residents_est":0,"h3_10":"8a1e2e6a8537fff","h3_11":"8b1e2e6a8533fff"},"geometry":{"type":"Polygon","coordinates":[[[20.057596,50.079448],[20.057627,50.0794],[20.057701,50.07942],[20.057674,50.079468],[20.057596,50.079448]]]}},{"type":"Feature","id":"w725910470","properties":{"type":"yes","residential":true,"residents_est":2,"h3_10":"8a1e2e6a8537fff","h3_11":"8b1e2e6a8532fff"},"geometry":{"type":"Polygon","coordinates":[[[20.056648,50.079358],[20.056783,50.079314],[20.056798,50.079349],[20.056781,50.079368],[20.056678,50.0794],[20.056648,50.079358]]]}},{"type":"Feature","id":"w725910476","properties":{"type":"house","residential":true,"residents_est":10,"h3_10":"8a1e2e6a8527fff","h3_11":"8b1e2e6a8521fff"},"geometry":{"type":"Polygon","coordinates":[[[20.059555,50.080534],[20.059568,50.080416],[20.059633,50.080419],[20.059634,50.080405],[20.059707,50.080408],[20.059704,50.08043],[20.059725,50.080431],[20.059719,50.080487],[20.059698,50.080486],[20.059693,50.08054],[20.059555,50.080534]]]}},{"type":"Feature","id":"w725910477","properties":{"type":"yes","residential":true,"residents_est":3,"h3_10":"8a1e2e6a8527fff","h3_11":"8b1e2e6a8521fff"},"geometry":{"type":"Polygon","coordinates":[[[20.059321,50.080408],[20.059334,50.080376],[20.059326,50.080375],[20.059333,50.080357],[20.059328,50.080353],[20.059335,50.080354],[20.059343,50.080333],[20.059336,50.080332],[20.059345,50.08033],[20.059359,50.080297],[20.059467,50.080316],[20.059434,50.080393],[20.059426,50.080392],[20.059413,50.080423],[20.059321,50.080408]]]}},{"type":"Feature","id":"w725910480","properties":{"type":"yes","residential":false,"residents_est":0,"h3_10":"8a1e2e6a852ffff","h3_11":"8b1e2e6a8528fff"},"geometry":{"type":"Polygon","coordinates":[[[20.060256,50.080202],[20.060267,50.080129],[20.060322,50.080133],[20.060311,50.080205],[20.060256,50.080202]]]}},{"type":"Feature","id":"w725910481","properties":{"type":"yes","residential":true,"residents_est":4,"h3_10":"8a1e2e6a8527fff","h3_11":"8b1e2e6a8523fff"},"geometry":{"type":"Polygon","coordinates":[[[20.059046,50.07988],[20.059068,50.079842],[20.059048,50.079838],[20.05907,50.0798],[20.05909,50.079805],[20.05911,50.079769],[20.05922,50.079795],[20.059184,50.079856],[20.059232,50.079868],[20.059216,50.079896],[20.059168,50.079885],[20.059155,50.079906],[20.059046,50.07988]]]}},{"type":"Feature","id":"w759459488","properties":{"type":"yes","levels":1.0,"address":"Melchiora Wańkowicza 26","residential":true,"residents_est":3,"h3_10":"8a1e2e6a85a7fff","h3_11":"8b1e2e6a85a1fff"},"geometry":{"type":"Polygon","coordinates":[[[20.056545,50.0778],[20.056634,50.077784],[20.056657,50.077836],[20.056701,50.077828],[20.056699,50.077823],[20.056845,50.077801],[20.056871,50.077862],[20.056821,50.077871],[20.056826,50.077884],[20.05679,50.077891],[20.056782,50.077872],[20.056763,50.077876],[20.05677,50.077894],[20.056734,50.077901],[20.056729,50.077888],[20.056683,50.077896],[20.056689,50.077909],[20.056601,50.077926],[20.056545,50.0778]]]}},{"type":"Feature","id":"w886992192","properties":{"type":"bunker","name":"Schron amunicyjny Mogiła","residential":false,"residents_est":0,"h3_10":"8a1e2e6a8437fff","h3_11":"8b1e2e6a8436fff"},"geometry":{"type":"Polygon","coordinates":[[[20.05847,50.077222],[20.058604,50.07701],[20.058793,50.07706],[20.05866,50.077271],[20.05847,50.077222]]]}},{"type":"Feature","id":"w893420068","properties":{"type":"yes","levels":1.0,"address":"Melchiora Wańkowicza 26A","residential":true,"residents_est":2,"h3_10":"8a1e2e6a85a7fff","h3_11":"8b1e2e6a85a1fff"},"geometry":{"type":"Polygon","coordinates":[[[20.056845,50.077801],[20.056895,50.077792],[20.056893,50.077787],[20.05704,50.077765],[20.057067,50.077826],[20.057014,50.077836],[20.05702,50.077848],[20.056983,50.077855],[20.056975,50.077837],[20.056956,50.077841],[20.056964,50.077859],[20.056928,50.077866],[20.056922,50.077852],[20.056871,50.077862],[20.056845,50.077801]]]}},{"type":"Feature","id":"w893420070","properties":{"type":"yes","address":"Generała Mieczysława Smorawińskiego 2","residential":true,"residents_est":30,"h3_10":"8a1e2e6a8507fff","h3_11":"8b1e2e6a8506fff"},"geometry":{"type":"Polygon","coordinates":[[[20.058163,50.079306],[20.058271,50.07905],[20.058371,50.079068],[20.058367,50.079079],[20.058479,50.079099],[20.058377,50.079344],[20.058163,50.079306]]]}},{"type":"Feature","id":"w893420071","properties":{"type":"yes","address":"Generała Mieczysława Smorawińskiego 3","residential":true,"residents_est":30,"h3_10":"8a1e2e6a8507fff","h3_11":"8b1e2e6a8500fff"},"geometry":{"type":"Polygon","coordinates":[[[20.058703,50.079407],[20.058853,50.079173],[20.058962,50.079202],[20.058969,50.07919],[20.059065,50.079216],[20.058909,50.079461],[20.058703,50.079407]]]}},{"type":"Feature","id":"w893420072","properties":{"type":"yes","address":"Generała Mieczysława Smorawińskiego 4","residential":true,"residents_est":30,"h3_10":"8a1e2e6a8507fff","h3_11":"8b1e2e6a8505fff"},"geometry":{"type":"Polygon","coordinates":[[[20.059087,50.079582],[20.059245,50.079336],[20.059341,50.079362],[20.059334,50.079373],[20.059442,50.079402],[20.059293,50.079636],[20.059087,50.079582]]]}},{"type":"Feature","id":"w893420073","properties":{"type":"yes","address":"Generała Mieczysława Smorawińskiego 1","residential":true,"residents_est":30,"h3_10":"8a1e2e6a8517fff","h3_11":"8b1e2e6a8515fff"},"geometry":{"type":"Polygon","coordinates":[[[20.057715,50.079172],[20.057818,50.078928],[20.057932,50.078947],[20.057936,50.078936],[20.058037,50.078953],[20.057929,50.079209],[20.057715,50.079172]]]}},{"type":"Feature","id":"w893420074","properties":{"type":"yes","address":"Generała Mieczysława Smorawińskiego 5","residential":true,"residents_est":33,"h3_10":"8a1e2e6a8507fff","h3_11":"8b1e2e6a8502fff"},"geometry":{"type":"Polygon","coordinates":[[[20.058304,50.078918],[20.058403,50.078763],[20.058526,50.078796],[20.058507,50.078826],[20.058655,50.078865],[20.058674,50.078835],[20.058798,50.078868],[20.058718,50.078993],[20.058737,50.078998],[20.058718,50.079028],[20.058575,50.07899],[20.058581,50.07898],[20.05857,50.078963],[20.058574,50.078955],[20.058464,50.078925],[20.058459,50.078933],[20.058433,50.078941],[20.058427,50.078951],[20.058304,50.078918]]]}},{"type":"Feature","id":"w893420075","properties":{"type":"yes","address":"Generała Mieczysława Smorawińskiego 7","residential":true,"residents_est":30,"h3_10":"8a1e2e6a851ffff","h3_11":"8b1e2e6a851cfff"},"geometry":{"type":"Polygon","coordinates":[[[20.058461,50.078611],[20.058601,50.078361],[20.0587,50.078384],[20.058694,50.078396],[20.058804,50.078421],[20.05867,50.07866],[20.058461,50.078611]]]}},{"type":"Feature","id":"w893420076","properties":{"type":"yes","address":"Generała Mieczysława Smorawińskiego 6","residential":true,"residents_est":30,"h3_10":"8a1e2e6a851ffff","h3_11":"8b1e2e6a851efff"},"geometry":{"type":"Polygon","coordinates":[[[20.058115,50.07844],[20.058244,50.078201],[20.058355,50.078226],[20.05836,50.078214],[20.05846,50.078236],[20.058325,50.078487],[20.058115,50.07844]]]}},{"type":"Feature","id":"w1106375406","properties":{"type":"yes","residential":true,"residents_est":5,"h3_10":"8a1e2e6a8527fff","h3_11":"8b1e2e6a8520fff"},"geometry":{"type":"Polygon","coordinates":[[[20.058192,50.080355],[20.05828,50.080309],[20.05845,50.080442],[20.058363,50.080489],[20.058192,50.080355]]]}},{"type":"Feature","id":"w1106375407","properties":{"type":"detached","address":"Stanisława Łempickiego 4A","residential":true,"residents_est":8,"h3_10":"8a1e2e6a8527fff","h3_11":"8b1e2e6a8524fff"},"geometry":{"type":"Polygon","coordinates":[[[20.058338,50.080632],[20.058474,50.080575],[20.05855,50.08065],[20.058414,50.080706],[20.058338,50.080632]]]}},{"type":"Feature","id":"w1106375408","properties":{"type":"yes","residential":true,"residents_est":2,"h3_10":"8a1e2e6a852ffff","h3_11":"8b1e2e6a852efff"},"geometry":{"type":"Polygon","coordinates":[[[20.059673,50.080033],[20.059743,50.080001],[20.059841,50.080088],[20.059771,50.08012],[20.059673,50.080033]]]}},{"type":"Feature","id":"w1112561692","properties":{"type":"yes","residential":true,"residents_est":2,"h3_10":"8a1e2e6a8517fff","h3_11":"8b1e2e6a8510fff"},"geometry":{"type":"Polygon","coordinates":[[[20.057115,50.078485],[20.057154,50.078391],[20.057234,50.078405],[20.057221,50.078437],[20.057245,50.078441],[20.057232,50.078472],[20.057206,50.078468],[20.057193,50.078498],[20.057115,50.078485]]]}},{"type":"Feature","id":"w1346905147","properties":{"type":"roof","residential":false,"residents_est":0,"h3_10":"8a1e2e6a854ffff","h3_11":"8b1e2e6a854efff"},"geometry":{"type":"Polygon","coordinates":[[[20.064876,50.078785],[20.064878,50.078734],[20.065013,50.078733],[20.065013,50.078783],[20.064876,50.078785]]]}},{"type":"Feature","id":"w1492346829","properties":{"type":"yes","residential":true,"residents_est":7,"h3_10":"8a1e2e6a8457fff","h3_11":"8b1e2e6a8451fff"},"geometry":{"type":"Polygon","coordinates":[[[20.065633,50.075839],[20.065639,50.075816],[20.065656,50.075796],[20.065715,50.075769],[20.065751,50.075766],[20.065818,50.075781],[20.065843,50.075798],[20.065859,50.075819],[20.065864,50.075842],[20.065857,50.075865],[20.06584,50.075885],[20.065814,50.075901],[20.065746,50.075915],[20.065679,50.075899],[20.065654,50.075883],[20.065638,50.075862],[20.065633,50.075839]]]}}]}