{"type":"FeatureCollection","features":[{"type":"Feature","id":"w203942009","properties":{"type":"church","address":"Mieczysława Wrony 104","name":"Kościół pw. Podwyższenia Krzyża Świętego","residential":false,"residents_est":0,"h3_10":"8a1e05a6550ffff","h3_11":"8b1e05a65508fff"},"geometry":{"type":"Polygon","coordinates":[[[19.867179,49.988295],[19.867274,49.98825],[19.867282,49.988258],[19.867348,49.988228],[19.867339,49.98822],[19.867383,49.988199],[19.867434,49.988243],[19.867409,49.988275],[19.867423,49.988289],[19.867449,49.988296],[19.867443,49.988304],[19.867457,49.988318],[19.867483,49.988326],[19.867477,49.988334],[19.86749,49.988348],[19.867517,49.988355],[19.867511,49.988363],[19.867523,49.988374],[19.867472,49.988397],[19.86748,49.988405],[19.867448,49.988419],[19.867453,49.988424],[19.867421,49.98844],[19.867363,49.988388],[19.867307,49.988414],[19.867179,49.988295]]]}},{"type":"Feature","id":"w336855954","properties":{"type":"yes","address":"Mieczysława Wrony 104","name":"Plebania","residential":true,"residents_est":5,"h3_10":"8a1e05a6550ffff","h3_11":"8b1e05a6550cfff"},"geometry":{"type":"Polygon","coordinates":[[[19.867103,49.988394],[19.867115,49.988398],[19.867165,49.988375],[19.867156,49.988366],[19.867222,49.988333],[19.867307,49.988414],[19.867261,49.988435],[19.867247,49.988423],[19.867182,49.988453],[19.867196,49.988466],[19.867191,49.988468],[19.867103,49.988394]]]}},{"type":"Feature","id":"w336855955","properties":{"type":"yes","residential":true,"residents_est":5,"h3_10":"8a1e05a65507fff","h3_11":"8b1e05a65501fff"},"geometry":{"type":"Polygon","coordinates":[[[19.866733,49.988563],[19.866831,49.988512],[19.866873,49.988545],[19.866888,49.988538],[19.866919,49.988563],[19.866905,49.98857],[19.866929,49.98859],[19.866826,49.988644],[19.866733,49.988563]]]}},{"type":"Feature","id":"w336855957","properties":{"type":"yes","residential":true,"residents_est":6,"h3_10":"8a1e05a65557fff","h3_11":"8b1e05a65550fff"},"geometry":{"type":"Polygon","coordinates":[[[19.869078,49.987999],[19.869132,49.9879],[19.869273,49.987932],[19.869219,49.988031],[19.869078,49.987999]]]}},{"type":"Feature","id":"w336855958","properties":{"type":"yes","residential":true,"residents_est":6,"h3_10":"8a1e05a6552ffff","h3_11":"8b1e05a65529fff"},"geometry":{"type":"Polygon","coordinates":[[[19.868097,49.989143],[19.868225,49.989133],[19.868248,49.989252],[19.86812,49.989262],[19.868097,49.989143]]]}},{"type":"Feature","id":"w336855959","properties":{"type":"yes","residential":true,"residents_est":4,"h3_10":"8a1e05a65507fff","h3_11":"8b1e05a65501fff"},"geometry":{"type":"Polygon","coordinates":[[[19.866228,49.988663],[19.866298,49.988611],[19.866413,49.988676],[19.866343,49.988727],[19.866228,49.988663]]]}},{"type":"Feature","id":"w336855961","properties":{"type":"garage","residential":false,"residents_est":0,"h3_10":"8a1e05a6550ffff","h3_11":"8b1e05a65508fff"},"geometry":{"type":"Polygon","coordinates":[[[19.867669,49.98811],[19.867784,49.988089],[19.867814,49.988156],[19.867698,49.988177],[19.867669,49.98811]]]}},{"type":"Feature","id":"w336855962","properties":{"type":"yes","residential":true,"residents_est":4,"h3_10":"8a1e05a65507fff","h3_11":"8b1e05a65504fff"},"geometry":{"type":"Polygon","coordinates":[[[19.865564,49.989009],[19.865657,49.988959],[19.865736,49.98902],[19.865642,49.989069],[19.865564,49.989009]]]}},{"type":"Feature","id":"w336855963","properties":{"type":"yes","residential":true,"residents_est":5,"h3_10":"8a1e05a65507fff","h3_11":"8b1e05a65501fff"},"geometry":{"type":"Polygon","coordinates":[[[19.866605,49.988715],[19.866712,49.988658],[19.866805,49.988734],[19.866693,49.988789],[19.866605,49.988715]]]}},{"type":"Feature","id":"w336855967","properties":{"type":"yes","residential":true,"residents_est":3,"h3_10":"8a1e05a6550ffff","h3_11":"8b1e05a6550afff"},"geometry":{"type":"Polygon","coordinates":[[[19.867414,49.987775],[19.86758,49.987773],[19.867582,49.987823],[19.867415,49.987825],[19.867414,49.987775]]]}},{"type":"Feature","id":"w336855970","properties":{"type":"garage","residential":false,"residents_est":0,"h3_10":"8a1e05a6550ffff","h3_11":"8b1e05a6550bfff"},"geometry":{"type":"Polygon","coordinates":[[[19.868308,49.987771],[19.868358,49.987754],[19.868402,49.987807],[19.868352,49.987824],[19.868308,49.987771]]]}},{"type":"Feature","id":"w336855972","properties":{"type":"garage","residential":false,"residents_est":0,"h3_10":"8a1e05a6550ffff","h3_11":"8b1e05a65509fff"},"geometry":{"type":"Polygon","coordinates":[[[19.868379,49.988085],[19.868425,49.988078],[19.868454,49.988151],[19.868407,49.988158],[19.868379,49.988085]]]}},{"type":"Feature","id":"w336855974","properties":{"type":"garage","residential":false,"residents_est":0,"h3_10":"8a1e05a6550ffff","h3_11":"8b1e05a65509fff"},"geometry":{"type":"Polygon","coordinates":[[[19.868415,49.988039],[19.868429,49.988002],[19.868503,49.988013],[19.868489,49.988051],[19.868415,49.988039]]]}},{"type":"Feature","id":"w336855975","properties":{"type":"garage","residential":false,"residents_est":0,"h3_10":"8a1e05a65557fff","h3_11":"8b1e05a65556fff"},"geometry":{"type":"Polygon","coordinates":[[[19.868781,49.987792],[19.868902,49.987716],[19.868979,49.987765],[19.868861,49.987843],[19.868781,49.987792]]]}},{"type":"Feature","id":"w336855977","properties":{"type":"garage","residential":false,"residents_est":0,"h3_10":"8a1e05a65557fff","h3_11":"8b1e05a65554fff"},"geometry":{"type":"Polygon","coordinates":[[[19.869355,49.988114],[19.869368,49.988036],[19.869437,49.988038],[19.869423,49.988119],[19.869355,49.988114]]]}},{"type":"Feature","id":"w336855978","properties":{"type":"garage","residential":false,"residents_est":0,"h3_10":"8a1e05a65507fff","h3_11":"8b1e05a65500fff"},"geometry":{"type":"Polygon","coordinates":[[[19.866081,49.988521],[19.866161,49.988442],[19.866242,49.988476],[19.866162,49.988555],[19.866081,49.988521]]]}},{"type":"Feature","id":"w336855982","properties":{"type":"garage","residential":false,"residents_est":0,"h3_10":"8a1e05a65507fff","h3_11":"8b1e05a65501fff"},"geometry":{"type":"Polygon","coordinates":[[[19.86653,49.988476],[19.866579,49.988419],[19.86663,49.988437],[19.866581,49.988494],[19.86653,49.988476]]]}},{"type":"Feature","id":"w336855986","properties":{"type":"yes","residential":true,"residents_est":4,"h3_10":"8a1e05a65507fff","h3_11":"8b1e05a65501fff"},"geometry":{"type":"Polygon","coordinates":[[[19.866343,49.988727],[19.866413,49.988676],[19.866529,49.988738],[19.866458,49.988791],[19.866343,49.988727]]]}},{"type":"Feature","id":"w336855988","properties":{"type":"yes","residential":true,"residents_est":4,"h3_10":"8a1e05a6550ffff","h3_11":"8b1e05a65509fff"},"geometry":{"type":"Polygon","coordinates":[[[19.86825,49.988105],[19.868379,49.988085],[19.868407,49.988158],[19.868278,49.988179],[19.86825,49.988105]]]}},{"type":"Feature","id":"w336855990","properties":{"type":"yes","residential":true,"residents_est":33,"h3_10":"8a1e05a65577fff","h3_11":"8b1e05a65574fff"},"geometry":{"type":"Polygon","coordinates":[[[19.868799,49.989244],[19.869159,49.989227],[19.869173,49.989341],[19.86881,49.98936],[19.868799,49.989244]]]}},{"type":"Feature","id":"w336855991","properties":{"type":"yes","residential":true,"residents_est":5,"h3_10":"8a1e05a65557fff","h3_11":"8b1e05a65556fff"},"geometry":{"type":"Polygon","coordinates":[[[19.868563,49.987899],[19.868599,49.987821],[19.868748,49.987849],[19.868712,49.987927],[19.868678,49.987921],[19.868671,49.987936],[19.868612,49.987924],[19.868618,49.98791],[19.868563,49.987899]]]}},{"type":"Feature","id":"w336855992","properties":{"type":"yes","residential":true,"residents_est":6,"h3_10":"8a1e05a6550ffff","h3_11":"8b1e05a65509fff"},"geometry":{"type":"Polygon","coordinates":[[[19.868001,49.988147],[19.868171,49.988119],[19.868186,49.988157],[19.868153,49.988163],[19.868163,49.988186],[19.868173,49.988185],[19.868188,49.988222],[19.86804,49.988247],[19.868001,49.988147]]]}},{"type":"Feature","id":"w336876754","properties":{"type":"apartments","levels":2.0,"address":"Zagumnie 14","residential":true,"residents_est":20,"h3_10":"8a1e05a65567fff","h3_11":"8b1e05a65565fff"},"geometry":{"type":"Polygon","coordinates":[[[19.870577,49.990052],[19.870814,49.990026],[19.870837,49.990137],[19.870611,49.990155],[19.870607,49.990138],[19.870595,49.990138],[19.870577,49.990052]]]}},{"type":"Feature","id":"w336876756","properties":{"type":"yes","levels":2.0,"address":"Stanisława Działowskiego 1","residential":true,"residents_est":34,"h3_10":"8a1e05a6556ffff","h3_11":"8b1e05a6556bfff"},"geometry":{"type":"Polygon","coordinates":[[[19.872593,49.989082],[19.872608,49.989023],[19.872621,49.989025],[19.872625,49.98901],[19.872612,49.989009],[19.872628,49.988943],[19.872668,49.988947],[19.872689,49.988868],[19.872823,49.988879],[19.872809,49.988934],[19.87299,49.988953],[19.872963,49.989066],[19.872905,49.98906],[19.872858,49.989246],[19.872685,49.989228],[19.872718,49.989095],[19.872593,49.989082]]]}},{"type":"Feature","id":"w336876757","properties":{"type":"school","address":"Mieczysława Wrony 115","name":"Szkoła Podstawowa nr 133 im. Orła Białego w Krakowie","residential":false,"residents_est":0,"h3_10":"8a1e05a6554ffff","h3_11":"8b1e05a6554afff"},"geometry":{"type":"Polygon","coordinates":[[[19.872438,49.987894],[19.872474,49.987778],[19.87306,49.987861],[19.873017,49.987981],[19.872438,49.987894]]]}},{"type":"Feature","id":"w336876760","properties":{"type":"house","levels":2.0,"address":"Zagumnie 12","residential":true,"residents_est":10,"h3_10":"8a1e05a65567fff","h3_11":"8b1e05a65565fff"},"geometry":{"type":"Polygon","coordinates":[[[19.871005,49.989938],[19.871143,49.989928],[19.871157,49.990007],[19.87111,49.990011],[19.871113,49.990026],[19.871021,49.990033],[19.871005,49.989938]]]}},{"type":"Feature","id":"w336876769","properties":{"type":"yes","residential":false,"residents_est":0,"h3_10":"8a1e05a6555ffff","h3_11":"8b1e05a65559fff"},"geometry":{"type":"Polygon","coordinates":[[[19.871946,49.98764],[19.871988,49.987587],[19.872062,49.987611],[19.872022,49.987664],[19.871946,49.98764]]]}},{"type":"Feature","id":"w336876770","properties":{"type":"retail","levels":1.0,"address":"Mieczysława Wrony 128","residential":false,"residents_est":0,"h3_10":"8a1e05a65547fff","h3_11":"8b1e05a65542fff"},"geometry":{"type":"Polygon","coordinates":[[[19.870466,49.988433],[19.870492,49.988347],[19.870628,49.988364],[19.870599,49.988449],[19.870466,49.988433]]]}},{"type":"Feature","id":"w336876771","properties":{"type":"outbuilding","levels":1.0,"residential":false,"residents_est":0,"h3_10":"8a1e05a6556ffff","h3_11":"8b1e05a6556cfff"},"geometry":{"type":"Polygon","coordinates":[[[19.872027,49.98982],[19.872039,49.989763],[19.872173,49.989775],[19.872161,49.989832],[19.872027,49.98982]]]}},{"type":"Feature","id":"w336876773","properties":{"type":"garage","residential":false,"residents_est":0,"h3_10":"8a1e05a6552ffff","h3_11":"8b1e05a65528fff"},"geometry":{"type":"Polygon","coordinates":[[[19.867325,49.989132],[19.867436,49.989122],[19.867449,49.989184],[19.867341,49.989194],[19.867325,49.989132]]]}},{"type":"Feature","id":"w336876777","properties":{"type":"yes","residential":true,"residents_est":4,"h3_10":"8a1e05a6552ffff","h3_11":"8b1e05a65528fff"},"geometry":{"type":"Polygon","coordinates":[[[19.867225,49.989109],[19.867317,49.989098],[19.867346,49.989216],[19.867255,49.989224],[19.867225,49.989109]]]}},{"type":"Feature","id":"w336876780","properties":{"type":"house","levels":3.0,"address":"Mieczysława Wrony 150","residential":true,"residents_est":16,"h3_10":"8a1e05a6555ffff","h3_11":"8b1e05a6555dfff"},"geometry":{"type":"Polygon","coordinates":[[[19.871506,49.988041],[19.871566,49.987964],[19.871685,49.988003],[19.871611,49.988099],[19.871539,49.988077],[19.871555,49.988056],[19.871506,49.988041]]]}},{"type":"Feature","id":"w337603772","properties":{"type":"yes","address":"Tretówka 57","residential":true,"residents_est":4,"h3_10":"8a1e05a6540ffff","h3_11":"8b1e05a65408fff"},"geometry":{"type":"Polygon","coordinates":[[[19.869778,49.985675],[19.86978,49.985664],[19.869792,49.985665],[19.869808,49.985586],[19.869833,49.985588],[19.869831,49.985597],[19.869943,49.985605],[19.86993,49.985674],[19.869817,49.985665],[19.869815,49.985678],[19.869778,49.985675]]]}},{"type":"Feature","id":"w337603809","properties":{"type":"yes","address":"Topografów 6","residential":true,"residents_est":6,"h3_10":"8a1e05a6545ffff","h3_11":"8b1e05a6545bfff"},"geometry":{"type":"Polygon","coordinates":[[[19.873925,49.984792],[19.873945,49.984748],[19.873979,49.984755],[19.873991,49.984729],[19.874152,49.984757],[19.874123,49.984824],[19.874062,49.984813],[19.874056,49.984829],[19.874011,49.984821],[19.874016,49.984808],[19.873925,49.984792]]]}},{"type":"Feature","id":"w337603816","properties":{"type":"yes","residential":true,"residents_est":3,"h3_10":"8a1e05a65557fff","h3_11":"8b1e05a65552fff"},"geometry":{"type":"Polygon","coordinates":[[[19.868698,49.987422],[19.868707,49.987383],[19.868806,49.987392],[19.868808,49.987381],[19.868836,49.987384],[19.868834,49.987394],[19.868868,49.987397],[19.868859,49.987436],[19.868698,49.987422]]]}},{"type":"Feature","id":"w337603822","properties":{"type":"yes","residential":true,"residents_est":5,"h3_10":"8a1e05a65427fff","h3_11":"8b1e05a65423fff"},"geometry":{"type":"Polygon","coordinates":[[[19.86841,49.98668],[19.868414,49.98657],[19.868486,49.986571],[19.868486,49.98658],[19.86855,49.986581],[19.868548,49.986671],[19.868514,49.986671],[19.868513,49.986681],[19.868476,49.98668],[19.868477,49.986671],[19.868417,49.98667],[19.868417,49.98668],[19.86841,49.98668]]]}},{"type":"Feature","id":"w337603871","properties":{"type":"yes","address":"Adama Prażmowskiego 3","residential":true,"residents_est":7,"h3_10":"8a1e05a6545ffff","h3_11":"8b1e05a65458fff"},"geometry":{"type":"Polygon","coordinates":[[[19.873298,49.984892],[19.873347,49.984834],[19.87343,49.984866],[19.873457,49.984835],[19.873529,49.984864],[19.8735,49.984916],[19.873383,49.984949],[19.873317,49.984926],[19.873336,49.984907],[19.873298,49.984892]]]}},{"type":"Feature","id":"w337603906","properties":{"type":"yes","address":"Adama Prażmowskiego 15","residential":true,"residents_est":4,"h3_10":"8a1e05a654cffff","h3_11":"8b1e05a654c9fff"},"geometry":{"type":"Polygon","coordinates":[[[19.87351,49.983207],[19.873522,49.983184],[19.873516,49.98317],[19.873524,49.983153],[19.873544,49.983145],[19.873558,49.983123],[19.873663,49.983147],[19.873614,49.983231],[19.87351,49.983207]]]}},{"type":"Feature","id":"w337603931","properties":{"type":"yes","address":"Adama Prażmowskiego 10b","residential":true,"residents_est":5,"h3_10":"8a1e05a654cffff","h3_11":"8b1e05a654c8fff"},"geometry":{"type":"Polygon","coordinates":[[[19.872765,49.983115],[19.87278,49.983087],[19.872771,49.983085],[19.872788,49.983054],[19.872777,49.983038],[19.872802,49.98303],[19.872819,49.982999],[19.872928,49.983023],[19.872898,49.983085],[19.87288,49.98311],[19.872874,49.983108],[19.872859,49.983136],[19.872765,49.983115]]]}},{"type":"Feature","id":"w337604005","properties":{"type":"yes","address":"Tretówka 53","residential":true,"residents_est":2,"h3_10":"8a1e05a6540ffff","h3_11":"8b1e05a6540efff"},"geometry":{"type":"Polygon","coordinates":[[[19.869418,49.985557],[19.869494,49.985556],[19.869495,49.985632],[19.869418,49.985632],[19.869418,49.985557]]]}},{"type":"Feature","id":"w337604009","properties":{"type":"yes","address":"Adama Prażmowskiego 14","residential":true,"residents_est":3,"h3_10":"8a1e05a654cffff","h3_11":"8b1e05a654cefff"},"geometry":{"type":"Polygon","coordinates":[[[19.871918,49.983214],[19.871943,49.983142],[19.872052,49.983159],[19.872026,49.98323],[19.871918,49.983214]]]}},{"type":"Feature","id":"w337604022","properties":{"type":"yes","residential":true,"residents_est":5,"h3_10":"8a1e05a65407fff","h3_11":"8b1e05a65404fff"},"geometry":{"type":"Polygon","coordinates":[[[19.867915,49.986544],[19.867929,49.986464],[19.86807,49.986476],[19.868054,49.986557],[19.867915,49.986544]]]}},{"type":"Feature","id":"w337604023","properties":{"type":"yes","residential":true,"residents_est":3,"h3_10":"8a1e05a65557fff","h3_11":"8b1e05a65552fff"},"geometry":{"type":"Polygon","coordinates":[[[19.869242,49.987398],[19.869283,49.987348],[19.869383,49.987383],[19.869342,49.987432],[19.869242,49.987398]]]}},{"type":"Feature","id":"w337604037","properties":{"type":"yes","residential":true,"residents_est":6,"h3_10":"8a1e05a65557fff","h3_11":"8b1e05a65555fff"},"geometry":{"type":"Polygon","coordinates":[[[19.869447,49.988328],[19.869466,49.988192],[19.869584,49.988198],[19.869566,49.988336],[19.869447,49.988328]]]}},{"type":"Feature","id":"w337604038","properties":{"type":"yes","residential":true,"residents_est":3,"h3_10":"8a1e05a65457fff","h3_11":"8b1e05a65453fff"},"geometry":{"type":"Polygon","coordinates":[[[19.872185,49.984687],[19.872217,49.984654],[19.872384,49.984719],[19.872352,49.984753],[19.872185,49.984687]]]}},{"type":"Feature","id":"w337604056","properties":{"type":"yes","residential":true,"residents_est":4,"h3_10":"8a1e05a65427fff","h3_11":"8b1e05a65425fff"},"geometry":{"type":"Polygon","coordinates":[[[19.868474,49.987559],[19.868509,49.987477],[19.86862,49.987498],[19.868584,49.987579],[19.868474,49.987559]]]}},{"type":"Feature","id":"w337604067","properties":{"type":"yes","residential":true,"residents_est":4,"h3_10":"8a1e05a6551ffff","h3_11":"8b1e05a65518fff"},"geometry":{"type":"Polygon","coordinates":[[[19.866311,49.987295],[19.866411,49.98729],[19.866428,49.987404],[19.866328,49.98741],[19.866311,49.987295]]]}},{"type":"Feature","id":"w337604070","properties":{"type":"yes","residential":true,"residents_est":3,"h3_10":"8a1e05a6545ffff","h3_11":"8b1e05a6545bfff"},"geometry":{"type":"Polygon","coordinates":[[[19.874012,49.984601],[19.874042,49.984501],[19.874121,49.984511],[19.874091,49.984611],[19.874012,49.984601]]]}},{"type":"Feature","id":"w337604128","properties":{"type":"yes","residential":false,"residents_est":0,"h3_10":"8a1e05a65407fff","h3_11":"8b1e05a65406fff"},"geometry":{"type":"Polygon","coordinates":[[[19.867407,49.986127],[19.867419,49.986058],[19.86748,49.986063],[19.867469,49.986131],[19.867407,49.986127]]]}},{"type":"Feature","id":"w337604191","properties":{"type":"yes","address":"Adama Prażmowskiego 4","residential":true,"residents_est":4,"h3_10":"8a1e05a654effff","h3_11":"8b1e05a654edfff"},"geometry":{"type":"Polygon","coordinates":[[[19.872454,49.984632],[19.872509,49.984577],[19.872612,49.98462],[19.872557,49.984675],[19.872534,49.984665],[19.87251,49.984689],[19.872458,49.984668],[19.872482,49.984644],[19.872454,49.984632]]]}},{"type":"Feature","id":"w337604193","properties":{"type":"yes","residential":true,"residents_est":6,"h3_10":"8a1e05a65427fff","h3_11":"8b1e05a65425fff"},"geometry":{"type":"Polygon","coordinates":[[[19.868265,49.987426],[19.868297,49.987333],[19.86835,49.98734],[19.868355,49.987327],[19.868438,49.987338],[19.868401,49.987445],[19.868265,49.987426]]]}},{"type":"Feature","id":"w337604365","properties":{"type":"yes","residential":true,"residents_est":5,"h3_10":"8a1e05a654cffff","h3_11":"8b1e05a654ccfff"},"geometry":{"type":"Polygon","coordinates":[[[19.872416,49.983596],[19.872485,49.983492],[19.872581,49.983519],[19.872509,49.983623],[19.872416,49.983596]]]}},{"type":"Feature","id":"w337604402","properties":{"type":"yes","address":"Adama Prażmowskiego 8","residential":true,"residents_est":7,"h3_10":"8a1e05a654effff","h3_11":"8b1e05a654ebfff"},"geometry":{"type":"Polygon","coordinates":[[[19.87266,49.983672],[19.872715,49.98359],[19.872892,49.983639],[19.872836,49.983722],[19.872765,49.983701],[19.872754,49.983718],[19.872709,49.983705],[19.87272,49.983689],[19.87266,49.983672]]]}},{"type":"Feature","id":"w337604423","properties":{"type":"yes","address":"Adama Prażmowskiego 16","residential":true,"residents_est":4,"h3_10":"8a1e05a654cffff","h3_11":"8b1e05a654cefff"},"geometry":{"type":"Polygon","coordinates":[[[19.872037,49.983012],[19.872069,49.982936],[19.872196,49.982954],[19.872188,49.982975],[19.87222,49.98298],[19.872206,49.983018],[19.872175,49.983014],[19.872169,49.983031],[19.872037,49.983012]]]}},{"type":"Feature","id":"w337604436","properties":{"type":"yes","address":"Topografów 10","residential":true,"residents_est":11,"h3_10":"8a1e05a6545ffff","h3_11":"8b1e05a65459fff"},"geometry":{"type":"Polygon","coordinates":[[[19.874565,49.984982],[19.874605,49.984875],[19.874857,49.984913],[19.874818,49.985021],[19.874565,49.984982]]]}},{"type":"Feature","id":"w337604442","properties":{"type":"yes","residential":true,"residents_est":8,"h3_10":"8a1e05a65427fff","h3_11":"8b1e05a65421fff"},"geometry":{"type":"Polygon","coordinates":[[[19.868658,49.986961],[19.868682,49.986868],[19.868876,49.986891],[19.86885,49.986983],[19.868786,49.986977],[19.86878,49.986999],[19.868721,49.986992],[19.868729,49.986969],[19.868658,49.986961]]]}},{"type":"Feature","id":"w337604443","properties":{"type":"yes","address":"Adama Prażmowskiego 10a","residential":true,"residents_est":8,"h3_10":"8a1e05a654cffff","h3_11":"8b1e05a654cdfff"},"geometry":{"type":"Polygon","coordinates":[[[19.872744,49.98333],[19.872796,49.983237],[19.872961,49.983277],[19.872921,49.98335],[19.872949,49.983356],[19.872919,49.983409],[19.87283,49.983387],[19.872848,49.983354],[19.872744,49.98333]]]}},{"type":"Feature","id":"w337604476","properties":{"type":"yes","residential":true,"residents_est":4,"h3_10":"8a1e05a65557fff","h3_11":"8b1e05a65552fff"},"geometry":{"type":"Polygon","coordinates":[[[19.868966,49.987598],[19.868997,49.987544],[19.869163,49.987581],[19.869132,49.987636],[19.868966,49.987598]]]}},{"type":"Feature","id":"w337604483","properties":{"type":"yes","address":"Topografów 4","residential":true,"residents_est":7,"h3_10":"8a1e05a6545ffff","h3_11":"8b1e05a65458fff"},"geometry":{"type":"Polygon","coordinates":[[[19.873655,49.98478],[19.873687,49.98471],[19.873883,49.984746],[19.873841,49.984838],[19.873745,49.98482],[19.873748,49.984813],[19.8737,49.984804],[19.873706,49.98479],[19.873655,49.98478]]]}},{"type":"Feature","id":"w337604484","properties":{"type":"yes","address":"Adama Prażmowskiego 10","residential":true,"residents_est":7,"h3_10":"8a1e05a654cffff","h3_11":"8b1e05a654c9fff"},"geometry":{"type":"Polygon","coordinates":[[[19.873058,49.983107],[19.873095,49.983037],[19.87329,49.983078],[19.873251,49.98315],[19.873191,49.983137],[19.873182,49.983154],[19.87311,49.983138],[19.87312,49.983121],[19.873058,49.983107]]]}},{"type":"Feature","id":"w337604488","properties":{"type":"yes","residential":true,"residents_est":7,"h3_10":"8a1e05a65557fff","h3_11":"8b1e05a65555fff"},"geometry":{"type":"Polygon","coordinates":[[[19.869753,49.988331],[19.86977,49.988209],[19.869926,49.988223],[19.869915,49.988323],[19.869849,49.988319],[19.869846,49.988336],[19.869753,49.988331]]]}},{"type":"Feature","id":"w337604530","properties":{"type":"yes","address":"Tretówka 33","residential":true,"residents_est":6,"h3_10":"8a1e05a65407fff","h3_11":"8b1e05a65406fff"},"geometry":{"type":"Polygon","coordinates":[[[19.867346,49.985918],[19.867351,49.985825],[19.867491,49.985827],[19.867487,49.985921],[19.867454,49.98592],[19.867453,49.985944],[19.867401,49.985943],[19.867402,49.985919],[19.867346,49.985918]]]}},{"type":"Feature","id":"w337604535","properties":{"type":"yes","residential":true,"residents_est":4,"h3_10":"8a1e05a65427fff","h3_11":"8b1e05a65423fff"},"geometry":{"type":"Polygon","coordinates":[[[19.868385,49.986905],[19.868409,49.986828],[19.868524,49.986845],[19.8685,49.986919],[19.868462,49.986914],[19.868457,49.986931],[19.868402,49.986924],[19.868407,49.986908],[19.868385,49.986905]]]}},{"type":"Feature","id":"w337616809","properties":{"type":"yes","residential":true,"residents_est":7,"h3_10":"8a1e05a6546ffff","h3_11":"8b1e05a6546efff"},"geometry":{"type":"Polygon","coordinates":[[[19.873993,49.986569],[19.874168,49.986568],[19.874168,49.986582],[19.874195,49.986582],[19.874198,49.986671],[19.874062,49.986673],[19.874061,49.986642],[19.874017,49.986643],[19.874015,49.986615],[19.873995,49.986615],[19.873993,49.986569]]]}},{"type":"Feature","id":"w337616814","properties":{"type":"yes","residential":true,"residents_est":4,"h3_10":"8a1e05a6546ffff","h3_11":"8b1e05a65468fff"},"geometry":{"type":"Polygon","coordinates":[[[19.874686,49.986957],[19.874756,49.986956],[19.874755,49.986942],[19.874811,49.986941],[19.874814,49.987034],[19.874689,49.987036],[19.874686,49.986957]]]}},{"type":"Feature","id":"w337616815","properties":{"type":"yes","residential":true,"residents_est":6,"h3_10":"8a1e05a6551ffff","h3_11":"8b1e05a6551efff"},"geometry":{"type":"Polygon","coordinates":[[[19.865169,49.987467],[19.865317,49.987457],[19.865324,49.987497],[19.865358,49.987494],[19.865366,49.987536],[19.86531,49.98754],[19.865312,49.987555],[19.865229,49.98756],[19.865226,49.987544],[19.865182,49.987547],[19.865169,49.987467]]]}},{"type":"Feature","id":"w337616816","properties":{"type":"yes","residential":true,"residents_est":4,"h3_10":"8a1e05a65517fff","h3_11":"8b1e05a65516fff"},"geometry":{"type":"Polygon","coordinates":[[[19.863678,49.98777],[19.863724,49.987766],[19.863734,49.987755],[19.863761,49.987753],[19.863773,49.987762],[19.863819,49.987758],[19.863835,49.987833],[19.863694,49.987846],[19.863678,49.98777]]]}},{"type":"Feature","id":"w337616818","properties":{"type":"yes","residential":true,"residents_est":10,"h3_10":"8a1e05a65517fff","h3_11":"8b1e05a65513fff"},"geometry":{"type":"Polygon","coordinates":[[[19.86477,49.987474],[19.864846,49.987469],[19.86485,49.987496],[19.864932,49.98749],[19.864936,49.987512],[19.865037,49.987504],[19.86505,49.987582],[19.864943,49.987591],[19.864942,49.987586],[19.864859,49.987592],[19.864858,49.987585],[19.864789,49.987589],[19.86477,49.987474]]]}},{"type":"Feature","id":"w337616819","properties":{"type":"yes","residential":true,"residents_est":7,"h3_10":"8a1e05a65517fff","h3_11":"8b1e05a65512fff"},"geometry":{"type":"Polygon","coordinates":[[[19.864063,49.987407],[19.864132,49.987403],[19.864128,49.987378],[19.864169,49.987375],[19.864172,49.987398],[19.864207,49.987396],[19.86421,49.987412],[19.864246,49.98741],[19.864253,49.987453],[19.864217,49.987456],[19.864227,49.987524],[19.864116,49.987531],[19.864103,49.987442],[19.864069,49.987444],[19.864063,49.987407]]]}},{"type":"Feature","id":"w337616820","properties":{"type":"yes","residential":true,"residents_est":6,"h3_10":"8a1e05a655affff","h3_11":"8b1e05a655adfff"},"geometry":{"type":"Polygon","coordinates":[[[19.865151,49.987143],[19.865209,49.987139],[19.865209,49.987129],[19.865234,49.987127],[19.865238,49.987137],[19.865284,49.987134],[19.865287,49.987152],[19.865314,49.987158],[19.865317,49.987176],[19.865293,49.987185],[19.8653,49.987231],[19.865167,49.98724],[19.865151,49.987143]]]}},{"type":"Feature","id":"w337616821","properties":{"type":"yes","residential":true,"residents_est":5,"h3_10":"8a1e05a65467fff","h3_11":"8b1e05a65466fff"},"geometry":{"type":"Polygon","coordinates":[[[19.872165,49.987161],[19.87218,49.987081],[19.872313,49.987091],[19.872299,49.987171],[19.872255,49.987168],[19.872252,49.987185],[19.87221,49.987182],[19.872213,49.987165],[19.872165,49.987161]]]}},{"type":"Feature","id":"w337616826","properties":{"type":"yes","residential":true,"residents_est":5,"h3_10":"8a1e05a65557fff","h3_11":"8b1e05a65550fff"},"geometry":{"type":"Polygon","coordinates":[[[19.869737,49.987873],[19.869758,49.987777],[19.869895,49.987788],[19.869878,49.987866],[19.86983,49.987863],[19.869826,49.987881],[19.869737,49.987873]]]}},{"type":"Feature","id":"w337616827","properties":{"type":"yes","residential":true,"residents_est":4,"h3_10":"8a1e05a65467fff","h3_11":"8b1e05a65465fff"},"geometry":{"type":"Polygon","coordinates":[[[19.873424,49.987508],[19.873538,49.987495],[19.873565,49.987595],[19.873451,49.987608],[19.873424,49.987508]]]}},{"type":"Feature","id":"w337616829","properties":{"type":"yes","residential":true,"residents_est":9,"h3_10":"8a1e05a65517fff","h3_11":"8b1e05a65516fff"},"geometry":{"type":"Polygon","coordinates":[[[19.86358,49.987939],[19.863801,49.987919],[19.863822,49.988019],[19.863601,49.988039],[19.86358,49.987939]]]}},{"type":"Feature","id":"w337616831","properties":{"type":"yes","residential":true,"residents_est":2,"h3_10":"8a1e05a655affff","h3_11":"8b1e05a655acfff"},"geometry":{"type":"Polygon","coordinates":[[[19.864412,49.987091],[19.864492,49.987086],[19.864502,49.987158],[19.864422,49.987163],[19.864412,49.987091]]]}},{"type":"Feature","id":"w337616833","properties":{"type":"yes","residential":true,"residents_est":6,"h3_10":"8a1e05a65447fff","h3_11":"8b1e05a65444fff"},"geometry":{"type":"Polygon","coordinates":[[[19.873197,49.986352],[19.87337,49.98635],[19.873372,49.986434],[19.873199,49.986436],[19.873197,49.986352]]]}},{"type":"Feature","id":"w337616834","properties":{"type":"yes","residential":true,"residents_est":3,"h3_10":"8a1e05a6555ffff","h3_11":"8b1e05a6555efff"},"geometry":{"type":"Polygon","coordinates":[[[19.870479,49.987288],[19.870484,49.987224],[19.870613,49.987228],[19.870608,49.987293],[19.870479,49.987288]]]}},{"type":"Feature","id":"w337616835","properties":{"type":"yes","residential":true,"residents_est":4,"h3_10":"8a1e05a6546ffff","h3_11":"8b1e05a65468fff"},"geometry":{"type":"Polygon","coordinates":[[[19.874553,49.986584],[19.874678,49.986582],[19.87468,49.986655],[19.874555,49.986657],[19.874553,49.986584]]]}},{"type":"Feature","id":"w337616837","properties":{"type":"yes","residential":true,"residents_est":2,"h3_10":"8a1e05a65557fff","h3_11":"8b1e05a65553fff"},"geometry":{"type":"Polygon","coordinates":[[[19.869729,49.987611],[19.869777,49.987556],[19.869861,49.987587],[19.869812,49.987642],[19.869729,49.987611]]]}},{"type":"Feature","id":"w337616838","properties":{"type":"house","levels":1.0,"address":"Mieczysława Wrony 136","residential":true,"residents_est":5,"h3_10":"8a1e05a6542ffff","h3_11":"8b1e05a65429fff"},"geometry":{"type":"Polygon","coordinates":[[[19.870608,49.986784],[19.870617,49.986713],[19.870781,49.986722],[19.870772,49.986793],[19.870608,49.986784]]]}},{"type":"Feature","id":"w337616839","properties":{"type":"yes","residential":true,"residents_est":5,"h3_10":"8a1e05a65467fff","h3_11":"8b1e05a65465fff"},"geometry":{"type":"Polygon","coordinates":[[[19.873353,49.987304],[19.873468,49.987292],[19.873494,49.987392],[19.873379,49.987405],[19.873353,49.987304]]]}},{"type":"Feature","id":"w337616840","properties":{"type":"yes","residential":true,"residents_est":3,"h3_10":"8a1e05a65517fff","h3_11":"8b1e05a65512fff"},"geometry":{"type":"Polygon","coordinates":[[[19.864102,49.987587],[19.864185,49.98758],[19.864201,49.987661],[19.864118,49.987668],[19.864102,49.987587]]]}},{"type":"Feature","id":"w337616842","properties":{"type":"house","levels":1.0,"address":"Mieczysława Wrony 138","residential":true,"residents_est":3,"h3_10":"8a1e05a6555ffff","h3_11":"8b1e05a6555afff"},"geometry":{"type":"Polygon","coordinates":[[[19.870781,49.986887],[19.870881,49.986886],[19.870882,49.986956],[19.870783,49.986956],[19.870781,49.986887]]]}},{"type":"Feature","id":"w337616843","properties":{"type":"yes","residential":true,"residents_est":8,"h3_10":"8a1e05a655a7fff","h3_11":"8b1e05a655a1fff"},"geometry":{"type":"Polygon","coordinates":[[[19.863453,49.987034],[19.863687,49.987016],[19.863702,49.987096],[19.863623,49.987102],[19.863625,49.98711],[19.863548,49.987115],[19.863546,49.987108],[19.863468,49.987114],[19.863453,49.987034]]]}},{"type":"Feature","id":"w337616845","properties":{"type":"yes","residential":true,"residents_est":4,"h3_10":"8a1e05a6555ffff","h3_11":"8b1e05a6555afff"},"geometry":{"type":"Polygon","coordinates":[[[19.870768,49.987291],[19.870869,49.98728],[19.870897,49.987385],[19.870797,49.987396],[19.870768,49.987291]]]}},{"type":"Feature","id":"w337616846","properties":{"type":"yes","residential":true,"residents_est":4,"h3_10":"8a1e05a65477fff","h3_11":"8b1e05a65475fff"},"geometry":{"type":"Polygon","coordinates":[[[19.871712,49.986756],[19.871746,49.986671],[19.87187,49.986692],[19.871836,49.986776],[19.871712,49.986756]]]}},{"type":"Feature","id":"w337616847","properties":{"type":"yes","residential":false,"residents_est":0,"h3_10":"8a1e05a65477fff","h3_11":"8b1e05a65476fff"},"geometry":{"type":"Polygon","coordinates":[[[19.870874,49.986629],[19.870897,49.986582],[19.870989,49.986601],[19.870966,49.986648],[19.870874,49.986629]]]}},{"type":"Feature","id":"w337616848","properties":{"type":"yes","residential":true,"residents_est":5,"h3_10":"8a1e05a65467fff","h3_11":"8b1e05a65460fff"},"geometry":{"type":"Polygon","coordinates":[[[19.873281,49.9871],[19.873395,49.987087],[19.873423,49.987186],[19.873308,49.9872],[19.873281,49.9871]]]}},{"type":"Feature","id":"w337616850","properties":{"type":"yes","residential":true,"residents_est":2,"h3_10":"8a1e05a6555ffff","h3_11":"8b1e05a65559fff"},"geometry":{"type":"Polygon","coordinates":[[[19.871746,49.987597],[19.871793,49.987535],[19.871873,49.987561],[19.871825,49.987622],[19.871746,49.987597]]]}},{"type":"Feature","id":"w337616851","properties":{"type":"yes","residential":true,"residents_est":5,"h3_10":"8a1e05a6546ffff","h3_11":"8b1e05a6546dfff"},"geometry":{"type":"Polygon","coordinates":[[[19.875104,49.986955],[19.875243,49.986949],[19.875252,49.987031],[19.875113,49.987037],[19.875104,49.986955]]]}},{"type":"Feature","id":"w337616854","properties":{"type":"yes","address":"Mieczysława Wrony 176","residential":true,"residents_est":4,"h3_10":"8a1e05a65477fff","h3_11":"8b1e05a65473fff"},"geometry":{"type":"Polygon","coordinates":[[[19.87209,49.985994],[19.872151,49.985934],[19.872259,49.985979],[19.8722,49.986039],[19.87209,49.985994]]]}},{"type":"Feature","id":"w337616858","properties":{"type":"house","levels":1.0,"address":"Mieczysława Wrony 144","residential":true,"residents_est":6,"h3_10":"8a1e05a6555ffff","h3_11":"8b1e05a65558fff"},"geometry":{"type":"Polygon","coordinates":[[[19.870822,49.987538],[19.870832,49.987464],[19.871041,49.987475],[19.871031,49.98755],[19.870822,49.987538]]]}},{"type":"Feature","id":"w337616859","properties":{"type":"yes","residential":true,"residents_est":5,"h3_10":"8a1e05a65467fff","h3_11":"8b1e05a65463fff"},"geometry":{"type":"Polygon","coordinates":[[[19.87322,49.986927],[19.873334,49.986913],[19.873362,49.987013],[19.873248,49.987027],[19.87322,49.986927]]]}},{"type":"Feature","id":"w337616863","properties":{"type":"house","levels":2.0,"address":"Mieczysława Wrony 156a","residential":true,"residents_est":9,"h3_10":"8a1e05a6555ffff","h3_11":"8b1e05a65559fff"},"geometry":{"type":"Polygon","coordinates":[[[19.87157,49.987508],[19.871609,49.987429],[19.87175,49.987458],[19.871711,49.987524],[19.871686,49.987519],[19.87168,49.987531],[19.87157,49.987508]]]}},{"type":"Feature","id":"w337616864","properties":{"type":"yes","residential":true,"residents_est":5,"h3_10":"8a1e05a6555ffff","h3_11":"8b1e05a6555efff"},"geometry":{"type":"Polygon","coordinates":[[[19.870263,49.987355],[19.870326,49.987301],[19.870462,49.987366],[19.870399,49.98742],[19.870263,49.987355]]]}},{"type":"Feature","id":"w337616866","properties":{"type":"house","levels":1.0,"address":"Mieczysława Wrony 142A","residential":true,"residents_est":4,"h3_10":"8a1e05a6555ffff","h3_11":"8b1e05a6555bfff"},"geometry":{"type":"Polygon","coordinates":[[[19.871389,49.987023],[19.871404,49.986935],[19.871522,49.986944],[19.87151,49.987011],[19.871452,49.987007],[19.871448,49.987027],[19.871389,49.987023]]]}},{"type":"Feature","id":"w337616867","properties":{"type":"yes","residential":true,"residents_est":6,"h3_10":"8a1e05a6546ffff","h3_11":"8b1e05a6546efff"},"geometry":{"type":"Polygon","coordinates":[[[19.873767,49.986553],[19.873915,49.986552],[19.873916,49.986641],[19.873857,49.986641],[19.873857,49.986665],[19.873771,49.986664],[19.873767,49.986553]]]}},{"type":"Feature","id":"w337616869","properties":{"type":"yes","residential":true,"residents_est":5,"h3_10":"8a1e05a655affff","h3_11":"8b1e05a655acfff"},"geometry":{"type":"Polygon","coordinates":[[[19.864296,49.986909],[19.864432,49.986901],[19.864446,49.986998],[19.86439,49.987001],[19.864388,49.986985],[19.864307,49.98699],[19.864296,49.986909]]]}},{"type":"Feature","id":"w337616871","properties":{"type":"house","levels":1.0,"address":"Mieczysława Wrony 168","residential":true,"residents_est":5,"h3_10":"8a1e05a65467fff","h3_11":"8b1e05a65462fff"},"geometry":{"type":"Polygon","coordinates":[[[19.872393,49.986908],[19.872405,49.986823],[19.87254,49.986831],[19.872537,49.986855],[19.872554,49.986856],[19.872549,49.986891],[19.872532,49.98689],[19.872528,49.986916],[19.872393,49.986908]]]}},{"type":"Feature","id":"w337616873","properties":{"type":"yes","residential":true,"residents_est":4,"h3_10":"8a1e05a655a7fff","h3_11":"8b1e05a655a5fff"},"geometry":{"type":"Polygon","coordinates":[[[19.863597,49.987429],[19.863713,49.987419],[19.863733,49.987523],[19.8637,49.987526],[19.863696,49.987508],[19.863615,49.987515],[19.863597,49.987429]]]}},{"type":"Feature","id":"w337616876","properties":{"type":"yes","residential":true,"residents_est":2,"h3_10":"8a1e05a6542ffff","h3_11":"8b1e05a65429fff"},"geometry":{"type":"Polygon","coordinates":[[[19.87044,49.986918],[19.870442,49.986849],[19.870529,49.986849],[19.870528,49.986919],[19.87044,49.986918]]]}},{"type":"Feature","id":"w337616877","properties":{"type":"yes","residential":true,"residents_est":5,"h3_10":"8a1e05a6546ffff","h3_11":"8b1e05a6546cfff"},"geometry":{"type":"Polygon","coordinates":[[[19.87436,49.986939],[19.874503,49.986939],[19.874503,49.987021],[19.874454,49.987021],[19.874454,49.98704],[19.874361,49.98704],[19.87436,49.986939]]]}},{"type":"Feature","id":"w337616879","properties":{"type":"yes","residential":true,"residents_est":5,"h3_10":"8a1e05a6546ffff","h3_11":"8b1e05a6546bfff"},"geometry":{"type":"Polygon","coordinates":[[[19.875222,49.986546],[19.875363,49.986541],[19.875372,49.986638],[19.875314,49.98664],[19.875312,49.986625],[19.875229,49.986628],[19.875222,49.986546]]]}},{"type":"Feature","id":"w337616880","properties":{"type":"yes","residential":true,"residents_est":6,"h3_10":"8a1e05a6546ffff","h3_11":"8b1e05a6546bfff"},"geometry":{"type":"Polygon","coordinates":[[[19.874998,49.986501],[19.875114,49.986497],[19.875124,49.986631],[19.875028,49.986634],[19.875024,49.986578],[19.875004,49.986578],[19.874998,49.986501]]]}},{"type":"Feature","id":"w337616887","properties":{"type":"house","levels":2.0,"address":"Mieczysława Wrony 170","residential":true,"residents_est":15,"h3_10":"8a1e05a65467fff","h3_11":"8b1e05a65462fff"},"geometry":{"type":"Polygon","coordinates":[[[19.872354,49.986635],[19.872396,49.986562],[19.872533,49.986595],[19.872543,49.986576],[19.872622,49.986595],[19.87257,49.986687],[19.872354,49.986635]]]}},{"type":"Feature","id":"w337616891","properties":{"type":"yes","residential":true,"residents_est":3,"h3_10":"8a1e05a6546ffff","h3_11":"8b1e05a6546efff"},"geometry":{"type":"Polygon","coordinates":[[[19.873909,49.986917],[19.874026,49.986905],[19.874041,49.98697],[19.873977,49.986976],[19.873981,49.986992],[19.873928,49.986997],[19.873909,49.986917]]]}},{"type":"Feature","id":"w337616893","properties":{"type":"yes","residential":true,"residents_est":4,"h3_10":"8a1e05a655affff","h3_11":"8b1e05a655acfff"},"geometry":{"type":"Polygon","coordinates":[[[19.864631,49.986893],[19.864759,49.986885],[19.864773,49.986976],[19.864704,49.98698],[19.864702,49.986968],[19.864643,49.986972],[19.864631,49.986893]]]}},{"type":"Feature","id":"w337616896","properties":{"type":"yes","residential":true,"residents_est":4,"h3_10":"8a1e05a65517fff","h3_11":"8b1e05a65514fff"},"geometry":{"type":"Polygon","coordinates":[[[19.863745,49.988255],[19.863868,49.988231],[19.863913,49.988323],[19.863848,49.988336],[19.863841,49.988321],[19.863782,49.988333],[19.863745,49.988255]]]}},{"type":"Feature","id":"w337616898","properties":{"type":"yes","residential":true,"residents_est":6,"h3_10":"8a1e05a65557fff","h3_11":"8b1e05a65553fff"},"geometry":{"type":"Polygon","coordinates":[[[19.869975,49.987476],[19.870063,49.987399],[19.870192,49.987461],[19.870116,49.987527],[19.870049,49.987495],[19.870037,49.987506],[19.869975,49.987476]]]}},{"type":"Feature","id":"w337616899","properties":{"type":"yes","residential":true,"residents_est":4,"h3_10":"8a1e05a6555ffff","h3_11":"8b1e05a6555bfff"},"geometry":{"type":"Polygon","coordinates":[[[19.871865,49.987035],[19.872009,49.987022],[19.872021,49.987101],[19.871881,49.987114],[19.871865,49.987035]]]}},{"type":"Feature","id":"w337616902","properties":{"type":"yes","residential":true,"residents_est":6,"h3_10":"8a1e05a65467fff","h3_11":"8b1e05a65461fff"},"geometry":{"type":"Polygon","coordinates":[[[19.873604,49.986947],[19.873733,49.986934],[19.873767,49.987065],[19.873709,49.987071],[19.873705,49.987054],[19.873632,49.987061],[19.873604,49.986947]]]}},{"type":"Feature","id":"w337616903","properties":{"type":"yes","residential":true,"residents_est":5,"h3_10":"8a1e05a6546ffff","h3_11":"8b1e05a6546afff"},"geometry":{"type":"Polygon","coordinates":[[[19.874298,49.986551],[19.87444,49.98655],[19.874443,49.98664],[19.874301,49.986642],[19.874298,49.986551]]]}},{"type":"Feature","id":"w337616905","properties":{"type":"house","levels":2.0,"address":"Mieczysława Wrony 166","residential":true,"residents_est":8,"h3_10":"8a1e05a65477fff","h3_11":"8b1e05a65475fff"},"geometry":{"type":"Polygon","coordinates":[[[19.872095,49.986791],[19.872231,49.986781],[19.872245,49.986853],[19.872108,49.986863],[19.872095,49.986791]]]}},{"type":"Feature","id":"w337616910","properties":{"type":"yes","residential":true,"residents_est":5,"h3_10":"8a1e05a65447fff","h3_11":"8b1e05a65445fff"},"geometry":{"type":"Polygon","coordinates":[[[19.873525,49.986522],[19.873668,49.986519],[19.873672,49.9866],[19.873529,49.986602],[19.873525,49.986522]]]}},{"type":"Feature","id":"w337616911","properties":{"type":"yes","residential":true,"residents_est":5,"h3_10":"8a1e05a6546ffff","h3_11":"8b1e05a65468fff"},"geometry":{"type":"Polygon","coordinates":[[[19.874798,49.986584],[19.874927,49.986582],[19.87493,49.986643],[19.874948,49.986642],[19.874949,49.986683],[19.874825,49.986685],[19.874824,49.986658],[19.874801,49.986658],[19.874798,49.986584]]]}},{"type":"Feature","id":"w337616914","properties":{"type":"house","levels":2.0,"address":"Mieczysława Wrony 156","residential":true,"residents_est":8,"h3_10":"8a1e05a6555ffff","h3_11":"8b1e05a65559fff"},"geometry":{"type":"Polygon","coordinates":[[[19.871636,49.987378],[19.871651,49.987304],[19.871779,49.987315],[19.871764,49.987389],[19.871715,49.987384],[19.871711,49.9874],[19.871671,49.987397],[19.871674,49.987381],[19.871636,49.987378]]]}},{"type":"Feature","id":"w337616915","properties":{"type":"yes","residential":true,"residents_est":4,"h3_10":"8a1e05a65517fff","h3_11":"8b1e05a65512fff"},"geometry":{"type":"Polygon","coordinates":[[[19.864413,49.987461],[19.864537,49.987451],[19.864552,49.98753],[19.864515,49.987533],[19.864518,49.987548],[19.864468,49.987552],[19.864465,49.987537],[19.864428,49.98754],[19.864413,49.987461]]]}},{"type":"Feature","id":"w337616916","properties":{"type":"yes","residential":true,"residents_est":5,"h3_10":"8a1e05a655affff","h3_11":"8b1e05a655aefff"},"geometry":{"type":"Polygon","coordinates":[[[19.86398,49.986847],[19.864151,49.986839],[19.864165,49.98692],[19.864035,49.98693],[19.86403,49.986898],[19.86399,49.986901],[19.86398,49.986847]]]}},{"type":"Feature","id":"w337616922","properties":{"type":"house","levels":2.0,"address":"Mieczysława Wrony 172","residential":true,"residents_est":12,"h3_10":"8a1e05a65477fff","h3_11":"8b1e05a65471fff"},"geometry":{"type":"Polygon","coordinates":[[[19.872128,49.986574],[19.87216,49.986479],[19.872301,49.9865],[19.872267,49.986595],[19.872221,49.986588],[19.872214,49.986606],[19.872163,49.986598],[19.872169,49.98658],[19.872128,49.986574]]]}},{"type":"Feature","id":"w337616925","properties":{"type":"house","levels":1.0,"address":"Mieczysława Wrony 142","residential":true,"residents_est":6,"h3_10":"8a1e05a6555ffff","h3_11":"8b1e05a6555bfff"},"geometry":{"type":"Polygon","coordinates":[[[19.871187,49.987146],[19.8712,49.987065],[19.871369,49.987076],[19.871356,49.987157],[19.871295,49.987154],[19.871293,49.987171],[19.871248,49.987168],[19.871251,49.987151],[19.871187,49.987146]]]}},{"type":"Feature","id":"w337616931","properties":{"type":"house","levels":1.0,"address":"Mieczysława Wrony 158","residential":true,"residents_est":5,"h3_10":"8a1e05a6555ffff","h3_11":"8b1e05a6555bfff"},"geometry":{"type":"Polygon","coordinates":[[[19.871616,49.987076],[19.871634,49.987006],[19.871773,49.98702],[19.871772,49.987027],[19.871813,49.987031],[19.8718,49.987089],[19.871703,49.987085],[19.8717,49.987098],[19.871668,49.987094],[19.871671,49.987082],[19.871616,49.987076]]]}},{"type":"Feature","id":"w337625727","properties":{"type":"yes","residential":true,"residents_est":5,"h3_10":"8a1e05a655a7fff","h3_11":"8b1e05a655a5fff"},"geometry":{"type":"Polygon","coordinates":[[[19.86318,49.987362],[19.863197,49.987361],[19.863194,49.987349],[19.863253,49.987343],[19.863255,49.987354],[19.863295,49.987351],[19.86331,49.987422],[19.863296,49.987424],[19.863302,49.987456],[19.863202,49.987465],[19.86318,49.987362]]]}},{"type":"Feature","id":"w337625754","properties":{"type":"yes","residential":true,"residents_est":9,"h3_10":"8a1e05a655a7fff","h3_11":"8b1e05a655a4fff"},"geometry":{"type":"Polygon","coordinates":[[[19.862835,49.987332],[19.862844,49.987323],[19.862836,49.987282],[19.86303,49.987266],[19.863039,49.987308],[19.863052,49.987314],[19.863055,49.987328],[19.863045,49.987336],[19.863053,49.987379],[19.862859,49.987395],[19.862851,49.987353],[19.862838,49.987346],[19.862835,49.987332]]]}},{"type":"Feature","id":"w337626000","properties":{"type":"yes","residential":true,"residents_est":5,"h3_10":"8a1e05a655a7fff","h3_11":"8b1e05a655a0fff"},"geometry":{"type":"Polygon","coordinates":[[[19.863121,49.987145],[19.863256,49.987135],[19.863276,49.987235],[19.863207,49.98724],[19.863204,49.987222],[19.863135,49.987227],[19.863121,49.987145]]]}},{"type":"Feature","id":"w337641893","properties":{"type":"yes","residential":true,"residents_est":5,"h3_10":"8a1e05a65527fff","h3_11":"8b1e05a65526fff"},"geometry":{"type":"Polygon","coordinates":[[[19.864669,49.989677],[19.864793,49.989632],[19.864865,49.989714],[19.864741,49.989759],[19.864669,49.989677]]]}},{"type":"Feature","id":"w337642143","properties":{"type":"yes","residential":true,"residents_est":5,"h3_10":"8a1e05a65527fff","h3_11":"8b1e05a65524fff"},"geometry":{"type":"Polygon","coordinates":[[[19.865165,49.990274],[19.86533,49.990221],[19.865382,49.990289],[19.865216,49.990341],[19.865165,49.990274]]]}},{"type":"Feature","id":"w337642149","properties":{"type":"yes","residential":true,"residents_est":2,"h3_10":"8a1e05a65527fff","h3_11":"8b1e05a65520fff"},"geometry":{"type":"Polygon","coordinates":[[[19.865587,49.989704],[19.86559,49.989658],[19.865634,49.98966],[19.865634,49.989639],[19.865691,49.98964],[19.865688,49.989708],[19.865587,49.989704]]]}},{"type":"Feature","id":"w337642254","properties":{"type":"yes","residential":true,"residents_est":6,"h3_10":"8a1e05a65527fff","h3_11":"8b1e05a65524fff"},"geometry":{"type":"Polygon","coordinates":[[[19.865184,49.989976],[19.865252,49.989965],[19.865248,49.989955],[19.865282,49.989949],[19.865287,49.98996],[19.865355,49.989949],[19.865382,49.990017],[19.865332,49.990025],[19.86534,49.990047],[19.865269,49.990058],[19.86526,49.990036],[19.865211,49.990044],[19.865184,49.989976]]]}},{"type":"Feature","id":"w337642390","properties":{"type":"yes","residential":true,"residents_est":5,"h3_10":"8a1e05a65527fff","h3_11":"8b1e05a65524fff"},"geometry":{"type":"Polygon","coordinates":[[[19.864857,49.989898],[19.864958,49.989858],[19.864979,49.989883],[19.864966,49.989888],[19.865038,49.98997],[19.864952,49.990004],[19.864857,49.989898]]]}},{"type":"Feature","id":"w337642437","properties":{"type":"yes","residential":true,"residents_est":4,"h3_10":"8a1e05a65527fff","h3_11":"8b1e05a65524fff"},"geometry":{"type":"Polygon","coordinates":[[[19.864839,49.990063],[19.864928,49.990033],[19.865007,49.990126],[19.864918,49.990154],[19.864839,49.990063]]]}},{"type":"Feature","id":"w371924515","properties":{"type":"house","residential":true,"residents_est":14,"h3_10":"8a1e05a655affff","h3_11":"8b1e05a655acfff"},"geometry":{"type":"Polygon","coordinates":[[[19.864731,49.987216],[19.864813,49.987209],[19.86481,49.987196],[19.864919,49.987187],[19.864938,49.987287],[19.864761,49.987301],[19.864755,49.987272],[19.864742,49.987273],[19.864731,49.987216]]]}},{"type":"Feature","id":"w400501464","properties":{"type":"yes","residential":true,"residents_est":33,"h3_10":"8a1e05a6554ffff","h3_11":"8b1e05a6554bfff"},"geometry":{"type":"Polygon","coordinates":[[[19.872914,49.98784],[19.872959,49.987711],[19.873294,49.987759],[19.873254,49.987874],[19.873065,49.987846],[19.87306,49.987861],[19.872914,49.98784]]]}},{"type":"Feature","id":"w401070256","properties":{"type":"yes","address":"Adama Prażmowskiego 12","residential":true,"residents_est":31,"h3_10":"8a1e05a654cffff","h3_11":"8b1e05a654cbfff"},"geometry":{"type":"Polygon","coordinates":[[[19.872884,49.982912],[19.872974,49.982743],[19.873132,49.982778],[19.873103,49.982832],[19.873178,49.982848],[19.873115,49.982965],[19.872884,49.982912]]]}},{"type":"Feature","id":"w568139527","properties":{"type":"house","levels":1.0,"address":"Adama Prażmowskiego 7a","residential":true,"residents_est":9,"h3_10":"8a1e05a654effff","h3_11":"8b1e05a654e9fff"},"geometry":{"type":"Polygon","coordinates":[[[19.872854,49.984274],[19.872927,49.9842],[19.873106,49.984273],[19.87299,49.984391],[19.872917,49.984361],[19.872961,49.984317],[19.872854,49.984274]]]}},{"type":"Feature","id":"w568144160","properties":{"type":"yes","address":"Adama Prażmowskiego 6","residential":true,"residents_est":5,"h3_10":"8a1e05a654effff","h3_11":"8b1e05a654e8fff"},"geometry":{"type":"Polygon","coordinates":[[[19.872386,49.984029],[19.872457,49.983963],[19.872583,49.98402],[19.872512,49.984085],[19.872472,49.984067],[19.872467,49.984073],[19.872386,49.984029]]]}},{"type":"Feature","id":"w568144161","properties":{"type":"yes","address":"Adama Prażmowskiego 6C","residential":true,"residents_est":5,"h3_10":"8a1e05a654effff","h3_11":"8b1e05a654ebfff"},"geometry":{"type":"Polygon","coordinates":[[[19.872504,49.98383],[19.872575,49.983764],[19.872614,49.983782],[19.87262,49.983776],[19.872702,49.983821],[19.87263,49.983887],[19.872504,49.98383]]]}},{"type":"Feature","id":"w706650131","properties":{"type":"yes","residential":false,"residents_est":0,"h3_10":"8a1e05a65567fff","h3_11":"8b1e05a65565fff"},"geometry":{"type":"Polygon","coordinates":[[[19.871086,49.990136],[19.871143,49.99013],[19.871155,49.990184],[19.871098,49.990189],[19.871086,49.990136]]]}},{"type":"Feature","id":"w706650133","properties":{"type":"yes","residential":true,"residents_est":5,"h3_10":"8a1e05a65577fff","h3_11":"8b1e05a65575fff"},"geometry":{"type":"Polygon","coordinates":[[[19.869167,49.989286],[19.869371,49.989274],[19.869377,49.989331],[19.869173,49.989341],[19.869167,49.989286]]]}},{"type":"Feature","id":"w706650135","properties":{"type":"yes","residential":false,"residents_est":0,"h3_10":"8a1e05a65567fff","h3_11":"8b1e05a65564fff"},"geometry":{"type":"Polygon","coordinates":[[[19.870039,49.9902],[19.870095,49.990194],[19.870106,49.990237],[19.87005,49.990243],[19.870039,49.9902]]]}},{"type":"Feature","id":"w706650175","properties":{"type":"yes","residential":false,"residents_est":0,"h3_10":"8a1e05a65527fff","h3_11":"8b1e05a65520fff"},"geometry":{"type":"Polygon","coordinates":[[[19.865489,49.989576],[19.86549,49.989534],[19.865546,49.989535],[19.865545,49.989579],[19.865489,49.989576]]]}},{"type":"Feature","id":"w706650176","properties":{"type":"yes","residential":true,"residents_est":5,"h3_10":"8a1e05a65527fff","h3_11":"8b1e05a65524fff"},"geometry":{"type":"Polygon","coordinates":[[[19.865354,49.989945],[19.865411,49.989937],[19.865405,49.989922],[19.865443,49.989916],[19.865448,49.989931],[19.865493,49.989924],[19.865519,49.989995],[19.86547,49.990003],[19.865475,49.990016],[19.865421,49.990024],[19.865416,49.990011],[19.865382,49.990017],[19.865354,49.989945]]]}},{"type":"Feature","id":"w706650178","properties":{"type":"yes","residential":false,"residents_est":0,"h3_10":"8a1e05a65527fff","h3_11":"8b1e05a65524fff"},"geometry":{"type":"Polygon","coordinates":[[[19.86514,49.989817],[19.865192,49.989814],[19.865203,49.989892],[19.86515,49.989895],[19.86514,49.989817]]]}},{"type":"Feature","id":"w706650194","properties":{"type":"house","address":"Tretówka 13D","residential":true,"residents_est":8,"h3_10":"8a1e05a65537fff","h3_11":"8b1e05a65532fff"},"geometry":{"type":"Polygon","coordinates":[[[19.863513,49.988666],[19.863653,49.988652],[19.863662,49.988688],[19.863682,49.988686],[19.86369,49.988719],[19.863529,49.988735],[19.863513,49.988666]]]}},{"type":"Feature","id":"w706650195","properties":{"type":"house","address":"Tretówka 13C","residential":true,"residents_est":8,"h3_10":"8a1e05a65537fff","h3_11":"8b1e05a65536fff"},"geometry":{"type":"Polygon","coordinates":[[[19.863529,49.988735],[19.86369,49.988719],[19.863697,49.988751],[19.863678,49.988753],[19.863686,49.98879],[19.863545,49.988803],[19.863529,49.988735]]]}},{"type":"Feature","id":"w706650200","properties":{"type":"house","address":"Tretówka 13","residential":true,"residents_est":8,"h3_10":"8a1e05a65537fff","h3_11":"8b1e05a65532fff"},"geometry":{"type":"Polygon","coordinates":[[[19.863455,49.988419],[19.863595,49.988405],[19.863604,49.988441],[19.863624,49.988439],[19.863632,49.988472],[19.863471,49.988488],[19.863455,49.988419]]]}},{"type":"Feature","id":"w706650201","properties":{"type":"house","address":"Tretówka 13A","residential":true,"residents_est":8,"h3_10":"8a1e05a65537fff","h3_11":"8b1e05a65532fff"},"geometry":{"type":"Polygon","coordinates":[[[19.863471,49.988488],[19.863632,49.988472],[19.86364,49.988504],[19.86362,49.988506],[19.863628,49.988542],[19.863487,49.988556],[19.863471,49.988488]]]}},{"type":"Feature","id":"w706650202","properties":{"type":"house","address":"Tretówka 13E","residential":true,"residents_est":8,"h3_10":"8a1e05a65537fff","h3_11":"8b1e05a65532fff"},"geometry":{"type":"Polygon","coordinates":[[[19.863904,49.988544],[19.863923,49.98854],[19.863908,49.988505],[19.864044,49.98848],[19.864074,49.988547],[19.863918,49.988576],[19.863904,49.988544]]]}},{"type":"Feature","id":"w706650203","properties":{"type":"house","address":"Tretówka 13D","residential":true,"residents_est":8,"h3_10":"8a1e05a65537fff","h3_11":"8b1e05a65532fff"},"geometry":{"type":"Polygon","coordinates":[[[19.863918,49.988576],[19.864074,49.988547],[19.864103,49.988613],[19.863968,49.988639],[19.863952,49.988603],[19.863933,49.988607],[19.863918,49.988576]]]}},{"type":"Feature","id":"w706650206","properties":{"type":"yes","residential":false,"residents_est":0,"h3_10":"8a1e05a655affff","h3_11":"8b1e05a655acfff"},"geometry":{"type":"Polygon","coordinates":[[[19.864781,49.987034],[19.864876,49.987024],[19.864887,49.987066],[19.864792,49.987076],[19.864781,49.987034]]]}},{"type":"Feature","id":"w706650207","properties":{"type":"yes","residential":true,"residents_est":6,"h3_10":"8a1e05a6551ffff","h3_11":"8b1e05a65518fff"},"geometry":{"type":"Polygon","coordinates":[[[19.865982,49.987385],[19.866159,49.987371],[19.866175,49.987453],[19.865998,49.987468],[19.865982,49.987385]]]}},{"type":"Feature","id":"w706650209","properties":{"type":"yes","residential":true,"residents_est":6,"h3_10":"8a1e05a65557fff","h3_11":"8b1e05a65554fff"},"geometry":{"type":"Polygon","coordinates":[[[19.868966,49.988263],[19.86897,49.988249],[19.868985,49.988242],[19.868994,49.988214],[19.869114,49.988229],[19.86911,49.988241],[19.86916,49.988248],[19.869138,49.988319],[19.868966,49.988303],[19.868976,49.988272],[19.868966,49.988263]]]}},{"type":"Feature","id":"w706650210","properties":{"type":"yes","residential":false,"residents_est":0,"h3_10":"8a1e05a65557fff","h3_11":"8b1e05a65550fff"},"geometry":{"type":"Polygon","coordinates":[[[19.869692,49.987851],[19.869704,49.987772],[19.869758,49.987777],[19.86974,49.987856],[19.869692,49.987851]]]}},{"type":"Feature","id":"w706650211","properties":{"type":"yes","residential":false,"residents_est":0,"h3_10":"8a1e05a65557fff","h3_11":"8b1e05a65551fff"},"geometry":{"type":"Polygon","coordinates":[[[19.870024,49.987772],[19.870033,49.987726],[19.870095,49.987732],[19.870084,49.987778],[19.870024,49.987772]]]}},{"type":"Feature","id":"w706650212","properties":{"type":"yes","residential":false,"residents_est":0,"h3_10":"8a1e05a65557fff","h3_11":"8b1e05a65552fff"},"geometry":{"type":"Polygon","coordinates":[[[19.869025,49.987664],[19.869051,49.987618],[19.869132,49.987636],[19.869106,49.987683],[19.869025,49.987664]]]}},{"type":"Feature","id":"w706650214","properties":{"type":"yes","residential":false,"residents_est":0,"h3_10":"8a1e05a65557fff","h3_11":"8b1e05a65552fff"},"geometry":{"type":"Polygon","coordinates":[[[19.868923,49.987588],[19.868953,49.987534],[19.868997,49.987544],[19.868966,49.987598],[19.868923,49.987588]]]}},{"type":"Feature","id":"w706650216","properties":{"type":"yes","residential":false,"residents_est":0,"h3_10":"8a1e05a65557fff","h3_11":"8b1e05a65552fff"},"geometry":{"type":"Polygon","coordinates":[[[19.868753,49.987462],[19.86876,49.987428],[19.868832,49.987435],[19.868825,49.987468],[19.868753,49.987462]]]}},{"type":"Feature","id":"w706650217","properties":{"type":"yes","residential":false,"residents_est":0,"h3_10":"8a1e05a65557fff","h3_11":"8b1e05a65552fff"},"geometry":{"type":"Polygon","coordinates":[[[19.869076,49.987301],[19.869142,49.987272],[19.869174,49.987302],[19.869108,49.987331],[19.869076,49.987301]]]}},{"type":"Feature","id":"w706650218","properties":{"type":"yes","residential":true,"residents_est":2,"h3_10":"8a1e05a65557fff","h3_11":"8b1e05a65552fff"},"geometry":{"type":"Polygon","coordinates":[[[19.86915,49.987366],[19.869191,49.987316],[19.869283,49.987348],[19.869242,49.987398],[19.86915,49.987366]]]}},{"type":"Feature","id":"w706650219","properties":{"type":"yes","residential":false,"residents_est":0,"h3_10":"8a1e05a65557fff","h3_11":"8b1e05a65552fff"},"geometry":{"type":"Polygon","coordinates":[[[19.869123,49.987401],[19.869157,49.987384],[19.869257,49.987467],[19.869224,49.987484],[19.869123,49.987401]]]}},{"type":"Feature","id":"w706650220","properties":{"type":"yes","residential":false,"residents_est":0,"h3_10":"8a1e05a65427fff","h3_11":"8b1e05a65420fff"},"geometry":{"type":"Polygon","coordinates":[[[19.867955,49.98704],[19.867974,49.987],[19.868069,49.98702],[19.868049,49.98706],[19.867955,49.98704]]]}},{"type":"Feature","id":"w706650221","properties":{"type":"yes","residential":false,"residents_est":0,"h3_10":"8a1e05a65427fff","h3_11":"8b1e05a65421fff"},"geometry":{"type":"Polygon","coordinates":[[[19.86848,49.98708],[19.868506,49.987028],[19.868564,49.987039],[19.868537,49.987092],[19.86848,49.98708]]]}},{"type":"Feature","id":"w706650222","properties":{"type":"yes","residential":false,"residents_est":0,"h3_10":"8a1e05a65427fff","h3_11":"8b1e05a65423fff"},"geometry":{"type":"Polygon","coordinates":[[[19.8685,49.986919],[19.868524,49.986845],[19.868551,49.986849],[19.868528,49.986923],[19.8685,49.986919]]]}},{"type":"Feature","id":"w706650223","properties":{"type":"yes","residential":false,"residents_est":0,"h3_10":"8a1e05a65427fff","h3_11":"8b1e05a65421fff"},"geometry":{"type":"Polygon","coordinates":[[[19.86861,49.986956],[19.868634,49.986863],[19.868682,49.986868],[19.868658,49.986961],[19.86861,49.986956]]]}},{"type":"Feature","id":"w706650224","properties":{"type":"yes","residential":true,"residents_est":5,"h3_10":"8a1e05a65407fff","h3_11":"8b1e05a65402fff"},"geometry":{"type":"Polygon","coordinates":[[[19.868174,49.985593],[19.868182,49.985505],[19.868194,49.985505],[19.868196,49.985474],[19.868289,49.985477],[19.868286,49.985509],[19.868307,49.985509],[19.868299,49.985597],[19.868174,49.985593]]]}},{"type":"Feature","id":"w706650226","properties":{"type":"house","levels":2.0,"address":"Mieczysława Wrony 126A","residential":true,"residents_est":19,"h3_10":"8a1e05a65547fff","h3_11":"8b1e05a65542fff"},"geometry":{"type":"Polygon","coordinates":[[[19.870205,49.988182],[19.870217,49.98812],[19.870268,49.988124],[19.870271,49.988106],[19.870256,49.988101],[19.870257,49.988096],[19.870266,49.988097],[19.870272,49.988063],[19.87045,49.988077],[19.870428,49.988191],[19.870334,49.988183],[19.870332,49.988192],[19.870205,49.988182]]]}},{"type":"Feature","id":"w706650227","properties":{"type":"house","levels":2.0,"address":"Mieczysława Wrony 148A","residential":true,"residents_est":9,"h3_10":"8a1e05a65547fff","h3_11":"8b1e05a65543fff"},"geometry":{"type":"Polygon","coordinates":[[[19.870908,49.988294],[19.870916,49.988291],[19.870928,49.988262],[19.870921,49.988261],[19.87093,49.988258],[19.870938,49.988239],[19.870931,49.988237],[19.870939,49.988235],[19.870953,49.988201],[19.871068,49.988221],[19.871028,49.988315],[19.870908,49.988294]]]}},{"type":"Feature","id":"w706650228","properties":{"type":"house","levels":2.0,"residential":true,"residents_est":9,"h3_10":"8a1e05a65547fff","h3_11":"8b1e05a65543fff"},"geometry":{"type":"Polygon","coordinates":[[[19.870875,49.988389],[19.870889,49.988355],[19.870884,49.98835],[19.870891,49.988351],[19.870899,49.988332],[19.870892,49.98833],[19.870901,49.988328],[19.870913,49.988299],[19.870908,49.988294],[19.871028,49.988315],[19.870989,49.988409],[19.870875,49.988389]]]}},{"type":"Feature","id":"w706650229","properties":{"type":"service","residential":false,"residents_est":0,"h3_10":"8a1e05a6554ffff","h3_11":"8b1e05a6554efff"},"geometry":{"type":"Polygon","coordinates":[[[19.871736,49.988329],[19.871766,49.988288],[19.87183,49.988306],[19.8718,49.988347],[19.871736,49.988329]]]}},{"type":"Feature","id":"w706650230","properties":{"type":"yes","residential":true,"residents_est":9,"h3_10":"8a1e05a6554ffff","h3_11":"8b1e05a6554afff"},"geometry":{"type":"Polygon","coordinates":[[[19.872242,49.987902],[19.872284,49.987777],[19.872412,49.987795],[19.872416,49.987783],[19.87247,49.98779],[19.87244,49.987879],[19.872389,49.987874],[19.87238,49.987921],[19.872242,49.987902]]]}},{"type":"Feature","id":"w706650231","properties":{"type":"yes","residential":false,"residents_est":0,"h3_10":"8a1e05a6555ffff","h3_11":"8b1e05a65559fff"},"geometry":{"type":"Polygon","coordinates":[[[19.872022,49.987664],[19.872062,49.987611],[19.872104,49.987625],[19.872064,49.987677],[19.872022,49.987664]]]}},{"type":"Feature","id":"w706650232","properties":{"type":"yes","residential":false,"residents_est":0,"h3_10":"8a1e05a6555ffff","h3_11":"8b1e05a65559fff"},"geometry":{"type":"Polygon","coordinates":[[[19.871914,49.987629],[19.871956,49.987577],[19.871988,49.987587],[19.871946,49.98764],[19.871914,49.987629]]]}},{"type":"Feature","id":"w706650234","properties":{"type":"yes","residential":false,"residents_est":0,"h3_10":"8a1e05a6542ffff","h3_11":"8b1e05a65429fff"},"geometry":{"type":"Polygon","coordinates":[[[19.870438,49.98697],[19.87044,49.986918],[19.870528,49.986919],[19.870527,49.986971],[19.870438,49.98697]]]}},{"type":"Feature","id":"w706650235","properties":{"type":"yes","residential":false,"residents_est":0,"h3_10":"8a1e05a6555ffff","h3_11":"8b1e05a6555afff"},"geometry":{"type":"Polygon","coordinates":[[[19.870956,49.98719],[19.871014,49.987189],[19.871019,49.987255],[19.870961,49.987257],[19.870956,49.98719]]]}},{"type":"Feature","id":"w706650236","properties":{"type":"house","levels":2.0,"address":"Mieczysława Wrony 140","residential":true,"residents_est":15,"h3_10":"8a1e05a65477fff","h3_11":"8b1e05a65474fff"},"geometry":{"type":"Polygon","coordinates":[[[19.870933,49.986877],[19.871045,49.986877],[19.871046,49.986895],[19.871094,49.986895],[19.871095,49.986994],[19.870995,49.986994],[19.870995,49.987003],[19.870934,49.987003],[19.870933,49.986877]]]}},{"type":"Feature","id":"w706650238","properties":{"type":"yes","residential":true,"residents_est":4,"h3_10":"8a1e05a65467fff","h3_11":"8b1e05a65466fff"},"geometry":{"type":"Polygon","coordinates":[[[19.872303,49.987154],[19.872315,49.987054],[19.872417,49.987061],[19.872404,49.987132],[19.872429,49.987134],[19.872424,49.987163],[19.872303,49.987154]]]}},{"type":"Feature","id":"w706650239","properties":{"type":"yes","residential":true,"residents_est":2,"h3_10":"8a1e05a65467fff","h3_11":"8b1e05a65466fff"},"geometry":{"type":"Polygon","coordinates":[[[19.872096,49.987156],[19.872111,49.987076],[19.87218,49.987081],[19.872165,49.987161],[19.872096,49.987156]]]}},{"type":"Feature","id":"w706650241","properties":{"type":"yes","residential":false,"residents_est":0,"h3_10":"8a1e05a65467fff","h3_11":"8b1e05a65466fff"},"geometry":{"type":"Polygon","coordinates":[[[19.87209,49.987283],[19.872103,49.98724],[19.87215,49.987246],[19.872137,49.987289],[19.87209,49.987283]]]}},{"type":"Feature","id":"w706650242","properties":{"type":"yes","residential":false,"residents_est":0,"h3_10":"8a1e05a65467fff","h3_11":"8b1e05a65466fff"},"geometry":{"type":"Polygon","coordinates":[[[19.872187,49.987293],[19.872207,49.987219],[19.872263,49.987226],[19.872243,49.987299],[19.872187,49.987293]]]}},{"type":"Feature","id":"w706650243","properties":{"type":"residential","address":"Chlebiczna 4A","residential":true,"residents_est":25,"h3_10":"8a1e05a65467fff","h3_11":"8b1e05a65463fff"},"geometry":{"type":"Polygon","coordinates":[[[19.873179,49.986557],[19.873362,49.986552],[19.873368,49.98664],[19.873185,49.986646],[19.873179,49.986557]]]}},{"type":"Feature","id":"w706650246","properties":{"type":"yes","residential":false,"residents_est":0,"h3_10":"8a1e05a6546ffff","h3_11":"8b1e05a6546efff"},"geometry":{"type":"Polygon","coordinates":[[[19.874086,49.986965],[19.874136,49.986961],[19.874144,49.986998],[19.874094,49.987003],[19.874086,49.986965]]]}},{"type":"Feature","id":"w706650293","properties":{"type":"yes","address":"Topografów 11","residential":true,"residents_est":83,"h3_10":"8a1e05a6544ffff","h3_11":"8b1e05a6544bfff"},"geometry":{"type":"Polygon","coordinates":[[[19.874698,49.985307],[19.874717,49.985189],[19.875216,49.985221],[19.87521,49.985254],[19.875345,49.985263],[19.875352,49.985214],[19.875645,49.985233],[19.875626,49.985351],[19.875337,49.985332],[19.875334,49.985348],[19.874698,49.985307]]]}},{"type":"Feature","id":"w706650295","properties":{"type":"yes","residential":false,"residents_est":0,"h3_10":"8a1e05a6545ffff","h3_11":"8b1e05a65459fff"},"geometry":{"type":"Polygon","coordinates":[[[19.87435,49.984882],[19.87437,49.984827],[19.874442,49.984838],[19.874421,49.984892],[19.87435,49.984882]]]}},{"type":"Feature","id":"w706650298","properties":{"type":"yes","residential":false,"residents_est":0,"h3_10":"8a1e05a6545ffff","h3_11":"8b1e05a6545afff"},"geometry":{"type":"Polygon","coordinates":[[[19.873548,49.984551],[19.873584,49.984474],[19.873621,49.984481],[19.873585,49.984558],[19.873548,49.984551]]]}},{"type":"Feature","id":"w706650299","properties":{"type":"yes","address":"Adama Prażmowskiego 4a","residential":true,"residents_est":4,"h3_10":"8a1e05a654effff","h3_11":"8b1e05a654edfff"},"geometry":{"type":"Polygon","coordinates":[[[19.872282,49.984581],[19.872351,49.984512],[19.872466,49.984559],[19.872397,49.984629],[19.872282,49.984581]]]}},{"type":"Feature","id":"w706650300","properties":{"type":"yes","address":"Adama Prażmowskiego 6A","residential":true,"residents_est":5,"h3_10":"8a1e05a654effff","h3_11":"8b1e05a654ebfff"},"geometry":{"type":"Polygon","coordinates":[[[19.872259,49.983972],[19.872331,49.983906],[19.872457,49.983963],[19.872386,49.984029],[19.872294,49.983995],[19.872299,49.98399],[19.872259,49.983972]]]}},{"type":"Feature","id":"w706650302","properties":{"type":"yes","address":"Adama Prażmowskiego 6B","residential":true,"residents_est":5,"h3_10":"8a1e05a654effff","h3_11":"8b1e05a654ebfff"},"geometry":{"type":"Polygon","coordinates":[[[19.872378,49.983773],[19.872449,49.983707],[19.872542,49.983741],[19.872536,49.983747],[19.872575,49.983764],[19.872504,49.98383],[19.872378,49.983773]]]}},{"type":"Feature","id":"w706650304","properties":{"type":"yes","residential":false,"residents_est":0,"h3_10":"8a1e05a654effff","h3_11":"8b1e05a654ebfff"},"geometry":{"type":"Polygon","coordinates":[[[19.872621,49.983656],[19.872664,49.98359],[19.872706,49.983602],[19.872662,49.983667],[19.872621,49.983656]]]}},{"type":"Feature","id":"w706650305","properties":{"type":"yes","residential":false,"residents_est":0,"h3_10":"8a1e05a654cffff","h3_11":"8b1e05a654cefff"},"geometry":{"type":"Polygon","coordinates":[[[19.871824,49.983183],[19.87183,49.983164],[19.871887,49.983173],[19.871902,49.983136],[19.871943,49.983142],[19.871917,49.983215],[19.871842,49.983202],[19.871848,49.983187],[19.871824,49.983183]]]}},{"type":"Feature","id":"w706650306","properties":{"type":"yes","residential":false,"residents_est":0,"h3_10":"8a1e05a654cffff","h3_11":"8b1e05a654cefff"},"geometry":{"type":"Polygon","coordinates":[[[19.871926,49.982977],[19.871949,49.98292],[19.871981,49.982925],[19.871963,49.982982],[19.871926,49.982977]]]}},{"type":"Feature","id":"w706650307","properties":{"type":"yes","residential":true,"residents_est":3,"h3_10":"8a1e05a654cffff","h3_11":"8b1e05a654cefff"},"geometry":{"type":"Polygon","coordinates":[[[19.871958,49.983],[19.871983,49.982923],[19.872069,49.982936],[19.872037,49.983012],[19.871958,49.983]]]}},{"type":"Feature","id":"w920055822","properties":{"type":"house","address":"Tretówka 17","residential":true,"residents_est":7,"h3_10":"8a1e05a65517fff","h3_11":"8b1e05a65514fff"},"geometry":{"type":"Polygon","coordinates":[[[19.864178,49.988069],[19.864286,49.988006],[19.864346,49.988049],[19.864238,49.988112],[19.864178,49.988069]]]}},{"type":"Feature","id":"w920055823","properties":{"type":"house","address":"Tretówka 17A","residential":true,"residents_est":8,"h3_10":"8a1e05a65517fff","h3_11":"8b1e05a65510fff"},"geometry":{"type":"Polygon","coordinates":[[[19.86435,49.98794],[19.864452,49.987877],[19.864526,49.987926],[19.864424,49.98799],[19.86435,49.98794]]]}},{"type":"Feature","id":"w1034475393","properties":{"type":"garage","levels":1.0,"residential":false,"residents_est":0,"h3_10":"8a1e05a6555ffff","h3_11":"8b1e05a6555bfff"},"geometry":{"type":"Polygon","coordinates":[[[19.871572,49.987372],[19.871588,49.987299],[19.871651,49.987304],[19.871636,49.987378],[19.871572,49.987372]]]}},{"type":"Feature","id":"w1034475394","properties":{"type":"outbuilding","levels":1.0,"residential":false,"residents_est":0,"h3_10":"8a1e05a6555ffff","h3_11":"8b1e05a65559fff"},"geometry":{"type":"Polygon","coordinates":[[[19.87171,49.987643],[19.871745,49.987597],[19.871825,49.987622],[19.87179,49.987668],[19.87171,49.987643]]]}},{"type":"Feature","id":"w1034475421","properties":{"type":"outbuilding","levels":1.0,"residential":false,"residents_est":0,"h3_10":"8a1e05a65557fff","h3_11":"8b1e05a65553fff"},"geometry":{"type":"Polygon","coordinates":[[[19.869812,49.987642],[19.869861,49.987587],[19.869922,49.987609],[19.869874,49.987665],[19.869812,49.987642]]]}},{"type":"Feature","id":"w1034475436","properties":{"type":"yes","levels":2.0,"residential":true,"residents_est":6,"h3_10":"8a1e05a6551ffff","h3_11":"8b1e05a6551afff"},"geometry":{"type":"Polygon","coordinates":[[[19.865967,49.987153],[19.866084,49.987146],[19.866105,49.987276],[19.865987,49.987284],[19.865967,49.987153]]]}},{"type":"Feature","id":"w1034475452","properties":{"type":"detached","levels":2.0,"residential":true,"residents_est":13,"h3_10":"8a1e05a65557fff","h3_11":"8b1e05a65555fff"},"geometry":{"type":"Polygon","coordinates":[[[19.869662,49.988097],[19.869675,49.988012],[19.869807,49.98802],[19.869806,49.988031],[19.869886,49.988036],[19.869876,49.988095],[19.869797,49.98809],[19.869794,49.988106],[19.869662,49.988097]]]}},{"type":"Feature","id":"w1167314118","properties":{"type":"yes","residential":true,"residents_est":5,"h3_10":"8a1e05a654effff","h3_11":"8b1e05a654ecfff"},"geometry":{"type":"Polygon","coordinates":[[[19.872002,49.984459],[19.872056,49.984411],[19.872229,49.984491],[19.872176,49.984539],[19.872002,49.984459]]]}},{"type":"Feature","id":"w1167314119","properties":{"type":"yes","address":"Adama Prażmowskiego 4D","residential":true,"residents_est":5,"h3_10":"8a1e05a654effff","h3_11":"8b1e05a654e8fff"},"geometry":{"type":"Polygon","coordinates":[[[19.872089,49.984256],[19.872142,49.984208],[19.872316,49.984288],[19.872262,49.984336],[19.872089,49.984256]]]}},{"type":"Feature","id":"w1167314120","properties":{"type":"yes","address":"Adama Prażmowskiego 4E","residential":true,"residents_est":7,"h3_10":"8a1e05a654effff","h3_11":"8b1e05a654e8fff"},"geometry":{"type":"Polygon","coordinates":[[[19.872223,49.984135],[19.872273,49.984086],[19.872523,49.984194],[19.872472,49.984242],[19.872223,49.984135]]]}},{"type":"Feature","id":"w1167314122","properties":{"type":"yes","address":"Adama Prażmowskiego 18","residential":true,"residents_est":7,"h3_10":"8a1e05a654cffff","h3_11":"8b1e05a654cafff"},"geometry":{"type":"Polygon","coordinates":[[[19.87182,49.982805],[19.871853,49.982717],[19.872032,49.982744],[19.871999,49.982833],[19.87182,49.982805]]]}},{"type":"Feature","id":"w1184442093","properties":{"type":"residential","address":"Mieczysława Wrony 148B","residential":true,"residents_est":30,"h3_10":"8a1e05a65547fff","h3_11":"8b1e05a65543fff"},"geometry":{"type":"Polygon","coordinates":[[[19.871005,49.988102],[19.871029,49.988044],[19.871045,49.988047],[19.871062,49.988006],[19.871046,49.988003],[19.871063,49.987961],[19.871194,49.987983],[19.871147,49.988096],[19.871135,49.988094],[19.871123,49.988123],[19.871005,49.988102]]]}},{"type":"Feature","id":"w1300954003","properties":{"type":"yes","residential":false,"residents_est":0,"h3_10":"8a1e05a654cffff","h3_11":"8b1e05a654cdfff"},"geometry":{"type":"Polygon","coordinates":[[[19.873004,49.983479],[19.873038,49.983428],[19.873112,49.983448],[19.873079,49.983499],[19.873004,49.983479]]]}},{"type":"Feature","id":"w1300954009","properties":{"type":"yes","residential":false,"residents_est":0,"h3_10":"8a1e05a654effff","h3_11":"8b1e05a654e9fff"},"geometry":{"type":"Polygon","coordinates":[[[19.872863,49.984424],[19.872901,49.984388],[19.872963,49.984415],[19.872925,49.984451],[19.872863,49.984424]]]}},{"type":"Feature","id":"w1300954012","properties":{"type":"yes","address":"Adama Prażmowskiego 5","residential":true,"residents_est":3,"h3_10":"8a1e05a6545ffff","h3_11":"8b1e05a6545efff"},"geometry":{"type":"Polygon","coordinates":[[[19.873205,49.984859],[19.873254,49.984802],[19.873347,49.984834],[19.873298,49.984892],[19.873205,49.984859]]]}},{"type":"Feature","id":"w1300963874","properties":{"type":"yes","residential":true,"residents_est":3,"h3_10":"8a1e05a654dffff","h3_11":"8b1e05a654dbfff"},"geometry":{"type":"Polygon","coordinates":[[[19.871447,49.981809],[19.871477,49.98173],[19.871566,49.981743],[19.871536,49.981823],[19.871447,49.981809]]]}},{"type":"Feature","id":"w1306042294","properties":{"type":"yes","residential":true,"residents_est":3,"h3_10":"8a1e05a65527fff","h3_11":"8b1e05a65520fff"},"geometry":{"type":"Polygon","coordinates":[[[19.865408,49.989773],[19.865436,49.989771],[19.865432,49.989752],[19.865518,49.989746],[19.86553,49.989819],[19.865417,49.989827],[19.865408,49.989773]]]}},{"type":"Feature","id":"w1306042295","properties":{"type":"yes","residential":true,"residents_est":4,"h3_10":"8a1e05a65507fff","h3_11":"8b1e05a65505fff"},"geometry":{"type":"Polygon","coordinates":[[[19.86591,49.988882],[19.86606,49.988779],[19.866118,49.988813],[19.865969,49.988917],[19.86591,49.988882]]]}},{"type":"Feature","id":"w1306042301","properties":{"type":"yes","residential":false,"residents_est":0,"h3_10":"8a1e05a65517fff","h3_11":"8b1e05a65510fff"},"geometry":{"type":"Polygon","coordinates":[[[19.864499,49.987635],[19.864566,49.987607],[19.864611,49.987651],[19.864544,49.987679],[19.864499,49.987635]]]}},{"type":"Feature","id":"w1412322893","properties":{"type":"garage","levels":1.0,"residential":false,"residents_est":0,"h3_10":"8a1e05a6545ffff","h3_11":"8b1e05a6545dfff"},"geometry":{"type":"Polygon","coordinates":[[[19.874139,49.985136],[19.874139,49.985107],[19.874209,49.985108],[19.874209,49.985136],[19.874139,49.985136]]]}},{"type":"Feature","id":"w1427352339","properties":{"type":"yes","residential":false,"residents_est":0,"h3_10":"8a1e05a65477fff","h3_11":"8b1e05a65475fff"},"geometry":{"type":"Polygon","coordinates":[[[19.872049,49.986802],[19.872096,49.986798],[19.872107,49.986855],[19.872059,49.986859],[19.872049,49.986802]]]}},{"type":"Feature","id":"w1427352340","properties":{"type":"house","address":"Mieczysława Wrony 126B","residential":true,"residents_est":12,"h3_10":"8a1e05a65557fff","h3_11":"8b1e05a65551fff"},"geometry":{"type":"Polygon","coordinates":[[[19.870177,49.98791],[19.870191,49.987858],[19.870444,49.987885],[19.870431,49.987936],[19.870374,49.98793],[19.87037,49.987945],[19.870278,49.987936],[19.870281,49.987921],[19.870177,49.98791]]]}},{"type":"Feature","id":"w1427352341","properties":{"type":"house","address":"Mieczysława Wrony 126C","residential":true,"residents_est":11,"h3_10":"8a1e05a65557fff","h3_11":"8b1e05a65551fff"},"geometry":{"type":"Polygon","coordinates":[[[19.870191,49.987858],[19.870205,49.987806],[19.870309,49.987817],[19.870313,49.987803],[19.870404,49.987813],[19.8704,49.987828],[19.870458,49.987835],[19.870444,49.987885],[19.870191,49.987858]]]}},{"type":"Feature","id":"w1427352342","properties":{"type":"house","address":"Mieczysława Wrony 148D","residential":true,"residents_est":10,"h3_10":"8a1e05a6555ffff","h3_11":"8b1e05a65558fff"},"geometry":{"type":"Polygon","coordinates":[[[19.871263,49.987486],[19.871274,49.987413],[19.871437,49.987423],[19.871426,49.987496],[19.871263,49.987486]]]}},{"type":"Feature","id":"w1427352343","properties":{"type":"yes","residential":false,"residents_est":0,"h3_10":"8a1e05a65477fff","h3_11":"8b1e05a65475fff"},"geometry":{"type":"Polygon","coordinates":[[[19.87193,49.986594],[19.871952,49.986567],[19.872017,49.986589],[19.871995,49.986616],[19.87193,49.986594]]]}},{"type":"Feature","id":"w1427367133","properties":{"type":"residential","residential":true,"residents_est":22,"h3_10":"8a1e05a655a7fff","h3_11":"8b1e05a655a4fff"},"geometry":{"type":"Polygon","coordinates":[[[19.862326,49.987531],[19.862451,49.98752],[19.862478,49.987654],[19.86239,49.987661],[19.862375,49.98759],[19.862339,49.987593],[19.862326,49.987531]]]}},{"type":"Feature","id":"w1499804586","properties":{"type":"house","residential":true,"residents_est":17,"h3_10":"8a1e05a65427fff","h3_11":"8b1e05a65426fff"},"geometry":{"type":"Polygon","coordinates":[[[19.867532,49.98709],[19.867585,49.986923],[19.867707,49.986938],[19.867654,49.987105],[19.867532,49.98709]]]}},{"type":"Feature","id":"w1499804592","properties":{"type":"yes","residential":true,"residents_est":3,"h3_10":"8a1e05a6551ffff","h3_11":"8b1e05a65519fff"},"geometry":{"type":"Polygon","coordinates":[[[19.867249,49.987448],[19.867331,49.987416],[19.867389,49.987477],[19.867306,49.987509],[19.867249,49.987448]]]}},{"type":"Feature","id":"w1499804593","properties":{"type":"house","residential":true,"residents_est":27,"h3_10":"8a1e05a65517fff","h3_11":"8b1e05a65511fff"},"geometry":{"type":"Polygon","coordinates":[[[19.864798,49.987927],[19.8648,49.987835],[19.864946,49.987836],[19.864947,49.987799],[19.865086,49.9878],[19.865083,49.987951],[19.864933,49.98795],[19.864933,49.987928],[19.864798,49.987927]]]}},{"type":"Feature","id":"w1510292111","properties":{"type":"school","residential":false,"residents_est":0,"h3_10":"8a1e05a65467fff","h3_11":"8b1e05a65464fff"},"geometry":{"type":"Polygon","coordinates":[[[19.872416,49.987783],[19.872491,49.987566],[19.872587,49.987579],[19.872653,49.987387],[19.872687,49.987392],[19.872745,49.987225],[19.872785,49.987231],[19.872817,49.987139],[19.872964,49.98716],[19.872956,49.987182],[19.873059,49.987197],[19.873034,49.987269],[19.872968,49.98726],[19.872941,49.987339],[19.87297,49.987343],[19.872867,49.987642],[19.872833,49.987635],[19.872812,49.987695],[19.872577,49.987667],[19.872588,49.987636],[19.872526,49.987627],[19.87247,49.98779],[19.872416,49.987783]]]}}]}