{"type":"FeatureCollection","features":[{"type":"Feature","id":"w176910578","properties":{"type":"yes","residential":true,"residents_est":11,"h3_10":"8a1e2e6f49a7fff","h3_11":"8b1e2e6f49a4fff"},"geometry":{"type":"Polygon","coordinates":[[[20.132861,50.091348],[20.132891,50.091257],[20.1331,50.091285],[20.13307,50.091376],[20.132861,50.091348]]]}},{"type":"Feature","id":"w176910579","properties":{"type":"yes","address":"Glinik 2","residential":true,"residents_est":18,"h3_10":"8a1e2e6f4917fff","h3_11":"8b1e2e6f4916fff"},"geometry":{"type":"Polygon","coordinates":[[[20.134274,50.091777],[20.134508,50.091641],[20.134609,50.091716],[20.134377,50.091852],[20.134274,50.091777]]]}},{"type":"Feature","id":"w176910581","properties":{"type":"yes","residential":true,"residents_est":7,"h3_10":"8a1e2e6f4917fff","h3_11":"8b1e2e6f4910fff"},"geometry":{"type":"Polygon","coordinates":[[[20.134794,50.091569],[20.134817,50.091465],[20.134942,50.091481],[20.134913,50.091584],[20.134794,50.091569]]]}},{"type":"Feature","id":"w176910582","properties":{"type":"yes","residential":true,"residents_est":81,"h3_10":"8a1e2e6f49a7fff","h3_11":"8b1e2e6f49a4fff"},"geometry":{"type":"Polygon","coordinates":[[[20.133064,50.091395],[20.1331,50.091285],[20.13372,50.091361],[20.133688,50.09147],[20.133064,50.091395]]]}},{"type":"Feature","id":"w176910584","properties":{"type":"yes","residential":true,"residents_est":59,"h3_10":"8a1e2e6f4917fff","h3_11":"8b1e2e6f4910fff"},"geometry":{"type":"Polygon","coordinates":[[[20.134238,50.091515],[20.134264,50.091425],[20.134811,50.091491],[20.134789,50.091583],[20.1345,50.091547],[20.134505,50.091531],[20.134468,50.091526],[20.134463,50.091543],[20.134238,50.091515]]]}},{"type":"Feature","id":"w298760497","properties":{"type":"house","residential":false,"residents_est":0,"h3_10":"8a1e2e6f485ffff","h3_11":"8b1e2e6f4859fff"},"geometry":{"type":"Polygon","coordinates":[[[20.144972,50.088841],[20.145017,50.088838],[20.145021,50.088888],[20.144975,50.08889],[20.144972,50.088841]]]}},{"type":"Feature","id":"w298760499","properties":{"type":"barn","levels":1.0,"residential":false,"residents_est":0,"h3_10":"8a1e2e6f485ffff","h3_11":"8b1e2e6f4859fff"},"geometry":{"type":"Polygon","coordinates":[[[20.144879,50.088595],[20.144982,50.088573],[20.145053,50.088711],[20.144952,50.088735],[20.144879,50.088595]]]}},{"type":"Feature","id":"w298760500","properties":{"type":"house","levels":1.0,"residential":true,"residents_est":5,"h3_10":"8a1e2e6f484ffff","h3_11":"8b1e2e6f484afff"},"geometry":{"type":"Polygon","coordinates":[[[20.145178,50.088943],[20.145331,50.088929],[20.145346,50.088989],[20.145191,50.089004],[20.145178,50.088943]]]}},{"type":"Feature","id":"w298760501","properties":{"type":"garage","residential":false,"residents_est":0,"h3_10":"8a1e2e6f484ffff","h3_11":"8b1e2e6f484afff"},"geometry":{"type":"Polygon","coordinates":[[[20.144933,50.088969],[20.145027,50.088951],[20.145055,50.089019],[20.144974,50.08903],[20.14496,50.089005],[20.144948,50.089006],[20.144933,50.088969]]]}},{"type":"Feature","id":"w298760502","properties":{"type":"yes","levels":1.0,"residential":false,"residents_est":0,"h3_10":"8a1e2e6f484ffff","h3_11":"8b1e2e6f484afff"},"geometry":{"type":"Polygon","coordinates":[[[20.145041,50.089234],[20.145138,50.089227],[20.145145,50.089262],[20.14505,50.08927],[20.145041,50.089234]]]}},{"type":"Feature","id":"w298760503","properties":{"type":"house","levels":1.0,"residential":true,"residents_est":10,"h3_10":"8a1e2e6f484ffff","h3_11":"8b1e2e6f4848fff"},"geometry":{"type":"Polygon","coordinates":[[[20.145276,50.089302],[20.145284,50.0893],[20.145277,50.089281],[20.145376,50.089262],[20.145385,50.08928],[20.145475,50.089261],[20.145508,50.089329],[20.14531,50.089371],[20.145276,50.089302]]]}},{"type":"Feature","id":"w298760504","properties":{"type":"barn","residential":false,"residents_est":0,"h3_10":"8a1e2e6f484ffff","h3_11":"8b1e2e6f4848fff"},"geometry":{"type":"Polygon","coordinates":[[[20.145109,50.089361],[20.145246,50.089328],[20.145331,50.089472],[20.145224,50.089498],[20.145181,50.089425],[20.145151,50.089432],[20.145109,50.089361]]]}},{"type":"Feature","id":"w298760505","properties":{"type":"garage","residential":false,"residents_est":0,"h3_10":"8a1e2e6f484ffff","h3_11":"8b1e2e6f4848fff"},"geometry":{"type":"Polygon","coordinates":[[[20.145224,50.089499],[20.145334,50.089475],[20.145369,50.08954],[20.145261,50.089565],[20.145224,50.089499]]]}},{"type":"Feature","id":"w298760506","properties":{"type":"house","levels":2.0,"residential":true,"residents_est":9,"h3_10":"8a1e2e6f484ffff","h3_11":"8b1e2e6f4848fff"},"geometry":{"type":"Polygon","coordinates":[[[20.145436,50.089425],[20.145534,50.089395],[20.145583,50.089461],[20.145485,50.08949],[20.145436,50.089425]]]}},{"type":"Feature","id":"w298760507","properties":{"type":"house","levels":1.5,"residential":true,"residents_est":12,"h3_10":"8a1e2e6f484ffff","h3_11":"8b1e2e6f4848fff"},"geometry":{"type":"Polygon","coordinates":[[[20.145532,50.089597],[20.145558,50.089589],[20.145532,50.089555],[20.145637,50.089521],[20.145715,50.089621],[20.145611,50.089655],[20.145584,50.089621],[20.145557,50.089629],[20.145532,50.089597]]]}},{"type":"Feature","id":"w298760508","properties":{"type":"garage","residential":false,"residents_est":0,"h3_10":"8a1e2e6f484ffff","h3_11":"8b1e2e6f484cfff"},"geometry":{"type":"Polygon","coordinates":[[[20.145291,50.089627],[20.145372,50.089614],[20.145403,50.089698],[20.145326,50.089711],[20.145291,50.089627]]]}},{"type":"Feature","id":"w298764400","properties":{"type":"garage","residential":false,"residents_est":0,"h3_10":"8a1e2e6f485ffff","h3_11":"8b1e2e6f4859fff"},"geometry":{"type":"Polygon","coordinates":[[[20.14498,50.08857],[20.145056,50.088552],[20.145077,50.088592],[20.145002,50.08861],[20.14498,50.08857]]]}},{"type":"Feature","id":"w298764402","properties":{"type":"yes","levels":2.0,"residential":true,"residents_est":8,"h3_10":"8a1e2e6f484ffff","h3_11":"8b1e2e6f484dfff"},"geometry":{"type":"Polygon","coordinates":[[[20.145609,50.089779],[20.145637,50.089771],[20.145615,50.08974],[20.145749,50.089701],[20.145802,50.089778],[20.145669,50.089816],[20.145656,50.089798],[20.145628,50.089805],[20.145609,50.089779]]]}},{"type":"Feature","id":"w298764403","properties":{"type":"barn","residential":false,"residents_est":0,"h3_10":"8a1e2e6f484ffff","h3_11":"8b1e2e6f484cfff"},"geometry":{"type":"Polygon","coordinates":[[[20.145399,50.089851],[20.145508,50.08983],[20.145559,50.089946],[20.145451,50.089967],[20.145399,50.089851]]]}},{"type":"Feature","id":"w298764404","properties":{"type":"garage","residential":false,"residents_est":0,"h3_10":"8a1e2e6f484ffff","h3_11":"8b1e2e6f484cfff"},"geometry":{"type":"Polygon","coordinates":[[[20.145342,50.089786],[20.145476,50.08976],[20.145508,50.089829],[20.145373,50.089856],[20.145342,50.089786]]]}},{"type":"Feature","id":"w298764406","properties":{"type":"stable","residential":false,"residents_est":0,"h3_10":"8a1e2e6f484ffff","h3_11":"8b1e2e6f484dfff"},"geometry":{"type":"Polygon","coordinates":[[[20.145667,50.089926],[20.145799,50.089899],[20.145831,50.089962],[20.145697,50.089989],[20.145667,50.089926]]]}},{"type":"Feature","id":"w298764409","properties":{"type":"yes","residential":true,"residents_est":8,"h3_10":"8a1e2e6f485ffff","h3_11":"8b1e2e6f4858fff"},"geometry":{"type":"Polygon","coordinates":[[[20.14376,50.088703],[20.14382,50.08869],[20.143818,50.088685],[20.143958,50.088657],[20.143991,50.088725],[20.143852,50.088753],[20.143848,50.088746],[20.143787,50.088758],[20.14376,50.088703]]]}},{"type":"Feature","id":"w298772671","properties":{"type":"transportation","address":"Za Górą 12B","residential":false,"residents_est":0,"h3_10":"8a1e2e6f4837fff","h3_11":"8b1e2e6f4832fff"},"geometry":{"type":"Polygon","coordinates":[[[20.136232,50.089939],[20.136274,50.089826],[20.136469,50.089856],[20.136478,50.089832],[20.136657,50.08986],[20.136648,50.089883],[20.136852,50.089914],[20.13681,50.090028],[20.136426,50.089974],[20.136428,50.089969],[20.136232,50.089939]]]}},{"type":"Feature","id":"w298772672","properties":{"type":"industrial","residential":false,"residents_est":0,"h3_10":"8a1e2e6f4837fff","h3_11":"8b1e2e6f4830fff"},"geometry":{"type":"Polygon","coordinates":[[[20.136757,50.090232],[20.136777,50.090182],[20.136921,50.090205],[20.136901,50.090255],[20.136757,50.090232]]]}},{"type":"Feature","id":"w298772673","properties":{"type":"industrial","residential":false,"residents_est":0,"h3_10":"8a1e2e6f4807fff","h3_11":"8b1e2e6f4804fff"},"geometry":{"type":"Polygon","coordinates":[[[20.138442,50.090201],[20.138558,50.08989],[20.138627,50.0899],[20.138617,50.089926],[20.138725,50.089943],[20.138619,50.090228],[20.138442,50.090201]]]}},{"type":"Feature","id":"w298772674","properties":{"type":"yes","name":"Kraków Nowa Huta NHD/NHD41","residential":true,"residents_est":11,"h3_10":"8a1e2e6f4807fff","h3_11":"8b1e2e6f4803fff"},"geometry":{"type":"Polygon","coordinates":[[[20.138593,50.089469],[20.138613,50.089416],[20.138788,50.089442],[20.138801,50.089423],[20.138959,50.089447],[20.138937,50.089499],[20.138785,50.089476],[20.138773,50.089511],[20.138703,50.0895],[20.1387,50.089485],[20.138593,50.089469]]]}},{"type":"Feature","id":"w298796425","properties":{"type":"industrial","residential":false,"residents_est":0,"h3_10":"8a1e2e6f48a7fff","h3_11":"8b1e2e6f48a4fff"},"geometry":{"type":"Polygon","coordinates":[[[20.13539,50.088715],[20.135419,50.088659],[20.135533,50.088684],[20.135504,50.088739],[20.13539,50.088715]]]}},{"type":"Feature","id":"w298796435","properties":{"type":"yes","residential":true,"residents_est":5,"h3_10":"8a1e2e6f4917fff","h3_11":"8b1e2e6f4915fff"},"geometry":{"type":"Polygon","coordinates":[[[20.135254,50.092181],[20.135317,50.092141],[20.135418,50.092207],[20.135355,50.092247],[20.135254,50.092181]]]}},{"type":"Feature","id":"w298796467","properties":{"type":"yes","name":"post. ustawiacza","residential":false,"residents_est":0,"h3_10":"8a1e2e6f4817fff","h3_11":"8b1e2e6f4814fff"},"geometry":{"type":"Polygon","coordinates":[[[20.136868,50.089379],[20.136874,50.089353],[20.136968,50.089361],[20.136965,50.089377],[20.136925,50.089374],[20.136923,50.089384],[20.136868,50.089379]]]}},{"type":"Feature","id":"w304772482","properties":{"type":"yes","residential":true,"residents_est":4,"h3_10":"8a1e2e6f4967fff","h3_11":"8b1e2e6f4960fff"},"geometry":{"type":"Polygon","coordinates":[[[20.140823,50.093449],[20.140824,50.09339],[20.140949,50.093389],[20.14095,50.09345],[20.140823,50.093449]]]}},{"type":"Feature","id":"w325685574","properties":{"type":"yes","levels":1.0,"residential":true,"residents_est":1,"h3_10":"8a1e2e6f494ffff","h3_11":"8b1e2e6f4948fff"},"geometry":{"type":"Polygon","coordinates":[[[20.142858,50.092085],[20.142892,50.092006],[20.142993,50.092024],[20.142953,50.092117],[20.142885,50.092105],[20.142891,50.092091],[20.142858,50.092085]]]}},{"type":"Feature","id":"w337950155","properties":{"type":"yes","residential":true,"residents_est":7,"h3_10":"8a1e2e6f4967fff","h3_11":"8b1e2e6f4960fff"},"geometry":{"type":"Polygon","coordinates":[[[20.140754,50.093318],[20.140754,50.093224],[20.140883,50.093224],[20.140882,50.093316],[20.140754,50.093318]]]}},{"type":"Feature","id":"w337950190","properties":{"type":"yes","name":"Kraków Nowa Huta NHB/NHB21","residential":true,"residents_est":11,"h3_10":"8a1e2e6f491ffff","h3_11":"8b1e2e6f491bfff"},"geometry":{"type":"Polygon","coordinates":[[[20.13656,50.09086],[20.13658,50.090805],[20.136725,50.090827],[20.136737,50.090794],[20.136805,50.090804],[20.136809,50.090818],[20.136914,50.090834],[20.136896,50.090884],[20.13672,50.090857],[20.136711,50.090882],[20.13656,50.09086]]]}},{"type":"Feature","id":"w337950307","properties":{"type":"yes","residential":true,"residents_est":17,"h3_10":"8a1e2e6f4917fff","h3_11":"8b1e2e6f4911fff"},"geometry":{"type":"Polygon","coordinates":[[[20.135141,50.091604],[20.135372,50.091503],[20.135422,50.09155],[20.135492,50.091524],[20.135516,50.091551],[20.135481,50.091566],[20.135513,50.091596],[20.135375,50.091655],[20.135312,50.091599],[20.135191,50.091652],[20.135141,50.091604]]]}},{"type":"Feature","id":"w337950352","properties":{"type":"yes","residential":true,"residents_est":4,"h3_10":"8a1e2e6f496ffff","h3_11":"8b1e2e6f496bfff"},"geometry":{"type":"Polygon","coordinates":[[[20.143082,50.092787],[20.143088,50.09273],[20.143222,50.092736],[20.143222,50.092741],[20.143208,50.092738],[20.143201,50.092794],[20.143216,50.092792],[20.143215,50.092797],[20.143082,50.092787]]]}},{"type":"Feature","id":"w337950358","properties":{"type":"yes","residential":true,"residents_est":6,"h3_10":"8a1e2e6f496ffff","h3_11":"8b1e2e6f496cfff"},"geometry":{"type":"Polygon","coordinates":[[[20.142235,50.093317],[20.142237,50.093236],[20.1423,50.093236],[20.142301,50.093212],[20.142343,50.093212],[20.142342,50.093235],[20.142392,50.093236],[20.142389,50.09329],[20.142291,50.093289],[20.142291,50.093317],[20.142235,50.093317]]]}},{"type":"Feature","id":"w337950422","properties":{"type":"industrial","name":"Zakład Naprawy Taboru PKP Cargo","residential":false,"residents_est":0,"h3_10":"8a1e2e6f482ffff","h3_11":"8b1e2e6f482efff"},"geometry":{"type":"Polygon","coordinates":[[[20.138763,50.090567],[20.138796,50.090481],[20.138918,50.0905],[20.13897,50.090362],[20.139875,50.090502],[20.139829,50.090624],[20.140175,50.090681],[20.140158,50.090725],[20.140112,50.090718],[20.140099,50.090754],[20.140129,50.090758],[20.140123,50.090773],[20.140092,50.090773],[20.139638,50.090706],[20.139647,50.090682],[20.13915,50.090605],[20.139142,50.090626],[20.138763,50.090567]]]}},{"type":"Feature","id":"w337950532","properties":{"type":"yes","residential":true,"residents_est":9,"h3_10":"8a1e2e6f491ffff","h3_11":"8b1e2e6f491efff"},"geometry":{"type":"Polygon","coordinates":[[[20.13586,50.091127],[20.135885,50.091065],[20.136124,50.091104],[20.136099,50.091166],[20.13586,50.091127]]]}},{"type":"Feature","id":"w337950545","properties":{"type":"yes","residential":true,"residents_est":42,"h3_10":"8a1e2e6f4937fff","h3_11":"8b1e2e6f4933fff"},"geometry":{"type":"Polygon","coordinates":[[[20.134923,50.092126],[20.135027,50.09206],[20.135304,50.092248],[20.135203,50.092311],[20.134923,50.092126]]]}},{"type":"Feature","id":"w337950855","properties":{"type":"yes","residential":true,"residents_est":41,"h3_10":"8a1e2e6f48cffff","h3_11":"8b1e2e6f48c9fff"},"geometry":{"type":"Polygon","coordinates":[[[20.143776,50.086963],[20.144256,50.086855],[20.144292,50.086922],[20.143809,50.08703],[20.143776,50.086963]]]}},{"type":"Feature","id":"w337950883","properties":{"type":"yes","residential":true,"residents_est":8,"h3_10":"8a1e2e6f4967fff","h3_11":"8b1e2e6f4963fff"},"geometry":{"type":"Polygon","coordinates":[[[20.141287,50.093173],[20.141301,50.093085],[20.14145,50.093095],[20.141437,50.093183],[20.141287,50.093173]]]}},{"type":"Feature","id":"w337950889","properties":{"type":"yes","residential":true,"residents_est":4,"h3_10":"8a1e2e6f4977fff","h3_11":"8b1e2e6f4971fff"},"geometry":{"type":"Polygon","coordinates":[[[20.140409,50.092711],[20.140411,50.092629],[20.140495,50.092629],[20.140493,50.092712],[20.140409,50.092711]]]}},{"type":"Feature","id":"w337950905","properties":{"type":"yes","residential":true,"residents_est":8,"h3_10":"8a1e2e6f491ffff","h3_11":"8b1e2e6f491afff"},"geometry":{"type":"Polygon","coordinates":[[[20.136232,50.090834],[20.136261,50.090751],[20.136426,50.090776],[20.136397,50.090858],[20.136232,50.090834]]]}},{"type":"Feature","id":"w337950910","properties":{"type":"yes","residential":true,"residents_est":49,"h3_10":"8a1e2e6f4827fff","h3_11":"8b1e2e6f4822fff"},"geometry":{"type":"Polygon","coordinates":[[[20.137678,50.090399],[20.137699,50.090343],[20.138438,50.090459],[20.138417,50.090513],[20.137678,50.090399]]]}},{"type":"Feature","id":"w337951361","properties":{"type":"yes","residential":true,"residents_est":3,"h3_10":"8a1e2e6f486ffff","h3_11":"8b1e2e6f486bfff"},"geometry":{"type":"Polygon","coordinates":[[[20.145451,50.089967],[20.145536,50.089951],[20.145561,50.090007],[20.145475,50.090023],[20.145451,50.089967]]]}},{"type":"Feature","id":"w337951469","properties":{"type":"yes","residential":true,"residents_est":7,"h3_10":"8a1e2e6f4947fff","h3_11":"8b1e2e6f4944fff"},"geometry":{"type":"Polygon","coordinates":[[[20.140583,50.092687],[20.140594,50.092605],[20.140737,50.092613],[20.140726,50.092695],[20.140583,50.092687]]]}},{"type":"Feature","id":"w337951536","properties":{"type":"yes","residential":false,"residents_est":0,"h3_10":"8a1e2e6f4807fff","h3_11":"8b1e2e6f4804fff"},"geometry":{"type":"Polygon","coordinates":[[[20.138256,50.090038],[20.138283,50.08997],[20.138352,50.089981],[20.138326,50.090049],[20.138256,50.090038]]]}},{"type":"Feature","id":"w337951787","properties":{"type":"yes","residential":true,"residents_est":3,"h3_10":"8a1e2e6f4947fff","h3_11":"8b1e2e6f4945fff"},"geometry":{"type":"Polygon","coordinates":[[[20.141878,50.092722],[20.141881,50.092675],[20.14199,50.092678],[20.141987,50.092725],[20.141878,50.092722]]]}},{"type":"Feature","id":"w337951891","properties":{"type":"yes","residential":false,"residents_est":0,"h3_10":"8a1e2e6f4967fff","h3_11":"8b1e2e6f4961fff"},"geometry":{"type":"Polygon","coordinates":[[[20.141453,50.093309],[20.141455,50.093263],[20.141522,50.093264],[20.14152,50.093311],[20.141453,50.093309]]]}},{"type":"Feature","id":"w337951893","properties":{"type":"yes","residential":true,"residents_est":4,"h3_10":"8a1e2e6f4947fff","h3_11":"8b1e2e6f4945fff"},"geometry":{"type":"Polygon","coordinates":[[[20.14176,50.09274],[20.141765,50.092672],[20.141881,50.092675],[20.141878,50.092722],[20.14181,50.09272],[20.141808,50.092742],[20.14176,50.09274]]]}},{"type":"Feature","id":"w337951898","properties":{"type":"yes","name":"posterunek ustawiacza","residential":false,"residents_est":0,"h3_10":"8a1e2e6f4827fff","h3_11":"8b1e2e6f4820fff"},"geometry":{"type":"Polygon","coordinates":[[[20.138306,50.090927],[20.138319,50.090887],[20.138397,50.090897],[20.138393,50.090909],[20.138455,50.090917],[20.138446,50.090945],[20.138306,50.090927]]]}},{"type":"Feature","id":"w337951984","properties":{"type":"yes","name":"Kraków Nowa Huta post. 11","residential":true,"residents_est":4,"h3_10":"8a1e2e6f49a7fff","h3_11":"8b1e2e6f49a4fff"},"geometry":{"type":"Polygon","coordinates":[[[20.133226,50.091115],[20.133244,50.091063],[20.133318,50.091075],[20.133313,50.091089],[20.133366,50.091097],[20.13335,50.091141],[20.133226,50.091115]]]}},{"type":"Feature","id":"w337952073","properties":{"type":"yes","residential":true,"residents_est":6,"h3_10":"8a1e2e6f496ffff","h3_11":"8b1e2e6f496dfff"},"geometry":{"type":"Polygon","coordinates":[[[20.143058,50.093289],[20.143091,50.093289],[20.14309,50.09326],[20.143201,50.093259],[20.143202,50.093356],[20.143135,50.093356],[20.143134,50.093331],[20.143058,50.093331],[20.143058,50.093289]]]}},{"type":"Feature","id":"w706050203","properties":{"type":"yes","residential":true,"residents_est":6,"h3_10":"8a1e2e6f4967fff","h3_11":"8b1e2e6f4962fff"},"geometry":{"type":"Polygon","coordinates":[[[20.140634,50.093316],[20.140634,50.093224],[20.140754,50.093224],[20.140753,50.093297],[20.140727,50.093297],[20.140727,50.093316],[20.140634,50.093316]]]}},{"type":"Feature","id":"w706050206","properties":{"type":"yes","residential":false,"residents_est":0,"h3_10":"8a1e2e6f4967fff","h3_11":"8b1e2e6f4963fff"},"geometry":{"type":"Polygon","coordinates":[[[20.14153,50.09322],[20.141576,50.093219],[20.141579,50.093261],[20.141533,50.093262],[20.14153,50.09322]]]}},{"type":"Feature","id":"w706050207","properties":{"type":"yes","residential":false,"residents_est":0,"h3_10":"8a1e2e6f4967fff","h3_11":"8b1e2e6f4963fff"},"geometry":{"type":"Polygon","coordinates":[[[20.141385,50.093249],[20.141387,50.093213],[20.141462,50.093215],[20.141459,50.093251],[20.141385,50.093249]]]}},{"type":"Feature","id":"w706050208","properties":{"type":"yes","residential":true,"residents_est":4,"h3_10":"8a1e2e6f496ffff","h3_11":"8b1e2e6f496cfff"},"geometry":{"type":"Polygon","coordinates":[[[20.142389,50.093317],[20.142394,50.093207],[20.142447,50.093207],[20.142445,50.093318],[20.142389,50.093317]]]}},{"type":"Feature","id":"w706050209","properties":{"type":"yes","residential":true,"residents_est":10,"h3_10":"8a1e2e6f496ffff","h3_11":"8b1e2e6f496efff"},"geometry":{"type":"Polygon","coordinates":[[[20.141932,50.093191],[20.14204,50.093191],[20.142041,50.093177],[20.1421,50.093177],[20.1421,50.093233],[20.142092,50.093233],[20.142093,50.093248],[20.1421,50.093248],[20.142101,50.09328],[20.142014,50.093281],[20.142014,50.093294],[20.141932,50.093294],[20.141932,50.093191]]]}},{"type":"Feature","id":"w706050210","properties":{"type":"yes","residential":false,"residents_est":0,"h3_10":"8a1e2e6f496ffff","h3_11":"8b1e2e6f4968fff"},"geometry":{"type":"Polygon","coordinates":[[[20.142388,50.0932],[20.142388,50.093167],[20.142506,50.093167],[20.142505,50.093201],[20.142388,50.0932]]]}},{"type":"Feature","id":"w706050212","properties":{"type":"yes","residential":false,"residents_est":0,"h3_10":"8a1e2e6f496ffff","h3_11":"8b1e2e6f496afff"},"geometry":{"type":"Polygon","coordinates":[[[20.142418,50.092734],[20.142419,50.092695],[20.142499,50.092696],[20.142498,50.092735],[20.142418,50.092734]]]}},{"type":"Feature","id":"w706050215","properties":{"type":"yes","residential":false,"residents_est":0,"h3_10":"8a1e2e6f490ffff","h3_11":"8b1e2e6f490bfff"},"geometry":{"type":"Polygon","coordinates":[[[20.138523,50.091471],[20.138541,50.09142],[20.138592,50.091428],[20.138574,50.091479],[20.138523,50.091471]]]}},{"type":"Feature","id":"w706050216","properties":{"type":"yes","residential":false,"residents_est":0,"h3_10":"8a1e2e6f482ffff","h3_11":"8b1e2e6f4828fff"},"geometry":{"type":"Polygon","coordinates":[[[20.139827,50.090411],[20.139838,50.090376],[20.139914,50.090388],[20.139902,50.090423],[20.139827,50.090411]]]}},{"type":"Feature","id":"w706050217","properties":{"type":"yes","residential":false,"residents_est":0,"h3_10":"8a1e2e6f4837fff","h3_11":"8b1e2e6f4835fff"},"geometry":{"type":"Polygon","coordinates":[[[20.137534,50.090368],[20.137549,50.09033],[20.1376,50.090338],[20.137587,50.090377],[20.137534,50.090368]]]}},{"type":"Feature","id":"w706050218","properties":{"type":"yes","residential":false,"residents_est":0,"h3_10":"8a1e2e6f4837fff","h3_11":"8b1e2e6f4835fff"},"geometry":{"type":"Polygon","coordinates":[[[20.137441,50.090362],[20.13746,50.09031],[20.137538,50.090322],[20.137519,50.090374],[20.137441,50.090362]]]}},{"type":"Feature","id":"w706050222","properties":{"type":"yes","residential":false,"residents_est":0,"h3_10":"8a1e2e6f498ffff","h3_11":"8b1e2e6f4988fff"},"geometry":{"type":"Polygon","coordinates":[[[20.13535,50.089475],[20.135369,50.089416],[20.13542,50.089423],[20.135401,50.089482],[20.13535,50.089475]]]}},{"type":"Feature","id":"w706050223","properties":{"type":"yes","residential":true,"residents_est":3,"h3_10":"8a1e2e6f498ffff","h3_11":"8b1e2e6f4988fff"},"geometry":{"type":"Polygon","coordinates":[[[20.135468,50.089494],[20.135488,50.089444],[20.135587,50.089461],[20.135567,50.089511],[20.135468,50.089494]]]}},{"type":"Feature","id":"w706050224","properties":{"type":"yes","residential":false,"residents_est":0,"h3_10":"8a1e2e6f498ffff","h3_11":"8b1e2e6f498dfff"},"geometry":{"type":"Polygon","coordinates":[[[20.135915,50.089609],[20.135936,50.089538],[20.135981,50.089544],[20.135961,50.089614],[20.135915,50.089609]]]}},{"type":"Feature","id":"w706050226","properties":{"type":"yes","residential":false,"residents_est":0,"h3_10":"8a1e2e6f4917fff","h3_11":"8b1e2e6f4913fff"},"geometry":{"type":"Polygon","coordinates":[[[20.135208,50.09106],[20.135224,50.091017],[20.135307,50.091031],[20.13529,50.091073],[20.135208,50.09106]]]}},{"type":"Feature","id":"w720360040","properties":{"type":"yes","residential":false,"residents_est":0,"h3_10":"8a1e2e6f4917fff","h3_11":"8b1e2e6f4910fff"},"geometry":{"type":"Polygon","coordinates":[[[20.134727,50.091617],[20.134739,50.091577],[20.134789,50.091583],[20.134777,50.091624],[20.134727,50.091617]]]}},{"type":"Feature","id":"w720360041","properties":{"type":"yes","residential":false,"residents_est":0,"h3_10":"8a1e2e6f4917fff","h3_11":"8b1e2e6f4910fff"},"geometry":{"type":"Polygon","coordinates":[[[20.134927,50.091535],[20.134942,50.091481],[20.135038,50.091493],[20.135034,50.091508],[20.135001,50.091526],[20.134983,50.091524],[20.134978,50.091541],[20.134927,50.091535]]]}},{"type":"Feature","id":"w720360042","properties":{"type":"yes","residential":true,"residents_est":47,"h3_10":"8a1e2e6f4917fff","h3_11":"8b1e2e6f4916fff"},"geometry":{"type":"Polygon","coordinates":[[[20.133803,50.091489],[20.133837,50.091372],[20.134183,50.091412],[20.134146,50.091533],[20.133803,50.091489]]]}},{"type":"Feature","id":"w720360044","properties":{"type":"yes","residential":false,"residents_est":0,"h3_10":"8a1e2e6f4917fff","h3_11":"8b1e2e6f4914fff"},"geometry":{"type":"Polygon","coordinates":[[[20.134634,50.092017],[20.13471,50.091977],[20.134741,50.092001],[20.134666,50.092041],[20.134634,50.092017]]]}},{"type":"Feature","id":"w720360045","properties":{"type":"yes","residential":false,"residents_est":0,"h3_10":"8a1e2e6f4917fff","h3_11":"8b1e2e6f4914fff"},"geometry":{"type":"Polygon","coordinates":[[[20.134671,50.092046],[20.134741,50.092001],[20.13478,50.092026],[20.13471,50.092071],[20.134671,50.092046]]]}},{"type":"Feature","id":"w720360046","properties":{"type":"yes","residential":true,"residents_est":4,"h3_10":"8a1e2e6f4917fff","h3_11":"8b1e2e6f4914fff"},"geometry":{"type":"Polygon","coordinates":[[[20.134815,50.091914],[20.134857,50.09189],[20.134933,50.091946],[20.134896,50.091967],[20.134906,50.091974],[20.134867,50.091996],[20.134816,50.09196],[20.134851,50.09194],[20.134815,50.091914]]]}},{"type":"Feature","id":"w720360047","properties":{"type":"yes","residential":false,"residents_est":0,"h3_10":"8a1e2e6f4917fff","h3_11":"8b1e2e6f4914fff"},"geometry":{"type":"Polygon","coordinates":[[[20.134731,50.091962],[20.134815,50.091914],[20.13485,50.09194],[20.134766,50.091987],[20.134731,50.091962]]]}},{"type":"Feature","id":"w720360051","properties":{"type":"yes","residential":true,"residents_est":45,"h3_10":"8a1e2e6f4967fff","h3_11":"8b1e2e6f4963fff"},"geometry":{"type":"Polygon","coordinates":[[[20.141576,50.093126],[20.141737,50.093125],[20.141738,50.093176],[20.141817,50.093176],[20.141819,50.093321],[20.141622,50.093323],[20.141621,50.093238],[20.141578,50.093239],[20.141576,50.093126]]]}},{"type":"Feature","id":"w720360052","properties":{"type":"greenhouse","residential":false,"residents_est":0,"h3_10":"8a1e2e6f496ffff","h3_11":"8b1e2e6f496cfff"},"geometry":{"type":"Polygon","coordinates":[[[20.142233,50.093377],[20.142275,50.093377],[20.142277,50.093514],[20.142236,50.093514],[20.142233,50.093377]]]}},{"type":"Feature","id":"w720360060","properties":{"type":"yes","residential":true,"residents_est":14,"h3_10":"8a1e2e6f490ffff","h3_11":"8b1e2e6f490dfff"},"geometry":{"type":"Polygon","coordinates":[[[20.138337,50.092402],[20.138378,50.092402],[20.138377,50.09235],[20.138512,50.092349],[20.138514,50.092518],[20.138445,50.092518],[20.138444,50.09249],[20.138338,50.092496],[20.138337,50.092402]]]}},{"type":"Feature","id":"w720360062","properties":{"type":"yes","residential":false,"residents_est":0,"h3_10":"8a1e2e6f4977fff","h3_11":"8b1e2e6f4974fff"},"geometry":{"type":"Polygon","coordinates":[[[20.13935,50.093004],[20.13935,50.092947],[20.13941,50.092948],[20.139409,50.093005],[20.13935,50.093004]]]}},{"type":"Feature","id":"w720360065","properties":{"type":"yes","residential":true,"residents_est":9,"h3_10":"8a1e2e6f4977fff","h3_11":"8b1e2e6f4970fff"},"geometry":{"type":"Polygon","coordinates":[[[20.139388,50.092557],[20.139389,50.092467],[20.139553,50.092467],[20.139553,50.092568],[20.139438,50.092567],[20.139437,50.092557],[20.139388,50.092557]]]}},{"type":"Feature","id":"w720361665","properties":{"type":"yes","residential":true,"residents_est":7,"h3_10":"8a1e2e6f496ffff","h3_11":"8b1e2e6f496bfff"},"geometry":{"type":"Polygon","coordinates":[[[20.142802,50.092808],[20.142804,50.092734],[20.142968,50.092737],[20.142965,50.092811],[20.142802,50.092808]]]}},{"type":"Feature","id":"w722438389","properties":{"type":"yes","residential":false,"residents_est":0,"h3_10":"8a1e2e6f484ffff","h3_11":"8b1e2e6f484cfff"},"geometry":{"type":"Polygon","coordinates":[[[20.14544,50.089747],[20.145515,50.089733],[20.145537,50.089781],[20.14549,50.08979],[20.145476,50.08976],[20.145449,50.089765],[20.14544,50.089747]]]}},{"type":"Feature","id":"w722438391","properties":{"type":"yes","residential":true,"residents_est":8,"h3_10":"8a1e2e6f48cffff","h3_11":"8b1e2e6f48c9fff"},"geometry":{"type":"Polygon","coordinates":[[[20.143871,50.086861],[20.144107,50.086807],[20.144137,50.08686],[20.143899,50.086912],[20.143871,50.086861]]]}},{"type":"Feature","id":"w991483151","properties":{"type":"yes","name":"Kraków Nowa Huta post. 3","residential":false,"residents_est":0,"h3_10":"8a1e2e6f491ffff","h3_11":"8b1e2e6f4918fff"},"geometry":{"type":"Polygon","coordinates":[[[20.136472,50.091289],[20.136489,50.091243],[20.136545,50.091252],[20.136533,50.091287],[20.136502,50.091282],[20.136498,50.091293],[20.136472,50.091289]]]}},{"type":"Feature","id":"w1006835275","properties":{"type":"construction","residential":false,"residents_est":0,"h3_10":"8a1e2e6f484ffff","h3_11":"8b1e2e6f484efff"},"geometry":{"type":"Polygon","coordinates":[[[20.144903,50.089383],[20.145025,50.089359],[20.145077,50.089469],[20.144955,50.089493],[20.144903,50.089383]]]}},{"type":"Feature","id":"w1047828269","properties":{"type":"yes","levels":1.0,"residential":true,"residents_est":6,"h3_10":"8a1e2e6f491ffff","h3_11":"8b1e2e6f491bfff"},"geometry":{"type":"Polygon","coordinates":[[[20.136948,50.090893],[20.136966,50.090841],[20.137346,50.090899],[20.137328,50.09095],[20.136948,50.090893]]]}},{"type":"Feature","id":"w1047828435","properties":{"type":"construction","levels":1.0,"residential":false,"residents_est":0,"h3_10":"8a1e2e6f4807fff","h3_11":"8b1e2e6f4802fff"},"geometry":{"type":"Polygon","coordinates":[[[20.138458,50.089449],[20.138478,50.089395],[20.138612,50.089416],[20.138593,50.089469],[20.138458,50.089449]]]}},{"type":"Feature","id":"w1047828470","properties":{"type":"retail","levels":1.0,"residential":false,"residents_est":0,"h3_10":"8a1e2e6f496ffff","h3_11":"8b1e2e6f4968fff"},"geometry":{"type":"Polygon","coordinates":[[[20.142613,50.093191],[20.142875,50.09319],[20.142877,50.093372],[20.142708,50.093373],[20.142708,50.093317],[20.142625,50.093316],[20.142625,50.093194],[20.142613,50.093191]]]}},{"type":"Feature","id":"w1101454722","properties":{"type":"yes","address":"Spławy 7C","residential":true,"residents_est":9,"h3_10":"8a1e2e6f496ffff","h3_11":"8b1e2e6f4969fff"},"geometry":{"type":"Polygon","coordinates":[[[20.14339,50.093252],[20.143559,50.093249],[20.143564,50.093347],[20.143395,50.09335],[20.14339,50.093252]]]}},{"type":"Feature","id":"w1246957745","properties":{"type":"yes","residential":true,"residents_est":12,"h3_10":"8a1e2e6f4977fff","h3_11":"8b1e2e6f4975fff"},"geometry":{"type":"Polygon","coordinates":[[[20.139556,50.09297],[20.139728,50.092969],[20.139728,50.09309],[20.139557,50.093091],[20.139556,50.09297]]]}},{"type":"Feature","id":"w1246957746","properties":{"type":"yes","residential":true,"residents_est":12,"h3_10":"8a1e2e6f4977fff","h3_11":"8b1e2e6f4974fff"},"geometry":{"type":"Polygon","coordinates":[[[20.139113,50.092957],[20.139284,50.092957],[20.139285,50.093078],[20.139114,50.093078],[20.139113,50.092957]]]}},{"type":"Feature","id":"w1532382671","properties":{"type":"construction","address":"Spławy 1A","residential":false,"residents_est":0,"h3_10":"8a1e2e6f492ffff","h3_11":"8b1e2e6f492bfff"},"geometry":{"type":"Polygon","coordinates":[[[20.138166,50.092885],[20.138329,50.092883],[20.138331,50.092938],[20.138237,50.092939],[20.138238,50.092948],[20.138168,50.092949],[20.138166,50.092885]]]}},{"type":"Feature","id":"w1532382672","properties":{"type":"construction","address":"Spławy 1","residential":false,"residents_est":0,"h3_10":"8a1e2e6f492ffff","h3_11":"8b1e2e6f492bfff"},"geometry":{"type":"Polygon","coordinates":[[[20.138163,50.09282],[20.138234,50.092819],[20.138234,50.092828],[20.138328,50.092827],[20.138329,50.092883],[20.138166,50.092885],[20.138163,50.09282]]]}},{"type":"Feature","id":"w1532382673","properties":{"type":"construction","address":"Spławy 1E","residential":false,"residents_est":0,"h3_10":"8a1e2e6f492ffff","h3_11":"8b1e2e6f4929fff"},"geometry":{"type":"Polygon","coordinates":[[[20.138191,50.093209],[20.138354,50.093207],[20.138356,50.093262],[20.138262,50.093263],[20.138263,50.093272],[20.138193,50.093273],[20.138191,50.093209]]]}},{"type":"Feature","id":"w1532382674","properties":{"type":"construction","address":"Spławy 1D","residential":false,"residents_est":0,"h3_10":"8a1e2e6f492ffff","h3_11":"8b1e2e6f4929fff"},"geometry":{"type":"Polygon","coordinates":[[[20.138188,50.093143],[20.138259,50.093142],[20.13826,50.093151],[20.138353,50.09315],[20.138354,50.093207],[20.138191,50.093209],[20.138188,50.093143]]]}},{"type":"Feature","id":"w1532382675","properties":{"type":"construction","address":"Spławy 1C","residential":false,"residents_est":0,"h3_10":"8a1e2e6f492ffff","h3_11":"8b1e2e6f4929fff"},"geometry":{"type":"Polygon","coordinates":[[[20.138181,50.093046],[20.138344,50.093044],[20.138345,50.093099],[20.138252,50.0931],[20.138252,50.093109],[20.138183,50.09311],[20.138181,50.093046]]]}},{"type":"Feature","id":"w1532382676","properties":{"type":"construction","address":"Spławy 1B","residential":false,"residents_est":0,"h3_10":"8a1e2e6f492ffff","h3_11":"8b1e2e6f4929fff"},"geometry":{"type":"Polygon","coordinates":[[[20.138178,50.092981],[20.138249,50.09298],[20.138249,50.092989],[20.138342,50.092988],[20.138344,50.093044],[20.138181,50.093046],[20.138178,50.092981]]]}}]}