{"type":"FeatureCollection","features":[{"type":"Feature","id":"w231347498","properties":{"type":"yes","residential":true,"residents_est":1,"h3_10":"8a1e2e798ba7fff","h3_11":"8b1e2e798ba6fff"},"geometry":{"type":"Polygon","coordinates":[[[19.901924,50.123295],[19.901994,50.123231],[19.902068,50.123264],[19.901999,50.123329],[19.901924,50.123295]]]}},{"type":"Feature","id":"w312558778","properties":{"type":"yes","address":"Cesarska 11A","residential":true,"residents_est":11,"h3_10":"8a1e2e798b17fff","h3_11":"8b1e2e798b13fff"},"geometry":{"type":"Polygon","coordinates":[[[19.904111,50.123841],[19.904136,50.123767],[19.904159,50.123782],[19.904222,50.123789],[19.904234,50.123766],[19.904512,50.123712],[19.904505,50.123696],[19.904509,50.12369],[19.904551,50.123681],[19.904563,50.123685],[19.90457,50.123702],[19.904854,50.123647],[19.904881,50.123663],[19.904927,50.123634],[19.904937,50.123615],[19.905016,50.12367],[19.905007,50.123697],[19.904909,50.123762],[19.904879,50.123768],[19.904858,50.123765],[19.904819,50.123744],[19.904833,50.123709],[19.904827,50.123693],[19.904591,50.123738],[19.904552,50.123755],[19.904525,50.12375],[19.90429,50.123795],[19.904297,50.123811],[19.904338,50.123834],[19.904325,50.123867],[19.904308,50.123876],[19.904278,50.123881],[19.904141,50.123861],[19.904111,50.123841]]]}},{"type":"Feature","id":"w323214642","properties":{"type":"yes","residential":true,"residents_est":1,"h3_10":"8a1e2e798ba7fff","h3_11":"8b1e2e798ba4fff"},"geometry":{"type":"Polygon","coordinates":[[[19.902517,50.123549],[19.902579,50.1235],[19.902644,50.123534],[19.902583,50.123583],[19.902517,50.123549]]]}},{"type":"Feature","id":"w362083367","properties":{"type":"yes","address":"Pękowicka 280B","residential":true,"residents_est":2,"h3_10":"8a1e2e798b87fff","h3_11":"8b1e2e798b86fff"},"geometry":{"type":"Polygon","coordinates":[[[19.902523,50.122194],[19.902607,50.122124],[19.90266,50.12215],[19.902667,50.122144],[19.902737,50.122179],[19.902756,50.122164],[19.902776,50.122163],[19.902793,50.122172],[19.902797,50.122184],[19.902785,50.122195],[19.90279,50.122198],[19.902725,50.122262],[19.902718,50.12226],[19.902691,50.122282],[19.902658,50.122286],[19.902641,50.122278],[19.902636,50.122266],[19.902651,50.122251],[19.902523,50.122194]]]}},{"type":"Feature","id":"w362083368","properties":{"type":"yes","residential":true,"residents_est":7,"h3_10":"8a1e2e798ba7fff","h3_11":"8b1e2e798ba2fff"},"geometry":{"type":"Polygon","coordinates":[[[19.902473,50.122864],[19.902596,50.122765],[19.90269,50.122812],[19.902673,50.122826],[19.902716,50.122848],[19.902708,50.122855],[19.902748,50.122876],[19.902795,50.122839],[19.902863,50.122874],[19.90272,50.122989],[19.902643,50.12295],[19.902678,50.122922],[19.902645,50.122905],[19.902635,50.122915],[19.902592,50.122893],[19.902567,50.122912],[19.902473,50.122864]]]}},{"type":"Feature","id":"w362083369","properties":{"type":"yes","address":"Pękowicka 282","residential":true,"residents_est":1,"h3_10":"8a1e2e798ba7fff","h3_11":"8b1e2e798ba6fff"},"geometry":{"type":"Polygon","coordinates":[[[19.902223,50.123264],[19.902274,50.123218],[19.902268,50.123215],[19.902295,50.123191],[19.902275,50.123182],[19.90232,50.123141],[19.90234,50.123151],[19.902366,50.123126],[19.902458,50.123169],[19.902431,50.123193],[19.902451,50.123202],[19.902405,50.123243],[19.902385,50.123234],[19.902359,50.123257],[19.902352,50.123254],[19.902301,50.1233],[19.902223,50.123264]]]}},{"type":"Feature","id":"w362083370","properties":{"type":"yes","address":"Pękowicka 282A","residential":true,"residents_est":2,"h3_10":"8a1e2e798bb7fff","h3_11":"8b1e2e798bb5fff"},"geometry":{"type":"Polygon","coordinates":[[[19.901903,50.123116],[19.901954,50.12307],[19.901947,50.123067],[19.901975,50.123043],[19.901955,50.123034],[19.902,50.122993],[19.90202,50.123002],[19.902047,50.122978],[19.902139,50.123021],[19.902112,50.123045],[19.902132,50.123054],[19.902086,50.123095],[19.902066,50.123085],[19.902039,50.123109],[19.902032,50.123106],[19.901981,50.123152],[19.901903,50.123116]]]}},{"type":"Feature","id":"w362083371","properties":{"type":"yes","address":"Pękowicka 282B","residential":true,"residents_est":1,"h3_10":"8a1e2e798bb7fff","h3_11":"8b1e2e798bb5fff"},"geometry":{"type":"Polygon","coordinates":[[[19.901621,50.122986],[19.901666,50.122937],[19.901646,50.122928],[19.901692,50.122887],[19.901712,50.122896],[19.901739,50.122872],[19.90183,50.122915],[19.901803,50.122939],[19.901822,50.122948],[19.901776,50.122988],[19.901757,50.122979],[19.901698,50.123022],[19.901621,50.122986]]]}},{"type":"Feature","id":"w362083372","properties":{"type":"yes","residential":true,"residents_est":2,"h3_10":"8a1e2e798b97fff","h3_11":"8b1e2e798b95fff"},"geometry":{"type":"Polygon","coordinates":[[[19.902126,50.122105],[19.902165,50.122073],[19.902166,50.12206],[19.902189,50.122041],[19.902208,50.122037],[19.902273,50.121983],[19.902381,50.122037],[19.902186,50.12219],[19.902136,50.122164],[19.902176,50.122131],[19.902126,50.122105]]]}},{"type":"Feature","id":"w362083374","properties":{"type":"yes","address":"Pękowicka 280C","residential":true,"residents_est":2,"h3_10":"8a1e2e798b87fff","h3_11":"8b1e2e798b86fff"},"geometry":{"type":"Polygon","coordinates":[[[19.90229,50.122433],[19.90232,50.12241],[19.902317,50.122397],[19.90233,50.122385],[19.902348,50.122384],[19.902361,50.122374],[19.902414,50.1224],[19.90244,50.122379],[19.902486,50.122401],[19.902482,50.122407],[19.902527,50.12243],[19.902484,50.122465],[19.902511,50.12248],[19.902441,50.122538],[19.902371,50.122501],[19.902391,50.122485],[19.90229,50.122433]]]}},{"type":"Feature","id":"w459460878","properties":{"type":"yes","address":"Jurajska 33","residential":true,"residents_est":1,"h3_10":"8a1e2e798b97fff","h3_11":"8b1e2e798b96fff"},"geometry":{"type":"Polygon","coordinates":[[[19.900998,50.121638],[19.901035,50.121604],[19.901049,50.121611],[19.901082,50.121582],[19.901197,50.121636],[19.901165,50.121664],[19.901179,50.121671],[19.901142,50.121704],[19.900998,50.121638]]]}},{"type":"Feature","id":"w459460880","properties":{"type":"yes","residential":true,"residents_est":1,"h3_10":"8a1e2e798b97fff","h3_11":"8b1e2e798b94fff"},"geometry":{"type":"Polygon","coordinates":[[[19.901303,50.121831],[19.901435,50.121733],[19.901519,50.121779],[19.901388,50.121877],[19.901303,50.121831]]]}},{"type":"Feature","id":"w459460881","properties":{"type":"yes","residential":true,"residents_est":2,"h3_10":"8a1e2e798b97fff","h3_11":"8b1e2e798b94fff"},"geometry":{"type":"Polygon","coordinates":[[[19.901104,50.121977],[19.901235,50.121879],[19.90132,50.121926],[19.901189,50.122024],[19.901104,50.121977]]]}},{"type":"Feature","id":"w706400219","properties":{"type":"yes","address":"Jurajska 35","residential":true,"residents_est":1,"h3_10":"8a1e2e798b97fff","h3_11":"8b1e2e798b96fff"},"geometry":{"type":"Polygon","coordinates":[[[19.900727,50.1216],[19.90081,50.121525],[19.900855,50.121545],[19.900865,50.121537],[19.900916,50.12156],[19.900813,50.121653],[19.900762,50.121629],[19.900772,50.12162],[19.900727,50.1216]]]}},{"type":"Feature","id":"w836741858","properties":{"type":"yes","residential":false,"residents_est":0,"h3_10":"8a1e2e798baffff","h3_11":"8b1e2e798bacfff"},"geometry":{"type":"Polygon","coordinates":[[[19.904281,50.123521],[19.904304,50.123495],[19.904346,50.123494],[19.904356,50.123504],[19.904375,50.123497],[19.904382,50.123507],[19.904299,50.12354],[19.904281,50.123521]]]}},{"type":"Feature","id":"w836741860","properties":{"type":"yes","address":"Pękowicka 280E","residential":true,"residents_est":7,"h3_10":"8a1e2e798bb7fff","h3_11":"8b1e2e798bb0fff"},"geometry":{"type":"Polygon","coordinates":[[[19.9016,50.122626],[19.901669,50.12257],[19.901723,50.122596],[19.90174,50.12258],[19.901756,50.122587],[19.901811,50.122538],[19.901832,50.122547],[19.901864,50.122519],[19.901961,50.122566],[19.901902,50.122619],[19.901892,50.122614],[19.901865,50.122638],[19.901874,50.122643],[19.901849,50.122665],[19.901933,50.122705],[19.901876,50.122755],[19.9016,50.122626]]]}},{"type":"Feature","id":"w1049554555","properties":{"type":"detached","address":"Cesarska 11","residential":true,"residents_est":23,"h3_10":"8a1e2e798baffff","h3_11":"8b1e2e798ba9fff"},"geometry":{"type":"Polygon","coordinates":[[[19.904642,50.123098],[19.904702,50.122967],[19.904906,50.123006],[19.904922,50.122983],[19.905053,50.123021],[19.905037,50.123044],[19.905166,50.123097],[19.905237,50.123099],[19.905237,50.123089],[19.905279,50.123072],[19.90536,50.123064],[19.905434,50.123082],[19.905457,50.123094],[19.905457,50.123105],[19.905561,50.123108],[19.905561,50.123114],[19.905579,50.123114],[19.905573,50.123191],[19.905556,50.12319],[19.905555,50.123197],[19.905437,50.123194],[19.905399,50.123223],[19.905333,50.123233],[19.905282,50.123221],[19.905231,50.123188],[19.905149,50.123186],[19.905103,50.123232],[19.904949,50.123169],[19.904939,50.123183],[19.904808,50.123145],[19.904818,50.123131],[19.904642,50.123098]]]}}]}