{"type":"FeatureCollection","features":[{"type":"Feature","id":"w233372261","properties":{"type":"yes","address":"Podgórki Tynieckie 21a","residential":true,"residents_est":9,"h3_10":"8a1e05a6485ffff","h3_11":"8b1e05a6485bfff"},"geometry":{"type":"Polygon","coordinates":[[[19.846711,49.997047],[19.846817,49.997029],[19.846835,49.997073],[19.846905,49.997062],[19.846935,49.997139],[19.846865,49.99715],[19.846867,49.997155],[19.846817,49.997163],[19.84682,49.99717],[19.846746,49.997183],[19.846712,49.997094],[19.846728,49.997091],[19.846711,49.997047]]]}},{"type":"Feature","id":"w233372347","properties":{"type":"yes","address":"Podgórki Tynieckie 25","residential":true,"residents_est":6,"h3_10":"8a1e05a6485ffff","h3_11":"8b1e05a6485cfff"},"geometry":{"type":"Polygon","coordinates":[[[19.846394,49.99785],[19.846451,49.997845],[19.846448,49.997831],[19.846538,49.997824],[19.846545,49.997861],[19.846531,49.997862],[19.846536,49.997889],[19.84655,49.997887],[19.846557,49.99792],[19.846411,49.997937],[19.846394,49.99785]]]}},{"type":"Feature","id":"w233373617","properties":{"type":"yes","residential":true,"residents_est":5,"h3_10":"8a1e05a6485ffff","h3_11":"8b1e05a6485bfff"},"geometry":{"type":"Polygon","coordinates":[[[19.846861,49.997269],[19.846992,49.997255],[19.847015,49.997337],[19.846881,49.99735],[19.846861,49.997269]]]}},{"type":"Feature","id":"w233374079","properties":{"type":"yes","address":"Wielogórska 20","residential":true,"residents_est":28,"h3_10":"8a1e05a64837fff","h3_11":"8b1e05a64830fff"},"geometry":{"type":"Polygon","coordinates":[[[19.839652,49.999097],[19.839969,49.999096],[19.839969,49.999069],[19.840052,49.999069],[19.840053,49.999195],[19.839951,49.999195],[19.839951,49.999167],[19.839652,49.999168],[19.839652,49.999097]]]}},{"type":"Feature","id":"w233374975","properties":{"type":"yes","address":"Podgórki Tynieckie 21","residential":true,"residents_est":4,"h3_10":"8a1e05a6485ffff","h3_11":"8b1e05a64858fff"},"geometry":{"type":"Polygon","coordinates":[[[19.846845,49.997583],[19.846987,49.997579],[19.846994,49.997651],[19.846857,49.997655],[19.846845,49.997583]]]}},{"type":"Feature","id":"w233375555","properties":{"type":"yes","address":"Podgórki Tynieckie 23","residential":true,"residents_est":4,"h3_10":"8a1e05a6485ffff","h3_11":"8b1e05a64858fff"},"geometry":{"type":"Polygon","coordinates":[[[19.846714,49.997588],[19.846844,49.997583],[19.846857,49.997655],[19.84672,49.997659],[19.846714,49.997588]]]}},{"type":"Feature","id":"w233376829","properties":{"type":"yes","residential":true,"residents_est":4,"h3_10":"8a1e05a6485ffff","h3_11":"8b1e05a64858fff"},"geometry":{"type":"Polygon","coordinates":[[[19.846467,49.997666],[19.846596,49.99766],[19.846599,49.997687],[19.84657,49.997688],[19.846576,49.997742],[19.846477,49.997748],[19.846467,49.997666]]]}},{"type":"Feature","id":"w319537078","properties":{"type":"ruins","address":"Wielogórska 22","residential":false,"residents_est":0,"h3_10":"8a1e05a649affff","h3_11":"8b1e05a649abfff"},"geometry":{"type":"Polygon","coordinates":[[[19.838212,49.999184],[19.838369,49.999182],[19.83837,49.99924],[19.838213,49.999241],[19.838212,49.999184]]]}},{"type":"Feature","id":"w455123302","properties":{"type":"yes","address":"Wielogórska 16","name":"Krematorium \"Klepsydra\"","residential":true,"residents_est":76,"h3_10":"8a1e05a64807fff","h3_11":"8b1e05a64805fff"},"geometry":{"type":"Polygon","coordinates":[[[19.841189,49.999293],[19.841225,49.999211],[19.841423,49.999229],[19.841449,49.99912],[19.841513,49.999139],[19.841597,49.999146],[19.841642,49.999184],[19.84162,49.999195],[19.841616,49.999215],[19.841631,49.999227],[19.841586,49.99943],[19.841201,49.999394],[19.841222,49.999296],[19.841189,49.999293]]]}},{"type":"Feature","id":"w705235023","properties":{"type":"yes","residential":true,"residents_est":2,"h3_10":"8a1e05a6485ffff","h3_11":"8b1e05a64858fff"},"geometry":{"type":"Polygon","coordinates":[[[19.846609,49.997594],[19.846699,49.99759],[19.846706,49.997646],[19.846616,49.99765],[19.846609,49.997594]]]}},{"type":"Feature","id":"w708081537","properties":{"type":"yes","residential":false,"residents_est":0,"h3_10":"8a1e05a6485ffff","h3_11":"8b1e05a6485cfff"},"geometry":{"type":"Polygon","coordinates":[[[19.846335,49.997854],[19.846394,49.99785],[19.846404,49.997898],[19.846345,49.997903],[19.846335,49.997854]]]}},{"type":"Feature","id":"w719386036","properties":{"type":"yes","residential":true,"residents_est":10,"h3_10":"8a1e05a64837fff","h3_11":"8b1e05a64830fff"},"geometry":{"type":"Polygon","coordinates":[[[19.839655,49.999079],[19.839656,49.999041],[19.839687,49.999041],[19.839689,49.998989],[19.839923,49.998992],[19.839922,49.999016],[19.839961,49.999016],[19.839959,49.999082],[19.839655,49.999079]]]}},{"type":"Feature","id":"w719386037","properties":{"type":"chapel","residential":false,"residents_est":0,"h3_10":"8a1e05a6482ffff","h3_11":"8b1e05a6482efff"},"geometry":{"type":"Polygon","coordinates":[[[19.841586,49.99943],[19.841622,49.999271],[19.841665,49.999275],[19.841685,49.999265],[19.841742,49.999271],[19.841757,49.999284],[19.841789,49.999287],[19.841852,49.999257],[19.841852,49.999271],[19.841865,49.999282],[19.841887,49.999286],[19.841916,49.999311],[19.842015,49.999321],[19.841997,49.99933],[19.841994,49.999344],[19.842005,49.999354],[19.842002,49.999368],[19.842026,49.999375],[19.842077,49.999374],[19.842076,49.99935],[19.842169,49.999372],[19.84227,49.999369],[19.842253,49.999402],[19.842269,49.999403],[19.842268,49.999407],[19.842244,49.999419],[19.842239,49.999443],[19.842257,49.999458],[19.84224,49.999461],[19.842241,49.999495],[19.842147,49.999474],[19.842048,49.999477],[19.842065,49.999444],[19.841974,49.999436],[19.841967,49.999465],[19.841715,49.999442],[19.841718,49.999428],[19.841634,49.999421],[19.841631,49.999434],[19.841586,49.99943]]]}},{"type":"Feature","id":"w1486940871","properties":{"type":"yes","residential":true,"residents_est":2,"h3_10":"8a1e05a64837fff","h3_11":"8b1e05a64835fff"},"geometry":{"type":"Polygon","coordinates":[[[19.839634,49.999546],[19.839644,49.999477],[19.839779,49.999485],[19.839768,49.999555],[19.839634,49.999546]]]}},{"type":"Feature","id":"w1504687985","properties":{"type":"yes","levels":1.0,"residential":false,"residents_est":0,"h3_10":"8a1e05a6482ffff","h3_11":"8b1e05a6482cfff"},"geometry":{"type":"Polygon","coordinates":[[[19.842327,49.999874],[19.842335,49.999872],[19.842378,49.999918],[19.842451,49.999956],[19.842505,49.999972],[19.842567,49.99998],[19.842616,49.99998],[19.842696,49.999968],[19.842768,49.999941],[19.842821,49.999905],[19.842827,49.999907],[19.842768,49.999948],[19.842696,49.999974],[19.842632,49.999984],[19.842548,49.999984],[19.842473,49.999969],[19.84242,49.999949],[19.842374,49.999922],[19.842327,49.999874]]]}}]}