{"type":"FeatureCollection","features":[{"type":"Feature","id":"w232081803","properties":{"type":"yes","residential":true,"residents_est":1,"h3_10":"8a1e05b4cb97fff","h3_11":"8b1e05b4cb92fff"},"geometry":{"type":"Polygon","coordinates":[[[19.830429,50.049063],[19.830435,50.049016],[19.830624,50.049025],[19.830618,50.049071],[19.830572,50.049069],[19.830573,50.049059],[19.830562,50.049059],[19.830561,50.049069],[19.830524,50.049067],[19.830525,50.049057],[19.830512,50.049056],[19.830511,50.049067],[19.830429,50.049063]]]}},{"type":"Feature","id":"w232081953","properties":{"type":"yes","residential":true,"residents_est":1,"h3_10":"8a1e05b4cb97fff","h3_11":"8b1e05b4cb92fff"},"geometry":{"type":"Polygon","coordinates":[[[19.830163,50.049048],[19.830168,50.049005],[19.830364,50.049013],[19.830359,50.049056],[19.830295,50.049054],[19.830296,50.049043],[19.830289,50.049042],[19.830289,50.049053],[19.830247,50.049052],[19.830248,50.04904],[19.830241,50.04904],[19.83024,50.049051],[19.830163,50.049048]]]}},{"type":"Feature","id":"w232082414","properties":{"type":"yes","residential":true,"residents_est":2,"h3_10":"8a1e05b4cb97fff","h3_11":"8b1e05b4cb92fff"},"geometry":{"type":"Polygon","coordinates":[[[19.830288,50.049155],[19.830295,50.049102],[19.830548,50.049115],[19.830541,50.049168],[19.830288,50.049155]]]}},{"type":"Feature","id":"w232082749","properties":{"type":"monastery","residential":false,"residents_est":0,"h3_10":"8a1e05b4cadffff","h3_11":"8b1e05b4cadbfff"},"geometry":{"type":"Polygon","coordinates":[[[19.840072,50.046204],[19.840385,50.046194],[19.840392,50.046238],[19.840082,50.046258],[19.840072,50.046204]]]}},{"type":"Feature","id":"w232082885","properties":{"type":"yes","name":"Schron Amunicyjny Las Wolski","residential":true,"residents_est":4,"h3_10":"8a1e05b4cb6ffff","h3_11":"8b1e05b4cb6bfff"},"geometry":{"type":"Polygon","coordinates":[[[19.841368,50.053009],[19.841474,50.052922],[19.841635,50.053004],[19.841529,50.053091],[19.841368,50.053009]]]}},{"type":"Feature","id":"w232083118","properties":{"type":"monastery","residential":false,"residents_est":0,"h3_10":"8a1e05b4cadffff","h3_11":"8b1e05b4cadafff"},"geometry":{"type":"Polygon","coordinates":[[[19.839799,50.046026],[19.839895,50.046021],[19.839924,50.046216],[19.839826,50.046222],[19.839799,50.046026]]]}},{"type":"Feature","id":"w232083208","properties":{"type":"farm","address":"Rędzina 1a","residential":true,"residents_est":4,"h3_10":"8a1e05b4cb97fff","h3_11":"8b1e05b4cb92fff"},"geometry":{"type":"Polygon","coordinates":[[[19.830484,50.048896],[19.830493,50.048819],[19.830653,50.048827],[19.830644,50.048904],[19.830484,50.048896]]]}},{"type":"Feature","id":"w232083242","properties":{"type":"farm","address":"Rędzina 1","residential":true,"residents_est":3,"h3_10":"8a1e05b4cb97fff","h3_11":"8b1e05b4cb92fff"},"geometry":{"type":"Polygon","coordinates":[[[19.830215,50.04887],[19.830225,50.048803],[19.830384,50.048813],[19.830374,50.048879],[19.830215,50.04887]]]}},{"type":"Feature","id":"w232083268","properties":{"type":"yes","residential":true,"residents_est":4,"h3_10":"8a1e05b4cadffff","h3_11":"8b1e05b4cad9fff"},"geometry":{"type":"Polygon","coordinates":[[[19.840438,50.046406],[19.840825,50.046374],[19.840842,50.046445],[19.840454,50.046476],[19.840438,50.046406]]]}}]}