{"type":"FeatureCollection","features":[{"type":"Feature","id":"w233372296","properties":{"type":"yes","address":"Podgórki Tynieckie 102b","residential":true,"residents_est":9,"h3_10":"8a1e05b4bd97fff","h3_11":"8b1e05b4bd94fff"},"geometry":{"type":"Polygon","coordinates":[[[19.842332,50.011363],[19.842391,50.011347],[19.842379,50.011328],[19.84247,50.011303],[19.842482,50.011322],[19.842522,50.011311],[19.842558,50.011366],[19.842583,50.011359],[19.842615,50.011408],[19.842523,50.011433],[19.842492,50.011386],[19.842369,50.01142],[19.842332,50.011363]]]}},{"type":"Feature","id":"w233373500","properties":{"type":"yes","residential":true,"residents_est":4,"h3_10":"8a1e05b4bc97fff","h3_11":"8b1e05b4bc96fff"},"geometry":{"type":"Polygon","coordinates":[[[19.84429,50.008257],[19.844396,50.008237],[19.844431,50.008314],[19.844325,50.008332],[19.84429,50.008257]]]}},{"type":"Feature","id":"w233374161","properties":{"type":"yes","residential":true,"residents_est":4,"h3_10":"8a1e05b4bdb7fff","h3_11":"8b1e05b4bdb2fff"},"geometry":{"type":"Polygon","coordinates":[[[19.841751,50.011623],[19.841803,50.011526],[19.841901,50.011548],[19.841849,50.011645],[19.841751,50.011623]]]}},{"type":"Feature","id":"w233375172","properties":{"type":"yes","residential":false,"residents_est":0,"h3_10":"8a1e05b4bd9ffff","h3_11":"8b1e05b4bd9afff"},"geometry":{"type":"Polygon","coordinates":[[[19.843906,50.009989],[19.843983,50.009981],[19.843998,50.010041],[19.84392,50.010049],[19.843906,50.009989]]]}},{"type":"Feature","id":"w233377529","properties":{"type":"yes","address":"Podgórki Tynieckie 94b","residential":true,"residents_est":8,"h3_10":"8a1e05b4bcb7fff","h3_11":"8b1e05b4bcb4fff"},"geometry":{"type":"Polygon","coordinates":[[[19.844434,50.009713],[19.844554,50.009698],[19.8446,50.009861],[19.844536,50.009869],[19.844526,50.009831],[19.844472,50.009838],[19.844434,50.009713]]]}},{"type":"Feature","id":"w233377647","properties":{"type":"yes","address":"Podgórki Tynieckie 94e","residential":true,"residents_est":10,"h3_10":"8a1e05b4bc97fff","h3_11":"8b1e05b4bc96fff"},"geometry":{"type":"Polygon","coordinates":[[[19.844064,50.00843],[19.844286,50.008393],[19.844326,50.008491],[19.844248,50.008504],[19.844251,50.008512],[19.844185,50.008524],[19.844181,50.008515],[19.844104,50.008528],[19.844064,50.00843]]]}},{"type":"Feature","id":"w338151954","properties":{"type":"yes","address":"Podgórki Tynieckie 98f","residential":true,"residents_est":6,"h3_10":"8a1e05b4bd97fff","h3_11":"8b1e05b4bd93fff"},"geometry":{"type":"Polygon","coordinates":[[[19.842951,50.010495],[19.843001,50.010484],[19.843008,50.010498],[19.843066,50.010485],[19.843094,50.010537],[19.843104,50.010534],[19.843124,50.010572],[19.843113,50.010574],[19.843118,50.010583],[19.843088,50.01059],[19.843094,50.010602],[19.843018,50.010619],[19.842951,50.010495]]]}},{"type":"Feature","id":"w338151955","properties":{"type":"yes","address":"Podgórki Tynieckie 98d","residential":true,"residents_est":6,"h3_10":"8a1e05b4bd97fff","h3_11":"8b1e05b4bd93fff"},"geometry":{"type":"Polygon","coordinates":[[[19.842574,50.010579],[19.842622,50.010569],[19.84263,50.010583],[19.842688,50.01057],[19.842715,50.010621],[19.842726,50.010618],[19.842745,50.010656],[19.842735,50.010658],[19.84274,50.010667],[19.842709,50.010674],[19.842716,50.010686],[19.84264,50.010703],[19.842574,50.010579]]]}},{"type":"Feature","id":"w338151956","properties":{"type":"yes","address":"Podgórki Tynieckie 98c","residential":true,"residents_est":6,"h3_10":"8a1e05b4bd97fff","h3_11":"8b1e05b4bd90fff"},"geometry":{"type":"Polygon","coordinates":[[[19.842475,50.010616],[19.842533,50.010604],[19.842526,50.01059],[19.842574,50.010579],[19.84264,50.010703],[19.842565,50.01072],[19.842558,50.010707],[19.842527,50.010714],[19.842522,50.010705],[19.842512,50.010708],[19.842492,50.01067],[19.842502,50.010668],[19.842475,50.010616]]]}},{"type":"Feature","id":"w338151957","properties":{"type":"yes","address":"Podgórki Tynieckie 98a","residential":true,"residents_est":6,"h3_10":"8a1e05b4bd97fff","h3_11":"8b1e05b4bd96fff"},"geometry":{"type":"Polygon","coordinates":[[[19.842097,50.010702],[19.842155,50.010689],[19.842148,50.010675],[19.842195,50.010664],[19.842262,50.010787],[19.842187,50.010804],[19.84218,50.010792],[19.842149,50.010799],[19.842144,50.01079],[19.842133,50.010792],[19.842113,50.010755],[19.842124,50.010753],[19.842097,50.010702]]]}},{"type":"Feature","id":"w338151958","properties":{"type":"yes","address":"Podgórki Tynieckie 98e","residential":true,"residents_est":6,"h3_10":"8a1e05b4bd97fff","h3_11":"8b1e05b4bd93fff"},"geometry":{"type":"Polygon","coordinates":[[[19.842854,50.010532],[19.842911,50.01052],[19.842904,50.010506],[19.842951,50.010495],[19.843018,50.010619],[19.842943,50.010635],[19.842936,50.010622],[19.842906,50.010629],[19.8429,50.010619],[19.842892,50.010621],[19.842873,50.010588],[19.842884,50.010586],[19.842854,50.010532]]]}},{"type":"Feature","id":"w338151959","properties":{"type":"yes","address":"Podgórki Tynieckie 98b","residential":true,"residents_est":6,"h3_10":"8a1e05b4bd97fff","h3_11":"8b1e05b4bd90fff"},"geometry":{"type":"Polygon","coordinates":[[[19.842195,50.010664],[19.842244,50.010653],[19.842251,50.010666],[19.842309,50.010653],[19.842337,50.010705],[19.842347,50.010702],[19.842368,50.01074],[19.842357,50.010742],[19.842362,50.010751],[19.842331,50.010758],[19.842337,50.01077],[19.842262,50.010787],[19.842195,50.010664]]]}},{"type":"Feature","id":"w338151960","properties":{"type":"yes","residential":false,"residents_est":0,"h3_10":"8a1e05b4bd97fff","h3_11":"8b1e05b4bd94fff"},"geometry":{"type":"Polygon","coordinates":[[[19.842002,50.011086],[19.842055,50.011074],[19.842073,50.011108],[19.84202,50.01112],[19.842002,50.011086]]]}},{"type":"Feature","id":"w705136249","properties":{"type":"yes","residential":true,"residents_est":6,"h3_10":"8a1e05b4bc9ffff","h3_11":"8b1e05b4bc9cfff"},"geometry":{"type":"Polygon","coordinates":[[[19.846016,50.008162],[19.846023,50.008161],[19.846021,50.008148],[19.846128,50.008139],[19.846131,50.008153],[19.846176,50.008149],[19.846183,50.008181],[19.846163,50.008183],[19.846166,50.008197],[19.846186,50.008196],[19.846192,50.008228],[19.846032,50.008242],[19.846016,50.008162]]]}},{"type":"Feature","id":"w705136250","properties":{"type":"yes","residential":true,"residents_est":6,"h3_10":"8a1e05b4bc9ffff","h3_11":"8b1e05b4bc9cfff"},"geometry":{"type":"Polygon","coordinates":[[[19.846051,50.008341],[19.846058,50.00834],[19.846055,50.008327],[19.846164,50.008318],[19.846166,50.008331],[19.846211,50.008328],[19.846218,50.008361],[19.846197,50.008362],[19.8462,50.008376],[19.846221,50.008375],[19.846227,50.008407],[19.846067,50.00842],[19.846051,50.008341]]]}},{"type":"Feature","id":"w705136251","properties":{"type":"yes","residential":true,"residents_est":6,"h3_10":"8a1e05b4bc87fff","h3_11":"8b1e05b4bc82fff"},"geometry":{"type":"Polygon","coordinates":[[[19.846096,50.008534],[19.846116,50.008533],[19.846111,50.008503],[19.846166,50.008499],[19.846168,50.008511],[19.846184,50.00851],[19.846182,50.008497],[19.846238,50.008493],[19.846259,50.008599],[19.84611,50.008607],[19.846096,50.008534]]]}},{"type":"Feature","id":"w705136252","properties":{"type":"yes","residential":true,"residents_est":6,"h3_10":"8a1e05b4bc9ffff","h3_11":"8b1e05b4bc9cfff"},"geometry":{"type":"Polygon","coordinates":[[[19.846386,50.008502],[19.846556,50.008488],[19.846572,50.008572],[19.846403,50.008587],[19.846386,50.008502]]]}},{"type":"Feature","id":"w705136253","properties":{"type":"yes","residential":true,"residents_est":11,"h3_10":"8a1e05b4bc9ffff","h3_11":"8b1e05b4bc9dfff"},"geometry":{"type":"Polygon","coordinates":[[[19.847199,50.008185],[19.847326,50.008173],[19.847339,50.008235],[19.847368,50.008232],[19.847373,50.008254],[19.847414,50.00825],[19.847426,50.008311],[19.847355,50.008318],[19.847352,50.008304],[19.84733,50.008306],[19.847334,50.008319],[19.847216,50.008329],[19.8472,50.008247],[19.847212,50.008246],[19.847199,50.008185]]]}},{"type":"Feature","id":"w705136254","properties":{"type":"yes","residential":true,"residents_est":6,"h3_10":"8a1e05b4bc9ffff","h3_11":"8b1e05b4bc9dfff"},"geometry":{"type":"Polygon","coordinates":[[[19.847021,50.008454],[19.84719,50.00844],[19.847207,50.008524],[19.847038,50.008539],[19.847021,50.008454]]]}},{"type":"Feature","id":"w705136255","properties":{"type":"yes","residential":true,"residents_est":6,"h3_10":"8a1e05b4bc9ffff","h3_11":"8b1e05b4bc9dfff"},"geometry":{"type":"Polygon","coordinates":[[[19.847352,50.008425],[19.847516,50.008411],[19.847533,50.008493],[19.847369,50.008507],[19.847352,50.008425]]]}},{"type":"Feature","id":"w705136256","properties":{"type":"yes","residential":true,"residents_est":6,"h3_10":"8a1e05b4bc9ffff","h3_11":"8b1e05b4bc9dfff"},"geometry":{"type":"Polygon","coordinates":[[[19.846947,50.008252],[19.847079,50.008241],[19.847101,50.008349],[19.847048,50.008353],[19.847047,50.008345],[19.847023,50.008347],[19.847025,50.008356],[19.846968,50.00836],[19.846947,50.008252]]]}},{"type":"Feature","id":"w705136257","properties":{"type":"yes","residential":true,"residents_est":6,"h3_10":"8a1e05b4bc9ffff","h3_11":"8b1e05b4bc9cfff"},"geometry":{"type":"Polygon","coordinates":[[[19.846402,50.008311],[19.846447,50.008307],[19.846444,50.008294],[19.846554,50.008285],[19.846556,50.008299],[19.846564,50.008298],[19.846578,50.008377],[19.846418,50.008391],[19.846411,50.008357],[19.846431,50.008356],[19.846428,50.008341],[19.846408,50.008343],[19.846402,50.008311]]]}},{"type":"Feature","id":"w705136258","properties":{"type":"yes","residential":true,"residents_est":6,"h3_10":"8a1e05b4bc9ffff","h3_11":"8b1e05b4bc9cfff"},"geometry":{"type":"Polygon","coordinates":[[[19.846367,50.008134],[19.846411,50.00813],[19.846409,50.008116],[19.846519,50.008108],[19.846522,50.008121],[19.846529,50.008121],[19.846543,50.0082],[19.846383,50.008213],[19.846376,50.008181],[19.846395,50.008179],[19.846392,50.008165],[19.846373,50.008167],[19.846367,50.008134]]]}},{"type":"Feature","id":"w705136259","properties":{"type":"yes","residential":true,"residents_est":6,"h3_10":"8a1e05b4bc9ffff","h3_11":"8b1e05b4bc98fff"},"geometry":{"type":"Polygon","coordinates":[[[19.846908,50.008053],[19.846965,50.008049],[19.846967,50.008058],[19.846989,50.008056],[19.846987,50.008047],[19.84704,50.008042],[19.847062,50.008152],[19.846929,50.008162],[19.846908,50.008053]]]}},{"type":"Feature","id":"w705136260","properties":{"type":"yes","residential":true,"residents_est":6,"h3_10":"8a1e05b4bc9ffff","h3_11":"8b1e05b4bc9efff"},"geometry":{"type":"Polygon","coordinates":[[[19.846325,50.007954],[19.84637,50.007951],[19.846367,50.007937],[19.846477,50.007929],[19.84648,50.007941],[19.846486,50.007941],[19.846502,50.008021],[19.84634,50.008034],[19.846334,50.008001],[19.846353,50.008],[19.84635,50.007985],[19.846331,50.007987],[19.846325,50.007954]]]}},{"type":"Feature","id":"w705136261","properties":{"type":"yes","residential":true,"residents_est":6,"h3_10":"8a1e05b4bc9ffff","h3_11":"8b1e05b4bc9efff"},"geometry":{"type":"Polygon","coordinates":[[[19.845987,50.007982],[19.845994,50.007981],[19.845992,50.007968],[19.846099,50.007959],[19.846102,50.007973],[19.846149,50.007969],[19.846155,50.008001],[19.846135,50.008003],[19.846138,50.008017],[19.846158,50.008016],[19.846164,50.008048],[19.846003,50.008061],[19.845987,50.007982]]]}},{"type":"Feature","id":"w705136262","properties":{"type":"yes","residential":true,"residents_est":6,"h3_10":"8a1e05b4bc9ffff","h3_11":"8b1e05b4bc98fff"},"geometry":{"type":"Polygon","coordinates":[[[19.846824,50.007874],[19.846993,50.00786],[19.847,50.007897],[19.846986,50.007898],[19.846988,50.007912],[19.847003,50.007911],[19.84701,50.007946],[19.846841,50.00796],[19.846824,50.007874]]]}},{"type":"Feature","id":"w705136263","properties":{"type":"yes","residential":true,"residents_est":8,"h3_10":"8a1e05b4bc9ffff","h3_11":"8b1e05b4bc98fff"},"geometry":{"type":"Polygon","coordinates":[[[19.846732,50.007703],[19.846919,50.00769],[19.846935,50.007775],[19.846881,50.00778],[19.846884,50.007793],[19.846752,50.007804],[19.846732,50.007703]]]}},{"type":"Feature","id":"w705136264","properties":{"type":"yes","residential":true,"residents_est":8,"h3_10":"8a1e05b4bc9ffff","h3_11":"8b1e05b4bc9afff"},"geometry":{"type":"Polygon","coordinates":[[[19.846403,50.007732],[19.846587,50.007714],[19.846607,50.007815],[19.846476,50.007826],[19.846474,50.007813],[19.846419,50.007817],[19.846403,50.007732]]]}},{"type":"Feature","id":"w705136265","properties":{"type":"yes","residential":true,"residents_est":8,"h3_10":"8a1e05b4bc9ffff","h3_11":"8b1e05b4bc9efff"},"geometry":{"type":"Polygon","coordinates":[[[19.846051,50.007745],[19.846238,50.007732],[19.846254,50.007817],[19.8462,50.007821],[19.846203,50.007835],[19.846071,50.007846],[19.846051,50.007745]]]}},{"type":"Feature","id":"w705136266","properties":{"type":"yes","residential":true,"residents_est":6,"h3_10":"8a1e05b4bc9ffff","h3_11":"8b1e05b4bc9afff"},"geometry":{"type":"Polygon","coordinates":[[[19.846396,50.007498],[19.846529,50.007487],[19.846551,50.007595],[19.846499,50.0076],[19.846497,50.007591],[19.846475,50.007593],[19.846477,50.007601],[19.846418,50.007606],[19.846396,50.007498]]]}},{"type":"Feature","id":"w705136267","properties":{"type":"yes","residential":true,"residents_est":6,"h3_10":"8a1e05b4bc9ffff","h3_11":"8b1e05b4bc9afff"},"geometry":{"type":"Polygon","coordinates":[[[19.846147,50.007484],[19.84628,50.007473],[19.846302,50.007582],[19.84625,50.007586],[19.846248,50.007577],[19.846226,50.007579],[19.846228,50.007588],[19.846169,50.007593],[19.846147,50.007484]]]}},{"type":"Feature","id":"w705136268","properties":{"type":"yes","residential":true,"residents_est":8,"h3_10":"8a1e05b4bc9ffff","h3_11":"8b1e05b4bc9afff"},"geometry":{"type":"Polygon","coordinates":[[[19.846664,50.007468],[19.846851,50.007455],[19.846868,50.00754],[19.846814,50.007545],[19.846817,50.007559],[19.846685,50.007569],[19.846664,50.007468]]]}},{"type":"Feature","id":"w705136269","properties":{"type":"yes","residential":true,"residents_est":8,"h3_10":"8a1e05b4bc9ffff","h3_11":"8b1e05b4bc9bfff"},"geometry":{"type":"Polygon","coordinates":[[[19.847097,50.007577],[19.847223,50.007551],[19.847242,50.007589],[19.847263,50.007585],[19.847303,50.007666],[19.847153,50.007697],[19.847097,50.007577]]]}},{"type":"Feature","id":"w705136270","properties":{"type":"yes","residential":true,"residents_est":8,"h3_10":"8a1e05b4bc9ffff","h3_11":"8b1e05b4bc9bfff"},"geometry":{"type":"Polygon","coordinates":[[[19.846976,50.007342],[19.847102,50.007315],[19.847123,50.007354],[19.847143,50.007349],[19.847184,50.007431],[19.847033,50.007463],[19.846976,50.007342]]]}},{"type":"Feature","id":"w705235040","properties":{"type":"yes","address":"Podgórki Tynieckie 98k","residential":false,"residents_est":0,"h3_10":"8a1e05b4bd9ffff","h3_11":"8b1e05b4bd9bfff"},"geometry":{"type":"Polygon","coordinates":[[[19.844471,50.010113],[19.844517,50.010096],[19.844558,50.010143],[19.844511,50.01016],[19.844471,50.010113]]]}},{"type":"Feature","id":"w705235041","properties":{"type":"yes","address":"Podgórki Tynieckie 94c","residential":true,"residents_est":4,"h3_10":"8a1e05b4bcb7fff","h3_11":"8b1e05b4bcb4fff"},"geometry":{"type":"Polygon","coordinates":[[[19.844333,50.009746],[19.844366,50.009742],[19.84436,50.009724],[19.844434,50.009713],[19.84446,50.009802],[19.844354,50.009815],[19.844333,50.009746]]]}},{"type":"Feature","id":"w719386017","properties":{"type":"yes","residential":true,"residents_est":3,"h3_10":"8a1e05b4bdb7fff","h3_11":"8b1e05b4bdb3fff"},"geometry":{"type":"Polygon","coordinates":[[[19.842756,50.011558],[19.842875,50.011529],[19.842909,50.011585],[19.842789,50.011615],[19.842756,50.011558]]]}},{"type":"Feature","id":"w719386020","properties":{"type":"yes","residential":true,"residents_est":3,"h3_10":"8a1e05b4bd9ffff","h3_11":"8b1e05b4bd98fff"},"geometry":{"type":"Polygon","coordinates":[[[19.844541,50.010456],[19.844615,50.010438],[19.844665,50.010523],[19.844591,50.010541],[19.844541,50.010456]]]}},{"type":"Feature","id":"w719386021","properties":{"type":"yes","residential":true,"residents_est":9,"h3_10":"8a1e05b4bd9ffff","h3_11":"8b1e05b4bd99fff"},"geometry":{"type":"Polygon","coordinates":[[[19.844879,50.010376],[19.845088,50.010329],[19.845136,50.010419],[19.844926,50.010465],[19.844879,50.010376]]]}},{"type":"Feature","id":"w719386057","properties":{"type":"yes","residential":true,"residents_est":3,"h3_10":"8a1e05b4bdb7fff","h3_11":"8b1e05b4bdb2fff"},"geometry":{"type":"Polygon","coordinates":[[[19.841601,50.011659],[19.841667,50.01163],[19.841741,50.011699],[19.841674,50.011728],[19.841601,50.011659]]]}},{"type":"Feature","id":"w719386060","properties":{"type":"yes","residential":false,"residents_est":0,"h3_10":"8a1e05b4bd97fff","h3_11":"8b1e05b4bd92fff"},"geometry":{"type":"Polygon","coordinates":[[[19.841941,50.01041],[19.841949,50.010388],[19.841971,50.010391],[19.841979,50.01037],[19.842016,50.010376],[19.842009,50.010393],[19.842035,50.010397],[19.842025,50.010422],[19.842004,50.010418],[19.841995,50.010439],[19.841957,50.010433],[19.841964,50.010414],[19.841941,50.01041]]]}}]}