{"type":"FeatureCollection","features":[{"type":"Feature","id":"w94816690","properties":{"type":"apartments","residential":true,"residents_est":206,"h3_10":"8a1e2e691737fff","h3_11":"8b1e2e691735fff"},"geometry":{"type":"Polygon","coordinates":[[[19.963706,50.005139],[19.963719,50.005094],[19.96379,50.005102],[19.963793,50.005091],[19.963899,50.005102],[19.963896,50.005113],[19.964006,50.005124],[19.964009,50.005114],[19.964116,50.005125],[19.964111,50.005145],[19.964206,50.005156],[19.964212,50.005134],[19.964318,50.005146],[19.964315,50.005156],[19.964422,50.005168],[19.964424,50.005159],[19.964531,50.00517],[19.964528,50.005182],[19.964603,50.005191],[19.964592,50.005236],[19.964565,50.005233],[19.964551,50.005286],[19.963715,50.005195],[19.963729,50.005142],[19.963706,50.005139]]]}},{"type":"Feature","id":"w94816711","properties":{"type":"apartments","residential":true,"residents_est":211,"h3_10":"8a1e2e691727fff","h3_11":"8b1e2e691726fff"},"geometry":{"type":"Polygon","coordinates":[[[19.963831,50.005551],[19.963843,50.005504],[19.963919,50.005512],[19.963922,50.0055],[19.964027,50.005512],[19.964024,50.005522],[19.964135,50.005534],[19.964138,50.005523],[19.964243,50.005534],[19.964238,50.005554],[19.964331,50.005564],[19.964336,50.005544],[19.96444,50.005555],[19.964438,50.005564],[19.964549,50.005576],[19.964551,50.005568],[19.964657,50.005579],[19.964654,50.005591],[19.964733,50.0056],[19.964721,50.005645],[19.964694,50.005642],[19.96468,50.005697],[19.963841,50.005606],[19.963854,50.005554],[19.963831,50.005551]]]}},{"type":"Feature","id":"w111768320","properties":{"type":"convent","name":"Zgromadzenie Sióstr Najświętszej Rodziny z Nazaretu","residential":false,"residents_est":0,"h3_10":"8a1e2e691707fff","h3_11":"8b1e2e691700fff"},"geometry":{"type":"Polygon","coordinates":[[[19.965429,50.004431],[19.965432,50.004421],[19.965445,50.004417],[19.965449,50.004404],[19.965438,50.004398],[19.965438,50.004392],[19.965454,50.004386],[19.965458,50.004372],[19.965447,50.004364],[19.965463,50.004354],[19.96548,50.004299],[19.965521,50.004305],[19.96553,50.004274],[19.965537,50.004275],[19.965545,50.004248],[19.965538,50.004247],[19.965569,50.004143],[19.965642,50.004154],[19.965648,50.004133],[19.965709,50.00414],[19.965703,50.004162],[19.965777,50.004168],[19.965747,50.00427],[19.965755,50.004271],[19.965745,50.004303],[19.965738,50.004302],[19.96567,50.004532],[19.965654,50.004539],[19.965472,50.004517],[19.965462,50.004506],[19.965473,50.004471],[19.96543,50.004466],[19.965439,50.004437],[19.965429,50.004431]]]}},{"type":"Feature","id":"w161854137","properties":{"type":"yes","residential":true,"residents_est":7,"h3_10":"8a1e2e691767fff","h3_11":"8b1e2e691764fff"},"geometry":{"type":"Polygon","coordinates":[[[19.969782,50.005898],[19.969893,50.00589],[19.969895,50.005907],[19.969956,50.005903],[19.969967,50.005975],[19.969905,50.005979],[19.969906,50.005989],[19.969798,50.005995],[19.969782,50.005898]]]}},{"type":"Feature","id":"w161854160","properties":{"type":"yes","residential":true,"residents_est":7,"h3_10":"8a1e2e69172ffff","h3_11":"8b1e2e69172bfff"},"geometry":{"type":"Polygon","coordinates":[[[19.96728,50.00493],[19.967313,50.004834],[19.967473,50.004858],[19.96744,50.004953],[19.96728,50.00493]]]}},{"type":"Feature","id":"w161854162","properties":{"type":"yes","residential":true,"residents_est":6,"h3_10":"8a1e2e6917b7fff","h3_11":"8b1e2e6917b5fff"},"geometry":{"type":"Polygon","coordinates":[[[19.961505,50.002557],[19.961658,50.002529],[19.961685,50.002607],[19.961643,50.002613],[19.961648,50.002626],[19.961596,50.002634],[19.961591,50.00262],[19.96153,50.002629],[19.961505,50.002557]]]}},{"type":"Feature","id":"w161854174","properties":{"type":"yes","residential":true,"residents_est":5,"h3_10":"8a1e2e6917a7fff","h3_11":"8b1e2e6917a2fff"},"geometry":{"type":"Polygon","coordinates":[[[19.962248,50.002572],[19.962367,50.002545],[19.962384,50.00258],[19.962402,50.002576],[19.962426,50.002622],[19.962291,50.002654],[19.962248,50.002572]]]}},{"type":"Feature","id":"w161854230","properties":{"type":"yes","residential":true,"residents_est":5,"h3_10":"8a1e2e691767fff","h3_11":"8b1e2e691765fff"},"geometry":{"type":"Polygon","coordinates":[[[19.970408,50.005777],[19.970564,50.005771],[19.97057,50.005841],[19.970413,50.005846],[19.970408,50.005777]]]}},{"type":"Feature","id":"w161854241","properties":{"type":"yes","residential":true,"residents_est":7,"h3_10":"8a1e2e6917b7fff","h3_11":"8b1e2e6917b3fff"},"geometry":{"type":"Polygon","coordinates":[[[19.961644,50.001978],[19.961777,50.001956],[19.961787,50.001982],[19.961823,50.001976],[19.96185,50.002047],[19.961682,50.002074],[19.961644,50.001978]]]}},{"type":"Feature","id":"w161854259","properties":{"type":"detached","address":"Błogosławionej Franciszki Siedliskiej 9","residential":true,"residents_est":10,"h3_10":"8a1e2e69170ffff","h3_11":"8b1e2e69170bfff"},"geometry":{"type":"Polygon","coordinates":[[[19.967494,50.003627],[19.967568,50.003538],[19.967662,50.00357],[19.967587,50.00366],[19.967494,50.003627]]]}},{"type":"Feature","id":"w161854269","properties":{"type":"yes","residential":true,"residents_est":7,"h3_10":"8a1e2e6917b7fff","h3_11":"8b1e2e6917b1fff"},"geometry":{"type":"Polygon","coordinates":[[[19.962054,50.002313],[19.962066,50.00231],[19.962062,50.002303],[19.962258,50.002259],[19.962297,50.002333],[19.962101,50.002376],[19.96208,50.002339],[19.962069,50.002342],[19.962054,50.002313]]]}},{"type":"Feature","id":"w161854305","properties":{"type":"yes","residential":true,"residents_est":4,"h3_10":"8a1e2e6917b7fff","h3_11":"8b1e2e6917b0fff"},"geometry":{"type":"Polygon","coordinates":[[[19.961014,50.002235],[19.96115,50.002208],[19.961164,50.002237],[19.961183,50.002234],[19.961196,50.002263],[19.961041,50.002293],[19.961014,50.002235]]]}},{"type":"Feature","id":"w161854308","properties":{"type":"yes","residential":true,"residents_est":4,"h3_10":"8a1e2e6917b7fff","h3_11":"8b1e2e6917b1fff"},"geometry":{"type":"Polygon","coordinates":[[[19.961884,50.001965],[19.961968,50.00195],[19.962017,50.002056],[19.961929,50.002073],[19.961884,50.001965]]]}},{"type":"Feature","id":"w161854311","properties":{"type":"yes","address":"Widnokrąg 12","residential":true,"residents_est":13,"h3_10":"8a1e2e691767fff","h3_11":"8b1e2e691765fff"},"geometry":{"type":"Polygon","coordinates":[[[19.970621,50.005805],[19.970654,50.005803],[19.970641,50.005683],[19.970814,50.005675],[19.970826,50.005791],[19.970729,50.005795],[19.970736,50.005866],[19.970628,50.00587],[19.970621,50.005805]]]}},{"type":"Feature","id":"w161854332","properties":{"type":"yes","residential":true,"residents_est":6,"h3_10":"8a1e2e691767fff","h3_11":"8b1e2e691760fff"},"geometry":{"type":"Polygon","coordinates":[[[19.969759,50.005657],[19.969822,50.005652],[19.969816,50.005626],[19.969853,50.005622],[19.969859,50.005648],[19.969894,50.005645],[19.969904,50.005689],[19.969871,50.005692],[19.969882,50.005737],[19.969872,50.005738],[19.969879,50.005768],[19.969796,50.005775],[19.96979,50.005745],[19.969779,50.005746],[19.969759,50.005657]]]}},{"type":"Feature","id":"w161854346","properties":{"type":"yes","residential":true,"residents_est":3,"h3_10":"8a1e2e691767fff","h3_11":"8b1e2e691765fff"},"geometry":{"type":"Polygon","coordinates":[[[19.970421,50.005945],[19.970533,50.005937],[19.970545,50.006004],[19.97043,50.006011],[19.970421,50.005945]]]}},{"type":"Feature","id":"w161854349","properties":{"type":"yes","residential":true,"residents_est":4,"h3_10":"8a1e2e6917b7fff","h3_11":"8b1e2e6917b0fff"},"geometry":{"type":"Polygon","coordinates":[[[19.961414,50.002258],[19.961434,50.002254],[19.96142,50.002224],[19.961558,50.002199],[19.961583,50.002257],[19.961427,50.002287],[19.961414,50.002258]]]}},{"type":"Feature","id":"w161854350","properties":{"type":"yes","residential":true,"residents_est":10,"h3_10":"8a1e2e691767fff","h3_11":"8b1e2e691761fff"},"geometry":{"type":"Polygon","coordinates":[[[19.970958,50.005684],[19.971218,50.005669],[19.971229,50.005751],[19.971111,50.005758],[19.971115,50.005782],[19.971058,50.005785],[19.971055,50.005763],[19.97097,50.005768],[19.970958,50.005684]]]}},{"type":"Feature","id":"w161854396","properties":{"type":"detached","address":"Błogosławionej Franciszki Siedliskiej 7","residential":true,"residents_est":15,"h3_10":"8a1e2e69170ffff","h3_11":"8b1e2e691708fff"},"geometry":{"type":"Polygon","coordinates":[[[19.967262,50.003885],[19.967272,50.003862],[19.967297,50.003856],[19.967304,50.003838],[19.967353,50.003847],[19.967374,50.003838],[19.967401,50.003842],[19.967411,50.003858],[19.967477,50.00387],[19.967443,50.003948],[19.967384,50.003937],[19.967381,50.003944],[19.967361,50.003951],[19.967327,50.003945],[19.967316,50.003932],[19.967319,50.003925],[19.96727,50.003915],[19.967277,50.003899],[19.967262,50.003885]]]}},{"type":"Feature","id":"w161854420","properties":{"type":"detached","address":"Błogosławionej Franciszki Siedliskiej 3","residential":true,"residents_est":10,"h3_10":"8a1e2e69170ffff","h3_11":"8b1e2e691708fff"},"geometry":{"type":"Polygon","coordinates":[[[19.967134,50.004302],[19.967185,50.004206],[19.967285,50.004228],[19.967234,50.004324],[19.967134,50.004302]]]}},{"type":"Feature","id":"w161854453","properties":{"type":"yes","residential":true,"residents_est":4,"h3_10":"8a1e2e6917a7fff","h3_11":"8b1e2e6917a2fff"},"geometry":{"type":"Polygon","coordinates":[[[19.962107,50.002433],[19.962219,50.002414],[19.962256,50.002505],[19.962214,50.002512],[19.962203,50.002486],[19.962133,50.002498],[19.962107,50.002433]]]}},{"type":"Feature","id":"w161854457","properties":{"type":"detached","address":"Nazaretańska 10","residential":true,"residents_est":16,"h3_10":"8a1e2e69170ffff","h3_11":"8b1e2e69170afff"},"geometry":{"type":"Polygon","coordinates":[[[19.966886,50.003846],[19.966911,50.003796],[19.966897,50.003793],[19.966931,50.003727],[19.967053,50.003752],[19.967021,50.003816],[19.967066,50.003825],[19.967039,50.003878],[19.966886,50.003846]]]}},{"type":"Feature","id":"w161854495","properties":{"type":"yes","residential":true,"residents_est":4,"h3_10":"8a1e2e6917b7fff","h3_11":"8b1e2e6917b0fff"},"geometry":{"type":"Polygon","coordinates":[[[19.96134,50.002097],[19.961498,50.002069],[19.961506,50.002088],[19.961527,50.002096],[19.961515,50.002109],[19.961523,50.002128],[19.961385,50.002153],[19.961373,50.002122],[19.961353,50.002126],[19.96134,50.002097]]]}},{"type":"Feature","id":"w161854498","properties":{"type":"detached","levels":2.0,"address":"Nazaretańska 8","residential":true,"residents_est":16,"h3_10":"8a1e2e69170ffff","h3_11":"8b1e2e69170efff"},"geometry":{"type":"Polygon","coordinates":[[[19.966773,50.004041],[19.966797,50.00399],[19.966784,50.003987],[19.966815,50.003922],[19.966934,50.003945],[19.966908,50.004],[19.966953,50.004009],[19.966924,50.004071],[19.966773,50.004041]]]}},{"type":"Feature","id":"w161854526","properties":{"type":"yes","residential":true,"residents_est":5,"h3_10":"8a1e2e69172ffff","h3_11":"8b1e2e69172dfff"},"geometry":{"type":"Polygon","coordinates":[[[19.967177,50.005651],[19.967205,50.005539],[19.967303,50.005549],[19.967275,50.005661],[19.967177,50.005651]]]}},{"type":"Feature","id":"w161854539","properties":{"type":"detached","levels":2.0,"address":"Nazaretańska 6","residential":true,"residents_est":16,"h3_10":"8a1e2e69170ffff","h3_11":"8b1e2e69170efff"},"geometry":{"type":"Polygon","coordinates":[[[19.966668,50.004233],[19.966694,50.004185],[19.966681,50.004182],[19.966718,50.004114],[19.966836,50.00414],[19.966805,50.004198],[19.966852,50.004208],[19.966821,50.004267],[19.966668,50.004233]]]}},{"type":"Feature","id":"w161854543","properties":{"type":"detached","residential":true,"residents_est":14,"h3_10":"8a1e2e69172ffff","h3_11":"8b1e2e69172cfff"},"geometry":{"type":"Polygon","coordinates":[[[19.966488,50.005459],[19.966544,50.005306],[19.966629,50.005318],[19.966609,50.005373],[19.966638,50.005377],[19.966621,50.005425],[19.966602,50.005422],[19.966584,50.005473],[19.966488,50.005459]]]}},{"type":"Feature","id":"w161854561","properties":{"type":"yes","residential":true,"residents_est":8,"h3_10":"8a1e2e691767fff","h3_11":"8b1e2e691764fff"},"geometry":{"type":"Polygon","coordinates":[[[19.969607,50.00591],[19.969782,50.005898],[19.969798,50.005995],[19.969698,50.006002],[19.9697,50.006012],[19.969625,50.006017],[19.969607,50.00591]]]}},{"type":"Feature","id":"w161854573","properties":{"type":"yes","residential":true,"residents_est":5,"h3_10":"8a1e2e691797fff","h3_11":"8b1e2e691794fff"},"geometry":{"type":"Polygon","coordinates":[[[19.9611,50.001644],[19.961122,50.001572],[19.961172,50.001578],[19.961176,50.001564],[19.961245,50.001572],[19.961213,50.001674],[19.961146,50.001666],[19.96115,50.001651],[19.9611,50.001644]]]}},{"type":"Feature","id":"w161854577","properties":{"type":"detached","address":"Błogosławionej Franciszki Siedliskiej 10a","residential":true,"residents_est":17,"h3_10":"8a1e2e69170ffff","h3_11":"8b1e2e69170afff"},"geometry":{"type":"Polygon","coordinates":[[[19.966987,50.003589],[19.967001,50.003561],[19.96702,50.003565],[19.967034,50.003534],[19.967075,50.003542],[19.967078,50.003535],[19.96709,50.003537],[19.967087,50.003543],[19.96719,50.003562],[19.967147,50.003655],[19.967127,50.003651],[19.967113,50.003681],[19.967014,50.003661],[19.967028,50.003633],[19.967005,50.003622],[19.966998,50.003605],[19.967004,50.003593],[19.966987,50.003589]]]}},{"type":"Feature","id":"w161854588","properties":{"type":"yes","address":"Nazaretańska 21","residential":true,"residents_est":5,"h3_10":"8a1e2e691767fff","h3_11":"8b1e2e691764fff"},"geometry":{"type":"Polygon","coordinates":[[[19.969588,50.005751],[19.9696,50.00575],[19.96959,50.005691],[19.969688,50.005684],[19.969703,50.005775],[19.969666,50.005777],[19.969672,50.00581],[19.969599,50.005815],[19.969588,50.005751]]]}},{"type":"Feature","id":"w161854609","properties":{"type":"yes","residential":true,"residents_est":11,"h3_10":"8a1e2e69172ffff","h3_11":"8b1e2e691728fff"},"geometry":{"type":"Polygon","coordinates":[[[19.966759,50.005338],[19.96677,50.005293],[19.966791,50.005295],[19.966809,50.005219],[19.966932,50.005231],[19.966891,50.005412],[19.966773,50.005401],[19.966787,50.00534],[19.966759,50.005338]]]}},{"type":"Feature","id":"w161854672","properties":{"type":"yes","residential":true,"residents_est":7,"h3_10":"8a1e2e69172ffff","h3_11":"8b1e2e69172cfff"},"geometry":{"type":"Polygon","coordinates":[[[19.96692,50.005659],[19.966968,50.005484],[19.967047,50.005493],[19.967,50.005668],[19.96692,50.005659]]]}},{"type":"Feature","id":"w161854699","properties":{"type":"yes","residential":true,"residents_est":3,"h3_10":"8a1e2e69170ffff","h3_11":"8b1e2e69170bfff"},"geometry":{"type":"Polygon","coordinates":[[[19.967437,50.003776],[19.967469,50.003717],[19.967574,50.00374],[19.967542,50.003799],[19.967437,50.003776]]]}},{"type":"Feature","id":"w161854701","properties":{"type":"yes","residential":true,"residents_est":10,"h3_10":"8a1e2e6917a7fff","h3_11":"8b1e2e6917a6fff"},"geometry":{"type":"Polygon","coordinates":[[[19.961939,50.002957],[19.961944,50.002956],[19.96194,50.002943],[19.961997,50.002936],[19.962,50.002948],[19.962061,50.002941],[19.962098,50.003056],[19.962127,50.003053],[19.962138,50.003088],[19.961988,50.003108],[19.961968,50.003045],[19.961951,50.003047],[19.961943,50.003022],[19.96196,50.00302],[19.961939,50.002957]]]}},{"type":"Feature","id":"w161854706","properties":{"type":"yes","residential":true,"residents_est":6,"h3_10":"8a1e2e691777fff","h3_11":"8b1e2e691776fff"},"geometry":{"type":"Polygon","coordinates":[[[19.967994,50.005041],[19.968005,50.005017],[19.968027,50.005021],[19.968057,50.004956],[19.968123,50.004968],[19.968119,50.004976],[19.968178,50.004988],[19.96814,50.00507],[19.967994,50.005041]]]}},{"type":"Feature","id":"w161854714","properties":{"type":"yes","residential":true,"residents_est":6,"h3_10":"8a1e2e6917b7fff","h3_11":"8b1e2e6917b6fff"},"geometry":{"type":"Polygon","coordinates":[[[19.960297,50.002361],[19.960321,50.002358],[19.960313,50.002328],[19.9604,50.002318],[19.960408,50.002347],[19.960439,50.002344],[19.96046,50.002418],[19.960318,50.002434],[19.960297,50.002361]]]}},{"type":"Feature","id":"w161854740","properties":{"type":"yes","residential":true,"residents_est":7,"h3_10":"8a1e2e691777fff","h3_11":"8b1e2e691776fff"},"geometry":{"type":"Polygon","coordinates":[[[19.96782,50.004706],[19.967863,50.004605],[19.967956,50.004612],[19.967967,50.004624],[19.968007,50.004631],[19.967963,50.004731],[19.96782,50.004706]]]}},{"type":"Feature","id":"w161854800","properties":{"type":"yes","residential":true,"residents_est":2,"h3_10":"8a1e2e6917b7fff","h3_11":"8b1e2e6917b1fff"},"geometry":{"type":"Polygon","coordinates":[[[19.961754,50.002152],[19.961851,50.002136],[19.961872,50.002189],[19.961775,50.002205],[19.961754,50.002152]]]}},{"type":"Feature","id":"w161854825","properties":{"type":"yes","residential":true,"residents_est":4,"h3_10":"8a1e2e6917b7fff","h3_11":"8b1e2e6917b2fff"},"geometry":{"type":"Polygon","coordinates":[[[19.960865,50.001821],[19.961006,50.001806],[19.961015,50.001837],[19.961035,50.001834],[19.961044,50.001861],[19.960882,50.001882],[19.960865,50.001821]]]}},{"type":"Feature","id":"w161854830","properties":{"type":"yes","residential":true,"residents_est":10,"h3_10":"8a1e2e6917a7fff","h3_11":"8b1e2e6917a4fff"},"geometry":{"type":"Polygon","coordinates":[[[19.962072,50.003303],[19.962115,50.003296],[19.962092,50.003231],[19.962252,50.003207],[19.962295,50.003329],[19.962092,50.003359],[19.962072,50.003303]]]}},{"type":"Feature","id":"w161854833","properties":{"type":"yes","residential":false,"residents_est":0,"h3_10":"8a1e2e691777fff","h3_11":"8b1e2e691776fff"},"geometry":{"type":"Polygon","coordinates":[[[19.967823,50.004978],[19.967849,50.004928],[19.967896,50.004938],[19.967871,50.004988],[19.967823,50.004978]]]}},{"type":"Feature","id":"w161854852","properties":{"type":"yes","residential":true,"residents_est":6,"h3_10":"8a1e2e69176ffff","h3_11":"8b1e2e69176cfff"},"geometry":{"type":"Polygon","coordinates":[[[19.97181,50.005758],[19.971812,50.005668],[19.971876,50.005668],[19.971887,50.005658],[19.971923,50.005659],[19.971933,50.005671],[19.971944,50.005671],[19.971942,50.005759],[19.97181,50.005758]]]}},{"type":"Feature","id":"w161854854","properties":{"type":"yes","residential":true,"residents_est":4,"h3_10":"8a1e2e6917b7fff","h3_11":"8b1e2e6917b3fff"},"geometry":{"type":"Polygon","coordinates":[[[19.961258,50.001876],[19.961277,50.001872],[19.961265,50.001842],[19.961405,50.001819],[19.961429,50.001878],[19.96127,50.001905],[19.961258,50.001876]]]}},{"type":"Feature","id":"w161854861","properties":{"type":"yes","residential":true,"residents_est":4,"h3_10":"8a1e2e6917b7fff","h3_11":"8b1e2e6917b2fff"},"geometry":{"type":"Polygon","coordinates":[[[19.960928,50.002033],[19.961067,50.002009],[19.961078,50.00204],[19.9611,50.002036],[19.96111,50.002065],[19.960953,50.002091],[19.960928,50.002033]]]}},{"type":"Feature","id":"w161854864","properties":{"type":"yes","residential":true,"residents_est":6,"h3_10":"8a1e2e6917a7fff","h3_11":"8b1e2e6917a2fff"},"geometry":{"type":"Polygon","coordinates":[[[19.962532,50.002526],[19.962697,50.002491],[19.962736,50.002567],[19.962571,50.002603],[19.962532,50.002526]]]}},{"type":"Feature","id":"w161854875","properties":{"type":"yes","residential":true,"residents_est":11,"h3_10":"8a1e2e69172ffff","h3_11":"8b1e2e69172bfff"},"geometry":{"type":"Polygon","coordinates":[[[19.966932,50.004952],[19.967029,50.004698],[19.967127,50.004713],[19.96705,50.004916],[19.966988,50.004907],[19.966968,50.004958],[19.966932,50.004952]]]}},{"type":"Feature","id":"w161854884","properties":{"type":"detached","residential":true,"residents_est":17,"h3_10":"8a1e2e69172ffff","h3_11":"8b1e2e69172cfff"},"geometry":{"type":"Polygon","coordinates":[[[19.966619,50.005551],[19.966644,50.005479],[19.966888,50.005514],[19.966862,50.005586],[19.966619,50.005551]]]}},{"type":"Feature","id":"w161854901","properties":{"type":"yes","residential":true,"residents_est":6,"h3_10":"8a1e2e691787fff","h3_11":"8b1e2e691784fff"},"geometry":{"type":"Polygon","coordinates":[[[19.962328,50.002173],[19.962396,50.002153],[19.962415,50.00218],[19.962519,50.00215],[19.96258,50.002237],[19.962503,50.002259],[19.962467,50.002207],[19.962371,50.002234],[19.962328,50.002173]]]}},{"type":"Feature","id":"w161854939","properties":{"type":"yes","residential":true,"residents_est":7,"h3_10":"8a1e2e691767fff","h3_11":"8b1e2e691764fff"},"geometry":{"type":"Polygon","coordinates":[[[19.97009,50.005811],[19.970233,50.005801],[19.970249,50.005915],[19.970154,50.005921],[19.970152,50.00591],[19.970105,50.005913],[19.97009,50.005811]]]}},{"type":"Feature","id":"w161854942","properties":{"type":"yes","address":"Tuchowska 48","residential":true,"residents_est":5,"h3_10":"8a1e2e69172ffff","h3_11":"8b1e2e691728fff"},"geometry":{"type":"Polygon","coordinates":[[[19.967165,50.005079],[19.967183,50.00503],[19.967416,50.005065],[19.967399,50.005114],[19.967165,50.005079]]]}},{"type":"Feature","id":"w161854943","properties":{"type":"detached","levels":2.0,"residential":true,"residents_est":26,"h3_10":"8a1e2e69170ffff","h3_11":"8b1e2e69170cfff"},"geometry":{"type":"Polygon","coordinates":[[[19.966922,50.004535],[19.966932,50.004508],[19.966949,50.00451],[19.966956,50.004489],[19.966932,50.004486],[19.966934,50.004481],[19.967154,50.004513],[19.967124,50.004596],[19.967109,50.004594],[19.967079,50.00468],[19.966937,50.004659],[19.966979,50.004543],[19.966922,50.004535]]]}},{"type":"Feature","id":"w161854954","properties":{"type":"detached","levels":2.0,"address":"Nazaretańska 4","residential":true,"residents_est":16,"h3_10":"8a1e2e69170ffff","h3_11":"8b1e2e69170cfff"},"geometry":{"type":"Polygon","coordinates":[[[19.96656,50.004446],[19.966583,50.004395],[19.966566,50.004392],[19.966597,50.004324],[19.966717,50.004346],[19.966689,50.004408],[19.966731,50.004416],[19.966705,50.004473],[19.96656,50.004446]]]}},{"type":"Feature","id":"w298561048","properties":{"type":"house","levels":2.0,"address":"Wyżynna 7f","residential":true,"residents_est":26,"h3_10":"8a1e2e6917a7fff","h3_11":"8b1e2e6917a0fff"},"geometry":{"type":"Polygon","coordinates":[[[19.962728,50.002733],[19.962901,50.002697],[19.962955,50.002804],[19.962967,50.002801],[19.963004,50.002874],[19.962906,50.002895],[19.962871,50.002826],[19.962785,50.002844],[19.962728,50.002733]]]}},{"type":"Feature","id":"w298669113","properties":{"type":"garage","residential":false,"residents_est":0,"h3_10":"8a1e2e69170ffff","h3_11":"8b1e2e69170bfff"},"geometry":{"type":"Polygon","coordinates":[[[19.967459,50.003656],[19.967485,50.003624],[19.967569,50.003653],[19.967544,50.003684],[19.967459,50.003656]]]}},{"type":"Feature","id":"w298669114","properties":{"type":"garage","residential":false,"residents_est":0,"h3_10":"8a1e2e69170ffff","h3_11":"8b1e2e69170cfff"},"geometry":{"type":"Polygon","coordinates":[[[19.967108,50.004353],[19.967122,50.004326],[19.967113,50.004324],[19.967125,50.0043],[19.967204,50.004317],[19.967191,50.004343],[19.967178,50.00434],[19.967166,50.004365],[19.967108,50.004353]]]}},{"type":"Feature","id":"w318239937","properties":{"type":"yes","address":"Wyżynna 5c","residential":true,"residents_est":7,"h3_10":"8a1e2e6917b7fff","h3_11":"8b1e2e6917b5fff"},"geometry":{"type":"Polygon","coordinates":[[[19.961748,50.002454],[19.961899,50.002432],[19.961913,50.002474],[19.961935,50.002471],[19.961945,50.002501],[19.961923,50.002504],[19.961934,50.002534],[19.961783,50.002555],[19.961748,50.002454]]]}},{"type":"Feature","id":"w337428989","properties":{"type":"yes","residential":true,"residents_est":7,"h3_10":"8a1e2e691697fff","h3_11":"8b1e2e691691fff"},"geometry":{"type":"Polygon","coordinates":[[[19.964365,49.998656],[19.964488,49.998655],[19.964487,49.998637],[19.96452,49.998636],[19.964523,49.998727],[19.964446,49.998728],[19.964447,49.998779],[19.964371,49.998779],[19.964365,49.998656]]]}},{"type":"Feature","id":"w337428990","properties":{"type":"yes","address":"Wyżynna 22","residential":true,"residents_est":7,"h3_10":"8a1e2e69169ffff","h3_11":"8b1e2e69169cfff"},"geometry":{"type":"Polygon","coordinates":[[[19.96517,49.99866],[19.965181,49.998546],[19.965307,49.998552],[19.965306,49.998566],[19.965333,49.998567],[19.965322,49.998644],[19.965232,49.99864],[19.965228,49.998663],[19.96517,49.99866]]]}},{"type":"Feature","id":"w337428999","properties":{"type":"yes","residential":true,"residents_est":31,"h3_10":"8a1e2e691617fff","h3_11":"8b1e2e691613fff"},"geometry":{"type":"Polygon","coordinates":[[[19.966777,50.000549],[19.967041,50.000537],[19.96705,50.00062],[19.96709,50.000618],[19.967098,50.000685],[19.966861,50.000696],[19.966853,50.000616],[19.96688,50.000614],[19.966877,50.000588],[19.966782,50.000592],[19.966777,50.000549]]]}},{"type":"Feature","id":"w337429014","properties":{"type":"yes","address":"Wyżynna 32c","residential":true,"residents_est":7,"h3_10":"8a1e2e69169ffff","h3_11":"8b1e2e69169dfff"},"geometry":{"type":"Polygon","coordinates":[[[19.966296,49.998587],[19.966297,49.998529],[19.966449,49.998529],[19.966449,49.998606],[19.96641,49.998606],[19.96641,49.998649],[19.966321,49.998649],[19.966322,49.998587],[19.966296,49.998587]]]}},{"type":"Feature","id":"w337429015","properties":{"type":"yes","address":"Wyżynna 20g","residential":true,"residents_est":6,"h3_10":"8a1e2e69169ffff","h3_11":"8b1e2e69169efff"},"geometry":{"type":"Polygon","coordinates":[[[19.964662,49.998102],[19.964754,49.9981],[19.964755,49.998123],[19.964772,49.998128],[19.964781,49.99814],[19.964818,49.998139],[19.964822,49.998198],[19.964668,49.998201],[19.964662,49.998102]]]}},{"type":"Feature","id":"w337429017","properties":{"type":"yes","address":"Wyżynna 14E","residential":true,"residents_est":9,"h3_10":"8a1e2e6916b7fff","h3_11":"8b1e2e6916b2fff"},"geometry":{"type":"Polygon","coordinates":[[[19.963345,49.999332],[19.963346,49.999245],[19.963508,49.999245],[19.963507,49.999337],[19.963474,49.999336],[19.963472,49.99939],[19.963373,49.999389],[19.963373,49.999332],[19.963345,49.999332]]]}},{"type":"Feature","id":"w337429022","properties":{"type":"yes","address":"Wyżynna 26","residential":true,"residents_est":7,"h3_10":"8a1e2e69169ffff","h3_11":"8b1e2e69169efff"},"geometry":{"type":"Polygon","coordinates":[[[19.965142,49.998306],[19.965145,49.998202],[19.965346,49.998204],[19.965344,49.99825],[19.965311,49.998249],[19.965311,49.998259],[19.965283,49.998259],[19.965283,49.998289],[19.965205,49.998289],[19.965204,49.998306],[19.965142,49.998306]]]}},{"type":"Feature","id":"w337429046","properties":{"type":"yes","address":"Wyżynna 14a","residential":true,"residents_est":6,"h3_10":"8a1e2e6916b7fff","h3_11":"8b1e2e6916b6fff"},"geometry":{"type":"Polygon","coordinates":[[[19.962933,49.999733],[19.962934,49.999639],[19.962952,49.999628],[19.962978,49.999628],[19.962995,49.999639],[19.963055,49.99964],[19.963054,49.999678],[19.963046,49.999678],[19.963045,49.9997],[19.963127,49.999701],[19.963127,49.999735],[19.962933,49.999733]]]}},{"type":"Feature","id":"w337429048","properties":{"type":"yes","address":"Wyżynna 26a","residential":true,"residents_est":11,"h3_10":"8a1e2e69169ffff","h3_11":"8b1e2e69169afff"},"geometry":{"type":"Polygon","coordinates":[[[19.965058,49.997959],[19.965133,49.997932],[19.965109,49.997904],[19.965175,49.99788],[19.965159,49.997862],[19.965232,49.997835],[19.965273,49.997882],[19.96529,49.997885],[19.965304,49.997901],[19.965298,49.997912],[19.965326,49.997944],[19.965111,49.99802],[19.965058,49.997959]]]}},{"type":"Feature","id":"w337429092","properties":{"type":"yes","address":"Wyżynna 14b","residential":true,"residents_est":6,"h3_10":"8a1e2e6916b7fff","h3_11":"8b1e2e6916b2fff"},"geometry":{"type":"Polygon","coordinates":[[[19.962936,49.999331],[19.962938,49.999243],[19.962981,49.999243],[19.962993,49.999232],[19.963041,49.999233],[19.963049,49.999244],[19.963091,49.999245],[19.963089,49.999333],[19.962936,49.999331]]]}},{"type":"Feature","id":"w337429109","properties":{"type":"yes","address":"Wyżynna 20B","residential":true,"residents_est":5,"h3_10":"8a1e2e691687fff","h3_11":"8b1e2e691686fff"},"geometry":{"type":"Polygon","coordinates":[[[19.964734,49.999476],[19.964799,49.999475],[19.964799,49.999469],[19.964905,49.999473],[19.964907,49.999537],[19.964852,49.999538],[19.964839,49.99955],[19.964804,49.99955],[19.964792,49.999539],[19.964737,49.99954],[19.964734,49.999476]]]}},{"type":"Feature","id":"w337429123","properties":{"type":"yes","residential":true,"residents_est":7,"h3_10":"8a1e2e691687fff","h3_11":"8b1e2e691684fff"},"geometry":{"type":"Polygon","coordinates":[[[19.96469,49.999712],[19.964712,49.999712],[19.96471,49.999656],[19.964766,49.999655],[19.964765,49.999621],[19.964855,49.99962],[19.964857,49.999654],[19.96487,49.999653],[19.964871,49.999678],[19.964858,49.999678],[19.964859,49.999714],[19.964776,49.999715],[19.964778,49.999762],[19.964691,49.999763],[19.96469,49.999712]]]}},{"type":"Feature","id":"w337429146","properties":{"type":"yes","address":"Wyżynna 32f","residential":true,"residents_est":7,"h3_10":"8a1e2e69169ffff","h3_11":"8b1e2e69169bfff"},"geometry":{"type":"Polygon","coordinates":[[[19.966306,49.99781],[19.966307,49.997712],[19.966336,49.997712],[19.966336,49.997703],[19.966388,49.997703],[19.966388,49.997712],[19.966417,49.997712],[19.966417,49.99775],[19.966438,49.99775],[19.966438,49.997773],[19.966418,49.997773],[19.966418,49.997805],[19.966439,49.997806],[19.966439,49.997843],[19.966316,49.997843],[19.966316,49.99781],[19.966306,49.99781]]]}},{"type":"Feature","id":"w337429148","properties":{"type":"yes","address":"Wyżynna 14","residential":true,"residents_est":13,"h3_10":"8a1e2e6916b7fff","h3_11":"8b1e2e6916b4fff"},"geometry":{"type":"Polygon","coordinates":[[[19.962926,50.000029],[19.962927,49.999992],[19.962948,49.999992],[19.96295,49.999941],[19.962929,49.999941],[19.96293,49.999903],[19.962951,49.999904],[19.962953,49.999876],[19.963093,49.999879],[19.963091,49.999935],[19.963115,49.999935],[19.963112,50.000002],[19.963089,50.000002],[19.963086,50.000059],[19.962946,50.000056],[19.962947,50.000029],[19.962926,50.000029]]]}},{"type":"Feature","id":"w337429154","properties":{"type":"yes","address":"Wyżynna 18","residential":true,"residents_est":6,"h3_10":"8a1e2e691697fff","h3_11":"8b1e2e691690fff"},"geometry":{"type":"Polygon","coordinates":[[[19.964212,49.998604],[19.96422,49.998517],[19.964402,49.998524],[19.964393,49.998588],[19.964339,49.998586],[19.964338,49.998594],[19.964271,49.998592],[19.96427,49.998606],[19.964212,49.998604]]]}},{"type":"Feature","id":"w337429187","properties":{"type":"yes","address":"Wyżynna 16a","residential":true,"residents_est":5,"h3_10":"8a1e2e691697fff","h3_11":"8b1e2e691692fff"},"geometry":{"type":"Polygon","coordinates":[[[19.963909,49.998056],[19.964036,49.998049],[19.964048,49.998142],[19.963923,49.998149],[19.963909,49.998056]]]}},{"type":"Feature","id":"w337429213","properties":{"type":"yes","address":"Wyżynna 20e","residential":true,"residents_est":7,"h3_10":"8a1e2e691697fff","h3_11":"8b1e2e691691fff"},"geometry":{"type":"Polygon","coordinates":[[[19.964828,49.998723],[19.964829,49.998655],[19.964862,49.998654],[19.964864,49.998616],[19.964985,49.998616],[19.96498,49.998725],[19.964828,49.998723]]]}},{"type":"Feature","id":"w337429360","properties":{"type":"yes","residential":true,"residents_est":3,"h3_10":"8a1e2e691687fff","h3_11":"8b1e2e691686fff"},"geometry":{"type":"Polygon","coordinates":[[[19.964442,49.999224],[19.964536,49.999222],[19.96454,49.999287],[19.964446,49.999289],[19.964442,49.999224]]]}},{"type":"Feature","id":"w337429386","properties":{"type":"yes","address":"Wyżynna 18a","residential":true,"residents_est":8,"h3_10":"8a1e2e6916b7fff","h3_11":"8b1e2e6916b3fff"},"geometry":{"type":"Polygon","coordinates":[[[19.964274,49.999289],[19.96443,49.999286],[19.964435,49.999402],[19.96428,49.999404],[19.964274,49.999289]]]}},{"type":"Feature","id":"w337429411","properties":{"type":"yes","residential":true,"residents_est":2,"h3_10":"8a1e2e69169ffff","h3_11":"8b1e2e691699fff"},"geometry":{"type":"Polygon","coordinates":[[[19.966703,49.998285],[19.966782,49.998284],[19.966784,49.998353],[19.966704,49.998354],[19.966703,49.998285]]]}},{"type":"Feature","id":"w337429439","properties":{"type":"yes","residential":true,"residents_est":4,"h3_10":"8a1e2e6916b7fff","h3_11":"8b1e2e6916b4fff"},"geometry":{"type":"Polygon","coordinates":[[[19.963294,49.999851],[19.963301,49.999809],[19.963506,49.999823],[19.963499,49.999865],[19.963294,49.999851]]]}},{"type":"Feature","id":"w337429443","properties":{"type":"yes","residential":true,"residents_est":7,"h3_10":"8a1e2e69169ffff","h3_11":"8b1e2e691698fff"},"geometry":{"type":"Polygon","coordinates":[[[19.965723,49.998331],[19.965723,49.998216],[19.965758,49.998216],[19.965772,49.998203],[19.965801,49.998203],[19.965815,49.998216],[19.965849,49.998217],[19.96585,49.998264],[19.96586,49.998271],[19.965859,49.998288],[19.965849,49.998296],[19.965848,49.998331],[19.965803,49.998331],[19.965804,49.998344],[19.965769,49.998344],[19.965768,49.998331],[19.965723,49.998331]]]}},{"type":"Feature","id":"w337429451","properties":{"type":"yes","residential":true,"residents_est":3,"h3_10":"8a1e2e691687fff","h3_11":"8b1e2e691684fff"},"geometry":{"type":"Polygon","coordinates":[[[19.965001,49.99949],[19.965126,49.99949],[19.965126,49.999544],[19.965001,49.999544],[19.965001,49.99949]]]}},{"type":"Feature","id":"w337429678","properties":{"type":"yes","residential":true,"residents_est":5,"h3_10":"8a1e2e6916affff","h3_11":"8b1e2e6916aafff"},"geometry":{"type":"Polygon","coordinates":[[[19.966323,49.99958],[19.966324,49.999509],[19.966483,49.99951],[19.966482,49.999581],[19.966323,49.99958]]]}},{"type":"Feature","id":"w337429723","properties":{"type":"yes","address":"Wyżynna 30","residential":true,"residents_est":5,"h3_10":"8a1e2e691687fff","h3_11":"8b1e2e691685fff"},"geometry":{"type":"Polygon","coordinates":[[[19.966029,49.999557],[19.966032,49.999496],[19.966176,49.999499],[19.966171,49.999599],[19.966085,49.999597],[19.966087,49.999558],[19.966029,49.999557]]]}},{"type":"Feature","id":"w337429724","properties":{"type":"yes","residential":true,"residents_est":3,"h3_10":"8a1e2e6916affff","h3_11":"8b1e2e6916aafff"},"geometry":{"type":"Polygon","coordinates":[[[19.966231,49.999811],[19.96631,49.999809],[19.966312,49.999839],[19.966338,49.999838],[19.96634,49.999876],[19.966235,49.999878],[19.966231,49.999811]]]}},{"type":"Feature","id":"w337429742","properties":{"type":"yes","address":"Wyżynna 32a","residential":true,"residents_est":7,"h3_10":"8a1e2e691687fff","h3_11":"8b1e2e691681fff"},"geometry":{"type":"Polygon","coordinates":[[[19.966316,49.999288],[19.96636,49.999287],[19.966373,49.999278],[19.966393,49.999278],[19.966407,49.999286],[19.966458,49.999286],[19.966462,49.999397],[19.966367,49.999398],[19.966365,49.999363],[19.966318,49.999364],[19.966316,49.999288]]]}},{"type":"Feature","id":"w337429743","properties":{"type":"yes","address":"Wyżynna 25","residential":true,"residents_est":5,"h3_10":"8a1e2e6916affff","h3_11":"8b1e2e6916aefff"},"geometry":{"type":"Polygon","coordinates":[[[19.966229,50.000087],[19.966254,50.000087],[19.966255,50.000094],[19.966409,50.00009],[19.966414,50.000152],[19.966233,50.000157],[19.966229,50.000087]]]}},{"type":"Feature","id":"w337429768","properties":{"type":"yes","address":"Wyżynna 28","residential":true,"residents_est":4,"h3_10":"8a1e2e69169ffff","h3_11":"8b1e2e69169dfff"},"geometry":{"type":"Polygon","coordinates":[[[19.96576,49.99865],[19.965763,49.998588],[19.965918,49.998592],[19.965915,49.998654],[19.96576,49.99865]]]}},{"type":"Feature","id":"w337429786","properties":{"type":"yes","address":"Wyżynna 30b","residential":true,"residents_est":6,"h3_10":"8a1e2e69169ffff","h3_11":"8b1e2e69169dfff"},"geometry":{"type":"Polygon","coordinates":[[[19.966027,49.998697],[19.966172,49.998694],[19.966177,49.998791],[19.966094,49.998793],[19.966092,49.99876],[19.966031,49.998762],[19.966027,49.998697]]]}},{"type":"Feature","id":"w337429800","properties":{"type":"yes","residential":true,"residents_est":4,"h3_10":"8a1e2e6916affff","h3_11":"8b1e2e6916acfff"},"geometry":{"type":"Polygon","coordinates":[[[19.966587,50.000211],[19.966592,50.00014],[19.966667,50.000142],[19.966657,50.000278],[19.966605,50.000276],[19.966609,50.000211],[19.966587,50.000211]]]}},{"type":"Feature","id":"w337429802","properties":{"type":"yes","address":"Wyżynna 24","residential":true,"residents_est":7,"h3_10":"8a1e2e69169ffff","h3_11":"8b1e2e69169cfff"},"geometry":{"type":"Polygon","coordinates":[[[19.965456,49.998617],[19.965463,49.998526],[19.965615,49.99853],[19.965607,49.998644],[19.965513,49.998641],[19.965515,49.998619],[19.965456,49.998617]]]}},{"type":"Feature","id":"w337429835","properties":{"type":"yes","address":"Wyżynna 34","residential":true,"residents_est":4,"h3_10":"8a1e2e69168ffff","h3_11":"8b1e2e69168cfff"},"geometry":{"type":"Polygon","coordinates":[[[19.966668,49.999506],[19.966669,49.99945],[19.966797,49.999451],[19.966826,49.999475],[19.966825,49.999528],[19.966738,49.999527],[19.966737,49.999506],[19.966668,49.999506]]]}},{"type":"Feature","id":"w337429848","properties":{"type":"yes","residential":true,"residents_est":3,"h3_10":"8a1e2e691697fff","h3_11":"8b1e2e691692fff"},"geometry":{"type":"Polygon","coordinates":[[[19.963461,49.998248],[19.963463,49.998227],[19.963652,49.998233],[19.963648,49.99829],[19.963576,49.998288],[19.963579,49.998251],[19.963461,49.998248]]]}},{"type":"Feature","id":"w337429871","properties":{"type":"yes","address":"Wyżynna 20","residential":true,"residents_est":7,"h3_10":"8a1e2e6916a7fff","h3_11":"8b1e2e6916a2fff"},"geometry":{"type":"Polygon","coordinates":[[[19.964775,49.999935],[19.964776,49.999898],[19.96494,49.9999],[19.964939,49.999968],[19.964918,49.999969],[19.964917,50.00002],[19.964798,50.000019],[19.9648,49.999935],[19.964775,49.999935]]]}},{"type":"Feature","id":"w337429967","properties":{"type":"yes","residential":true,"residents_est":8,"h3_10":"8a1e2e691687fff","h3_11":"8b1e2e691683fff"},"geometry":{"type":"Polygon","coordinates":[[[19.965529,49.998839],[19.965535,49.998683],[19.965629,49.998684],[19.965629,49.998697],[19.965662,49.998697],[19.965658,49.998817],[19.965584,49.998816],[19.965583,49.99884],[19.965529,49.998839]]]}},{"type":"Feature","id":"w337429998","properties":{"type":"yes","address":"Wyżynna 20c","residential":true,"residents_est":6,"h3_10":"8a1e2e691687fff","h3_11":"8b1e2e691686fff"},"geometry":{"type":"Polygon","coordinates":[[[19.964686,49.999236],[19.96469,49.999131],[19.964835,49.999133],[19.964833,49.999195],[19.964815,49.999194],[19.964814,49.999224],[19.96477,49.999223],[19.964769,49.999237],[19.964686,49.999236]]]}},{"type":"Feature","id":"w337430006","properties":{"type":"yes","address":"Wyżynna 34D","residential":true,"residents_est":6,"h3_10":"8a1e2e69169ffff","h3_11":"8b1e2e691699fff"},"geometry":{"type":"Polygon","coordinates":[[[19.966682,49.998173],[19.966866,49.998172],[19.966867,49.998198],[19.966877,49.998204],[19.966877,49.998218],[19.966867,49.998224],[19.966867,49.99825],[19.966683,49.998251],[19.966682,49.998173]]]}},{"type":"Feature","id":"w337430013","properties":{"type":"yes","residential":true,"residents_est":2,"h3_10":"8a1e2e6916b7fff","h3_11":"8b1e2e6916b0fff"},"geometry":{"type":"Polygon","coordinates":[[[19.9634,49.999704],[19.9634,49.999645],[19.963489,49.999646],[19.963488,49.999705],[19.9634,49.999704]]]}},{"type":"Feature","id":"w337430018","properties":{"type":"yes","address":"Wyżynna 16","residential":true,"residents_est":4,"h3_10":"8a1e2e691697fff","h3_11":"8b1e2e691690fff"},"geometry":{"type":"Polygon","coordinates":[[[19.963828,49.998507],[19.963831,49.998435],[19.963958,49.998437],[19.963955,49.998509],[19.963828,49.998507]]]}},{"type":"Feature","id":"w337430049","properties":{"type":"yes","residential":true,"residents_est":7,"h3_10":"8a1e2e691687fff","h3_11":"8b1e2e691683fff"},"geometry":{"type":"Polygon","coordinates":[[[19.965414,49.998998],[19.965417,49.998827],[19.96547,49.998828],[19.965469,49.998901],[19.965554,49.998907],[19.965547,49.99895],[19.965514,49.998948],[19.965513,49.998998],[19.965414,49.998998]]]}},{"type":"Feature","id":"w337671209","properties":{"type":"service","residential":false,"residents_est":0,"h3_10":"8a1e2e691707fff","h3_11":"8b1e2e691705fff"},"geometry":{"type":"Polygon","coordinates":[[[19.96591,50.004714],[19.965931,50.004658],[19.966016,50.004671],[19.965993,50.004726],[19.96591,50.004714]]]}},{"type":"Feature","id":"w337671216","properties":{"type":"yes","residential":false,"residents_est":0,"h3_10":"8a1e2e691707fff","h3_11":"8b1e2e691705fff"},"geometry":{"type":"Polygon","coordinates":[[[19.96594,50.004629],[19.965961,50.004576],[19.966049,50.00459],[19.966028,50.004644],[19.96594,50.004629]]]}},{"type":"Feature","id":"w337671218","properties":{"type":"yes","residential":true,"residents_est":80,"h3_10":"8a1e2e691707fff","h3_11":"8b1e2e691706fff"},"geometry":{"type":"Polygon","coordinates":[[[19.964774,50.004522],[19.964777,50.004512],[19.964782,50.004513],[19.96478,50.004519],[19.964807,50.004523],[19.964817,50.004488],[19.96479,50.004485],[19.964783,50.004491],[19.964786,50.004481],[19.964819,50.004485],[19.96483,50.004438],[19.96504,50.004463],[19.965039,50.004468],[19.96508,50.004472],[19.965081,50.004467],[19.965443,50.004512],[19.965452,50.004524],[19.965418,50.004639],[19.965404,50.004647],[19.96505,50.004604],[19.965042,50.00463],[19.965007,50.004622],[19.964989,50.004624],[19.964997,50.004598],[19.96479,50.004572],[19.964807,50.004525],[19.964774,50.004522]]]}},{"type":"Feature","id":"w337671222","properties":{"type":"yes","residential":true,"residents_est":52,"h3_10":"8a1e2e691707fff","h3_11":"8b1e2e691705fff"},"geometry":{"type":"Polygon","coordinates":[[[19.965409,50.004686],[19.965417,50.004658],[19.965431,50.004652],[19.965434,50.004641],[19.965418,50.004639],[19.965452,50.004524],[19.965468,50.004526],[19.965472,50.004517],[19.965654,50.004539],[19.965651,50.004548],[19.965667,50.004551],[19.965682,50.004544],[19.96572,50.004548],[19.965702,50.004613],[19.965734,50.004618],[19.965745,50.004594],[19.965711,50.004689],[19.965735,50.004692],[19.965731,50.004705],[19.965739,50.004706],[19.965727,50.004748],[19.965719,50.004747],[19.965715,50.004761],[19.965695,50.004758],[19.965693,50.004764],[19.965625,50.004756],[19.965626,50.00475],[19.965606,50.004747],[19.965611,50.004732],[19.96552,50.004722],[19.965527,50.0047],[19.965409,50.004686]]]}},{"type":"Feature","id":"w337671226","properties":{"type":"yes","residential":true,"residents_est":2,"h3_10":"8a1e2e691707fff","h3_11":"8b1e2e691701fff"},"geometry":{"type":"Polygon","coordinates":[[[19.96617,50.004453],[19.966179,50.00442],[19.966213,50.004424],[19.966218,50.004402],[19.96629,50.004409],[19.966276,50.004465],[19.96617,50.004453]]]}},{"type":"Feature","id":"w337692280","properties":{"type":"yes","residential":true,"residents_est":4,"h3_10":"8a1e2e691777fff","h3_11":"8b1e2e691770fff"},"geometry":{"type":"Polygon","coordinates":[[[19.968746,50.004555],[19.968819,50.004553],[19.968824,50.00466],[19.968808,50.00466],[19.968809,50.00468],[19.968752,50.004681],[19.968746,50.004555]]]}},{"type":"Feature","id":"w591348293","properties":{"type":"yes","residential":true,"residents_est":36,"h3_10":"8a1e2e6916b7fff","h3_11":"8b1e2e6916b3fff"},"geometry":{"type":"Polygon","coordinates":[[[19.96379,49.99931],[19.963792,49.999156],[19.96408,49.999158],[19.964078,49.999258],[19.964004,49.999257],[19.964003,49.999312],[19.96379,49.99931]]]}},{"type":"Feature","id":"w703091430","properties":{"type":"yes","residential":false,"residents_est":0,"h3_10":"8a1e2e691777fff","h3_11":"8b1e2e691776fff"},"geometry":{"type":"Polygon","coordinates":[[[19.967748,50.004962],[19.967772,50.004913],[19.967849,50.004928],[19.967823,50.004978],[19.967748,50.004962]]]}},{"type":"Feature","id":"w703091431","properties":{"type":"yes","residential":false,"residents_est":0,"h3_10":"8a1e2e691777fff","h3_11":"8b1e2e691776fff"},"geometry":{"type":"Polygon","coordinates":[[[19.967855,50.00485],[19.967876,50.004807],[19.967953,50.004824],[19.967931,50.004866],[19.967855,50.00485]]]}},{"type":"Feature","id":"w703091432","properties":{"type":"yes","residential":false,"residents_est":0,"h3_10":"8a1e2e69172ffff","h3_11":"8b1e2e69172afff"},"geometry":{"type":"Polygon","coordinates":[[[19.966767,50.004777],[19.966788,50.004724],[19.96683,50.004731],[19.96681,50.004784],[19.966767,50.004777]]]}},{"type":"Feature","id":"w703091433","properties":{"type":"yes","residential":false,"residents_est":0,"h3_10":"8a1e2e69172ffff","h3_11":"8b1e2e69172bfff"},"geometry":{"type":"Polygon","coordinates":[[[19.967313,50.004834],[19.967324,50.004805],[19.96742,50.004819],[19.96741,50.004848],[19.967313,50.004834]]]}},{"type":"Feature","id":"w703091434","properties":{"type":"yes","residential":true,"residents_est":4,"h3_10":"8a1e2e69172ffff","h3_11":"8b1e2e691728fff"},"geometry":{"type":"Polygon","coordinates":[[[19.967067,50.005065],[19.967094,50.004981],[19.967194,50.004994],[19.967165,50.005079],[19.967067,50.005065]]]}},{"type":"Feature","id":"w703091436","properties":{"type":"yes","residential":true,"residents_est":2,"h3_10":"8a1e2e69172ffff","h3_11":"8b1e2e69172cfff"},"geometry":{"type":"Polygon","coordinates":[[[19.966821,50.005441],[19.966828,50.005413],[19.966925,50.005423],[19.96691,50.005485],[19.966843,50.005478],[19.966852,50.005444],[19.966821,50.005441]]]}},{"type":"Feature","id":"w703091438","properties":{"type":"yes","residential":false,"residents_est":0,"h3_10":"8a1e2e69172ffff","h3_11":"8b1e2e69172dfff"},"geometry":{"type":"Polygon","coordinates":[[[19.967167,50.005691],[19.967177,50.005651],[19.967275,50.005661],[19.967265,50.005701],[19.967167,50.005691]]]}},{"type":"Feature","id":"w703104493","properties":{"type":"yes","residential":true,"residents_est":7,"h3_10":"8a1e2e691767fff","h3_11":"8b1e2e691760fff"},"geometry":{"type":"Polygon","coordinates":[[[19.970064,50.005784],[19.970072,50.005783],[19.970066,50.005745],[19.970243,50.005733],[19.970251,50.005778],[19.970291,50.005775],[19.970298,50.005817],[19.970236,50.005822],[19.970233,50.005801],[19.97009,50.005811],[19.970093,50.00583],[19.970072,50.005831],[19.970064,50.005784]]]}},{"type":"Feature","id":"w703104495","properties":{"type":"yes","residential":true,"residents_est":4,"h3_10":"8a1e2e691767fff","h3_11":"8b1e2e691765fff"},"geometry":{"type":"Polygon","coordinates":[[[19.97043,50.006011],[19.970565,50.006003],[19.970575,50.006074],[19.970441,50.006082],[19.97043,50.006011]]]}},{"type":"Feature","id":"w703104496","properties":{"type":"yes","residential":true,"residents_est":3,"h3_10":"8a1e2e691767fff","h3_11":"8b1e2e691765fff"},"geometry":{"type":"Polygon","coordinates":[[[19.970617,50.006026],[19.970691,50.006021],[19.970702,50.006095],[19.970628,50.0061],[19.970617,50.006026]]]}},{"type":"Feature","id":"w703110908","properties":{"type":"ruins","residential":false,"residents_est":0,"h3_10":"8a1e2e69176ffff","h3_11":"8b1e2e691769fff"},"geometry":{"type":"Polygon","coordinates":[[[19.972515,50.005232],[19.972639,50.005227],[19.972644,50.005272],[19.972521,50.005277],[19.972515,50.005232]]]}},{"type":"Feature","id":"w703110910","properties":{"type":"yes","residential":true,"residents_est":8,"h3_10":"8a1e2e691757fff","h3_11":"8b1e2e691750fff"},"geometry":{"type":"Polygon","coordinates":[[[19.96878,50.003556],[19.968809,50.003555],[19.968808,50.003531],[19.968903,50.003529],[19.968905,50.003553],[19.968946,50.003552],[19.96895,50.003608],[19.968922,50.003609],[19.968925,50.003657],[19.968814,50.00366],[19.968811,50.003611],[19.968783,50.003612],[19.96878,50.003556]]]}},{"type":"Feature","id":"w703110911","properties":{"type":"yes","residential":false,"residents_est":0,"h3_10":"8a1e2e691707fff","h3_11":"8b1e2e691702fff"},"geometry":{"type":"Polygon","coordinates":[[[19.965035,50.004186],[19.965049,50.004165],[19.965074,50.004148],[19.965107,50.00414],[19.965143,50.00414],[19.965176,50.004149],[19.965201,50.004165],[19.965215,50.004187],[19.965214,50.00421],[19.965153,50.004202],[19.96514,50.004214],[19.965119,50.004216],[19.965107,50.004256],[19.965074,50.004247],[19.965049,50.00423],[19.965035,50.004209],[19.965035,50.004186]]]}},{"type":"Feature","id":"w703110968","properties":{"type":"yes","residential":true,"residents_est":8,"h3_10":"8a1e2e6917a7fff","h3_11":"8b1e2e6917a4fff"},"geometry":{"type":"Polygon","coordinates":[[[19.962583,50.003339],[19.962643,50.003333],[19.96264,50.003321],[19.962687,50.003316],[19.96269,50.003328],[19.962735,50.003323],[19.962754,50.003395],[19.962737,50.003397],[19.962749,50.003444],[19.962631,50.003457],[19.962619,50.00341],[19.962602,50.003412],[19.962583,50.003339]]]}},{"type":"Feature","id":"w703110969","properties":{"type":"yes","residential":true,"residents_est":9,"h3_10":"8a1e2e6917a7fff","h3_11":"8b1e2e6917a4fff"},"geometry":{"type":"Polygon","coordinates":[[[19.962444,50.00315],[19.9626,50.003116],[19.962624,50.00316],[19.962653,50.003154],[19.962688,50.00322],[19.962531,50.003254],[19.962515,50.003224],[19.962487,50.003231],[19.962444,50.00315]]]}},{"type":"Feature","id":"w703110970","properties":{"type":"yes","residential":false,"residents_est":0,"h3_10":"8a1e2e6917a7fff","h3_11":"8b1e2e6917a2fff"},"geometry":{"type":"Polygon","coordinates":[[[19.962234,50.002538],[19.962336,50.002517],[19.962352,50.002547],[19.962248,50.002572],[19.962234,50.002538]]]}},{"type":"Feature","id":"w703110972","properties":{"type":"yes","residential":true,"residents_est":9,"h3_10":"8a1e2e691787fff","h3_11":"8b1e2e691786fff"},"geometry":{"type":"Polygon","coordinates":[[[19.962002,50.001924],[19.962086,50.001905],[19.962091,50.001914],[19.962187,50.001893],[19.96223,50.001972],[19.962131,50.001989],[19.962152,50.00203],[19.962069,50.002051],[19.962002,50.001924]]]}},{"type":"Feature","id":"w703110974","properties":{"type":"yes","residential":false,"residents_est":0,"h3_10":"8a1e2e6917b7fff","h3_11":"8b1e2e6917b1fff"},"geometry":{"type":"Polygon","coordinates":[[[19.961714,50.002159],[19.961754,50.002152],[19.961775,50.002205],[19.961735,50.002212],[19.961714,50.002159]]]}},{"type":"Feature","id":"w703110975","properties":{"type":"yes","residential":true,"residents_est":4,"h3_10":"8a1e2e6917b7fff","h3_11":"8b1e2e6917b0fff"},"geometry":{"type":"Polygon","coordinates":[[[19.961427,50.002287],[19.961583,50.002257],[19.961592,50.002276],[19.961614,50.002284],[19.961602,50.002298],[19.96161,50.002316],[19.961473,50.002342],[19.961459,50.002313],[19.96144,50.002316],[19.961427,50.002287]]]}},{"type":"Feature","id":"w703110977","properties":{"type":"yes","residential":true,"residents_est":4,"h3_10":"8a1e2e6917b7fff","h3_11":"8b1e2e6917b0fff"},"geometry":{"type":"Polygon","coordinates":[[[19.961038,50.002325],[19.96105,50.002312],[19.961041,50.002293],[19.961196,50.002263],[19.96121,50.002291],[19.96119,50.002295],[19.961206,50.002324],[19.961068,50.002351],[19.96106,50.002333],[19.961038,50.002325]]]}},{"type":"Feature","id":"w703110978","properties":{"type":"yes","residential":true,"residents_est":4,"h3_10":"8a1e2e6917b7fff","h3_11":"8b1e2e6917b3fff"},"geometry":{"type":"Polygon","coordinates":[[[19.96127,50.001905],[19.961429,50.001878],[19.961437,50.001897],[19.961457,50.001906],[19.961445,50.00192],[19.961452,50.001938],[19.961313,50.001961],[19.961301,50.00193],[19.961281,50.001934],[19.96127,50.001905]]]}},{"type":"Feature","id":"w703110979","properties":{"type":"yes","residential":true,"residents_est":4,"h3_10":"8a1e2e6917b7fff","h3_11":"8b1e2e6917b0fff"},"geometry":{"type":"Polygon","coordinates":[[[19.961328,50.002068],[19.961348,50.002064],[19.961336,50.002034],[19.961474,50.00201],[19.961498,50.002069],[19.96134,50.002097],[19.961328,50.002068]]]}},{"type":"Feature","id":"w703110980","properties":{"type":"yes","residential":true,"residents_est":5,"h3_10":"8a1e2e6917b7fff","h3_11":"8b1e2e6917b0fff"},"geometry":{"type":"Polygon","coordinates":[[[19.960944,50.002125],[19.960958,50.002111],[19.960953,50.002091],[19.961112,50.002065],[19.961125,50.002095],[19.961105,50.002099],[19.961117,50.002129],[19.960975,50.002153],[19.960967,50.002133],[19.960944,50.002125]]]}},{"type":"Feature","id":"w703110981","properties":{"type":"yes","residential":true,"residents_est":5,"h3_10":"8a1e2e6917b7fff","h3_11":"8b1e2e6917b2fff"},"geometry":{"type":"Polygon","coordinates":[[[19.960872,50.001915],[19.960887,50.001901],[19.960882,50.001882],[19.961044,50.001861],[19.961052,50.001893],[19.961032,50.001895],[19.96104,50.001926],[19.960898,50.001942],[19.960893,50.001923],[19.960872,50.001915]]]}},{"type":"Feature","id":"w703110982","properties":{"type":"yes","residential":true,"residents_est":5,"h3_10":"8a1e2e691797fff","h3_11":"8b1e2e691794fff"},"geometry":{"type":"Polygon","coordinates":[[[19.961213,50.001674],[19.961245,50.001572],[19.961313,50.001581],[19.961308,50.001596],[19.961357,50.001602],[19.961335,50.001675],[19.961288,50.001669],[19.961284,50.001683],[19.961213,50.001674]]]}},{"type":"Feature","id":"w703110983","properties":{"type":"yes","residential":true,"residents_est":5,"h3_10":"8a1e2e691797fff","h3_11":"8b1e2e691794fff"},"geometry":{"type":"Polygon","coordinates":[[[19.960893,50.001634],[19.960924,50.001532],[19.960993,50.00154],[19.960988,50.001555],[19.961037,50.001561],[19.961015,50.001634],[19.960967,50.001628],[19.960962,50.001642],[19.960893,50.001634]]]}},{"type":"Feature","id":"w708513915","properties":{"type":"yes","residential":false,"residents_est":0,"h3_10":"8a1e2e69161ffff","h3_11":"8b1e2e69161efff"},"geometry":{"type":"Polygon","coordinates":[[[19.967379,50.000644],[19.967393,50.000589],[19.967455,50.000596],[19.967441,50.00065],[19.967379,50.000644]]]}},{"type":"Feature","id":"w708513917","properties":{"type":"yes","residential":false,"residents_est":0,"h3_10":"8a1e2e6916affff","h3_11":"8b1e2e6916a8fff"},"geometry":{"type":"Polygon","coordinates":[[[19.96705,49.999904],[19.967134,49.999899],[19.967139,49.999937],[19.967055,49.999941],[19.96705,49.999904]]]}},{"type":"Feature","id":"w708513918","properties":{"type":"yes","address":"Wyżynna 36a","residential":true,"residents_est":6,"h3_10":"8a1e2e6916affff","h3_11":"8b1e2e6916abfff"},"geometry":{"type":"Polygon","coordinates":[[[19.967447,49.999699],[19.967447,49.99967],[19.967461,49.99967],[19.967463,49.999625],[19.967649,49.999627],[19.967648,49.999672],[19.967661,49.999672],[19.967661,49.999702],[19.967447,49.999699]]]}},{"type":"Feature","id":"w708513919","properties":{"type":"yes","address":"Wyżynna 36","residential":true,"residents_est":7,"h3_10":"8a1e2e6916affff","h3_11":"8b1e2e6916abfff"},"geometry":{"type":"Polygon","coordinates":[[[19.967446,49.999729],[19.967447,49.999699],[19.967661,49.999702],[19.96766,49.999732],[19.967646,49.999732],[19.967645,49.999776],[19.967458,49.999774],[19.96746,49.99973],[19.967446,49.999729]]]}},{"type":"Feature","id":"w708513920","properties":{"type":"yes","address":"Wyżynna 36b","residential":true,"residents_est":6,"h3_10":"8a1e2e69168ffff","h3_11":"8b1e2e69168dfff"},"geometry":{"type":"Polygon","coordinates":[[[19.967446,49.999393],[19.967447,49.999363],[19.967661,49.999365],[19.96766,49.999395],[19.967647,49.999394],[19.967645,49.999439],[19.967459,49.999437],[19.96746,49.999393],[19.967446,49.999393]]]}},{"type":"Feature","id":"w708513921","properties":{"type":"yes","address":"Wyżynna 36c","residential":true,"residents_est":7,"h3_10":"8a1e2e69168ffff","h3_11":"8b1e2e69168dfff"},"geometry":{"type":"Polygon","coordinates":[[[19.967447,49.999363],[19.967447,49.999333],[19.967461,49.999333],[19.967462,49.999288],[19.967649,49.99929],[19.967648,49.999335],[19.967662,49.999335],[19.967661,49.999365],[19.967447,49.999363]]]}},{"type":"Feature","id":"w708513930","properties":{"type":"yes","address":"Wyżynna 36g","residential":true,"residents_est":8,"h3_10":"8a1e2e69168ffff","h3_11":"8b1e2e69168bfff"},"geometry":{"type":"Polygon","coordinates":[[[19.967446,49.998492],[19.967447,49.998467],[19.967461,49.998467],[19.967462,49.998404],[19.967541,49.998404],[19.967542,49.998396],[19.967569,49.998396],[19.967569,49.998405],[19.967649,49.998405],[19.967648,49.998468],[19.967662,49.998468],[19.967661,49.998493],[19.967446,49.998492]]]}},{"type":"Feature","id":"w708513931","properties":{"type":"yes","address":"Wyżynna 36f","residential":true,"residents_est":8,"h3_10":"8a1e2e69168ffff","h3_11":"8b1e2e69168bfff"},"geometry":{"type":"Polygon","coordinates":[[[19.967446,49.998517],[19.967446,49.998492],[19.967661,49.998493],[19.96766,49.998519],[19.967647,49.998519],[19.967646,49.998582],[19.967566,49.998581],[19.967566,49.99859],[19.967538,49.99859],[19.967539,49.998581],[19.967458,49.99858],[19.96746,49.998517],[19.967446,49.998517]]]}},{"type":"Feature","id":"w708513932","properties":{"type":"yes","address":"Wyżynna 36e","residential":true,"residents_est":8,"h3_10":"8a1e2e69168ffff","h3_11":"8b1e2e69168bfff"},"geometry":{"type":"Polygon","coordinates":[[[19.967444,49.998819],[19.967445,49.998793],[19.967459,49.998793],[19.96746,49.998731],[19.967539,49.998731],[19.96754,49.998722],[19.967567,49.998723],[19.967568,49.998731],[19.967647,49.998732],[19.967645,49.998795],[19.96766,49.998795],[19.967659,49.998821],[19.967444,49.998819]]]}},{"type":"Feature","id":"w708513933","properties":{"type":"yes","address":"Wyżynna 36d","residential":true,"residents_est":8,"h3_10":"8a1e2e69168ffff","h3_11":"8b1e2e691688fff"},"geometry":{"type":"Polygon","coordinates":[[[19.967444,49.998844],[19.967444,49.998819],[19.967659,49.998821],[19.967658,49.998846],[19.967644,49.998846],[19.967643,49.998909],[19.967564,49.998908],[19.967563,49.998917],[19.967535,49.998917],[19.967536,49.998908],[19.967456,49.998908],[19.967458,49.998844],[19.967444,49.998844]]]}},{"type":"Feature","id":"w708513934","properties":{"type":"yes","address":"Wyżynna 34b","residential":true,"residents_est":4,"h3_10":"8a1e2e69168ffff","h3_11":"8b1e2e691688fff"},"geometry":{"type":"Polygon","coordinates":[[[19.967069,49.998886],[19.967071,49.99881],[19.967189,49.998811],[19.967188,49.998887],[19.967069,49.998886]]]}},{"type":"Feature","id":"w708513935","properties":{"type":"yes","address":"Wyżynna 34c","residential":true,"residents_est":8,"h3_10":"8a1e2e69168ffff","h3_11":"8b1e2e69168afff"},"geometry":{"type":"Polygon","coordinates":[[[19.966674,49.998621],[19.96668,49.998621],[19.966679,49.99853],[19.966792,49.998529],[19.966799,49.998683],[19.966675,49.998683],[19.966674,49.998621]]]}},{"type":"Feature","id":"w708513936","properties":{"type":"yes","address":"Wyżynna 34a","residential":true,"residents_est":7,"h3_10":"8a1e2e69168ffff","h3_11":"8b1e2e69168efff"},"geometry":{"type":"Polygon","coordinates":[[[19.966712,49.998835],[19.966713,49.998801],[19.966901,49.998802],[19.9669,49.998893],[19.966842,49.998893],[19.966828,49.998902],[19.966802,49.998902],[19.966788,49.998893],[19.96673,49.998892],[19.966731,49.998858],[19.966739,49.998858],[19.96674,49.998835],[19.966712,49.998835]]]}},{"type":"Feature","id":"w708513955","properties":{"type":"yes","residential":false,"residents_est":0,"h3_10":"8a1e2e69169ffff","h3_11":"8b1e2e69169efff"},"geometry":{"type":"Polygon","coordinates":[[[19.965,49.99829],[19.965003,49.998261],[19.965077,49.998264],[19.965075,49.998293],[19.965,49.99829]]]}},{"type":"Feature","id":"w708513956","properties":{"type":"yes","residential":false,"residents_est":0,"h3_10":"8a1e2e69169ffff","h3_11":"8b1e2e69169efff"},"geometry":{"type":"Polygon","coordinates":[[[19.964996,49.998327],[19.965,49.99829],[19.965075,49.998293],[19.965071,49.998331],[19.964996,49.998327]]]}},{"type":"Feature","id":"w708513958","properties":{"type":"yes","residential":false,"residents_est":0,"h3_10":"8a1e2e69169ffff","h3_11":"8b1e2e69169efff"},"geometry":{"type":"Polygon","coordinates":[[[19.964738,49.998201],[19.964823,49.9982],[19.964825,49.998249],[19.964741,49.99825],[19.964738,49.998201]]]}},{"type":"Feature","id":"w708513966","properties":{"type":"yes","address":"Wyżynna 16b","residential":true,"residents_est":3,"h3_10":"8a1e2e691697fff","h3_11":"8b1e2e691693fff"},"geometry":{"type":"Polygon","coordinates":[[[19.96395,49.998278],[19.963953,49.998218],[19.964061,49.998219],[19.964058,49.998279],[19.96395,49.998278]]]}},{"type":"Feature","id":"w708513967","properties":{"type":"yes","residential":true,"residents_est":4,"h3_10":"8a1e2e691697fff","h3_11":"8b1e2e691695fff"},"geometry":{"type":"Polygon","coordinates":[[[19.964232,49.998959],[19.964234,49.998913],[19.96442,49.998916],[19.964418,49.998962],[19.964232,49.998959]]]}},{"type":"Feature","id":"w708513968","properties":{"type":"yes","residential":false,"residents_est":0,"h3_10":"8a1e2e691697fff","h3_11":"8b1e2e691695fff"},"geometry":{"type":"Polygon","coordinates":[[[19.964419,49.998939],[19.96442,49.998916],[19.964507,49.998917],[19.964506,49.99894],[19.964419,49.998939]]]}},{"type":"Feature","id":"w708513969","properties":{"type":"yes","residential":true,"residents_est":4,"h3_10":"8a1e2e691697fff","h3_11":"8b1e2e691695fff"},"geometry":{"type":"Polygon","coordinates":[[[19.964361,49.998914],[19.964363,49.998854],[19.964509,49.998857],[19.964507,49.998917],[19.964361,49.998914]]]}},{"type":"Feature","id":"w708513971","properties":{"type":"yes","residential":false,"residents_est":0,"h3_10":"8a1e2e6916b7fff","h3_11":"8b1e2e6916b6fff"},"geometry":{"type":"Polygon","coordinates":[[[19.963093,49.999654],[19.963095,49.999605],[19.963166,49.999606],[19.963165,49.999655],[19.963093,49.999654]]]}},{"type":"Feature","id":"w708513972","properties":{"type":"yes","address":"Wyżynna 14f","residential":true,"residents_est":7,"h3_10":"8a1e2e6916b7fff","h3_11":"8b1e2e6916b0fff"},"geometry":{"type":"Polygon","coordinates":[[[19.963309,49.999615],[19.963311,49.999532],[19.963401,49.999533],[19.963401,49.999547],[19.963489,49.999548],[19.963488,49.999623],[19.963309,49.999615]]]}},{"type":"Feature","id":"w712614629","properties":{"type":"yes","residential":true,"residents_est":13,"h3_10":"8a1e2e6916b7fff","h3_11":"8b1e2e6916b4fff"},"geometry":{"type":"Polygon","coordinates":[[[19.963332,49.99995],[19.963332,49.999876],[19.963548,49.999877],[19.963556,50.0001],[19.963473,50.000102],[19.963466,49.99995],[19.963332,49.99995]]]}},{"type":"Feature","id":"w1039022205","properties":{"type":"outbuilding","levels":1.0,"residential":false,"residents_est":0,"h3_10":"8a1e2e691687fff","h3_11":"8b1e2e691686fff"},"geometry":{"type":"Polygon","coordinates":[[[19.964446,49.999289],[19.96454,49.999287],[19.964546,49.999396],[19.964451,49.999398],[19.964446,49.999289]]]}},{"type":"Feature","id":"w1197781522","properties":{"type":"outbuilding","levels":1.0,"residential":false,"residents_est":0,"h3_10":"8a1e2e69176ffff","h3_11":"8b1e2e69176cfff"},"geometry":{"type":"Polygon","coordinates":[[[19.971275,50.005575],[19.97132,50.005574],[19.971321,50.005622],[19.971276,50.005622],[19.971275,50.005575]]]}},{"type":"Feature","id":"w1197781672","properties":{"type":"outbuilding","levels":1.0,"residential":false,"residents_est":0,"h3_10":"8a1e2e691787fff","h3_11":"8b1e2e691784fff"},"geometry":{"type":"Polygon","coordinates":[[[19.962523,50.002284],[19.962602,50.002261],[19.962655,50.002338],[19.962576,50.002361],[19.962523,50.002284]]]}},{"type":"Feature","id":"w1202724430","properties":{"type":"yes","residential":true,"residents_est":3,"h3_10":"8a1e2e691767fff","h3_11":"8b1e2e691763fff"},"geometry":{"type":"Polygon","coordinates":[[[19.97047,50.005061],[19.970622,50.005051],[19.97063,50.005099],[19.970478,50.00511],[19.97047,50.005061]]]}},{"type":"Feature","id":"w1202724431","properties":{"type":"yes","residential":true,"residents_est":8,"h3_10":"8a1e2e691747fff","h3_11":"8b1e2e691745fff"},"geometry":{"type":"Polygon","coordinates":[[[19.970431,50.004847],[19.970714,50.004829],[19.970728,50.004915],[19.970654,50.00492],[19.970649,50.004889],[19.970569,50.004895],[19.970568,50.004885],[19.970439,50.004894],[19.970431,50.004847]]]}},{"type":"Feature","id":"w1202991458","properties":{"type":"industrial","residential":false,"residents_est":0,"h3_10":"8a1e2e691777fff","h3_11":"8b1e2e691775fff"},"geometry":{"type":"Polygon","coordinates":[[[19.969231,50.005174],[19.969241,50.005128],[19.969329,50.005136],[19.969319,50.005182],[19.969231,50.005174]]]}},{"type":"Feature","id":"w1202991459","properties":{"type":"industrial","residential":false,"residents_est":0,"h3_10":"8a1e2e691777fff","h3_11":"8b1e2e691775fff"},"geometry":{"type":"Polygon","coordinates":[[[19.969276,50.005131],[19.969277,50.005024],[19.969311,50.005024],[19.96931,50.005134],[19.969276,50.005131]]]}},{"type":"Feature","id":"w1202991465","properties":{"type":"yes","residential":false,"residents_est":0,"h3_10":"8a1e2e691777fff","h3_11":"8b1e2e691773fff"},"geometry":{"type":"Polygon","coordinates":[[[19.969144,50.004559],[19.969248,50.004553],[19.969253,50.004596],[19.969149,50.004601],[19.969144,50.004559]]]}},{"type":"Feature","id":"w1203379076","properties":{"type":"yes","residential":true,"residents_est":5,"h3_10":"8a1e2e691767fff","h3_11":"8b1e2e691764fff"},"geometry":{"type":"Polygon","coordinates":[[[19.969459,50.005943],[19.969555,50.005937],[19.969574,50.006055],[19.969479,50.006062],[19.969459,50.005943]]]}},{"type":"Feature","id":"w1203473194","properties":{"type":"shed","residential":false,"residents_est":0,"h3_10":"8a1e2e691777fff","h3_11":"8b1e2e691776fff"},"geometry":{"type":"Polygon","coordinates":[[[19.967855,50.004751],[19.967871,50.004715],[19.967935,50.004726],[19.967919,50.004763],[19.967855,50.004751]]]}},{"type":"Feature","id":"w1203760163","properties":{"type":"shed","residential":false,"residents_est":0,"h3_10":"8a1e2e69172ffff","h3_11":"8b1e2e69172efff"},"geometry":{"type":"Polygon","coordinates":[[[19.966511,50.00524],[19.96653,50.005147],[19.966582,50.005151],[19.966563,50.005245],[19.966511,50.00524]]]}},{"type":"Feature","id":"w1203760167","properties":{"type":"yes","residential":false,"residents_est":0,"h3_10":"8a1e2e69172ffff","h3_11":"8b1e2e691728fff"},"geometry":{"type":"Polygon","coordinates":[[[19.966642,50.005067],[19.966649,50.005043],[19.966746,50.005055],[19.966739,50.00508],[19.966642,50.005067]]]}},{"type":"Feature","id":"w1203761495","properties":{"type":"yes","residential":false,"residents_est":0,"h3_10":"8a1e2e69172ffff","h3_11":"8b1e2e69172efff"},"geometry":{"type":"Polygon","coordinates":[[[19.966438,50.005286],[19.966457,50.005223],[19.966497,50.005228],[19.966478,50.005291],[19.966438,50.005286]]]}},{"type":"Feature","id":"w1203766607","properties":{"type":"shed","residential":false,"residents_est":0,"h3_10":"8a1e2e691627fff","h3_11":"8b1e2e691624fff"},"geometry":{"type":"Polygon","coordinates":[[[19.96753,50.003338],[19.967553,50.003292],[19.96762,50.003306],[19.967597,50.003351],[19.96753,50.003338]]]}},{"type":"Feature","id":"w1204091263","properties":{"type":"garage","residential":false,"residents_est":0,"h3_10":"8a1e2e691707fff","h3_11":"8b1e2e691703fff"},"geometry":{"type":"Polygon","coordinates":[[[19.966115,50.004186],[19.966142,50.004124],[19.966243,50.004143],[19.966216,50.004204],[19.966115,50.004186]]]}},{"type":"Feature","id":"w1212446028","properties":{"type":"garage","residential":false,"residents_est":0,"h3_10":"8a1e2e691787fff","h3_11":"8b1e2e691784fff"},"geometry":{"type":"Polygon","coordinates":[[[19.962386,50.002314],[19.962443,50.002299],[19.96249,50.002373],[19.962434,50.002388],[19.962386,50.002314]]]}},{"type":"Feature","id":"w1212446036","properties":{"type":"yes","residential":false,"residents_est":0,"h3_10":"8a1e2e691787fff","h3_11":"8b1e2e691784fff"},"geometry":{"type":"Polygon","coordinates":[[[19.96256,50.002132],[19.962609,50.002119],[19.962638,50.002164],[19.962588,50.002177],[19.96256,50.002132]]]}},{"type":"Feature","id":"w1212446037","properties":{"type":"garage","residential":false,"residents_est":0,"h3_10":"8a1e2e691787fff","h3_11":"8b1e2e691784fff"},"geometry":{"type":"Polygon","coordinates":[[[19.962616,50.002366],[19.962681,50.00235],[19.962711,50.002401],[19.962647,50.002417],[19.962616,50.002366]]]}},{"type":"Feature","id":"w1212446042","properties":{"type":"shed","residential":false,"residents_est":0,"h3_10":"8a1e2e6917a7fff","h3_11":"8b1e2e6917a2fff"},"geometry":{"type":"Polygon","coordinates":[[[19.962562,50.002681],[19.962604,50.002671],[19.962638,50.002734],[19.9626,50.002743],[19.962562,50.002681]]]}},{"type":"Feature","id":"w1212479017","properties":{"type":"shed","residential":false,"residents_est":0,"h3_10":"8a1e2e6917b7fff","h3_11":"8b1e2e6917b3fff"},"geometry":{"type":"Polygon","coordinates":[[[19.961679,50.00168],[19.961744,50.00167],[19.961739,50.001658],[19.961787,50.001651],[19.96181,50.001708],[19.961758,50.001716],[19.961766,50.001736],[19.961705,50.001746],[19.961679,50.00168]]]}},{"type":"Feature","id":"w1212479021","properties":{"type":"garage","residential":false,"residents_est":0,"h3_10":"8a1e2e6917b7fff","h3_11":"8b1e2e6917b1fff"},"geometry":{"type":"Polygon","coordinates":[[[19.961705,50.002268],[19.961724,50.002263],[19.961705,50.002235],[19.961756,50.002221],[19.961795,50.00228],[19.961749,50.002293],[19.961744,50.002286],[19.961721,50.002292],[19.961705,50.002268]]]}},{"type":"Feature","id":"w1212485452","properties":{"type":"garage","residential":false,"residents_est":0,"h3_10":"8a1e2e691797fff","h3_11":"8b1e2e691794fff"},"geometry":{"type":"Polygon","coordinates":[[[19.961329,50.001695],[19.961347,50.001636],[19.96139,50.001641],[19.961372,50.0017],[19.961329,50.001695]]]}},{"type":"Feature","id":"w1212485490","properties":{"type":"garage","residential":false,"residents_est":0,"h3_10":"8a1e2e691797fff","h3_11":"8b1e2e691794fff"},"geometry":{"type":"Polygon","coordinates":[[[19.961015,50.001634],[19.961033,50.001573],[19.961118,50.001584],[19.9611,50.001644],[19.961015,50.001634]]]}},{"type":"Feature","id":"w1212513135","properties":{"type":"garage","residential":false,"residents_est":0,"h3_10":"8a1e2e6917b7fff","h3_11":"8b1e2e6917b6fff"},"geometry":{"type":"Polygon","coordinates":[[[19.960417,50.002027],[19.960485,50.002021],[19.960492,50.002055],[19.960424,50.002061],[19.960417,50.002027]]]}},{"type":"Feature","id":"w1212513157","properties":{"type":"garage","residential":false,"residents_est":0,"h3_10":"8a1e2e6917b7fff","h3_11":"8b1e2e6917b4fff"},"geometry":{"type":"Polygon","coordinates":[[[19.960567,50.002633],[19.960657,50.00262],[19.960677,50.002676],[19.960588,50.002689],[19.960567,50.002633]]]}},{"type":"Feature","id":"w1212513158","properties":{"type":"garage","residential":false,"residents_est":0,"h3_10":"8a1e2e6917b7fff","h3_11":"8b1e2e6917b4fff"},"geometry":{"type":"Polygon","coordinates":[[[19.960576,50.002595],[19.960645,50.002584],[19.960655,50.00261],[19.960586,50.002621],[19.960576,50.002595]]]}},{"type":"Feature","id":"w1307697066","properties":{"type":"yes","residential":false,"residents_est":0,"h3_10":"8a1e2e6916b7fff","h3_11":"8b1e2e6916b2fff"},"geometry":{"type":"Polygon","coordinates":[[[19.962948,49.999362],[19.96295,49.999331],[19.963072,49.999333],[19.963071,49.999364],[19.962948,49.999362]]]}},{"type":"Feature","id":"w1308581188","properties":{"type":"yes","residential":false,"residents_est":0,"h3_10":"8a1e2e69169ffff","h3_11":"8b1e2e69169dfff"},"geometry":{"type":"Polygon","coordinates":[[[19.966249,49.998664],[19.966336,49.998663],[19.966337,49.998702],[19.966249,49.998703],[19.966249,49.998664]]]}},{"type":"Feature","id":"w1308581199","properties":{"type":"yes","residential":false,"residents_est":0,"h3_10":"8a1e2e691687fff","h3_11":"8b1e2e691684fff"},"geometry":{"type":"Polygon","coordinates":[[[19.964913,49.999551],[19.964992,49.999549],[19.964993,49.999574],[19.964914,49.999576],[19.964913,49.999551]]]}},{"type":"Feature","id":"w1308581276","properties":{"type":"yes","address":"Wyżynna 34CA","residential":true,"residents_est":11,"h3_10":"8a1e2e69168ffff","h3_11":"8b1e2e69168afff"},"geometry":{"type":"Polygon","coordinates":[[[19.966999,49.998632],[19.967001,49.998559],[19.967078,49.99856],[19.967078,49.998546],[19.967186,49.998547],[19.967186,49.99856],[19.967244,49.998561],[19.967243,49.998632],[19.967229,49.998632],[19.967227,49.998693],[19.967132,49.998692],[19.967134,49.998621],[19.967089,49.99862],[19.967089,49.998632],[19.966999,49.998632]]]}},{"type":"Feature","id":"w1308581277","properties":{"type":"yes","residential":false,"residents_est":0,"h3_10":"8a1e2e69169ffff","h3_11":"8b1e2e69169cfff"},"geometry":{"type":"Polygon","coordinates":[[[19.965715,49.998642],[19.965718,49.998587],[19.965763,49.998588],[19.965761,49.998643],[19.965715,49.998642]]]}},{"type":"Feature","id":"w1308581278","properties":{"type":"yes","address":"Wyżynna 32E","residential":true,"residents_est":8,"h3_10":"8a1e2e69169ffff","h3_11":"8b1e2e691699fff"},"geometry":{"type":"Polygon","coordinates":[[[19.966294,49.998115],[19.966304,49.998114],[19.966303,49.998094],[19.966298,49.998094],[19.966295,49.99798],[19.966361,49.99798],[19.96636,49.997962],[19.966423,49.997961],[19.966424,49.998065],[19.966413,49.998065],[19.966415,49.99812],[19.966294,49.998122],[19.966294,49.998115]]]}},{"type":"Feature","id":"w1308581281","properties":{"type":"yes","residential":false,"residents_est":0,"h3_10":"8a1e2e69169ffff","h3_11":"8b1e2e69169bfff"},"geometry":{"type":"Polygon","coordinates":[[[19.966281,49.997701],[19.966283,49.99767],[19.966389,49.997671],[19.966388,49.997703],[19.966281,49.997701]]]}},{"type":"Feature","id":"w1308581285","properties":{"type":"yes","residential":false,"residents_est":0,"h3_10":"8a1e2e69168ffff","h3_11":"8b1e2e69168cfff"},"geometry":{"type":"Polygon","coordinates":[[[19.966873,49.999232],[19.966873,49.999201],[19.966936,49.999202],[19.966936,49.999233],[19.966873,49.999232]]]}},{"type":"Feature","id":"w1308581286","properties":{"type":"yes","address":"Wyżynna 34AB","residential":true,"residents_est":6,"h3_10":"8a1e2e69168ffff","h3_11":"8b1e2e69168cfff"},"geometry":{"type":"Polygon","coordinates":[[[19.967075,49.999331],[19.967082,49.999331],[19.967082,49.999298],[19.967142,49.999298],[19.967142,49.999315],[19.967245,49.999315],[19.967245,49.999382],[19.967142,49.999382],[19.967142,49.999398],[19.967083,49.999398],[19.967083,49.999363],[19.967075,49.999363],[19.967075,49.999331]]]}},{"type":"Feature","id":"w1308581287","properties":{"type":"yes","address":"Wyżynna 22a","residential":true,"residents_est":3,"h3_10":"8a1e2e691687fff","h3_11":"8b1e2e691680fff"},"geometry":{"type":"Polygon","coordinates":[[[19.965189,49.999415],[19.965191,49.999359],[19.965291,49.99936],[19.965289,49.999416],[19.965189,49.999415]]]}},{"type":"Feature","id":"w1308581288","properties":{"type":"yes","residential":false,"residents_est":0,"h3_10":"8a1e2e691687fff","h3_11":"8b1e2e691686fff"},"geometry":{"type":"Polygon","coordinates":[[[19.964665,49.999287],[19.964764,49.999287],[19.964765,49.999328],[19.964725,49.999328],[19.964725,49.999338],[19.964666,49.999338],[19.964665,49.999287]]]}},{"type":"Feature","id":"w1308581289","properties":{"type":"yes","residential":true,"residents_est":7,"h3_10":"8a1e2e691697fff","h3_11":"8b1e2e691690fff"},"geometry":{"type":"Polygon","coordinates":[[[19.964115,49.99858],[19.964179,49.998582],[19.964184,49.998532],[19.964219,49.998534],[19.96421,49.998734],[19.964117,49.998734],[19.964115,49.99858]]]}},{"type":"Feature","id":"w1308581290","properties":{"type":"yes","address":"Zdrojowa 9","residential":true,"residents_est":4,"h3_10":"8a1e2e691697fff","h3_11":"8b1e2e691692fff"},"geometry":{"type":"Polygon","coordinates":[[[19.963463,49.998227],[19.963466,49.998184],[19.963656,49.99819],[19.963652,49.998233],[19.963463,49.998227]]]}}]}