{"type":"FeatureCollection","features":[{"type":"Feature","id":"w80180557","properties":{"type":"yes","residential":true,"residents_est":15,"h3_10":"8a1e2e68540ffff","h3_11":"8b1e2e68540bfff"},"geometry":{"type":"Polygon","coordinates":[[[20.010782,50.057972],[20.010836,50.057862],[20.010949,50.057885],[20.010956,50.05787],[20.01145,50.057971],[20.011386,50.0581],[20.010782,50.057972]]]}},{"type":"Feature","id":"w80196766","properties":{"type":"yes","residential":true,"residents_est":1,"h3_10":"8a1e2e6855b7fff","h3_11":"8b1e2e6855b0fff"},"geometry":{"type":"Polygon","coordinates":[[[20.001749,50.058807],[20.001832,50.058805],[20.001838,50.058902],[20.001756,50.058904],[20.001749,50.058807]]]}},{"type":"Feature","id":"w80196768","properties":{"type":"yes","address":"Nowohucka 50","residential":true,"residents_est":10,"h3_10":"8a1e2e6855b7fff","h3_11":"8b1e2e6855b2fff"},"geometry":{"type":"Polygon","coordinates":[[[20.001724,50.058492],[20.001932,50.058485],[20.001954,50.05875],[20.001742,50.058755],[20.001724,50.058492]]]}},{"type":"Feature","id":"w80196792","properties":{"type":"yes","residential":false,"residents_est":0,"h3_10":"8a1e2e6855b7fff","h3_11":"8b1e2e6855b6fff"},"geometry":{"type":"Polygon","coordinates":[[[20.00168,50.059007],[20.001737,50.059007],[20.001738,50.059066],[20.001682,50.059066],[20.00168,50.059007]]]}},{"type":"Feature","id":"w80197374","properties":{"type":"roof","residential":false,"residents_est":0,"h3_10":"8a1e2e685597fff","h3_11":"8b1e2e685593fff"},"geometry":{"type":"Polygon","coordinates":[[[20.002349,50.057285],[20.00242,50.057247],[20.002794,50.057531],[20.002722,50.05757],[20.002349,50.057285]]]}},{"type":"Feature","id":"w80197375","properties":{"type":"yes","residential":true,"residents_est":14,"h3_10":"8a1e2e68559ffff","h3_11":"8b1e2e68559dfff"},"geometry":{"type":"Polygon","coordinates":[[[20.004123,50.057985],[20.004173,50.057556],[20.004357,50.057565],[20.004307,50.057994],[20.004123,50.057985]]]}},{"type":"Feature","id":"w80197376","properties":{"type":"yes","residential":true,"residents_est":2,"h3_10":"8a1e2e68548ffff","h3_11":"8b1e2e68548cfff"},"geometry":{"type":"Polygon","coordinates":[[[20.007966,50.055938],[20.007977,50.055821],[20.008143,50.055828],[20.008132,50.055945],[20.007966,50.055938]]]}},{"type":"Feature","id":"w80201976","properties":{"type":"yes","residential":true,"residents_est":2,"h3_10":"8a1e2e68548ffff","h3_11":"8b1e2e68548afff"},"geometry":{"type":"Polygon","coordinates":[[[20.007966,50.055349],[20.00797,50.055269],[20.008171,50.055273],[20.008167,50.055353],[20.007966,50.055349]]]}},{"type":"Feature","id":"w80201977","properties":{"type":"yes","residential":true,"residents_est":19,"h3_10":"8a1e2e6854c7fff","h3_11":"8b1e2e6854c6fff"},"geometry":{"type":"Polygon","coordinates":[[[20.010302,50.056044],[20.010317,50.055871],[20.010926,50.055893],[20.010911,50.056066],[20.010302,50.056044]]]}},{"type":"Feature","id":"w80201978","properties":{"type":"yes","residential":true,"residents_est":2,"h3_10":"8a1e2e68548ffff","h3_11":"8b1e2e68548afff"},"geometry":{"type":"Polygon","coordinates":[[[20.007598,50.055333],[20.007604,50.055257],[20.00791,50.055266],[20.007905,50.055342],[20.007598,50.055333]]]}},{"type":"Feature","id":"w80201981","properties":{"type":"yes","residential":true,"residents_est":9,"h3_10":"8a1e2e6854d7fff","h3_11":"8b1e2e6854d1fff"},"geometry":{"type":"Polygon","coordinates":[[[20.010251,50.055348],[20.010263,50.055212],[20.010605,50.055224],[20.010593,50.05536],[20.010251,50.055348]]]}},{"type":"Feature","id":"w80201993","properties":{"type":"yes","residential":true,"residents_est":1,"h3_10":"8a1e2e6854c7fff","h3_11":"8b1e2e6854c1fff"},"geometry":{"type":"Polygon","coordinates":[[[20.011618,50.056081],[20.011621,50.056028],[20.011807,50.056032],[20.011804,50.056085],[20.011618,50.056081]]]}},{"type":"Feature","id":"w81026409","properties":{"type":"yes","residential":true,"residents_est":1,"h3_10":"8a1e2e68545ffff","h3_11":"8b1e2e685458fff"},"geometry":{"type":"Polygon","coordinates":[[[20.013999,50.057525],[20.014043,50.057473],[20.014138,50.057509],[20.014092,50.05756],[20.013999,50.057525]]]}},{"type":"Feature","id":"w81034015","properties":{"type":"yes","residential":true,"residents_est":15,"h3_10":"8a1e2e68549ffff","h3_11":"8b1e2e68549cfff"},"geometry":{"type":"Polygon","coordinates":[[[20.005745,50.055207],[20.005753,50.055088],[20.006473,50.055107],[20.006466,50.055225],[20.005745,50.055207]]]}},{"type":"Feature","id":"w81034017","properties":{"type":"yes","residential":true,"residents_est":1,"h3_10":"8a1e2e685497fff","h3_11":"8b1e2e685493fff"},"geometry":{"type":"Polygon","coordinates":[[[20.004884,50.054794],[20.00489,50.054689],[20.005,50.054691],[20.004994,50.054796],[20.004884,50.054794]]]}},{"type":"Feature","id":"w81034021","properties":{"type":"yes","residential":true,"residents_est":43,"h3_10":"8a1e2e685497fff","h3_11":"8b1e2e685490fff"},"geometry":{"type":"Polygon","coordinates":[[[20.004471,50.055386],[20.004485,50.055214],[20.00458,50.055217],[20.004595,50.055018],[20.004702,50.055021],[20.004696,50.055101],[20.005073,50.055113],[20.005064,50.055232],[20.005605,50.05525],[20.005595,50.055375],[20.005044,50.055357],[20.00504,50.055404],[20.004471,50.055386]]]}},{"type":"Feature","id":"w81034022","properties":{"type":"yes","residential":false,"residents_est":0,"h3_10":"8a1e2e6854b7fff","h3_11":"8b1e2e6854b2fff"},"geometry":{"type":"Polygon","coordinates":[[[20.004154,50.056047],[20.004158,50.056016],[20.004248,50.05602],[20.004243,50.056052],[20.004154,50.056047]]]}},{"type":"Feature","id":"w81034024","properties":{"type":"yes","residential":true,"residents_est":2,"h3_10":"8a1e2e685487fff","h3_11":"8b1e2e685483fff"},"geometry":{"type":"Polygon","coordinates":[[[20.006511,50.055425],[20.006516,50.055353],[20.006884,50.055364],[20.006879,50.055436],[20.006511,50.055425]]]}},{"type":"Feature","id":"w81034029","properties":{"type":"yes","address":"Skręcona 9A","residential":true,"residents_est":2,"h3_10":"8a1e2e685497fff","h3_11":"8b1e2e685494fff"},"geometry":{"type":"Polygon","coordinates":[[[20.004275,50.05572],[20.004288,50.05564],[20.004506,50.055654],[20.004493,50.055735],[20.004275,50.05572]]]}},{"type":"Feature","id":"w81034031","properties":{"type":"yes","residential":true,"residents_est":2,"h3_10":"8a1e2e68549ffff","h3_11":"8b1e2e68549cfff"},"geometry":{"type":"Polygon","coordinates":[[[20.006005,50.055419],[20.006016,50.05528],[20.006202,50.055286],[20.006191,50.055425],[20.006005,50.055419]]]}},{"type":"Feature","id":"w81034032","properties":{"type":"service","levels":2.0,"name":"EC Kraków","residential":false,"residents_est":0,"h3_10":"8a1e2e68549ffff","h3_11":"8b1e2e68549dfff"},"geometry":{"type":"Polygon","coordinates":[[[20.007011,50.055431],[20.007013,50.055386],[20.007116,50.055388],[20.007113,50.055433],[20.007011,50.055431]]]}},{"type":"Feature","id":"w81034037","properties":{"type":"yes","residential":true,"residents_est":1,"h3_10":"8a1e2e685497fff","h3_11":"8b1e2e685494fff"},"geometry":{"type":"Polygon","coordinates":[[[20.004393,50.055801],[20.004403,50.055739],[20.00449,50.055744],[20.00448,50.055806],[20.004393,50.055801]]]}},{"type":"Feature","id":"w81034038","properties":{"type":"yes","residential":true,"residents_est":1,"h3_10":"8a1e2e6854b7fff","h3_11":"8b1e2e6854b2fff"},"geometry":{"type":"Polygon","coordinates":[[[20.004144,50.055843],[20.004149,50.055799],[20.004276,50.055806],[20.004271,50.05585],[20.004144,50.055843]]]}},{"type":"Feature","id":"w81034041","properties":{"type":"yes","residential":true,"residents_est":2,"h3_10":"8a1e2e68549ffff","h3_11":"8b1e2e68549cfff"},"geometry":{"type":"Polygon","coordinates":[[[20.006265,50.055435],[20.006276,50.055295],[20.006457,50.0553],[20.006446,50.05544],[20.006265,50.055435]]]}},{"type":"Feature","id":"w81034043","properties":{"type":"yes","residential":true,"residents_est":3,"h3_10":"8a1e2e685497fff","h3_11":"8b1e2e685494fff"},"geometry":{"type":"Polygon","coordinates":[[[20.004513,50.055707],[20.004547,50.055666],[20.00488,50.055781],[20.004818,50.055855],[20.00452,50.055753],[20.004548,50.055719],[20.004513,50.055707]]]}},{"type":"Feature","id":"w81034070","properties":{"type":"yes","address":"Skręcona 9","residential":true,"residents_est":2,"h3_10":"8a1e2e6854b7fff","h3_11":"8b1e2e6854b2fff"},"geometry":{"type":"Polygon","coordinates":[[[20.00411,50.056013],[20.004133,50.055843],[20.004271,50.05585],[20.004248,50.05602],[20.00411,50.056013]]]}},{"type":"Feature","id":"w81034072","properties":{"type":"yes","residential":true,"residents_est":8,"h3_10":"8a1e2e6854b7fff","h3_11":"8b1e2e6854b0fff"},"geometry":{"type":"Polygon","coordinates":[[[20.004624,50.056242],[20.004633,50.056122],[20.005047,50.056135],[20.00504,50.056227],[20.004792,50.056219],[20.00479,50.056247],[20.004624,50.056242]]]}},{"type":"Feature","id":"w81034082","properties":{"type":"yes","residential":true,"residents_est":1,"h3_10":"8a1e2e6854b7fff","h3_11":"8b1e2e6854b2fff"},"geometry":{"type":"Polygon","coordinates":[[[20.004088,50.056114],[20.004094,50.056058],[20.004284,50.056066],[20.004278,50.056122],[20.004243,50.056121],[20.004241,50.056138],[20.004196,50.056136],[20.004198,50.056119],[20.004088,50.056114]]]}},{"type":"Feature","id":"w156791117","properties":{"type":"yes","residential":true,"residents_est":9,"h3_10":"8a1e2e685487fff","h3_11":"8b1e2e685482fff"},"geometry":{"type":"Polygon","coordinates":[[[20.005632,50.055685],[20.005641,50.05566],[20.00566,50.055638],[20.005687,50.05562],[20.005758,50.055598],[20.005797,50.055597],[20.005836,50.055601],[20.005902,50.055628],[20.005925,50.055649],[20.005939,50.055672],[20.005944,50.055703],[20.005925,50.055746],[20.005871,50.055782],[20.005797,50.055798],[20.005758,50.055796],[20.005687,50.055775],[20.00566,50.055756],[20.005641,50.055734],[20.005632,50.05571],[20.005632,50.055685]]]}},{"type":"Feature","id":"w161756870","properties":{"type":"yes","address":"Na Załęczu 27","residential":true,"residents_est":1,"h3_10":"8a1e2e685487fff","h3_11":"8b1e2e685485fff"},"geometry":{"type":"Polygon","coordinates":[[[20.006735,50.056522],[20.006791,50.056452],[20.006915,50.056492],[20.00686,50.056563],[20.006735,50.056522]]]}},{"type":"Feature","id":"w161756874","properties":{"type":"yes","address":"Skręcona 6","residential":true,"residents_est":1,"h3_10":"8a1e2e685487fff","h3_11":"8b1e2e685481fff"},"geometry":{"type":"Polygon","coordinates":[[[20.007038,50.05616],[20.007121,50.056058],[20.007233,50.056096],[20.0072,50.056136],[20.007214,50.056141],[20.007182,50.05618],[20.007168,50.056175],[20.00715,50.056197],[20.007038,50.05616]]]}},{"type":"Feature","id":"w161756875","properties":{"type":"detached","levels":1.0,"address":"Na Załęczu 25","residential":true,"residents_est":2,"h3_10":"8a1e2e6854affff","h3_11":"8b1e2e6854a8fff"},"geometry":{"type":"Polygon","coordinates":[[[20.007832,50.056741],[20.007848,50.056717],[20.007836,50.056713],[20.007914,50.056596],[20.008021,50.056626],[20.008011,50.056639],[20.008061,50.056654],[20.007988,50.056756],[20.00794,50.056743],[20.007919,50.056774],[20.007849,50.056755],[20.007854,50.056747],[20.007832,50.056741]]]}},{"type":"Feature","id":"w214318750","properties":{"type":"yes","levels":14.0,"residential":true,"residents_est":37,"h3_10":"8a1e2e68549ffff","h3_11":"8b1e2e68549afff"},"geometry":{"type":"Polygon","coordinates":[[[20.005804,50.054374],[20.005815,50.054348],[20.005835,50.054324],[20.005865,50.054304],[20.005941,50.054281],[20.005983,50.054279],[20.006025,50.054284],[20.006096,50.054313],[20.006121,50.054336],[20.006137,50.054361],[20.006142,50.054388],[20.006137,50.054415],[20.006121,50.054441],[20.006096,50.054463],[20.006025,50.054492],[20.005983,50.054497],[20.0059,50.054487],[20.005835,50.054452],[20.005815,50.054428],[20.005804,50.054402],[20.005804,50.054374]]]}},{"type":"Feature","id":"w242848311","properties":{"type":"industrial","residential":false,"residents_est":0,"h3_10":"8a1e2e685497fff","h3_11":"8b1e2e685492fff"},"geometry":{"type":"Polygon","coordinates":[[[20.004689,50.054751],[20.004706,50.054718],[20.00475,50.054697],[20.004804,50.054697],[20.004848,50.054718],[20.004865,50.054751],[20.004848,50.054784],[20.004804,50.054804],[20.004748,50.054804],[20.004706,50.054784],[20.004689,50.054751]]]}},{"type":"Feature","id":"w242848312","properties":{"type":"industrial","residential":false,"residents_est":0,"h3_10":"8a1e2e685497fff","h3_11":"8b1e2e685492fff"},"geometry":{"type":"Polygon","coordinates":[[[20.004461,50.054742],[20.004478,50.054708],[20.004522,50.054688],[20.004576,50.054688],[20.00462,50.054708],[20.004637,50.054742],[20.00462,50.054775],[20.004576,50.054795],[20.00452,50.054795],[20.004478,50.054775],[20.004461,50.054742]]]}},{"type":"Feature","id":"w329853261","properties":{"type":"yes","address":"Galicyjska 9","name":"Międzynarodowe Centrum Targowo-Kongresowe EXPO","residential":false,"residents_est":0,"h3_10":"8a1e2e68542ffff","h3_11":"8b1e2e68542cfff"},"geometry":{"type":"Polygon","coordinates":[[[20.009027,50.060252],[20.009103,50.059222],[20.010786,50.059275],[20.010754,50.059715],[20.010326,50.059702],[20.01033,50.059643],[20.010005,50.059633],[20.009999,50.059714],[20.009831,50.059709],[20.009827,50.059758],[20.009912,50.05976],[20.009905,50.059842],[20.010272,50.059853],[20.010276,50.059794],[20.010747,50.059808],[20.010743,50.059868],[20.010883,50.059872],[20.010887,50.059812],[20.011064,50.059818],[20.011063,50.059829],[20.01108,50.05983],[20.011048,50.060258],[20.009786,50.06022],[20.009782,50.060275],[20.009027,50.060252]]]}},{"type":"Feature","id":"w374060332","properties":{"type":"apartments","levels":8.0,"address":"Galicyjska 3D","residential":true,"residents_est":134,"h3_10":"8a1e2e68552ffff","h3_11":"8b1e2e68552afff"},"geometry":{"type":"Polygon","coordinates":[[[20.007389,50.061633],[20.007417,50.061262],[20.007406,50.061262],[20.007409,50.061211],[20.008583,50.061247],[20.008574,50.061356],[20.008416,50.061351],[20.008417,50.061337],[20.008392,50.061336],[20.008391,50.06135],[20.008185,50.061344],[20.008186,50.06133],[20.008174,50.061329],[20.008162,50.061329],[20.008161,50.061343],[20.007955,50.061337],[20.007956,50.061322],[20.007932,50.061322],[20.007931,50.061336],[20.007719,50.06133],[20.00772,50.061316],[20.007708,50.061315],[20.007697,50.061315],[20.007697,50.061329],[20.007645,50.061328],[20.007646,50.061314],[20.007603,50.061312],[20.007589,50.061475],[20.007567,50.061474],[20.007566,50.061482],[20.007566,50.061491],[20.007587,50.061492],[20.007577,50.061637],[20.007389,50.061633]]]}},{"type":"Feature","id":"w376024864","properties":{"type":"yes","residential":true,"residents_est":6,"h3_10":"8a1e2e685527fff","h3_11":"8b1e2e685524fff"},"geometry":{"type":"Polygon","coordinates":[[[20.005537,50.062539],[20.005547,50.062428],[20.005832,50.062438],[20.005822,50.06255],[20.005537,50.062539]]]}},{"type":"Feature","id":"w376024865","properties":{"type":"yes","residential":true,"residents_est":13,"h3_10":"8a1e2e685527fff","h3_11":"8b1e2e685526fff"},"geometry":{"type":"Polygon","coordinates":[[[20.004977,50.062245],[20.005014,50.0619],[20.005155,50.061906],[20.005153,50.061925],[20.005224,50.061928],[20.005196,50.062254],[20.005191,50.062254],[20.005192,50.062245],[20.005037,50.062236],[20.005036,50.062248],[20.004977,50.062245]]]}},{"type":"Feature","id":"w376024868","properties":{"type":"yes","levels":1.0,"residential":false,"residents_est":0,"h3_10":"8a1e2e685537fff","h3_11":"8b1e2e685535fff"},"geometry":{"type":"Polygon","coordinates":[[[20.004728,50.061817],[20.004732,50.061765],[20.004787,50.061766],[20.004782,50.061819],[20.004728,50.061817]]]}},{"type":"Feature","id":"w376024870","properties":{"type":"yes","levels":1.0,"residential":false,"residents_est":0,"h3_10":"8a1e2e685537fff","h3_11":"8b1e2e685535fff"},"geometry":{"type":"Polygon","coordinates":[[[20.005138,50.061837],[20.005141,50.06179],[20.005216,50.061792],[20.005213,50.061839],[20.005138,50.061837]]]}},{"type":"Feature","id":"w376024871","properties":{"type":"yes","levels":3.0,"residential":true,"residents_est":1,"h3_10":"8a1e2e685537fff","h3_11":"8b1e2e685530fff"},"geometry":{"type":"Polygon","coordinates":[[[20.004809,50.06167],[20.00482,50.061557],[20.004903,50.06156],[20.004893,50.061673],[20.004809,50.06167]]]}},{"type":"Feature","id":"w376024872","properties":{"type":"yes","levels":1.0,"residential":true,"residents_est":0,"h3_10":"8a1e2e685537fff","h3_11":"8b1e2e685530fff"},"geometry":{"type":"Polygon","coordinates":[[[20.004647,50.061593],[20.004652,50.061537],[20.004821,50.061543],[20.004816,50.061599],[20.004647,50.061593]]]}},{"type":"Feature","id":"w376024875","properties":{"type":"yes","levels":1.0,"residential":true,"residents_est":2,"h3_10":"8a1e2e685537fff","h3_11":"8b1e2e685533fff"},"geometry":{"type":"Polygon","coordinates":[[[20.004833,50.061209],[20.004838,50.061154],[20.005093,50.061165],[20.005077,50.061356],[20.004907,50.06135],[20.004918,50.061213],[20.004833,50.061209]]]}},{"type":"Feature","id":"w376024877","properties":{"type":"yes","levels":1.0,"residential":true,"residents_est":1,"h3_10":"8a1e2e685537fff","h3_11":"8b1e2e685535fff"},"geometry":{"type":"Polygon","coordinates":[[[20.004782,50.061819],[20.004787,50.061756],[20.004958,50.061762],[20.004953,50.061825],[20.004782,50.061819]]]}},{"type":"Feature","id":"w376024878","properties":{"type":"yes","levels":1.0,"residential":true,"residents_est":2,"h3_10":"8a1e2e685537fff","h3_11":"8b1e2e685532fff"},"geometry":{"type":"Polygon","coordinates":[[[20.004518,50.061216],[20.00453,50.061086],[20.004739,50.061094],[20.00473,50.061223],[20.004684,50.061222],[20.00468,50.061282],[20.00455,50.061279],[20.004555,50.061217],[20.004518,50.061216]]]}},{"type":"Feature","id":"w376024879","properties":{"type":"yes","name":"CubeCar","residential":true,"residents_est":6,"h3_10":"8a1e2e685537fff","h3_11":"8b1e2e685535fff"},"geometry":{"type":"Polygon","coordinates":[[[20.00477,50.062104],[20.004786,50.061913],[20.004959,50.061919],[20.004943,50.062111],[20.00477,50.062104]]]}},{"type":"Feature","id":"w394617836","properties":{"type":"commercial","residential":false,"residents_est":0,"h3_10":"8a1e2e685507fff","h3_11":"8b1e2e685506fff"},"geometry":{"type":"Polygon","coordinates":[[[20.005618,50.061455],[20.005626,50.061379],[20.005689,50.061381],[20.005702,50.061253],[20.005647,50.061251],[20.005659,50.061134],[20.005838,50.06114],[20.005809,50.061463],[20.005618,50.061455]]]}},{"type":"Feature","id":"w394617837","properties":{"type":"industrial","residential":false,"residents_est":0,"h3_10":"8a1e2e685527fff","h3_11":"8b1e2e685522fff"},"geometry":{"type":"Polygon","coordinates":[[[20.005577,50.06205],[20.005588,50.061941],[20.005759,50.061948],[20.005749,50.062057],[20.005577,50.06205]]]}},{"type":"Feature","id":"w394617838","properties":{"type":"industrial","residential":false,"residents_est":0,"h3_10":"8a1e2e685527fff","h3_11":"8b1e2e685526fff"},"geometry":{"type":"Polygon","coordinates":[[[20.005533,50.062266],[20.005542,50.062154],[20.005861,50.062167],[20.005849,50.062279],[20.005533,50.062266]]]}},{"type":"Feature","id":"w435768610","properties":{"type":"apartments","levels":6.0,"address":"Galicyjska 3E","residential":true,"residents_est":89,"h3_10":"8a1e2e685577fff","h3_11":"8b1e2e685576fff"},"geometry":{"type":"Polygon","coordinates":[[[20.008709,50.061361],[20.008718,50.061251],[20.00965,50.061281],[20.009618,50.061706],[20.009428,50.0617],[20.009452,50.061384],[20.008709,50.061361]]]}},{"type":"Feature","id":"w441853296","properties":{"type":"yes","residential":true,"residents_est":1,"h3_10":"8a1e2e685597fff","h3_11":"8b1e2e685593fff"},"geometry":{"type":"Polygon","coordinates":[[[20.00256,50.057353],[20.002635,50.057313],[20.002764,50.057411],[20.002689,50.057451],[20.00256,50.057353]]]}},{"type":"Feature","id":"w441853297","properties":{"type":"yes","residential":true,"residents_est":2,"h3_10":"8a1e2e685597fff","h3_11":"8b1e2e685593fff"},"geometry":{"type":"Polygon","coordinates":[[[20.002627,50.057307],[20.002694,50.05727],[20.002736,50.057269],[20.002847,50.057353],[20.002835,50.057377],[20.002767,50.057413],[20.002627,50.057307]]]}},{"type":"Feature","id":"w446315125","properties":{"type":"apartments","levels":8.0,"address":"Galicyjska 3B","residential":true,"residents_est":215,"h3_10":"8a1e2e68552ffff","h3_11":"8b1e2e68552cfff"},"geometry":{"type":"Polygon","coordinates":[[[20.007292,50.06235],[20.007318,50.062017],[20.007337,50.062018],[20.007339,50.062002],[20.00732,50.062001],[20.007331,50.06185],[20.007519,50.061856],[20.007508,50.062008],[20.007487,50.062007],[20.007485,50.062023],[20.007507,50.062024],[20.007485,50.062314],[20.007526,50.062315],[20.007526,50.062304],[20.007609,50.062307],[20.007608,50.062319],[20.00762,50.06232],[20.007631,50.06232],[20.007632,50.062308],[20.007843,50.062314],[20.007842,50.062327],[20.007866,50.062327],[20.007867,50.062315],[20.008073,50.062321],[20.008072,50.062333],[20.008084,50.062334],[20.008096,50.062334],[20.008097,50.062322],[20.008202,50.062325],[20.008201,50.062338],[20.008213,50.062339],[20.008225,50.062339],[20.008226,50.062326],[20.008232,50.062326],[20.008231,50.062337],[20.008273,50.062339],[20.008308,50.061866],[20.008497,50.061871],[20.008484,50.062039],[20.008464,50.062039],[20.008463,50.062052],[20.008483,50.062053],[20.008454,50.062443],[20.008322,50.062439],[20.008323,50.062426],[20.008301,50.062426],[20.0083,50.062438],[20.007984,50.062428],[20.007985,50.062416],[20.007963,50.062415],[20.007962,50.062427],[20.007753,50.062421],[20.007754,50.062409],[20.007743,50.062408],[20.007732,50.062408],[20.007731,50.06242],[20.007519,50.062414],[20.00752,50.062402],[20.007509,50.062401],[20.007498,50.062401],[20.007497,50.062413],[20.007307,50.062407],[20.007311,50.06235],[20.007292,50.06235]]]}},{"type":"Feature","id":"w625261698","properties":{"type":"yes","levels":2.0,"residential":true,"residents_est":2,"h3_10":"8a1e2e685537fff","h3_11":"8b1e2e685532fff"},"geometry":{"type":"Polygon","coordinates":[[[20.004378,50.06108],[20.00453,50.061086],[20.004518,50.061216],[20.004555,50.061217],[20.004549,50.06129],[20.004411,50.061284],[20.004424,50.061147],[20.004388,50.061144],[20.004378,50.06108]]]}},{"type":"Feature","id":"w713440270","properties":{"type":"yes","residential":true,"residents_est":1,"h3_10":"8a1e2e685527fff","h3_11":"8b1e2e685524fff"},"geometry":{"type":"Polygon","coordinates":[[[20.005716,50.062798],[20.005723,50.062731],[20.005812,50.062735],[20.005805,50.062802],[20.005716,50.062798]]]}},{"type":"Feature","id":"w713440284","properties":{"type":"yes","residential":false,"residents_est":0,"h3_10":"8a1e2e685587fff","h3_11":"8b1e2e685583fff"},"geometry":{"type":"Polygon","coordinates":[[[20.004052,50.058369],[20.004062,50.058306],[20.004119,50.05831],[20.004109,50.058372],[20.004052,50.058369]]]}},{"type":"Feature","id":"w713440285","properties":{"type":"yes","residential":true,"residents_est":1,"h3_10":"8a1e2e685587fff","h3_11":"8b1e2e685580fff"},"geometry":{"type":"Polygon","coordinates":[[[20.003919,50.058332],[20.004034,50.058325],[20.004041,50.058373],[20.003926,50.05838],[20.003919,50.058332]]]}},{"type":"Feature","id":"w713440286","properties":{"type":"yes","residential":false,"residents_est":0,"h3_10":"8a1e2e685587fff","h3_11":"8b1e2e685583fff"},"geometry":{"type":"Polygon","coordinates":[[[20.003944,50.058228],[20.003989,50.058178],[20.004051,50.058202],[20.003988,50.058269],[20.003963,50.058259],[20.003976,50.058242],[20.003944,50.058228]]]}},{"type":"Feature","id":"w713440287","properties":{"type":"yes","residential":true,"residents_est":1,"h3_10":"8a1e2e685587fff","h3_11":"8b1e2e685583fff"},"geometry":{"type":"Polygon","coordinates":[[[20.00386,50.058227],[20.003927,50.058154],[20.003989,50.058178],[20.003944,50.058228],[20.003976,50.058242],[20.003924,50.058302],[20.00386,50.058279],[20.003895,50.05824],[20.00386,50.058227]]]}},{"type":"Feature","id":"w713440288","properties":{"type":"yes","residential":true,"residents_est":1,"h3_10":"8a1e2e68559ffff","h3_11":"8b1e2e685598fff"},"geometry":{"type":"Polygon","coordinates":[[[20.00396,50.057284],[20.004045,50.057283],[20.004047,50.057385],[20.003961,50.057385],[20.00396,50.057284]]]}},{"type":"Feature","id":"w713440289","properties":{"type":"yes","residential":true,"residents_est":1,"h3_10":"8a1e2e68559ffff","h3_11":"8b1e2e685598fff"},"geometry":{"type":"Polygon","coordinates":[[[20.004176,50.057531],[20.004184,50.057465],[20.004299,50.05747],[20.004303,50.057435],[20.004372,50.057438],[20.004357,50.057565],[20.004289,50.057561],[20.004292,50.057537],[20.004176,50.057531]]]}},{"type":"Feature","id":"w713440290","properties":{"type":"yes","residential":true,"residents_est":1,"h3_10":"8a1e2e685587fff","h3_11":"8b1e2e685583fff"},"geometry":{"type":"Polygon","coordinates":[[[20.004153,50.058087],[20.004157,50.058038],[20.004234,50.058041],[20.004239,50.057991],[20.004307,50.057994],[20.004298,50.058092],[20.004153,50.058087]]]}},{"type":"Feature","id":"w713440293","properties":{"type":"yes","residential":true,"residents_est":7,"h3_10":"8a1e2e685507fff","h3_11":"8b1e2e685506fff"},"geometry":{"type":"Polygon","coordinates":[[[20.005809,50.061463],[20.005841,50.061106],[20.005952,50.061109],[20.005917,50.061468],[20.005809,50.061463]]]}},{"type":"Feature","id":"w713440294","properties":{"type":"yes","residential":true,"residents_est":1,"h3_10":"8a1e2e685537fff","h3_11":"8b1e2e685531fff"},"geometry":{"type":"Polygon","coordinates":[[[20.005618,50.061634],[20.005624,50.061563],[20.005799,50.061571],[20.005792,50.061641],[20.005618,50.061634]]]}},{"type":"Feature","id":"w713440295","properties":{"type":"yes","residential":true,"residents_est":2,"h3_10":"8a1e2e685527fff","h3_11":"8b1e2e685522fff"},"geometry":{"type":"Polygon","coordinates":[[[20.005604,50.061782],[20.005618,50.061634],[20.005792,50.061641],[20.005779,50.061788],[20.005604,50.061782]]]}},{"type":"Feature","id":"w713440296","properties":{"type":"yes","residential":true,"residents_est":3,"h3_10":"8a1e2e685527fff","h3_11":"8b1e2e685522fff"},"geometry":{"type":"Polygon","coordinates":[[[20.005588,50.061941],[20.005604,50.061782],[20.005779,50.061788],[20.005759,50.061948],[20.005588,50.061941]]]}},{"type":"Feature","id":"w713440298","properties":{"type":"yes","residential":false,"residents_est":0,"h3_10":"8a1e2e685527fff","h3_11":"8b1e2e685520fff"},"geometry":{"type":"Polygon","coordinates":[[[20.005782,50.062157],[20.005786,50.062129],[20.005859,50.062133],[20.005856,50.06216],[20.005782,50.062157]]]}},{"type":"Feature","id":"w713440299","properties":{"type":"yes","residential":true,"residents_est":1,"h3_10":"8a1e2e685527fff","h3_11":"8b1e2e685520fff"},"geometry":{"type":"Polygon","coordinates":[[[20.005775,50.062382],[20.005778,50.062292],[20.005836,50.062294],[20.005831,50.062384],[20.005775,50.062382]]]}},{"type":"Feature","id":"w713440300","properties":{"type":"yes","residential":false,"residents_est":0,"h3_10":"8a1e2e685527fff","h3_11":"8b1e2e685524fff"},"geometry":{"type":"Polygon","coordinates":[[[20.005774,50.062416],[20.005775,50.062382],[20.005831,50.062384],[20.00583,50.062418],[20.005774,50.062416]]]}},{"type":"Feature","id":"w713440303","properties":{"type":"yes","residential":false,"residents_est":0,"h3_10":"8a1e2e685527fff","h3_11":"8b1e2e685524fff"},"geometry":{"type":"Polygon","coordinates":[[[20.005536,50.062588],[20.00554,50.062558],[20.005602,50.06256],[20.005599,50.062591],[20.005536,50.062588]]]}},{"type":"Feature","id":"w713440304","properties":{"type":"yes","residential":true,"residents_est":1,"h3_10":"8a1e2e685527fff","h3_11":"8b1e2e685524fff"},"geometry":{"type":"Polygon","coordinates":[[[20.005492,50.06267],[20.0055,50.062584],[20.005599,50.062591],[20.005592,50.062674],[20.005492,50.06267]]]}},{"type":"Feature","id":"w713440305","properties":{"type":"yes","residential":true,"residents_est":7,"h3_10":"8a1e2e685527fff","h3_11":"8b1e2e685524fff"},"geometry":{"type":"Polygon","coordinates":[[[20.005588,50.062726],[20.005604,50.062542],[20.005822,50.06255],[20.005805,50.062734],[20.005588,50.062726]]]}},{"type":"Feature","id":"w713440317","properties":{"type":"yes","residential":true,"residents_est":2,"h3_10":"8a1e2e685527fff","h3_11":"8b1e2e685526fff"},"geometry":{"type":"Polygon","coordinates":[[[20.00521,50.062099],[20.005224,50.061928],[20.005345,50.061933],[20.00533,50.062102],[20.00521,50.062099]]]}},{"type":"Feature","id":"w713440318","properties":{"type":"yes","residential":true,"residents_est":2,"h3_10":"8a1e2e685527fff","h3_11":"8b1e2e685526fff"},"geometry":{"type":"Polygon","coordinates":[[[20.005196,50.062254],[20.00521,50.062099],[20.005357,50.062103],[20.005356,50.06211],[20.00533,50.062109],[20.005323,50.062189],[20.005365,50.06219],[20.005359,50.062262],[20.005196,50.062254]]]}},{"type":"Feature","id":"w722223714","properties":{"type":"apartments","levels":7.0,"address":"Romana Ciesielskiego 6","residential":true,"residents_est":211,"h3_10":"8a1e2e685567fff","h3_11":"8b1e2e685561fff"},"geometry":{"type":"Polygon","coordinates":[[[20.011437,50.062552],[20.011445,50.062443],[20.011465,50.062444],[20.011466,50.062427],[20.011446,50.062426],[20.011487,50.061874],[20.011677,50.06188],[20.011669,50.061988],[20.01165,50.061987],[20.011649,50.062001],[20.011668,50.062002],[20.011663,50.062069],[20.011644,50.062068],[20.011643,50.062076],[20.011643,50.062082],[20.011662,50.062083],[20.011652,50.062217],[20.011633,50.062216],[20.011632,50.06223],[20.011651,50.062231],[20.011642,50.06236],[20.011621,50.06236],[20.011618,50.06243],[20.011611,50.062429],[20.01161,50.062454],[20.011687,50.062455],[20.011687,50.062449],[20.011858,50.062453],[20.011858,50.062442],[20.012125,50.062449],[20.012124,50.062462],[20.012291,50.062467],[20.01229,50.062474],[20.012365,50.062476],[20.012369,50.062381],[20.012349,50.062381],[20.012358,50.062253],[20.012377,50.062253],[20.012379,50.06224],[20.012359,50.062239],[20.012369,50.062105],[20.012389,50.062105],[20.01239,50.062098],[20.01239,50.062091],[20.01237,50.062091],[20.012375,50.062024],[20.012395,50.062024],[20.012396,50.062016],[20.012396,50.06201],[20.012376,50.06201],[20.012383,50.061906],[20.012573,50.061913],[20.012532,50.06246],[20.012513,50.062459],[20.012512,50.062467],[20.012512,50.062476],[20.012531,50.062477],[20.012523,50.062585],[20.011437,50.062552]]]}},{"type":"Feature","id":"w722223717","properties":{"type":"apartments","levels":7.0,"address":"Romana Ciesielskiego 4B","residential":true,"residents_est":158,"h3_10":"8a1e2e685577fff","h3_11":"8b1e2e685571fff"},"geometry":{"type":"Polygon","coordinates":[[[20.010021,50.061745],[20.010036,50.061542],[20.010058,50.061543],[20.01006,50.061523],[20.010037,50.061522],[20.010041,50.061465],[20.010061,50.061466],[20.010073,50.061305],[20.010158,50.061308],[20.010159,50.061297],[20.010747,50.061319],[20.010815,50.061317],[20.011015,50.061324],[20.011014,50.061335],[20.01112,50.061338],[20.011085,50.061783],[20.010896,50.061778],[20.010904,50.061669],[20.010929,50.06167],[20.01093,50.061656],[20.010905,50.061655],[20.01091,50.061588],[20.010935,50.061589],[20.010937,50.061573],[20.010911,50.061572],[20.010921,50.061444],[20.010886,50.061443],[20.010888,50.061427],[20.010864,50.061426],[20.010862,50.061443],[20.010758,50.061439],[20.010759,50.061423],[20.010734,50.061422],[20.010733,50.061438],[20.010523,50.061432],[20.010524,50.061416],[20.010501,50.061415],[20.010499,50.061431],[20.010293,50.061425],[20.010294,50.061408],[20.01027,50.061408],[20.010269,50.061424],[20.010235,50.061423],[20.010226,50.06155],[20.010201,50.06155],[20.0102,50.061565],[20.010225,50.061566],[20.010219,50.061634],[20.010194,50.061633],[20.010193,50.061647],[20.010218,50.061648],[20.010211,50.061751],[20.010021,50.061745]]]}},{"type":"Feature","id":"w722223718","properties":{"type":"apartments","levels":7.0,"address":"Romana Ciesielskiego 6A","residential":true,"residents_est":162,"h3_10":"8a1e2e685547fff","h3_11":"8b1e2e685545fff"},"geometry":{"type":"Polygon","coordinates":[[[20.011494,50.061796],[20.011526,50.061351],[20.011631,50.061354],[20.011632,50.061343],[20.011901,50.061351],[20.012509,50.061371],[20.012509,50.061381],[20.012613,50.061385],[20.01258,50.061825],[20.01239,50.061819],[20.012398,50.061715],[20.012423,50.061716],[20.012424,50.061709],[20.012424,50.061702],[20.012399,50.061701],[20.012404,50.061634],[20.01243,50.061635],[20.012431,50.061619],[20.012405,50.061618],[20.012415,50.06149],[20.012382,50.061489],[20.012383,50.061472],[20.012358,50.061472],[20.012356,50.061488],[20.012151,50.061482],[20.012153,50.061466],[20.01214,50.061465],[20.012127,50.061465],[20.012126,50.061481],[20.011997,50.061478],[20.011998,50.061461],[20.011973,50.06146],[20.011971,50.061477],[20.011767,50.06147],[20.011768,50.061454],[20.011755,50.061453],[20.011743,50.061453],[20.011741,50.061469],[20.011708,50.061468],[20.011698,50.061596],[20.011673,50.061596],[20.011672,50.061611],[20.011697,50.061612],[20.011692,50.061679],[20.011667,50.061679],[20.011666,50.061693],[20.011691,50.061694],[20.011683,50.061802],[20.011494,50.061796]]]}},{"type":"Feature","id":"w722223720","properties":{"type":"apartments","address":"Romana Ciesielskiego 8A","residential":true,"residents_est":85,"h3_10":"8a1e2e68556ffff","h3_11":"8b1e2e685569fff"},"geometry":{"type":"Polygon","coordinates":[[[20.012779,50.061868],[20.012788,50.061748],[20.012945,50.061753],[20.012944,50.061767],[20.012973,50.061768],[20.012974,50.061754],[20.013099,50.061758],[20.013097,50.061772],[20.013127,50.061772],[20.013128,50.061759],[20.013224,50.061762],[20.013223,50.061776],[20.013253,50.061777],[20.013254,50.061763],[20.013503,50.061771],[20.013502,50.061784],[20.013532,50.061785],[20.013533,50.061772],[20.013629,50.061775],[20.013628,50.061789],[20.013657,50.061789],[20.013658,50.061781],[20.013685,50.061782],[20.013695,50.061772],[20.013686,50.061768],[20.013802,50.06165],[20.013821,50.061658],[20.013837,50.061642],[20.013818,50.061634],[20.01387,50.061582],[20.013889,50.06159],[20.013904,50.061574],[20.013886,50.061566],[20.013982,50.06147],[20.01407,50.061506],[20.014099,50.061475],[20.014172,50.061505],[20.013801,50.061875],[20.013726,50.061873],[20.013724,50.061897],[20.012779,50.061868]]]}},{"type":"Feature","id":"w801780539","properties":{"type":"farm_auxiliary","levels":1.0,"residential":false,"residents_est":0,"h3_10":"8a1e2e6854affff","h3_11":"8b1e2e6854a8fff"},"geometry":{"type":"Polygon","coordinates":[[[20.007547,50.056757],[20.007581,50.056715],[20.007728,50.056765],[20.007695,50.056807],[20.007547,50.056757]]]}},{"type":"Feature","id":"w991931100","properties":{"type":"retail","levels":1.0,"address":"Galicyjska 10","name":"Designer Outlet Kraków","residential":false,"residents_est":0,"h3_10":"8a1e2e68551ffff","h3_11":"8b1e2e68551efff"},"geometry":{"type":"Polygon","coordinates":[[[20.004421,50.059957],[20.004809,50.05993],[20.004818,50.059988],[20.004859,50.05999],[20.004874,50.059974],[20.004895,50.059972],[20.004912,50.059979],[20.004918,50.059992],[20.004958,50.059994],[20.004962,50.059956],[20.005715,50.059988],[20.005712,50.060016],[20.005768,50.060019],[20.005812,50.059597],[20.005908,50.059532],[20.0059,50.059524],[20.005907,50.059506],[20.005923,50.0595],[20.005951,50.059504],[20.006053,50.059435],[20.006066,50.059305],[20.007201,50.059352],[20.007178,50.059574],[20.007185,50.059575],[20.007183,50.059589],[20.00707,50.059597],[20.007067,50.059625],[20.007088,50.059633],[20.007094,50.059648],[20.007085,50.059659],[20.007063,50.059664],[20.007058,50.05972],[20.007086,50.059728],[20.007127,50.059773],[20.007142,50.0598],[20.007149,50.059845],[20.007139,50.05993],[20.007148,50.05993],[20.007147,50.059941],[20.007141,50.059941],[20.007067,50.060652],[20.006992,50.060648],[20.006988,50.060684],[20.006978,50.060777],[20.007053,50.06078],[20.007036,50.060942],[20.005856,50.060891],[20.00586,50.060853],[20.005691,50.060846],[20.005691,50.060884],[20.005683,50.060884],[20.00457,50.060836],[20.004421,50.059957]]]}},{"type":"Feature","id":"w991931101","properties":{"type":"retail","levels":1.0,"address":"Galicyjska 16","name":"Atut Galicyjska","residential":false,"residents_est":0,"h3_10":"8a1e2e685437fff","h3_11":"8b1e2e685432fff"},"geometry":{"type":"Polygon","coordinates":[[[20.006066,50.059305],[20.006147,50.058512],[20.006292,50.058516],[20.006295,50.058487],[20.006151,50.058481],[20.006179,50.058229],[20.007238,50.058274],[20.007228,50.058375],[20.007142,50.058371],[20.007128,50.05851],[20.006835,50.058497],[20.006749,50.059335],[20.006066,50.059305]]]}},{"type":"Feature","id":"w991931103","properties":{"type":"retail","levels":1.0,"address":"Galicyjska 18","name":"Atut Galicyjska","residential":false,"residents_est":0,"h3_10":"8a1e2e6854a7fff","h3_11":"8b1e2e6854a1fff"},"geometry":{"type":"Polygon","coordinates":[[[20.004798,50.057373],[20.004843,50.056929],[20.005122,50.056941],[20.00513,50.056866],[20.00661,50.056929],[20.006594,50.057078],[20.007633,50.057123],[20.007624,50.057223],[20.008275,50.057251],[20.008247,50.057521],[20.004798,50.057373]]]}},{"type":"Feature","id":"w1033994202","properties":{"type":"yes","residential":true,"residents_est":21,"h3_10":"8a1e2e68554ffff","h3_11":"8b1e2e685548fff"},"geometry":{"type":"Polygon","coordinates":[[[20.013161,50.060898],[20.013187,50.060626],[20.013616,50.060644],[20.013589,50.060915],[20.013161,50.060898]]]}},{"type":"Feature","id":"w1033994203","properties":{"type":"yes","residential":true,"residents_est":15,"h3_10":"8a1e2e68556ffff","h3_11":"8b1e2e68556bfff"},"geometry":{"type":"Polygon","coordinates":[[[20.01295,50.061347],[20.012963,50.061207],[20.013553,50.061229],[20.013541,50.061369],[20.01295,50.061347]]]}},{"type":"Feature","id":"w1038785965","properties":{"type":"outbuilding","levels":1.0,"residential":false,"residents_est":0,"h3_10":"8a1e2e68545ffff","h3_11":"8b1e2e685459fff"},"geometry":{"type":"Polygon","coordinates":[[[20.015014,50.057439],[20.015045,50.057366],[20.015149,50.057384],[20.015119,50.057457],[20.015014,50.057439]]]}},{"type":"Feature","id":"w1038785966","properties":{"type":"yes","levels":1.0,"residential":true,"residents_est":0,"h3_10":"8a1e2e68545ffff","h3_11":"8b1e2e685459fff"},"geometry":{"type":"Polygon","coordinates":[[[20.014788,50.057288],[20.014806,50.057253],[20.015009,50.057292],[20.014991,50.057328],[20.014788,50.057288]]]}},{"type":"Feature","id":"w1038785973","properties":{"type":"garage","levels":1.0,"residential":false,"residents_est":0,"h3_10":"8a1e2e685537fff","h3_11":"8b1e2e685535fff"},"geometry":{"type":"Polygon","coordinates":[[[20.00461,50.06189],[20.004786,50.061897],[20.004784,50.061918],[20.004698,50.061915],[20.004701,50.061939],[20.00462,50.061947],[20.00461,50.06189]]]}},{"type":"Feature","id":"w1038785983","properties":{"type":"warehouse","levels":1.0,"residential":false,"residents_est":0,"h3_10":"8a1e2e685527fff","h3_11":"8b1e2e685526fff"},"geometry":{"type":"Polygon","coordinates":[[[20.005112,50.062437],[20.005124,50.062317],[20.005317,50.062324],[20.005313,50.062362],[20.005201,50.062357],[20.005192,50.062441],[20.005112,50.062437]]]}},{"type":"Feature","id":"w1038786000","properties":{"type":"outbuilding","levels":1.0,"residential":false,"residents_est":0,"h3_10":"8a1e2e68542ffff","h3_11":"8b1e2e68542bfff"},"geometry":{"type":"Polygon","coordinates":[[[20.010648,50.059066],[20.010666,50.058841],[20.010805,50.058845],[20.010787,50.059071],[20.010648,50.059066]]]}},{"type":"Feature","id":"w1038786033","properties":{"type":"outbuilding","levels":1.0,"residential":false,"residents_est":0,"h3_10":"8a1e2e68549ffff","h3_11":"8b1e2e68549bfff"},"geometry":{"type":"Polygon","coordinates":[[[20.007137,50.054544],[20.007139,50.054516],[20.007351,50.054523],[20.007349,50.054551],[20.007137,50.054544]]]}},{"type":"Feature","id":"w1038786069","properties":{"type":"detached","levels":1.0,"residential":true,"residents_est":1,"h3_10":"8a1e2e68544ffff","h3_11":"8b1e2e68544afff"},"geometry":{"type":"Polygon","coordinates":[[[20.015371,50.058007],[20.015399,50.057949],[20.015509,50.057971],[20.015479,50.058032],[20.015411,50.058018],[20.015407,50.058027],[20.015388,50.058023],[20.015393,50.058012],[20.015371,50.058007]]]}},{"type":"Feature","id":"w1038786070","properties":{"type":"detached","levels":1.0,"residential":true,"residents_est":1,"h3_10":"8a1e2e68544ffff","h3_11":"8b1e2e68544bfff"},"geometry":{"type":"Polygon","coordinates":[[[20.01577,50.057883],[20.015816,50.057791],[20.015877,50.057803],[20.015831,50.057895],[20.01577,50.057883]]]}},{"type":"Feature","id":"w1038786074","properties":{"type":"detached","levels":1.0,"residential":true,"residents_est":1,"h3_10":"8a1e2e68544ffff","h3_11":"8b1e2e68544afff"},"geometry":{"type":"Polygon","coordinates":[[[20.015155,50.057966],[20.015187,50.057907],[20.015293,50.05793],[20.015262,50.057989],[20.015155,50.057966]]]}},{"type":"Feature","id":"w1038786075","properties":{"type":"detached","levels":1.0,"residential":true,"residents_est":1,"h3_10":"8a1e2e68544ffff","h3_11":"8b1e2e68544afff"},"geometry":{"type":"Polygon","coordinates":[[[20.014868,50.05792],[20.014906,50.057843],[20.014917,50.057845],[20.014923,50.057833],[20.014979,50.057844],[20.01497,50.057863],[20.015023,50.057873],[20.014986,50.057944],[20.014868,50.05792]]]}},{"type":"Feature","id":"w1038786077","properties":{"type":"detached","levels":1.0,"residential":true,"residents_est":1,"h3_10":"8a1e2e68545ffff","h3_11":"8b1e2e68545dfff"},"geometry":{"type":"Polygon","coordinates":[[[20.014524,50.057852],[20.014561,50.057776],[20.014709,50.057807],[20.014672,50.057883],[20.014524,50.057852]]]}},{"type":"Feature","id":"w1038786078","properties":{"type":"detached","levels":2.0,"residential":true,"residents_est":2,"h3_10":"8a1e2e68545ffff","h3_11":"8b1e2e685459fff"},"geometry":{"type":"Polygon","coordinates":[[[20.014667,50.057516],[20.014697,50.057449],[20.014836,50.057476],[20.014804,50.057542],[20.014667,50.057516]]]}},{"type":"Feature","id":"w1038786161","properties":{"type":"yes","levels":1.0,"address":"Galicyjska 9","name":"MazMoto Szkoła Motocyklistów","residential":false,"residents_est":0,"h3_10":"8a1e2e685477fff","h3_11":"8b1e2e685476fff"},"geometry":{"type":"Polygon","coordinates":[[[20.010914,50.059057],[20.010918,50.059004],[20.011143,50.059011],[20.011139,50.059064],[20.010914,50.059057]]]}},{"type":"Feature","id":"w1038786295","properties":{"type":"garage","levels":1.0,"residential":false,"residents_est":0,"h3_10":"8a1e2e685537fff","h3_11":"8b1e2e685533fff"},"geometry":{"type":"Polygon","coordinates":[[[20.005061,50.061122],[20.005066,50.061073],[20.005153,50.061076],[20.005149,50.061126],[20.005061,50.061122]]]}},{"type":"Feature","id":"w1038786303","properties":{"type":"yes","levels":1.0,"residential":true,"residents_est":0,"h3_10":"8a1e2e685537fff","h3_11":"8b1e2e685530fff"},"geometry":{"type":"Polygon","coordinates":[[[20.004767,50.06138],[20.004776,50.061273],[20.004831,50.061274],[20.004822,50.061381],[20.004767,50.06138]]]}},{"type":"Feature","id":"w1038786304","properties":{"type":"outbuilding","levels":1.0,"residential":false,"residents_est":0,"h3_10":"8a1e2e6854b7fff","h3_11":"8b1e2e6854b3fff"},"geometry":{"type":"Polygon","coordinates":[[[20.005128,50.055997],[20.005212,50.055941],[20.005376,50.056042],[20.005292,50.056098],[20.005128,50.055997]]]}},{"type":"Feature","id":"w1038786326","properties":{"type":"outbuilding","levels":1.0,"residential":false,"residents_est":0,"h3_10":"8a1e2e68548ffff","h3_11":"8b1e2e68548bfff"},"geometry":{"type":"Polygon","coordinates":[[[20.008027,50.055255],[20.008036,50.055146],[20.008157,50.055151],[20.008148,50.055259],[20.008027,50.055255]]]}},{"type":"Feature","id":"w1038786363","properties":{"type":"outbuilding","levels":1.0,"residential":false,"residents_est":0,"h3_10":"8a1e2e6854d7fff","h3_11":"8b1e2e6854d6fff"},"geometry":{"type":"Polygon","coordinates":[[[20.008816,50.055379],[20.008823,50.055295],[20.009074,50.055303],[20.009067,50.055388],[20.008816,50.055379]]]}},{"type":"Feature","id":"w1038786365","properties":{"type":"outbuilding","levels":1.0,"residential":false,"residents_est":0,"h3_10":"8a1e2e68548ffff","h3_11":"8b1e2e68548afff"},"geometry":{"type":"Polygon","coordinates":[[[20.007657,50.055197],[20.007666,50.055095],[20.0079,50.055103],[20.007891,50.055206],[20.007657,50.055197]]]}},{"type":"Feature","id":"w1038786368","properties":{"type":"outbuilding","levels":1.0,"residential":false,"residents_est":0,"h3_10":"8a1e2e6854d7fff","h3_11":"8b1e2e6854d6fff"},"geometry":{"type":"Polygon","coordinates":[[[20.00896,50.055157],[20.008966,50.055087],[20.009394,50.055102],[20.009388,50.055172],[20.00896,50.055157]]]}},{"type":"Feature","id":"w1038786378","properties":{"type":"outbuilding","levels":1.0,"residential":false,"residents_est":0,"h3_10":"8a1e2e68548ffff","h3_11":"8b1e2e685489fff"},"geometry":{"type":"Polygon","coordinates":[[[20.008247,50.055819],[20.00826,50.055656],[20.009544,50.055703],[20.009536,50.055803],[20.009471,50.0558],[20.009469,50.055828],[20.009205,50.055819],[20.009207,50.055791],[20.009164,50.05579],[20.009159,50.055851],[20.008247,50.055819]]]}},{"type":"Feature","id":"w1120599979","properties":{"type":"apartments","levels":8.0,"address":"Romana Ciesielskiego 4","residential":true,"residents_est":136,"h3_10":"8a1e2e685567fff","h3_11":"8b1e2e685566fff"},"geometry":{"type":"Polygon","coordinates":[[[20.009966,50.062505],[20.009981,50.062251],[20.010173,50.062251],[20.010162,50.062382],[20.010845,50.062405],[20.010855,50.062277],[20.011046,50.062282],[20.011028,50.06254],[20.009966,50.062505]]]}},{"type":"Feature","id":"w1120599980","properties":{"type":"apartments","levels":8.0,"address":"Romana Ciesielskiego 4A","residential":true,"residents_est":62,"h3_10":"8a1e2e685577fff","h3_11":"8b1e2e685575fff"},"geometry":{"type":"Polygon","coordinates":[[[20.009981,50.062251],[20.010015,50.061813],[20.010214,50.061819],[20.010173,50.062251],[20.009981,50.062251]]]}},{"type":"Feature","id":"w1120599981","properties":{"type":"apartments","levels":8.0,"address":"Romana Ciesielskiego 4A","residential":true,"residents_est":62,"h3_10":"8a1e2e685567fff","h3_11":"8b1e2e685560fff"},"geometry":{"type":"Polygon","coordinates":[[[20.010855,50.062277],[20.010894,50.061835],[20.011087,50.061842],[20.011046,50.062282],[20.010855,50.062277]]]}},{"type":"Feature","id":"w1169733896","properties":{"type":"yes","residential":true,"residents_est":18,"h3_10":"8a1e2e68549ffff","h3_11":"8b1e2e68549dfff"},"geometry":{"type":"Polygon","coordinates":[[[20.006591,50.055233],[20.006603,50.055104],[20.007365,50.055132],[20.007353,50.055262],[20.006591,50.055233]]]}},{"type":"Feature","id":"w1190378592","properties":{"type":"retail","address":"Galicyjska 8","name":"Kaufland","residential":false,"residents_est":0,"h3_10":"8a1e2e685527fff","h3_11":"8b1e2e685523fff"},"geometry":{"type":"Polygon","coordinates":[[[20.00603,50.06207],[20.006098,50.061341],[20.00604,50.061338],[20.006051,50.061213],[20.006856,50.061245],[20.006838,50.061443],[20.007035,50.06145],[20.00703,50.061507],[20.006832,50.061499],[20.006779,50.062052],[20.006719,50.062087],[20.006583,50.062081],[20.006581,50.062091],[20.00603,50.06207]]]}},{"type":"Feature","id":"w1218990496","properties":{"type":"yes","residential":true,"residents_est":29,"h3_10":"8a1e2e6854f7fff","h3_11":"8b1e2e6854f1fff"},"geometry":{"type":"Polygon","coordinates":[[[20.009471,50.056436],[20.009564,50.05627],[20.010416,50.056466],[20.010324,50.056634],[20.009471,50.056436]]]}},{"type":"Feature","id":"w1218990497","properties":{"type":"yes","residential":true,"residents_est":29,"h3_10":"8a1e2e6854e7fff","h3_11":"8b1e2e6854e3fff"},"geometry":{"type":"Polygon","coordinates":[[[20.01059,50.056694],[20.010685,50.056528],[20.011537,50.056725],[20.011444,50.056891],[20.01059,50.056694]]]}},{"type":"Feature","id":"w1218990498","properties":{"type":"yes","residential":true,"residents_est":9,"h3_10":"8a1e2e6854c7fff","h3_11":"8b1e2e6854c5fff"},"geometry":{"type":"Polygon","coordinates":[[[20.011248,50.056465],[20.011342,50.056297],[20.011604,50.056357],[20.01151,50.056525],[20.011248,50.056465]]]}},{"type":"Feature","id":"w1218990499","properties":{"type":"yes","residential":true,"residents_est":1,"h3_10":"8a1e2e6854c7fff","h3_11":"8b1e2e6854c4fff"},"geometry":{"type":"Polygon","coordinates":[[[20.010854,50.056374],[20.0109,50.056291],[20.011031,50.056321],[20.010984,50.056404],[20.010854,50.056374]]]}},{"type":"Feature","id":"w1218990500","properties":{"type":"yes","residential":true,"residents_est":43,"h3_10":"8a1e2e6854effff","h3_11":"8b1e2e6854eefff"},"geometry":{"type":"Polygon","coordinates":[[[20.011948,50.056851],[20.012445,50.05631],[20.012769,50.056433],[20.012272,50.056974],[20.011948,50.056851]]]}},{"type":"Feature","id":"w1218990501","properties":{"type":"yes","residential":true,"residents_est":96,"h3_10":"8a1e2e6854effff","h3_11":"8b1e2e6854edfff"},"geometry":{"type":"Polygon","coordinates":[[[20.012513,50.057066],[20.013009,50.056525],[20.01373,50.0568],[20.013233,50.057341],[20.012513,50.057066]]]}},{"type":"Feature","id":"w1218990502","properties":{"type":"yes","residential":true,"residents_est":3,"h3_10":"8a1e2e68545ffff","h3_11":"8b1e2e68545afff"},"geometry":{"type":"Polygon","coordinates":[[[20.01377,50.05711],[20.013948,50.056917],[20.014067,50.056963],[20.01389,50.057156],[20.01377,50.05711]]]}},{"type":"Feature","id":"w1218990505","properties":{"type":"yes","residential":true,"residents_est":3,"h3_10":"8a1e2e6854effff","h3_11":"8b1e2e6854ebfff"},"geometry":{"type":"Polygon","coordinates":[[[20.013251,50.056423],[20.013336,50.056331],[20.013576,50.056422],[20.013491,50.056515],[20.013251,50.056423]]]}},{"type":"Feature","id":"w1222045075","properties":{"type":"commercial","address":"Galicyjska 4","residential":false,"residents_est":0,"h3_10":"8a1e2e685527fff","h3_11":"8b1e2e685525fff"},"geometry":{"type":"Polygon","coordinates":[[[20.006075,50.062755],[20.006089,50.062602],[20.006577,50.062621],[20.00657,50.062699],[20.006547,50.062697],[20.006538,50.062773],[20.006075,50.062755]]]}},{"type":"Feature","id":"w1295054290","properties":{"type":"service","residential":false,"residents_est":0,"h3_10":"8a1e2e6855a7fff","h3_11":"8b1e2e6855a6fff"},"geometry":{"type":"Polygon","coordinates":[[[20.002765,50.059732],[20.002808,50.059729],[20.002817,50.059783],[20.002773,50.059786],[20.002765,50.059732]]]}},{"type":"Feature","id":"w1318783598","properties":{"type":"apartments","levels":8.0,"address":"Romana Ciesielskiego 18","residential":true,"residents_est":184,"h3_10":"8a1e2e68555ffff","h3_11":"8b1e2e685559fff"},"geometry":{"type":"Polygon","coordinates":[[[20.01167,50.060142],[20.01168,50.060005],[20.011694,50.060006],[20.011696,50.059984],[20.011682,50.059984],[20.011684,50.059956],[20.011699,50.059957],[20.011703,50.059899],[20.011689,50.059898],[20.0117,50.059755],[20.012764,50.059788],[20.012731,50.060222],[20.012533,50.060216],[20.012536,50.060178],[20.012514,50.060177],[20.012521,50.060087],[20.012542,50.060088],[20.012546,50.06004],[20.012524,50.060039],[20.012525,50.060033],[20.012556,50.060034],[20.012566,50.059903],[20.011879,50.059882],[20.011866,50.06006],[20.011896,50.060061],[20.011886,50.060186],[20.011688,50.06018],[20.011691,50.060142],[20.01167,50.060142]]]}},{"type":"Feature","id":"r18489494","properties":{"type":"apartments","address":"Romana Ciesielskiego 24","residential":true,"residents_est":211,"h3_10":"8a1e2e685477fff","h3_11":"8b1e2e685475fff"},"geometry":{"type":"Polygon","coordinates":[[[20.011725,50.059432],[20.011782,50.058688],[20.012844,50.058721],[20.012788,50.059466],[20.011725,50.059432]],[[20.011947,50.058988],[20.011979,50.058989],[20.011951,50.059327],[20.012041,50.059329],[20.012042,50.059321],[20.012277,50.059328],[20.012276,50.059337],[20.012335,50.059339],[20.012336,50.05933],[20.012472,50.059334],[20.012472,50.059343],[20.012578,50.059347],[20.012604,50.05901],[20.012634,50.059011],[20.012647,50.058836],[20.01196,50.058815],[20.011947,50.058988]]]}},{"type":"Feature","id":"w1374430940","properties":{"type":"roof","residential":false,"residents_est":0,"h3_10":"8a1e2e6855affff","h3_11":"8b1e2e6855adfff"},"geometry":{"type":"Polygon","coordinates":[[[20.005812,50.059597],[20.005834,50.059369],[20.006059,50.059378],[20.006053,50.059435],[20.005951,50.059504],[20.005923,50.0595],[20.005907,50.059506],[20.0059,50.059524],[20.005908,50.059532],[20.005812,50.059597]]]}},{"type":"Feature","id":"w1374430941","properties":{"type":"roof","residential":false,"residents_est":0,"h3_10":"8a1e2e685517fff","h3_11":"8b1e2e685512fff"},"geometry":{"type":"Polygon","coordinates":[[[20.004812,50.059951],[20.004962,50.059956],[20.004958,50.059994],[20.004918,50.059992],[20.004912,50.059979],[20.004895,50.059972],[20.004874,50.059974],[20.004859,50.05999],[20.004818,50.059988],[20.004812,50.059951]]]}},{"type":"Feature","id":"w1376133377","properties":{"type":"roof","residential":false,"residents_est":0,"h3_10":"8a1e2e68551ffff","h3_11":"8b1e2e68551bfff"},"geometry":{"type":"Polygon","coordinates":[[[20.007058,50.05972],[20.007063,50.059664],[20.007085,50.059659],[20.007094,50.059648],[20.007088,50.059633],[20.007067,50.059625],[20.00707,50.059597],[20.007183,50.059589],[20.007149,50.059827],[20.007127,50.059773],[20.007086,50.059728],[20.007058,50.05972]]]}},{"type":"Feature","id":"w1376133378","properties":{"type":"roof","residential":false,"residents_est":0,"h3_10":"8a1e2e685507fff","h3_11":"8b1e2e685502fff"},"geometry":{"type":"Polygon","coordinates":[[[20.005691,50.060884],[20.005691,50.060846],[20.00586,50.060853],[20.005856,50.060891],[20.005691,50.060884]]]}},{"type":"Feature","id":"w1376133380","properties":{"type":"roof","residential":false,"residents_est":0,"h3_10":"8a1e2e685507fff","h3_11":"8b1e2e685503fff"},"geometry":{"type":"Polygon","coordinates":[[[20.006978,50.060777],[20.006992,50.060648],[20.007067,50.060652],[20.007053,50.06078],[20.006978,50.060777]]]}},{"type":"Feature","id":"w1384770540","properties":{"type":"service","residential":false,"residents_est":0,"h3_10":"8a1e2e6854effff","h3_11":"8b1e2e6854ebfff"},"geometry":{"type":"Polygon","coordinates":[[[20.012908,50.056334],[20.012929,50.05631],[20.013028,50.056348],[20.013006,50.056371],[20.012908,50.056334]]]}},{"type":"Feature","id":"w1388091607","properties":{"type":"service","residential":false,"residents_est":0,"h3_10":"8a1e2e68552ffff","h3_11":"8b1e2e685528fff"},"geometry":{"type":"Polygon","coordinates":[[[20.00811,50.061867],[20.008113,50.061823],[20.008161,50.061824],[20.008159,50.061868],[20.00811,50.061867]]]}},{"type":"Feature","id":"w1388091608","properties":{"type":"service","residential":false,"residents_est":0,"h3_10":"8a1e2e68552ffff","h3_11":"8b1e2e685528fff"},"geometry":{"type":"Polygon","coordinates":[[[20.007669,50.061853],[20.007671,50.061808],[20.007723,50.061809],[20.00772,50.061854],[20.007669,50.061853]]]}},{"type":"Feature","id":"w1388091610","properties":{"type":"yes","residential":false,"residents_est":0,"h3_10":"8a1e2e68552ffff","h3_11":"8b1e2e685529fff"},"geometry":{"type":"Polygon","coordinates":[[[20.008389,50.06169],[20.008392,50.061662],[20.008485,50.061665],[20.008483,50.061693],[20.008389,50.06169]]]}},{"type":"Feature","id":"w1389283855","properties":{"type":"roof","residential":false,"residents_est":0,"h3_10":"8a1e2e68558ffff","h3_11":"8b1e2e68558dfff"},"geometry":{"type":"Polygon","coordinates":[[[20.006148,50.058509],[20.006151,50.058481],[20.006295,50.058487],[20.006292,50.058516],[20.006148,50.058509]]]}},{"type":"Feature","id":"w1394026072","properties":{"type":"container","levels":1.0,"residential":false,"residents_est":0,"h3_10":"8a1e2e685417fff","h3_11":"8b1e2e685411fff"},"geometry":{"type":"Polygon","coordinates":[[[20.008331,50.057693],[20.008338,50.057619],[20.0084,50.057622],[20.008393,50.057695],[20.008331,50.057693]]]}},{"type":"Feature","id":"w1429468733","properties":{"type":"service","residential":false,"residents_est":0,"h3_10":"8a1e2e685567fff","h3_11":"8b1e2e685562fff"},"geometry":{"type":"Polygon","coordinates":[[[20.010639,50.061763],[20.010642,50.061731],[20.010711,50.061733],[20.010708,50.061765],[20.010639,50.061763]]]}},{"type":"Feature","id":"w1429468734","properties":{"type":"service","residential":false,"residents_est":0,"h3_10":"8a1e2e685567fff","h3_11":"8b1e2e685562fff"},"geometry":{"type":"Polygon","coordinates":[[[20.0104,50.061755],[20.010403,50.061723],[20.010472,50.061725],[20.010469,50.061758],[20.0104,50.061755]]]}},{"type":"Feature","id":"w1429468735","properties":{"type":"service","residential":false,"residents_est":0,"h3_10":"8a1e2e685567fff","h3_11":"8b1e2e685562fff"},"geometry":{"type":"Polygon","coordinates":[[[20.010393,50.061852],[20.010396,50.061819],[20.010464,50.061822],[20.010462,50.061854],[20.010393,50.061852]]]}},{"type":"Feature","id":"w1429468736","properties":{"type":"service","residential":false,"residents_est":0,"h3_10":"8a1e2e685567fff","h3_11":"8b1e2e685562fff"},"geometry":{"type":"Polygon","coordinates":[[[20.01066,50.061861],[20.010662,50.061829],[20.010731,50.061831],[20.010728,50.061863],[20.01066,50.061861]]]}},{"type":"Feature","id":"w1429468776","properties":{"type":"service","residential":false,"residents_est":0,"h3_10":"8a1e2e68556ffff","h3_11":"8b1e2e68556efff"},"geometry":{"type":"Polygon","coordinates":[[[20.012128,50.06181],[20.012131,50.061778],[20.012199,50.06178],[20.012196,50.061812],[20.012128,50.06181]]]}},{"type":"Feature","id":"w1429468777","properties":{"type":"service","residential":false,"residents_est":0,"h3_10":"8a1e2e68556ffff","h3_11":"8b1e2e68556efff"},"geometry":{"type":"Polygon","coordinates":[[[20.01212,50.061906],[20.012123,50.061873],[20.012192,50.061875],[20.012189,50.061908],[20.01212,50.061906]]]}},{"type":"Feature","id":"w1429468778","properties":{"type":"service","residential":false,"residents_est":0,"h3_10":"8a1e2e68556ffff","h3_11":"8b1e2e68556efff"},"geometry":{"type":"Polygon","coordinates":[[[20.011872,50.061898],[20.011874,50.061866],[20.011943,50.061868],[20.011941,50.061901],[20.011872,50.061898]]]}},{"type":"Feature","id":"w1429468779","properties":{"type":"service","residential":false,"residents_est":0,"h3_10":"8a1e2e68556ffff","h3_11":"8b1e2e68556efff"},"geometry":{"type":"Polygon","coordinates":[[[20.011878,50.061802],[20.011881,50.061769],[20.011949,50.061772],[20.011946,50.061804],[20.011878,50.061802]]]}},{"type":"Feature","id":"w1429792765","properties":{"type":"yes","residential":false,"residents_est":0,"h3_10":"8a1e2e68544ffff","h3_11":"8b1e2e685449fff"},"geometry":{"type":"Polygon","coordinates":[[[20.016198,50.058163],[20.016214,50.058118],[20.016297,50.058133],[20.016279,50.058177],[20.016198,50.058163]]]}},{"type":"Feature","id":"w1449991431","properties":{"type":"retail","address":"Galicyjska 16A","name":"KFC","residential":false,"residents_est":0,"h3_10":"8a1e2e68558ffff","h3_11":"8b1e2e68558efff"},"geometry":{"type":"Polygon","coordinates":[[[20.005027,50.058348],[20.005037,50.058237],[20.005389,50.05825],[20.005379,50.058362],[20.005304,50.058359],[20.005302,50.058375],[20.005132,50.058368],[20.005134,50.058352],[20.005027,50.058348]]]}},{"type":"Feature","id":"w1509744670","properties":{"type":"yes","residential":false,"residents_est":0,"h3_10":"8a1e2e68554ffff","h3_11":"8b1e2e68554efff"},"geometry":{"type":"Polygon","coordinates":[[[20.012577,50.060632],[20.01258,50.060582],[20.012671,50.060584],[20.012669,50.060634],[20.012577,50.060632]]]}},{"type":"Feature","id":"w1515304897","properties":{"type":"service","name":"Ciesielskiego 3","residential":false,"residents_est":0,"h3_10":"8a1e2e685477fff","h3_11":"8b1e2e685472fff"},"geometry":{"type":"Polygon","coordinates":[[[20.011878,50.058446],[20.011884,50.058417],[20.011996,50.058428],[20.011989,50.058456],[20.011878,50.058446]]]}},{"type":"Feature","id":"w1517257378","properties":{"type":"water_tower","residential":false,"residents_est":0,"h3_10":"8a1e2e685587fff","h3_11":"8b1e2e685585fff"},"geometry":{"type":"Polygon","coordinates":[[[20.004203,50.058896],[20.004213,50.05888],[20.004234,50.058875],[20.004254,50.05888],[20.004264,50.058892],[20.004256,50.058909],[20.004236,50.058915],[20.004211,50.058909],[20.004203,50.058896]]]}},{"type":"Feature","id":"w1519566441","properties":{"type":"yes","levels":1.0,"residential":true,"residents_est":1,"h3_10":"8a1e2e685537fff","h3_11":"8b1e2e685535fff"},"geometry":{"type":"Polygon","coordinates":[[[20.004953,50.061824],[20.004958,50.061761],[20.005143,50.061768],[20.005138,50.061831],[20.004953,50.061824]]]}},{"type":"Feature","id":"w1519566446","properties":{"type":"yes","levels":1.0,"residential":true,"residents_est":2,"h3_10":"8a1e2e685537fff","h3_11":"8b1e2e685535fff"},"geometry":{"type":"Polygon","coordinates":[[[20.004893,50.061673],[20.004903,50.06156],[20.005241,50.061573],[20.005231,50.061684],[20.004893,50.061673]]]}},{"type":"Feature","id":"w1520716277","properties":{"type":"yes","levels":1.0,"residential":false,"residents_est":0,"h3_10":"8a1e2e685537fff","h3_11":"8b1e2e685533fff"},"geometry":{"type":"Polygon","coordinates":[[[20.00473,50.061223],[20.004736,50.061138],[20.004778,50.06114],[20.004772,50.061225],[20.00473,50.061223]]]}},{"type":"Feature","id":"w1520716278","properties":{"type":"yes","levels":1.0,"residential":true,"residents_est":0,"h3_10":"8a1e2e685537fff","h3_11":"8b1e2e685530fff"},"geometry":{"type":"Polygon","coordinates":[[[20.004678,50.061309],[20.004684,50.061222],[20.004772,50.061225],[20.004766,50.061312],[20.004678,50.061309]]]}},{"type":"Feature","id":"w1520733433","properties":{"type":"garage","residential":false,"residents_est":0,"h3_10":"8a1e2e685537fff","h3_11":"8b1e2e685531fff"},"geometry":{"type":"Polygon","coordinates":[[[20.005043,50.061396],[20.005046,50.06136],[20.005129,50.061363],[20.005126,50.061399],[20.005043,50.061396]]]}},{"type":"Feature","id":"w1520733435","properties":{"type":"garage","levels":1.0,"residential":false,"residents_est":0,"h3_10":"8a1e2e685537fff","h3_11":"8b1e2e685533fff"},"geometry":{"type":"Polygon","coordinates":[[[20.004993,50.061119],[20.004998,50.06107],[20.00506,50.061072],[20.005055,50.061122],[20.004993,50.061119]]]}},{"type":"Feature","id":"w1520733437","properties":{"type":"garage","levels":1.0,"residential":false,"residents_est":0,"h3_10":"8a1e2e685537fff","h3_11":"8b1e2e685533fff"},"geometry":{"type":"Polygon","coordinates":[[[20.004841,50.06111],[20.004844,50.061065],[20.004894,50.061067],[20.00489,50.061112],[20.004841,50.06111]]]}},{"type":"Feature","id":"r21296241","properties":{"type":"construction","residential":false,"residents_est":0,"h3_10":"8a1e2e685447fff","h3_11":"8b1e2e685445fff"},"geometry":{"type":"Polygon","coordinates":[[[20.013313,50.059481],[20.01337,50.058737],[20.014232,50.058769],[20.014233,50.058782],[20.014314,50.058787],[20.014313,50.058798],[20.014421,50.058805],[20.014376,50.059515],[20.013313,50.059481]],[[20.013535,50.059037],[20.013567,50.059038],[20.013539,50.059376],[20.013628,50.059379],[20.01363,50.05937],[20.013865,50.059377],[20.013864,50.059386],[20.013923,50.059388],[20.013924,50.059379],[20.01406,50.059383],[20.01406,50.059393],[20.014166,50.059396],[20.014192,50.059059],[20.014222,50.05906],[20.014235,50.058886],[20.013548,50.058864],[20.013535,50.059037]]]}}]}