{"type":"FeatureCollection","features":[{"type":"Feature","id":"w54522385","properties":{"type":"residential","levels":5.0,"address":"Osiedle Bohaterów Września 36","residential":true,"residents_est":170,"h3_10":"8a1e2e6a1ceffff","h3_11":"8b1e2e6a1ceafff"},"geometry":{"type":"Polygon","coordinates":[[[20.010503,50.09999],[20.010507,50.099936],[20.010529,50.099937],[20.01053,50.099915],[20.01051,50.099913],[20.010515,50.099858],[20.010658,50.099862],[20.010657,50.099878],[20.010924,50.099889],[20.010923,50.099905],[20.011104,50.099911],[20.011103,50.099929],[20.011292,50.099936],[20.011291,50.099952],[20.011471,50.099959],[20.01147,50.099974],[20.011657,50.09998],[20.011647,50.100085],[20.011559,50.100082],[20.01156,50.10007],[20.011461,50.100067],[20.011462,50.10005],[20.01128,50.100043],[20.011281,50.100028],[20.011095,50.100021],[20.011096,50.100005],[20.010911,50.099999],[20.010911,50.099983],[20.010649,50.099975],[20.010646,50.099995],[20.010503,50.09999]]]}},{"type":"Feature","id":"w54522387","properties":{"type":"apartments","levels":5.0,"address":"Osiedle Bohaterów Września 35","residential":true,"residents_est":176,"h3_10":"8a1e2e6a1ceffff","h3_11":"8b1e2e6a1ce8fff"},"geometry":{"type":"Polygon","coordinates":[[[20.010463,50.100366],[20.010468,50.100308],[20.010487,50.100309],[20.010489,50.100291],[20.01047,50.10029],[20.010475,50.100233],[20.010623,50.100239],[20.010622,50.100255],[20.010889,50.100265],[20.010887,50.100281],[20.011072,50.100289],[20.011071,50.100305],[20.011257,50.100312],[20.011255,50.100328],[20.01144,50.100335],[20.011438,50.100351],[20.011623,50.100358],[20.011613,50.100465],[20.011522,50.100461],[20.011523,50.100449],[20.011423,50.100447],[20.011424,50.100431],[20.01124,50.100423],[20.011241,50.100407],[20.011058,50.1004],[20.011059,50.100384],[20.010873,50.100377],[20.010874,50.100361],[20.010613,50.100351],[20.010612,50.100372],[20.010463,50.100366]]]}},{"type":"Feature","id":"w54522388","properties":{"type":"apartments","levels":5.0,"address":"Osiedle Bohaterów Września 32","residential":true,"residents_est":256,"h3_10":"8a1e2e6a1ceffff","h3_11":"8b1e2e6a1cedfff"},"geometry":{"type":"Polygon","coordinates":[[[20.010614,50.100782],[20.010626,50.100648],[20.010773,50.100653],[20.010771,50.100669],[20.01104,50.10068],[20.011038,50.100696],[20.011222,50.100703],[20.011221,50.100719],[20.011408,50.100726],[20.011406,50.100742],[20.01159,50.100749],[20.011589,50.100765],[20.011773,50.100771],[20.011772,50.100787],[20.011959,50.100794],[20.011958,50.100811],[20.012142,50.100817],[20.01214,50.100834],[20.012325,50.100839],[20.012316,50.100946],[20.012225,50.100943],[20.012226,50.100931],[20.012126,50.100929],[20.012127,50.100912],[20.011943,50.100906],[20.011944,50.100889],[20.01176,50.100883],[20.011761,50.100867],[20.011575,50.10086],[20.011577,50.100844],[20.011392,50.100837],[20.011394,50.100821],[20.011211,50.100815],[20.011211,50.100798],[20.011025,50.100792],[20.011026,50.100776],[20.010765,50.100766],[20.010763,50.100787],[20.010614,50.100782]]]}},{"type":"Feature","id":"w54522390","properties":{"type":"residential","levels":5.0,"address":"Osiedle Bohaterów Września 27","residential":true,"residents_est":123,"h3_10":"8a1e2e6a1ccffff","h3_11":"8b1e2e6a1cc9fff"},"geometry":{"type":"Polygon","coordinates":[[[20.012092,50.09926],[20.012121,50.099205],[20.012139,50.099209],[20.012143,50.099202],[20.012148,50.099192],[20.01213,50.099188],[20.012158,50.099133],[20.0123,50.099162],[20.012293,50.099177],[20.012548,50.099231],[20.012541,50.099246],[20.012718,50.099282],[20.01271,50.099297],[20.012887,50.099334],[20.012834,50.099436],[20.012749,50.099418],[20.012755,50.099406],[20.012657,50.099387],[20.012664,50.099372],[20.012489,50.099337],[20.012497,50.099321],[20.012245,50.099269],[20.012235,50.099289],[20.012092,50.09926]]]}},{"type":"Feature","id":"w54522393","properties":{"type":"residential","levels":5.0,"address":"Osiedle Bohaterów Września 38","residential":true,"residents_est":173,"h3_10":"8a1e2e6a1ccffff","h3_11":"8b1e2e6a1cc8fff"},"geometry":{"type":"Polygon","coordinates":[[[20.010609,50.099225],[20.010615,50.099169],[20.010633,50.09917],[20.010635,50.099147],[20.010617,50.099146],[20.010623,50.099094],[20.010767,50.0991],[20.010766,50.099115],[20.011031,50.099127],[20.01103,50.099142],[20.011214,50.099151],[20.011212,50.099166],[20.011396,50.099174],[20.011395,50.099191],[20.011579,50.099198],[20.011577,50.099214],[20.011762,50.09922],[20.011752,50.099327],[20.011663,50.099323],[20.011664,50.099312],[20.011562,50.099309],[20.011564,50.099293],[20.011379,50.099286],[20.011381,50.09927],[20.011201,50.099263],[20.011202,50.099246],[20.011014,50.099237],[20.011016,50.099221],[20.010756,50.09921],[20.010754,50.099231],[20.010609,50.099225]]]}},{"type":"Feature","id":"w54522394","properties":{"type":"apartments","levels":5.0,"address":"Osiedle Bohaterów Września 37","residential":true,"residents_est":175,"h3_10":"8a1e2e6a1ccffff","h3_11":"8b1e2e6a1cccfff"},"geometry":{"type":"Polygon","coordinates":[[[20.010534,50.099608],[20.010539,50.09955],[20.010559,50.099551],[20.01056,50.099533],[20.010541,50.099532],[20.010546,50.099474],[20.010696,50.09948],[20.010694,50.099496],[20.01096,50.099507],[20.010958,50.099523],[20.011143,50.099531],[20.011142,50.099547],[20.011328,50.099554],[20.011326,50.09957],[20.011511,50.099578],[20.011509,50.099594],[20.011695,50.099601],[20.011684,50.099708],[20.011594,50.099703],[20.011595,50.099691],[20.011494,50.099688],[20.011496,50.099672],[20.011311,50.099665],[20.011313,50.099649],[20.011129,50.099642],[20.01113,50.099626],[20.010944,50.099619],[20.010945,50.099602],[20.010685,50.099592],[20.010683,50.099613],[20.010534,50.099608]]]}},{"type":"Feature","id":"w54522396","properties":{"type":"apartments","levels":4.0,"residential":true,"residents_est":37,"h3_10":"8a1e2e6a1cc7fff","h3_11":"8b1e2e6a1cc3fff"},"geometry":{"type":"Polygon","coordinates":[[[20.009879,50.099458],[20.009894,50.099296],[20.010055,50.099298],[20.01005,50.099352],[20.010092,50.099354],[20.010081,50.099466],[20.009994,50.099463],[20.009995,50.099454],[20.009967,50.099453],[20.009966,50.099462],[20.009879,50.099458]]]}},{"type":"Feature","id":"w54522397","properties":{"type":"apartments","levels":5.0,"address":"Osiedle Bohaterów Września 47","residential":true,"residents_est":65,"h3_10":"8a1e2e6a1cc7fff","h3_11":"8b1e2e6a1cc4fff"},"geometry":{"type":"Polygon","coordinates":[[[20.009382,50.10028],[20.00939,50.100194],[20.009425,50.100195],[20.009432,50.100119],[20.009425,50.100118],[20.009431,50.100041],[20.009507,50.100043],[20.009513,50.099993],[20.009551,50.099994],[20.009549,50.100032],[20.009624,50.100034],[20.009616,50.100112],[20.009576,50.100111],[20.009561,50.10027],[20.009491,50.100268],[20.009487,50.100311],[20.009449,50.100309],[20.009453,50.100282],[20.009382,50.10028]]]}},{"type":"Feature","id":"w54522399","properties":{"type":"apartments","levels":5.0,"address":"Osiedle Bohaterów Września 46","residential":true,"residents_est":65,"h3_10":"8a1e2e6a1cf7fff","h3_11":"8b1e2e6a1cf1fff"},"geometry":{"type":"Polygon","coordinates":[[[20.008804,50.100042],[20.008812,50.099956],[20.008846,50.099957],[20.008852,50.099803],[20.008929,50.099805],[20.008933,50.099755],[20.008972,50.099756],[20.008969,50.099792],[20.009046,50.099795],[20.009037,50.099873],[20.008997,50.099872],[20.008985,50.100032],[20.008914,50.10003],[20.008909,50.100072],[20.008871,50.100071],[20.008875,50.100044],[20.008804,50.100042]]]}},{"type":"Feature","id":"w54522400","properties":{"type":"apartments","levels":5.0,"address":"Osiedle Bohaterów Września 45","residential":true,"residents_est":65,"h3_10":"8a1e2e6a1cf7fff","h3_11":"8b1e2e6a1cf3fff"},"geometry":{"type":"Polygon","coordinates":[[[20.00823,50.099804],[20.008239,50.099718],[20.008273,50.09972],[20.008279,50.099643],[20.008272,50.099642],[20.008281,50.099566],[20.008355,50.099569],[20.008361,50.099517],[20.0084,50.099518],[20.008396,50.099554],[20.008472,50.099558],[20.008465,50.099636],[20.008425,50.099635],[20.008409,50.099795],[20.008339,50.099793],[20.008335,50.099834],[20.008297,50.099833],[20.008301,50.099806],[20.00823,50.099804]]]}},{"type":"Feature","id":"w54522401","properties":{"type":"apartments","levels":5.0,"address":"Osiedle Bohaterów Września 40","residential":true,"residents_est":60,"h3_10":"8a1e2e6a1cd7fff","h3_11":"8b1e2e6a1cd5fff"},"geometry":{"type":"Polygon","coordinates":[[[20.008352,50.099244],[20.008357,50.099159],[20.008393,50.09916],[20.008401,50.099005],[20.008475,50.099009],[20.008479,50.098956],[20.008518,50.098957],[20.008515,50.098995],[20.008578,50.098998],[20.008572,50.099076],[20.008531,50.099075],[20.008516,50.099235],[20.008458,50.099232],[20.008455,50.099274],[20.00842,50.099272],[20.008423,50.099246],[20.008352,50.099244]]]}},{"type":"Feature","id":"w54522403","properties":{"type":"apartments","levels":5.0,"address":"Osiedle Bohaterów Września 44","residential":true,"residents_est":70,"h3_10":"8a1e2e6a1cf7fff","h3_11":"8b1e2e6a1cf2fff"},"geometry":{"type":"Polygon","coordinates":[[[20.007388,50.0994],[20.007398,50.099289],[20.007802,50.099305],[20.007792,50.099416],[20.007714,50.099413],[20.007703,50.09942],[20.007701,50.099438],[20.00767,50.099437],[20.007671,50.099418],[20.007662,50.099411],[20.007517,50.099406],[20.007507,50.099412],[20.007505,50.09943],[20.007471,50.099429],[20.007473,50.099411],[20.007464,50.099403],[20.007388,50.0994]]]}},{"type":"Feature","id":"w54522404","properties":{"type":"apartments","levels":5.0,"address":"Osiedle Bohaterów Września 43A","residential":true,"residents_est":81,"h3_10":"8a1e2e6a1c8ffff","h3_11":"8b1e2e6a1c89fff"},"geometry":{"type":"Polygon","coordinates":[[[20.006925,50.099259],[20.006938,50.099115],[20.007058,50.09912],[20.00707,50.099007],[20.007293,50.099015],[20.007281,50.099131],[20.007198,50.099128],[20.007188,50.099133],[20.007186,50.099156],[20.007152,50.099155],[20.007153,50.099133],[20.007146,50.099126],[20.007121,50.099125],[20.007115,50.099177],[20.007157,50.099183],[20.007156,50.099205],[20.007111,50.099209],[20.007106,50.099266],[20.006925,50.099259]]]}},{"type":"Feature","id":"w54522405","properties":{"type":"apartments","levels":5.0,"residential":true,"residents_est":98,"h3_10":"8a1e2e6a1cd7fff","h3_11":"8b1e2e6a1cd6fff"},"geometry":{"type":"Polygon","coordinates":[[[20.007052,50.098865],[20.007085,50.098721],[20.00731,50.098672],[20.007492,50.098679],[20.007471,50.098776],[20.007224,50.098886],[20.007052,50.098865]]]}},{"type":"Feature","id":"w54522406","properties":{"type":"apartments","levels":5.0,"residential":true,"residents_est":96,"h3_10":"8a1e2e6a1cd7fff","h3_11":"8b1e2e6a1cd6fff"},"geometry":{"type":"Polygon","coordinates":[[[20.007621,50.098886],[20.007653,50.098734],[20.007911,50.098666],[20.008061,50.098693],[20.007997,50.098796],[20.007793,50.098893],[20.007621,50.098886]]]}},{"type":"Feature","id":"w54522940","properties":{"type":"apartments","levels":14.0,"address":"Osiedle Piastów 54","residential":true,"residents_est":208,"h3_10":"8a1e2e6a1c4ffff","h3_11":"8b1e2e6a1c48fff"},"geometry":{"type":"Polygon","coordinates":[[[20.014131,50.101601],[20.014132,50.101554],[20.014305,50.101554],[20.014304,50.101668],[20.014288,50.101668],[20.014287,50.101772],[20.014304,50.101772],[20.014303,50.101817],[20.014288,50.101817],[20.014285,50.101885],[20.014146,50.101884],[20.014148,50.101601],[20.014131,50.101601]]]}},{"type":"Feature","id":"w54522941","properties":{"type":"church","address":"Osiedle Bohaterów Września 33","name":"Kościół pw. Matki Bożej Nieustającej Pomocy w Krakowie","residential":false,"residents_est":0,"h3_10":"8a1e2e6a1c57fff","h3_11":"8b1e2e6a1c50fff"},"geometry":{"type":"Polygon","coordinates":[[[20.01085,50.101541],[20.010884,50.101523],[20.010902,50.101522],[20.010913,50.101374],[20.011175,50.101383],[20.011165,50.10153],[20.011182,50.101531],[20.011212,50.101552],[20.01118,50.101572],[20.011163,50.101572],[20.01115,50.101746],[20.011042,50.101742],[20.011016,50.101757],[20.010993,50.101741],[20.010975,50.101741],[20.010943,50.10178],[20.010907,50.101739],[20.010888,50.101738],[20.0109,50.101562],[20.010881,50.101561],[20.01085,50.101541]]]}},{"type":"Feature","id":"w54522957","properties":{"type":"kindergarten","levels":2.0,"address":"Osiedle Bohaterów Września 15","residential":false,"residents_est":0,"h3_10":"8a1e2e6a1cdffff","h3_11":"8b1e2e6a1cdbfff"},"geometry":{"type":"Polygon","coordinates":[[[20.009907,50.09826],[20.010117,50.098249],[20.010116,50.098241],[20.010156,50.098239],[20.010157,50.098247],[20.010413,50.098233],[20.010428,50.098345],[20.010094,50.098363],[20.010096,50.098382],[20.010041,50.098385],[20.010039,50.098367],[20.009921,50.098373],[20.009907,50.09826]]]}},{"type":"Feature","id":"w54522962","properties":{"type":"apartments","levels":5.0,"residential":true,"residents_est":65,"h3_10":"8a1e2e6a1c1ffff","h3_11":"8b1e2e6a1c1bfff"},"geometry":{"type":"Polygon","coordinates":[[[20.007617,50.100835],[20.007625,50.100749],[20.007658,50.10075],[20.007665,50.100596],[20.007741,50.100599],[20.007746,50.100547],[20.007784,50.100549],[20.007781,50.100585],[20.007858,50.100588],[20.007851,50.100666],[20.00781,50.100664],[20.007795,50.100825],[20.007726,50.100823],[20.007723,50.100865],[20.007684,50.100864],[20.007686,50.100838],[20.007617,50.100835]]]}},{"type":"Feature","id":"w54522963","properties":{"type":"apartments","levels":5.0,"residential":true,"residents_est":65,"h3_10":"8a1e2e6a1c1ffff","h3_11":"8b1e2e6a1c19fff"},"geometry":{"type":"Polygon","coordinates":[[[20.008279,50.101199],[20.008288,50.101114],[20.008322,50.101115],[20.008328,50.10096],[20.008406,50.100963],[20.008411,50.100912],[20.008448,50.100913],[20.008445,50.10095],[20.008521,50.100953],[20.008514,50.101031],[20.008473,50.10103],[20.008459,50.101191],[20.008388,50.101188],[20.008384,50.10123],[20.008346,50.101229],[20.008348,50.101203],[20.008279,50.101199]]]}},{"type":"Feature","id":"w54522964","properties":{"type":"apartments","levels":6.0,"residential":true,"residents_est":177,"h3_10":"8a1e2e6a1caffff","h3_11":"8b1e2e6a1cabfff"},"geometry":{"type":"Polygon","coordinates":[[[20.00648,50.100199],[20.006574,50.099952],[20.006668,50.099966],[20.006704,50.099989],[20.006721,50.099975],[20.006764,50.099981],[20.006753,50.100011],[20.007148,50.100074],[20.007105,50.100192],[20.006708,50.100129],[20.00667,50.100229],[20.00648,50.100199]]]}},{"type":"Feature","id":"w54522966","properties":{"type":"apartments","levels":5.0,"residential":true,"residents_est":65,"h3_10":"8a1e2e6a1cf7fff","h3_11":"8b1e2e6a1cf0fff"},"geometry":{"type":"Polygon","coordinates":[[[20.007556,50.100232],[20.007563,50.100147],[20.007598,50.100148],[20.007605,50.099995],[20.00768,50.099998],[20.007685,50.099945],[20.007724,50.099946],[20.00772,50.099982],[20.007797,50.099985],[20.007789,50.100063],[20.007749,50.100062],[20.007734,50.100223],[20.007666,50.10022],[20.007662,50.100262],[20.007623,50.10026],[20.007625,50.100235],[20.007556,50.100232]]]}},{"type":"Feature","id":"w54522967","properties":{"type":"apartments","levels":11.0,"address":"Osiedle Bohaterów Września 61","residential":true,"residents_est":172,"h3_10":"8a1e2e6a1c17fff","h3_11":"8b1e2e6a1c14fff"},"geometry":{"type":"Polygon","coordinates":[[[20.005507,50.101872],[20.005513,50.101815],[20.005886,50.101831],[20.005885,50.101847],[20.005934,50.101849],[20.005931,50.101894],[20.005897,50.101893],[20.005896,50.101906],[20.005921,50.101907],[20.005913,50.101964],[20.005525,50.101948],[20.005533,50.101874],[20.005507,50.101872]]]}},{"type":"Feature","id":"w54522968","properties":{"type":"apartments","levels":4.0,"address":"Osiedle Bohaterów Września 61A","residential":true,"residents_est":154,"h3_10":"8a1e2e6a1d8ffff","h3_11":"8b1e2e6a1d89fff"},"geometry":{"type":"Polygon","coordinates":[[[20.003946,50.10183],[20.003954,50.101743],[20.003971,50.101743],[20.003975,50.101689],[20.004188,50.101696],[20.00419,50.101684],[20.004402,50.101691],[20.0044,50.101707],[20.004605,50.101714],[20.004604,50.10173],[20.004813,50.101737],[20.004812,50.101754],[20.005073,50.101763],[20.005069,50.101817],[20.005107,50.101818],[20.005101,50.101886],[20.005118,50.101886],[20.005115,50.101911],[20.004949,50.101908],[20.004953,50.10187],[20.004911,50.101869],[20.004911,50.101859],[20.004796,50.101854],[20.004798,50.101835],[20.004593,50.101829],[20.004594,50.101812],[20.004385,50.101805],[20.004386,50.101789],[20.004188,50.101782],[20.004186,50.101798],[20.004136,50.101796],[20.004135,50.101807],[20.004094,50.101805],[20.00409,50.101849],[20.003991,50.101845],[20.003992,50.101832],[20.003946,50.10183]]]}},{"type":"Feature","id":"w54522969","properties":{"type":"apartments","levels":5.0,"address":"Osiedle Bohaterów Września 77","residential":true,"residents_est":163,"h3_10":"8a1e2e6a1c17fff","h3_11":"8b1e2e6a1c10fff"},"geometry":{"type":"Polygon","coordinates":[[[20.005037,50.10142],[20.005223,50.101401],[20.005218,50.10138],[20.005431,50.101358],[20.005429,50.101348],[20.00548,50.101342],[20.005482,50.101352],[20.005514,50.101349],[20.005512,50.101339],[20.005645,50.101326],[20.00565,50.101346],[20.005857,50.101325],[20.005862,50.101346],[20.006071,50.101325],[20.0061,50.101437],[20.006045,50.101443],[20.006042,50.101432],[20.005879,50.101448],[20.005875,50.101438],[20.005834,50.101442],[20.005831,50.101432],[20.005666,50.101448],[20.005663,50.101438],[20.005622,50.101442],[20.005619,50.101432],[20.005459,50.101448],[20.005462,50.101459],[20.005253,50.10148],[20.005259,50.101502],[20.005062,50.101523],[20.005037,50.10142]]]}},{"type":"Feature","id":"w54522970","properties":{"type":"apartments","levels":4.0,"address":"Osiedle Bohaterów Września 78","residential":true,"residents_est":81,"h3_10":"8a1e2e6a1c17fff","h3_11":"8b1e2e6a1c13fff"},"geometry":{"type":"Polygon","coordinates":[[[20.006166,50.101264],[20.006295,50.101155],[20.006281,50.101148],[20.006412,50.101036],[20.006399,50.101031],[20.006532,50.100916],[20.006661,50.100979],[20.006529,50.10109],[20.006542,50.101096],[20.006414,50.101206],[20.006428,50.101213],[20.006295,50.101326],[20.006166,50.101264]]]}},{"type":"Feature","id":"w54522971","properties":{"type":"apartments","levels":4.0,"address":"Osiedle Bohaterów Września 79","residential":true,"residents_est":51,"h3_10":"8a1e2e6a1caffff","h3_11":"8b1e2e6a1cadfff"},"geometry":{"type":"Polygon","coordinates":[[[20.006605,50.10077],[20.006788,50.100737],[20.006778,50.100716],[20.006828,50.100707],[20.006832,50.100717],[20.006863,50.100711],[20.006859,50.100701],[20.00699,50.100678],[20.007039,50.100787],[20.006988,50.100797],[20.006983,50.100786],[20.006832,50.100813],[20.006841,50.100835],[20.006649,50.10087],[20.006605,50.10077]]]}},{"type":"Feature","id":"w54522972","properties":{"type":"apartments","levels":11.0,"address":"Osiedle Bohaterów Września 65","residential":true,"residents_est":180,"h3_10":"8a1e2e6a1c0ffff","h3_11":"8b1e2e6a1c0cfff"},"geometry":{"type":"Polygon","coordinates":[[[20.008557,50.102052],[20.008562,50.101996],[20.008935,50.10201],[20.008933,50.102026],[20.008982,50.102028],[20.008978,50.102073],[20.008945,50.102072],[20.008944,50.102086],[20.008969,50.102087],[20.008963,50.102143],[20.008826,50.102138],[20.008823,50.102163],[20.00871,50.102158],[20.008713,50.102133],[20.008575,50.102128],[20.008583,50.102053],[20.008557,50.102052]]]}},{"type":"Feature","id":"w54522974","properties":{"type":"apartments","levels":11.0,"residential":true,"residents_est":182,"h3_10":"8a1e2e6a1c07fff","h3_11":"8b1e2e6a1c01fff"},"geometry":{"type":"Polygon","coordinates":[[[20.007639,50.102127],[20.007644,50.102069],[20.008017,50.102084],[20.008015,50.102099],[20.008066,50.102101],[20.008063,50.102147],[20.008029,50.102146],[20.008028,50.10216],[20.008052,50.102161],[20.008047,50.102217],[20.007908,50.102212],[20.007906,50.102237],[20.007795,50.102233],[20.007797,50.102208],[20.007657,50.102203],[20.007663,50.102128],[20.007639,50.102127]]]}},{"type":"Feature","id":"w54522975","properties":{"type":"apartments","levels":11.0,"address":"Osiedle Bohaterów Września 59","residential":true,"residents_est":171,"h3_10":"8a1e2e6a1c07fff","h3_11":"8b1e2e6a1c03fff"},"geometry":{"type":"Polygon","coordinates":[[[20.007237,50.101705],[20.007241,50.10165],[20.007617,50.101663],[20.007615,50.101678],[20.007665,50.10168],[20.00766,50.101726],[20.007627,50.101726],[20.007626,50.101739],[20.007651,50.10174],[20.007646,50.101796],[20.007256,50.10178],[20.007262,50.101706],[20.007237,50.101705]]]}},{"type":"Feature","id":"w54522976","properties":{"type":"apartments","address":"Osiedle Bohaterów Września 57","residential":true,"residents_est":146,"h3_10":"8a1e2e6a1c1ffff","h3_11":"8b1e2e6a1c1cfff"},"geometry":{"type":"Polygon","coordinates":[[[20.007181,50.101142],[20.007349,50.101051],[20.007638,50.101274],[20.007606,50.101292],[20.007636,50.101316],[20.007634,50.101337],[20.007576,50.101335],[20.007575,50.101351],[20.00759,50.101351],[20.007578,50.101471],[20.007341,50.101462],[20.007351,50.101342],[20.007369,50.101343],[20.007373,50.101297],[20.007345,50.101274],[20.00735,50.101272],[20.007181,50.101142]]]}},{"type":"Feature","id":"w54522977","properties":{"type":"apartments","levels":11.0,"address":"Osiedle Bohaterów Września 60","residential":true,"residents_est":182,"h3_10":"8a1e2e6a1c07fff","h3_11":"8b1e2e6a1c02fff"},"geometry":{"type":"Polygon","coordinates":[[[20.006372,50.101789],[20.006379,50.101733],[20.00675,50.101747],[20.006749,50.101763],[20.006799,50.101765],[20.006795,50.10181],[20.006761,50.101809],[20.00676,50.101824],[20.006785,50.101824],[20.00678,50.101882],[20.006638,50.101876],[20.006636,50.101901],[20.006527,50.101897],[20.006529,50.101871],[20.00639,50.101865],[20.006398,50.10179],[20.006372,50.101789]]]}},{"type":"Feature","id":"w54522979","properties":{"type":"apartments","levels":5.0,"address":"Osiedle Bohaterów Września 49","residential":true,"residents_est":66,"h3_10":"8a1e2e6a1ce7fff","h3_11":"8b1e2e6a1ce5fff"},"geometry":{"type":"Polygon","coordinates":[[[20.009605,50.101024],[20.009614,50.100938],[20.009646,50.100939],[20.009653,50.100892],[20.009643,50.100892],[20.009656,50.100784],[20.009732,50.100786],[20.009737,50.100733],[20.009775,50.100735],[20.009771,50.100772],[20.009847,50.100775],[20.009839,50.100854],[20.009802,50.100853],[20.009784,50.101014],[20.009715,50.101012],[20.00971,50.101054],[20.009672,50.101052],[20.009676,50.101027],[20.009605,50.101024]]]}},{"type":"Feature","id":"w54522980","properties":{"type":"apartments","levels":5.0,"address":"Osiedle Bohaterów Września 55","residential":true,"residents_est":66,"h3_10":"8a1e2e6a1c0ffff","h3_11":"8b1e2e6a1c0bfff"},"geometry":{"type":"Polygon","coordinates":[[[20.009117,50.101411],[20.009124,50.101328],[20.009156,50.101329],[20.009161,50.101284],[20.009153,50.101283],[20.009165,50.101175],[20.009239,50.101178],[20.009247,50.101125],[20.009287,50.101127],[20.009284,50.101162],[20.009359,50.101165],[20.009351,50.101242],[20.009311,50.101241],[20.009296,50.101402],[20.009226,50.1014],[20.009221,50.101444],[20.009184,50.101443],[20.009186,50.101416],[20.009117,50.101411]]]}},{"type":"Feature","id":"w54522982","properties":{"type":"apartments","levels":11.0,"address":"Osiedle Bohaterów Września 67","residential":true,"residents_est":171,"h3_10":"8a1e2e6a1c57fff","h3_11":"8b1e2e6a1c56fff"},"geometry":{"type":"Polygon","coordinates":[[[20.009904,50.101573],[20.00991,50.101517],[20.010281,50.101532],[20.01028,50.101548],[20.01033,50.10155],[20.010326,50.101595],[20.010293,50.101594],[20.010292,50.101608],[20.010316,50.101609],[20.010312,50.101664],[20.009921,50.10165],[20.009927,50.101574],[20.009904,50.101573]]]}},{"type":"Feature","id":"w54522984","properties":{"type":"apartments","levels":4.0,"address":"Osiedle Bohaterów Września 58","residential":true,"residents_est":114,"h3_10":"8a1e2e6a1c0ffff","h3_11":"8b1e2e6a1c0afff"},"geometry":{"type":"Polygon","coordinates":[[[20.008282,50.101692],[20.00829,50.101622],[20.008302,50.101623],[20.008311,50.101551],[20.008507,50.101441],[20.008618,50.101447],[20.008619,50.101439],[20.008726,50.101444],[20.008725,50.101453],[20.008841,50.101458],[20.008827,50.101577],[20.008759,50.101574],[20.008758,50.101582],[20.00865,50.101577],[20.008651,50.101569],[20.008563,50.101564],[20.008488,50.101607],[20.008483,50.101651],[20.008496,50.101652],[20.008488,50.101721],[20.008477,50.101721],[20.008469,50.101775],[20.008285,50.101766],[20.008294,50.101693],[20.008282,50.101692]]]}},{"type":"Feature","id":"w54522985","properties":{"type":"apartments","levels":11.0,"address":"Osiedle Bohaterów Września 66","residential":true,"residents_est":172,"h3_10":"8a1e2e6a1c0ffff","h3_11":"8b1e2e6a1c09fff"},"geometry":{"type":"Polygon","coordinates":[[[20.009448,50.101975],[20.009453,50.101918],[20.009825,50.101933],[20.009824,50.101949],[20.009874,50.101951],[20.00987,50.101996],[20.009837,50.101994],[20.009836,50.102009],[20.009859,50.102009],[20.009855,50.102066],[20.009465,50.102051],[20.009473,50.101976],[20.009448,50.101975]]]}},{"type":"Feature","id":"w54522987","properties":{"type":"apartments","levels":5.0,"address":"Osiedle Bohaterów Września 51","residential":true,"residents_est":65,"h3_10":"8a1e2e6a1cf7fff","h3_11":"8b1e2e6a1cf5fff"},"geometry":{"type":"Polygon","coordinates":[[[20.008237,50.100516],[20.008245,50.10043],[20.008279,50.100431],[20.008287,50.100355],[20.00828,50.100354],[20.008286,50.100276],[20.008363,50.100279],[20.008367,50.100227],[20.008406,50.100229],[20.008403,50.100266],[20.008479,50.100269],[20.008472,50.100347],[20.008431,50.100345],[20.008416,50.100506],[20.008347,50.100503],[20.008343,50.100546],[20.008305,50.100544],[20.008307,50.100518],[20.008237,50.100516]]]}},{"type":"Feature","id":"w54522988","properties":{"type":"apartments","levels":5.0,"address":"Osiedle Bohaterów Września 50","residential":true,"residents_est":66,"h3_10":"8a1e2e6a1ce7fff","h3_11":"8b1e2e6a1ce0fff"},"geometry":{"type":"Polygon","coordinates":[[[20.00892,50.1008],[20.008928,50.100715],[20.008962,50.100716],[20.008968,50.10067],[20.008959,50.10067],[20.008968,50.100561],[20.009046,50.100564],[20.009051,50.100511],[20.009089,50.100512],[20.009086,50.10055],[20.009162,50.100552],[20.009154,50.100632],[20.009114,50.10063],[20.0091,50.100791],[20.009029,50.100788],[20.009026,50.10083],[20.008987,50.100828],[20.008989,50.100803],[20.00892,50.1008]]]}},{"type":"Feature","id":"w101975694","properties":{"type":"retail","levels":1.0,"address":"Osiedle Piastów 60","name":"Lewiatan","residential":false,"residents_est":0,"h3_10":"8a1e2e6a1c4ffff","h3_11":"8b1e2e6a1c4efff"},"geometry":{"type":"Polygon","coordinates":[[[20.013116,50.101732],[20.013627,50.101731],[20.013628,50.102071],[20.013118,50.102072],[20.013116,50.101732]]]}},{"type":"Feature","id":"w101975695","properties":{"type":"apartments","levels":14.0,"address":"Osiedle Piastów 58","residential":true,"residents_est":206,"h3_10":"8a1e2e6a1c4ffff","h3_11":"8b1e2e6a1c4dfff"},"geometry":{"type":"Polygon","coordinates":[[[20.01433,50.10217],[20.014503,50.10217],[20.014502,50.102284],[20.014485,50.102284],[20.014486,50.102388],[20.014503,50.102388],[20.014504,50.102433],[20.014488,50.102433],[20.014486,50.1025],[20.014347,50.1025],[20.014347,50.102216],[20.014331,50.102216],[20.01433,50.10217]]]}},{"type":"Feature","id":"w170828950","properties":{"type":"retail","levels":1.0,"residential":false,"residents_est":0,"h3_10":"8a1e2e6a1c4ffff","h3_11":"8b1e2e6a1c4afff"},"geometry":{"type":"Polygon","coordinates":[[[20.013627,50.101642],[20.013627,50.101599],[20.013718,50.101599],[20.013718,50.101642],[20.013627,50.101642]]]}},{"type":"Feature","id":"w170828951","properties":{"type":"yes","levels":2.0,"residential":true,"residents_est":12,"h3_10":"8a1e2e6a1d6ffff","h3_11":"8b1e2e6a1d6bfff"},"geometry":{"type":"Polygon","coordinates":[[[20.011631,50.104897],[20.011808,50.104889],[20.011833,50.10511],[20.011656,50.105118],[20.011631,50.104897]]]}},{"type":"Feature","id":"w170828952","properties":{"type":"retail","levels":1.0,"address":"Osiedle Piastów 62","residential":false,"residents_est":0,"h3_10":"8a1e2e6a1c4ffff","h3_11":"8b1e2e6a1c4afff"},"geometry":{"type":"Polygon","coordinates":[[[20.013416,50.101523],[20.013489,50.101498],[20.013527,50.101544],[20.013454,50.101569],[20.013416,50.101523]]]}},{"type":"Feature","id":"w170856237","properties":{"type":"industrial","residential":false,"residents_est":0,"h3_10":"8a1e2e6a1d67fff","h3_11":"8b1e2e6a1d64fff"},"geometry":{"type":"Polygon","coordinates":[[[20.008503,50.106278],[20.009139,50.106247],[20.009163,50.106468],[20.008527,50.106499],[20.008503,50.106278]]]}},{"type":"Feature","id":"w170989244","properties":{"type":"yes","residential":true,"residents_est":177,"h3_10":"8a1e2e6a1d37fff","h3_11":"8b1e2e6a1d35fff"},"geometry":{"type":"Polygon","coordinates":[[[20.00308,50.105355],[20.003563,50.105226],[20.003902,50.105751],[20.003422,50.10588],[20.00308,50.105355]]]}},{"type":"Feature","id":"w170989250","properties":{"type":"yes","residential":true,"residents_est":59,"h3_10":"8a1e2e6a1d07fff","h3_11":"8b1e2e6a1d05fff"},"geometry":{"type":"Polygon","coordinates":[[[20.004889,50.104868],[20.005052,50.104827],[20.00539,50.105353],[20.00523,50.105394],[20.004889,50.104868]]]}},{"type":"Feature","id":"w170989254","properties":{"type":"service","residential":false,"residents_est":0,"h3_10":"8a1e2e6a1d57fff","h3_11":"8b1e2e6a1d54fff"},"geometry":{"type":"Polygon","coordinates":[[[20.008001,50.104234],[20.008244,50.104223],[20.008252,50.104281],[20.008006,50.104292],[20.008001,50.104234]]]}},{"type":"Feature","id":"w170989256","properties":{"type":"yes","residential":true,"residents_est":2,"h3_10":"8a1e2e6a1d57fff","h3_11":"8b1e2e6a1d54fff"},"geometry":{"type":"Polygon","coordinates":[[[20.00785,50.10423],[20.007927,50.104228],[20.007933,50.104293],[20.007856,50.104297],[20.00785,50.10423]]]}},{"type":"Feature","id":"w170989257","properties":{"type":"yes","residential":true,"residents_est":2,"h3_10":"8a1e2e6a1d0ffff","h3_11":"8b1e2e6a1d08fff"},"geometry":{"type":"Polygon","coordinates":[[[20.00648,50.104422],[20.006563,50.104419],[20.006571,50.104508],[20.006488,50.104511],[20.00648,50.104422]]]}},{"type":"Feature","id":"w170989261","properties":{"type":"yes","residential":true,"residents_est":107,"h3_10":"8a1e2e6a1d27fff","h3_11":"8b1e2e6a1d22fff"},"geometry":{"type":"Polygon","coordinates":[[[20.003758,50.105173],[20.004047,50.105096],[20.004388,50.105624],[20.004097,50.105699],[20.003758,50.105173]]]}},{"type":"Feature","id":"w170989264","properties":{"type":"yes","residential":true,"residents_est":22,"h3_10":"8a1e2e6a1d2ffff","h3_11":"8b1e2e6a1d2cfff"},"geometry":{"type":"Polygon","coordinates":[[[20.005717,50.105981],[20.006042,50.105968],[20.006054,50.10608],[20.005728,50.106094],[20.005717,50.105981]]]}},{"type":"Feature","id":"w170989265","properties":{"type":"yes","residential":true,"residents_est":9,"h3_10":"8a1e2e6a1d37fff","h3_11":"8b1e2e6a1d36fff"},"geometry":{"type":"Polygon","coordinates":[[[20.002102,50.10521],[20.002231,50.105176],[20.002363,50.105381],[20.002233,50.105415],[20.002102,50.10521]]]}},{"type":"Feature","id":"w170989266","properties":{"type":"yes","residential":true,"residents_est":9,"h3_10":"8a1e2e6a1d0ffff","h3_11":"8b1e2e6a1d09fff"},"geometry":{"type":"Polygon","coordinates":[[[20.006825,50.104306],[20.007332,50.104283],[20.007339,50.104341],[20.006831,50.104363],[20.006825,50.104306]]]}},{"type":"Feature","id":"w170989267","properties":{"type":"yes","residential":true,"residents_est":177,"h3_10":"8a1e2e6a1d07fff","h3_11":"8b1e2e6a1d04fff"},"geometry":{"type":"Polygon","coordinates":[[[20.004244,50.105043],[20.004724,50.104914],[20.005061,50.105442],[20.004583,50.10557],[20.004244,50.105043]]]}},{"type":"Feature","id":"w170989271","properties":{"type":"commercial","address":"Osiedle Bohaterów Września 80A","name":"Alior Bank S.A","residential":false,"residents_est":0,"h3_10":"8a1e2e6a1d77fff","h3_11":"8b1e2e6a1d72fff"},"geometry":{"type":"Polygon","coordinates":[[[20.007853,50.104732],[20.007856,50.104712],[20.007872,50.104693],[20.007896,50.10468],[20.007927,50.104673],[20.007903,50.104459],[20.007896,50.104454],[20.008257,50.104436],[20.008258,50.104442],[20.008252,50.104443],[20.008311,50.104983],[20.008318,50.104988],[20.007957,50.105005],[20.007956,50.104999],[20.007962,50.104998],[20.007939,50.104784],[20.007907,50.10478],[20.00788,50.104769],[20.007861,50.104752],[20.007853,50.104732]]]}},{"type":"Feature","id":"w170989272","properties":{"type":"yes","residential":true,"residents_est":91,"h3_10":"8a1e2e6a1d07fff","h3_11":"8b1e2e6a1d05fff"},"geometry":{"type":"Polygon","coordinates":[[[20.005222,50.104785],[20.005457,50.104723],[20.005813,50.105275],[20.005577,50.105337],[20.005222,50.104785]]]}},{"type":"Feature","id":"w170989277","properties":{"type":"yes","residential":true,"residents_est":25,"h3_10":"8a1e2e6a1d2ffff","h3_11":"8b1e2e6a1d2dfff"},"geometry":{"type":"Polygon","coordinates":[[[20.00636,50.105857],[20.006661,50.105843],[20.006677,50.105981],[20.006379,50.105995],[20.00636,50.105857]]]}},{"type":"Feature","id":"w184336092","properties":{"type":"apartments","levels":2.0,"address":"Osiedle Bohaterów Września 79a","residential":true,"residents_est":91,"h3_10":"8a1e2e6a1ca7fff","h3_11":"8b1e2e6a1ca5fff"},"geometry":{"type":"Polygon","coordinates":[[[20.004513,50.100931],[20.005845,50.100861],[20.00586,50.100975],[20.004527,50.101045],[20.004513,50.100931]]]}},{"type":"Feature","id":"w184336096","properties":{"type":"garages","residential":false,"residents_est":0,"h3_10":"8a1e2e6a1c07fff","h3_11":"8b1e2e6a1c05fff"},"geometry":{"type":"Polygon","coordinates":[[[20.007329,50.102467],[20.007334,50.102416],[20.007565,50.102425],[20.007561,50.102477],[20.007329,50.102467]]]}},{"type":"Feature","id":"w184336099","properties":{"type":"garage","residential":false,"residents_est":0,"h3_10":"8a1e2e6a1c07fff","h3_11":"8b1e2e6a1c05fff"},"geometry":{"type":"Polygon","coordinates":[[[20.007646,50.102486],[20.007652,50.102432],[20.008321,50.10246],[20.008315,50.102514],[20.007646,50.102486]]]}},{"type":"Feature","id":"w184336100","properties":{"type":"garage","residential":false,"residents_est":0,"h3_10":"8a1e2e6a1c07fff","h3_11":"8b1e2e6a1c06fff"},"geometry":{"type":"Polygon","coordinates":[[[20.006245,50.102293],[20.006266,50.102241],[20.007288,50.102407],[20.007267,50.102459],[20.006245,50.102293]]]}},{"type":"Feature","id":"w184336105","properties":{"type":"garage","residential":false,"residents_est":0,"h3_10":"8a1e2e6a1c07fff","h3_11":"8b1e2e6a1c04fff"},"geometry":{"type":"Polygon","coordinates":[[[20.006199,50.102431],[20.006218,50.102382],[20.007255,50.102548],[20.007234,50.102602],[20.006199,50.102431]]]}},{"type":"Feature","id":"w208720641","properties":{"type":"office","levels":4.0,"address":"Osiedle Bohaterów Września 80","name":"Małopolski Urząd Skarbowy w Krakowie","residential":false,"residents_est":0,"h3_10":"8a1e2e6a1d4ffff","h3_11":"8b1e2e6a1d48fff"},"geometry":{"type":"Polygon","coordinates":[[[20.011555,50.104235],[20.011734,50.104227],[20.011783,50.10467],[20.011699,50.104674],[20.011708,50.104753],[20.011595,50.104759],[20.011586,50.104675],[20.011603,50.104675],[20.011555,50.104235]]]}},{"type":"Feature","id":"w217127204","properties":{"type":"retail","levels":2.0,"residential":false,"residents_est":0,"h3_10":"8a1e2e6a1c47fff","h3_11":"8b1e2e6a1c42fff"},"geometry":{"type":"Polygon","coordinates":[[[20.011987,50.101685],[20.011995,50.101627],[20.012147,50.101635],[20.012141,50.101684],[20.012016,50.101677],[20.012015,50.101687],[20.011987,50.101685]]]}},{"type":"Feature","id":"w230061748","properties":{"type":"transportation","levels":1.0,"address":"Osiedle Bohaterów Września 68C","name":"Punkt socjalny MPK S.A. Os. Piastów","residential":false,"residents_est":0,"h3_10":"8a1e2e6a1c47fff","h3_11":"8b1e2e6a1c42fff"},"geometry":{"type":"Polygon","coordinates":[[[20.011848,50.101925],[20.011991,50.101879],[20.01202,50.101916],[20.012012,50.101913],[20.011964,50.101929],[20.011967,50.101933],[20.011962,50.101935],[20.011959,50.10193],[20.01194,50.101936],[20.011957,50.101958],[20.011891,50.101979],[20.011848,50.101925]]]}},{"type":"Feature","id":"w289960746","properties":{"type":"commercial","levels":3.0,"residential":false,"residents_est":0,"h3_10":"8a1e2e6a1c67fff","h3_11":"8b1e2e6a1c60fff"},"geometry":{"type":"Polygon","coordinates":[[[20.011655,50.103346],[20.011795,50.102962],[20.012083,50.103005],[20.011944,50.10339],[20.011655,50.103346]]]}},{"type":"Feature","id":"w323608244","properties":{"type":"yes","residential":true,"residents_est":2,"h3_10":"8a1e2e6a1d37fff","h3_11":"8b1e2e6a1d33fff"},"geometry":{"type":"Polygon","coordinates":[[[20.003358,50.104855],[20.003423,50.104837],[20.003468,50.104904],[20.003403,50.104922],[20.003358,50.104855]]]}},{"type":"Feature","id":"w323608259","properties":{"type":"yes","residential":false,"residents_est":0,"h3_10":"8a1e2e6a1d17fff","h3_11":"8b1e2e6a1d16fff"},"geometry":{"type":"Polygon","coordinates":[[[20.002942,50.103933],[20.002961,50.103885],[20.003054,50.1039],[20.003036,50.103948],[20.002942,50.103933]]]}},{"type":"Feature","id":"w323689306","properties":{"type":"office","levels":4.0,"residential":false,"residents_est":0,"h3_10":"8a1e2e6a1c67fff","h3_11":"8b1e2e6a1c60fff"},"geometry":{"type":"Polygon","coordinates":[[[20.011604,50.103472],[20.01165,50.103345],[20.011968,50.103394],[20.011922,50.103521],[20.011794,50.103501],[20.011787,50.10352],[20.011689,50.103506],[20.011685,50.103517],[20.01164,50.103516],[20.011654,50.10348],[20.011604,50.103472]]]}},{"type":"Feature","id":"w323689318","properties":{"type":"service","residential":false,"residents_est":0,"h3_10":"8a1e2e6a1d6ffff","h3_11":"8b1e2e6a1d6afff"},"geometry":{"type":"Polygon","coordinates":[[[20.011139,50.10506],[20.011219,50.105056],[20.011228,50.105119],[20.011148,50.105124],[20.011139,50.10506]]]}},{"type":"Feature","id":"w323689319","properties":{"type":"yes","residential":true,"residents_est":46,"h3_10":"8a1e2e6a1d2ffff","h3_11":"8b1e2e6a1d2cfff"},"geometry":{"type":"Polygon","coordinates":[[[20.005336,50.105728],[20.006011,50.105692],[20.006026,50.105805],[20.005348,50.10584],[20.005336,50.105728]]]}},{"type":"Feature","id":"w323689324","properties":{"type":"yes","residential":true,"residents_est":4,"h3_10":"8a1e2e6a1d2ffff","h3_11":"8b1e2e6a1d2dfff"},"geometry":{"type":"Polygon","coordinates":[[[20.006661,50.105843],[20.006766,50.105838],[20.00678,50.105949],[20.006674,50.105955],[20.006661,50.105843]]]}},{"type":"Feature","id":"w323689325","properties":{"type":"yes","residential":true,"residents_est":2,"h3_10":"8a1e2e6a1d2ffff","h3_11":"8b1e2e6a1d2dfff"},"geometry":{"type":"Polygon","coordinates":[[[20.006766,50.105658],[20.006815,50.105655],[20.006834,50.105791],[20.006784,50.105792],[20.006766,50.105658]]]}},{"type":"Feature","id":"w323689327","properties":{"type":"service","residential":false,"residents_est":0,"h3_10":"8a1e2e6a1d2ffff","h3_11":"8b1e2e6a1d2dfff"},"geometry":{"type":"Polygon","coordinates":[[[20.006773,50.105836],[20.006844,50.105833],[20.006849,50.105879],[20.006777,50.105883],[20.006773,50.105836]]]}},{"type":"Feature","id":"w323689333","properties":{"type":"yes","residential":false,"residents_est":0,"h3_10":"8a1e2e6a1d27fff","h3_11":"8b1e2e6a1d25fff"},"geometry":{"type":"Polygon","coordinates":[[[20.004827,50.105989],[20.004915,50.105986],[20.004918,50.106031],[20.00483,50.106035],[20.004827,50.105989]]]}},{"type":"Feature","id":"w323689334","properties":{"type":"yes","residential":true,"residents_est":2,"h3_10":"8a1e2e6a1d2ffff","h3_11":"8b1e2e6a1d2dfff"},"geometry":{"type":"Polygon","coordinates":[[[20.00661,50.105616],[20.006692,50.105611],[20.0067,50.105684],[20.006619,50.105688],[20.00661,50.105616]]]}},{"type":"Feature","id":"w323689358","properties":{"type":"commercial","levels":4.0,"address":"Osiedle Bohaterów Września 82","residential":false,"residents_est":0,"h3_10":"8a1e2e6a1c67fff","h3_11":"8b1e2e6a1c63fff"},"geometry":{"type":"Polygon","coordinates":[[[20.01179,50.102961],[20.01185,50.102799],[20.012061,50.10283],[20.012047,50.102867],[20.012128,50.102879],[20.012083,50.103005],[20.01179,50.102961]]]}},{"type":"Feature","id":"w338296724","properties":{"type":"apartments","levels":12.0,"address":"Osiedle Bohaterów Września 68","residential":true,"residents_est":317,"h3_10":"8a1e2e6a1c77fff","h3_11":"8b1e2e6a1c72fff"},"geometry":{"type":"Polygon","coordinates":[[[20.009844,50.102345],[20.009993,50.102311],[20.010106,50.102268],[20.010567,50.102298],[20.010548,50.102412],[20.010424,50.102404],[20.010422,50.102412],[20.010368,50.102408],[20.010369,50.1024],[20.010151,50.102386],[20.010181,50.102422],[20.010051,50.102462],[20.01003,50.102426],[20.009885,50.102457],[20.009844,50.102345]]]}},{"type":"Feature","id":"w338296726","properties":{"type":"kiosk","residential":false,"residents_est":0,"h3_10":"8a1e2e6a1c1ffff","h3_11":"8b1e2e6a1c1dfff"},"geometry":{"type":"Polygon","coordinates":[[[20.008086,50.101573],[20.008087,50.101535],[20.008149,50.101538],[20.008147,50.101576],[20.008086,50.101573]]]}},{"type":"Feature","id":"w338296732","properties":{"type":"service","levels":1.0,"residential":false,"residents_est":0,"h3_10":"8a1e2e6a1c0ffff","h3_11":"8b1e2e6a1c09fff"},"geometry":{"type":"Polygon","coordinates":[[[20.009697,50.101803],[20.009702,50.10175],[20.009785,50.101754],[20.009779,50.101806],[20.009697,50.101803]]]}},{"type":"Feature","id":"w338296760","properties":{"type":"retail","levels":1.0,"residential":false,"residents_est":0,"h3_10":"8a1e2e6a1ceffff","h3_11":"8b1e2e6a1cecfff"},"geometry":{"type":"Polygon","coordinates":[[[20.010443,50.100625],[20.010514,50.100623],[20.010517,50.100656],[20.010445,50.100658],[20.010443,50.100625]]]}},{"type":"Feature","id":"w338296769","properties":{"type":"service","address":"Osiedle Bohaterów Września 34","residential":false,"residents_est":0,"h3_10":"8a1e2e6a1ceffff","h3_11":"8b1e2e6a1ceefff"},"geometry":{"type":"Polygon","coordinates":[[[20.010521,50.100568],[20.010528,50.100524],[20.010597,50.100528],[20.01059,50.100572],[20.010521,50.100568]]]}},{"type":"Feature","id":"w338296775","properties":{"type":"shed","residential":false,"residents_est":0,"h3_10":"8a1e2e6a1c57fff","h3_11":"8b1e2e6a1c52fff"},"geometry":{"type":"Polygon","coordinates":[[[20.010585,50.100916],[20.01064,50.100911],[20.010649,50.100959],[20.010594,50.100963],[20.010585,50.100916]]]}},{"type":"Feature","id":"w338296776","properties":{"type":"retail","levels":1.0,"address":"Osiedle Bohaterów Września 48","name":"Shot Market","residential":false,"residents_est":0,"h3_10":"8a1e2e6a1ce7fff","h3_11":"8b1e2e6a1ce3fff"},"geometry":{"type":"Polygon","coordinates":[[[20.009792,50.100377],[20.009795,50.100313],[20.009906,50.100321],[20.009902,50.10038],[20.009792,50.100377]]]}},{"type":"Feature","id":"w339982144","properties":{"type":"apartments","levels":7.0,"residential":true,"residents_est":48,"h3_10":"8a1e2e6a1cdffff","h3_11":"8b1e2e6a1cdcfff"},"geometry":{"type":"Polygon","coordinates":[[[20.009873,50.099127],[20.00989,50.098947],[20.010013,50.098949],[20.010031,50.098955],[20.010032,50.098984],[20.010009,50.098984],[20.009995,50.099131],[20.009873,50.099127]]]}},{"type":"Feature","id":"w339982146","properties":{"type":"service","levels":1.0,"address":"Osiedle Bohaterów Września 64A","residential":false,"residents_est":0,"h3_10":"8a1e2e6a1c07fff","h3_11":"8b1e2e6a1c06fff"},"geometry":{"type":"Polygon","coordinates":[[[20.00674,50.102128],[20.006745,50.102064],[20.007005,50.102073],[20.006999,50.102137],[20.00674,50.102128]]]}},{"type":"Feature","id":"w339982147","properties":{"type":"apartments","levels":6.0,"address":"Osiedle Bohaterów Września 39","residential":true,"residents_est":43,"h3_10":"8a1e2e6a1cdffff","h3_11":"8b1e2e6a1cdcfff"},"geometry":{"type":"Polygon","coordinates":[[[20.009293,50.098945],[20.0093,50.098871],[20.00931,50.098871],[20.009315,50.098816],[20.009499,50.098826],[20.009491,50.098936],[20.009463,50.098935],[20.009461,50.09895],[20.009293,50.098945]]]}},{"type":"Feature","id":"w339982149","properties":{"type":"garages","levels":1.0,"address":"Osiedle Piastów 58A","residential":false,"residents_est":0,"h3_10":"8a1e2e6a1c6ffff","h3_11":"8b1e2e6a1c6bfff"},"geometry":{"type":"Polygon","coordinates":[[[20.013969,50.102774],[20.013974,50.102771],[20.013975,50.102611],[20.01397,50.102607],[20.014071,50.102608],[20.014066,50.102771],[20.014071,50.102774],[20.013969,50.102774]]]}},{"type":"Feature","id":"w339982155","properties":{"type":"apartments","levels":8.0,"address":"Osiedle Bohaterów Września 39","residential":true,"residents_est":186,"h3_10":"8a1e2e6a1cdffff","h3_11":"8b1e2e6a1cdcfff"},"geometry":{"type":"Polygon","coordinates":[[[20.009491,50.098936],[20.009503,50.098787],[20.009796,50.098798],[20.009794,50.098823],[20.00988,50.098821],[20.009878,50.098841],[20.009898,50.098841],[20.009902,50.09881],[20.009954,50.098812],[20.009955,50.098803],[20.010011,50.098805],[20.010008,50.098829],[20.010029,50.09883],[20.010013,50.098949],[20.009782,50.098943],[20.00978,50.098965],[20.009545,50.098956],[20.009546,50.098939],[20.009491,50.098936]]]}},{"type":"Feature","id":"w339982160","properties":{"type":"yes","residential":false,"residents_est":0,"h3_10":"8a1e2e6a1d8ffff","h3_11":"8b1e2e6a1d89fff"},"geometry":{"type":"Polygon","coordinates":[[[20.004587,50.101885],[20.004593,50.101829],[20.004681,50.101832],[20.004677,50.101888],[20.004587,50.101885]]]}},{"type":"Feature","id":"w339982162","properties":{"type":"yes","residential":false,"residents_est":0,"h3_10":"8a1e2e6a1d8ffff","h3_11":"8b1e2e6a1d89fff"},"geometry":{"type":"Polygon","coordinates":[[[20.004947,50.101933],[20.004949,50.101908],[20.005115,50.101911],[20.005113,50.10194],[20.004947,50.101933]]]}},{"type":"Feature","id":"w339982163","properties":{"type":"retail","levels":1.0,"residential":false,"residents_est":0,"h3_10":"8a1e2e6a1c4ffff","h3_11":"8b1e2e6a1c4cfff"},"geometry":{"type":"Polygon","coordinates":[[[20.01312,50.102288],[20.013121,50.102259],[20.01363,50.102261],[20.013629,50.102291],[20.01312,50.102288]]]}},{"type":"Feature","id":"w339982164","properties":{"type":"retail","levels":1.0,"residential":false,"residents_est":0,"h3_10":"8a1e2e6a1c47fff","h3_11":"8b1e2e6a1c41fff"},"geometry":{"type":"Polygon","coordinates":[[[20.012989,50.102213],[20.012989,50.102186],[20.0131,50.102184],[20.013101,50.102212],[20.012989,50.102213]]]}},{"type":"Feature","id":"w339982165","properties":{"type":"retail","levels":1.0,"residential":false,"residents_est":0,"h3_10":"8a1e2e6a1cd7fff","h3_11":"8b1e2e6a1cd4fff"},"geometry":{"type":"Polygon","coordinates":[[[20.007969,50.099309],[20.008059,50.099305],[20.008066,50.09936],[20.007975,50.099363],[20.007969,50.099309]]]}},{"type":"Feature","id":"w339982167","properties":{"type":"retail","residential":false,"residents_est":0,"h3_10":"8a1e2e6a1c1ffff","h3_11":"8b1e2e6a1c1cfff"},"geometry":{"type":"Polygon","coordinates":[[[20.006967,50.101452],[20.006978,50.101331],[20.007351,50.101342],[20.007341,50.101462],[20.006967,50.101452]]]}},{"type":"Feature","id":"w339982168","properties":{"type":"service","levels":1.0,"residential":false,"residents_est":0,"h3_10":"8a1e2e6a1cd7fff","h3_11":"8b1e2e6a1cd4fff"},"geometry":{"type":"Polygon","coordinates":[[[20.008066,50.09936],[20.008146,50.099356],[20.008154,50.09941],[20.008073,50.099414],[20.008066,50.09936]]]}},{"type":"Feature","id":"w339982193","properties":{"type":"retail","levels":1.0,"residential":false,"residents_est":0,"h3_10":"8a1e2e6a1c4ffff","h3_11":"8b1e2e6a1c4afff"},"geometry":{"type":"Polygon","coordinates":[[[20.013454,50.101569],[20.013527,50.101544],[20.013581,50.101611],[20.013508,50.101635],[20.013454,50.101569]]]}},{"type":"Feature","id":"w339982200","properties":{"type":"toilets","residential":false,"residents_est":0,"h3_10":"8a1e2e6a1c4ffff","h3_11":"8b1e2e6a1c4cfff"},"geometry":{"type":"Polygon","coordinates":[[[20.013672,50.102184],[20.013775,50.102182],[20.013776,50.102237],[20.013676,50.102238],[20.013672,50.102184]]]}},{"type":"Feature","id":"w339982203","properties":{"type":"retail","levels":1.0,"residential":false,"residents_est":0,"h3_10":"8a1e2e6a1c47fff","h3_11":"8b1e2e6a1c41fff"},"geometry":{"type":"Polygon","coordinates":[[[20.012937,50.102225],[20.013099,50.102224],[20.013101,50.102251],[20.012938,50.102252],[20.012937,50.102225]]]}},{"type":"Feature","id":"w339982209","properties":{"type":"retail","levels":1.0,"residential":false,"residents_est":0,"h3_10":"8a1e2e6a1c47fff","h3_11":"8b1e2e6a1c41fff"},"geometry":{"type":"Polygon","coordinates":[[[20.012791,50.102456],[20.013186,50.102414],[20.013193,50.102442],[20.012798,50.102484],[20.012791,50.102456]]]}},{"type":"Feature","id":"w339982224","properties":{"type":"retail","levels":1.0,"residential":false,"residents_est":0,"h3_10":"8a1e2e6a1cd7fff","h3_11":"8b1e2e6a1cd4fff"},"geometry":{"type":"Polygon","coordinates":[[[20.008129,50.099355],[20.008131,50.099306],[20.008177,50.099307],[20.008176,50.099356],[20.008129,50.099355]]]}},{"type":"Feature","id":"w339982225","properties":{"type":"retail","levels":1.0,"address":"Osiedle Bohaterów Września 41","residential":false,"residents_est":0,"h3_10":"8a1e2e6a1cd7fff","h3_11":"8b1e2e6a1cd4fff"},"geometry":{"type":"Polygon","coordinates":[[[20.007915,50.099367],[20.008066,50.09936],[20.008073,50.099414],[20.007923,50.099422],[20.007915,50.099367]]]}},{"type":"Feature","id":"w339982227","properties":{"type":"retail","levels":1.0,"residential":false,"residents_est":0,"h3_10":"8a1e2e6a1c4ffff","h3_11":"8b1e2e6a1c4cfff"},"geometry":{"type":"Polygon","coordinates":[[[20.013535,50.102377],[20.013824,50.102346],[20.013831,50.102375],[20.013543,50.102405],[20.013535,50.102377]]]}},{"type":"Feature","id":"w339982228","properties":{"type":"yes","residential":false,"residents_est":0,"h3_10":"8a1e2e6a1d8ffff","h3_11":"8b1e2e6a1d89fff"},"geometry":{"type":"Polygon","coordinates":[[[20.00438,50.101861],[20.004385,50.101805],[20.004467,50.101808],[20.004464,50.101845],[20.004471,50.101846],[20.00447,50.101865],[20.00438,50.101861]]]}},{"type":"Feature","id":"w339982229","properties":{"type":"retail","levels":1.0,"residential":false,"residents_est":0,"h3_10":"8a1e2e6a1c6ffff","h3_11":"8b1e2e6a1c6afff"},"geometry":{"type":"Polygon","coordinates":[[[20.013219,50.10241],[20.013438,50.102387],[20.013438,50.102375],[20.013498,50.102368],[20.013509,50.102409],[20.013227,50.102438],[20.013219,50.10241]]]}},{"type":"Feature","id":"w339982230","properties":{"type":"apartments","levels":6.0,"residential":true,"residents_est":17,"h3_10":"8a1e2e6a1cc7fff","h3_11":"8b1e2e6a1cc3fff"},"geometry":{"type":"Polygon","coordinates":[[[20.009848,50.099181],[20.009855,50.099126],[20.010021,50.099132],[20.010015,50.099188],[20.009848,50.099181]]]}},{"type":"Feature","id":"w339982233","properties":{"type":"apartments","levels":5.0,"residential":true,"residents_est":30,"h3_10":"8a1e2e6a1cc7fff","h3_11":"8b1e2e6a1cc3fff"},"geometry":{"type":"Polygon","coordinates":[[[20.009841,50.099239],[20.009848,50.099181],[20.01004,50.09919],[20.010029,50.099297],[20.009864,50.099295],[20.009869,50.09924],[20.009841,50.099239]]]}},{"type":"Feature","id":"w423650403","properties":{"type":"presbytery","address":"Osiedle Bohaterów Września 33","residential":false,"residents_est":0,"h3_10":"8a1e2e6a1c57fff","h3_11":"8b1e2e6a1c55fff"},"geometry":{"type":"Polygon","coordinates":[[[20.01115,50.101746],[20.011155,50.101662],[20.011639,50.101673],[20.01163,50.10183],[20.011258,50.101823],[20.011262,50.101748],[20.01115,50.101746]]]}},{"type":"Feature","id":"w510752583","properties":{"type":"apartments","levels":5.0,"address":"Osiedle Bohaterów Września 79c","residential":true,"residents_est":57,"h3_10":"8a1e2e6a1caffff","h3_11":"8b1e2e6a1caefff"},"geometry":{"type":"Polygon","coordinates":[[[20.005468,50.100514],[20.005697,50.100446],[20.005796,50.100584],[20.005568,50.100652],[20.005468,50.100514]]]}},{"type":"Feature","id":"w510752584","properties":{"type":"apartments","levels":5.0,"address":"Osiedle Bohaterów Września 79c","residential":true,"residents_est":55,"h3_10":"8a1e2e6a1caffff","h3_11":"8b1e2e6a1ca8fff"},"geometry":{"type":"Polygon","coordinates":[[[20.005978,50.100372],[20.00621,50.100302],[20.006306,50.100433],[20.006075,50.100503],[20.005978,50.100372]]]}},{"type":"Feature","id":"w512069322","properties":{"type":"shed","residential":false,"residents_est":0,"h3_10":"8a1e2e6a1c17fff","h3_11":"8b1e2e6a1c11fff"},"geometry":{"type":"Polygon","coordinates":[[[20.006737,50.10153],[20.006745,50.101492],[20.006829,50.1015],[20.006821,50.101537],[20.006737,50.10153]]]}},{"type":"Feature","id":"w556882214","properties":{"type":"apartments","levels":10.0,"address":"Osiedle Bohaterów Września 84","residential":true,"residents_est":279,"h3_10":"8a1e2e6a1d47fff","h3_11":"8b1e2e6a1d43fff"},"geometry":{"type":"Polygon","coordinates":[[[20.00981,50.104135],[20.00985,50.104133],[20.009849,50.104122],[20.009924,50.104118],[20.009926,50.10413],[20.009958,50.104128],[20.009956,50.104117],[20.010102,50.10411],[20.010103,50.104122],[20.010143,50.10412],[20.010153,50.10421],[20.010123,50.104211],[20.010127,50.10425],[20.010157,50.104248],[20.010163,50.104298],[20.010145,50.104298],[20.010147,50.10432],[20.010166,50.10432],[20.010148,50.104323],[20.01015,50.104344],[20.010168,50.104343],[20.010179,50.104442],[20.010138,50.104443],[20.01014,50.104456],[20.009971,50.104463],[20.00997,50.104451],[20.009929,50.104453],[20.009919,50.104355],[20.009936,50.104354],[20.009934,50.104332],[20.009916,50.104333],[20.009934,50.10433],[20.009932,50.104308],[20.009914,50.104309],[20.009909,50.104264],[20.009842,50.104267],[20.009839,50.104241],[20.009822,50.104242],[20.00981,50.104135]]]}},{"type":"Feature","id":"w556882215","properties":{"type":"apartments","levels":10.0,"address":"Osiedle Bohaterów Września 84A","residential":true,"residents_est":272,"h3_10":"8a1e2e6a1d47fff","h3_11":"8b1e2e6a1d40fff"},"geometry":{"type":"Polygon","coordinates":[[[20.009876,50.104742],[20.009961,50.104738],[20.009956,50.104693],[20.009974,50.104693],[20.009971,50.104671],[20.009954,50.104672],[20.009971,50.104669],[20.009968,50.104647],[20.009951,50.104648],[20.00994,50.104549],[20.00998,50.104548],[20.009979,50.104536],[20.010147,50.104528],[20.010149,50.104539],[20.010189,50.104537],[20.0102,50.104636],[20.010182,50.104637],[20.010185,50.104659],[20.010203,50.10466],[20.010185,50.104661],[20.010187,50.104683],[20.010205,50.104682],[20.01021,50.104731],[20.01018,50.104733],[20.010184,50.104773],[20.010215,50.104772],[20.010224,50.104859],[20.009891,50.104875],[20.009876,50.104742]]]}},{"type":"Feature","id":"w556882218","properties":{"type":"apartments","levels":10.0,"address":"Osiedle Bohaterów Września 84B","residential":true,"residents_est":272,"h3_10":"8a1e2e6a1d47fff","h3_11":"8b1e2e6a1d46fff"},"geometry":{"type":"Polygon","coordinates":[[[20.009096,50.104711],[20.009135,50.104709],[20.009134,50.104698],[20.00928,50.104691],[20.009281,50.104702],[20.009314,50.104701],[20.009312,50.10469],[20.009389,50.104686],[20.00939,50.104697],[20.009424,50.104696],[20.009426,50.104684],[20.009428,50.104696],[20.009462,50.104694],[20.00946,50.104683],[20.009536,50.104679],[20.009538,50.104691],[20.00957,50.104689],[20.009569,50.104678],[20.009714,50.104671],[20.009716,50.104683],[20.009755,50.104681],[20.00977,50.104813],[20.009546,50.104824],[20.009544,50.104806],[20.009491,50.104808],[20.009493,50.104826],[20.009388,50.104831],[20.009386,50.104813],[20.009335,50.104815],[20.009338,50.104833],[20.00911,50.104843],[20.009096,50.104711]]]}},{"type":"Feature","id":"w598917693","properties":{"type":"residential","levels":5.0,"address":"Osiedle Złotego Wieku 41","residential":true,"residents_est":61,"h3_10":"8a1e2e6a1c97fff","h3_11":"8b1e2e6a1c92fff"},"geometry":{"type":"Polygon","coordinates":[[[20.003003,50.098764],[20.003008,50.098677],[20.003044,50.098679],[20.003048,50.098524],[20.00316,50.098526],[20.003161,50.098513],[20.003244,50.098516],[20.003237,50.098594],[20.003196,50.098593],[20.003184,50.098754],[20.003079,50.098751],[20.003077,50.098767],[20.003003,50.098764]]]}},{"type":"Feature","id":"w598917696","properties":{"type":"residential","levels":5.0,"address":"Osiedle Złotego Wieku 47","residential":true,"residents_est":62,"h3_10":"8a1e2e6a1c97fff","h3_11":"8b1e2e6a1c94fff"},"geometry":{"type":"Polygon","coordinates":[[[20.002501,50.099309],[20.002508,50.099221],[20.002543,50.099222],[20.00255,50.099144],[20.002542,50.099144],[20.002549,50.099068],[20.002659,50.099072],[20.00266,50.099058],[20.002745,50.09906],[20.002737,50.099139],[20.002698,50.099138],[20.002682,50.099299],[20.002578,50.099296],[20.002576,50.099312],[20.002501,50.099309]]]}},{"type":"Feature","id":"w706379986","properties":{"type":"allotment_house","residential":false,"residents_est":0,"h3_10":"8a1e2e6a1c27fff","h3_11":"8b1e2e6a1c24fff"},"geometry":{"type":"Polygon","coordinates":[[[20.006492,50.103791],[20.006508,50.103748],[20.00659,50.103761],[20.006571,50.103805],[20.006492,50.103791]]]}},{"type":"Feature","id":"w706379987","properties":{"type":"garages","residential":false,"residents_est":0,"h3_10":"8a1e2e6a1d57fff","h3_11":"8b1e2e6a1d56fff"},"geometry":{"type":"Polygon","coordinates":[[[20.007628,50.103956],[20.007655,50.103868],[20.008263,50.103947],[20.008235,50.104034],[20.007628,50.103956]]]}},{"type":"Feature","id":"w706379989","properties":{"type":"yes","residential":false,"residents_est":0,"h3_10":"8a1e2e6a1d0ffff","h3_11":"8b1e2e6a1d09fff"},"geometry":{"type":"Polygon","coordinates":[[[20.007549,50.104289],[20.007643,50.104285],[20.007647,50.104327],[20.007554,50.104331],[20.007549,50.104289]]]}},{"type":"Feature","id":"w706379990","properties":{"type":"yes","residential":false,"residents_est":0,"h3_10":"8a1e2e6a1d0ffff","h3_11":"8b1e2e6a1d09fff"},"geometry":{"type":"Polygon","coordinates":[[[20.00737,50.104514],[20.007447,50.104511],[20.007452,50.104559],[20.007376,50.104563],[20.00737,50.104514]]]}},{"type":"Feature","id":"w706379991","properties":{"type":"yes","residential":false,"residents_est":0,"h3_10":"8a1e2e6a1d77fff","h3_11":"8b1e2e6a1d70fff"},"geometry":{"type":"Polygon","coordinates":[[[20.007832,50.10516],[20.007998,50.105152],[20.008001,50.105175],[20.007834,50.105183],[20.007832,50.10516]]]}},{"type":"Feature","id":"w706379992","properties":{"type":"yes","residential":true,"residents_est":2,"h3_10":"8a1e2e6a1d77fff","h3_11":"8b1e2e6a1d70fff"},"geometry":{"type":"Polygon","coordinates":[[[20.007963,50.105016],[20.008034,50.105013],[20.008043,50.105102],[20.007972,50.105105],[20.007963,50.105016]]]}},{"type":"Feature","id":"w706379993","properties":{"type":"service","residential":false,"residents_est":0,"h3_10":"8a1e2e6a1d47fff","h3_11":"8b1e2e6a1d42fff"},"geometry":{"type":"Polygon","coordinates":[[[20.009346,50.104364],[20.009432,50.10436],[20.009434,50.104384],[20.009349,50.104388],[20.009346,50.104364]]]}},{"type":"Feature","id":"w706380001","properties":{"type":"office","levels":8.0,"address":"Osiedle Bohaterów Września 80","residential":false,"residents_est":0,"h3_10":"8a1e2e6a1d4ffff","h3_11":"8b1e2e6a1d4afff"},"geometry":{"type":"Polygon","coordinates":[[[20.011206,50.104132],[20.011545,50.104117],[20.011539,50.104058],[20.011629,50.104054],[20.011635,50.104112],[20.011804,50.104105],[20.011816,50.104222],[20.01122,50.10425],[20.011206,50.104132]]]}},{"type":"Feature","id":"w707409460","properties":{"type":"yes","residential":true,"residents_est":2,"h3_10":"8a1e2e6a1c5ffff","h3_11":"8b1e2e6a1c5cfff"},"geometry":{"type":"Polygon","coordinates":[[[20.012117,50.101291],[20.012127,50.101238],[20.012265,50.101248],[20.012256,50.101301],[20.012117,50.101291]]]}},{"type":"Feature","id":"w707409461","properties":{"type":"yes","residential":true,"residents_est":2,"h3_10":"8a1e2e6a1c5ffff","h3_11":"8b1e2e6a1c5cfff"},"geometry":{"type":"Polygon","coordinates":[[[20.012109,50.10134],[20.012117,50.101291],[20.012256,50.101301],[20.012247,50.101349],[20.012109,50.10134]]]}},{"type":"Feature","id":"w707409462","properties":{"type":"retail","levels":2.0,"residential":false,"residents_est":0,"h3_10":"8a1e2e6a1c5ffff","h3_11":"8b1e2e6a1c5cfff"},"geometry":{"type":"Polygon","coordinates":[[[20.012101,50.101386],[20.012109,50.10134],[20.012247,50.101349],[20.012239,50.101396],[20.012101,50.101386]]]}},{"type":"Feature","id":"w707409463","properties":{"type":"retail","levels":2.0,"residential":false,"residents_est":0,"h3_10":"8a1e2e6a1c5ffff","h3_11":"8b1e2e6a1c5cfff"},"geometry":{"type":"Polygon","coordinates":[[[20.012071,50.101435],[20.012078,50.101385],[20.01221,50.101394],[20.012203,50.101442],[20.012071,50.101435]]]}},{"type":"Feature","id":"w707409464","properties":{"type":"retail","residential":false,"residents_est":0,"h3_10":"8a1e2e6a1c5ffff","h3_11":"8b1e2e6a1c5cfff"},"geometry":{"type":"Polygon","coordinates":[[[20.012062,50.101483],[20.012071,50.101435],[20.012203,50.101442],[20.012197,50.101491],[20.012062,50.101483]]]}},{"type":"Feature","id":"w707409465","properties":{"type":"yes","residential":true,"residents_est":2,"h3_10":"8a1e2e6a1c5ffff","h3_11":"8b1e2e6a1c5cfff"},"geometry":{"type":"Polygon","coordinates":[[[20.012055,50.10153],[20.012062,50.101483],[20.012197,50.101491],[20.012191,50.101538],[20.012055,50.10153]]]}},{"type":"Feature","id":"w707409466","properties":{"type":"retail","levels":2.0,"residential":false,"residents_est":0,"h3_10":"8a1e2e6a1c5ffff","h3_11":"8b1e2e6a1c5cfff"},"geometry":{"type":"Polygon","coordinates":[[[20.012019,50.101579],[20.012026,50.101529],[20.01216,50.101536],[20.012154,50.101586],[20.012019,50.101579]]]}},{"type":"Feature","id":"w707409467","properties":{"type":"retail","levels":2.0,"residential":false,"residents_est":0,"h3_10":"8a1e2e6a1c5ffff","h3_11":"8b1e2e6a1c5cfff"},"geometry":{"type":"Polygon","coordinates":[[[20.012012,50.101627],[20.012019,50.101579],[20.012154,50.101586],[20.012147,50.101635],[20.012012,50.101627]]]}},{"type":"Feature","id":"w725437603","properties":{"type":"roof","residential":false,"residents_est":0,"h3_10":"8a1e2e6a1c47fff","h3_11":"8b1e2e6a1c42fff"},"geometry":{"type":"Polygon","coordinates":[[[20.01194,50.101936],[20.011959,50.10193],[20.011962,50.101935],[20.011967,50.101933],[20.011964,50.101929],[20.012012,50.101913],[20.01202,50.101916],[20.012002,50.101893],[20.012012,50.10189],[20.01202,50.101901],[20.01207,50.101885],[20.012093,50.101914],[20.011957,50.101958],[20.01194,50.101936]]]}},{"type":"Feature","id":"w879762918","properties":{"type":"apartments","levels":10.0,"address":"Osiedle Bohaterów Września 84C","residential":true,"residents_est":272,"h3_10":"8a1e2e6a1d47fff","h3_11":"8b1e2e6a1d46fff"},"geometry":{"type":"Polygon","coordinates":[[[20.008635,50.104608],[20.008675,50.104606],[20.008674,50.104594],[20.008843,50.104587],[20.008844,50.104598],[20.008884,50.104596],[20.008895,50.104696],[20.008878,50.104697],[20.00888,50.104718],[20.008898,50.10472],[20.00888,50.104721],[20.008883,50.104742],[20.0089,50.104741],[20.008905,50.104786],[20.008972,50.104783],[20.008975,50.104809],[20.008992,50.104808],[20.009004,50.104916],[20.00867,50.104931],[20.00866,50.10484],[20.008691,50.104839],[20.008686,50.104801],[20.008656,50.104802],[20.008651,50.104752],[20.008668,50.104752],[20.008666,50.10473],[20.008648,50.104728],[20.008666,50.104728],[20.008663,50.104706],[20.008646,50.104707],[20.008635,50.104608]]]}},{"type":"Feature","id":"w879762919","properties":{"type":"apartments","levels":10.0,"address":"Osiedle Bohaterów Września 84D","residential":true,"residents_est":281,"h3_10":"8a1e2e6a1d57fff","h3_11":"8b1e2e6a1d55fff"},"geometry":{"type":"Polygon","coordinates":[[[20.008589,50.10419],[20.008629,50.104188],[20.008628,50.104177],[20.008882,50.104165],[20.008883,50.104177],[20.008923,50.104175],[20.008935,50.104283],[20.008917,50.104283],[20.00892,50.104309],[20.008853,50.104312],[20.008858,50.104357],[20.00884,50.104358],[20.008843,50.104379],[20.008861,50.104378],[20.008843,50.104382],[20.008845,50.104403],[20.008863,50.104402],[20.008874,50.104501],[20.008834,50.104503],[20.008835,50.104515],[20.008666,50.104523],[20.008664,50.10451],[20.008624,50.104512],[20.008613,50.104414],[20.008631,50.104413],[20.008629,50.104392],[20.008611,50.10439],[20.008629,50.104389],[20.008626,50.104368],[20.008608,50.104368],[20.008603,50.104319],[20.008634,50.104317],[20.008629,50.104279],[20.008599,50.10428],[20.008589,50.10419]]]}},{"type":"Feature","id":"w944262374","properties":{"type":"convent","address":"Osiedle Bohaterów Września 33","residential":false,"residents_est":0,"h3_10":"8a1e2e6a1c57fff","h3_11":"8b1e2e6a1c51fff"},"geometry":{"type":"Polygon","coordinates":[[[20.011509,50.101669],[20.011531,50.101372],[20.011702,50.101378],[20.011689,50.101567],[20.011647,50.101566],[20.011639,50.101673],[20.011509,50.101669]]]}},{"type":"Feature","id":"w1016164193","properties":{"type":"apartments","levels":10.0,"address":"Osiedle Bohaterów Września 88","residential":true,"residents_est":380,"h3_10":"8a1e2e6a1d77fff","h3_11":"8b1e2e6a1d71fff"},"geometry":{"type":"Polygon","coordinates":[[[20.008597,50.105161],[20.008657,50.105158],[20.008659,50.10517],[20.008695,50.105168],[20.008696,50.105156],[20.008698,50.105168],[20.008734,50.105167],[20.008733,50.105154],[20.008872,50.105148],[20.008873,50.10516],[20.008907,50.105159],[20.008906,50.105147],[20.008959,50.105144],[20.00896,50.105156],[20.009008,50.105154],[20.009009,50.105142],[20.00901,50.105154],[20.009057,50.105152],[20.009055,50.10514],[20.009108,50.105138],[20.009109,50.10515],[20.009145,50.105148],[20.009144,50.105136],[20.009147,50.105148],[20.009182,50.105146],[20.009181,50.105134],[20.009359,50.105126],[20.00936,50.105138],[20.009402,50.105137],[20.00941,50.105206],[20.009428,50.105205],[20.009435,50.105268],[20.009375,50.105271],[20.009376,50.105284],[20.009253,50.105289],[20.009255,50.105308],[20.009156,50.105313],[20.009154,50.105294],[20.008894,50.105305],[20.008896,50.105324],[20.008843,50.105327],[20.008797,50.105329],[20.008795,50.10531],[20.008667,50.105316],[20.008665,50.105303],[20.008612,50.105305],[20.008597,50.105161]]]}},{"type":"Feature","id":"w1016164194","properties":{"type":"apartments","levels":10.0,"address":"Osiedle Bohaterów Września 88A","residential":true,"residents_est":376,"h3_10":"8a1e2e6a1d47fff","h3_11":"8b1e2e6a1d45fff"},"geometry":{"type":"Polygon","coordinates":[[[20.009542,50.1052],[20.009561,50.105199],[20.009553,50.10513],[20.009595,50.105128],[20.009594,50.105116],[20.009772,50.105108],[20.009773,50.10512],[20.009808,50.105118],[20.009807,50.105106],[20.009811,50.105118],[20.009846,50.105116],[20.009845,50.105104],[20.009897,50.105102],[20.009899,50.105114],[20.009947,50.105112],[20.009945,50.1051],[20.009949,50.105112],[20.009995,50.10511],[20.009994,50.105098],[20.010047,50.105095],[20.010048,50.105107],[20.010082,50.105106],[20.010081,50.105094],[20.01022,50.105087],[20.010221,50.1051],[20.010258,50.105098],[20.010256,50.105086],[20.01026,50.105098],[20.010297,50.105096],[20.010295,50.105084],[20.010342,50.105082],[20.010351,50.105163],[20.010365,50.105163],[20.010372,50.105226],[20.010319,50.105228],[20.01032,50.105241],[20.010192,50.105247],[20.010194,50.105266],[20.010095,50.10527],[20.010093,50.105251],[20.009832,50.105263],[20.009834,50.105282],[20.009736,50.105286],[20.009733,50.105267],[20.009611,50.105273],[20.009609,50.10526],[20.009549,50.105263],[20.009542,50.1052]]]}},{"type":"Feature","id":"r19609635","properties":{"type":"apartments","levels":9.0,"address":"Powstańców 82","residential":true,"residents_est":546,"h3_10":"8a1e2e6a1d67fff","h3_11":"8b1e2e6a1d65fff"},"geometry":{"type":"MultiPolygon","coordinates":[[[[20.009626,50.106114],[20.010193,50.106087],[20.010208,50.10622],[20.010103,50.10622],[20.010075,50.106222],[20.010076,50.106226],[20.009845,50.106237],[20.009851,50.106292],[20.009844,50.106292],[20.009847,50.106316],[20.009854,50.106315],[20.009857,50.106342],[20.009873,50.106341],[20.009879,50.1064],[20.009661,50.10641],[20.009626,50.106114]]],[[[20.009675,50.106537],[20.009692,50.106536],[20.00969,50.106513],[20.009883,50.106504],[20.009888,50.106542],[20.009879,50.106543],[20.009885,50.106597],[20.010259,50.106579],[20.010274,50.106701],[20.010182,50.106706],[20.010184,50.106716],[20.01009,50.106721],[20.010089,50.10671],[20.010055,50.106712],[20.010057,50.106722],[20.009954,50.106727],[20.009953,50.106717],[20.009924,50.106718],[20.009926,50.106729],[20.009803,50.10673],[20.009804,50.106735],[20.009754,50.106737],[20.009752,50.106726],[20.009698,50.106729],[20.009675,50.106537]]]]}},{"type":"Feature","id":"w1034774920","properties":{"type":"apartments","levels":5.0,"address":"Osiedle Bohaterów Września 79d","residential":true,"residents_est":62,"h3_10":"8a1e2e6a1caffff","h3_11":"8b1e2e6a1caefff"},"geometry":{"type":"Polygon","coordinates":[[[20.005322,50.100201],[20.005556,50.100131],[20.005661,50.100275],[20.005427,50.100346],[20.005322,50.100201]]]}},{"type":"Feature","id":"w1034774921","properties":{"type":"apartments","levels":5.0,"address":"Osiedle Bohaterów Września 79d","residential":true,"residents_est":62,"h3_10":"8a1e2e6a1ca7fff","h3_11":"8b1e2e6a1ca3fff"},"geometry":{"type":"Polygon","coordinates":[[[20.004884,50.100331],[20.005118,50.100261],[20.005223,50.100406],[20.004989,50.100476],[20.004884,50.100331]]]}},{"type":"Feature","id":"w1049554524","properties":{"type":"service","levels":1.0,"residential":false,"residents_est":0,"h3_10":"8a1e2e6a1d6ffff","h3_11":"8b1e2e6a1d6afff"},"geometry":{"type":"Polygon","coordinates":[[[20.011148,50.105124],[20.011228,50.105119],[20.011236,50.105182],[20.011157,50.105187],[20.011148,50.105124]]]}},{"type":"Feature","id":"w1049554610","properties":{"type":"outbuilding","levels":1.0,"residential":false,"residents_est":0,"h3_10":"8a1e2e6a1d2ffff","h3_11":"8b1e2e6a1d2efff"},"geometry":{"type":"Polygon","coordinates":[[[20.005412,50.105677],[20.005653,50.105612],[20.005664,50.105671],[20.005423,50.105694],[20.005412,50.105677]]]}},{"type":"Feature","id":"w1050048943","properties":{"type":"apartments","levels":9.0,"address":"Osiedle Bohaterów Września 90","residential":true,"residents_est":179,"h3_10":"8a1e2e6a1d6ffff","h3_11":"8b1e2e6a1d6efff"},"geometry":{"type":"Polygon","coordinates":[[[20.010674,50.105357],[20.010938,50.105345],[20.010965,50.105595],[20.010701,50.105607],[20.010674,50.105357]]]}},{"type":"Feature","id":"w1076607755","properties":{"type":"retail","residential":false,"residents_est":0,"h3_10":"8a1e2e6a1c6ffff","h3_11":"8b1e2e6a1c6efff"},"geometry":{"type":"Polygon","coordinates":[[[20.012784,50.102934],[20.01279,50.102886],[20.012888,50.10289],[20.012882,50.102938],[20.012784,50.102934]]]}},{"type":"Feature","id":"w1076607766","properties":{"type":"warehouse","levels":1.0,"residential":false,"residents_est":0,"h3_10":"8a1e2e6a1d67fff","h3_11":"8b1e2e6a1d66fff"},"geometry":{"type":"Polygon","coordinates":[[[20.008442,50.105697],[20.008458,50.105596],[20.008624,50.105606],[20.008626,50.105592],[20.009304,50.105638],[20.009284,50.105753],[20.008442,50.105697]]]}},{"type":"Feature","id":"w1087938526","properties":{"type":"yes","residential":true,"residents_est":2,"h3_10":"8a1e2e6a1c9ffff","h3_11":"8b1e2e6a1c99fff"},"geometry":{"type":"Polygon","coordinates":[[[20.005559,50.098483],[20.005648,50.098437],[20.005718,50.098492],[20.005628,50.098538],[20.005559,50.098483]]]}},{"type":"Feature","id":"r18247431","properties":{"type":"apartments","levels":9.0,"residential":true,"residents_est":342,"h3_10":"8a1e2e6a1d67fff","h3_11":"8b1e2e6a1d60fff"},"geometry":{"type":"MultiPolygon","coordinates":[[[[20.009494,50.105691],[20.009992,50.105667],[20.010003,50.1058],[20.009837,50.105808],[20.009837,50.105802],[20.009514,50.105823],[20.009494,50.105691]]],[[[20.010111,50.105737],[20.010591,50.105715],[20.010606,50.105847],[20.010445,50.105854],[20.010443,50.105844],[20.0103,50.10585],[20.010286,50.105851],[20.010287,50.105862],[20.010126,50.10587],[20.010111,50.105737]]]]}},{"type":"Feature","id":"w1151262384","properties":{"type":"service","levels":1.0,"residential":false,"residents_est":0,"h3_10":"8a1e2e6a1d47fff","h3_11":"8b1e2e6a1d42fff"},"geometry":{"type":"Polygon","coordinates":[[[20.0092,50.10422],[20.009268,50.104217],[20.009273,50.104261],[20.009206,50.104265],[20.0092,50.10422]]]}},{"type":"Feature","id":"w1151262385","properties":{"type":"service","levels":1.0,"residential":false,"residents_est":0,"h3_10":"8a1e2e6a1d47fff","h3_11":"8b1e2e6a1d42fff"},"geometry":{"type":"Polygon","coordinates":[[[20.009479,50.104208],[20.009546,50.104205],[20.009552,50.10425],[20.009484,50.104253],[20.009479,50.104208]]]}},{"type":"Feature","id":"w1197846682","properties":{"type":"outbuilding","levels":1.0,"residential":false,"residents_est":0,"h3_10":"8a1e2e6a1ccffff","h3_11":"8b1e2e6a1ccbfff"},"geometry":{"type":"Polygon","coordinates":[[[20.012,50.09887],[20.012089,50.09887],[20.01209,50.09894],[20.012002,50.09894],[20.012,50.09887]]]}},{"type":"Feature","id":"w1241883122","properties":{"type":"apartments","levels":8.0,"address":"Osiedle Bohaterów Września 86A","residential":true,"residents_est":213,"h3_10":"8a1e2e6a1d6ffff","h3_11":"8b1e2e6a1d6afff"},"geometry":{"type":"Polygon","coordinates":[[[20.010619,50.104853],[20.010877,50.104839],[20.010923,50.105182],[20.010664,50.105196],[20.010619,50.104853]]]}},{"type":"Feature","id":"w1241883123","properties":{"type":"apartments","levels":8.0,"address":"Osiedle Bohaterów Września 86","residential":true,"residents_est":273,"h3_10":"8a1e2e6a1d4ffff","h3_11":"8b1e2e6a1d4efff"},"geometry":{"type":"Polygon","coordinates":[[[20.010546,50.104192],[20.010762,50.104183],[20.010765,50.10422],[20.010814,50.104219],[20.010858,50.104617],[20.010601,50.104633],[20.010559,50.104329],[20.010546,50.104192]]]}},{"type":"Feature","id":"w1330507805","properties":{"type":"yes","residential":false,"residents_est":0,"h3_10":"8a1e2e6a1d6ffff","h3_11":"8b1e2e6a1d6dfff"},"geometry":{"type":"Polygon","coordinates":[[[20.011359,50.105919],[20.011426,50.105915],[20.011436,50.105984],[20.011369,50.105988],[20.011359,50.105919]]]}},{"type":"Feature","id":"w1330507863","properties":{"type":"yes","residential":false,"residents_est":0,"h3_10":"8a1e2e6a1d67fff","h3_11":"8b1e2e6a1d60fff"},"geometry":{"type":"Polygon","coordinates":[[[20.009287,50.105924],[20.009374,50.10592],[20.00938,50.105967],[20.009292,50.105971],[20.009287,50.105924]]]}},{"type":"Feature","id":"w1330507864","properties":{"type":"yes","residential":false,"residents_est":0,"h3_10":"8a1e2e6a1d67fff","h3_11":"8b1e2e6a1d64fff"},"geometry":{"type":"Polygon","coordinates":[[[20.009333,50.106321],[20.00942,50.106317],[20.009426,50.106364],[20.009338,50.106368],[20.009333,50.106321]]]}},{"type":"Feature","id":"w1330507921","properties":{"type":"yes","residential":false,"residents_est":0,"h3_10":"8a1e2e6a1d47fff","h3_11":"8b1e2e6a1d45fff"},"geometry":{"type":"Polygon","coordinates":[[[20.010317,50.104953],[20.010374,50.10495],[20.01038,50.104993],[20.010323,50.104997],[20.010317,50.104953]]]}},{"type":"Feature","id":"w1330507927","properties":{"type":"yes","residential":false,"residents_est":0,"h3_10":"8a1e2e6a1d47fff","h3_11":"8b1e2e6a1d44fff"},"geometry":{"type":"Polygon","coordinates":[[[20.009383,50.105],[20.009465,50.104997],[20.009468,50.105032],[20.009387,50.105036],[20.009383,50.105]]]}},{"type":"Feature","id":"w1330507936","properties":{"type":"yes","residential":false,"residents_est":0,"h3_10":"8a1e2e6a1d67fff","h3_11":"8b1e2e6a1d60fff"},"geometry":{"type":"Polygon","coordinates":[[[20.009276,50.10583],[20.009346,50.105827],[20.009351,50.105873],[20.00928,50.105875],[20.009276,50.10583]]]}},{"type":"Feature","id":"w1351335346","properties":{"type":"service","levels":1.0,"residential":false,"residents_est":0,"h3_10":"8a1e2e6a1d6ffff","h3_11":"8b1e2e6a1d68fff"},"geometry":{"type":"Polygon","coordinates":[[[20.011236,50.10564],[20.011272,50.105639],[20.011277,50.105693],[20.011241,50.105694],[20.011236,50.10564]]]}},{"type":"Feature","id":"w1351335363","properties":{"type":"yes","residential":false,"residents_est":0,"h3_10":"8a1e2e6a1d77fff","h3_11":"8b1e2e6a1d71fff"},"geometry":{"type":"Polygon","coordinates":[[[20.008544,50.105034],[20.0086,50.105032],[20.008604,50.105076],[20.008548,50.105078],[20.008544,50.105034]]]}},{"type":"Feature","id":"w1358102725","properties":{"type":"retail","levels":1.0,"residential":false,"residents_est":0,"h3_10":"8a1e2e6a1c5ffff","h3_11":"8b1e2e6a1c58fff"},"geometry":{"type":"Polygon","coordinates":[[[20.012481,50.101097],[20.012487,50.10107],[20.012501,50.101071],[20.012507,50.101048],[20.012577,50.101055],[20.012566,50.101106],[20.012481,50.101097]]]}},{"type":"Feature","id":"w1446528116","properties":{"type":"service","levels":1.0,"residential":false,"residents_est":0,"h3_10":"8a1e2e6a1d47fff","h3_11":"8b1e2e6a1d41fff"},"geometry":{"type":"Polygon","coordinates":[[[20.010627,50.104795],[20.01084,50.104782],[20.010843,50.104806],[20.01063,50.104819],[20.010627,50.104795]]]}},{"type":"Feature","id":"w1446528118","properties":{"type":"service","levels":1.0,"residential":false,"residents_est":0,"h3_10":"8a1e2e6a1d47fff","h3_11":"8b1e2e6a1d41fff"},"geometry":{"type":"Polygon","coordinates":[[[20.01083,50.104698],[20.010874,50.104697],[20.010877,50.104749],[20.010833,50.104751],[20.01083,50.104698]]]}},{"type":"Feature","id":"r19947724","properties":{"type":"underground","residential":false,"residents_est":0,"h3_10":"8a1e2e6a1d47fff","h3_11":"8b1e2e6a1d41fff"},"geometry":{"type":"Polygon","coordinates":[[[20.010538,50.104676],[20.010827,50.104658],[20.010831,50.104721],[20.010542,50.104735],[20.010538,50.104676]]]}},{"type":"Feature","id":"r19947725","properties":{"type":"yes","residential":false,"residents_est":0,"h3_10":"8a1e2e6a1d47fff","h3_11":"8b1e2e6a1d41fff"},"geometry":{"type":"Polygon","coordinates":[[[20.010618,50.104731],[20.010831,50.104721],[20.010833,50.104751],[20.010621,50.104761],[20.010618,50.104731]]]}},{"type":"Feature","id":"w1525850571","properties":{"type":"roof","residential":false,"residents_est":0,"h3_10":"8a1e2e6a1c47fff","h3_11":"8b1e2e6a1c41fff"},"geometry":{"type":"Polygon","coordinates":[[[20.012988,50.102364],[20.013053,50.10236],[20.013057,50.102395],[20.012993,50.102398],[20.012988,50.102364]]]}},{"type":"Feature","id":"w1528803838","properties":{"type":"construction","levels":11.0,"residential":false,"residents_est":0,"h3_10":"8a1e2e6a1d6ffff","h3_11":"8b1e2e6a1d69fff"},"geometry":{"type":"Polygon","coordinates":[[[20.011492,50.105306],[20.011888,50.105292],[20.01193,50.105696],[20.011693,50.105706],[20.011659,50.105428],[20.01151,50.105435],[20.011492,50.105306]]]}}]}