{"type":"FeatureCollection","features":[{"type":"Feature","id":"w337950107","properties":{"type":"yes","residential":true,"residents_est":6,"h3_10":"8a1e2e619747fff","h3_11":"8b1e2e619740fff"},"geometry":{"type":"Polygon","coordinates":[[[20.181533,50.113174],[20.181639,50.113118],[20.181705,50.113171],[20.181746,50.113149],[20.181794,50.113187],[20.181648,50.113265],[20.181641,50.113259],[20.181605,50.113278],[20.181568,50.113248],[20.181604,50.11323],[20.181533,50.113174]]]}},{"type":"Feature","id":"w337950111","properties":{"type":"yes","residential":true,"residents_est":5,"h3_10":"8a1e2e61974ffff","h3_11":"8b1e2e61974cfff"},"geometry":{"type":"Polygon","coordinates":[[[20.182911,50.113123],[20.183003,50.113053],[20.183134,50.113117],[20.183036,50.113191],[20.182997,50.113169],[20.182991,50.113174],[20.18296,50.113157],[20.182966,50.113153],[20.182911,50.113123]]]}},{"type":"Feature","id":"w337950118","properties":{"type":"yes","residential":true,"residents_est":2,"h3_10":"8a1e2e61970ffff","h3_11":"8b1e2e619708fff"},"geometry":{"type":"Polygon","coordinates":[[[20.17814,50.112583],[20.178251,50.112524],[20.178299,50.112561],[20.178189,50.11262],[20.17814,50.112583]]]}},{"type":"Feature","id":"w337950153","properties":{"type":"yes","residential":true,"residents_est":9,"h3_10":"8a1e2e61976ffff","h3_11":"8b1e2e61976afff"},"geometry":{"type":"Polygon","coordinates":[[[20.182573,50.11322],[20.182715,50.113139],[20.182769,50.113178],[20.182732,50.113199],[20.182768,50.113225],[20.182805,50.113204],[20.182872,50.113253],[20.182691,50.113356],[20.182628,50.113308],[20.182665,50.113287],[20.182573,50.11322]]]}},{"type":"Feature","id":"w337950160","properties":{"type":"yes","residential":true,"residents_est":18,"h3_10":"8a1e2e619777fff","h3_11":"8b1e2e619773fff"},"geometry":{"type":"Polygon","coordinates":[[[20.179827,50.112844],[20.180085,50.112701],[20.180118,50.112724],[20.180079,50.112746],[20.180103,50.112764],[20.179988,50.112828],[20.180029,50.112858],[20.180068,50.112837],[20.180114,50.112873],[20.179974,50.112951],[20.179827,50.112844]]]}},{"type":"Feature","id":"w337950194","properties":{"type":"yes","residential":true,"residents_est":2,"h3_10":"8a1e2e619757fff","h3_11":"8b1e2e619754fff"},"geometry":{"type":"Polygon","coordinates":[[[20.179405,50.112607],[20.179416,50.1126],[20.179425,50.112606],[20.179447,50.112592],[20.179427,50.112578],[20.17948,50.112545],[20.179542,50.112583],[20.179448,50.112646],[20.179437,50.112639],[20.179446,50.112633],[20.179405,50.112607]]]}},{"type":"Feature","id":"w337950243","properties":{"type":"yes","residential":true,"residents_est":5,"h3_10":"8a1e2e61978ffff","h3_11":"8b1e2e61978bfff"},"geometry":{"type":"Polygon","coordinates":[[[20.175756,50.109603],[20.17592,50.109524],[20.175961,50.109559],[20.175975,50.109552],[20.176,50.109574],[20.175985,50.109581],[20.176007,50.1096],[20.1759,50.109651],[20.175873,50.109628],[20.175816,50.109655],[20.175756,50.109603]]]}},{"type":"Feature","id":"w337950253","properties":{"type":"yes","residential":true,"residents_est":6,"h3_10":"8a1e2e6196a7fff","h3_11":"8b1e2e6196a6fff"},"geometry":{"type":"Polygon","coordinates":[[[20.17533,50.108836],[20.175439,50.108781],[20.175577,50.108893],[20.17547,50.108948],[20.17533,50.108836]]]}},{"type":"Feature","id":"w337950282","properties":{"type":"yes","residential":true,"residents_est":5,"h3_10":"8a1e2e619637fff","h3_11":"8b1e2e619635fff"},"geometry":{"type":"Polygon","coordinates":[[[20.177585,50.11123],[20.177695,50.111185],[20.177729,50.111218],[20.177741,50.111214],[20.177778,50.111251],[20.177766,50.111256],[20.177799,50.11129],[20.177689,50.111335],[20.177656,50.111301],[20.177631,50.111311],[20.177594,50.111274],[20.177619,50.111263],[20.177585,50.11123]]]}},{"type":"Feature","id":"w337950284","properties":{"type":"yes","residential":true,"residents_est":6,"h3_10":"8a1e2e61972ffff","h3_11":"8b1e2e61972bfff"},"geometry":{"type":"Polygon","coordinates":[[[20.178421,50.113232],[20.178523,50.11318],[20.178471,50.11314],[20.178503,50.113124],[20.178513,50.113132],[20.178588,50.113092],[20.178685,50.11316],[20.178574,50.113219],[20.178581,50.113225],[20.178476,50.113278],[20.178421,50.113232]]]}},{"type":"Feature","id":"w337950304","properties":{"type":"yes","residential":true,"residents_est":18,"h3_10":"8a1e2e619707fff","h3_11":"8b1e2e619702fff"},"geometry":{"type":"Polygon","coordinates":[[[20.17635,50.112561],[20.176652,50.112379],[20.176779,50.112467],[20.176671,50.112532],[20.176642,50.112512],[20.176627,50.112521],[20.176586,50.112493],[20.176532,50.112525],[20.176518,50.112515],[20.176447,50.112558],[20.176467,50.112571],[20.176412,50.112604],[20.17635,50.112561]]]}},{"type":"Feature","id":"w337950310","properties":{"type":"yes","residential":true,"residents_est":4,"h3_10":"8a1e2e619767fff","h3_11":"8b1e2e619765fff"},"geometry":{"type":"Polygon","coordinates":[[[20.181661,50.114316],[20.181828,50.114261],[20.181841,50.11428],[20.18185,50.114277],[20.181869,50.114303],[20.181859,50.114306],[20.181872,50.114325],[20.181748,50.114361],[20.181744,50.114356],[20.181699,50.114369],[20.181661,50.114316]]]}},{"type":"Feature","id":"w337950325","properties":{"type":"yes","residential":true,"residents_est":6,"h3_10":"8a1e2e619747fff","h3_11":"8b1e2e619741fff"},"geometry":{"type":"Polygon","coordinates":[[[20.18251,50.113037],[20.182616,50.112979],[20.182656,50.113009],[20.182677,50.112997],[20.182714,50.113024],[20.182693,50.113036],[20.182745,50.113073],[20.182637,50.113132],[20.182586,50.113094],[20.182565,50.113106],[20.182529,50.113079],[20.18255,50.113067],[20.18251,50.113037]]]}},{"type":"Feature","id":"w337950341","properties":{"type":"yes","residential":true,"residents_est":8,"h3_10":"8a1e2e61974ffff","h3_11":"8b1e2e619748fff"},"geometry":{"type":"Polygon","coordinates":[[[20.182865,50.112795],[20.183024,50.112707],[20.182999,50.112686],[20.183045,50.11266],[20.183072,50.112679],[20.183092,50.112668],[20.183146,50.112708],[20.18307,50.112751],[20.183155,50.112814],[20.18305,50.112873],[20.182963,50.112809],[20.182918,50.112834],[20.182865,50.112795]]]}},{"type":"Feature","id":"w337950417","properties":{"type":"yes","residential":true,"residents_est":23,"h3_10":"8a1e2e61971ffff","h3_11":"8b1e2e61971dfff"},"geometry":{"type":"Polygon","coordinates":[[[20.177276,50.11216],[20.177373,50.112112],[20.177321,50.112074],[20.177436,50.112009],[20.177447,50.112017],[20.177542,50.111963],[20.177635,50.112031],[20.17754,50.112085],[20.177482,50.112042],[20.177463,50.112053],[20.177499,50.11208],[20.177403,50.112134],[20.177496,50.112208],[20.177422,50.112246],[20.177429,50.112251],[20.177417,50.112257],[20.177433,50.112272],[20.177392,50.112291],[20.177355,50.112257],[20.177379,50.112246],[20.177276,50.11216]]]}},{"type":"Feature","id":"w337950418","properties":{"type":"yes","residential":true,"residents_est":7,"h3_10":"8a1e2e619757fff","h3_11":"8b1e2e619756fff"},"geometry":{"type":"Polygon","coordinates":[[[20.179299,50.112395],[20.179406,50.112337],[20.179424,50.11235],[20.179469,50.112326],[20.179569,50.112401],[20.17939,50.1125],[20.179325,50.112451],[20.179353,50.112436],[20.179299,50.112395]]]}},{"type":"Feature","id":"w337950421","properties":{"type":"yes","residential":true,"residents_est":8,"h3_10":"8a1e2e61978ffff","h3_11":"8b1e2e61978bfff"},"geometry":{"type":"Polygon","coordinates":[[[20.175923,50.109815],[20.175973,50.109789],[20.17596,50.109778],[20.175987,50.109764],[20.176,50.109774],[20.176049,50.109748],[20.176092,50.109781],[20.176127,50.109763],[20.176101,50.109743],[20.176157,50.109713],[20.176244,50.109781],[20.176277,50.109764],[20.176311,50.109791],[20.176264,50.109817],[20.176254,50.109809],[20.176179,50.109849],[20.176131,50.109811],[20.17608,50.109839],[20.176095,50.10985],[20.176069,50.109864],[20.176054,50.109852],[20.176005,50.109878],[20.175923,50.109815]]]}},{"type":"Feature","id":"w337950424","properties":{"type":"yes","residential":true,"residents_est":4,"h3_10":"8a1e2e61970ffff","h3_11":"8b1e2e61970cfff"},"geometry":{"type":"Polygon","coordinates":[[[20.17805,50.11311],[20.178085,50.113091],[20.17807,50.11308],[20.178081,50.113073],[20.178083,50.113062],[20.178112,50.113047],[20.178141,50.113042],[20.178156,50.113054],[20.178191,50.113036],[20.178214,50.113053],[20.178227,50.113054],[20.178238,50.113064],[20.178237,50.113072],[20.17826,50.11309],[20.1782,50.113121],[20.178195,50.113117],[20.178173,50.113129],[20.178178,50.113133],[20.178118,50.113164],[20.178096,50.113146],[20.178071,50.113137],[20.178072,50.113128],[20.17805,50.11311]]]}},{"type":"Feature","id":"w337950543","properties":{"type":"yes","residential":true,"residents_est":4,"h3_10":"8a1e2e61972ffff","h3_11":"8b1e2e619729fff"},"geometry":{"type":"Polygon","coordinates":[[[20.178809,50.113882],[20.17896,50.113802],[20.17903,50.113857],[20.178879,50.113937],[20.178809,50.113882]]]}},{"type":"Feature","id":"w337950613","properties":{"type":"yes","residential":true,"residents_est":3,"h3_10":"8a1e2e61978ffff","h3_11":"8b1e2e61978cfff"},"geometry":{"type":"Polygon","coordinates":[[[20.175209,50.110408],[20.175281,50.110372],[20.175343,50.110423],[20.175271,50.110459],[20.175209,50.110408]]]}},{"type":"Feature","id":"w337950616","properties":{"type":"yes","residential":true,"residents_est":5,"h3_10":"8a1e2e6196a7fff","h3_11":"8b1e2e6196a4fff"},"geometry":{"type":"Polygon","coordinates":[[[20.175841,50.109227],[20.17594,50.109177],[20.176063,50.109277],[20.175964,50.109327],[20.175841,50.109227]]]}},{"type":"Feature","id":"w337950676","properties":{"type":"yes","residential":true,"residents_est":4,"h3_10":"8a1e2e619637fff","h3_11":"8b1e2e619632fff"},"geometry":{"type":"Polygon","coordinates":[[[20.176931,50.110536],[20.177039,50.110483],[20.177126,50.110557],[20.176974,50.110631],[20.176942,50.110604],[20.176987,50.110583],[20.176931,50.110536]]]}},{"type":"Feature","id":"w337950764","properties":{"type":"yes","residential":true,"residents_est":5,"h3_10":"8a1e2e61974ffff","h3_11":"8b1e2e61974efff"},"geometry":{"type":"Polygon","coordinates":[[[20.182576,50.112679],[20.182687,50.112615],[20.182801,50.112696],[20.182692,50.112759],[20.182576,50.112679]]]}},{"type":"Feature","id":"w337950804","properties":{"type":"yes","residential":true,"residents_est":3,"h3_10":"8a1e2e61974ffff","h3_11":"8b1e2e61974dfff"},"geometry":{"type":"Polygon","coordinates":[[[20.183862,50.11288],[20.183956,50.112823],[20.184044,50.112882],[20.183951,50.112939],[20.183862,50.11288]]]}},{"type":"Feature","id":"w337950813","properties":{"type":"yes","residential":true,"residents_est":5,"h3_10":"8a1e2e6196b7fff","h3_11":"8b1e2e6196b5fff"},"geometry":{"type":"Polygon","coordinates":[[[20.174755,50.108648],[20.174908,50.108586],[20.174983,50.108662],[20.17483,50.108724],[20.174755,50.108648]]]}},{"type":"Feature","id":"w337950893","properties":{"type":"yes","residential":false,"residents_est":0,"h3_10":"8a1e2e61978ffff","h3_11":"8b1e2e61978bfff"},"geometry":{"type":"Polygon","coordinates":[[[20.176056,50.109526],[20.176134,50.109486],[20.176178,50.109522],[20.1761,50.109562],[20.176056,50.109526]]]}},{"type":"Feature","id":"w337950961","properties":{"type":"yes","residential":true,"residents_est":2,"h3_10":"8a1e2e61975ffff","h3_11":"8b1e2e61975cfff"},"geometry":{"type":"Polygon","coordinates":[[[20.181632,50.112349],[20.181719,50.112302],[20.181771,50.112343],[20.181685,50.112389],[20.181632,50.112349]]]}},{"type":"Feature","id":"w337950999","properties":{"type":"yes","residential":true,"residents_est":6,"h3_10":"8a1e2e6196a7fff","h3_11":"8b1e2e6196a4fff"},"geometry":{"type":"Polygon","coordinates":[[[20.176033,50.10935],[20.176163,50.109283],[20.176285,50.109381],[20.176155,50.109448],[20.176033,50.10935]]]}},{"type":"Feature","id":"w337951031","properties":{"type":"yes","residential":true,"residents_est":4,"h3_10":"8a1e2e61974ffff","h3_11":"8b1e2e61974efff"},"geometry":{"type":"Polygon","coordinates":[[[20.182874,50.112508],[20.18298,50.112447],[20.183072,50.112515],[20.182966,50.112574],[20.182874,50.112508]]]}},{"type":"Feature","id":"w337951052","properties":{"type":"yes","residential":true,"residents_est":4,"h3_10":"8a1e2e6196b7fff","h3_11":"8b1e2e6196b5fff"},"geometry":{"type":"Polygon","coordinates":[[[20.174871,50.108528],[20.175023,50.108468],[20.175083,50.108531],[20.174931,50.108591],[20.174871,50.108528]]]}},{"type":"Feature","id":"w337951101","properties":{"type":"yes","residential":true,"residents_est":3,"h3_10":"8a1e2e619627fff","h3_11":"8b1e2e619624fff"},"geometry":{"type":"Polygon","coordinates":[[[20.178571,50.111841],[20.178669,50.111783],[20.178764,50.111849],[20.178666,50.111908],[20.178571,50.111841]]]}},{"type":"Feature","id":"w337951141","properties":{"type":"yes","residential":true,"residents_est":2,"h3_10":"8a1e2e619757fff","h3_11":"8b1e2e619754fff"},"geometry":{"type":"Polygon","coordinates":[[[20.179482,50.112636],[20.179547,50.112595],[20.179619,50.112641],[20.179556,50.112682],[20.179482,50.112636]]]}},{"type":"Feature","id":"w337951152","properties":{"type":"yes","residential":true,"residents_est":3,"h3_10":"8a1e2e619747fff","h3_11":"8b1e2e619743fff"},"geometry":{"type":"Polygon","coordinates":[[[20.181748,50.112583],[20.181844,50.11253],[20.181935,50.112598],[20.181839,50.112651],[20.181748,50.112583]]]}},{"type":"Feature","id":"w337951168","properties":{"type":"yes","residential":true,"residents_est":4,"h3_10":"8a1e2e619627fff","h3_11":"8b1e2e619625fff"},"geometry":{"type":"Polygon","coordinates":[[[20.179279,50.111864],[20.179397,50.111801],[20.179492,50.111874],[20.179372,50.111938],[20.179279,50.111864]]]}},{"type":"Feature","id":"w337951240","properties":{"type":"yes","residential":true,"residents_est":4,"h3_10":"8a1e2e6196a7fff","h3_11":"8b1e2e6196a4fff"},"geometry":{"type":"Polygon","coordinates":[[[20.1756,50.109402],[20.175702,50.109353],[20.175794,50.109432],[20.175691,50.109481],[20.1756,50.109402]]]}},{"type":"Feature","id":"w337951269","properties":{"type":"yes","residential":true,"residents_est":5,"h3_10":"8a1e2e61970ffff","h3_11":"8b1e2e61970efff"},"geometry":{"type":"Polygon","coordinates":[[[20.177456,50.112599],[20.177565,50.112539],[20.177693,50.112635],[20.177584,50.112696],[20.177456,50.112599]]]}},{"type":"Feature","id":"w337951304","properties":{"type":"yes","residential":true,"residents_est":4,"h3_10":"8a1e2e6196a7fff","h3_11":"8b1e2e6196a6fff"},"geometry":{"type":"Polygon","coordinates":[[[20.175126,50.108987],[20.175261,50.108925],[20.175337,50.108994],[20.17529,50.109017],[20.175307,50.109032],[20.175271,50.109049],[20.175254,50.109034],[20.175207,50.109056],[20.175126,50.108987]]]}},{"type":"Feature","id":"w337951330","properties":{"type":"yes","residential":true,"residents_est":2,"h3_10":"8a1e2e61971ffff","h3_11":"8b1e2e61971dfff"},"geometry":{"type":"Polygon","coordinates":[[[20.1775,50.112208],[20.177618,50.112149],[20.177654,50.112179],[20.177536,50.112238],[20.1775,50.112208]]]}},{"type":"Feature","id":"w337951351","properties":{"type":"yes","residential":true,"residents_est":4,"h3_10":"8a1e2e619747fff","h3_11":"8b1e2e619741fff"},"geometry":{"type":"Polygon","coordinates":[[[20.181888,50.113064],[20.182001,50.113002],[20.182093,50.113071],[20.18198,50.113134],[20.181888,50.113064]]]}},{"type":"Feature","id":"w337951455","properties":{"type":"yes","residential":true,"residents_est":3,"h3_10":"8a1e2e61966ffff","h3_11":"8b1e2e61966cfff"},"geometry":{"type":"Polygon","coordinates":[[[20.18505,50.111632],[20.185133,50.111617],[20.185188,50.111733],[20.185106,50.11175],[20.18505,50.111632]]]}},{"type":"Feature","id":"w337951475","properties":{"type":"yes","residential":true,"residents_est":2,"h3_10":"8a1e2e61974ffff","h3_11":"8b1e2e619748fff"},"geometry":{"type":"Polygon","coordinates":[[[20.183181,50.112605],[20.183268,50.112556],[20.183334,50.112603],[20.183246,50.112653],[20.183181,50.112605]]]}},{"type":"Feature","id":"w337951513","properties":{"type":"yes","residential":true,"residents_est":3,"h3_10":"8a1e2e61978ffff","h3_11":"8b1e2e619788fff"},"geometry":{"type":"Polygon","coordinates":[[[20.17545,50.1099],[20.175549,50.109852],[20.175632,50.109923],[20.175533,50.109971],[20.1755,50.109943],[20.175481,50.109952],[20.175462,50.109937],[20.175482,50.109927],[20.17545,50.1099]]]}},{"type":"Feature","id":"w337951525","properties":{"type":"yes","residential":true,"residents_est":4,"h3_10":"8a1e2e61970ffff","h3_11":"8b1e2e61970efff"},"geometry":{"type":"Polygon","coordinates":[[[20.177772,50.112463],[20.177869,50.112411],[20.177971,50.11249],[20.177874,50.112541],[20.177772,50.112463]]]}},{"type":"Feature","id":"w337951590","properties":{"type":"yes","residential":true,"residents_est":3,"h3_10":"8a1e2e619747fff","h3_11":"8b1e2e619743fff"},"geometry":{"type":"Polygon","coordinates":[[[20.181919,50.11273],[20.182028,50.11266],[20.182098,50.112706],[20.18199,50.112776],[20.181919,50.11273]]]}},{"type":"Feature","id":"w337951599","properties":{"type":"yes","residential":true,"residents_est":3,"h3_10":"8a1e2e61978ffff","h3_11":"8b1e2e61978efff"},"geometry":{"type":"Polygon","coordinates":[[[20.174977,50.10985],[20.175053,50.109802],[20.175156,50.109871],[20.175075,50.109918],[20.174977,50.10985]]]}},{"type":"Feature","id":"w337951602","properties":{"type":"yes","residential":true,"residents_est":2,"h3_10":"8a1e2e619747fff","h3_11":"8b1e2e619743fff"},"geometry":{"type":"Polygon","coordinates":[[[20.181668,50.112522],[20.181762,50.112469],[20.181812,50.112506],[20.181716,50.112559],[20.181668,50.112522]]]}},{"type":"Feature","id":"w337951615","properties":{"type":"yes","residential":true,"residents_est":2,"h3_10":"8a1e2e619747fff","h3_11":"8b1e2e619741fff"},"geometry":{"type":"Polygon","coordinates":[[[20.182285,50.113053],[20.182394,50.112999],[20.182439,50.113034],[20.182405,50.113052],[20.182429,50.11307],[20.182357,50.113109],[20.182285,50.113053]]]}},{"type":"Feature","id":"w337951688","properties":{"type":"yes","residential":true,"residents_est":5,"h3_10":"8a1e2e6197a7fff","h3_11":"8b1e2e6197a0fff"},"geometry":{"type":"Polygon","coordinates":[[[20.173665,50.111325],[20.173711,50.111294],[20.173744,50.111313],[20.173825,50.111257],[20.173917,50.111312],[20.17379,50.1114],[20.173665,50.111325]]]}},{"type":"Feature","id":"w337951737","properties":{"type":"yes","residential":true,"residents_est":5,"h3_10":"8a1e2e6196b7fff","h3_11":"8b1e2e6196b2fff"},"geometry":{"type":"Polygon","coordinates":[[[20.174035,50.107949],[20.174161,50.107891],[20.174185,50.107913],[20.174221,50.107896],[20.174284,50.107952],[20.174122,50.108027],[20.174035,50.107949]]]}},{"type":"Feature","id":"w337951741","properties":{"type":"yes","residential":true,"residents_est":6,"h3_10":"8a1e2e619747fff","h3_11":"8b1e2e619741fff"},"geometry":{"type":"Polygon","coordinates":[[[20.182151,50.113151],[20.182294,50.113076],[20.182351,50.113122],[20.182307,50.113145],[20.182392,50.113213],[20.182294,50.113264],[20.182151,50.113151]]]}},{"type":"Feature","id":"w337951745","properties":{"type":"yes","residential":true,"residents_est":3,"h3_10":"8a1e2e619637fff","h3_11":"8b1e2e619632fff"},"geometry":{"type":"Polygon","coordinates":[[[20.176605,50.110277],[20.176704,50.110227],[20.176777,50.110287],[20.176657,50.110348],[20.176612,50.110312],[20.176634,50.1103],[20.176605,50.110277]]]}},{"type":"Feature","id":"w337951783","properties":{"type":"yes","residential":true,"residents_est":2,"h3_10":"8a1e2e61978ffff","h3_11":"8b1e2e619788fff"},"geometry":{"type":"Polygon","coordinates":[[[20.176001,50.109992],[20.176079,50.10996],[20.176152,50.110036],[20.176098,50.110057],[20.176074,50.110033],[20.176051,50.110043],[20.176001,50.109992]]]}},{"type":"Feature","id":"w337951805","properties":{"type":"yes","residential":true,"residents_est":4,"h3_10":"8a1e2e619757fff","h3_11":"8b1e2e619750fff"},"geometry":{"type":"Polygon","coordinates":[[[20.180092,50.112193],[20.180205,50.11213],[20.180293,50.112195],[20.180143,50.112279],[20.180102,50.112248],[20.180139,50.112227],[20.180092,50.112193]]]}},{"type":"Feature","id":"w337951833","properties":{"type":"yes","residential":true,"residents_est":5,"h3_10":"8a1e2e6196b7fff","h3_11":"8b1e2e6196b5fff"},"geometry":{"type":"Polygon","coordinates":[[[20.175044,50.10866],[20.175141,50.108612],[20.175221,50.108679],[20.175251,50.108665],[20.175301,50.108706],[20.175174,50.108769],[20.175044,50.10866]]]}},{"type":"Feature","id":"w337951858","properties":{"type":"yes","residential":true,"residents_est":5,"h3_10":"8a1e2e619787fff","h3_11":"8b1e2e619781fff"},"geometry":{"type":"Polygon","coordinates":[[[20.174928,50.110357],[20.175027,50.110301],[20.175036,50.110307],[20.175082,50.110281],[20.175165,50.110341],[20.175019,50.110423],[20.175,50.110409],[20.175011,50.110403],[20.174993,50.11039],[20.174981,50.110396],[20.174928,50.110357]]]}},{"type":"Feature","id":"w337951861","properties":{"type":"yes","residential":true,"residents_est":2,"h3_10":"8a1e2e619617fff","h3_11":"8b1e2e619614fff"},"geometry":{"type":"Polygon","coordinates":[[[20.176825,50.110172],[20.176945,50.110112],[20.176969,50.110132],[20.176914,50.11016],[20.176963,50.1102],[20.176898,50.110232],[20.176825,50.110172]]]}},{"type":"Feature","id":"w337951886","properties":{"type":"yes","residential":true,"residents_est":2,"h3_10":"8a1e2e619757fff","h3_11":"8b1e2e619751fff"},"geometry":{"type":"Polygon","coordinates":[[[20.180895,50.112325],[20.180955,50.112286],[20.181066,50.112356],[20.181007,50.112395],[20.180895,50.112325]]]}},{"type":"Feature","id":"w337951910","properties":{"type":"yes","residential":true,"residents_est":8,"h3_10":"8a1e2e619637fff","h3_11":"8b1e2e619630fff"},"geometry":{"type":"Polygon","coordinates":[[[20.177479,50.110849],[20.177611,50.110785],[20.177762,50.110914],[20.177607,50.110989],[20.17754,50.110931],[20.177563,50.11092],[20.177479,50.110849]]]}},{"type":"Feature","id":"w337951930","properties":{"type":"yes","residential":true,"residents_est":4,"h3_10":"8a1e2e619777fff","h3_11":"8b1e2e619773fff"},"geometry":{"type":"Polygon","coordinates":[[[20.180332,50.113036],[20.180422,50.112988],[20.180529,50.113071],[20.180489,50.113094],[20.180516,50.113117],[20.180467,50.113142],[20.180332,50.113036]]]}},{"type":"Feature","id":"w337951936","properties":{"type":"yes","residential":true,"residents_est":6,"h3_10":"8a1e2e61974ffff","h3_11":"8b1e2e619748fff"},"geometry":{"type":"Polygon","coordinates":[[[20.183336,50.112776],[20.183413,50.11271],[20.18362,50.112811],[20.183553,50.112867],[20.183496,50.112838],[20.183485,50.112847],[20.183336,50.112776]]]}},{"type":"Feature","id":"w337951945","properties":{"type":"yes","residential":true,"residents_est":5,"h3_10":"8a1e2e61975ffff","h3_11":"8b1e2e61975cfff"},"geometry":{"type":"Polygon","coordinates":[[[20.181397,50.112515],[20.181535,50.112424],[20.181588,50.112459],[20.181561,50.112475],[20.181611,50.112506],[20.1815,50.11258],[20.181397,50.112515]]]}},{"type":"Feature","id":"w337951955","properties":{"type":"yes","residential":true,"residents_est":4,"h3_10":"8a1e2e6197a7fff","h3_11":"8b1e2e6197a2fff"},"geometry":{"type":"Polygon","coordinates":[[[20.173475,50.111139],[20.1736,50.111066],[20.173712,50.111145],[20.173654,50.111178],[20.173629,50.11116],[20.17356,50.111199],[20.173475,50.111139]]]}},{"type":"Feature","id":"w337951961","properties":{"type":"yes","residential":true,"residents_est":7,"h3_10":"8a1e2e61978ffff","h3_11":"8b1e2e619789fff"},"geometry":{"type":"Polygon","coordinates":[[[20.176268,50.109963],[20.176382,50.109908],[20.176304,50.109844],[20.176417,50.109792],[20.176535,50.109894],[20.176309,50.109998],[20.176268,50.109963]]]}},{"type":"Feature","id":"w337951980","properties":{"type":"yes","residential":true,"residents_est":4,"h3_10":"8a1e2e619757fff","h3_11":"8b1e2e619754fff"},"geometry":{"type":"Polygon","coordinates":[[[20.179692,50.112499],[20.179782,50.112436],[20.17989,50.112499],[20.179796,50.112563],[20.179757,50.112539],[20.179738,50.112552],[20.179715,50.112538],[20.179734,50.112525],[20.179692,50.112499]]]}},{"type":"Feature","id":"w337952018","properties":{"type":"yes","residential":true,"residents_est":4,"h3_10":"8a1e2e61974ffff","h3_11":"8b1e2e61974dfff"},"geometry":{"type":"Polygon","coordinates":[[[20.183387,50.113167],[20.183449,50.113096],[20.183505,50.113116],[20.183517,50.113103],[20.183551,50.113115],[20.183538,50.113129],[20.183595,50.113149],[20.183534,50.11322],[20.183387,50.113167]]]}},{"type":"Feature","id":"w337952023","properties":{"type":"yes","residential":true,"residents_est":7,"h3_10":"8a1e2e619707fff","h3_11":"8b1e2e619702fff"},"geometry":{"type":"Polygon","coordinates":[[[20.176361,50.112665],[20.176435,50.112616],[20.176512,50.112664],[20.176551,50.112638],[20.176683,50.112724],[20.176591,50.112783],[20.17646,50.112699],[20.176438,50.112713],[20.176361,50.112665]]]}},{"type":"Feature","id":"w337952053","properties":{"type":"yes","residential":true,"residents_est":4,"h3_10":"8a1e2e61972ffff","h3_11":"8b1e2e61972bfff"},"geometry":{"type":"Polygon","coordinates":[[[20.178464,50.113376],[20.178549,50.113332],[20.178662,50.113419],[20.178576,50.113464],[20.17855,50.113443],[20.178529,50.113454],[20.17847,50.113408],[20.17849,50.113398],[20.178464,50.113376]]]}},{"type":"Feature","id":"w337952088","properties":{"type":"yes","residential":true,"residents_est":5,"h3_10":"8a1e2e61975ffff","h3_11":"8b1e2e61975cfff"},"geometry":{"type":"Polygon","coordinates":[[[20.18114,50.112409],[20.181235,50.112341],[20.181284,50.112369],[20.181316,50.112346],[20.181354,50.112367],[20.181322,50.112391],[20.181371,50.11242],[20.181278,50.112487],[20.18114,50.112409]]]}},{"type":"Feature","id":"w337952092","properties":{"type":"yes","residential":true,"residents_est":5,"h3_10":"8a1e2e619747fff","h3_11":"8b1e2e619746fff"},"geometry":{"type":"Polygon","coordinates":[[[20.181047,50.112972],[20.181152,50.112912],[20.181271,50.112997],[20.181164,50.113058],[20.18112,50.113026],[20.181099,50.113038],[20.181076,50.113021],[20.181097,50.113009],[20.181047,50.112972]]]}},{"type":"Feature","id":"w337952105","properties":{"type":"yes","residential":true,"residents_est":7,"h3_10":"8a1e2e6197a7fff","h3_11":"8b1e2e6197a2fff"},"geometry":{"type":"Polygon","coordinates":[[[20.173313,50.111209],[20.173391,50.111163],[20.173601,50.111304],[20.173559,50.111329],[20.173602,50.111359],[20.173563,50.111382],[20.173313,50.111209]]]}},{"type":"Feature","id":"w337952108","properties":{"type":"yes","residential":true,"residents_est":4,"h3_10":"8a1e2e619637fff","h3_11":"8b1e2e619635fff"},"geometry":{"type":"Polygon","coordinates":[[[20.177181,50.110991],[20.177298,50.110932],[20.177383,50.111001],[20.177344,50.11102],[20.177365,50.111038],[20.177325,50.111058],[20.177302,50.11104],[20.177264,50.11106],[20.177181,50.110991]]]}},{"type":"Feature","id":"w337952126","properties":{"type":"yes","residential":true,"residents_est":4,"h3_10":"8a1e2e619777fff","h3_11":"8b1e2e619773fff"},"geometry":{"type":"Polygon","coordinates":[[[20.180254,50.112884],[20.180308,50.112855],[20.180294,50.112845],[20.180322,50.112829],[20.180335,50.112839],[20.180369,50.112821],[20.180454,50.112889],[20.18034,50.11295],[20.180254,50.112884]]]}},{"type":"Feature","id":"w337952139","properties":{"type":"yes","residential":true,"residents_est":4,"h3_10":"8a1e2e61966ffff","h3_11":"8b1e2e61966dfff"},"geometry":{"type":"Polygon","coordinates":[[[20.185806,50.111754],[20.185807,50.111707],[20.185838,50.111707],[20.185837,50.111689],[20.185977,50.111688],[20.185979,50.111781],[20.185838,50.111782],[20.185837,50.111753],[20.185806,50.111754]]]}},{"type":"Feature","id":"w337952143","properties":{"type":"yes","residential":true,"residents_est":4,"h3_10":"8a1e2e619777fff","h3_11":"8b1e2e619775fff"},"geometry":{"type":"Polygon","coordinates":[[[20.179735,50.113651],[20.179849,50.113591],[20.179946,50.113669],[20.179832,50.113728],[20.179802,50.113704],[20.179776,50.113718],[20.179744,50.113692],[20.17977,50.113679],[20.179735,50.113651]]]}},{"type":"Feature","id":"w337952149","properties":{"type":"yes","residential":true,"residents_est":4,"h3_10":"8a1e2e619777fff","h3_11":"8b1e2e619774fff"},"geometry":{"type":"Polygon","coordinates":[[[20.179072,50.113835],[20.179185,50.113774],[20.179269,50.11384],[20.179242,50.113855],[20.179261,50.113869],[20.179228,50.113887],[20.179209,50.113872],[20.179157,50.1139],[20.179072,50.113835]]]}},{"type":"Feature","id":"w337952156","properties":{"type":"yes","residential":true,"residents_est":4,"h3_10":"8a1e2e61976ffff","h3_11":"8b1e2e61976bfff"},"geometry":{"type":"Polygon","coordinates":[[[20.183121,50.113246],[20.18323,50.113184],[20.183323,50.113252],[20.183217,50.113314],[20.183187,50.113295],[20.183161,50.113309],[20.183131,50.113287],[20.183157,50.113272],[20.183121,50.113246]]]}},{"type":"Feature","id":"w337952197","properties":{"type":"yes","residential":true,"residents_est":4,"h3_10":"8a1e2e61974ffff","h3_11":"8b1e2e61974efff"},"geometry":{"type":"Polygon","coordinates":[[[20.182236,50.112631],[20.182334,50.112573],[20.182434,50.112643],[20.182337,50.112701],[20.182299,50.112675],[20.182277,50.112688],[20.182237,50.112661],[20.182259,50.112647],[20.182236,50.112631]]]}},{"type":"Feature","id":"w337952205","properties":{"type":"yes","residential":true,"residents_est":3,"h3_10":"8a1e2e619747fff","h3_11":"8b1e2e619740fff"},"geometry":{"type":"Polygon","coordinates":[[[20.181349,50.113054],[20.181401,50.113027],[20.181387,50.113016],[20.181465,50.112974],[20.181538,50.113031],[20.181489,50.113058],[20.181501,50.113067],[20.18142,50.11311],[20.181349,50.113054]]]}},{"type":"Feature","id":"w337952254","properties":{"type":"yes","residential":true,"residents_est":8,"h3_10":"8a1e2e619747fff","h3_11":"8b1e2e619746fff"},"geometry":{"type":"Polygon","coordinates":[[[20.180649,50.113019],[20.180792,50.112944],[20.180716,50.112889],[20.180834,50.112823],[20.180933,50.112894],[20.180815,50.112961],[20.180862,50.113],[20.18072,50.113075],[20.180649,50.113019]]]}},{"type":"Feature","id":"w337952284","properties":{"type":"yes","residential":true,"residents_est":4,"h3_10":"8a1e2e619757fff","h3_11":"8b1e2e619755fff"},"geometry":{"type":"Polygon","coordinates":[[[20.180216,50.112699],[20.180324,50.112641],[20.180423,50.112718],[20.180315,50.112775],[20.180279,50.112747],[20.180257,50.112758],[20.180232,50.112739],[20.180254,50.112727],[20.180216,50.112699]]]}},{"type":"Feature","id":"w337952291","properties":{"type":"yes","residential":true,"residents_est":3,"h3_10":"8a1e2e619627fff","h3_11":"8b1e2e619626fff"},"geometry":{"type":"Polygon","coordinates":[[[20.178217,50.111559],[20.17832,50.111514],[20.178395,50.111576],[20.178309,50.111619],[20.178282,50.111596],[20.17827,50.111603],[20.178217,50.111559]]]}},{"type":"Feature","id":"w720119215","properties":{"type":"yes","residential":false,"residents_est":0,"h3_10":"8a1e2e61974ffff","h3_11":"8b1e2e619749fff"},"geometry":{"type":"Polygon","coordinates":[[[20.183706,50.112775],[20.183746,50.112751],[20.183788,50.112778],[20.183747,50.112804],[20.183706,50.112775]]]}},{"type":"Feature","id":"w720119248","properties":{"type":"yes","residential":false,"residents_est":0,"h3_10":"8a1e2e61966ffff","h3_11":"8b1e2e61966dfff"},"geometry":{"type":"Polygon","coordinates":[[[20.185557,50.111681],[20.185656,50.111679],[20.185657,50.111712],[20.185605,50.111713],[20.185606,50.111724],[20.185558,50.111725],[20.185557,50.111681]]]}},{"type":"Feature","id":"w720119250","properties":{"type":"yes","residential":false,"residents_est":0,"h3_10":"8a1e2e61966ffff","h3_11":"8b1e2e61966cfff"},"geometry":{"type":"Polygon","coordinates":[[[20.18486,50.111481],[20.18489,50.111458],[20.184939,50.111484],[20.184907,50.111509],[20.18486,50.111481]]]}},{"type":"Feature","id":"w720119251","properties":{"type":"greenhouse","residential":false,"residents_est":0,"h3_10":"8a1e2e61974ffff","h3_11":"8b1e2e61974afff"},"geometry":{"type":"Polygon","coordinates":[[[20.182677,50.112282],[20.182802,50.112215],[20.182838,50.112243],[20.182713,50.11231],[20.182677,50.112282]]]}},{"type":"Feature","id":"w720119252","properties":{"type":"greenhouse","residential":false,"residents_est":0,"h3_10":"8a1e2e61974ffff","h3_11":"8b1e2e61974afff"},"geometry":{"type":"Polygon","coordinates":[[[20.182819,50.112207],[20.183138,50.112039],[20.183173,50.112066],[20.182854,50.112234],[20.182819,50.112207]]]}},{"type":"Feature","id":"w720119253","properties":{"type":"greenhouse","residential":false,"residents_est":0,"h3_10":"8a1e2e61974ffff","h3_11":"8b1e2e61974afff"},"geometry":{"type":"Polygon","coordinates":[[[20.182857,50.112241],[20.183182,50.112071],[20.18322,50.1121],[20.182894,50.11227],[20.182857,50.112241]]]}},{"type":"Feature","id":"w720124665","properties":{"type":"yes","residential":true,"residents_est":4,"h3_10":"8a1e2e6197b7fff","h3_11":"8b1e2e6197b4fff"},"geometry":{"type":"Polygon","coordinates":[[[20.17188,50.111199],[20.171966,50.111149],[20.172088,50.111235],[20.172002,50.111285],[20.17188,50.111199]]]}},{"type":"Feature","id":"w720124677","properties":{"type":"yes","residential":true,"residents_est":2,"h3_10":"8a1e2e61972ffff","h3_11":"8b1e2e61972bfff"},"geometry":{"type":"Polygon","coordinates":[[[20.178338,50.113527],[20.178445,50.11347],[20.178503,50.113514],[20.178397,50.113571],[20.178338,50.113527]]]}},{"type":"Feature","id":"w720124680","properties":{"type":"yes","residential":true,"residents_est":2,"h3_10":"8a1e2e6196b7fff","h3_11":"8b1e2e6196b2fff"},"geometry":{"type":"Polygon","coordinates":[[[20.173965,50.107978],[20.174016,50.107954],[20.174001,50.107941],[20.174036,50.107925],[20.174054,50.10794],[20.174035,50.107949],[20.1741,50.108008],[20.174033,50.108039],[20.173965,50.107978]]]}},{"type":"Feature","id":"w720124688","properties":{"type":"yes","residential":true,"residents_est":2,"h3_10":"8a1e2e6196a7fff","h3_11":"8b1e2e6196a6fff"},"geometry":{"type":"Polygon","coordinates":[[[20.175278,50.108794],[20.175387,50.108739],[20.175439,50.108781],[20.17533,50.108836],[20.175278,50.108794]]]}},{"type":"Feature","id":"w720124690","properties":{"type":"yes","residential":true,"residents_est":2,"h3_10":"8a1e2e61978ffff","h3_11":"8b1e2e619788fff"},"geometry":{"type":"Polygon","coordinates":[[[20.175533,50.109971],[20.175632,50.109923],[20.175673,50.109958],[20.175575,50.110005],[20.175533,50.109971]]]}},{"type":"Feature","id":"w720124691","properties":{"type":"yes","residential":false,"residents_est":0,"h3_10":"8a1e2e61978ffff","h3_11":"8b1e2e61978efff"},"geometry":{"type":"Polygon","coordinates":[[[20.175249,50.110044],[20.17529,50.110023],[20.175337,50.110061],[20.175297,50.110082],[20.175249,50.110044]]]}},{"type":"Feature","id":"w720124692","properties":{"type":"yes","residential":true,"residents_est":4,"h3_10":"8a1e2e61978ffff","h3_11":"8b1e2e61978dfff"},"geometry":{"type":"Polygon","coordinates":[[[20.175713,50.110362],[20.175801,50.110311],[20.175877,50.11037],[20.175889,50.110365],[20.175923,50.110392],[20.175821,50.110445],[20.175713,50.110362]]]}},{"type":"Feature","id":"w720124693","properties":{"type":"yes","residential":false,"residents_est":0,"h3_10":"8a1e2e619617fff","h3_11":"8b1e2e619614fff"},"geometry":{"type":"Polygon","coordinates":[[[20.176914,50.11016],[20.176953,50.11014],[20.176995,50.110174],[20.176956,50.110194],[20.176914,50.11016]]]}},{"type":"Feature","id":"w720124694","properties":{"type":"yes","residential":true,"residents_est":4,"h3_10":"8a1e2e619637fff","h3_11":"8b1e2e619632fff"},"geometry":{"type":"Polygon","coordinates":[[[20.176697,50.110468],[20.176834,50.1104],[20.176903,50.110457],[20.176762,50.110527],[20.176697,50.110468]]]}},{"type":"Feature","id":"w720124695","properties":{"type":"yes","residential":true,"residents_est":2,"h3_10":"8a1e2e619637fff","h3_11":"8b1e2e619633fff"},"geometry":{"type":"Polygon","coordinates":[[[20.177568,50.110591],[20.177647,50.110551],[20.177707,50.1106],[20.177627,50.11064],[20.177568,50.110591]]]}},{"type":"Feature","id":"w720124696","properties":{"type":"yes","residential":true,"residents_est":4,"h3_10":"8a1e2e619637fff","h3_11":"8b1e2e619633fff"},"geometry":{"type":"Polygon","coordinates":[[[20.177671,50.110539],[20.177802,50.110473],[20.17788,50.110536],[20.177748,50.110602],[20.177671,50.110539]]]}},{"type":"Feature","id":"w720124697","properties":{"type":"yes","residential":true,"residents_est":4,"h3_10":"8a1e2e619637fff","h3_11":"8b1e2e619630fff"},"geometry":{"type":"Polygon","coordinates":[[[20.177169,50.110791],[20.177304,50.110723],[20.17738,50.110786],[20.177245,50.110853],[20.177169,50.110791]]]}},{"type":"Feature","id":"w720124698","properties":{"type":"yes","residential":true,"residents_est":4,"h3_10":"8a1e2e61962ffff","h3_11":"8b1e2e61962cfff"},"geometry":{"type":"Polygon","coordinates":[[[20.179946,50.111509],[20.180045,50.111455],[20.180142,50.111528],[20.180043,50.111582],[20.179946,50.111509]]]}},{"type":"Feature","id":"w720124699","properties":{"type":"yes","residential":true,"residents_est":5,"h3_10":"8a1e2e61970ffff","h3_11":"8b1e2e61970bfff"},"geometry":{"type":"Polygon","coordinates":[[[20.178642,50.112277],[20.178857,50.112161],[20.178925,50.112212],[20.178709,50.112328],[20.178642,50.112277]]]}},{"type":"Feature","id":"w720124700","properties":{"type":"yes","residential":true,"residents_est":6,"h3_10":"8a1e2e61970ffff","h3_11":"8b1e2e61970bfff"},"geometry":{"type":"Polygon","coordinates":[[[20.178722,50.112337],[20.178979,50.112201],[20.179039,50.112249],[20.178783,50.112384],[20.178722,50.112337]]]}},{"type":"Feature","id":"w720124701","properties":{"type":"greenhouse","residential":false,"residents_est":0,"h3_10":"8a1e2e61970ffff","h3_11":"8b1e2e61970bfff"},"geometry":{"type":"Polygon","coordinates":[[[20.178791,50.112391],[20.179091,50.112233],[20.179156,50.112283],[20.178856,50.112442],[20.178791,50.112391]]]}},{"type":"Feature","id":"w720124702","properties":{"type":"greenhouse","residential":false,"residents_est":0,"h3_10":"8a1e2e619627fff","h3_11":"8b1e2e619621fff"},"geometry":{"type":"Polygon","coordinates":[[[20.179434,50.111596],[20.179673,50.111478],[20.179743,50.111536],[20.179505,50.111655],[20.179434,50.111596]]]}},{"type":"Feature","id":"w720124703","properties":{"type":"yes","residential":true,"residents_est":3,"h3_10":"8a1e2e619627fff","h3_11":"8b1e2e619625fff"},"geometry":{"type":"Polygon","coordinates":[[[20.179001,50.111836],[20.179042,50.111814],[20.179033,50.111806],[20.179065,50.111789],[20.179075,50.111796],[20.179117,50.111774],[20.179189,50.11183],[20.179073,50.111892],[20.179001,50.111836]]]}},{"type":"Feature","id":"w720124704","properties":{"type":"yes","residential":true,"residents_est":6,"h3_10":"8a1e2e619757fff","h3_11":"8b1e2e619750fff"},"geometry":{"type":"Polygon","coordinates":[[[20.179815,50.11212],[20.179939,50.112053],[20.179929,50.112044],[20.179966,50.112023],[20.179979,50.112031],[20.180041,50.111997],[20.180098,50.11204],[20.180059,50.112061],[20.180089,50.112085],[20.180016,50.112124],[20.179987,50.112101],[20.17987,50.112163],[20.179815,50.11212]]]}},{"type":"Feature","id":"w720124705","properties":{"type":"yes","residential":false,"residents_est":0,"h3_10":"8a1e2e61970ffff","h3_11":"8b1e2e619708fff"},"geometry":{"type":"Polygon","coordinates":[[[20.178077,50.11263],[20.178108,50.112613],[20.178093,50.1126],[20.178132,50.112579],[20.178189,50.11262],[20.178117,50.11266],[20.178077,50.11263]]]}},{"type":"Feature","id":"w720124706","properties":{"type":"yes","residential":true,"residents_est":5,"h3_10":"8a1e2e61970ffff","h3_11":"8b1e2e619709fff"},"geometry":{"type":"Polygon","coordinates":[[[20.178849,50.112508],[20.17902,50.112414],[20.179096,50.112473],[20.178923,50.112564],[20.178849,50.112508]]]}},{"type":"Feature","id":"w720124707","properties":{"type":"yes","residential":true,"residents_est":2,"h3_10":"8a1e2e61970ffff","h3_11":"8b1e2e619709fff"},"geometry":{"type":"Polygon","coordinates":[[[20.178901,50.112574],[20.178966,50.112543],[20.179052,50.11261],[20.178989,50.112642],[20.178901,50.112574]]]}},{"type":"Feature","id":"w720124708","properties":{"type":"yes","residential":true,"residents_est":3,"h3_10":"8a1e2e61970ffff","h3_11":"8b1e2e619709fff"},"geometry":{"type":"Polygon","coordinates":[[[20.178902,50.11269],[20.17903,50.112622],[20.179103,50.112676],[20.178974,50.112745],[20.178902,50.11269]]]}},{"type":"Feature","id":"w720124709","properties":{"type":"yes","residential":true,"residents_est":8,"h3_10":"8a1e2e61970ffff","h3_11":"8b1e2e619709fff"},"geometry":{"type":"Polygon","coordinates":[[[20.178966,50.112543],[20.179096,50.112473],[20.17925,50.112597],[20.179103,50.112676],[20.17903,50.112622],[20.179053,50.11261],[20.178966,50.112543]]]}},{"type":"Feature","id":"w720124710","properties":{"type":"yes","residential":true,"residents_est":5,"h3_10":"8a1e2e61970ffff","h3_11":"8b1e2e619709fff"},"geometry":{"type":"Polygon","coordinates":[[[20.179199,50.112552],[20.179333,50.112478],[20.17935,50.11249],[20.179365,50.112482],[20.17939,50.1125],[20.179424,50.112482],[20.179458,50.112508],[20.179269,50.112611],[20.179199,50.112552]]]}},{"type":"Feature","id":"w720124711","properties":{"type":"yes","residential":true,"residents_est":7,"h3_10":"8a1e2e61970ffff","h3_11":"8b1e2e61970bfff"},"geometry":{"type":"Polygon","coordinates":[[[20.178544,50.112332],[20.178629,50.112286],[20.178843,50.112451],[20.178759,50.112496],[20.178544,50.112332]]]}},{"type":"Feature","id":"w720124712","properties":{"type":"yes","residential":true,"residents_est":4,"h3_10":"8a1e2e619747fff","h3_11":"8b1e2e619746fff"},"geometry":{"type":"Polygon","coordinates":[[[20.180766,50.113081],[20.180854,50.113037],[20.180971,50.113132],[20.180883,50.113177],[20.180766,50.113081]]]}},{"type":"Feature","id":"w720124713","properties":{"type":"yes","residential":false,"residents_est":0,"h3_10":"8a1e2e619757fff","h3_11":"8b1e2e619754fff"},"geometry":{"type":"Polygon","coordinates":[[[20.179879,50.112725],[20.179928,50.112697],[20.179969,50.112728],[20.17992,50.112755],[20.179879,50.112725]]]}},{"type":"Feature","id":"w720124714","properties":{"type":"yes","residential":true,"residents_est":4,"h3_10":"8a1e2e619777fff","h3_11":"8b1e2e619772fff"},"geometry":{"type":"Polygon","coordinates":[[[20.179418,50.113109],[20.179517,50.113056],[20.179632,50.113143],[20.179536,50.113197],[20.179495,50.113168],[20.179502,50.113164],[20.179418,50.113109]]]}},{"type":"Feature","id":"w720124715","properties":{"type":"yes","residential":false,"residents_est":0,"h3_10":"8a1e2e619777fff","h3_11":"8b1e2e619775fff"},"geometry":{"type":"Polygon","coordinates":[[[20.179851,50.113593],[20.179906,50.113565],[20.17997,50.113616],[20.179915,50.113645],[20.179851,50.113593]]]}},{"type":"Feature","id":"w720124716","properties":{"type":"yes","residential":false,"residents_est":0,"h3_10":"8a1e2e619767fff","h3_11":"8b1e2e619761fff"},"geometry":{"type":"Polygon","coordinates":[[[20.181896,50.113882],[20.181975,50.113853],[20.182011,50.113893],[20.181932,50.113922],[20.181896,50.113882]]]}},{"type":"Feature","id":"w720124717","properties":{"type":"yes","residential":true,"residents_est":4,"h3_10":"8a1e2e61976ffff","h3_11":"8b1e2e61976efff"},"geometry":{"type":"Polygon","coordinates":[[[20.182101,50.113794],[20.182256,50.113737],[20.182302,50.113789],[20.182274,50.113799],[20.18229,50.113818],[20.182191,50.113855],[20.182174,50.113836],[20.182148,50.113846],[20.182101,50.113794]]]}},{"type":"Feature","id":"w720124718","properties":{"type":"yes","residential":false,"residents_est":0,"h3_10":"8a1e2e619747fff","h3_11":"8b1e2e619745fff"},"geometry":{"type":"Polygon","coordinates":[[[20.182001,50.113367],[20.182046,50.11334],[20.182088,50.113369],[20.182043,50.113396],[20.182001,50.113367]]]}},{"type":"Feature","id":"w720124720","properties":{"type":"yes","residential":false,"residents_est":0,"h3_10":"8a1e2e61976ffff","h3_11":"8b1e2e61976afff"},"geometry":{"type":"Polygon","coordinates":[[[20.182433,50.113225],[20.182518,50.113176],[20.182537,50.113189],[20.182452,50.113239],[20.182433,50.113225]]]}},{"type":"Feature","id":"w720141751","properties":{"type":"greenhouse","residential":false,"residents_est":0,"h3_10":"8a1e2e6196b7fff","h3_11":"8b1e2e6196b1fff"},"geometry":{"type":"Polygon","coordinates":[[[20.17559,50.108277],[20.175702,50.108229],[20.175731,50.108257],[20.17562,50.108305],[20.17559,50.108277]]]}},{"type":"Feature","id":"w720141763","properties":{"type":"yes","residential":true,"residents_est":4,"h3_10":"8a1e2e61979ffff","h3_11":"8b1e2e61979dfff"},"geometry":{"type":"Polygon","coordinates":[[[20.174542,50.109873],[20.174641,50.109811],[20.174749,50.109883],[20.174649,50.109944],[20.174542,50.109873]]]}},{"type":"Feature","id":"w720141764","properties":{"type":"yes","residential":false,"residents_est":0,"h3_10":"8a1e2e61978ffff","h3_11":"8b1e2e61978cfff"},"geometry":{"type":"Polygon","coordinates":[[[20.175453,50.110444],[20.175523,50.110407],[20.175558,50.110434],[20.175488,50.110471],[20.175453,50.110444]]]}},{"type":"Feature","id":"w720141765","properties":{"type":"yes","residential":true,"residents_est":3,"h3_10":"8a1e2e6197affff","h3_11":"8b1e2e6197aafff"},"geometry":{"type":"Polygon","coordinates":[[[20.17508,50.110576],[20.175141,50.110542],[20.175258,50.110628],[20.175197,50.110662],[20.17508,50.110576]]]}},{"type":"Feature","id":"w720141766","properties":{"type":"greenhouse","residential":false,"residents_est":0,"h3_10":"8a1e2e61978ffff","h3_11":"8b1e2e61978cfff"},"geometry":{"type":"Polygon","coordinates":[[[20.175325,50.110496],[20.175378,50.110467],[20.175514,50.110566],[20.175461,50.110596],[20.175325,50.110496]]]}},{"type":"Feature","id":"w720141767","properties":{"type":"greenhouse","residential":false,"residents_est":0,"h3_10":"8a1e2e61978ffff","h3_11":"8b1e2e61978cfff"},"geometry":{"type":"Polygon","coordinates":[[[20.175257,50.110534],[20.175305,50.110507],[20.175441,50.110607],[20.175393,50.110634],[20.175257,50.110534]]]}},{"type":"Feature","id":"w720141768","properties":{"type":"greenhouse","residential":false,"residents_est":0,"h3_10":"8a1e2e619607fff","h3_11":"8b1e2e619603fff"},"geometry":{"type":"Polygon","coordinates":[[[20.179223,50.110211],[20.179574,50.110044],[20.179609,50.110074],[20.179257,50.110241],[20.179223,50.110211]]]}},{"type":"Feature","id":"w720141769","properties":{"type":"greenhouse","residential":false,"residents_est":0,"h3_10":"8a1e2e619607fff","h3_11":"8b1e2e619603fff"},"geometry":{"type":"Polygon","coordinates":[[[20.179264,50.110248],[20.179617,50.110082],[20.179654,50.110115],[20.179302,50.11028],[20.179264,50.110248]]]}},{"type":"Feature","id":"w720141770","properties":{"type":"greenhouse","residential":false,"residents_est":0,"h3_10":"8a1e2e619607fff","h3_11":"8b1e2e619600fff"},"geometry":{"type":"Polygon","coordinates":[[[20.17874,50.110343],[20.179109,50.110164],[20.179141,50.110191],[20.178772,50.11037],[20.17874,50.110343]]]}},{"type":"Feature","id":"w720141771","properties":{"type":"greenhouse","residential":false,"residents_est":0,"h3_10":"8a1e2e619607fff","h3_11":"8b1e2e619600fff"},"geometry":{"type":"Polygon","coordinates":[[[20.178774,50.11038],[20.179144,50.1102],[20.179179,50.11023],[20.178809,50.11041],[20.178774,50.11038]]]}},{"type":"Feature","id":"w720141772","properties":{"type":"greenhouse","residential":false,"residents_est":0,"h3_10":"8a1e2e619607fff","h3_11":"8b1e2e619600fff"},"geometry":{"type":"Polygon","coordinates":[[[20.17882,50.11042],[20.179192,50.110236],[20.179226,50.110264],[20.178854,50.110448],[20.17882,50.11042]]]}},{"type":"Feature","id":"w720141773","properties":{"type":"greenhouse","residential":false,"residents_est":0,"h3_10":"8a1e2e619607fff","h3_11":"8b1e2e619600fff"},"geometry":{"type":"Polygon","coordinates":[[[20.178866,50.110457],[20.179236,50.110272],[20.179272,50.110302],[20.178903,50.110487],[20.178866,50.110457]]]}},{"type":"Feature","id":"w720141774","properties":{"type":"greenhouse","residential":false,"residents_est":0,"h3_10":"8a1e2e619607fff","h3_11":"8b1e2e619606fff"},"geometry":{"type":"Polygon","coordinates":[[[20.178359,50.11055],[20.17872,50.110368],[20.178756,50.110398],[20.178396,50.110579],[20.178359,50.11055]]]}},{"type":"Feature","id":"w720141775","properties":{"type":"greenhouse","residential":false,"residents_est":0,"h3_10":"8a1e2e619607fff","h3_11":"8b1e2e619606fff"},"geometry":{"type":"Polygon","coordinates":[[[20.17841,50.110587],[20.178763,50.110409],[20.17881,50.110447],[20.178457,50.110625],[20.17841,50.110587]]]}},{"type":"Feature","id":"w720141776","properties":{"type":"greenhouse","residential":false,"residents_est":0,"h3_10":"8a1e2e619607fff","h3_11":"8b1e2e619604fff"},"geometry":{"type":"Polygon","coordinates":[[[20.178465,50.110635],[20.178829,50.110456],[20.178879,50.110498],[20.178515,50.110677],[20.178465,50.110635]]]}},{"type":"Feature","id":"w720141777","properties":{"type":"greenhouse","residential":false,"residents_est":0,"h3_10":"8a1e2e619637fff","h3_11":"8b1e2e619631fff"},"geometry":{"type":"Polygon","coordinates":[[[20.177973,50.110752],[20.178321,50.110574],[20.178354,50.110601],[20.178006,50.110779],[20.177973,50.110752]]]}},{"type":"Feature","id":"w720141778","properties":{"type":"greenhouse","residential":false,"residents_est":0,"h3_10":"8a1e2e619637fff","h3_11":"8b1e2e619631fff"},"geometry":{"type":"Polygon","coordinates":[[[20.178014,50.110783],[20.178373,50.110605],[20.178418,50.110642],[20.178059,50.110821],[20.178014,50.110783]]]}},{"type":"Feature","id":"w720141779","properties":{"type":"greenhouse","residential":false,"residents_est":0,"h3_10":"8a1e2e619637fff","h3_11":"8b1e2e619631fff"},"geometry":{"type":"Polygon","coordinates":[[[20.178073,50.110828],[20.178431,50.110653],[20.17848,50.110695],[20.178123,50.11087],[20.178073,50.110828]]]}},{"type":"Feature","id":"w720141780","properties":{"type":"greenhouse","residential":false,"residents_est":0,"h3_10":"8a1e2e619637fff","h3_11":"8b1e2e619631fff"},"geometry":{"type":"Polygon","coordinates":[[[20.177702,50.110715],[20.178024,50.110559],[20.178087,50.110612],[20.177765,50.110768],[20.177702,50.110715]]]}},{"type":"Feature","id":"w720141834","properties":{"type":"greenhouse","residential":false,"residents_est":0,"h3_10":"8a1e2e61972ffff","h3_11":"8b1e2e619729fff"},"geometry":{"type":"Polygon","coordinates":[[[20.178654,50.113974],[20.178762,50.113909],[20.178801,50.113937],[20.178693,50.114001],[20.178654,50.113974]]]}},{"type":"Feature","id":"w720141835","properties":{"type":"greenhouse","residential":false,"residents_est":0,"h3_10":"8a1e2e61972ffff","h3_11":"8b1e2e61972dfff"},"geometry":{"type":"Polygon","coordinates":[[[20.178051,50.114265],[20.178399,50.114087],[20.17844,50.11412],[20.178092,50.114298],[20.178051,50.114265]]]}},{"type":"Feature","id":"w720141836","properties":{"type":"greenhouse","residential":false,"residents_est":0,"h3_10":"8a1e2e61972ffff","h3_11":"8b1e2e61972dfff"},"geometry":{"type":"Polygon","coordinates":[[[20.178094,50.114312],[20.178442,50.114129],[20.178482,50.11416],[20.178134,50.114343],[20.178094,50.114312]]]}},{"type":"Feature","id":"w720177603","properties":{"type":"yes","address":"Hektary 1F","residential":true,"residents_est":5,"h3_10":"8a1e2e6197b7fff","h3_11":"8b1e2e6197b1fff"},"geometry":{"type":"Polygon","coordinates":[[[20.173045,50.110856],[20.173194,50.110764],[20.173295,50.110831],[20.173145,50.110923],[20.173045,50.110856]]]}},{"type":"Feature","id":"w720328360","properties":{"type":"greenhouse","residential":false,"residents_est":0,"h3_10":"8a1e2e619757fff","h3_11":"8b1e2e619753fff"},"geometry":{"type":"Polygon","coordinates":[[[20.180528,50.111994],[20.180626,50.111942],[20.180652,50.111961],[20.180554,50.112014],[20.180528,50.111994]]]}},{"type":"Feature","id":"w720328361","properties":{"type":"greenhouse","residential":false,"residents_est":0,"h3_10":"8a1e2e61962ffff","h3_11":"8b1e2e619628fff"},"geometry":{"type":"Polygon","coordinates":[[[20.180312,50.111284],[20.180355,50.111259],[20.180436,50.111314],[20.180393,50.11134],[20.180312,50.111284]]]}},{"type":"Feature","id":"w720534332","properties":{"type":"greenhouse","residential":false,"residents_est":0,"h3_10":"8a1e2e619617fff","h3_11":"8b1e2e619614fff"},"geometry":{"type":"Polygon","coordinates":[[[20.177209,50.110023],[20.177286,50.109986],[20.177313,50.110009],[20.177235,50.110046],[20.177209,50.110023]]]}},{"type":"Feature","id":"w720534333","properties":{"type":"greenhouse","residential":false,"residents_est":0,"h3_10":"8a1e2e6196a7fff","h3_11":"8b1e2e6196a5fff"},"geometry":{"type":"Polygon","coordinates":[[[20.176433,50.109148],[20.176537,50.109101],[20.176565,50.109127],[20.176461,50.109174],[20.176433,50.109148]]]}},{"type":"Feature","id":"w1047828283","properties":{"type":"outbuilding","levels":1.0,"residential":false,"residents_est":0,"h3_10":"8a1e2e61978ffff","h3_11":"8b1e2e61978afff"},"geometry":{"type":"Polygon","coordinates":[[[20.175053,50.109791],[20.175108,50.109759],[20.175219,50.109836],[20.175165,50.109868],[20.175053,50.109791]]]}},{"type":"Feature","id":"w1047828319","properties":{"type":"outbuilding","levels":1.0,"residential":false,"residents_est":0,"h3_10":"8a1e2e619757fff","h3_11":"8b1e2e619752fff"},"geometry":{"type":"Polygon","coordinates":[[[20.179607,50.111696],[20.179673,50.11166],[20.17974,50.111711],[20.179673,50.111746],[20.179607,50.111696]]]}},{"type":"Feature","id":"w1047828327","properties":{"type":"detached","levels":2.0,"residential":true,"residents_est":14,"h3_10":"8a1e2e61972ffff","h3_11":"8b1e2e61972afff"},"geometry":{"type":"Polygon","coordinates":[[[20.177666,50.113525],[20.177857,50.113427],[20.177928,50.113485],[20.177857,50.113521],[20.177914,50.113567],[20.177816,50.113617],[20.17776,50.113571],[20.177737,50.113582],[20.177666,50.113525]]]}},{"type":"Feature","id":"w1047828343","properties":{"type":"detached","levels":1.0,"residential":true,"residents_est":2,"h3_10":"8a1e2e619637fff","h3_11":"8b1e2e619632fff"},"geometry":{"type":"Polygon","coordinates":[[[20.177023,50.110252],[20.177092,50.110216],[20.177164,50.110273],[20.177095,50.110309],[20.177023,50.110252]]]}},{"type":"Feature","id":"w1047828591","properties":{"type":"outbuilding","levels":1.0,"residential":false,"residents_est":0,"h3_10":"8a1e2e6196b7fff","h3_11":"8b1e2e6196b2fff"},"geometry":{"type":"Polygon","coordinates":[[[20.174451,50.107764],[20.174547,50.107718],[20.174598,50.107763],[20.174501,50.107808],[20.174451,50.107764]]]}},{"type":"Feature","id":"w1267871320","properties":{"type":"yes","residential":true,"residents_est":18,"h3_10":"8a1e2e61974ffff","h3_11":"8b1e2e619749fff"},"geometry":{"type":"Polygon","coordinates":[[[20.184168,50.112656],[20.184385,50.112547],[20.184468,50.112615],[20.184397,50.112651],[20.184455,50.112699],[20.184349,50.112752],[20.184298,50.11271],[20.184258,50.11273],[20.184168,50.112656]]]}},{"type":"Feature","id":"w1364971718","properties":{"type":"yes","residential":true,"residents_est":3,"h3_10":"8a1e2e619787fff","h3_11":"8b1e2e619785fff"},"geometry":{"type":"Polygon","coordinates":[[[20.174468,50.110605],[20.17458,50.110538],[20.174663,50.110596],[20.174551,50.110662],[20.174468,50.110605]]]}},{"type":"Feature","id":"w1427675011","properties":{"type":"yes","residential":true,"residents_est":4,"h3_10":"8a1e2e6196a7fff","h3_11":"8b1e2e6196a2fff"},"geometry":{"type":"Polygon","coordinates":[[[20.175778,50.108669],[20.175898,50.108613],[20.175989,50.108693],[20.17587,50.108749],[20.175778,50.108669]]]}},{"type":"Feature","id":"w1427675012","properties":{"type":"construction","residential":false,"residents_est":0,"h3_10":"8a1e2e6196b7fff","h3_11":"8b1e2e6196b0fff"},"geometry":{"type":"Polygon","coordinates":[[[20.174564,50.108149],[20.174683,50.108093],[20.174775,50.108173],[20.174656,50.108229],[20.174564,50.108149]]]}}]}