{"type":"FeatureCollection","features":[{"type":"Feature","id":"w54565084","properties":{"type":"apartments","levels":10.0,"address":"Osiedle Dywizjonu 303 11","residential":true,"residents_est":193,"h3_10":"8a1e2e6a3157fff","h3_11":"8b1e2e6a3150fff"},"geometry":{"type":"Polygon","coordinates":[[[20.001751,50.083548],[20.001756,50.083494],[20.001782,50.083495],[20.001783,50.083482],[20.001758,50.083481],[20.001763,50.083425],[20.001986,50.083433],[20.001985,50.083444],[20.002031,50.083446],[20.002033,50.083419],[20.002119,50.083422],[20.002118,50.083438],[20.002148,50.083439],[20.00215,50.083424],[20.002203,50.083426],[20.002202,50.083436],[20.002251,50.083438],[20.002253,50.083411],[20.002342,50.083414],[20.002341,50.083429],[20.002368,50.08343],[20.00237,50.083416],[20.002425,50.083418],[20.002424,50.083429],[20.002471,50.083431],[20.002474,50.083403],[20.002562,50.083406],[20.00256,50.083422],[20.002586,50.083423],[20.002588,50.083405],[20.002646,50.083407],[20.002645,50.083417],[20.002686,50.083418],[20.002688,50.083391],[20.002781,50.083394],[20.002779,50.08341],[20.002808,50.083411],[20.00281,50.083396],[20.002865,50.083398],[20.002864,50.083407],[20.00291,50.083408],[20.002912,50.083383],[20.002998,50.083386],[20.002997,50.083402],[20.003028,50.083403],[20.003029,50.083386],[20.003085,50.083388],[20.003084,50.083398],[20.003129,50.083399],[20.003128,50.083411],[20.003216,50.083414],[20.003214,50.083433],[20.003239,50.083434],[20.00324,50.083417],[20.003374,50.083422],[20.003366,50.083513],[20.003399,50.083514],[20.00339,50.083626],[20.003415,50.083627],[20.003408,50.083719],[20.003381,50.083719],[20.003375,50.083793],[20.0034,50.083794],[20.003385,50.083969],[20.003353,50.083968],[20.003344,50.084064],[20.003206,50.08406],[20.003208,50.084045],[20.003185,50.084044],[20.003183,50.084069],[20.003095,50.084066],[20.003093,50.084099],[20.002582,50.084081],[20.00258,50.084099],[20.002441,50.084094],[20.002446,50.084039],[20.002495,50.084041],[20.002497,50.084027],[20.00248,50.084026],[20.002485,50.08397],[20.003108,50.083991],[20.003111,50.083959],[20.003195,50.083962],[20.003194,50.083979],[20.003217,50.08398],[20.003232,50.08379],[20.003209,50.083789],[20.003221,50.083646],[20.003236,50.083647],[20.003238,50.083627],[20.003222,50.083626],[20.003232,50.083503],[20.00321,50.083502],[20.003208,50.083525],[20.003121,50.083522],[20.003123,50.083498],[20.002905,50.083491],[20.002904,50.083507],[20.002687,50.0835],[20.002686,50.083516],[20.002468,50.083508],[20.002467,50.083524],[20.002248,50.083517],[20.002246,50.083532],[20.002029,50.083525],[20.002028,50.083542],[20.001891,50.083537],[20.00189,50.083553],[20.001751,50.083548]]]}},{"type":"Feature","id":"w54565085","properties":{"type":"apartments","levels":11.0,"address":"Osiedle Dywizjonu 303 10","residential":true,"residents_est":30,"h3_10":"8a1e2e6a310ffff","h3_11":"8b1e2e6a3109fff"},"geometry":{"type":"Polygon","coordinates":[[[20.001682,50.083937],[20.001689,50.08385],[20.001774,50.083853],[20.001773,50.083864],[20.001805,50.083866],[20.001807,50.083839],[20.001907,50.083843],[20.001909,50.08382],[20.001995,50.083823],[20.001978,50.084018],[20.001891,50.084015],[20.001892,50.084001],[20.001694,50.083993],[20.001699,50.083937],[20.001682,50.083937]]]}},{"type":"Feature","id":"w54565087","properties":{"type":"apartments","levels":11.0,"address":"Osiedle Dywizjonu 303 17","residential":true,"residents_est":31,"h3_10":"8a1e2e6a3177fff","h3_11":"8b1e2e6a3176fff"},"geometry":{"type":"Polygon","coordinates":[[[20.001789,50.084721],[20.001796,50.084632],[20.001888,50.084635],[20.001887,50.084648],[20.001913,50.084649],[20.001916,50.084623],[20.002018,50.084626],[20.00202,50.084603],[20.002108,50.084606],[20.002092,50.084804],[20.002002,50.084801],[20.002004,50.084782],[20.001806,50.084775],[20.00181,50.084722],[20.001789,50.084721]]]}},{"type":"Feature","id":"w54565090","properties":{"type":"apartments","levels":10.0,"residential":true,"residents_est":179,"h3_10":"8a1e2e6a3027fff","h3_11":"8b1e2e6a3021fff"},"geometry":{"type":"Polygon","coordinates":[[[20.001478,50.082866],[20.001481,50.082833],[20.001509,50.082833],[20.001518,50.082745],[20.001538,50.082746],[20.001543,50.082691],[20.001645,50.082694],[20.001647,50.082662],[20.001632,50.082662],[20.001637,50.082605],[20.001662,50.082606],[20.001663,50.082593],[20.001638,50.082592],[20.001642,50.082535],[20.001866,50.082542],[20.001866,50.082553],[20.00191,50.082554],[20.001914,50.082514],[20.001997,50.082516],[20.001996,50.082529],[20.002022,50.08253],[20.002023,50.082518],[20.002135,50.082529],[20.002139,50.082487],[20.002227,50.08249],[20.002226,50.082505],[20.002253,50.082506],[20.002254,50.08249],[20.002308,50.082492],[20.002307,50.082506],[20.00235,50.082508],[20.002353,50.08247],[20.002474,50.082474],[20.002472,50.082485],[20.002517,50.082487],[20.002518,50.082471],[20.002601,50.082475],[20.002592,50.082582],[20.002346,50.082576],[20.002343,50.082609],[20.002126,50.082602],[20.002124,50.082634],[20.001904,50.082627],[20.001902,50.082659],[20.001766,50.082655],[20.001765,50.08267],[20.001694,50.082668],[20.001692,50.082695],[20.001708,50.082696],[20.001687,50.082981],[20.001708,50.082981],[20.001709,50.082967],[20.001796,50.08297],[20.001798,50.082952],[20.002189,50.082967],[20.00219,50.08295],[20.002574,50.082967],[20.002576,50.082951],[20.002865,50.082962],[20.002864,50.082977],[20.002895,50.082978],[20.002897,50.082963],[20.002983,50.082966],[20.002973,50.083075],[20.002571,50.08306],[20.002568,50.083077],[20.002182,50.083064],[20.00218,50.083079],[20.001794,50.083066],[20.001793,50.083081],[20.001705,50.083078],[20.001708,50.083051],[20.001685,50.083051],[20.001684,50.083065],[20.001548,50.083061],[20.001552,50.082998],[20.001503,50.082997],[20.001506,50.082961],[20.001521,50.082962],[20.001528,50.082868],[20.001478,50.082866]]]}},{"type":"Feature","id":"w54565091","properties":{"type":"apartments","levels":11.0,"address":"Osiedle Dywizjonu 303 6","residential":true,"residents_est":30,"h3_10":"8a1e2e6a3027fff","h3_11":"8b1e2e6a3026fff"},"geometry":{"type":"Polygon","coordinates":[[[20.000725,50.082788],[20.000809,50.082785],[20.00081,50.082796],[20.000841,50.082796],[20.00084,50.082769],[20.000939,50.082767],[20.000938,50.082745],[20.001029,50.082743],[20.00104,50.082938],[20.00095,50.08294],[20.000949,50.082923],[20.000753,50.082928],[20.00075,50.082876],[20.000731,50.082876],[20.000725,50.082788]]]}},{"type":"Feature","id":"w54565092","properties":{"type":"apartments","levels":11.0,"address":"Osiedle Dywizjonu 303 7","residential":true,"residents_est":30,"h3_10":"8a1e2e6a311ffff","h3_11":"8b1e2e6a3119fff"},"geometry":{"type":"Polygon","coordinates":[[[20.000041,50.08293],[20.000127,50.082929],[20.000127,50.082939],[20.000159,50.082939],[20.000158,50.082913],[20.00026,50.082912],[20.00026,50.08289],[20.000347,50.08289],[20.00035,50.083086],[20.000263,50.083086],[20.000262,50.083069],[20.000065,50.08307],[20.000064,50.083016],[20.000042,50.083016],[20.000041,50.08293]]]}},{"type":"Feature","id":"w54565093","properties":{"type":"apartments","levels":11.0,"address":"Osiedle Dywizjonu 303 8","residential":true,"residents_est":31,"h3_10":"8a1e2e6a310ffff","h3_11":"8b1e2e6a310afff"},"geometry":{"type":"Polygon","coordinates":[[[20.000547,50.083463],[20.000553,50.083375],[20.000639,50.083377],[20.000638,50.08339],[20.000671,50.083391],[20.000672,50.083365],[20.000774,50.083367],[20.000775,50.083346],[20.000862,50.083348],[20.000849,50.083544],[20.000757,50.083542],[20.000758,50.083524],[20.000557,50.083518],[20.000561,50.083463],[20.000547,50.083463]]]}},{"type":"Feature","id":"w54565094","properties":{"type":"apartments","levels":11.0,"address":"Osiedle Dywizjonu 303 9","residential":true,"residents_est":30,"h3_10":"8a1e2e6a310ffff","h3_11":"8b1e2e6a3108fff"},"geometry":{"type":"Polygon","coordinates":[[[20.000975,50.083846],[20.000979,50.083759],[20.001064,50.083761],[20.001063,50.083772],[20.001097,50.083773],[20.001099,50.083745],[20.001198,50.083748],[20.001199,50.083726],[20.001284,50.083728],[20.001273,50.083925],[20.001185,50.083923],[20.001186,50.083904],[20.000984,50.0839],[20.000987,50.083846],[20.000975,50.083846]]]}},{"type":"Feature","id":"w54565098","properties":{"type":"yes","levels":2.0,"address":"Osiedle Dywizjonu 303 1","name":"Pawilon Spółdzielnia SM Czyżyny","residential":true,"residents_est":13,"h3_10":"8a1e2e6a3077fff","h3_11":"8b1e2e6a3070fff"},"geometry":{"type":"Polygon","coordinates":[[[20.004374,50.081879],[20.004943,50.081751],[20.00501,50.08188],[20.00509,50.081862],[20.005287,50.082223],[20.005118,50.082261],[20.004922,50.081901],[20.004584,50.081977],[20.004612,50.082028],[20.004644,50.082021],[20.004727,50.082173],[20.004758,50.082166],[20.004844,50.082323],[20.004643,50.082368],[20.004589,50.082269],[20.004558,50.082276],[20.004539,50.082242],[20.004442,50.082063],[20.004475,50.082056],[20.004374,50.081879]]]}},{"type":"Feature","id":"w54565099","properties":{"type":"yes","address":"Osiedle Dywizjonu 303 2","name":"Przychodnia Rejonowa nr 14 - SPZOZ NOWA HUTA","residential":true,"residents_est":8,"h3_10":"8a1e2e6a302ffff","h3_11":"8b1e2e6a3029fff"},"geometry":{"type":"Polygon","coordinates":[[[20.00357,50.082134],[20.003765,50.08209],[20.00394,50.082414],[20.003745,50.082459],[20.003647,50.082278],[20.003639,50.082279],[20.003624,50.082253],[20.003632,50.08225],[20.00357,50.082134]]]}},{"type":"Feature","id":"w54565188","properties":{"type":"church","levels":7.0,"name":"Kościół pw. Świętego Brata Alberta Chmielowskiego","residential":false,"residents_est":0,"h3_10":"8a1e2e6a304ffff","h3_11":"8b1e2e6a304efff"},"geometry":{"type":"Polygon","coordinates":[[[20.007308,50.081388],[20.007329,50.081357],[20.00731,50.081356],[20.007438,50.081184],[20.007449,50.081187],[20.007604,50.081153],[20.00765,50.081142],[20.007659,50.081133],[20.007923,50.081216],[20.007913,50.081227],[20.007936,50.081229],[20.007957,50.081239],[20.007971,50.081255],[20.007975,50.081272],[20.007956,50.081301],[20.007972,50.081303],[20.00777,50.081573],[20.007358,50.081442],[20.007371,50.081433],[20.007327,50.081419],[20.007308,50.081388]]]}},{"type":"Feature","id":"w54565226","properties":{"type":"apartments","levels":11.0,"address":"Osiedle 2 Pułku Lotniczego 26","residential":true,"residents_est":113,"h3_10":"8a1e2e6a30dffff","h3_11":"8b1e2e6a30dcfff"},"geometry":{"type":"Polygon","coordinates":[[[20.003625,50.078571],[20.00402,50.078482],[20.004012,50.078464],[20.004378,50.078381],[20.004371,50.078366],[20.004738,50.078285],[20.00473,50.078269],[20.005,50.078209],[20.005008,50.078225],[20.005037,50.078218],[20.005029,50.078202],[20.005114,50.078183],[20.00517,50.078289],[20.004791,50.078373],[20.004799,50.07839],[20.004431,50.078469],[20.004438,50.078485],[20.004069,50.078568],[20.004077,50.078583],[20.003777,50.078652],[20.003786,50.078668],[20.003657,50.078697],[20.003628,50.078645],[20.003676,50.078633],[20.00367,50.07862],[20.003653,50.078624],[20.003625,50.078571]]]}},{"type":"Feature","id":"w54565236","properties":{"type":"apartments","address":"Osiedle 2 Pułku Lotniczego 29","residential":true,"residents_est":24,"h3_10":"8a1e2e6a305ffff","h3_11":"8b1e2e6a305afff"},"geometry":{"type":"Polygon","coordinates":[[[20.0066,50.079745],[20.006779,50.079724],[20.006794,50.079778],[20.006804,50.079777],[20.0068,50.07978],[20.006807,50.079805],[20.006812,50.079805],[20.006803,50.079809],[20.006847,50.079966],[20.006856,50.079965],[20.006865,50.079996],[20.006855,50.079997],[20.006899,50.080155],[20.006908,50.080154],[20.006912,50.080182],[20.006917,50.080184],[20.006753,50.080203],[20.006774,50.080198],[20.006767,50.080173],[20.00672,50.080179],[20.006675,50.080015],[20.0067,50.080012],[20.006693,50.079987],[20.006668,50.07999],[20.006622,50.079827],[20.006647,50.079824],[20.00664,50.079799],[20.006615,50.079802],[20.0066,50.079745]]]}},{"type":"Feature","id":"w54566459","properties":{"type":"yes","residential":true,"residents_est":8,"h3_10":"8a1e2e6a3167fff","h3_11":"8b1e2e6a3165fff"},"geometry":{"type":"Polygon","coordinates":[[[20.004202,50.08539],[20.004572,50.085296],[20.004581,50.085495],[20.004465,50.085497],[20.004463,50.085467],[20.004351,50.085469],[20.004357,50.085634],[20.004238,50.085613],[20.004228,50.085412],[20.004203,50.085412],[20.004202,50.08539]]]}},{"type":"Feature","id":"w54566490","properties":{"type":"apartments","levels":4.0,"address":"Osiedle Dywizjonu 303 12a","residential":true,"residents_est":20,"h3_10":"8a1e2e6a315ffff","h3_11":"8b1e2e6a3158fff"},"geometry":{"type":"Polygon","coordinates":[[[20.004694,50.082906],[20.004715,50.082879],[20.00479,50.082863],[20.004831,50.082876],[20.005122,50.083422],[20.005102,50.083449],[20.005026,50.083466],[20.004985,50.083452],[20.004961,50.083407],[20.004969,50.083405],[20.004936,50.083343],[20.004928,50.083344],[20.004892,50.083277],[20.004899,50.083275],[20.004883,50.083244],[20.004866,50.083213],[20.004858,50.083214],[20.004821,50.083145],[20.004828,50.083142],[20.004796,50.08308],[20.004788,50.083082],[20.004752,50.083015],[20.004759,50.083013],[20.004726,50.082949],[20.004718,50.082951],[20.004694,50.082906]]]}},{"type":"Feature","id":"w54566491","properties":{"type":"kindergarten","address":"Osiedle Dywizjonu 303 12","residential":false,"residents_est":0,"h3_10":"8a1e2e6a315ffff","h3_11":"8b1e2e6a315cfff"},"geometry":{"type":"Polygon","coordinates":[[[20.003992,50.083695],[20.004035,50.083686],[20.003992,50.083608],[20.004032,50.083599],[20.004074,50.083677],[20.004389,50.083605],[20.004346,50.083526],[20.004386,50.083517],[20.004431,50.083598],[20.004471,50.083588],[20.00454,50.083715],[20.004062,50.083822],[20.003992,50.083695]]]}},{"type":"Feature","id":"w57837515","properties":{"type":"kindergarten","levels":2.0,"address":"Osiedle 2 Pułku Lotniczego 23","residential":false,"residents_est":0,"h3_10":"8a1e2e6a30effff","h3_11":"8b1e2e6a30ebfff"},"geometry":{"type":"Polygon","coordinates":[[[20.005966,50.079309],[20.006576,50.079175],[20.006634,50.079283],[20.006025,50.079419],[20.005966,50.079309]]]}},{"type":"Feature","id":"w60681546","properties":{"type":"apartments","residential":true,"residents_est":21,"h3_10":"8a1e2e6a3117fff","h3_11":"8b1e2e6a3114fff"},"geometry":{"type":"Polygon","coordinates":[[[19.997311,50.083717],[19.997315,50.083691],[19.997336,50.083692],[19.997342,50.083647],[19.997492,50.083656],[19.997482,50.083734],[19.997572,50.083739],[19.99757,50.083753],[19.997606,50.083755],[19.997612,50.083717],[19.997675,50.08372],[19.997671,50.083749],[19.997748,50.083754],[19.997752,50.083724],[19.997818,50.083728],[19.997813,50.083762],[19.99785,50.083764],[19.997852,50.083749],[19.997924,50.083753],[19.997917,50.083809],[19.997932,50.08381],[19.997923,50.083879],[19.997767,50.083874],[19.997769,50.08386],[19.997617,50.083852],[19.997615,50.083864],[19.997567,50.083861],[19.997569,50.083849],[19.99749,50.083845],[19.997497,50.083798],[19.997323,50.083788],[19.997333,50.083718],[19.997311,50.083717]]]}},{"type":"Feature","id":"w60681567","properties":{"type":"yes","residential":true,"residents_est":7,"h3_10":"8a1e2e6a3117fff","h3_11":"8b1e2e6a3110fff"},"geometry":{"type":"Polygon","coordinates":[[[19.997955,50.0834],[19.997961,50.083362],[19.998029,50.083366],[19.998024,50.083397],[19.998098,50.083402],[19.998102,50.08337],[19.998228,50.083378],[19.998224,50.083408],[19.998258,50.08341],[19.998252,50.083445],[19.998377,50.083453],[19.998373,50.083483],[19.998421,50.083486],[19.99841,50.08356],[19.998432,50.083562],[19.998427,50.083597],[19.998386,50.083596],[19.998382,50.083621],[19.99824,50.083612],[19.998247,50.083568],[19.998225,50.083567],[19.99823,50.083536],[19.998251,50.083537],[19.998254,50.083522],[19.998175,50.083517],[19.998172,50.083529],[19.998129,50.083526],[19.998131,50.083514],[19.997974,50.083504],[19.997989,50.083402],[19.997955,50.0834]]]}},{"type":"Feature","id":"w60681611","properties":{"type":"apartments","levels":5.0,"address":"Stanisława Skarżyńskiego 8","residential":true,"residents_est":62,"h3_10":"8a1e2e6a3107fff","h3_11":"8b1e2e6a3106fff"},"geometry":{"type":"Polygon","coordinates":[[[19.998231,50.084218],[19.998241,50.084148],[19.998256,50.084149],[19.998261,50.084108],[19.998267,50.084109],[19.99827,50.084093],[19.998338,50.084097],[19.998336,50.084114],[19.99837,50.084117],[19.998376,50.084077],[19.998442,50.084081],[19.998438,50.084111],[19.998515,50.084115],[19.998519,50.084086],[19.998643,50.084093],[19.998639,50.084122],[19.998729,50.084128],[19.998733,50.084098],[19.998845,50.084105],[19.998841,50.084134],[19.998882,50.084137],[19.998877,50.084172],[19.998999,50.084179],[19.998995,50.084209],[19.999042,50.084212],[19.999032,50.084283],[19.999056,50.084285],[19.99905,50.084324],[19.99901,50.084324],[19.999001,50.084382],[19.999043,50.084387],[19.999031,50.084465],[19.99899,50.084464],[19.99898,50.084533],[19.999021,50.084537],[19.999015,50.084576],[19.998994,50.084575],[19.998988,50.084616],[19.998972,50.084615],[19.998968,50.084642],[19.998986,50.084643],[19.998978,50.084701],[19.998943,50.084699],[19.998937,50.084739],[19.998848,50.084733],[19.998846,50.084749],[19.998803,50.084746],[19.998796,50.084775],[19.99862,50.084765],[19.998618,50.084783],[19.998575,50.084781],[19.998577,50.084762],[19.998494,50.084757],[19.998509,50.084648],[19.998551,50.084651],[19.998555,50.084618],[19.99868,50.084626],[19.998675,50.084658],[19.998787,50.084664],[19.998796,50.084598],[19.998819,50.0846],[19.998821,50.084584],[19.998798,50.084583],[19.998801,50.084555],[19.998825,50.084556],[19.998844,50.084425],[19.998821,50.084424],[19.998823,50.0844],[19.998847,50.0844],[19.998862,50.084294],[19.998838,50.084292],[19.998842,50.084264],[19.998866,50.084265],[19.998869,50.084246],[19.998786,50.084241],[19.998783,50.084255],[19.998739,50.084254],[19.998741,50.084238],[19.998586,50.084228],[19.998583,50.084243],[19.998537,50.08424],[19.998539,50.084225],[19.998387,50.084216],[19.998385,50.08423],[19.998338,50.084229],[19.998339,50.084224],[19.998231,50.084218]]]}},{"type":"Feature","id":"w60681659","properties":{"type":"yes","address":"Stanisława Skarżyńskiego 2","residential":true,"residents_est":5,"h3_10":"8a1e2e6a3137fff","h3_11":"8b1e2e6a3135fff"},"geometry":{"type":"Polygon","coordinates":[[[19.997759,50.085],[19.997771,50.084903],[19.997786,50.084903],[19.997794,50.084847],[19.9979,50.084852],[19.997893,50.084907],[19.997998,50.084913],[19.997983,50.085013],[19.99797,50.085012],[19.997962,50.085066],[19.997874,50.08506],[19.997877,50.08504],[19.997855,50.085039],[19.997852,50.085058],[19.997767,50.085053],[19.997774,50.085002],[19.997759,50.085]]]}},{"type":"Feature","id":"w83334074","properties":{"type":"apartments","levels":4.0,"address":"Osiedle Dywizjonu 303 66a","residential":true,"residents_est":16,"h3_10":"8a1e2e6a3147fff","h3_11":"8b1e2e6a3141fff"},"geometry":{"type":"Polygon","coordinates":[[[20.005284,50.083912],[20.005462,50.083873],[20.005656,50.084234],[20.005479,50.084274],[20.005284,50.083912]]]}},{"type":"Feature","id":"w83334095","properties":{"type":"commercial","address":"Osiedle Dywizjonu 303 14b","name":"mini Market","residential":false,"residents_est":0,"h3_10":"8a1e2e6a3177fff","h3_11":"8b1e2e6a3175fff"},"geometry":{"type":"Polygon","coordinates":[[[20.002711,50.084957],[20.002718,50.084899],[20.002793,50.0849],[20.002794,50.084911],[20.002872,50.084913],[20.002876,50.084921],[20.002947,50.084924],[20.002943,50.084984],[20.002863,50.084981],[20.002864,50.084971],[20.002788,50.08497],[20.002788,50.084959],[20.002711,50.084957]]]}},{"type":"Feature","id":"w83334105","properties":{"type":"yes","levels":5.0,"address":"Osiedle Dywizjonu 303 4C","residential":true,"residents_est":10,"h3_10":"8a1e2e6a300ffff","h3_11":"8b1e2e6a300cfff"},"geometry":{"type":"Polygon","coordinates":[[[20.002847,50.081863],[20.003497,50.081723],[20.003546,50.081817],[20.003301,50.08187],[20.003308,50.081883],[20.003282,50.081896],[20.003192,50.081911],[20.003194,50.081915],[20.003178,50.081919],[20.003144,50.081918],[20.003137,50.081905],[20.002896,50.081957],[20.002847,50.081863]]]}},{"type":"Feature","id":"w83334180","properties":{"type":"yes","residential":true,"residents_est":10,"h3_10":"8a1e2e6a302ffff","h3_11":"8b1e2e6a302dfff"},"geometry":{"type":"Polygon","coordinates":[[[20.003504,50.082754],[20.003665,50.082715],[20.003648,50.082685],[20.003726,50.08267],[20.003766,50.082749],[20.00393,50.082713],[20.003901,50.082664],[20.004064,50.082628],[20.004144,50.082778],[20.003588,50.082909],[20.003504,50.082754]]]}},{"type":"Feature","id":"w83334181","properties":{"type":"service","residential":false,"residents_est":0,"h3_10":"8a1e2e6a302ffff","h3_11":"8b1e2e6a3028fff"},"geometry":{"type":"Polygon","coordinates":[[[20.002922,50.082247],[20.003152,50.082194],[20.003192,50.082262],[20.003237,50.082251],[20.003306,50.082386],[20.003204,50.082408],[20.003193,50.082387],[20.003171,50.082392],[20.003182,50.082412],[20.003145,50.082421],[20.003126,50.082386],[20.003068,50.082399],[20.003029,50.082328],[20.002973,50.082341],[20.002922,50.082247]]]}},{"type":"Feature","id":"w83334209","properties":{"type":"apartments","residential":true,"residents_est":13,"h3_10":"8a1e2e6a3167fff","h3_11":"8b1e2e6a3164fff"},"geometry":{"type":"Polygon","coordinates":[[[20.003676,50.085653],[20.003697,50.085584],[20.003729,50.085587],[20.003734,50.085569],[20.003701,50.085566],[20.003747,50.08538],[20.003909,50.085398],[20.00385,50.085633],[20.003822,50.08563],[20.00381,50.085673],[20.003676,50.085653]]]}},{"type":"Feature","id":"w83334227","properties":{"type":"yes","address":"Osiedle Dywizjonu 303 65","residential":true,"residents_est":5,"h3_10":"8a1e2e6a305ffff","h3_11":"8b1e2e6a305cfff"},"geometry":{"type":"Polygon","coordinates":[[[20.00667,50.080955],[20.007074,50.080866],[20.007133,50.080972],[20.006729,50.081061],[20.00667,50.080955]]]}},{"type":"Feature","id":"w83334290","properties":{"type":"yes","address":"Osiedle Dywizjonu 303 16","residential":true,"residents_est":4,"h3_10":"8a1e2e6a3177fff","h3_11":"8b1e2e6a3170fff"},"geometry":{"type":"Polygon","coordinates":[[[20.002479,50.08478],[20.002487,50.084669],[20.002574,50.084672],[20.002575,50.084654],[20.00263,50.084655],[20.002629,50.084675],[20.002799,50.08468],[20.002791,50.084792],[20.002479,50.08478]]]}},{"type":"Feature","id":"w172350220","properties":{"type":"residential","levels":9.0,"address":"Osiedle 2 Pułku Lotniczego 24","residential":true,"residents_est":63,"h3_10":"8a1e2e6a30cffff","h3_11":"8b1e2e6a30cefff"},"geometry":{"type":"Polygon","coordinates":[[[20.005383,50.078609],[20.005526,50.078576],[20.005474,50.078482],[20.005742,50.078421],[20.005793,50.078515],[20.005937,50.078482],[20.006019,50.078632],[20.005799,50.078677],[20.005808,50.078691],[20.005686,50.078719],[20.00568,50.078703],[20.005648,50.078711],[20.005651,50.078716],[20.005465,50.078758],[20.005383,50.078609]]]}},{"type":"Feature","id":"w184611524","properties":{"type":"yes","residential":true,"residents_est":7,"h3_10":"8a1e2e6a315ffff","h3_11":"8b1e2e6a315cfff"},"geometry":{"type":"Polygon","coordinates":[[[20.00379,50.08357],[20.003945,50.083534],[20.003939,50.083522],[20.003988,50.08351],[20.003997,50.083526],[20.004309,50.083453],[20.004303,50.083443],[20.004343,50.083434],[20.00435,50.083446],[20.004507,50.08341],[20.004547,50.083479],[20.003833,50.083646],[20.00379,50.08357]]]}},{"type":"Feature","id":"w184611532","properties":{"type":"yes","residential":false,"residents_est":0,"h3_10":"8a1e2e6a3077fff","h3_11":"8b1e2e6a3074fff"},"geometry":{"type":"Polygon","coordinates":[[[20.004815,50.082269],[20.004895,50.082251],[20.004924,50.082305],[20.004844,50.082323],[20.004815,50.082269]]]}},{"type":"Feature","id":"w184611539","properties":{"type":"yes","residential":false,"residents_est":0,"h3_10":"8a1e2e6a3077fff","h3_11":"8b1e2e6a3070fff"},"geometry":{"type":"Polygon","coordinates":[[[20.005009,50.082225],[20.005088,50.082208],[20.005118,50.082261],[20.005038,50.082279],[20.005009,50.082225]]]}},{"type":"Feature","id":"w240901980","properties":{"type":"apartments","levels":11.0,"address":"Osiedle Dywizjonu 303 14","residential":true,"residents_est":166,"h3_10":"8a1e2e6a3167fff","h3_11":"8b1e2e6a3162fff"},"geometry":{"type":"Polygon","coordinates":[[[20.00316,50.084747],[20.003168,50.084659],[20.003192,50.084661],[20.003197,50.084605],[20.003315,50.08461],[20.003319,50.084576],[20.003286,50.084575],[20.00329,50.084443],[20.003516,50.084452],[20.003515,50.084461],[20.003562,50.084463],[20.003564,50.084442],[20.003685,50.084446],[20.003687,50.084457],[20.003732,50.084458],[20.003733,50.084441],[20.003822,50.084444],[20.003813,50.084557],[20.00355,50.084553],[20.003549,50.084567],[20.003416,50.084563],[20.003414,50.084579],[20.003368,50.084578],[20.003362,50.084666],[20.003339,50.084665],[20.003336,50.084685],[20.003361,50.084686],[20.003345,50.084897],[20.003363,50.084897],[20.003365,50.084881],[20.003451,50.084884],[20.003452,50.08487],[20.003843,50.084882],[20.003844,50.084867],[20.004231,50.084878],[20.004229,50.084864],[20.004638,50.084875],[20.004631,50.084931],[20.004645,50.08493],[20.004642,50.084985],[20.004223,50.084971],[20.004223,50.084985],[20.003829,50.084975],[20.003831,50.084991],[20.003441,50.084979],[20.003441,50.084995],[20.003355,50.084991],[20.003359,50.084965],[20.003338,50.084963],[20.003335,50.08498],[20.003201,50.084975],[20.003206,50.084878],[20.003176,50.084878],[20.003185,50.084749],[20.00316,50.084747]]]}},{"type":"Feature","id":"w261950128","properties":{"type":"residential","levels":11.0,"address":"Osiedle Avia 6","residential":true,"residents_est":35,"h3_10":"8a1e2e6a30c7fff","h3_11":"8b1e2e6a30c3fff"},"geometry":{"type":"Polygon","coordinates":[[[20.004803,50.078712],[20.004831,50.078705],[20.004821,50.078688],[20.004973,50.078654],[20.004983,50.078671],[20.00501,50.078665],[20.005076,50.078787],[20.005084,50.078786],[20.005094,50.078804],[20.005086,50.078806],[20.005098,50.078828],[20.005121,50.078823],[20.005123,50.078828],[20.005101,50.078833],[20.005133,50.078893],[20.005156,50.078888],[20.005159,50.078893],[20.004929,50.078944],[20.004889,50.07887],[20.004904,50.078866],[20.004881,50.078826],[20.004867,50.078829],[20.004865,50.078825],[20.004878,50.078822],[20.004864,50.078798],[20.004851,50.0788],[20.004803,50.078712]]]}},{"type":"Feature","id":"w261950129","properties":{"type":"residential","levels":11.0,"address":"Osiedle Avia 6","residential":true,"residents_est":64,"h3_10":"8a1e2e6a30c7fff","h3_11":"8b1e2e6a30c0fff"},"geometry":{"type":"Polygon","coordinates":[[[20.004022,50.078886],[20.004049,50.07888],[20.00404,50.078863],[20.004192,50.078829],[20.004202,50.078846],[20.00423,50.07884],[20.004277,50.078929],[20.004258,50.078933],[20.004267,50.07895],[20.004286,50.078946],[20.004304,50.078978],[20.004482,50.078938],[20.004475,50.078924],[20.004636,50.078888],[20.004642,50.0789],[20.004668,50.078894],[20.004661,50.078882],[20.004665,50.078881],[20.004712,50.078969],[20.004748,50.078961],[20.004745,50.078938],[20.004775,50.078996],[20.004549,50.079048],[20.004541,50.079032],[20.004307,50.079084],[20.00429,50.079088],[20.004299,50.079102],[20.004164,50.079133],[20.004161,50.079129],[20.004175,50.079125],[20.004161,50.079099],[20.004177,50.079095],[20.004164,50.079072],[20.004149,50.079076],[20.004134,50.079049],[20.00412,50.079052],[20.004118,50.079047],[20.004161,50.079039],[20.004149,50.079016],[20.004091,50.079029],[20.00408,50.07901],[20.004088,50.079009],[20.004079,50.078992],[20.004098,50.078987],[20.00409,50.078971],[20.00407,50.078975],[20.004022,50.078886]]]}},{"type":"Feature","id":"w310341255","properties":{"type":"presbytery","levels":3.0,"address":"Osiedle Dywizjonu 303 63","name":"Plebania","residential":false,"residents_est":0,"h3_10":"8a1e2e6a304ffff","h3_11":"8b1e2e6a304cfff"},"geometry":{"type":"Polygon","coordinates":[[[20.00751,50.081749],[20.007741,50.081697],[20.007678,50.081578],[20.007637,50.081564],[20.007612,50.081523],[20.00777,50.081573],[20.007843,50.081477],[20.007848,50.081487],[20.007856,50.081486],[20.007868,50.081513],[20.007849,50.08154],[20.007912,50.081657],[20.008141,50.081607],[20.008065,50.081459],[20.008012,50.081471],[20.007995,50.081438],[20.008033,50.081396],[20.008173,50.081367],[20.008308,50.081617],[20.008252,50.081631],[20.00826,50.081646],[20.008293,50.081639],[20.008307,50.081665],[20.00828,50.081694],[20.007568,50.081856],[20.00751,50.081749]]]}},{"type":"Feature","id":"w340012576","properties":{"type":"yes","residential":true,"residents_est":1,"h3_10":"8a1e2e6a3137fff","h3_11":"8b1e2e6a3135fff"},"geometry":{"type":"Polygon","coordinates":[[[19.997899,50.08487],[19.997907,50.084817],[19.997953,50.08482],[19.997957,50.084783],[19.998071,50.084788],[19.998064,50.084844],[19.997981,50.084839],[19.997976,50.084874],[19.997899,50.08487]]]}},{"type":"Feature","id":"w340012577","properties":{"type":"yes","residential":true,"residents_est":1,"h3_10":"8a1e2e6a3137fff","h3_11":"8b1e2e6a3133fff"},"geometry":{"type":"Polygon","coordinates":[[[19.997663,50.08431],[19.997669,50.084255],[19.997713,50.084258],[19.997718,50.084223],[19.997829,50.084229],[19.99782,50.08428],[19.997735,50.084276],[19.997733,50.084296],[19.997741,50.084296],[19.997738,50.084315],[19.997663,50.08431]]]}},{"type":"Feature","id":"w340012579","properties":{"type":"yes","residential":true,"residents_est":4,"h3_10":"8a1e2e6a3137fff","h3_11":"8b1e2e6a3135fff"},"geometry":{"type":"Polygon","coordinates":[[[19.997858,50.084778],[19.997872,50.084679],[19.997888,50.08468],[19.997895,50.084629],[19.998094,50.084637],[19.998086,50.084688],[19.998105,50.084689],[19.998092,50.084789],[19.997858,50.084778]]]}},{"type":"Feature","id":"w340012581","properties":{"type":"yes","residential":true,"residents_est":4,"h3_10":"8a1e2e6a3137fff","h3_11":"8b1e2e6a3130fff"},"geometry":{"type":"Polygon","coordinates":[[[19.997511,50.084441],[19.997526,50.084339],[19.997542,50.08434],[19.997549,50.084288],[19.997663,50.084294],[19.997658,50.084345],[19.997754,50.08435],[19.997742,50.08445],[19.997724,50.084449],[19.997716,50.084502],[19.997525,50.084489],[19.997532,50.084442],[19.997511,50.084441]]]}},{"type":"Feature","id":"w340012583","properties":{"type":"yes","residential":true,"residents_est":1,"h3_10":"8a1e2e6a3117fff","h3_11":"8b1e2e6a3110fff"},"geometry":{"type":"Polygon","coordinates":[[[19.997817,50.083504],[19.997827,50.083436],[19.997843,50.083437],[19.997852,50.083381],[19.99792,50.083385],[19.997919,50.083398],[19.997989,50.083402],[19.997972,50.083516],[19.997817,50.083504]]]}},{"type":"Feature","id":"w340012590","properties":{"type":"apartments","residential":true,"residents_est":9,"h3_10":"8a1e2e6a3137fff","h3_11":"8b1e2e6a3133fff"},"geometry":{"type":"Polygon","coordinates":[[[19.997619,50.084218],[19.997628,50.084152],[19.997649,50.084153],[19.997651,50.084139],[19.997619,50.084137],[19.997628,50.08408],[19.997882,50.084093],[19.997874,50.08415],[19.997842,50.084148],[19.99784,50.084162],[19.997856,50.084162],[19.997847,50.08423],[19.997619,50.084218]]]}},{"type":"Feature","id":"w340012595","properties":{"type":"yes","address":"Stanisława Skarżyńskiego 6","residential":true,"residents_est":8,"h3_10":"8a1e2e6a3117fff","h3_11":"8b1e2e6a3115fff"},"geometry":{"type":"Polygon","coordinates":[[[19.998197,50.083901],[19.998227,50.0837],[19.998206,50.083699],[19.99821,50.083671],[19.998231,50.083672],[19.99824,50.083612],[19.998422,50.083626],[19.998417,50.083661],[19.998406,50.08366],[19.998391,50.083759],[19.998475,50.083764],[19.99845,50.083931],[19.998288,50.083921],[19.99829,50.083906],[19.998197,50.083901]]]}},{"type":"Feature","id":"w340012610","properties":{"type":"service","residential":false,"residents_est":0,"h3_10":"8a1e2e6a3137fff","h3_11":"8b1e2e6a3132fff"},"geometry":{"type":"Polygon","coordinates":[[[19.997238,50.084017],[19.997244,50.083968],[19.997321,50.083972],[19.997314,50.084021],[19.997238,50.084017]]]}},{"type":"Feature","id":"w340012647","properties":{"type":"yes","address":"Stanisława Skarżyńskiego 4","residential":true,"residents_est":12,"h3_10":"8a1e2e6a3117fff","h3_11":"8b1e2e6a3116fff"},"geometry":{"type":"Polygon","coordinates":[[[19.99694,50.083393],[19.99695,50.083323],[19.996967,50.083324],[19.996975,50.083269],[19.997048,50.083273],[19.997047,50.083286],[19.997082,50.083288],[19.997087,50.083252],[19.997149,50.083255],[19.997145,50.083287],[19.99722,50.083291],[19.997224,50.08326],[19.997349,50.083267],[19.997345,50.083296],[19.997389,50.083299],[19.997384,50.083334],[19.997509,50.08334],[19.997505,50.083373],[19.99755,50.083375],[19.997535,50.083489],[19.997515,50.083488],[19.997511,50.083516],[19.997532,50.083517],[19.997514,50.083657],[19.997342,50.083647],[19.99735,50.083589],[19.99733,50.083587],[19.997334,50.08356],[19.997354,50.08356],[19.997368,50.083454],[19.997347,50.083453],[19.99735,50.083424],[19.997372,50.083425],[19.997375,50.083405],[19.997295,50.083401],[19.997294,50.083411],[19.997249,50.083409],[19.99725,50.083398],[19.997097,50.08339],[19.997095,50.083404],[19.99694,50.083393]]]}},{"type":"Feature","id":"w340012674","properties":{"type":"yes","residential":true,"residents_est":6,"h3_10":"8a1e2e6a3137fff","h3_11":"8b1e2e6a3130fff"},"geometry":{"type":"Polygon","coordinates":[[[19.997516,50.084552],[19.997525,50.08449],[19.998108,50.084525],[19.998094,50.084637],[19.997829,50.084624],[19.997837,50.084571],[19.997516,50.084552]]]}},{"type":"Feature","id":"r5761675","properties":{"type":"commercial","levels":4.0,"address":"Profesora Michała Życzkowskiego 20","name":"Avia Office","residential":false,"residents_est":0,"h3_10":"8a1e2e6a3197fff","h3_11":"8b1e2e6a3192fff"},"geometry":{"type":"Polygon","coordinates":[[[19.99459,50.080739],[19.994625,50.080466],[19.994666,50.080468],[19.994671,50.080424],[19.994654,50.080411],[19.994674,50.080399],[19.99468,50.080355],[19.994639,50.080353],[19.994674,50.08008],[19.995248,50.08011],[19.995164,50.08077],[19.99459,50.080739]],[[19.994808,50.080598],[19.994985,50.080608],[19.995031,50.080251],[19.994853,50.080242],[19.994808,50.080598]]]}},{"type":"Feature","id":"w405736888","properties":{"type":"apartments","levels":7.0,"address":"Bolesława Orlińskiego 4","residential":true,"residents_est":57,"h3_10":"8a1e2e6a3017fff","h3_11":"8b1e2e6a3010fff"},"geometry":{"type":"Polygon","coordinates":[[[20.000172,50.080674],[20.000353,50.080633],[20.000463,50.080833],[20.00044,50.080838],[20.000548,50.081039],[20.000526,50.081045],[20.000635,50.081246],[20.000391,50.0813],[20.000172,50.080674]]]}},{"type":"Feature","id":"w405736889","properties":{"type":"apartments","levels":7.0,"address":"Osiedle Avia 4","residential":true,"residents_est":58,"h3_10":"8a1e2e6a30effff","h3_11":"8b1e2e6a30eefff"},"geometry":{"type":"Polygon","coordinates":[[[20.004607,50.079788],[20.004696,50.079727],[20.004847,50.079818],[20.004829,50.07983],[20.005003,50.080151],[20.005292,50.080086],[20.005444,50.080178],[20.004884,50.080298],[20.004607,50.079788]]]}},{"type":"Feature","id":"w426847532","properties":{"type":"apartments","levels":5.0,"address":"Osiedle 2 Pułku Lotniczego 28A","residential":true,"residents_est":11,"h3_10":"8a1e2e6a305ffff","h3_11":"8b1e2e6a305bfff"},"geometry":{"type":"Polygon","coordinates":[[[20.007014,50.080117],[20.007495,50.080062],[20.00751,50.080116],[20.007042,50.080222],[20.007014,50.080117]]]}},{"type":"Feature","id":"w426847533","properties":{"type":"apartments","address":"Osiedle 2 Pułku Lotniczego 29A","residential":true,"residents_est":6,"h3_10":"8a1e2e6a305ffff","h3_11":"8b1e2e6a305afff"},"geometry":{"type":"Polygon","coordinates":[[[20.006723,50.080207],[20.007028,50.080171],[20.007042,50.080222],[20.006747,50.080288],[20.006723,50.080207]]]}},{"type":"Feature","id":"r19420713","properties":{"type":"apartments","address":"Bolesława Orlińskiego 6","residential":true,"residents_est":86,"h3_10":"8a1e2e6a3017fff","h3_11":"8b1e2e6a3011fff"},"geometry":{"type":"MultiPolygon","coordinates":[[[[20.000845,50.080622],[20.00102,50.080581],[20.001254,50.081017],[20.001297,50.081007],[20.001292,50.080997],[20.001342,50.080985],[20.001335,50.080974],[20.001587,50.080918],[20.001595,50.080929],[20.001643,50.080918],[20.001649,50.080928],[20.001692,50.080918],[20.001459,50.080484],[20.001632,50.080446],[20.001913,50.080965],[20.001738,50.081004],[20.001706,50.080946],[20.001629,50.080965],[20.001639,50.080982],[20.001673,50.080973],[20.001686,50.080997],[20.001654,50.081004],[20.001662,50.081021],[20.001344,50.081092],[20.001312,50.081034],[20.001268,50.081044],[20.0013,50.081102],[20.001125,50.081141],[20.000845,50.080622]]],[[[20.001185,50.080435],[20.001463,50.080205],[20.001499,50.080197],[20.001613,50.08041],[20.001608,50.080405],[20.001437,50.080444],[20.00143,50.08043],[20.001248,50.080472],[20.001185,50.080435]]]]}},{"type":"Feature","id":"w435629237","properties":{"type":"apartments","levels":16.0,"address":"Osiedle Avia 2","residential":true,"residents_est":130,"h3_10":"8a1e2e6a3057fff","h3_11":"8b1e2e6a3053fff"},"geometry":{"type":"Polygon","coordinates":[[[20.004988,50.080493],[20.005175,50.080451],[20.005252,50.080595],[20.005352,50.080573],[20.005348,50.080567],[20.005355,50.080565],[20.005358,50.080571],[20.005388,50.080565],[20.005391,50.080571],[20.005538,50.080539],[20.005535,50.080532],[20.005565,50.080525],[20.005562,50.080519],[20.005572,50.080523],[20.005671,50.080501],[20.005631,50.080428],[20.005818,50.080387],[20.005918,50.080572],[20.005131,50.080747],[20.004988,50.080493]]]}},{"type":"Feature","id":"w435629492","properties":{"type":"apartments","levels":7.0,"address":"Bolesława Orlińskiego 8","residential":true,"residents_est":96,"h3_10":"8a1e2e6a301ffff","h3_11":"8b1e2e6a3019fff"},"geometry":{"type":"Polygon","coordinates":[[[20.002096,50.080341],[20.002273,50.080302],[20.002305,50.080361],[20.00231,50.08036],[20.002323,50.080382],[20.002318,50.080384],[20.002359,50.08046],[20.002364,50.080459],[20.002377,50.080482],[20.002371,50.080483],[20.002401,50.080539],[20.002407,50.080538],[20.002419,50.08056],[20.002414,50.080562],[20.002455,50.080639],[20.002461,50.080638],[20.002508,50.080737],[20.002549,50.080728],[20.002543,50.080717],[20.002594,50.080705],[20.002588,50.080693],[20.002838,50.080636],[20.002845,50.080649],[20.002897,50.080638],[20.002902,50.080648],[20.002944,50.080637],[20.00277,50.080313],[20.002733,50.080322],[20.002673,50.080212],[20.002848,50.080173],[20.002863,50.080199],[20.002902,50.08019],[20.003167,50.080684],[20.002992,50.080726],[20.002959,50.080666],[20.002884,50.080682],[20.002895,50.080703],[20.002928,50.080696],[20.002939,50.080717],[20.002907,50.080725],[20.002916,50.080743],[20.002625,50.080809],[20.002615,50.08079],[20.002589,50.080796],[20.002566,50.080754],[20.002346,50.080804],[20.002096,50.080341]]]}},{"type":"Feature","id":"r19420714","properties":{"type":"apartments","address":"Bolesława Orlińskiego 1","residential":true,"residents_est":75,"h3_10":"8a1e2e6a3037fff","h3_11":"8b1e2e6a3032fff"},"geometry":{"type":"MultiPolygon","coordinates":[[[[19.999621,50.081631],[19.999631,50.081483],[19.999837,50.081491],[19.99984,50.081473],[19.999847,50.081474],[19.99984,50.08155],[19.999817,50.081549],[19.999815,50.081574],[19.999838,50.081575],[19.999837,50.081662],[19.999857,50.08174],[20.000226,50.081657],[20.000306,50.081804],[20.000224,50.081823],[20.000236,50.081845],[19.999739,50.081957],[19.999662,50.081807],[19.999638,50.081741],[19.999621,50.081631]]],[[[20.000293,50.081643],[20.000667,50.081559],[20.000659,50.081542],[20.000841,50.081506],[20.000839,50.081501],[20.000846,50.0815],[20.000888,50.081578],[20.000867,50.081583],[20.000871,50.081591],[20.000877,50.0816],[20.000896,50.081595],[20.000905,50.081609],[20.000884,50.081614],[20.000893,50.081629],[20.000912,50.081624],[20.000917,50.081631],[20.000737,50.081671],[20.000767,50.081726],[20.000466,50.081794],[20.000453,50.081772],[20.000372,50.081789],[20.000293,50.081643]]]]}},{"type":"Feature","id":"w435633014","properties":{"type":"apartments","levels":8.0,"address":"Osiedle Avia 5","residential":true,"residents_est":55,"h3_10":"8a1e2e6a30c7fff","h3_11":"8b1e2e6a30c6fff"},"geometry":{"type":"Polygon","coordinates":[[[20.002963,50.079339],[20.003053,50.07926],[20.003065,50.079265],[20.003309,50.079055],[20.003298,50.079049],[20.003383,50.078976],[20.003411,50.078992],[20.003433,50.078978],[20.003429,50.078974],[20.003438,50.078973],[20.00375,50.079161],[20.003769,50.079196],[20.003788,50.079191],[20.003808,50.079227],[20.003798,50.079225],[20.003611,50.079271],[20.003589,50.079229],[20.003528,50.079193],[20.003546,50.07918],[20.003483,50.079142],[20.003465,50.079155],[20.003439,50.079139],[20.003428,50.07914],[20.003299,50.079251],[20.003277,50.07924],[20.003245,50.079267],[20.003199,50.079307],[20.003221,50.079318],[20.003164,50.079367],[20.003015,50.0794],[20.003014,50.079396],[20.003055,50.079386],[20.003049,50.079375],[20.002972,50.079338],[20.002963,50.079339]]]}},{"type":"Feature","id":"w458253305","properties":{"type":"apartments","levels":7.0,"address":"Osiedle Avia 3","residential":true,"residents_est":101,"h3_10":"8a1e2e6a30e7fff","h3_11":"8b1e2e6a30e0fff"},"geometry":{"type":"Polygon","coordinates":[[[20.003366,50.08007],[20.003542,50.080031],[20.003747,50.080438],[20.004192,50.08034],[20.004025,50.080028],[20.003993,50.080036],[20.003935,50.079935],[20.004147,50.079885],[20.004422,50.080401],[20.003632,50.080579],[20.003366,50.08007]]]}},{"type":"Feature","id":"w458253306","properties":{"type":"apartments","levels":16.0,"address":"Osiedle Avia 1","residential":true,"residents_est":114,"h3_10":"8a1e2e6a300ffff","h3_11":"8b1e2e6a300bfff"},"geometry":{"type":"Polygon","coordinates":[[[20.003735,50.080773],[20.003744,50.080776],[20.00388,50.080746],[20.003917,50.080737],[20.003921,50.080731],[20.004006,50.080888],[20.004097,50.080868],[20.00409,50.080855],[20.004102,50.080845],[20.004105,50.080852],[20.004312,50.080805],[20.004309,50.080799],[20.004319,50.080804],[20.004418,50.080782],[20.004378,50.080708],[20.004563,50.080667],[20.004606,50.080743],[20.004586,50.080748],[20.004612,50.080795],[20.004631,50.080791],[20.004635,50.080797],[20.004448,50.080839],[20.004478,50.080894],[20.004185,50.08096],[20.004172,50.080937],[20.004088,50.080956],[20.004079,50.080939],[20.004052,50.080945],[20.004073,50.080984],[20.003874,50.081029],[20.003841,50.080968],[20.00386,50.080964],[20.003835,50.080916],[20.003815,50.080921],[20.003735,50.080773]]]}},{"type":"Feature","id":"r19420715","properties":{"type":"apartments","address":"Bolesława Orlińskiego 10","residential":true,"residents_est":67,"h3_10":"8a1e2e6a30f7fff","h3_11":"8b1e2e6a30f4fff"},"geometry":{"type":"MultiPolygon","coordinates":[[[[20.001847,50.079881],[20.001984,50.079767],[20.00211,50.080001],[20.002547,50.079903],[20.002545,50.079898],[20.002568,50.079897],[20.002557,50.079875],[20.002535,50.07988],[20.002426,50.079678],[20.002433,50.079677],[20.002439,50.079688],[20.002499,50.079675],[20.002494,50.079667],[20.002603,50.079639],[20.002659,50.079743],[20.002637,50.079748],[20.002645,50.079762],[20.002667,50.079757],[20.002712,50.079841],[20.00269,50.079846],[20.002693,50.079852],[20.002697,50.079859],[20.002719,50.079854],[20.002783,50.079972],[20.002104,50.080124],[20.002102,50.08012],[20.002114,50.080118],[20.002107,50.080104],[20.002074,50.080112],[20.002084,50.080129],[20.001966,50.080155],[20.001948,50.08012],[20.001974,50.080116],[20.001876,50.079933],[20.001911,50.079925],[20.001902,50.079908],[20.001847,50.079881]]],[[[20.002152,50.079625],[20.002428,50.079394],[20.002466,50.079385],[20.002582,50.0796],[20.002573,50.079597],[20.002403,50.079635],[20.002385,50.079603],[20.002353,50.07961],[20.002363,50.079628],[20.002214,50.079662],[20.002209,50.079653],[20.002152,50.079625]]]]}},{"type":"Feature","id":"w458253309","properties":{"type":"apartments","levels":16.0,"address":"Bolesława Orlińskiego 3","residential":true,"residents_est":140,"h3_10":"8a1e2e6a3007fff","h3_11":"8b1e2e6a3002fff"},"geometry":{"type":"Polygon","coordinates":[[[20.001228,50.081334],[20.001237,50.081337],[20.00141,50.081299],[20.001408,50.081294],[20.001414,50.081293],[20.001461,50.08138],[20.00188,50.081286],[20.001871,50.081269],[20.00188,50.081272],[20.002053,50.081234],[20.002051,50.081229],[20.002057,50.081228],[20.002099,50.081305],[20.002079,50.081309],[20.002086,50.081322],[20.002105,50.081356],[20.002124,50.081352],[20.002157,50.081413],[20.001677,50.081521],[20.001665,50.081498],[20.001534,50.081528],[20.001516,50.081495],[20.001337,50.081536],[20.001333,50.081529],[20.001353,50.081525],[20.001327,50.081477],[20.001308,50.081482],[20.001228,50.081334]]]}},{"type":"Feature","id":"w458253310","properties":{"type":"apartments","levels":16.0,"address":"Bolesława Orlińskiego 5","residential":true,"residents_est":140,"h3_10":"8a1e2e6a300ffff","h3_11":"8b1e2e6a300efff"},"geometry":{"type":"Polygon","coordinates":[[[20.002482,50.081054],[20.002491,50.081057],[20.002664,50.081018],[20.002661,50.081014],[20.002668,50.081012],[20.002715,50.0811],[20.003134,50.081006],[20.003125,50.080989],[20.003134,50.080992],[20.003307,50.080953],[20.003304,50.080949],[20.003311,50.080947],[20.003352,50.081024],[20.003333,50.081029],[20.003358,50.081076],[20.003378,50.081071],[20.003411,50.081133],[20.002931,50.08124],[20.002919,50.081218],[20.002787,50.081247],[20.00277,50.081215],[20.002591,50.081255],[20.002587,50.081249],[20.002607,50.081244],[20.002586,50.081205],[20.002581,50.081197],[20.002561,50.081201],[20.002482,50.081054]]]}},{"type":"Feature","id":"w458642595","properties":{"type":"apartments","levels":8.0,"address":"Bolesława Orlińskiego 12","residential":true,"residents_est":55,"h3_10":"8a1e2e6a30f7fff","h3_11":"8b1e2e6a30f2fff"},"geometry":{"type":"Polygon","coordinates":[[[20.001871,50.07867],[20.001974,50.078597],[20.002115,50.078682],[20.002126,50.078674],[20.002119,50.07867],[20.002124,50.078667],[20.002198,50.078715],[20.002234,50.078782],[20.002207,50.078785],[20.002226,50.078819],[20.00225,50.07881],[20.002374,50.079039],[20.002401,50.079042],[20.002375,50.079042],[20.002386,50.079062],[20.002408,50.079057],[20.002418,50.079076],[20.002393,50.079149],[20.002337,50.079162],[20.002135,50.079057],[20.001959,50.078724],[20.001871,50.07867]]]}},{"type":"Feature","id":"w458642596","properties":{"type":"apartments","levels":7.0,"address":"Osiedle Avia 7","residential":true,"residents_est":62,"h3_10":"8a1e2e6a30effff","h3_11":"8b1e2e6a30eafff"},"geometry":{"type":"Polygon","coordinates":[[[20.004595,50.079297],[20.004614,50.079293],[20.004601,50.079268],[20.004769,50.079231],[20.004782,50.079255],[20.004801,50.079251],[20.004826,50.079297],[20.004805,50.079302],[20.004835,50.079357],[20.00486,50.079352],[20.004876,50.079381],[20.004956,50.079363],[20.004949,50.079349],[20.005011,50.079335],[20.005018,50.079349],[20.005076,50.079336],[20.005069,50.079322],[20.005133,50.079308],[20.00514,50.079322],[20.005256,50.079296],[20.00521,50.079211],[20.005185,50.079217],[20.005164,50.079169],[20.005183,50.079165],[20.00517,50.079141],[20.005338,50.079103],[20.005351,50.079127],[20.00537,50.079123],[20.005456,50.079281],[20.00544,50.079285],[20.005449,50.079301],[20.00547,50.079296],[20.005473,50.0793],[20.005451,50.079305],[20.005482,50.079363],[20.005504,50.079358],[20.005506,50.079362],[20.005352,50.079397],[20.005344,50.079383],[20.005192,50.079417],[20.005203,50.079437],[20.005105,50.079459],[20.005094,50.079439],[20.005073,50.079444],[20.00508,50.079458],[20.004725,50.079537],[20.004723,50.079533],[20.004734,50.079531],[20.00472,50.079506],[20.004746,50.0795],[20.004719,50.07945],[20.004683,50.079458],[20.00468,50.079454],[20.00473,50.079443],[20.004718,50.079421],[20.004667,50.079432],[20.004665,50.079428],[20.004685,50.079424],[20.004638,50.079337],[20.004619,50.079341],[20.004595,50.079297]]]}},{"type":"Feature","id":"w458642597","properties":{"type":"apartments","levels":7.0,"address":"Osiedle Avia 8","residential":true,"residents_est":38,"h3_10":"8a1e2e6a30effff","h3_11":"8b1e2e6a30e8fff"},"geometry":{"type":"Polygon","coordinates":[[[20.005451,50.079937],[20.00551,50.079923],[20.005484,50.079876],[20.005491,50.079875],[20.005498,50.079888],[20.005539,50.079879],[20.005532,50.079865],[20.0056,50.07985],[20.005597,50.079845],[20.005617,50.079841],[20.00557,50.079753],[20.00555,50.079758],[20.005481,50.079631],[20.005502,50.079627],[20.005486,50.079596],[20.005645,50.07956],[20.005662,50.079591],[20.005683,50.079586],[20.005793,50.079789],[20.005772,50.079794],[20.005781,50.07981],[20.005804,50.079804],[20.005806,50.079808],[20.005783,50.079814],[20.005807,50.079858],[20.005822,50.079855],[20.005838,50.079884],[20.005846,50.079882],[20.005848,50.079886],[20.005823,50.079892],[20.00584,50.079924],[20.005866,50.079918],[20.005868,50.079922],[20.005663,50.079968],[20.005657,50.079957],[20.005628,50.079963],[20.005634,50.079974],[20.005489,50.080007],[20.005486,50.080003],[20.00551,50.079998],[20.005477,50.079935],[20.005453,50.079941],[20.005451,50.079937]]]}},{"type":"Feature","id":"w462106293","properties":{"type":"yes","levels":1.0,"address":"Osiedle 2 Pułku Lotniczego 19A","name":"Piekarnia Domino","residential":false,"residents_est":0,"h3_10":"8a1e2e6a30cffff","h3_11":"8b1e2e6a30cbfff"},"geometry":{"type":"Polygon","coordinates":[[[20.00629,50.078313],[20.006317,50.078296],[20.006309,50.078292],[20.006326,50.07828],[20.006334,50.078285],[20.006354,50.078271],[20.006411,50.078306],[20.006346,50.078346],[20.00629,50.078313]]]}},{"type":"Feature","id":"w487702819","properties":{"type":"apartments","levels":8.0,"address":"Bolesława Orlińskiego 9A","residential":true,"residents_est":32,"h3_10":"8a1e2e6a3077fff","h3_11":"8b1e2e6a3072fff"},"geometry":{"type":"Polygon","coordinates":[[[20.004165,50.081569],[20.004185,50.081564],[20.004193,50.081579],[20.004276,50.08156],[20.00427,50.081548],[20.004276,50.081547],[20.004282,50.081559],[20.004317,50.081551],[20.004319,50.081555],[20.004312,50.081557],[20.004319,50.081569],[20.004351,50.081561],[20.004342,50.081546],[20.004377,50.081538],[20.00437,50.081526],[20.004376,50.081524],[20.004383,50.081537],[20.004577,50.081493],[20.004571,50.081481],[20.004576,50.081479],[20.004583,50.081492],[20.004617,50.081484],[20.004626,50.0815],[20.004658,50.081493],[20.004652,50.081481],[20.004643,50.081478],[20.004677,50.081471],[20.004671,50.081458],[20.004677,50.081457],[20.004683,50.081469],[20.004787,50.081446],[20.004814,50.081497],[20.004842,50.081491],[20.004844,50.081495],[20.004816,50.081501],[20.00484,50.081546],[20.004868,50.081539],[20.00487,50.081543],[20.004229,50.081687],[20.004165,50.081569]]]}},{"type":"Feature","id":"w487702820","properties":{"type":"apartments","levels":8.0,"address":"Bolesława Orlińskiego 9B","residential":true,"residents_est":38,"h3_10":"8a1e2e6a3077fff","h3_11":"8b1e2e6a3073fff"},"geometry":{"type":"Polygon","coordinates":[[[20.004925,50.081415],[20.005165,50.081362],[20.005272,50.081561],[20.005265,50.081562],[20.00527,50.081572],[20.005315,50.081573],[20.005316,50.081564],[20.005456,50.081567],[20.005455,50.081587],[20.005478,50.081588],[20.005479,50.081567],[20.005541,50.081569],[20.005535,50.081678],[20.005287,50.081672],[20.005288,50.081661],[20.005222,50.081659],[20.005221,50.081671],[20.005151,50.081669],[20.005104,50.081582],[20.005125,50.081577],[20.005122,50.08157],[20.005116,50.08156],[20.005095,50.081565],[20.005054,50.08149],[20.005036,50.081494],[20.005042,50.081505],[20.004993,50.081516],[20.004972,50.081477],[20.00496,50.08148],[20.004925,50.081415]]]}},{"type":"Feature","id":"w487702821","properties":{"type":"apartments","levels":8.0,"address":"Bolesława Orlińskiego 9D","residential":true,"residents_est":46,"h3_10":"8a1e2e6a3057fff","h3_11":"8b1e2e6a3055fff"},"geometry":{"type":"Polygon","coordinates":[[[20.005427,50.081303],[20.00553,50.08128],[20.005523,50.081268],[20.005529,50.081266],[20.005536,50.081279],[20.005571,50.081271],[20.005579,50.081286],[20.005611,50.081279],[20.005605,50.081267],[20.005596,50.081265],[20.005631,50.081257],[20.005624,50.081245],[20.00563,50.081244],[20.005637,50.081256],[20.005788,50.081222],[20.005796,50.081238],[20.005819,50.081233],[20.005911,50.081235],[20.00591,50.081249],[20.005937,50.08125],[20.005935,50.08128],[20.005968,50.081281],[20.005971,50.081223],[20.005995,50.081224],[20.005996,50.081203],[20.005972,50.081202],[20.005974,50.081168],[20.005988,50.081168],[20.005989,50.081146],[20.006015,50.08114],[20.006001,50.081114],[20.006166,50.081077],[20.006179,50.081106],[20.006186,50.081106],[20.006181,50.081212],[20.006163,50.081212],[20.006162,50.081227],[20.00618,50.081228],[20.006178,50.081268],[20.006161,50.081267],[20.006159,50.081283],[20.006177,50.081284],[20.006175,50.081322],[20.006154,50.081321],[20.006153,50.081337],[20.006174,50.081338],[20.006173,50.081342],[20.005822,50.081334],[20.005824,50.081325],[20.005804,50.081324],[20.005788,50.081328],[20.005793,50.081336],[20.005587,50.081382],[20.005583,50.081374],[20.005557,50.08138],[20.005561,50.081388],[20.005483,50.081406],[20.005427,50.081303]]]}},{"type":"Feature","id":"w487702822","properties":{"type":"apartments","levels":8.0,"address":"Bolesława Orlińskiego 9C","residential":true,"residents_est":32,"h3_10":"8a1e2e6a3047fff","h3_11":"8b1e2e6a3046fff"},"geometry":{"type":"Polygon","coordinates":[[[20.005647,50.08168],[20.005649,50.081661],[20.005664,50.081661],[20.005665,50.081646],[20.005649,50.081645],[20.005653,50.081571],[20.005762,50.081574],[20.005763,50.081561],[20.005769,50.081561],[20.005768,50.081574],[20.005806,50.081575],[20.005798,50.081578],[20.005797,50.081591],[20.005831,50.081592],[20.005833,50.081575],[20.005868,50.081576],[20.005869,50.081563],[20.005876,50.081563],[20.005875,50.081576],[20.006081,50.081581],[20.006082,50.081568],[20.006088,50.081568],[20.006087,50.081581],[20.006123,50.081582],[20.006122,50.081598],[20.006156,50.081599],[20.006157,50.081586],[20.006151,50.081582],[20.006187,50.081583],[20.006188,50.08157],[20.006194,50.08157],[20.006193,50.081583],[20.006283,50.081585],[20.006284,50.08157],[20.006306,50.08157],[20.0063,50.081695],[20.005647,50.08168]]]}},{"type":"Feature","id":"w621223050","properties":{"type":"kindergarten","levels":3.0,"address":"Osiedle Avia 9","name":"Publiczne Przedszkole Pod Magnolią","residential":false,"residents_est":0,"h3_10":"8a1e2e6a30effff","h3_11":"8b1e2e6a30edfff"},"geometry":{"type":"Polygon","coordinates":[[[20.005851,50.080216],[20.005864,50.080189],[20.005888,50.080166],[20.005921,50.080148],[20.006005,50.080135],[20.006047,50.080141],[20.006085,50.080155],[20.006128,50.080192],[20.006139,50.08023],[20.006126,50.080267],[20.006092,50.080297],[20.00604,50.080316],[20.005982,50.08032],[20.005925,50.080309],[20.005891,50.080292],[20.005866,50.08027],[20.005852,50.080243],[20.005851,50.080216]]]}},{"type":"Feature","id":"w705917331","properties":{"type":"service","residential":false,"residents_est":0,"h3_10":"8a1e2e6a30f7fff","h3_11":"8b1e2e6a30f3fff"},"geometry":{"type":"Polygon","coordinates":[[[20.002821,50.07916],[20.002861,50.079151],[20.00289,50.079203],[20.00285,50.079212],[20.002821,50.07916]]]}},{"type":"Feature","id":"w705917334","properties":{"type":"retail","residential":false,"residents_est":0,"h3_10":"8a1e2e6a311ffff","h3_11":"8b1e2e6a3118fff"},"geometry":{"type":"Polygon","coordinates":[[[19.999911,50.083197],[19.999927,50.083176],[19.999965,50.083173],[19.999988,50.083194],[19.99997,50.083216],[19.999952,50.083217],[19.999939,50.083208],[19.999921,50.083208],[19.999911,50.083197]]]}},{"type":"Feature","id":"w705917339","properties":{"type":"yes","residential":false,"residents_est":0,"h3_10":"8a1e2e6a310ffff","h3_11":"8b1e2e6a3108fff"},"geometry":{"type":"Polygon","coordinates":[[[20.001437,50.083999],[20.001439,50.083982],[20.001468,50.083983],[20.00147,50.083964],[20.001511,50.083966],[20.001507,50.084002],[20.001437,50.083999]]]}},{"type":"Feature","id":"w705917340","properties":{"type":"yes","name":"Awiteks","residential":false,"residents_est":0,"h3_10":"8a1e2e6a310ffff","h3_11":"8b1e2e6a310dfff"},"geometry":{"type":"Polygon","coordinates":[[[20.001539,50.084317],[20.001589,50.084316],[20.00159,50.084361],[20.001541,50.084362],[20.001539,50.084317]]]}},{"type":"Feature","id":"w705917342","properties":{"type":"service","residential":false,"residents_est":0,"h3_10":"8a1e2e6a302ffff","h3_11":"8b1e2e6a3028fff"},"geometry":{"type":"Polygon","coordinates":[[[20.003156,50.082197],[20.003248,50.082176],[20.003294,50.082263],[20.00325,50.082274],[20.003237,50.082251],[20.003192,50.082262],[20.003156,50.082197]]]}},{"type":"Feature","id":"w705917343","properties":{"type":"yes","residential":true,"residents_est":3,"h3_10":"8a1e2e6a302ffff","h3_11":"8b1e2e6a3028fff"},"geometry":{"type":"Polygon","coordinates":[[[20.003145,50.082421],[20.003183,50.082413],[20.003172,50.082392],[20.003193,50.082387],[20.003204,50.082408],[20.003322,50.082383],[20.003381,50.082489],[20.003256,50.082516],[20.003217,50.082445],[20.003162,50.082456],[20.003145,50.082421]]]}},{"type":"Feature","id":"w705917402","properties":{"type":"yes","residential":true,"residents_est":0,"h3_10":"8a1e2e6a30d7fff","h3_11":"8b1e2e6a30d2fff"},"geometry":{"type":"Polygon","coordinates":[[[20.002434,50.077918],[20.002484,50.077875],[20.002478,50.077872],[20.002488,50.077864],[20.002569,50.077902],[20.002506,50.077954],[20.002434,50.077918]]]}},{"type":"Feature","id":"w705917404","properties":{"type":"yes","residential":true,"residents_est":4,"h3_10":"8a1e2e6a30d7fff","h3_11":"8b1e2e6a30d2fff"},"geometry":{"type":"Polygon","coordinates":[[[20.002616,50.078131],[20.002829,50.077953],[20.002951,50.078013],[20.002742,50.078191],[20.002616,50.078131]]]}},{"type":"Feature","id":"w705917405","properties":{"type":"service","residential":false,"residents_est":0,"h3_10":"8a1e2e6a3057fff","h3_11":"8b1e2e6a3052fff"},"geometry":{"type":"Polygon","coordinates":[[[20.004713,50.08055],[20.004797,50.080531],[20.004809,50.080554],[20.004726,50.080573],[20.004713,50.08055]]]}},{"type":"Feature","id":"w705917406","properties":{"type":"service","residential":false,"residents_est":0,"h3_10":"8a1e2e6a3007fff","h3_11":"8b1e2e6a3003fff"},"geometry":{"type":"Polygon","coordinates":[[[20.002212,50.081115],[20.002293,50.081097],[20.002305,50.081119],[20.002224,50.081137],[20.002212,50.081115]]]}},{"type":"Feature","id":"w705917407","properties":{"type":"service","residential":false,"residents_est":0,"h3_10":"8a1e2e6a3017fff","h3_11":"8b1e2e6a3015fff"},"geometry":{"type":"Polygon","coordinates":[[[20.000955,50.081396],[20.001038,50.081377],[20.001053,50.081404],[20.000969,50.081422],[20.000955,50.081396]]]}},{"type":"Feature","id":"w705917408","properties":{"type":"service","residential":false,"residents_est":0,"h3_10":"8a1e2e6a301ffff","h3_11":"8b1e2e6a301afff"},"geometry":{"type":"Polygon","coordinates":[[[20.001666,50.080113],[20.001747,50.080094],[20.001761,50.080119],[20.00168,50.080138],[20.001666,50.080113]]]}},{"type":"Feature","id":"w705917421","properties":{"type":"retail","residential":false,"residents_est":0,"h3_10":"8a1e2e6a3147fff","h3_11":"8b1e2e6a3146fff"},"geometry":{"type":"Polygon","coordinates":[[[20.003664,50.084195],[20.003745,50.084184],[20.003761,50.084231],[20.003679,50.084242],[20.003664,50.084195]]]}},{"type":"Feature","id":"w840704156","properties":{"type":"yes","residential":false,"residents_est":0,"h3_10":"8a1e2e6a300ffff","h3_11":"8b1e2e6a300dfff"},"geometry":{"type":"Polygon","coordinates":[[[20.003694,50.081777],[20.003744,50.081767],[20.003764,50.081805],[20.003714,50.081815],[20.003694,50.081777]]]}},{"type":"Feature","id":"w840704166","properties":{"type":"service","residential":false,"residents_est":0,"h3_10":"8a1e2e6a314ffff","h3_11":"8b1e2e6a314efff"},"geometry":{"type":"Polygon","coordinates":[[[20.005631,50.083884],[20.005696,50.083871],[20.005718,50.083914],[20.005652,50.083927],[20.005631,50.083884]]]}},{"type":"Feature","id":"w992215260","properties":{"type":"apartments","levels":8.0,"address":"Osiedle Avia 5","residential":true,"residents_est":88,"h3_10":"8a1e2e6a30e7fff","h3_11":"8b1e2e6a30e2fff"},"geometry":{"type":"Polygon","coordinates":[[[20.003031,50.079473],[20.003209,50.079434],[20.003356,50.079707],[20.003337,50.079711],[20.003344,50.079724],[20.003823,50.079617],[20.003811,50.079596],[20.003789,50.079601],[20.00369,50.079418],[20.003867,50.07938],[20.004038,50.079692],[20.003246,50.079869],[20.003185,50.079757],[20.003216,50.07975],[20.003209,50.079738],[20.003177,50.079745],[20.003031,50.079473]]]}},{"type":"Feature","id":"w995547855","properties":{"type":"apartments","levels":8.0,"address":"Bolesława Orlińskiego 7A","residential":true,"residents_est":38,"h3_10":"8a1e2e6a311ffff","h3_11":"8b1e2e6a311bfff"},"geometry":{"type":"Polygon","coordinates":[[[19.999639,50.082575],[20.000276,50.082432],[20.000339,50.082547],[20.000127,50.082595],[20.000122,50.082586],[20.000101,50.082591],[20.000106,50.0826],[19.999848,50.082658],[19.999843,50.082648],[19.999822,50.082653],[19.999828,50.082663],[19.999702,50.082691],[19.999639,50.082575]]]}},{"type":"Feature","id":"w995547856","properties":{"type":"apartments","levels":8.0,"address":"Bolesława Orlińskiego 7B","residential":true,"residents_est":33,"h3_10":"8a1e2e6a3037fff","h3_11":"8b1e2e6a3035fff"},"geometry":{"type":"Polygon","coordinates":[[[20.000421,50.082397],[20.000427,50.082395],[20.000436,50.082411],[20.000532,50.082389],[20.000523,50.082374],[20.000529,50.082373],[20.000538,50.082388],[20.000574,50.082379],[20.000579,50.082387],[20.000599,50.082382],[20.000595,50.082374],[20.000632,50.082366],[20.000624,50.082351],[20.000631,50.08235],[20.000639,50.082365],[20.000733,50.082344],[20.000725,50.082329],[20.000731,50.082327],[20.000739,50.082342],[20.000833,50.082321],[20.000825,50.082306],[20.000832,50.082305],[20.00084,50.082319],[20.000877,50.082311],[20.000881,50.082319],[20.000901,50.082314],[20.000897,50.082307],[20.000933,50.082299],[20.000925,50.082284],[20.000933,50.082282],[20.000941,50.082297],[20.001043,50.082274],[20.001071,50.082325],[20.001098,50.082319],[20.001127,50.082372],[20.000485,50.082515],[20.000421,50.082397]]]}},{"type":"Feature","id":"w1211593032","properties":{"type":"service","residential":false,"residents_est":0,"h3_10":"8a1e2e6a30e7fff","h3_11":"8b1e2e6a30e3fff"},"geometry":{"type":"Polygon","coordinates":[[[20.004343,50.079623],[20.00443,50.079602],[20.004447,50.079631],[20.00436,50.079652],[20.004343,50.079623]]]}},{"type":"Feature","id":"w1453993452","properties":{"type":"yes","address":"Bronisława Włodarczyka 11","name":"Przystanek smaków","residential":false,"residents_est":0,"h3_10":"8a1e2e6a312ffff","h3_11":"8b1e2e6a312afff"},"geometry":{"type":"Polygon","coordinates":[[[20.000619,50.084584],[20.000666,50.084566],[20.000719,50.08462],[20.000661,50.084643],[20.000619,50.084601],[20.000619,50.084584]]]}},{"type":"Feature","id":"w1468506259","properties":{"type":"roof","residential":false,"residents_est":0,"h3_10":"8a1e2e6a301ffff","h3_11":"8b1e2e6a301dfff"},"geometry":{"type":"Polygon","coordinates":[[[20.002809,50.081005],[20.002971,50.080968],[20.002986,50.080995],[20.002823,50.081031],[20.002809,50.081005]]]}},{"type":"Feature","id":"w1468506260","properties":{"type":"roof","residential":false,"residents_est":0,"h3_10":"8a1e2e6a30e7fff","h3_11":"8b1e2e6a30e5fff"},"geometry":{"type":"Polygon","coordinates":[[[20.004174,50.080726],[20.004238,50.080712],[20.004261,50.080756],[20.004198,50.08077],[20.004174,50.080726]]]}},{"type":"Feature","id":"w1468506261","properties":{"type":"roof","residential":false,"residents_est":0,"h3_10":"8a1e2e6a300ffff","h3_11":"8b1e2e6a300bfff"},"geometry":{"type":"Polygon","coordinates":[[[20.004075,50.080748],[20.004138,50.080735],[20.00416,50.080779],[20.004098,50.080792],[20.004075,50.080748]]]}},{"type":"Feature","id":"w1468506262","properties":{"type":"roof","residential":false,"residents_est":0,"h3_10":"8a1e2e6a3057fff","h3_11":"8b1e2e6a3053fff"},"geometry":{"type":"Polygon","coordinates":[[[20.005426,50.080448],[20.005491,50.080434],[20.005514,50.080477],[20.00545,50.080491],[20.005426,50.080448]]]}},{"type":"Feature","id":"w1468506263","properties":{"type":"roof","residential":false,"residents_est":0,"h3_10":"8a1e2e6a3057fff","h3_11":"8b1e2e6a3052fff"},"geometry":{"type":"Polygon","coordinates":[[[20.005329,50.080469],[20.005391,50.080455],[20.005414,50.080498],[20.005352,50.080512],[20.005329,50.080469]]]}},{"type":"Feature","id":"w1468506276","properties":{"type":"roof","residential":false,"residents_est":0,"h3_10":"8a1e2e6a3007fff","h3_11":"8b1e2e6a3002fff"},"geometry":{"type":"Polygon","coordinates":[[[20.001554,50.081286],[20.001718,50.081249],[20.001733,50.081275],[20.001568,50.081312],[20.001554,50.081286]]]}},{"type":"Feature","id":"w1468506290","properties":{"type":"roof","residential":false,"residents_est":0,"h3_10":"8a1e2e6a3037fff","h3_11":"8b1e2e6a3033fff"},"geometry":{"type":"Polygon","coordinates":[[[20.000357,50.081556],[20.000495,50.081525],[20.000506,50.081547],[20.000368,50.081577],[20.000357,50.081556]]]}},{"type":"Feature","id":"w1468506291","properties":{"type":"roof","residential":false,"residents_est":0,"h3_10":"8a1e2e6a3037fff","h3_11":"8b1e2e6a3032fff"},"geometry":{"type":"Polygon","coordinates":[[[19.999956,50.081647],[20.000095,50.081616],[20.000106,50.081636],[19.999968,50.081668],[19.999956,50.081647]]]}},{"type":"Feature","id":"w1478523305","properties":{"type":"roof","residential":false,"residents_est":0,"h3_10":"8a1e2e6a3027fff","h3_11":"8b1e2e6a3020fff"},"geometry":{"type":"Polygon","coordinates":[[[20.001465,50.082937],[20.001466,50.082904],[20.001525,50.082906],[20.001523,50.082939],[20.001465,50.082937]]]}},{"type":"Feature","id":"w1478523318","properties":{"type":"roof","residential":false,"residents_est":0,"h3_10":"8a1e2e6a3027fff","h3_11":"8b1e2e6a3025fff"},"geometry":{"type":"Polygon","coordinates":[[[20.001908,50.083111],[20.001912,50.08307],[20.00196,50.083072],[20.001956,50.083112],[20.001908,50.083111]]]}},{"type":"Feature","id":"w1479026458","properties":{"type":"roof","residential":false,"residents_est":0,"h3_10":"8a1e2e6a316ffff","h3_11":"8b1e2e6a316afff"},"geometry":{"type":"Polygon","coordinates":[[[20.005295,50.084747],[20.0053,50.084704],[20.005365,50.084706],[20.00536,50.08475],[20.005295,50.084747]]]}},{"type":"Feature","id":"w1481320162","properties":{"type":"yes","residential":false,"residents_est":0,"h3_10":"8a1e2e6a30c7fff","h3_11":"8b1e2e6a30c6fff"},"geometry":{"type":"Polygon","coordinates":[[[20.003805,50.078957],[20.003849,50.078927],[20.003897,50.078956],[20.003854,50.078986],[20.003805,50.078957]]]}},{"type":"Feature","id":"w1499884514","properties":{"type":"school","address":"Osiedle Dywizjonu 303 66","residential":false,"residents_est":0,"h3_10":"8a1e2e6a3067fff","h3_11":"8b1e2e6a3064fff"},"geometry":{"type":"Polygon","coordinates":[[[20.005416,50.083488],[20.005898,50.083383],[20.005977,50.083532],[20.006056,50.083511],[20.005944,50.083302],[20.00578,50.083339],[20.005557,50.082929],[20.005956,50.08284],[20.006179,50.083249],[20.006146,50.083257],[20.006258,50.083462],[20.006458,50.083414],[20.006307,50.083139],[20.006551,50.083083],[20.006705,50.083363],[20.007033,50.08329],[20.006882,50.083008],[20.007123,50.082954],[20.007415,50.083488],[20.007415,50.083503],[20.007171,50.083559],[20.007064,50.083347],[20.006734,50.083417],[20.006843,50.083633],[20.006604,50.083686],[20.006493,50.083478],[20.006166,50.083551],[20.00629,50.083782],[20.006048,50.083838],[20.005922,50.083605],[20.005526,50.083693],[20.005416,50.083488]]]}}]}