{"type":"FeatureCollection","features":[{"type":"Feature","id":"w337625745","properties":{"type":"yes","residential":true,"residents_est":4,"h3_10":"8a1e05a65d97fff","h3_11":"8b1e05a65d95fff"},"geometry":{"type":"Polygon","coordinates":[[[19.859832,49.993283],[19.859853,49.993242],[19.860096,49.993293],[19.860051,49.993385],[19.859978,49.993369],[19.859988,49.993352],[19.859935,49.99334],[19.85995,49.993308],[19.859832,49.993283]]]}},{"type":"Feature","id":"w337625779","properties":{"type":"yes","residential":true,"residents_est":4,"h3_10":"8a1e05a65d97fff","h3_11":"8b1e05a65d94fff"},"geometry":{"type":"Polygon","coordinates":[[[19.859405,49.993421],[19.859428,49.99337],[19.859469,49.993378],[19.859501,49.993308],[19.859528,49.993313],[19.859554,49.993257],[19.859623,49.99327],[19.859568,49.993389],[19.859586,49.993393],[19.859564,49.99344],[19.859499,49.993428],[19.859483,49.993458],[19.859436,49.993448],[19.859445,49.993429],[19.859405,49.993421]]]}},{"type":"Feature","id":"w337625815","properties":{"type":"yes","residential":true,"residents_est":1,"h3_10":"8a1e05a65d97fff","h3_11":"8b1e05a65d95fff"},"geometry":{"type":"Polygon","coordinates":[[[19.860173,49.99334],[19.860187,49.993306],[19.860358,49.993334],[19.860345,49.993369],[19.860173,49.99334]]]}},{"type":"Feature","id":"w337625874","properties":{"type":"yes","residential":true,"residents_est":3,"h3_10":"8a1e05a65d97fff","h3_11":"8b1e05a65d95fff"},"geometry":{"type":"Polygon","coordinates":[[[19.859913,49.993552],[19.859943,49.993484],[19.860093,49.99351],[19.860061,49.993579],[19.859913,49.993552]]]}},{"type":"Feature","id":"w337625888","properties":{"type":"yes","residential":false,"residents_est":0,"h3_10":"8a1e05a65db7fff","h3_11":"8b1e05a65db0fff"},"geometry":{"type":"Polygon","coordinates":[[[19.859008,49.993911],[19.859047,49.993876],[19.859126,49.993914],[19.859087,49.993949],[19.859008,49.993911]]]}},{"type":"Feature","id":"w337625925","properties":{"type":"yes","residential":true,"residents_est":4,"h3_10":"8a1e05a65db7fff","h3_11":"8b1e05a65db6fff"},"geometry":{"type":"Polygon","coordinates":[[[19.858396,49.994044],[19.858457,49.993973],[19.85867,49.994048],[19.858609,49.994119],[19.858396,49.994044]]]}},{"type":"Feature","id":"w337625939","properties":{"type":"yes","residential":true,"residents_est":3,"h3_10":"8a1e05a65db7fff","h3_11":"8b1e05a65db2fff"},"geometry":{"type":"Polygon","coordinates":[[[19.859202,49.993792],[19.859291,49.993727],[19.859412,49.993797],[19.859323,49.993861],[19.859202,49.993792]]]}},{"type":"Feature","id":"w337625985","properties":{"type":"yes","residential":true,"residents_est":2,"h3_10":"8a1e05a65db7fff","h3_11":"8b1e05a65db2fff"},"geometry":{"type":"Polygon","coordinates":[[[19.858872,49.993789],[19.858963,49.99373],[19.859045,49.993782],[19.858957,49.993841],[19.858872,49.993789]]]}},{"type":"Feature","id":"w337625989","properties":{"type":"yes","residential":true,"residents_est":4,"h3_10":"8a1e05a65d97fff","h3_11":"8b1e05a65d90fff"},"geometry":{"type":"Polygon","coordinates":[[[19.85956,49.993042],[19.859642,49.992903],[19.859749,49.99293],[19.859666,49.993068],[19.85956,49.993042]]]}},{"type":"Feature","id":"w337626021","properties":{"type":"yes","residential":true,"residents_est":4,"h3_10":"8a1e05a65db7fff","h3_11":"8b1e05a65db3fff"},"geometry":{"type":"Polygon","coordinates":[[[19.859213,49.993564],[19.859302,49.993493],[19.859416,49.993552],[19.859381,49.993581],[19.859424,49.993603],[19.859371,49.993646],[19.859213,49.993564]]]}},{"type":"Feature","id":"w337626060","properties":{"type":"yes","residential":true,"residents_est":3,"h3_10":"8a1e05a65db7fff","h3_11":"8b1e05a65db2fff"},"geometry":{"type":"Polygon","coordinates":[[[19.858591,49.993589],[19.85865,49.993536],[19.858625,49.993524],[19.858671,49.993485],[19.858766,49.993536],[19.858663,49.993624],[19.858591,49.993589]]]}},{"type":"Feature","id":"w337626067","properties":{"type":"yes","residential":true,"residents_est":2,"h3_10":"8a1e05a65d97fff","h3_11":"8b1e05a65d94fff"},"geometry":{"type":"Polygon","coordinates":[[[19.859313,49.993327],[19.859341,49.993237],[19.859457,49.993251],[19.859433,49.993332],[19.859416,49.993339],[19.859313,49.993327]]]}},{"type":"Feature","id":"w337626090","properties":{"type":"yes","residential":true,"residents_est":3,"h3_10":"8a1e05a65d97fff","h3_11":"8b1e05a65d90fff"},"geometry":{"type":"Polygon","coordinates":[[[19.859427,49.992807],[19.859455,49.992733],[19.859621,49.992758],[19.859595,49.992832],[19.859427,49.992807]]]}},{"type":"Feature","id":"w337626121","properties":{"type":"yes","residential":true,"residents_est":3,"h3_10":"8a1e05a65d97fff","h3_11":"8b1e05a65d96fff"},"geometry":{"type":"Polygon","coordinates":[[[19.858842,49.992951],[19.858874,49.992884],[19.859052,49.992915],[19.859023,49.992983],[19.858842,49.992951]]]}},{"type":"Feature","id":"w337626127","properties":{"type":"yes","residential":true,"residents_est":3,"h3_10":"8a1e05a65db7fff","h3_11":"8b1e05a65db6fff"},"geometry":{"type":"Polygon","coordinates":[[[19.85864,49.994189],[19.858672,49.994158],[19.85865,49.994149],[19.858694,49.994105],[19.858854,49.994173],[19.858791,49.994223],[19.858745,49.994203],[19.858723,49.994224],[19.85864,49.994189]]]}},{"type":"Feature","id":"w337641735","properties":{"type":"yes","residential":true,"residents_est":2,"h3_10":"8a1e05a65c87fff","h3_11":"8b1e05a65c83fff"},"geometry":{"type":"Polygon","coordinates":[[[19.863708,49.990653],[19.86382,49.990642],[19.863836,49.990706],[19.863724,49.990717],[19.863708,49.990653]]]}},{"type":"Feature","id":"w337641746","properties":{"type":"yes","residential":true,"residents_est":4,"h3_10":"8a1e05a65c8ffff","h3_11":"8b1e05a65c8dfff"},"geometry":{"type":"Polygon","coordinates":[[[19.865415,49.991151],[19.86546,49.991149],[19.865472,49.991139],[19.865493,49.991138],[19.86551,49.991145],[19.865554,49.991143],[19.865567,49.991236],[19.86554,49.991237],[19.865545,49.991268],[19.865462,49.991274],[19.865458,49.991242],[19.865429,49.991244],[19.865415,49.991151]]]}},{"type":"Feature","id":"w337641762","properties":{"type":"yes","residential":true,"residents_est":4,"h3_10":"8a1e05a65cd7fff","h3_11":"8b1e05a65cd6fff"},"geometry":{"type":"Polygon","coordinates":[[[19.865986,49.990446],[19.866034,49.99044],[19.866037,49.990449],[19.866106,49.99044],[19.866109,49.990449],[19.866171,49.990441],[19.866205,49.990545],[19.86619,49.990547],[19.866186,49.990536],[19.866162,49.990539],[19.866158,49.990528],[19.866019,49.990547],[19.865986,49.990446]]]}},{"type":"Feature","id":"w337641765","properties":{"type":"yes","residential":true,"residents_est":3,"h3_10":"8a1e05a65caffff","h3_11":"8b1e05a65cadfff"},"geometry":{"type":"Polygon","coordinates":[[[19.86508,49.992042],[19.865213,49.99204],[19.865219,49.992076],[19.865242,49.992075],[19.865244,49.992095],[19.865222,49.992096],[19.86523,49.992153],[19.865173,49.992156],[19.86517,49.992134],[19.865092,49.992139],[19.86508,49.992042]]]}},{"type":"Feature","id":"w337641769","properties":{"type":"house","levels":2.0,"address":"Franciszka Sapalskiego 39a","residential":true,"residents_est":7,"h3_10":"8a1e05a65ceffff","h3_11":"8b1e05a65ceafff"},"geometry":{"type":"Polygon","coordinates":[[[19.869275,49.991526],[19.869276,49.991511],[19.869289,49.991503],[19.869292,49.991472],[19.869464,49.991484],[19.869458,49.991557],[19.869408,49.991555],[19.869407,49.991567],[19.869284,49.991563],[19.869287,49.991534],[19.869275,49.991526]]]}},{"type":"Feature","id":"w337641777","properties":{"type":"house","levels":2.0,"address":"Mieczysława Wrony 68","residential":true,"residents_est":6,"h3_10":"8a1e05a65c97fff","h3_11":"8b1e05a65c90fff"},"geometry":{"type":"Polygon","coordinates":[[[19.86196,49.990235],[19.861963,49.990204],[19.861974,49.990205],[19.861976,49.990186],[19.862164,49.990196],[19.862159,49.990257],[19.862109,49.990255],[19.862109,49.990262],[19.86197,49.990256],[19.861971,49.990235],[19.86196,49.990235]]]}},{"type":"Feature","id":"w337641799","properties":{"type":"yes","residential":true,"residents_est":4,"h3_10":"8a1e05a65caffff","h3_11":"8b1e05a65cabfff"},"geometry":{"type":"Polygon","coordinates":[[[19.865457,49.99143],[19.865501,49.991427],[19.865514,49.991417],[19.865536,49.991416],[19.865551,49.991424],[19.865555,49.991447],[19.865598,49.991444],[19.865609,49.991514],[19.865581,49.991516],[19.865589,49.991567],[19.865505,49.991572],[19.865498,49.991521],[19.865471,49.991522],[19.865457,49.99143]]]}},{"type":"Feature","id":"w337641802","properties":{"type":"house","address":"Mieczysława Wrony 69A","residential":true,"residents_est":9,"h3_10":"8a1e05a65c97fff","h3_11":"8b1e05a65c95fff"},"geometry":{"type":"Polygon","coordinates":[[[19.862323,49.990755],[19.86239,49.990644],[19.862553,49.990685],[19.862486,49.990796],[19.862323,49.990755]]]}},{"type":"Feature","id":"w337641814","properties":{"type":"house","levels":2.0,"address":"Mieczysława Wrony 70a","residential":true,"residents_est":12,"h3_10":"8a1e05a65c97fff","h3_11":"8b1e05a65c93fff"},"geometry":{"type":"Polygon","coordinates":[[[19.862428,49.990072],[19.862437,49.990063],[19.862435,49.990053],[19.862499,49.990049],[19.862496,49.990021],[19.862644,49.990013],[19.862658,49.990113],[19.86267,49.990113],[19.86268,49.990181],[19.862581,49.990186],[19.862572,49.990123],[19.862446,49.99013],[19.86244,49.990089],[19.86243,49.990082],[19.862428,49.990072]]]}},{"type":"Feature","id":"w337641818","properties":{"type":"yes","residential":true,"residents_est":7,"h3_10":"8a1e05a65cdffff","h3_11":"8b1e05a65cddfff"},"geometry":{"type":"Polygon","coordinates":[[[19.8688,49.990481],[19.868818,49.99048],[19.868841,49.990467],[19.868901,49.990465],[19.868921,49.990478],[19.868941,49.990477],[19.868942,49.990574],[19.868968,49.990573],[19.86897,49.990609],[19.868939,49.990609],[19.868945,49.990692],[19.868814,49.990696],[19.868813,49.990614],[19.868806,49.990612],[19.8688,49.990481]]]}},{"type":"Feature","id":"w337641821","properties":{"type":"yes","residential":true,"residents_est":3,"h3_10":"8a1e05a65ccffff","h3_11":"8b1e05a65ccafff"},"geometry":{"type":"Polygon","coordinates":[[[19.869461,49.990371],[19.869503,49.990365],[19.869513,49.990354],[19.869534,49.990352],[19.86955,49.990358],[19.869591,49.990353],[19.869612,49.990422],[19.869624,49.99042],[19.869634,49.990454],[19.86951,49.990471],[19.869521,49.990467],[19.869512,49.990439],[19.869483,49.990442],[19.869461,49.990371]]]}},{"type":"Feature","id":"w337641823","properties":{"type":"yes","residential":true,"residents_est":5,"h3_10":"8a1e05a65ca7fff","h3_11":"8b1e05a65ca1fff"},"geometry":{"type":"Polygon","coordinates":[[[19.863768,49.992209],[19.863773,49.992177],[19.863791,49.992179],[19.863802,49.992107],[19.864017,49.992122],[19.864011,49.992159],[19.864042,49.992161],[19.864036,49.99221],[19.864002,49.992208],[19.864004,49.992191],[19.863903,49.992185],[19.863898,49.992217],[19.863768,49.992209]]]}},{"type":"Feature","id":"w337641844","properties":{"type":"yes","residential":true,"residents_est":5,"h3_10":"8a1e05a65ca7fff","h3_11":"8b1e05a65ca0fff"},"geometry":{"type":"Polygon","coordinates":[[[19.863076,49.992291],[19.863085,49.99225],[19.863077,49.99225],[19.863083,49.992223],[19.863091,49.992224],[19.8631,49.992184],[19.863284,49.992201],[19.863315,49.992216],[19.863309,49.992248],[19.86327,49.992263],[19.863262,49.992298],[19.863211,49.992293],[19.863209,49.992303],[19.86318,49.9923],[19.863176,49.992319],[19.863133,49.992315],[19.863137,49.992296],[19.863076,49.992291]]]}},{"type":"Feature","id":"w337641889","properties":{"type":"yes","residential":true,"residents_est":0,"h3_10":"8a1e05a65c8ffff","h3_11":"8b1e05a65c8bfff"},"geometry":{"type":"Polygon","coordinates":[[[19.865409,49.990369],[19.865489,49.990344],[19.865548,49.990431],[19.86547,49.990454],[19.865409,49.990369]]]}},{"type":"Feature","id":"w337641904","properties":{"type":"residential","address":"Mieczysława Wrony 76","residential":true,"residents_est":15,"h3_10":"8a1e05a65c9ffff","h3_11":"8b1e05a65c9cfff"},"geometry":{"type":"Polygon","coordinates":[[[19.86351,49.990198],[19.863621,49.990175],[19.863691,49.990314],[19.86358,49.990337],[19.86351,49.990198]]]}},{"type":"Feature","id":"w337641925","properties":{"type":"yes","residential":true,"residents_est":3,"h3_10":"8a1e05a65c8ffff","h3_11":"8b1e05a65c8cfff"},"geometry":{"type":"Polygon","coordinates":[[[19.865037,49.991179],[19.865206,49.99116],[19.865227,49.991231],[19.865056,49.99125],[19.865037,49.991179]]]}},{"type":"Feature","id":"w337641927","properties":{"type":"yes","residential":true,"residents_est":3,"h3_10":"8a1e05a65c8ffff","h3_11":"8b1e05a65c89fff"},"geometry":{"type":"Polygon","coordinates":[[[19.865789,49.990946],[19.865916,49.990944],[19.865917,49.990951],[19.865952,49.990951],[19.865954,49.991],[19.865919,49.991],[19.86592,49.991048],[19.865793,49.991051],[19.865789,49.990946]]]}},{"type":"Feature","id":"w337641940","properties":{"type":"yes","residential":true,"residents_est":2,"h3_10":"8a1e05a65c8ffff","h3_11":"8b1e05a65c88fff"},"geometry":{"type":"Polygon","coordinates":[[[19.865277,49.990833],[19.865399,49.990824],[19.865416,49.99089],[19.865291,49.990901],[19.865277,49.990833]]]}},{"type":"Feature","id":"w337641970","properties":{"type":"yes","residential":true,"residents_est":4,"h3_10":"8a1e05a65c1ffff","h3_11":"8b1e05a65c1afff"},"geometry":{"type":"Polygon","coordinates":[[[19.866234,49.992324],[19.866396,49.992304],[19.866426,49.992404],[19.866264,49.992424],[19.866234,49.992324]]]}},{"type":"Feature","id":"w337641979","properties":{"type":"yes","residential":true,"residents_est":1,"h3_10":"8a1e05a65ce7fff","h3_11":"8b1e05a65ce0fff"},"geometry":{"type":"Polygon","coordinates":[[[19.868084,49.992083],[19.868157,49.992075],[19.868171,49.992147],[19.868101,49.992154],[19.868084,49.992083]]]}},{"type":"Feature","id":"w337641982","properties":{"type":"yes","residential":true,"residents_est":3,"h3_10":"8a1e05a65cd7fff","h3_11":"8b1e05a65cd2fff"},"geometry":{"type":"Polygon","coordinates":[[[19.866597,49.990204],[19.866736,49.990199],[19.866743,49.99029],[19.866605,49.990295],[19.866597,49.990204]]]}},{"type":"Feature","id":"w337642003","properties":{"type":"yes","residential":true,"residents_est":2,"h3_10":"8a1e05a65ca7fff","h3_11":"8b1e05a65ca1fff"},"geometry":{"type":"Polygon","coordinates":[[[19.864085,49.992151],[19.864099,49.992067],[19.864203,49.992074],[19.864188,49.992158],[19.864085,49.992151]]]}},{"type":"Feature","id":"w337642012","properties":{"type":"yes","residential":true,"residents_est":3,"h3_10":"8a1e05a65caffff","h3_11":"8b1e05a65caafff"},"geometry":{"type":"Polygon","coordinates":[[[19.864646,49.991367],[19.864807,49.991362],[19.864816,49.991432],[19.86475,49.991435],[19.864751,49.991454],[19.864655,49.991458],[19.864646,49.991367]]]}},{"type":"Feature","id":"w337642014","properties":{"type":"house","levels":2.0,"address":"Mieczysława Wrony 74a","residential":true,"residents_est":6,"h3_10":"8a1e05a65c9ffff","h3_11":"8b1e05a65c9cfff"},"geometry":{"type":"Polygon","coordinates":[[[19.863278,49.990284],[19.863421,49.990278],[19.863431,49.99037],[19.863287,49.990377],[19.863278,49.990284]]]}},{"type":"Feature","id":"w337642016","properties":{"type":"yes","residential":true,"residents_est":2,"h3_10":"8a1e05a65c1ffff","h3_11":"8b1e05a65c1efff"},"geometry":{"type":"Polygon","coordinates":[[[19.86574,49.99272],[19.865836,49.992709],[19.865857,49.992785],[19.865761,49.992796],[19.86574,49.99272]]]}},{"type":"Feature","id":"w337642034","properties":{"type":"garage","levels":1.0,"residential":false,"residents_est":0,"h3_10":"8a1e05a65cc7fff","h3_11":"8b1e05a65cc4fff"},"geometry":{"type":"Polygon","coordinates":[[[19.86838,49.991601],[19.868385,49.991541],[19.868511,49.991545],[19.868506,49.991605],[19.86838,49.991601]]]}},{"type":"Feature","id":"w337642038","properties":{"type":"yes","residential":true,"residents_est":3,"h3_10":"8a1e05a65caffff","h3_11":"8b1e05a65cabfff"},"geometry":{"type":"Polygon","coordinates":[[[19.865096,49.991395],[19.865268,49.991379],[19.865284,49.99145],[19.865113,49.991464],[19.865096,49.991395]]]}},{"type":"Feature","id":"w337642046","properties":{"type":"yes","residential":true,"residents_est":2,"h3_10":"8a1e05a65cd7fff","h3_11":"8b1e05a65cd0fff"},"geometry":{"type":"Polygon","coordinates":[[[19.867031,49.990459],[19.867037,49.990382],[19.867186,49.990388],[19.867179,49.990465],[19.867031,49.990459]]]}},{"type":"Feature","id":"w337642055","properties":{"type":"house","levels":3.0,"address":"Franciszka Sapalskiego 35","residential":true,"residents_est":9,"h3_10":"8a1e05a65ce7fff","h3_11":"8b1e05a65ce0fff"},"geometry":{"type":"Polygon","coordinates":[[[19.867836,49.992062],[19.867975,49.992047],[19.867999,49.99214],[19.867857,49.992153],[19.867836,49.992062]]]}},{"type":"Feature","id":"w337642058","properties":{"type":"yes","residential":true,"residents_est":2,"h3_10":"8a1e05a65c8ffff","h3_11":"8b1e05a65c89fff"},"geometry":{"type":"Polygon","coordinates":[[[19.86617,49.990708],[19.866308,49.990696],[19.866318,49.990744],[19.866179,49.990756],[19.86617,49.990708]]]}},{"type":"Feature","id":"w337642064","properties":{"type":"yes","residential":true,"residents_est":2,"h3_10":"8a1e05a65c1ffff","h3_11":"8b1e05a65c18fff"},"geometry":{"type":"Polygon","coordinates":[[[19.866141,49.992676],[19.866245,49.992663],[19.866266,49.99274],[19.866163,49.992752],[19.866141,49.992676]]]}},{"type":"Feature","id":"w337642071","properties":{"type":"yes","residential":true,"residents_est":3,"h3_10":"8a1e05a65c87fff","h3_11":"8b1e05a65c86fff"},"geometry":{"type":"Polygon","coordinates":[[[19.862597,49.99116],[19.862597,49.991075],[19.862729,49.991075],[19.862728,49.99116],[19.862597,49.99116]]]}},{"type":"Feature","id":"w337642088","properties":{"type":"yes","residential":true,"residents_est":3,"h3_10":"8a1e05a65c8ffff","h3_11":"8b1e05a65c8cfff"},"geometry":{"type":"Polygon","coordinates":[[[19.864751,49.990998],[19.864926,49.990996],[19.864923,49.99107],[19.864753,49.991071],[19.864751,49.990998]]]}},{"type":"Feature","id":"w337642097","properties":{"type":"yes","residential":true,"residents_est":2,"h3_10":"8a1e05a65c87fff","h3_11":"8b1e05a65c81fff"},"geometry":{"type":"Polygon","coordinates":[[[19.864311,49.99103],[19.86438,49.990962],[19.864484,49.99101],[19.864409,49.991076],[19.864311,49.99103]]]}},{"type":"Feature","id":"w337642112","properties":{"type":"yes","residential":true,"residents_est":3,"h3_10":"8a1e05a65c87fff","h3_11":"8b1e05a65c85fff"},"geometry":{"type":"Polygon","coordinates":[[[19.864101,49.991608],[19.864254,49.991602],[19.864261,49.991684],[19.864108,49.99169],[19.864101,49.991608]]]}},{"type":"Feature","id":"w337642116","properties":{"type":"house","levels":2.0,"address":"Franciszka Sapalskiego 39","residential":true,"residents_est":10,"h3_10":"8a1e05a65cc7fff","h3_11":"8b1e05a65cc4fff"},"geometry":{"type":"Polygon","coordinates":[[[19.868108,49.991587],[19.868119,49.991447],[19.868261,49.991452],[19.868257,49.991506],[19.868297,49.991507],[19.868309,49.991517],[19.868306,49.991575],[19.86829,49.991584],[19.86825,49.991591],[19.868108,49.991587]]]}},{"type":"Feature","id":"w337642125","properties":{"type":"detached","residential":true,"residents_est":9,"h3_10":"8a1e05a65cd7fff","h3_11":"8b1e05a65cd5fff"},"geometry":{"type":"Polygon","coordinates":[[[19.866979,49.990756],[19.866989,49.990636],[19.867134,49.990644],[19.867119,49.990763],[19.8671,49.990762],[19.867097,49.990792],[19.866993,49.990788],[19.866997,49.990757],[19.866979,49.990756]]]}},{"type":"Feature","id":"w337642168","properties":{"type":"yes","residential":true,"residents_est":2,"h3_10":"8a1e05a65c87fff","h3_11":"8b1e05a65c82fff"},"geometry":{"type":"Polygon","coordinates":[[[19.863266,49.990852],[19.863419,49.99082],[19.863455,49.990879],[19.863301,49.990912],[19.863266,49.990852]]]}},{"type":"Feature","id":"w337642172","properties":{"type":"yes","residential":true,"residents_est":3,"h3_10":"8a1e05a65c87fff","h3_11":"8b1e05a65c86fff"},"geometry":{"type":"Polygon","coordinates":[[[19.862854,49.991156],[19.863056,49.991153],[19.863059,49.991229],[19.862856,49.991232],[19.862854,49.991156]]]}},{"type":"Feature","id":"w337642192","properties":{"type":"house","levels":2.0,"address":"Mieczysława Wrony 72","residential":true,"residents_est":9,"h3_10":"8a1e05a65c97fff","h3_11":"8b1e05a65c91fff"},"geometry":{"type":"Polygon","coordinates":[[[19.86293,49.990411],[19.863107,49.990405],[19.863108,49.990422],[19.863144,49.990421],[19.863148,49.990485],[19.863112,49.990486],[19.863114,49.990504],[19.863038,49.990506],[19.863039,49.990527],[19.862995,49.990528],[19.862993,49.990507],[19.862935,49.990509],[19.86293,49.990411]]]}},{"type":"Feature","id":"w337642199","properties":{"type":"yes","residential":true,"residents_est":2,"h3_10":"8a1e05a65c8ffff","h3_11":"8b1e05a65c8cfff"},"geometry":{"type":"Polygon","coordinates":[[[19.864841,49.991206],[19.864978,49.991189],[19.865,49.991267],[19.864864,49.991284],[19.864841,49.991206]]]}},{"type":"Feature","id":"w337642211","properties":{"type":"house","levels":2.0,"address":"Franciszka Sapalskiego 36","residential":true,"residents_est":5,"h3_10":"8a1e05a65ce7fff","h3_11":"8b1e05a65ce6fff"},"geometry":{"type":"Polygon","coordinates":[[[19.867394,49.992192],[19.867519,49.992173],[19.867556,49.992271],[19.867491,49.99228],[19.867481,49.992257],[19.86742,49.992266],[19.867394,49.992192]]]}},{"type":"Feature","id":"w337642213","properties":{"type":"yes","residential":false,"residents_est":0,"h3_10":"8a1e05a65c8ffff","h3_11":"8b1e05a65c8efff"},"geometry":{"type":"Polygon","coordinates":[[[19.864851,49.990703],[19.864926,49.9907],[19.864931,49.990759],[19.864856,49.990762],[19.864851,49.990703]]]}},{"type":"Feature","id":"w337642226","properties":{"type":"yes","residential":true,"residents_est":2,"h3_10":"8a1e05a65cc7fff","h3_11":"8b1e05a65cc3fff"},"geometry":{"type":"Polygon","coordinates":[[[19.869082,49.990806],[19.869135,49.990801],[19.869173,49.990973],[19.86912,49.990978],[19.869082,49.990806]]]}},{"type":"Feature","id":"w337642230","properties":{"type":"yes","residential":true,"residents_est":3,"h3_10":"8a1e05a65ca7fff","h3_11":"8b1e05a65ca1fff"},"geometry":{"type":"Polygon","coordinates":[[[19.863705,49.992377],[19.863722,49.992268],[19.863849,49.992276],[19.863832,49.992385],[19.863705,49.992377]]]}},{"type":"Feature","id":"w337642239","properties":{"type":"house","address":"Franciszka Sapalskiego 35A","residential":true,"residents_est":6,"h3_10":"8a1e05a65ce7fff","h3_11":"8b1e05a65ce3fff"},"geometry":{"type":"Polygon","coordinates":[[[19.868344,49.991949],[19.868387,49.991945],[19.868385,49.991934],[19.868439,49.991929],[19.868441,49.991941],[19.868485,49.991937],[19.868487,49.991948],[19.868523,49.991945],[19.868537,49.992011],[19.86836,49.992026],[19.868344,49.991949]]]}},{"type":"Feature","id":"w337642247","properties":{"type":"yes","residential":true,"residents_est":1,"h3_10":"8a1e05a65c1ffff","h3_11":"8b1e05a65c18fff"},"geometry":{"type":"Polygon","coordinates":[[[19.866494,49.992417],[19.866598,49.992404],[19.866616,49.992467],[19.866513,49.99248],[19.866494,49.992417]]]}},{"type":"Feature","id":"w337642253","properties":{"type":"yes","residential":true,"residents_est":2,"h3_10":"8a1e05a65caffff","h3_11":"8b1e05a65cabfff"},"geometry":{"type":"Polygon","coordinates":[[[19.864867,49.991358],[19.865037,49.991348],[19.865045,49.991413],[19.864875,49.99142],[19.864867,49.991358]]]}},{"type":"Feature","id":"w337642297","properties":{"type":"yes","residential":true,"residents_est":2,"h3_10":"8a1e05a65c1ffff","h3_11":"8b1e05a65c1efff"},"geometry":{"type":"Polygon","coordinates":[[[19.865315,49.992484],[19.865441,49.992471],[19.865459,49.992547],[19.865424,49.992551],[19.865427,49.992567],[19.865336,49.992577],[19.865315,49.992484]]]}},{"type":"Feature","id":"w337642299","properties":{"type":"yes","residential":true,"residents_est":2,"h3_10":"8a1e05a65c87fff","h3_11":"8b1e05a65c82fff"},"geometry":{"type":"Polygon","coordinates":[[[19.862767,49.990882],[19.862772,49.99082],[19.862834,49.990823],[19.862834,49.990831],[19.862895,49.990833],[19.862891,49.990887],[19.862767,49.990882]]]}},{"type":"Feature","id":"w337642309","properties":{"type":"yes","residential":true,"residents_est":4,"h3_10":"8a1e05a65c87fff","h3_11":"8b1e05a65c83fff"},"geometry":{"type":"Polygon","coordinates":[[[19.863436,49.990673],[19.863665,49.990655],[19.86368,49.990736],[19.863453,49.990752],[19.863436,49.990673]]]}},{"type":"Feature","id":"w337642315","properties":{"type":"yes","residential":true,"residents_est":2,"h3_10":"8a1e05a65c8ffff","h3_11":"8b1e05a65c8efff"},"geometry":{"type":"Polygon","coordinates":[[[19.864638,49.990598],[19.864766,49.990581],[19.864792,49.990657],[19.864664,49.990675],[19.864638,49.990598]]]}},{"type":"Feature","id":"w337642324","properties":{"type":"yes","residential":true,"residents_est":5,"h3_10":"8a1e05a65c97fff","h3_11":"8b1e05a65c95fff"},"geometry":{"type":"Polygon","coordinates":[[[19.862101,49.990628],[19.862139,49.990541],[19.86235,49.990582],[19.862326,49.990633],[19.86235,49.990637],[19.862333,49.990673],[19.862101,49.990628]]]}},{"type":"Feature","id":"w337642331","properties":{"type":"yes","residential":true,"residents_est":2,"h3_10":"8a1e05a65c87fff","h3_11":"8b1e05a65c85fff"},"geometry":{"type":"Polygon","coordinates":[[[19.863825,49.991467],[19.863826,49.99139],[19.863923,49.991391],[19.863922,49.991467],[19.863825,49.991467]]]}},{"type":"Feature","id":"w337642335","properties":{"type":"yes","residential":true,"residents_est":5,"h3_10":"8a1e05a65cd7fff","h3_11":"8b1e05a65cd0fff"},"geometry":{"type":"Polygon","coordinates":[[[19.866659,49.990407],[19.866778,49.990405],[19.866782,49.990479],[19.866847,49.990477],[19.866851,49.990545],[19.866667,49.990549],[19.866659,49.990407]]]}},{"type":"Feature","id":"w337642355","properties":{"type":"outbuilding","levels":1.0,"residential":false,"residents_est":0,"h3_10":"8a1e05a65c9ffff","h3_11":"8b1e05a65c9cfff"},"geometry":{"type":"Polygon","coordinates":[[[19.863197,49.990367],[19.863265,49.990364],[19.863269,49.990399],[19.863203,49.990401],[19.863197,49.990367]]]}},{"type":"Feature","id":"w337642360","properties":{"type":"house","levels":2.0,"address":"Franciszka Sapalskiego 34","residential":true,"residents_est":6,"h3_10":"8a1e05a65ce7fff","h3_11":"8b1e05a65ce6fff"},"geometry":{"type":"Polygon","coordinates":[[[19.867495,49.99235],[19.867668,49.992326],[19.867694,49.992403],[19.867521,49.992427],[19.867495,49.99235]]]}},{"type":"Feature","id":"w337642364","properties":{"type":"yes","residential":false,"residents_est":0,"h3_10":"8a1e05a65cc7fff","h3_11":"8b1e05a65cc3fff"},"geometry":{"type":"Polygon","coordinates":[[[19.868704,49.990766],[19.868746,49.990764],[19.868753,49.990808],[19.86871,49.990811],[19.868704,49.990766]]]}},{"type":"Feature","id":"w337642367","properties":{"type":"yes","residential":false,"residents_est":0,"h3_10":"8a1e05a65ce7fff","h3_11":"8b1e05a65ce6fff"},"geometry":{"type":"Polygon","coordinates":[[[19.867353,49.992349],[19.867416,49.992342],[19.867431,49.992405],[19.867368,49.992411],[19.867353,49.992349]]]}},{"type":"Feature","id":"w337642369","properties":{"type":"yes","residential":true,"residents_est":3,"h3_10":"8a1e05a65c87fff","h3_11":"8b1e05a65c80fff"},"geometry":{"type":"Polygon","coordinates":[[[19.863495,49.990989],[19.863653,49.990961],[19.863676,49.991022],[19.863615,49.991033],[19.863619,49.991045],[19.863524,49.991061],[19.863495,49.990989]]]}},{"type":"Feature","id":"w337642388","properties":{"type":"yes","residential":true,"residents_est":3,"h3_10":"8a1e05a65c9ffff","h3_11":"8b1e05a65c99fff"},"geometry":{"type":"Polygon","coordinates":[[[19.864511,49.990073],[19.864625,49.990038],[19.864683,49.990117],[19.864633,49.990132],[19.864648,49.990152],[19.864582,49.990171],[19.864511,49.990073]]]}},{"type":"Feature","id":"w337642416","properties":{"type":"yes","residential":true,"residents_est":1,"h3_10":"8a1e05a65c8ffff","h3_11":"8b1e05a65c88fff"},"geometry":{"type":"Polygon","coordinates":[[[19.865307,49.990961],[19.865405,49.99095],[19.865425,49.991028],[19.865352,49.991035],[19.865345,49.991006],[19.865319,49.991009],[19.865307,49.990961]]]}},{"type":"Feature","id":"w337642418","properties":{"type":"yes","residential":true,"residents_est":2,"h3_10":"8a1e05a65c87fff","h3_11":"8b1e05a65c81fff"},"geometry":{"type":"Polygon","coordinates":[[[19.864302,49.991238],[19.864437,49.991236],[19.864441,49.991319],[19.864305,49.991321],[19.864302,49.991238]]]}},{"type":"Feature","id":"w337642420","properties":{"type":"yes","residential":true,"residents_est":3,"h3_10":"8a1e05a65c1ffff","h3_11":"8b1e05a65c1afff"},"geometry":{"type":"Polygon","coordinates":[[[19.866021,49.992393],[19.866093,49.992385],[19.866099,49.992404],[19.866162,49.992397],[19.866187,49.992489],[19.866054,49.992506],[19.866021,49.992393]]]}},{"type":"Feature","id":"w337642422","properties":{"type":"yes","residential":true,"residents_est":5,"h3_10":"8a1e05a65ccffff","h3_11":"8b1e05a65cc8fff"},"geometry":{"type":"Polygon","coordinates":[[[19.870123,49.990708],[19.870131,49.990697],[19.870125,49.990664],[19.870234,49.990659],[19.870224,49.990608],[19.870319,49.9906],[19.870336,49.990688],[19.870317,49.99069],[19.870328,49.990747],[19.870273,49.990752],[19.870275,49.990759],[19.8702,49.990765],[19.870194,49.990735],[19.870141,49.990739],[19.870138,49.990729],[19.870125,49.990721],[19.870123,49.990708]]]}},{"type":"Feature","id":"w337642433","properties":{"type":"yes","residential":false,"residents_est":0,"h3_10":"8a1e05a65c87fff","h3_11":"8b1e05a65c83fff"},"geometry":{"type":"Polygon","coordinates":[[[19.863474,49.9908],[19.86353,49.990797],[19.863553,49.99084],[19.863573,49.990836],[19.863588,49.990864],[19.863519,49.990879],[19.863474,49.9908]]]}},{"type":"Feature","id":"w337642440","properties":{"type":"yes","residential":true,"residents_est":3,"h3_10":"8a1e05a65c1ffff","h3_11":"8b1e05a65c1afff"},"geometry":{"type":"Polygon","coordinates":[[[19.865885,49.992443],[19.86596,49.992434],[19.865958,49.992425],[19.866013,49.992418],[19.866037,49.992496],[19.86598,49.992503],[19.86599,49.992537],[19.865916,49.992547],[19.865885,49.992443]]]}},{"type":"Feature","id":"w337642453","properties":{"type":"yes","residential":true,"residents_est":3,"h3_10":"8a1e05a65cd7fff","h3_11":"8b1e05a65cd1fff"},"geometry":{"type":"Polygon","coordinates":[[[19.867337,49.990383],[19.867345,49.99029],[19.867432,49.990293],[19.86743,49.990315],[19.86753,49.990319],[19.867524,49.990394],[19.867337,49.990383]]]}},{"type":"Feature","id":"w337642489","properties":{"type":"yes","residential":true,"residents_est":2,"h3_10":"8a1e05a65cdffff","h3_11":"8b1e05a65cdcfff"},"geometry":{"type":"Polygon","coordinates":[[[19.868559,49.990539],[19.868643,49.990538],[19.868648,49.990645],[19.868633,49.990646],[19.868634,49.990673],[19.868565,49.990674],[19.868559,49.990539]]]}},{"type":"Feature","id":"w337642498","properties":{"type":"yes","residential":false,"residents_est":0,"h3_10":"8a1e05a65c97fff","h3_11":"8b1e05a65c95fff"},"geometry":{"type":"Polygon","coordinates":[[[19.862361,49.990888],[19.862371,49.990847],[19.862483,49.990857],[19.862473,49.990899],[19.862361,49.990888]]]}},{"type":"Feature","id":"w337642501","properties":{"type":"yes","residential":true,"residents_est":3,"h3_10":"8a1e05a65c1ffff","h3_11":"8b1e05a65c1efff"},"geometry":{"type":"Polygon","coordinates":[[[19.865644,49.992457],[19.865763,49.992445],[19.865779,49.992509],[19.865803,49.992506],[19.865819,49.992561],[19.865725,49.992572],[19.865717,49.992547],[19.865669,49.992553],[19.865644,49.992457]]]}},{"type":"Feature","id":"w337642504","properties":{"type":"yes","residential":true,"residents_est":3,"h3_10":"8a1e05a65ccffff","h3_11":"8b1e05a65ccafff"},"geometry":{"type":"Polygon","coordinates":[[[19.869834,49.990429],[19.869856,49.990427],[19.869847,49.99036],[19.869973,49.990353],[19.869979,49.990395],[19.87002,49.990393],[19.870027,49.990439],[19.869837,49.990448],[19.869834,49.990429]]]}},{"type":"Feature","id":"w337642510","properties":{"type":"yes","residential":true,"residents_est":2,"h3_10":"8a1e05a65cdffff","h3_11":"8b1e05a65cdcfff"},"geometry":{"type":"Polygon","coordinates":[[[19.868028,49.990409],[19.86803,49.990316],[19.868116,49.990317],[19.868117,49.990309],[19.868157,49.990309],[19.868154,49.99041],[19.868028,49.990409]]]}},{"type":"Feature","id":"w337642524","properties":{"type":"yes","residential":true,"residents_est":3,"h3_10":"8a1e05a65ccffff","h3_11":"8b1e05a65ccefff"},"geometry":{"type":"Polygon","coordinates":[[[19.869308,49.990856],[19.869374,49.990848],[19.86937,49.990832],[19.86945,49.990823],[19.869478,49.990924],[19.869434,49.99093],[19.86943,49.990916],[19.869329,49.990928],[19.869308,49.990856]]]}},{"type":"Feature","id":"w337642531","properties":{"type":"house","levels":2.0,"address":"Mieczysława Wrony 78A","residential":true,"residents_est":5,"h3_10":"8a1e05a65c9ffff","h3_11":"8b1e05a65c98fff"},"geometry":{"type":"Polygon","coordinates":[[[19.863722,49.990151],[19.863882,49.990119],[19.863911,49.99018],[19.863859,49.99019],[19.863867,49.990206],[19.863824,49.990215],[19.863816,49.990198],[19.863751,49.99021],[19.863722,49.990151]]]}},{"type":"Feature","id":"w337642541","properties":{"type":"yes","residential":true,"residents_est":2,"h3_10":"8a1e05a65ccffff","h3_11":"8b1e05a65ccefff"},"geometry":{"type":"Polygon","coordinates":[[[19.869628,49.990619],[19.869656,49.990615],[19.869641,49.990573],[19.869755,49.990557],[19.869781,49.990632],[19.869723,49.990641],[19.869731,49.990662],[19.869647,49.990675],[19.869628,49.990619]]]}},{"type":"Feature","id":"w337642545","properties":{"type":"yes","residential":false,"residents_est":0,"h3_10":"8a1e05a65c1ffff","h3_11":"8b1e05a65c18fff"},"geometry":{"type":"Polygon","coordinates":[[[19.866563,49.992581],[19.866579,49.992579],[19.866583,49.992589],[19.866622,49.992584],[19.866633,49.992617],[19.866578,49.992625],[19.866563,49.992581]]]}},{"type":"Feature","id":"w337642576","properties":{"type":"house","levels":1.0,"address":"Mieczysława Wrony 78","residential":true,"residents_est":0,"h3_10":"8a1e05a65c9ffff","h3_11":"8b1e05a65c9dfff"},"geometry":{"type":"Polygon","coordinates":[[[19.863862,49.990342],[19.863973,49.990327],[19.863993,49.990393],[19.863884,49.990407],[19.863862,49.990342]]]}},{"type":"Feature","id":"w337642588","properties":{"type":"yes","residential":true,"residents_est":3,"h3_10":"8a1e05a65c9ffff","h3_11":"8b1e05a65c99fff"},"geometry":{"type":"Polygon","coordinates":[[[19.864249,49.99009],[19.864382,49.990055],[19.864429,49.990128],[19.864384,49.99014],[19.864393,49.990154],[19.864346,49.990167],[19.864337,49.990153],[19.864297,49.990163],[19.864249,49.99009]]]}},{"type":"Feature","id":"w337642626","properties":{"type":"yes","residential":true,"residents_est":2,"h3_10":"8a1e05a65c87fff","h3_11":"8b1e05a65c85fff"},"geometry":{"type":"Polygon","coordinates":[[[19.863831,49.991272],[19.863954,49.991271],[19.863955,49.991303],[19.863979,49.991303],[19.86398,49.991346],[19.863832,49.991347],[19.863831,49.991272]]]}},{"type":"Feature","id":"w337642629","properties":{"type":"yes","residential":true,"residents_est":2,"h3_10":"8a1e05a65c87fff","h3_11":"8b1e05a65c83fff"},"geometry":{"type":"Polygon","coordinates":[[[19.863951,49.990861],[19.864072,49.990842],[19.864094,49.990888],[19.863983,49.990915],[19.863951,49.990861]]]}},{"type":"Feature","id":"w400501455","properties":{"type":"yes","residential":true,"residents_est":3,"h3_10":"8a1e05a65cc7fff","h3_11":"8b1e05a65cc0fff"},"geometry":{"type":"Polygon","coordinates":[[[19.868117,49.991247],[19.868118,49.991156],[19.868204,49.991157],[19.868204,49.991171],[19.868291,49.991171],[19.86829,49.991248],[19.868117,49.991247]]]}},{"type":"Feature","id":"w400501456","properties":{"type":"house","levels":2.0,"address":"Franciszka Sapalskiego 39B","residential":true,"residents_est":7,"h3_10":"8a1e05a65cc7fff","h3_11":"8b1e05a65cc5fff"},"geometry":{"type":"Polygon","coordinates":[[[19.868951,49.991608],[19.868954,49.991572],[19.868981,49.991572],[19.868983,49.991531],[19.869085,49.991533],[19.869087,49.991523],[19.869177,49.991526],[19.86917,49.991588],[19.86912,49.991587],[19.869117,49.991614],[19.868951,49.991608]]]}},{"type":"Feature","id":"w498484959","properties":{"type":"house","address":"Księdza Franciszka Trockiego 61b","residential":true,"residents_est":7,"h3_10":"8a1e05a65d6ffff","h3_11":"8b1e05a65d6dfff"},"geometry":{"type":"Polygon","coordinates":[[[19.87015,49.997357],[19.870258,49.997355],[19.870257,49.997341],[19.870344,49.99734],[19.870347,49.997429],[19.870152,49.997431],[19.87015,49.997357]]]}},{"type":"Feature","id":"w552325733","properties":{"type":"house","residential":true,"residents_est":5,"h3_10":"8a1e05a65d47fff","h3_11":"8b1e05a65d44fff"},"geometry":{"type":"Polygon","coordinates":[[[19.868266,49.996782],[19.868388,49.996781],[19.868388,49.996791],[19.868443,49.99679],[19.868445,49.996846],[19.868389,49.996846],[19.86839,49.996859],[19.868268,49.99686],[19.868266,49.996782]]]}},{"type":"Feature","id":"w702790598","properties":{"type":"yes","address":"Księdza Franciszka Trockiego 61C","residential":true,"residents_est":4,"h3_10":"8a1e05a65d6ffff","h3_11":"8b1e05a65d6dfff"},"geometry":{"type":"Polygon","coordinates":[[[19.870566,49.997314],[19.870651,49.997312],[19.870652,49.997342],[19.870681,49.997342],[19.870686,49.997482],[19.870572,49.997484],[19.870566,49.997314]]]}},{"type":"Feature","id":"w706650019","properties":{"type":"yes","residential":false,"residents_est":0,"h3_10":"8a1e05a65d97fff","h3_11":"8b1e05a65d92fff"},"geometry":{"type":"Polygon","coordinates":[[[19.859387,49.992801],[19.859415,49.992727],[19.859455,49.992733],[19.859427,49.992807],[19.859387,49.992801]]]}},{"type":"Feature","id":"w706650020","properties":{"type":"yes","residential":true,"residents_est":2,"h3_10":"8a1e05a65d97fff","h3_11":"8b1e05a65d94fff"},"geometry":{"type":"Polygon","coordinates":[[[19.859196,49.993297],[19.85922,49.993221],[19.859341,49.993237],[19.859315,49.99333],[19.859245,49.993321],[19.85925,49.993305],[19.859196,49.993297]]]}},{"type":"Feature","id":"w706650021","properties":{"type":"yes","residential":false,"residents_est":0,"h3_10":"8a1e05a65d97fff","h3_11":"8b1e05a65d95fff"},"geometry":{"type":"Polygon","coordinates":[[[19.859873,49.993544],[19.859903,49.993477],[19.859943,49.993484],[19.859913,49.993552],[19.859873,49.993544]]]}},{"type":"Feature","id":"w706650022","properties":{"type":"yes","residential":false,"residents_est":0,"h3_10":"8a1e05a65d97fff","h3_11":"8b1e05a65d96fff"},"geometry":{"type":"Polygon","coordinates":[[[19.858792,49.992906],[19.858824,49.992836],[19.858891,49.992848],[19.858858,49.992917],[19.858792,49.992906]]]}},{"type":"Feature","id":"w706650023","properties":{"type":"yes","residential":false,"residents_est":0,"h3_10":"8a1e05a65d97fff","h3_11":"8b1e05a65d96fff"},"geometry":{"type":"Polygon","coordinates":[[[19.858822,49.993011],[19.858842,49.992951],[19.858904,49.992963],[19.858881,49.993022],[19.858822,49.993011]]]}},{"type":"Feature","id":"w706650026","properties":{"type":"yes","residential":true,"residents_est":2,"h3_10":"8a1e05a65db7fff","h3_11":"8b1e05a65db2fff"},"geometry":{"type":"Polygon","coordinates":[[[19.8588,49.993744],[19.858889,49.993684],[19.858963,49.99373],[19.858872,49.993789],[19.8588,49.993744]]]}},{"type":"Feature","id":"w706650027","properties":{"type":"yes","residential":false,"residents_est":0,"h3_10":"8a1e05a65db7fff","h3_11":"8b1e05a65db0fff"},"geometry":{"type":"Polygon","coordinates":[[[19.859481,49.993914],[19.859537,49.993875],[19.859589,49.993905],[19.859533,49.993945],[19.859481,49.993914]]]}},{"type":"Feature","id":"w706650028","properties":{"type":"yes","residential":true,"residents_est":3,"h3_10":"8a1e05a65db7fff","h3_11":"8b1e05a65db0fff"},"geometry":{"type":"Polygon","coordinates":[[[19.858968,49.994146],[19.85902,49.994094],[19.859058,49.99411],[19.859079,49.99409],[19.85914,49.994116],[19.859125,49.99413],[19.859156,49.994143],[19.859161,49.994158],[19.859148,49.99417],[19.859128,49.994173],[19.8591,49.994201],[19.858968,49.994146]]]}},{"type":"Feature","id":"w706650029","properties":{"type":"yes","residential":false,"residents_est":0,"h3_10":"8a1e05a65db7fff","h3_11":"8b1e05a65db4fff"},"geometry":{"type":"Polygon","coordinates":[[[19.858606,49.994453],[19.85866,49.994398],[19.858708,49.994418],[19.858654,49.994473],[19.858606,49.994453]]]}},{"type":"Feature","id":"w706650132","properties":{"type":"house","levels":2.0,"address":"Zagumnie 14A","residential":true,"residents_est":4,"h3_10":"8a1e05a65ccffff","h3_11":"8b1e05a65ccbfff"},"geometry":{"type":"Polygon","coordinates":[[[19.870751,49.990395],[19.870877,49.990385],[19.870888,49.99045],[19.870763,49.990459],[19.870751,49.990395]]]}},{"type":"Feature","id":"w706650134","properties":{"type":"yes","residential":false,"residents_est":0,"h3_10":"8a1e05a65ccffff","h3_11":"8b1e05a65ccbfff"},"geometry":{"type":"Polygon","coordinates":[[[19.870598,49.990289],[19.870666,49.990282],[19.870675,49.990318],[19.870607,49.990325],[19.870598,49.990289]]]}},{"type":"Feature","id":"w706650138","properties":{"type":"yes","residential":false,"residents_est":0,"h3_10":"8a1e05a65ccffff","h3_11":"8b1e05a65ccefff"},"geometry":{"type":"Polygon","coordinates":[[[19.869642,49.99073],[19.869716,49.990719],[19.869726,49.990747],[19.869651,49.990757],[19.869642,49.99073]]]}},{"type":"Feature","id":"w706650141","properties":{"type":"yes","residential":false,"residents_est":0,"h3_10":"8a1e05a65cdffff","h3_11":"8b1e05a65cdcfff"},"geometry":{"type":"Polygon","coordinates":[[[19.868156,49.990362],[19.868157,49.990309],[19.868207,49.99031],[19.868205,49.990362],[19.868156,49.990362]]]}},{"type":"Feature","id":"w706650142","properties":{"type":"yes","residential":true,"residents_est":2,"h3_10":"8a1e05a65cdffff","h3_11":"8b1e05a65cdcfff"},"geometry":{"type":"Polygon","coordinates":[[[19.868475,49.990541],[19.868559,49.990539],[19.868565,49.990674],[19.868494,49.990674],[19.868493,49.990648],[19.86848,49.990648],[19.868475,49.990541]]]}},{"type":"Feature","id":"w706650143","properties":{"type":"yes","residential":true,"residents_est":3,"h3_10":"8a1e05a65cc7fff","h3_11":"8b1e05a65cc0fff"},"geometry":{"type":"Polygon","coordinates":[[[19.86829,49.991248],[19.868291,49.991171],[19.868378,49.991172],[19.868378,49.991158],[19.868465,49.991158],[19.868464,49.991249],[19.86829,49.991248]]]}},{"type":"Feature","id":"w706650144","properties":{"type":"yes","residential":true,"residents_est":2,"h3_10":"8a1e05a65cc7fff","h3_11":"8b1e05a65cc1fff"},"geometry":{"type":"Polygon","coordinates":[[[19.868832,49.991263],[19.868835,49.99116],[19.86894,49.991161],[19.868938,49.991264],[19.868832,49.991263]]]}},{"type":"Feature","id":"w706650145","properties":{"type":"house","levels":2.0,"address":"Franciszka Sapalskiego 37","residential":true,"residents_est":5,"h3_10":"8a1e05a65cc7fff","h3_11":"8b1e05a65cc4fff"},"geometry":{"type":"Polygon","coordinates":[[[19.868067,49.991689],[19.868218,49.991676],[19.868232,49.991748],[19.868081,49.991761],[19.868067,49.991689]]]}},{"type":"Feature","id":"w706650146","properties":{"type":"house","levels":2.0,"address":"Franciszka Sapalskiego 33","residential":true,"residents_est":7,"h3_10":"8a1e05a65ce7fff","h3_11":"8b1e05a65ce0fff"},"geometry":{"type":"Polygon","coordinates":[[[19.867912,49.99227],[19.867932,49.992267],[19.867922,49.992236],[19.868038,49.992222],[19.868048,49.992253],[19.868059,49.992251],[19.868084,49.99233],[19.867936,49.992349],[19.867912,49.99227]]]}},{"type":"Feature","id":"w706650147","properties":{"type":"yes","residential":false,"residents_est":0,"h3_10":"8a1e05a65c1ffff","h3_11":"8b1e05a65c18fff"},"geometry":{"type":"Polygon","coordinates":[[[19.866433,49.992465],[19.866493,49.992457],[19.866516,49.992524],[19.866454,49.992531],[19.866433,49.992465]]]}},{"type":"Feature","id":"w706650150","properties":{"type":"yes","residential":false,"residents_est":0,"h3_10":"8a1e05a65c87fff","h3_11":"8b1e05a65c85fff"},"geometry":{"type":"Polygon","coordinates":[[[19.863779,49.991678],[19.863788,49.991639],[19.86388,49.991649],[19.86387,49.991687],[19.863779,49.991678]]]}},{"type":"Feature","id":"w706650151","properties":{"type":"yes","residential":false,"residents_est":0,"h3_10":"8a1e05a65c87fff","h3_11":"8b1e05a65c85fff"},"geometry":{"type":"Polygon","coordinates":[[[19.86385,49.991567],[19.863853,49.991539],[19.863924,49.991541],[19.863922,49.991569],[19.86385,49.991567]]]}},{"type":"Feature","id":"w706650152","properties":{"type":"yes","residential":false,"residents_est":0,"h3_10":"8a1e05a65cf7fff","h3_11":"8b1e05a65cf2fff"},"geometry":{"type":"Polygon","coordinates":[[[19.865962,49.991101],[19.866044,49.991093],[19.866053,49.991135],[19.865969,49.991144],[19.865962,49.991101]]]}},{"type":"Feature","id":"w706650153","properties":{"type":"yes","address":"Franciszka Sapalskiego 47C","residential":true,"residents_est":4,"h3_10":"8a1e05a65c8ffff","h3_11":"8b1e05a65c8dfff"},"geometry":{"type":"Polygon","coordinates":[[[19.865662,49.99121],[19.865672,49.99121],[19.865669,49.991144],[19.865863,49.99114],[19.865865,49.991173],[19.865879,49.991181],[19.86588,49.991193],[19.865866,49.991203],[19.865867,49.99121],[19.86582,49.991211],[19.865821,49.991237],[19.865756,49.991239],[19.865758,49.991263],[19.865665,49.991265],[19.865662,49.99121]]]}},{"type":"Feature","id":"w706650154","properties":{"type":"yes","residential":true,"residents_est":5,"h3_10":"8a1e05a65cf7fff","h3_11":"8b1e05a65cf6fff"},"geometry":{"type":"Polygon","coordinates":[[[19.865702,49.991558],[19.865783,49.991553],[19.865786,49.991575],[19.865905,49.991567],[19.865909,49.991595],[19.865924,49.991606],[19.865926,49.991621],[19.865913,49.991635],[19.865883,49.991637],[19.865886,49.991663],[19.865743,49.991672],[19.86574,49.991647],[19.865716,49.991648],[19.865702,49.991558]]]}},{"type":"Feature","id":"w706650155","properties":{"type":"yes","residential":false,"residents_est":0,"h3_10":"8a1e05a65caffff","h3_11":"8b1e05a65caafff"},"geometry":{"type":"Polygon","coordinates":[[[19.864692,49.991518],[19.864761,49.991514],[19.864769,49.991579],[19.8647,49.991582],[19.864692,49.991518]]]}},{"type":"Feature","id":"w706650157","properties":{"type":"yes","residential":false,"residents_est":0,"h3_10":"8a1e05a65c87fff","h3_11":"8b1e05a65c81fff"},"geometry":{"type":"Polygon","coordinates":[[[19.864236,49.991104],[19.864266,49.991075],[19.864322,49.991099],[19.864292,49.991128],[19.864236,49.991104]]]}},{"type":"Feature","id":"w706650158","properties":{"type":"yes","residential":false,"residents_est":0,"h3_10":"8a1e05a65c87fff","h3_11":"8b1e05a65c85fff"},"geometry":{"type":"Polygon","coordinates":[[[19.863844,49.991509],[19.863845,49.991467],[19.863922,49.991467],[19.863919,49.99151],[19.863844,49.991509]]]}},{"type":"Feature","id":"w706650159","properties":{"type":"yes","residential":false,"residents_est":0,"h3_10":"8a1e05a65c87fff","h3_11":"8b1e05a65c85fff"},"geometry":{"type":"Polygon","coordinates":[[[19.863832,49.991347],[19.863935,49.991347],[19.863936,49.991367],[19.863833,49.991368],[19.863832,49.991347]]]}},{"type":"Feature","id":"w706650160","properties":{"type":"yes","residential":true,"residents_est":2,"h3_10":"8a1e05a65c87fff","h3_11":"8b1e05a65c81fff"},"geometry":{"type":"Polygon","coordinates":[[[19.863832,49.991203],[19.863954,49.9912],[19.863954,49.991271],[19.863833,49.991271],[19.863832,49.991203]]]}},{"type":"Feature","id":"w706650161","properties":{"type":"yes","residential":false,"residents_est":0,"h3_10":"8a1e05a65c87fff","h3_11":"8b1e05a65c81fff"},"geometry":{"type":"Polygon","coordinates":[[[19.863959,49.991263],[19.863962,49.991215],[19.864042,49.991216],[19.864039,49.991265],[19.863959,49.991263]]]}},{"type":"Feature","id":"w706650163","properties":{"type":"yes","residential":false,"residents_est":0,"h3_10":"8a1e05a65c87fff","h3_11":"8b1e05a65c86fff"},"geometry":{"type":"Polygon","coordinates":[[[19.86274,49.991138],[19.862742,49.991108],[19.86285,49.991111],[19.862848,49.991141],[19.86274,49.991138]]]}},{"type":"Feature","id":"w706650164","properties":{"type":"yes","residential":false,"residents_est":0,"h3_10":"8a1e05a65c87fff","h3_11":"8b1e05a65c83fff"},"geometry":{"type":"Polygon","coordinates":[[[19.864058,49.990734],[19.864109,49.990724],[19.864143,49.990799],[19.864092,49.990809],[19.864058,49.990734]]]}},{"type":"Feature","id":"w706650165","properties":{"type":"yes","residential":false,"residents_est":0,"h3_10":"8a1e05a65c87fff","h3_11":"8b1e05a65c83fff"},"geometry":{"type":"Polygon","coordinates":[[[19.864029,49.990786],[19.864058,49.990734],[19.864103,49.990835],[19.864056,49.990844],[19.864029,49.990786]]]}},{"type":"Feature","id":"w706650166","properties":{"type":"yes","residential":true,"residents_est":1,"h3_10":"8a1e05a65c87fff","h3_11":"8b1e05a65c83fff"},"geometry":{"type":"Polygon","coordinates":[[[19.863934,49.990797],[19.864029,49.990786],[19.864056,49.990844],[19.863955,49.99086],[19.863934,49.990797]]]}},{"type":"Feature","id":"w706650167","properties":{"type":"yes","residential":false,"residents_est":0,"h3_10":"8a1e05a65c87fff","h3_11":"8b1e05a65c83fff"},"geometry":{"type":"Polygon","coordinates":[[[19.863806,49.990874],[19.863857,49.990865],[19.863874,49.99091],[19.863824,49.990919],[19.863806,49.990874]]]}},{"type":"Feature","id":"w706650168","properties":{"type":"yes","residential":false,"residents_est":0,"h3_10":"8a1e05a65c87fff","h3_11":"8b1e05a65c83fff"},"geometry":{"type":"Polygon","coordinates":[[[19.863609,49.990742],[19.86368,49.990736],[19.863688,49.990775],[19.863615,49.99078],[19.863609,49.990742]]]}},{"type":"Feature","id":"w706650169","properties":{"type":"yes","residential":false,"residents_est":0,"h3_10":"8a1e05a65c87fff","h3_11":"8b1e05a65c83fff"},"geometry":{"type":"Polygon","coordinates":[[[19.863724,49.990717],[19.863785,49.990712],[19.863797,49.990763],[19.863743,49.990769],[19.863736,49.990736],[19.863729,49.990737],[19.863724,49.990717]]]}},{"type":"Feature","id":"w706650171","properties":{"type":"yes","residential":false,"residents_est":0,"h3_10":"8a1e05a65c8ffff","h3_11":"8b1e05a65c8efff"},"geometry":{"type":"Polygon","coordinates":[[[19.864664,49.990675],[19.864769,49.99066],[19.86478,49.990694],[19.864675,49.990708],[19.864664,49.990675]]]}},{"type":"Feature","id":"w706650172","properties":{"type":"yes","residential":true,"residents_est":2,"h3_10":"8a1e05a65c8ffff","h3_11":"8b1e05a65c88fff"},"geometry":{"type":"Polygon","coordinates":[[[19.865399,49.990824],[19.865531,49.990813],[19.865544,49.990881],[19.865416,49.99089],[19.865399,49.990824]]]}},{"type":"Feature","id":"w706650174","properties":{"type":"yes","residential":false,"residents_est":0,"h3_10":"8a1e05a65c8ffff","h3_11":"8b1e05a65c8bfff"},"geometry":{"type":"Polygon","coordinates":[[[19.86547,49.990454],[19.865548,49.990431],[19.865573,49.990467],[19.865493,49.99049],[19.86547,49.990454]]]}},{"type":"Feature","id":"w706650177","properties":{"type":"yes","residential":false,"residents_est":0,"h3_10":"8a1e05a65c9ffff","h3_11":"8b1e05a65c99fff"},"geometry":{"type":"Polygon","coordinates":[[[19.864539,49.989948],[19.864588,49.989931],[19.864635,49.989986],[19.864587,49.990003],[19.864539,49.989948]]]}},{"type":"Feature","id":"w706650181","properties":{"type":"yes","residential":false,"residents_est":0,"h3_10":"8a1e05a65c9ffff","h3_11":"8b1e05a65c99fff"},"geometry":{"type":"Polygon","coordinates":[[[19.864639,49.989909],[19.864689,49.989892],[19.864728,49.989937],[19.864677,49.989954],[19.864639,49.989909]]]}},{"type":"Feature","id":"w706650182","properties":{"type":"yes","residential":true,"residents_est":2,"h3_10":"8a1e05a65c9ffff","h3_11":"8b1e05a65c99fff"},"geometry":{"type":"Polygon","coordinates":[[[19.864754,49.990092],[19.864839,49.990063],[19.8649,49.990135],[19.864848,49.990151],[19.864858,49.990162],[19.864821,49.990175],[19.864754,49.990092]]]}},{"type":"Feature","id":"w706650185","properties":{"type":"house","levels":3.0,"address":"Mieczysława Wrony 70B","residential":true,"residents_est":9,"h3_10":"8a1e05a65c97fff","h3_11":"8b1e05a65c91fff"},"geometry":{"type":"Polygon","coordinates":[[[19.862433,49.990412],[19.862507,49.990324],[19.862585,49.990348],[19.862575,49.990359],[19.86263,49.990379],[19.862575,49.990445],[19.862519,49.990426],[19.862509,49.990438],[19.862433,49.990412]]]}},{"type":"Feature","id":"w706650186","properties":{"type":"house","levels":3.0,"address":"Mieczysława Wrony 70","residential":true,"residents_est":9,"h3_10":"8a1e05a65c97fff","h3_11":"8b1e05a65c90fff"},"geometry":{"type":"Polygon","coordinates":[[[19.862314,49.990353],[19.862369,49.990288],[19.862424,49.990307],[19.862434,49.990295],[19.862507,49.990324],[19.862433,49.990412],[19.862358,49.990386],[19.86237,49.990372],[19.862314,49.990353]]]}},{"type":"Feature","id":"w706650187","properties":{"type":"house","levels":2.0,"address":"Mieczysława Wrony 72B","residential":true,"residents_est":6,"h3_10":"8a1e05a65c9ffff","h3_11":"8b1e05a65c9efff"},"geometry":{"type":"Polygon","coordinates":[[[19.862907,49.990036],[19.863018,49.990027],[19.863042,49.990152],[19.862988,49.990156],[19.862986,49.990144],[19.862929,49.990149],[19.862907,49.990036]]]}},{"type":"Feature","id":"w706650188","properties":{"type":"house","levels":2.0,"address":"Mieczysława Wrony 72A","residential":true,"residents_est":6,"h3_10":"8a1e05a65c9ffff","h3_11":"8b1e05a65c9efff"},"geometry":{"type":"Polygon","coordinates":[[[19.862797,49.990045],[19.862907,49.990036],[19.862929,49.990149],[19.862871,49.990153],[19.862873,49.990165],[19.862821,49.990169],[19.862797,49.990045]]]}},{"type":"Feature","id":"w706650190","properties":{"type":"yes","residential":false,"residents_est":0,"h3_10":"8a1e05a65c9ffff","h3_11":"8b1e05a65c9efff"},"geometry":{"type":"Polygon","coordinates":[[[19.863054,49.989808],[19.863117,49.989803],[19.86313,49.989862],[19.863067,49.989868],[19.863054,49.989808]]]}},{"type":"Feature","id":"w759383811","properties":{"type":"residential","address":"Księdza Franciszka Trockiego 67B","residential":true,"residents_est":18,"h3_10":"8a1e05a65d4ffff","h3_11":"8b1e05a65d4cfff"},"geometry":{"type":"Polygon","coordinates":[[[19.869982,49.9964],[19.870172,49.996398],[19.870176,49.996501],[19.870131,49.996502],[19.870131,49.996514],[19.87003,49.996515],[19.870029,49.996503],[19.869985,49.996504],[19.869982,49.9964]]]}},{"type":"Feature","id":"w759383812","properties":{"type":"residential","address":"Księdza Franciszka Trockiego 67A","residential":true,"residents_est":19,"h3_10":"8a1e05a65d4ffff","h3_11":"8b1e05a65d4cfff"},"geometry":{"type":"Polygon","coordinates":[[[19.869709,49.996403],[19.8699,49.996401],[19.869903,49.996505],[19.869858,49.996505],[19.869859,49.996517],[19.869757,49.996519],[19.869757,49.996506],[19.869712,49.996507],[19.869709,49.996403]]]}},{"type":"Feature","id":"w759383813","properties":{"type":"residential","address":"Księdza Franciszka Trockiego 67","residential":true,"residents_est":18,"h3_10":"8a1e05a65d6ffff","h3_11":"8b1e05a65d6afff"},"geometry":{"type":"Polygon","coordinates":[[[19.869436,49.996407],[19.869627,49.996404],[19.86963,49.996508],[19.869585,49.996508],[19.869585,49.996521],[19.869484,49.996522],[19.869483,49.99651],[19.869439,49.99651],[19.869436,49.996407]]]}},{"type":"Feature","id":"w920055820","properties":{"type":"house","levels":2.0,"address":"Mieczysława Wrony 78B","residential":true,"residents_est":6,"h3_10":"8a1e05a65c9ffff","h3_11":"8b1e05a65c98fff"},"geometry":{"type":"Polygon","coordinates":[[[19.863575,49.989845],[19.863727,49.989799],[19.863783,49.989875],[19.86372,49.989894],[19.863712,49.989882],[19.863623,49.98991],[19.863575,49.989845]]]}},{"type":"Feature","id":"w974086334","properties":{"type":"house","residential":true,"residents_est":8,"h3_10":"8a1e05a65d47fff","h3_11":"8b1e05a65d41fff"},"geometry":{"type":"Polygon","coordinates":[[[19.8689,49.996385],[19.868915,49.996305],[19.869147,49.996323],[19.869132,49.996403],[19.8689,49.996385]]]}},{"type":"Feature","id":"w974086335","properties":{"type":"house","residential":true,"residents_est":9,"h3_10":"8a1e05a65d47fff","h3_11":"8b1e05a65d40fff"},"geometry":{"type":"Polygon","coordinates":[[[19.868554,49.996355],[19.868583,49.996274],[19.86881,49.996307],[19.868782,49.996388],[19.868554,49.996355]]]}},{"type":"Feature","id":"w974086336","properties":{"type":"house","residential":true,"residents_est":8,"h3_10":"8a1e05a65d47fff","h3_11":"8b1e05a65d40fff"},"geometry":{"type":"Polygon","coordinates":[[[19.86819,49.996299],[19.868219,49.996218],[19.868446,49.996251],[19.868417,49.996332],[19.86819,49.996299]]]}},{"type":"Feature","id":"w974086337","properties":{"type":"house","residential":true,"residents_est":8,"h3_10":"8a1e05a65d47fff","h3_11":"8b1e05a65d46fff"},"geometry":{"type":"Polygon","coordinates":[[[19.867828,49.996246],[19.867856,49.996165],[19.868084,49.996198],[19.868055,49.996279],[19.867828,49.996246]]]}},{"type":"Feature","id":"w974086338","properties":{"type":"house","residential":true,"residents_est":8,"h3_10":"8a1e05a65d47fff","h3_11":"8b1e05a65d46fff"},"geometry":{"type":"Polygon","coordinates":[[[19.86743,49.996144],[19.867663,49.996143],[19.867664,49.996224],[19.867431,49.996225],[19.86743,49.996144]]]}},{"type":"Feature","id":"w974086339","properties":{"type":"house","residential":true,"residents_est":8,"h3_10":"8a1e05a65d47fff","h3_11":"8b1e05a65d46fff"},"geometry":{"type":"Polygon","coordinates":[[[19.86749,49.996326],[19.867618,49.996326],[19.867618,49.996479],[19.86749,49.996479],[19.86749,49.996326]]]}},{"type":"Feature","id":"w974086340","properties":{"type":"house","residential":true,"residents_est":9,"h3_10":"8a1e05a65d77fff","h3_11":"8b1e05a65d71fff"},"geometry":{"type":"Polygon","coordinates":[[[19.867494,49.996535],[19.867621,49.996535],[19.867621,49.996688],[19.867494,49.996688],[19.867494,49.996535]]]}},{"type":"Feature","id":"w974086341","properties":{"type":"house","residential":true,"residents_est":8,"h3_10":"8a1e05a65d77fff","h3_11":"8b1e05a65d71fff"},"geometry":{"type":"Polygon","coordinates":[[[19.867498,49.996752],[19.867625,49.996752],[19.867625,49.996905],[19.867498,49.996905],[19.867498,49.996752]]]}},{"type":"Feature","id":"w974086342","properties":{"type":"house","address":"Księdza Franciszka Trockiego 64C","residential":true,"residents_est":7,"h3_10":"8a1e05a65d47fff","h3_11":"8b1e05a65d44fff"},"geometry":{"type":"Polygon","coordinates":[[[19.867878,49.996777],[19.86809,49.996781],[19.868091,49.996853],[19.867879,49.99686],[19.867878,49.996777]]]}},{"type":"Feature","id":"w974086343","properties":{"type":"house","residential":true,"residents_est":5,"h3_10":"8a1e05a65d47fff","h3_11":"8b1e05a65d45fff"},"geometry":{"type":"Polygon","coordinates":[[[19.868544,49.996552],[19.868677,49.996551],[19.868678,49.996629],[19.868665,49.996629],[19.868665,49.996623],[19.868629,49.996623],[19.868629,49.996629],[19.868544,49.99663],[19.868544,49.996552]]]}},{"type":"Feature","id":"w974086344","properties":{"type":"residential","address":"Księdza Franciszka Trockiego 67C","residential":true,"residents_est":18,"h3_10":"8a1e05a65d6ffff","h3_11":"8b1e05a65d6bfff"},"geometry":{"type":"Polygon","coordinates":[[[19.87026,49.996391],[19.87045,49.996389],[19.870453,49.996492],[19.870409,49.996493],[19.870409,49.996505],[19.870308,49.996506],[19.870307,49.996494],[19.870263,49.996494],[19.87026,49.996391]]]}},{"type":"Feature","id":"w974086345","properties":{"type":"residential","address":"Księdza Franciszka Trockiego 67D","residential":true,"residents_est":18,"h3_10":"8a1e05a65d4ffff","h3_11":"8b1e05a65d4dfff"},"geometry":{"type":"Polygon","coordinates":[[[19.870534,49.996388],[19.870724,49.996386],[19.870727,49.996489],[19.870683,49.99649],[19.870683,49.996502],[19.870581,49.996503],[19.870581,49.996491],[19.870537,49.996492],[19.870534,49.996388]]]}},{"type":"Feature","id":"w974086346","properties":{"type":"residential","address":"Księdza Franciszka Trockiego 67E","residential":true,"residents_est":18,"h3_10":"8a1e05a65d4ffff","h3_11":"8b1e05a65d4dfff"},"geometry":{"type":"Polygon","coordinates":[[[19.870803,49.996384],[19.870993,49.996382],[19.870996,49.996485],[19.870952,49.996486],[19.870952,49.996498],[19.87085,49.996499],[19.87085,49.996487],[19.870806,49.996488],[19.870803,49.996384]]]}},{"type":"Feature","id":"w974086348","properties":{"type":"residential","address":"Księdza Franciszka Trockiego 65D","residential":true,"residents_est":19,"h3_10":"8a1e05a65d6ffff","h3_11":"8b1e05a65d6bfff"},"geometry":{"type":"Polygon","coordinates":[[[19.87057,49.996712],[19.870658,49.996711],[19.870658,49.996723],[19.870698,49.996722],[19.870698,49.996708],[19.870789,49.996707],[19.870792,49.996807],[19.870573,49.99681],[19.87057,49.996712]]]}},{"type":"Feature","id":"w974086349","properties":{"type":"residential","address":"Księdza Franciszka Trockiego 60D","residential":true,"residents_est":17,"h3_10":"8a1e05a65d67fff","h3_11":"8b1e05a65d66fff"},"geometry":{"type":"Polygon","coordinates":[[[19.867385,49.997175],[19.867512,49.997174],[19.867515,49.997327],[19.867388,49.997328],[19.867385,49.997175]]]}},{"type":"Feature","id":"w974086350","properties":{"type":"detached","address":"Księdza Franciszka Trockiego 60C","residential":true,"residents_est":6,"h3_10":"8a1e05a65d67fff","h3_11":"8b1e05a65d62fff"},"geometry":{"type":"Polygon","coordinates":[[[19.867843,49.99718],[19.867998,49.997179],[19.867999,49.997265],[19.867845,49.997266],[19.867843,49.99718]]]}},{"type":"Feature","id":"w987771646","properties":{"type":"yes","residential":true,"residents_est":4,"h3_10":"8a1e05a65caffff","h3_11":"8b1e05a65ca8fff"},"geometry":{"type":"Polygon","coordinates":[[[19.864654,49.991825],[19.864833,49.991801],[19.864862,49.991892],[19.864682,49.991916],[19.864654,49.991825]]]}},{"type":"Feature","id":"w1034475418","properties":{"type":"garage","levels":1.0,"residential":false,"residents_est":0,"h3_10":"8a1e05a65c9ffff","h3_11":"8b1e05a65c98fff"},"geometry":{"type":"Polygon","coordinates":[[[19.864094,49.989947],[19.864133,49.989935],[19.864204,49.99003],[19.864128,49.990053],[19.864104,49.990014],[19.86413,49.990006],[19.864094,49.989947]]]}},{"type":"Feature","id":"w1034475419","properties":{"type":"outbuilding","levels":1.0,"residential":false,"residents_est":0,"h3_10":"8a1e05a65ce7fff","h3_11":"8b1e05a65ce6fff"},"geometry":{"type":"Polygon","coordinates":[[[19.8675,49.99243],[19.867694,49.992403],[19.867706,49.992439],[19.867513,49.992467],[19.8675,49.99243]]]}},{"type":"Feature","id":"w1162746679","properties":{"type":"house","address":"Księdza Franciszka Trockiego 61a","residential":true,"residents_est":10,"h3_10":"8a1e05a65d6ffff","h3_11":"8b1e05a65d6cfff"},"geometry":{"type":"Polygon","coordinates":[[[19.869794,49.997331],[19.870018,49.99733],[19.870021,49.997431],[19.869796,49.997432],[19.869794,49.997331]]]}},{"type":"Feature","id":"w1271248961","properties":{"type":"yes","address":"Księdza Franciszka Trockiego 65C","residential":true,"residents_est":5,"h3_10":"8a1e05a65d6ffff","h3_11":"8b1e05a65d6bfff"},"geometry":{"type":"Polygon","coordinates":[[[19.870269,49.996716],[19.870465,49.996713],[19.87047,49.99683],[19.870274,49.996833],[19.870269,49.996716]]]}},{"type":"Feature","id":"w1271248962","properties":{"type":"yes","address":"Księdza Franciszka Trockiego 65B","residential":true,"residents_est":5,"h3_10":"8a1e05a65d6ffff","h3_11":"8b1e05a65d6bfff"},"geometry":{"type":"Polygon","coordinates":[[[19.86999,49.996721],[19.870187,49.996718],[19.870192,49.996835],[19.869995,49.996838],[19.86999,49.996721]]]}},{"type":"Feature","id":"w1271248963","properties":{"type":"house","address":"Księdza Franciszka Trockiego 65","residential":true,"residents_est":9,"h3_10":"8a1e05a65d6ffff","h3_11":"8b1e05a65d6efff"},"geometry":{"type":"Polygon","coordinates":[[[19.869455,49.996896],[19.869489,49.996896],[19.869488,49.996863],[19.869465,49.996863],[19.869463,49.996811],[19.869616,49.996808],[19.869622,49.996937],[19.869457,49.99694],[19.869455,49.996896]]]}},{"type":"Feature","id":"w1271248964","properties":{"type":"yes","residential":true,"residents_est":5,"h3_10":"8a1e05a65d47fff","h3_11":"8b1e05a65d44fff"},"geometry":{"type":"Polygon","coordinates":[[[19.867819,49.996618],[19.867819,49.996518],[19.868064,49.996519],[19.868063,49.996618],[19.867819,49.996618]]]}},{"type":"Feature","id":"w1271248965","properties":{"type":"yes","residential":true,"residents_est":5,"h3_10":"8a1e05a65d47fff","h3_11":"8b1e05a65d44fff"},"geometry":{"type":"Polygon","coordinates":[[[19.868139,49.996618],[19.86814,49.996519],[19.868384,49.996519],[19.868383,49.996619],[19.868139,49.996618]]]}},{"type":"Feature","id":"w1271248966","properties":{"type":"house","address":"Księdza Franciszka Trockiego 64A","residential":true,"residents_est":10,"h3_10":"8a1e05a65d47fff","h3_11":"8b1e05a65d45fff"},"geometry":{"type":"Polygon","coordinates":[[[19.868567,49.996778],[19.868628,49.996778],[19.868628,49.996763],[19.868736,49.996762],[19.868736,49.996777],[19.868799,49.996777],[19.8688,49.996864],[19.868569,49.996866],[19.868567,49.996778]]]}},{"type":"Feature","id":"w1271248967","properties":{"type":"house","address":"Księdza Franciszka Trockiego 64","residential":true,"residents_est":8,"h3_10":"8a1e05a65d47fff","h3_11":"8b1e05a65d45fff"},"geometry":{"type":"Polygon","coordinates":[[[19.868927,49.996758],[19.869155,49.996761],[19.869157,49.996838],[19.868929,49.996846],[19.868927,49.996758]]]}},{"type":"Feature","id":"w1306042293","properties":{"type":"residential","address":"Mieczysława Wrony 76A","residential":true,"residents_est":15,"h3_10":"8a1e05a65c9ffff","h3_11":"8b1e05a65c98fff"},"geometry":{"type":"Polygon","coordinates":[[[19.863412,49.989991],[19.863521,49.989964],[19.863603,49.9901],[19.863495,49.990128],[19.863412,49.989991]]]}},{"type":"Feature","id":"w1341788636","properties":{"type":"house","address":"Księdza Franciszka Trockiego 60","residential":true,"residents_est":8,"h3_10":"8a1e05a65d67fff","h3_11":"8b1e05a65d61fff"},"geometry":{"type":"Polygon","coordinates":[[[19.868978,49.997176],[19.869152,49.997174],[19.869156,49.997278],[19.869119,49.997279],[19.869119,49.997287],[19.869017,49.997288],[19.869017,49.99728],[19.868982,49.99728],[19.868978,49.997176]]]}},{"type":"Feature","id":"w1341788637","properties":{"type":"yes","address":"Księdza Franciszka Trockiego 63","residential":true,"residents_est":4,"h3_10":"8a1e05a65d6ffff","h3_11":"8b1e05a65d6efff"},"geometry":{"type":"Polygon","coordinates":[[[19.869481,49.997064],[19.869661,49.997062],[19.869665,49.997169],[19.869627,49.997169],[19.869627,49.997179],[19.869526,49.99718],[19.869526,49.997171],[19.869485,49.997171],[19.869481,49.997064]]]}},{"type":"Feature","id":"w1341788638","properties":{"type":"house","address":"Księdza Franciszka Trockiego 63B","residential":true,"residents_est":9,"h3_10":"8a1e05a65d6ffff","h3_11":"8b1e05a65d68fff"},"geometry":{"type":"Polygon","coordinates":[[[19.870098,49.997076],[19.870337,49.997077],[19.870339,49.997159],[19.8701,49.997167],[19.870098,49.997076]]]}},{"type":"Feature","id":"w1341788639","properties":{"type":"residential","address":"Księdza Franciszka Trockiego 66","residential":true,"residents_est":11,"h3_10":"8a1e05a65d47fff","h3_11":"8b1e05a65d45fff"},"geometry":{"type":"Polygon","coordinates":[[[19.868918,49.99656],[19.869107,49.996558],[19.869108,49.996626],[19.868919,49.996628],[19.868918,49.99656]]]}},{"type":"Feature","id":"w1427355537","properties":{"type":"construction","address":"Franciszka Sapalskiego 35B","residential":false,"residents_est":0,"h3_10":"8a1e05a65ce7fff","h3_11":"8b1e05a65ce1fff"},"geometry":{"type":"Polygon","coordinates":[[[19.868446,49.992177],[19.868554,49.992168],[19.868568,49.992232],[19.86846,49.992242],[19.868446,49.992177]]]}},{"type":"Feature","id":"w1427355538","properties":{"type":"construction","address":"Franciszka Sapalskiego 35C","residential":false,"residents_est":0,"h3_10":"8a1e05a65ce7fff","h3_11":"8b1e05a65ce1fff"},"geometry":{"type":"Polygon","coordinates":[[[19.86846,49.992242],[19.868568,49.992232],[19.868582,49.992296],[19.868475,49.992306],[19.86846,49.992242]]]}},{"type":"Feature","id":"w1427355539","properties":{"type":"house","levels":2.0,"address":"Franciszka Sapalskiego 35L","residential":true,"residents_est":6,"h3_10":"8a1e05a65ce7fff","h3_11":"8b1e05a65ce1fff"},"geometry":{"type":"Polygon","coordinates":[[[19.868839,49.992211],[19.869023,49.992184],[19.869043,49.992263],[19.868858,49.992284],[19.868839,49.992211]]]}},{"type":"Feature","id":"w1427356091","properties":{"type":"construction","address":"Zagumnie 16B","residential":false,"residents_est":0,"h3_10":"8a1e05a65ccffff","h3_11":"8b1e05a65ccafff"},"geometry":{"type":"Polygon","coordinates":[[[19.869879,49.99052],[19.869983,49.990514],[19.869998,49.990607],[19.869906,49.990613],[19.869898,49.99056],[19.869885,49.990561],[19.869879,49.99052]]]}},{"type":"Feature","id":"w1436167698","properties":{"type":"construction","residential":false,"residents_est":0,"h3_10":"8a1e05a65c1ffff","h3_11":"8b1e05a65c19fff"},"geometry":{"type":"Polygon","coordinates":[[[19.867336,49.992566],[19.86749,49.992548],[19.867523,49.992668],[19.867383,49.992684],[19.867358,49.992595],[19.867345,49.992597],[19.867336,49.992566]]]}},{"type":"Feature","id":"w1436167705","properties":{"type":"yes","residential":true,"residents_est":5,"h3_10":"8a1e05a65cf7fff","h3_11":"8b1e05a65cf6fff"},"geometry":{"type":"Polygon","coordinates":[[[19.86616,49.991518],[19.866251,49.991515],[19.866247,49.991452],[19.866436,49.991446],[19.866441,49.991512],[19.866402,49.991513],[19.866406,49.991559],[19.866163,49.991566],[19.86616,49.991518]]]}},{"type":"Feature","id":"w1436167706","properties":{"type":"yes","residential":true,"residents_est":6,"h3_10":"8a1e05a65caffff","h3_11":"8b1e05a65ca9fff"},"geometry":{"type":"Polygon","coordinates":[[[19.865753,49.991765],[19.865919,49.991756],[19.86594,49.991911],[19.865774,49.99192],[19.865753,49.991765]]]}},{"type":"Feature","id":"w1509589233","properties":{"type":"yes","residential":true,"residents_est":6,"h3_10":"8a1e05a65c97fff","h3_11":"8b1e05a65c94fff"},"geometry":{"type":"Polygon","coordinates":[[[19.86159,49.990991],[19.861612,49.990885],[19.861858,49.990906],[19.861836,49.991013],[19.86159,49.990991]]]}},{"type":"Feature","id":"w1509589234","properties":{"type":"yes","residential":true,"residents_est":5,"h3_10":"8a1e05a65cb7fff","h3_11":"8b1e05a65cb2fff"},"geometry":{"type":"Polygon","coordinates":[[[19.861555,49.991208],[19.861568,49.991064],[19.861726,49.99107],[19.861713,49.991214],[19.861555,49.991208]]]}},{"type":"Feature","id":"w1509901564","properties":{"type":"yes","residential":true,"residents_est":3,"h3_10":"8a1e05a65c87fff","h3_11":"8b1e05a65c81fff"},"geometry":{"type":"Polygon","coordinates":[[[19.863875,49.99094],[19.863971,49.990933],[19.863975,49.990955],[19.863999,49.990954],[19.864009,49.991013],[19.863982,49.991015],[19.863985,49.991034],[19.863947,49.991036],[19.86395,49.991054],[19.863894,49.991058],[19.863875,49.99094]]]}},{"type":"Feature","id":"w1509901565","properties":{"type":"yes","residential":true,"residents_est":5,"h3_10":"8a1e05a65ca7fff","h3_11":"8b1e05a65ca3fff"},"geometry":{"type":"Polygon","coordinates":[[[19.863734,49.991956],[19.863752,49.991809],[19.863915,49.991818],[19.863897,49.991964],[19.863734,49.991956]]]}},{"type":"Feature","id":"w1509901568","properties":{"type":"yes","residential":true,"residents_est":3,"h3_10":"8a1e05a65c17fff","h3_11":"8b1e05a65c13fff"},"geometry":{"type":"Polygon","coordinates":[[[19.865057,49.992493],[19.865195,49.992484],[19.865207,49.99257],[19.865069,49.992579],[19.865057,49.992493]]]}},{"type":"Feature","id":"w1509901571","properties":{"type":"yes","levels":0.0,"residential":true,"residents_est":7,"h3_10":"8a1e05a65c37fff","h3_11":"8b1e05a65c34fff"},"geometry":{"type":"Polygon","coordinates":[[[19.863518,49.994455],[19.863982,49.994369],[19.864009,49.99443],[19.863543,49.994514],[19.863518,49.994455]]]}}]}