{"type":"FeatureCollection","features":[{"type":"Feature","id":"w133426602","properties":{"type":"yes","residential":false,"residents_est":0,"h3_10":"8a1e2e6f679ffff","h3_11":"8b1e2e6f679dfff"},"geometry":{"type":"Polygon","coordinates":[[[20.120908,50.055646],[20.120909,50.055599],[20.120997,50.055601],[20.120996,50.055628],[20.121025,50.055629],[20.121025,50.055648],[20.120908,50.055646]]]}},{"type":"Feature","id":"w133426610","properties":{"type":"yes","residential":true,"residents_est":3,"h3_10":"8a1e2e6f674ffff","h3_11":"8b1e2e6f674bfff"},"geometry":{"type":"Polygon","coordinates":[[[20.130387,50.058142],[20.130467,50.058132],[20.130492,50.058216],[20.130418,50.058227],[20.130387,50.058142]]]}},{"type":"Feature","id":"w133426619","properties":{"type":"yes","residential":true,"residents_est":4,"h3_10":"8a1e2e6f66dffff","h3_11":"8b1e2e6f66defff"},"geometry":{"type":"Polygon","coordinates":[[[20.127636,50.052711],[20.127752,50.052695],[20.127778,50.052774],[20.127695,50.052785],[20.127686,50.052758],[20.127652,50.052763],[20.127636,50.052711]]]}},{"type":"Feature","id":"w133426622","properties":{"type":"yes","address":"Kąkolowa 1","residential":true,"residents_est":4,"h3_10":"8a1e2e6f66d7fff","h3_11":"8b1e2e6f66d5fff"},"geometry":{"type":"Polygon","coordinates":[[[20.126874,50.053421],[20.12691,50.053415],[20.126904,50.053397],[20.126938,50.053391],[20.126945,50.053409],[20.127002,50.053399],[20.127027,50.053458],[20.126898,50.053481],[20.126874,50.053421]]]}},{"type":"Feature","id":"w133426639","properties":{"type":"yes","address":"Kąkolowa 6","residential":true,"residents_est":7,"h3_10":"8a1e2e6f668ffff","h3_11":"8b1e2e6f668bfff"},"geometry":{"type":"Polygon","coordinates":[[[20.124841,50.053154],[20.124845,50.053061],[20.124987,50.053064],[20.124982,50.053159],[20.124952,50.053158],[20.124951,50.053177],[20.1249,50.053176],[20.1249,50.053157],[20.124841,50.053154]]]}},{"type":"Feature","id":"w133426669","properties":{"type":"yes","address":"Kąkolowa 5","residential":true,"residents_est":9,"h3_10":"8a1e2e6f66effff","h3_11":"8b1e2e6f66eafff"},"geometry":{"type":"Polygon","coordinates":[[[20.128734,50.054087],[20.128977,50.054073],[20.128982,50.054111],[20.128946,50.054113],[20.128953,50.054156],[20.128888,50.054159],[20.128891,50.05418],[20.128855,50.054182],[20.128852,50.054161],[20.128745,50.054167],[20.128734,50.054087]]]}},{"type":"Feature","id":"w133426675","properties":{"type":"yes","address":"Branicka 4","residential":true,"residents_est":7,"h3_10":"8a1e2e6f675ffff","h3_11":"8b1e2e6f6758fff"},"geometry":{"type":"Polygon","coordinates":[[[20.128192,50.057905],[20.128333,50.057869],[20.128384,50.057948],[20.128283,50.057974],[20.128295,50.057994],[20.128256,50.058005],[20.128192,50.057905]]]}},{"type":"Feature","id":"w133426689","properties":{"type":"yes","address":"Branicka 17","residential":true,"residents_est":5,"h3_10":"8a1e2e6f661ffff","h3_11":"8b1e2e6f661efff"},"geometry":{"type":"Polygon","coordinates":[[[20.125242,50.055167],[20.125408,50.055164],[20.125412,50.055229],[20.125246,50.055234],[20.125242,50.055167]]]}},{"type":"Feature","id":"w133426697","properties":{"type":"house","residential":true,"residents_est":9,"h3_10":"8a1e2e6f6787fff","h3_11":"8b1e2e6f6783fff"},"geometry":{"type":"Polygon","coordinates":[[[20.120936,50.056233],[20.120951,50.056162],[20.12108,50.056172],[20.121065,50.056244],[20.120936,50.056233]]]}},{"type":"Feature","id":"w133426698","properties":{"type":"house","address":"Branicka 11","residential":true,"residents_est":16,"h3_10":"8a1e2e6f678ffff","h3_11":"8b1e2e6f678afff"},"geometry":{"type":"Polygon","coordinates":[[[20.121839,50.055619],[20.12187,50.055517],[20.122075,50.055545],[20.122064,50.05558],[20.122028,50.055575],[20.122022,50.055597],[20.12199,50.055593],[20.121976,50.055637],[20.121839,50.055619]]]}},{"type":"Feature","id":"w133426708","properties":{"type":"yes","address":"Branicka 29","residential":true,"residents_est":12,"h3_10":"8a1e2e6f674ffff","h3_11":"8b1e2e6f674efff"},"geometry":{"type":"Polygon","coordinates":[[[20.129234,50.058569],[20.129479,50.058514],[20.12953,50.058608],[20.129285,50.058663],[20.129234,50.058569]]]}},{"type":"Feature","id":"w133426709","properties":{"type":"yes","address":"Kąkolowa 3","residential":true,"residents_est":7,"h3_10":"8a1e2e6f66e7fff","h3_11":"8b1e2e6f66e2fff"},"geometry":{"type":"Polygon","coordinates":[[[20.127408,50.054543],[20.127557,50.054516],[20.127593,50.054599],[20.127546,50.054607],[20.127553,50.054623],[20.127516,50.054629],[20.12751,50.054614],[20.127444,50.054626],[20.127408,50.054543]]]}},{"type":"Feature","id":"w337834030","properties":{"type":"yes","residential":true,"residents_est":4,"h3_10":"8a1e2e6f661ffff","h3_11":"8b1e2e6f661efff"},"geometry":{"type":"Polygon","coordinates":[[[20.12543,50.055393],[20.125448,50.055327],[20.125561,50.055338],[20.125543,50.055405],[20.12543,50.055393]]]}},{"type":"Feature","id":"w337834044","properties":{"type":"detached","residential":true,"residents_est":9,"h3_10":"8a1e2e6f66affff","h3_11":"8b1e2e6f66acfff"},"geometry":{"type":"Polygon","coordinates":[[[20.123856,50.054858],[20.123992,50.054856],[20.123994,50.054918],[20.12396,50.054918],[20.123961,50.054929],[20.123915,50.054929],[20.123903,50.054937],[20.123882,50.054938],[20.123857,50.05493],[20.123856,50.054858]]]}},{"type":"Feature","id":"w337834045","properties":{"type":"yes","residential":true,"residents_est":4,"h3_10":"8a1e2e6f678ffff","h3_11":"8b1e2e6f678afff"},"geometry":{"type":"Polygon","coordinates":[[[20.122177,50.055671],[20.122205,50.055576],[20.122288,50.055588],[20.122258,50.055682],[20.122177,50.055671]]]}},{"type":"Feature","id":"w337834063","properties":{"type":"house","residential":true,"residents_est":15,"h3_10":"8a1e2e6f66a7fff","h3_11":"8b1e2e6f66a0fff"},"geometry":{"type":"Polygon","coordinates":[[[20.122769,50.054865],[20.122824,50.054864],[20.122837,50.054856],[20.122854,50.054856],[20.122867,50.054864],[20.122922,50.054863],[20.122922,50.054873],[20.122971,50.054872],[20.122973,50.054937],[20.122925,50.054938],[20.122924,50.054946],[20.122771,50.054948],[20.122769,50.054865]]]}},{"type":"Feature","id":"w337834065","properties":{"type":"yes","residential":true,"residents_est":7,"h3_10":"8a1e2e6f66affff","h3_11":"8b1e2e6f66adfff"},"geometry":{"type":"Polygon","coordinates":[[[20.124668,50.05484],[20.124857,50.054835],[20.124858,50.054844],[20.124876,50.054843],[20.124877,50.054848],[20.124868,50.054848],[20.124869,50.05487],[20.124878,50.05487],[20.124882,50.054902],[20.124798,50.054904],[20.124798,50.054914],[20.124674,50.054918],[20.124668,50.05484]]]}},{"type":"Feature","id":"w337834100","properties":{"type":"yes","residential":true,"residents_est":3,"h3_10":"8a1e2e6f6747fff","h3_11":"8b1e2e6f6743fff"},"geometry":{"type":"Polygon","coordinates":[[[20.128529,50.058508],[20.128597,50.058503],[20.128612,50.05859],[20.128543,50.058595],[20.128529,50.058508]]]}},{"type":"Feature","id":"w337834104","properties":{"type":"yes","residential":true,"residents_est":4,"h3_10":"8a1e2e6f66c7fff","h3_11":"8b1e2e6f66c4fff"},"geometry":{"type":"Polygon","coordinates":[[[20.127398,50.054201],[20.127522,50.054176],[20.127553,50.054239],[20.127429,50.054264],[20.127398,50.054201]]]}},{"type":"Feature","id":"w337834111","properties":{"type":"yes","residential":false,"residents_est":0,"h3_10":"8a1e2e6f668ffff","h3_11":"8b1e2e6f6688fff"},"geometry":{"type":"Polygon","coordinates":[[[20.124584,50.053345],[20.124677,50.053341],[20.12468,50.053388],[20.124587,50.053391],[20.124584,50.053345]]]}},{"type":"Feature","id":"w337834124","properties":{"type":"yes","residential":true,"residents_est":6,"h3_10":"8a1e2e6f660ffff","h3_11":"8b1e2e6f660cfff"},"geometry":{"type":"Polygon","coordinates":[[[20.126739,50.056412],[20.126879,50.056399],[20.126897,50.056482],[20.126842,50.056487],[20.126846,50.056505],[20.12681,50.056508],[20.126806,50.05649],[20.126758,50.056494],[20.126739,50.056412]]]}},{"type":"Feature","id":"w337834137","properties":{"type":"detached","residential":true,"residents_est":13,"h3_10":"8a1e2e6f662ffff","h3_11":"8b1e2e6f6628fff"},"geometry":{"type":"Polygon","coordinates":[[[20.126698,50.057074],[20.126851,50.057068],[20.126859,50.057156],[20.126707,50.057163],[20.126698,50.057074]]]}},{"type":"Feature","id":"w337834141","properties":{"type":"yes","residential":true,"residents_est":8,"h3_10":"8a1e2e6f6617fff","h3_11":"8b1e2e6f6612fff"},"geometry":{"type":"Polygon","coordinates":[[[20.123514,50.055179],[20.123518,50.055192],[20.123712,50.055189],[20.123715,50.055269],[20.123682,50.05527],[20.123684,50.055293],[20.123635,50.055294],[20.123633,50.05527],[20.123517,50.055273],[20.123514,50.055179]]]}},{"type":"Feature","id":"w337834146","properties":{"type":"yes","residential":true,"residents_est":7,"h3_10":"8a1e2e6f675ffff","h3_11":"8b1e2e6f675dfff"},"geometry":{"type":"Polygon","coordinates":[[[20.128483,50.058067],[20.128599,50.058038],[20.128668,50.058155],[20.128552,50.058184],[20.128483,50.058067]]]}},{"type":"Feature","id":"w337834163","properties":{"type":"bunker","residential":false,"residents_est":0,"h3_10":"8a1e2e6f6757fff","h3_11":"8b1e2e6f6752fff"},"geometry":{"type":"Polygon","coordinates":[[[20.126508,50.057852],[20.126597,50.057831],[20.126652,50.057926],[20.126559,50.057948],[20.126508,50.057852]]]}},{"type":"Feature","id":"w337834176","properties":{"type":"yes","residential":true,"residents_est":6,"h3_10":"8a1e2e6f665ffff","h3_11":"8b1e2e6f665cfff"},"geometry":{"type":"Polygon","coordinates":[[[20.130347,50.055643],[20.130367,50.055612],[20.130351,50.055607],[20.130364,50.055587],[20.130382,50.055592],[20.130405,50.05556],[20.130512,50.05559],[20.130485,50.055629],[20.130511,50.055636],[20.130494,50.055661],[20.130469,50.055654],[20.130455,50.055674],[20.130347,50.055643]]]}},{"type":"Feature","id":"w337834185","properties":{"type":"yes","residential":true,"residents_est":3,"h3_10":"8a1e2e6f662ffff","h3_11":"8b1e2e6f662efff"},"geometry":{"type":"Polygon","coordinates":[[[20.126456,50.057083],[20.126531,50.057071],[20.126558,50.057142],[20.126483,50.057154],[20.126456,50.057083]]]}},{"type":"Feature","id":"w337834187","properties":{"type":"yes","residential":true,"residents_est":3,"h3_10":"8a1e2e6f6617fff","h3_11":"8b1e2e6f6612fff"},"geometry":{"type":"Polygon","coordinates":[[[20.12402,50.055323],[20.124092,50.055321],[20.124098,50.055402],[20.124027,50.055403],[20.12402,50.055323]]]}},{"type":"Feature","id":"w337834190","properties":{"type":"yes","residential":true,"residents_est":3,"h3_10":"8a1e2e6f665ffff","h3_11":"8b1e2e6f665efff"},"geometry":{"type":"Polygon","coordinates":[[[20.130244,50.0555],[20.130283,50.05545],[20.130371,50.05548],[20.130332,50.055529],[20.130244,50.0555]]]}},{"type":"Feature","id":"w337834222","properties":{"type":"yes","residential":true,"residents_est":5,"h3_10":"8a1e2e6f662ffff","h3_11":"8b1e2e6f662efff"},"geometry":{"type":"Polygon","coordinates":[[[20.126586,50.057193],[20.126756,50.057181],[20.126766,50.057244],[20.126597,50.057256],[20.126586,50.057193]]]}},{"type":"Feature","id":"w337834223","properties":{"type":"yes","residential":true,"residents_est":7,"h3_10":"8a1e2e6f66effff","h3_11":"8b1e2e6f66eafff"},"geometry":{"type":"Polygon","coordinates":[[[20.129021,50.054144],[20.129132,50.05414],[20.129146,50.054278],[20.129034,50.054283],[20.129021,50.054144]]]}},{"type":"Feature","id":"w337834227","properties":{"type":"yes","residential":true,"residents_est":6,"h3_10":"8a1e2e6f6617fff","h3_11":"8b1e2e6f6612fff"},"geometry":{"type":"Polygon","coordinates":[[[20.123812,50.05538],[20.124,50.055376],[20.124008,50.055445],[20.123816,50.055448],[20.123812,50.05538]]]}},{"type":"Feature","id":"w337834236","properties":{"type":"yes","residential":true,"residents_est":4,"h3_10":"8a1e2e6f674ffff","h3_11":"8b1e2e6f674bfff"},"geometry":{"type":"Polygon","coordinates":[[[20.13032,50.058429],[20.130325,50.058378],[20.130503,50.058385],[20.130498,50.058436],[20.13032,50.058429]]]}},{"type":"Feature","id":"w337834303","properties":{"type":"yes","residential":true,"residents_est":6,"h3_10":"8a1e2e6f6617fff","h3_11":"8b1e2e6f6612fff"},"geometry":{"type":"Polygon","coordinates":[[[20.123885,50.055185],[20.124027,50.055183],[20.124028,50.055215],[20.124068,50.055214],[20.124069,50.055245],[20.124031,50.055246],[20.124032,50.055265],[20.123888,50.055267],[20.123885,50.055185]]]}},{"type":"Feature","id":"w337834309","properties":{"type":"yes","residential":true,"residents_est":4,"h3_10":"8a1e2e6f66affff","h3_11":"8b1e2e6f66abfff"},"geometry":{"type":"Polygon","coordinates":[[[20.124831,50.054131],[20.124988,50.054121],[20.124998,50.054178],[20.124841,50.054189],[20.124831,50.054131]]]}},{"type":"Feature","id":"w337834327","properties":{"type":"garage","residential":false,"residents_est":0,"h3_10":"8a1e2e6f66affff","h3_11":"8b1e2e6f66acfff"},"geometry":{"type":"Polygon","coordinates":[[[20.124297,50.054809],[20.124468,50.054807],[20.124471,50.054863],[20.124299,50.054865],[20.124297,50.054809]]]}},{"type":"Feature","id":"w337834335","properties":{"type":"yes","residential":true,"residents_est":5,"h3_10":"8a1e2e6f66affff","h3_11":"8b1e2e6f66a8fff"},"geometry":{"type":"Polygon","coordinates":[[[20.124693,50.054599],[20.124697,50.0545],[20.124796,50.0545],[20.124792,50.0546],[20.124693,50.054599]]]}},{"type":"Feature","id":"w337834336","properties":{"type":"yes","residential":true,"residents_est":3,"h3_10":"8a1e2e6f662ffff","h3_11":"8b1e2e6f662efff"},"geometry":{"type":"Polygon","coordinates":[[[20.12656,50.056973],[20.126697,50.056956],[20.126714,50.05701],[20.126578,50.057027],[20.12656,50.056973]]]}},{"type":"Feature","id":"w337834370","properties":{"type":"yes","residential":true,"residents_est":4,"h3_10":"8a1e2e6f66affff","h3_11":"8b1e2e6f66a9fff"},"geometry":{"type":"Polygon","coordinates":[[[20.124947,50.054468],[20.125101,50.054465],[20.125104,50.054526],[20.124951,50.05453],[20.124947,50.054468]]]}},{"type":"Feature","id":"w337834380","properties":{"type":"yes","residential":true,"residents_est":5,"h3_10":"8a1e2e6f6617fff","h3_11":"8b1e2e6f6612fff"},"geometry":{"type":"Polygon","coordinates":[[[20.123507,50.055295],[20.123518,50.055294],[20.123517,50.055273],[20.123578,50.055272],[20.12358,50.055351],[20.123591,50.055351],[20.123592,50.055427],[20.123576,50.055428],[20.123577,50.055419],[20.12351,50.055418],[20.123507,50.055295]]]}},{"type":"Feature","id":"w337834413","properties":{"type":"yes","residential":true,"residents_est":4,"h3_10":"8a1e2e6f66effff","h3_11":"8b1e2e6f66ecfff"},"geometry":{"type":"Polygon","coordinates":[[[20.12906,50.054815],[20.129131,50.054773],[20.129179,50.054806],[20.129242,50.05477],[20.129261,50.054783],[20.129126,50.054863],[20.12906,50.054815]]]}},{"type":"Feature","id":"w337834441","properties":{"type":"yes","residential":true,"residents_est":6,"h3_10":"8a1e2e6f66e7fff","h3_11":"8b1e2e6f66e3fff"},"geometry":{"type":"Polygon","coordinates":[[[20.127695,50.054569],[20.127803,50.05455],[20.127847,50.054655],[20.127723,50.054678],[20.127704,50.054635],[20.127722,50.054631],[20.127695,50.054569]]]}},{"type":"Feature","id":"w337834462","properties":{"type":"yes","residential":true,"residents_est":5,"h3_10":"8a1e2e6f675ffff","h3_11":"8b1e2e6f675cfff"},"geometry":{"type":"Polygon","coordinates":[[[20.128193,50.058095],[20.128296,50.058067],[20.128334,50.058126],[20.128296,50.058136],[20.128323,50.058177],[20.128257,50.058195],[20.128193,50.058095]]]}},{"type":"Feature","id":"w337834487","properties":{"type":"yes","residential":true,"residents_est":5,"h3_10":"8a1e2e6f67a7fff","h3_11":"8b1e2e6f67a6fff"},"geometry":{"type":"Polygon","coordinates":[[[20.119726,50.057306],[20.119855,50.057302],[20.119862,50.057379],[20.119731,50.057384],[20.119726,50.057306]]]}},{"type":"Feature","id":"w337834512","properties":{"type":"yes","residential":true,"residents_est":6,"h3_10":"8a1e2e6f668ffff","h3_11":"8b1e2e6f6688fff"},"geometry":{"type":"Polygon","coordinates":[[[20.124783,50.053292],[20.124788,50.05329],[20.124793,50.053226],[20.124982,50.053232],[20.124976,50.053299],[20.124783,50.053292]]]}},{"type":"Feature","id":"w337834516","properties":{"type":"yes","residential":true,"residents_est":3,"h3_10":"8a1e2e6f67a7fff","h3_11":"8b1e2e6f67a6fff"},"geometry":{"type":"Polygon","coordinates":[[[20.119439,50.057322],[20.119515,50.057321],[20.119517,50.057335],[20.119506,50.057336],[20.119511,50.057411],[20.119443,50.057412],[20.119439,50.057322]]]}},{"type":"Feature","id":"w337834528","properties":{"type":"yes","residential":true,"residents_est":4,"h3_10":"8a1e2e6f6617fff","h3_11":"8b1e2e6f6612fff"},"geometry":{"type":"Polygon","coordinates":[[[20.123612,50.055379],[20.123762,50.05538],[20.123763,50.055445],[20.123695,50.055446],[20.123695,50.055427],[20.123615,50.055428],[20.123612,50.055379]]]}},{"type":"Feature","id":"w337834536","properties":{"type":"yes","residential":true,"residents_est":8,"h3_10":"8a1e2e6f668ffff","h3_11":"8b1e2e6f668dfff"},"geometry":{"type":"Polygon","coordinates":[[[20.124853,50.053913],[20.125046,50.053908],[20.125051,50.053997],[20.124858,50.054003],[20.124853,50.053913]]]}},{"type":"Feature","id":"w337834539","properties":{"type":"yes","residential":true,"residents_est":7,"h3_10":"8a1e2e6f674ffff","h3_11":"8b1e2e6f6749fff"},"geometry":{"type":"Polygon","coordinates":[[[20.130547,50.058438],[20.130551,50.058359],[20.13062,50.058362],[20.130622,50.058344],[20.130661,50.058346],[20.13066,50.058363],[20.130737,50.058366],[20.13073,50.058444],[20.130547,50.058438]]]}},{"type":"Feature","id":"w337834555","properties":{"type":"yes","residential":true,"residents_est":5,"h3_10":"8a1e2e6f66c7fff","h3_11":"8b1e2e6f66c0fff"},"geometry":{"type":"Polygon","coordinates":[[[20.128015,50.053659],[20.128113,50.053643],[20.128131,50.053691],[20.128152,50.053687],[20.128163,50.053716],[20.128142,50.05372],[20.12815,50.053741],[20.128053,50.053756],[20.128015,50.053659]]]}},{"type":"Feature","id":"w337834570","properties":{"type":"yes","residential":true,"residents_est":6,"h3_10":"8a1e2e6f662ffff","h3_11":"8b1e2e6f662afff"},"geometry":{"type":"Polygon","coordinates":[[[20.126683,50.056606],[20.126836,50.05659],[20.126856,50.056674],[20.126702,50.056689],[20.126683,50.056606]]]}},{"type":"Feature","id":"w337834592","properties":{"type":"yes","residential":true,"residents_est":3,"h3_10":"8a1e2e6f66effff","h3_11":"8b1e2e6f66e8fff"},"geometry":{"type":"Polygon","coordinates":[[[20.129058,50.054651],[20.129126,50.054626],[20.129192,50.054701],[20.129124,50.054726],[20.129097,50.054695],[20.129079,50.054702],[20.129061,50.054682],[20.129079,50.054675],[20.129058,50.054651]]]}},{"type":"Feature","id":"w337834608","properties":{"type":"yes","residential":true,"residents_est":4,"h3_10":"8a1e2e6f66affff","h3_11":"8b1e2e6f66abfff"},"geometry":{"type":"Polygon","coordinates":[[[20.124665,50.054144],[20.124805,50.054138],[20.124811,50.054192],[20.124671,50.054199],[20.124665,50.054144]]]}},{"type":"Feature","id":"w401314189","properties":{"type":"yes","residential":false,"residents_est":0,"h3_10":"8a1e2e6f674ffff","h3_11":"8b1e2e6f674dfff"},"geometry":{"type":"Polygon","coordinates":[[[20.130065,50.059065],[20.130069,50.059028],[20.130169,50.059032],[20.130166,50.059069],[20.130065,50.059065]]]}},{"type":"Feature","id":"w462234686","properties":{"type":"garage","residential":false,"residents_est":0,"h3_10":"8a1e2e6f66c7fff","h3_11":"8b1e2e6f66c4fff"},"geometry":{"type":"Polygon","coordinates":[[[20.127582,50.054178],[20.127632,50.054167],[20.127662,50.054225],[20.127612,50.054236],[20.127582,50.054178]]]}},{"type":"Feature","id":"w462428561","properties":{"type":"yes","residential":true,"residents_est":4,"h3_10":"8a1e2e6f67b7fff","h3_11":"8b1e2e6f67b4fff"},"geometry":{"type":"Polygon","coordinates":[[[20.118133,50.057151],[20.118161,50.057075],[20.118264,50.057091],[20.118236,50.057167],[20.118133,50.057151]]]}},{"type":"Feature","id":"w462428562","properties":{"type":"yes","residential":false,"residents_est":0,"h3_10":"8a1e2e6f675ffff","h3_11":"8b1e2e6f6759fff"},"geometry":{"type":"Polygon","coordinates":[[[20.129219,50.057702],[20.129259,50.057696],[20.129282,50.057764],[20.129241,50.057769],[20.129219,50.057702]]]}},{"type":"Feature","id":"w462428564","properties":{"type":"yes","residential":true,"residents_est":6,"h3_10":"8a1e2e6f675ffff","h3_11":"8b1e2e6f6759fff"},"geometry":{"type":"Polygon","coordinates":[[[20.12935,50.057924],[20.129471,50.057907],[20.129484,50.057948],[20.129475,50.057949],[20.129497,50.058016],[20.129393,50.05803],[20.129384,50.058004],[20.129376,50.058005],[20.12935,50.057924]]]}},{"type":"Feature","id":"w462428565","properties":{"type":"yes","residential":true,"residents_est":5,"h3_10":"8a1e2e6f6667fff","h3_11":"8b1e2e6f6662fff"},"geometry":{"type":"Polygon","coordinates":[[[20.129511,50.057183],[20.129621,50.057168],[20.129648,50.057256],[20.129539,50.057271],[20.129511,50.057183]]]}},{"type":"Feature","id":"w462428566","properties":{"type":"house","residential":true,"residents_est":19,"h3_10":"8a1e2e6f67a7fff","h3_11":"8b1e2e6f67a3fff"},"geometry":{"type":"Polygon","coordinates":[[[20.120225,50.057022],[20.120226,50.057001],[20.120247,50.056988],[20.120247,50.056961],[20.120293,50.056961],[20.120294,50.056949],[20.120343,50.05695],[20.120343,50.056961],[20.120386,50.056961],[20.120385,50.057006],[20.120407,50.057006],[20.120406,50.057065],[20.120385,50.057065],[20.120384,50.057097],[20.120284,50.057096],[20.120285,50.057064],[20.120245,50.057064],[20.120246,50.057036],[20.120225,50.057022]]]}},{"type":"Feature","id":"w722622757","properties":{"type":"yes","residential":false,"residents_est":0,"h3_10":"8a1e2e6f662ffff","h3_11":"8b1e2e6f662afff"},"geometry":{"type":"Polygon","coordinates":[[[20.126452,50.056633],[20.126527,50.056625],[20.12654,50.056677],[20.126465,50.056685],[20.126452,50.056633]]]}},{"type":"Feature","id":"w722622758","properties":{"type":"yes","residential":false,"residents_est":0,"h3_10":"8a1e2e6f6607fff","h3_11":"8b1e2e6f6601fff"},"geometry":{"type":"Polygon","coordinates":[[[20.126527,50.056477],[20.126627,50.056463],[20.126642,50.056506],[20.126541,50.05652],[20.126527,50.056477]]]}},{"type":"Feature","id":"w722622760","properties":{"type":"yes","residential":false,"residents_est":0,"h3_10":"8a1e2e6f675ffff","h3_11":"8b1e2e6f675cfff"},"geometry":{"type":"Polygon","coordinates":[[[20.128301,50.058219],[20.128346,50.058199],[20.128371,50.058222],[20.128395,50.058211],[20.128426,50.05824],[20.128402,50.05825],[20.128394,50.058242],[20.128348,50.058263],[20.128301,50.058219]]]}},{"type":"Feature","id":"w722622761","properties":{"type":"yes","residential":false,"residents_est":0,"h3_10":"8a1e2e6f674ffff","h3_11":"8b1e2e6f674cfff"},"geometry":{"type":"Polygon","coordinates":[[[20.12938,50.058805],[20.129417,50.058788],[20.129485,50.058851],[20.129451,50.058866],[20.12938,50.058805]]]}},{"type":"Feature","id":"w722622762","properties":{"type":"yes","residential":true,"residents_est":12,"h3_10":"8a1e2e6f6677fff","h3_11":"8b1e2e6f6675fff"},"geometry":{"type":"Polygon","coordinates":[[[20.129127,50.057127],[20.129291,50.057107],[20.129341,50.05727],[20.129218,50.057286],[20.129206,50.057249],[20.129165,50.057254],[20.129127,50.057127]]]}},{"type":"Feature","id":"w722988747","properties":{"type":"yes","residential":true,"residents_est":4,"h3_10":"8a1e2e6f6617fff","h3_11":"8b1e2e6f6613fff"},"geometry":{"type":"Polygon","coordinates":[[[20.124092,50.055321],[20.124201,50.055319],[20.124212,50.055399],[20.124098,50.055402],[20.124092,50.055321]]]}},{"type":"Feature","id":"w722988750","properties":{"type":"yes","residential":false,"residents_est":0,"h3_10":"8a1e2e6f661ffff","h3_11":"8b1e2e6f661efff"},"geometry":{"type":"Polygon","coordinates":[[[20.125448,50.055327],[20.125459,50.055285],[20.125572,50.055298],[20.125561,50.055338],[20.125448,50.055327]]]}},{"type":"Feature","id":"w722988751","properties":{"type":"yes","residential":false,"residents_est":0,"h3_10":"8a1e2e6f66affff","h3_11":"8b1e2e6f66a9fff"},"geometry":{"type":"Polygon","coordinates":[[[20.124839,50.054692],[20.124839,50.054636],[20.124893,50.054636],[20.124892,50.054692],[20.124839,50.054692]]]}},{"type":"Feature","id":"w722988754","properties":{"type":"yes","residential":false,"residents_est":0,"h3_10":"8a1e2e6f66affff","h3_11":"8b1e2e6f66a9fff"},"geometry":{"type":"Polygon","coordinates":[[[20.124912,50.054469],[20.124947,50.054468],[20.124951,50.05453],[20.124917,50.054531],[20.124912,50.054469]]]}},{"type":"Feature","id":"w722988755","properties":{"type":"yes","residential":false,"residents_est":0,"h3_10":"8a1e2e6f66affff","h3_11":"8b1e2e6f66a9fff"},"geometry":{"type":"Polygon","coordinates":[[[20.12483,50.054434],[20.124831,50.054398],[20.124914,50.054399],[20.124913,50.054435],[20.12483,50.054434]]]}},{"type":"Feature","id":"w722988756","properties":{"type":"yes","residential":true,"residents_est":3,"h3_10":"8a1e2e6f66affff","h3_11":"8b1e2e6f66abfff"},"geometry":{"type":"Polygon","coordinates":[[[20.124478,50.054147],[20.124602,50.054144],[20.124605,50.0542],[20.124481,50.054203],[20.124478,50.054147]]]}},{"type":"Feature","id":"w722988757","properties":{"type":"yes","residential":false,"residents_est":0,"h3_10":"8a1e2e6f66affff","h3_11":"8b1e2e6f66abfff"},"geometry":{"type":"Polygon","coordinates":[[[20.124602,50.054144],[20.124647,50.054142],[20.124651,50.054199],[20.124605,50.0542],[20.124602,50.054144]]]}},{"type":"Feature","id":"w722988758","properties":{"type":"yes","residential":false,"residents_est":0,"h3_10":"8a1e2e6f66affff","h3_11":"8b1e2e6f66abfff"},"geometry":{"type":"Polygon","coordinates":[[[20.124652,50.054054],[20.124704,50.054051],[20.124714,50.054142],[20.124665,50.054144],[20.124652,50.054054]]]}},{"type":"Feature","id":"w722988759","properties":{"type":"yes","residential":true,"residents_est":4,"h3_10":"8a1e2e6f66affff","h3_11":"8b1e2e6f66abfff"},"geometry":{"type":"Polygon","coordinates":[[[20.124704,50.054051],[20.124794,50.054047],[20.124805,50.054138],[20.124714,50.054142],[20.124704,50.054051]]]}},{"type":"Feature","id":"w722988760","properties":{"type":"yes","residential":true,"residents_est":3,"h3_10":"8a1e2e6f66affff","h3_11":"8b1e2e6f66abfff"},"geometry":{"type":"Polygon","coordinates":[[[20.124783,50.053914],[20.124853,50.053913],[20.124857,50.053991],[20.124788,50.053992],[20.124783,50.053914]]]}},{"type":"Feature","id":"w722988761","properties":{"type":"yes","residential":false,"residents_est":0,"h3_10":"8a1e2e6f668ffff","h3_11":"8b1e2e6f6688fff"},"geometry":{"type":"Polygon","coordinates":[[[20.124498,50.053348],[20.124584,50.053345],[20.124587,50.053391],[20.124501,50.053394],[20.124498,50.053348]]]}},{"type":"Feature","id":"w722988763","properties":{"type":"yes","residential":true,"residents_est":4,"h3_10":"8a1e2e6f668ffff","h3_11":"8b1e2e6f668afff"},"geometry":{"type":"Polygon","coordinates":[[[20.12458,50.053237],[20.124688,50.053234],[20.124689,50.053282],[20.124583,50.053285],[20.12458,50.053237]]]}},{"type":"Feature","id":"w722988765","properties":{"type":"yes","residential":false,"residents_est":0,"h3_10":"8a1e2e6f668ffff","h3_11":"8b1e2e6f6688fff"},"geometry":{"type":"Polygon","coordinates":[[[20.124781,50.053226],[20.124783,50.053194],[20.12486,50.053197],[20.124858,50.053228],[20.124781,50.053226]]]}},{"type":"Feature","id":"w722988767","properties":{"type":"yes","residential":true,"residents_est":3,"h3_10":"8a1e2e6f668ffff","h3_11":"8b1e2e6f6688fff"},"geometry":{"type":"Polygon","coordinates":[[[20.124852,50.053355],[20.124857,50.053294],[20.124976,50.053299],[20.124971,50.053359],[20.124852,50.053355]]]}},{"type":"Feature","id":"w722988825","properties":{"type":"yes","residential":false,"residents_est":0,"h3_10":"8a1e2e6f66d7fff","h3_11":"8b1e2e6f66d5fff"},"geometry":{"type":"Polygon","coordinates":[[[20.127004,50.053403],[20.127085,50.053389],[20.127107,50.053444],[20.127027,50.053458],[20.127004,50.053403]]]}},{"type":"Feature","id":"w722988827","properties":{"type":"yes","residential":false,"residents_est":0,"h3_10":"8a1e2e6f66effff","h3_11":"8b1e2e6f66ecfff"},"geometry":{"type":"Polygon","coordinates":[[[20.129131,50.054773],[20.129194,50.054736],[20.129242,50.05477],[20.129179,50.054806],[20.129131,50.054773]]]}},{"type":"Feature","id":"w722988828","properties":{"type":"yes","residential":true,"residents_est":7,"h3_10":"8a1e2e6f6657fff","h3_11":"8b1e2e6f6651fff"},"geometry":{"type":"Polygon","coordinates":[[[20.130061,50.055582],[20.130136,50.055478],[20.130246,50.055511],[20.130172,50.055615],[20.130061,50.055582]]]}},{"type":"Feature","id":"w723489794","properties":{"type":"yes","residential":true,"residents_est":5,"h3_10":"8a1e2e6f6797fff","h3_11":"8b1e2e6f6796fff"},"geometry":{"type":"Polygon","coordinates":[[[20.118653,50.055522],[20.118684,50.055443],[20.11869,50.055444],[20.118686,50.055455],[20.118811,50.055475],[20.118815,50.055464],[20.118821,50.055465],[20.118786,50.055555],[20.118739,50.055547],[20.118743,50.055537],[20.118653,50.055522]]]}},{"type":"Feature","id":"w723489795","properties":{"type":"yes","residential":true,"residents_est":6,"h3_10":"8a1e2e6f6797fff","h3_11":"8b1e2e6f6794fff"},"geometry":{"type":"Polygon","coordinates":[[[20.118473,50.055979],[20.11851,50.055886],[20.118638,50.055906],[20.118601,50.056],[20.118473,50.055979]]]}},{"type":"Feature","id":"w723489819","properties":{"type":"yes","residential":false,"residents_est":0,"h3_10":"8a1e2e6f67a7fff","h3_11":"8b1e2e6f67a0fff"},"geometry":{"type":"Polygon","coordinates":[[[20.119967,50.057299],[20.120014,50.057297],[20.120019,50.057373],[20.119972,50.057375],[20.119967,50.057299]]]}},{"type":"Feature","id":"w723489820","properties":{"type":"yes","residential":true,"residents_est":4,"h3_10":"8a1e2e6f67a7fff","h3_11":"8b1e2e6f67a2fff"},"geometry":{"type":"Polygon","coordinates":[[[20.119855,50.057302],[20.119967,50.057299],[20.119972,50.057375],[20.119862,50.057379],[20.119855,50.057302]]]}},{"type":"Feature","id":"w723489821","properties":{"type":"yes","residential":true,"residents_est":5,"h3_10":"8a1e2e6f67a7fff","h3_11":"8b1e2e6f67a6fff"},"geometry":{"type":"Polygon","coordinates":[[[20.119597,50.057311],[20.119726,50.057306],[20.119731,50.057384],[20.119603,50.057389],[20.119597,50.057311]]]}},{"type":"Feature","id":"w723489822","properties":{"type":"yes","residential":false,"residents_est":0,"h3_10":"8a1e2e6f67a7fff","h3_11":"8b1e2e6f67a0fff"},"geometry":{"type":"Polygon","coordinates":[[[20.120202,50.057312],[20.120308,50.057311],[20.120309,50.05735],[20.120203,50.057351],[20.120202,50.057312]]]}},{"type":"Feature","id":"w723489823","properties":{"type":"yes","residential":true,"residents_est":3,"h3_10":"8a1e2e6f6787fff","h3_11":"8b1e2e6f6780fff"},"geometry":{"type":"Polygon","coordinates":[[[20.120736,50.056266],[20.120751,50.056194],[20.12082,50.056199],[20.120816,50.056226],[20.120831,50.056227],[20.120824,50.056271],[20.120736,50.056266]]]}},{"type":"Feature","id":"w723489824","properties":{"type":"detached","residential":true,"residents_est":11,"h3_10":"8a1e2e6f679ffff","h3_11":"8b1e2e6f679cfff"},"geometry":{"type":"Polygon","coordinates":[[[20.120363,50.055833],[20.120369,50.055754],[20.120515,50.055757],[20.120514,50.055783],[20.120522,50.055783],[20.12052,50.055813],[20.120511,50.055812],[20.12051,50.055838],[20.120363,50.055833]]]}},{"type":"Feature","id":"w723489827","properties":{"type":"yes","residential":false,"residents_est":0,"h3_10":"8a1e2e6f66dffff","h3_11":"8b1e2e6f66defff"},"geometry":{"type":"Polygon","coordinates":[[[20.12747,50.05265],[20.127547,50.052635],[20.127563,50.052668],[20.127486,50.052683],[20.12747,50.05265]]]}},{"type":"Feature","id":"w723489828","properties":{"type":"yes","residential":false,"residents_est":0,"h3_10":"8a1e2e6f66dffff","h3_11":"8b1e2e6f66defff"},"geometry":{"type":"Polygon","coordinates":[[[20.127605,50.052917],[20.127736,50.052892],[20.12775,50.052922],[20.127619,50.052947],[20.127605,50.052917]]]}},{"type":"Feature","id":"w723489829","properties":{"type":"yes","residential":false,"residents_est":0,"h3_10":"8a1e2e6f66c7fff","h3_11":"8b1e2e6f66c0fff"},"geometry":{"type":"Polygon","coordinates":[[[20.128177,50.053748],[20.128226,50.053739],[20.128248,50.053787],[20.128199,50.053796],[20.128177,50.053748]]]}},{"type":"Feature","id":"w723489831","properties":{"type":"yes","residential":false,"residents_est":0,"h3_10":"8a1e2e6f66c7fff","h3_11":"8b1e2e6f66c2fff"},"geometry":{"type":"Polygon","coordinates":[[[20.127838,50.053529],[20.127902,50.053519],[20.127921,50.053568],[20.127858,50.053579],[20.127838,50.053529]]]}},{"type":"Feature","id":"w723489832","properties":{"type":"yes","residential":false,"residents_est":0,"h3_10":"8a1e2e6f66dffff","h3_11":"8b1e2e6f66dcfff"},"geometry":{"type":"Polygon","coordinates":[[[20.127879,50.053098],[20.127944,50.053086],[20.127963,50.053127],[20.127899,50.05314],[20.127879,50.053098]]]}},{"type":"Feature","id":"w723489833","properties":{"type":"yes","residential":true,"residents_est":2,"h3_10":"8a1e2e6f66dffff","h3_11":"8b1e2e6f66dcfff"},"geometry":{"type":"Polygon","coordinates":[[[20.127722,50.053219],[20.127788,50.05321],[20.127815,50.053285],[20.127749,50.053295],[20.127722,50.053219]]]}},{"type":"Feature","id":"w1047643371","properties":{"type":"detached","levels":2.0,"residential":true,"residents_est":10,"h3_10":"8a1e2e6f6797fff","h3_11":"8b1e2e6f6796fff"},"geometry":{"type":"Polygon","coordinates":[[[20.11857,50.055763],[20.118581,50.055737],[20.118573,50.055736],[20.118582,50.055712],[20.118591,50.055713],[20.118603,50.055683],[20.118721,50.055703],[20.118689,50.055783],[20.11857,50.055763]]]}},{"type":"Feature","id":"w1047643372","properties":{"type":"detached","levels":2.0,"residential":true,"residents_est":14,"h3_10":"8a1e2e6f67b7fff","h3_11":"8b1e2e6f67b2fff"},"geometry":{"type":"Polygon","coordinates":[[[20.118381,50.056239],[20.118393,50.05621],[20.118384,50.056208],[20.118418,50.056125],[20.118542,50.056145],[20.118509,50.056229],[20.118502,50.056228],[20.11849,50.056257],[20.118381,50.056239]]]}},{"type":"Feature","id":"w1047643375","properties":{"type":"detached","levels":2.0,"residential":true,"residents_est":14,"h3_10":"8a1e2e6f6667fff","h3_11":"8b1e2e6f6666fff"},"geometry":{"type":"Polygon","coordinates":[[[20.129218,50.057495],[20.129328,50.05748],[20.129371,50.057612],[20.129261,50.057627],[20.129218,50.057495]]]}},{"type":"Feature","id":"w1047643376","properties":{"type":"detached","levels":2.0,"residential":true,"residents_est":13,"h3_10":"8a1e2e6f67b7fff","h3_11":"8b1e2e6f67b6fff"},"geometry":{"type":"Polygon","coordinates":[[[20.118208,50.056655],[20.118218,50.056627],[20.118234,50.056621],[20.118241,50.056602],[20.118232,50.056593],[20.118242,50.056566],[20.118363,50.056585],[20.118329,50.056674],[20.118311,50.056671],[20.118299,50.056703],[20.118214,50.056689],[20.118226,50.056657],[20.118208,50.056655]]]}},{"type":"Feature","id":"w1289743515","properties":{"type":"yes","address":"Kąkolowa 6cb","residential":true,"residents_est":11,"h3_10":"8a1e2e6f669ffff","h3_11":"8b1e2e6f6699fff"},"geometry":{"type":"Polygon","coordinates":[[[20.123695,50.05264],[20.123708,50.052544],[20.123951,50.052558],[20.123937,50.052654],[20.123695,50.05264]]]}},{"type":"Feature","id":"w1289743516","properties":{"type":"yes","address":"Kąkolowa 6cc","residential":true,"residents_est":11,"h3_10":"8a1e2e6f669ffff","h3_11":"8b1e2e6f6698fff"},"geometry":{"type":"Polygon","coordinates":[[[20.123306,50.052589],[20.12332,50.052494],[20.123562,50.052508],[20.123549,50.052603],[20.123306,50.052589]]]}},{"type":"Feature","id":"w1289743517","properties":{"type":"yes","address":"Kąkolowa 6cd","residential":true,"residents_est":11,"h3_10":"8a1e2e6f669ffff","h3_11":"8b1e2e6f669afff"},"geometry":{"type":"Polygon","coordinates":[[[20.122842,50.05254],[20.122855,50.052444],[20.123098,50.052458],[20.123085,50.052554],[20.122842,50.05254]]]}}]}