{"type":"FeatureCollection","features":[{"type":"Feature","id":"w133317827","properties":{"type":"detached","address":"Lubocka 135A","residential":true,"residents_est":2,"h3_10":"8a1e2e6ad28ffff","h3_11":"8b1e2e6ad28dfff"},"geometry":{"type":"Polygon","coordinates":[[[20.100988,50.094644],[20.101141,50.094639],[20.101148,50.09473],[20.100996,50.094735],[20.100988,50.094644]]]}},{"type":"Feature","id":"w133317838","properties":{"type":"detached","address":"Lubocka 137","residential":true,"residents_est":1,"h3_10":"8a1e2e6ad28ffff","h3_11":"8b1e2e6ad289fff"},"geometry":{"type":"Polygon","coordinates":[[[20.101662,50.094503],[20.101797,50.094492],[20.101813,50.09457],[20.101777,50.094573],[20.101781,50.094591],[20.101725,50.094596],[20.101721,50.094577],[20.101677,50.094581],[20.101662,50.094503]]]}},{"type":"Feature","id":"w133317839","properties":{"type":"detached","address":"Lubocka 130","residential":true,"residents_est":2,"h3_10":"8a1e2e6ad29ffff","h3_11":"8b1e2e6ad29cfff"},"geometry":{"type":"Polygon","coordinates":[[[20.099044,50.094037],[20.099044,50.094003],[20.099065,50.094003],[20.099065,50.093965],[20.099109,50.093965],[20.099109,50.093934],[20.0992,50.093934],[20.0992,50.094069],[20.099062,50.094068],[20.099062,50.094037],[20.099044,50.094037]]]}},{"type":"Feature","id":"w133317843","properties":{"type":"detached","address":"Lubocka 135","residential":true,"residents_est":2,"h3_10":"8a1e2e6ad287fff","h3_11":"8b1e2e6ad283fff"},"geometry":{"type":"Polygon","coordinates":[[[20.099638,50.094504],[20.099643,50.094504],[20.099644,50.094515],[20.099782,50.094511],[20.099785,50.09455],[20.099811,50.094549],[20.099814,50.094604],[20.099645,50.094609],[20.099638,50.094504]]]}},{"type":"Feature","id":"w133317861","properties":{"type":"detached","address":"Lubocka 141","residential":true,"residents_est":1,"h3_10":"8a1e2e6ad2d7fff","h3_11":"8b1e2e6ad2d4fff"},"geometry":{"type":"Polygon","coordinates":[[[20.102082,50.094506],[20.10215,50.0945],[20.102147,50.094483],[20.10216,50.094481],[20.102151,50.094438],[20.10221,50.094433],[20.102234,50.094546],[20.10216,50.094555],[20.102164,50.094569],[20.102126,50.094573],[20.102121,50.094557],[20.102093,50.09456],[20.102082,50.094506]]]}},{"type":"Feature","id":"w246254555","properties":{"type":"residential","levels":2.0,"address":"Marglowa 8","residential":true,"residents_est":4,"h3_10":"8a1e2e6ad39ffff","h3_11":"8b1e2e6ad39efff"},"geometry":{"type":"Polygon","coordinates":[[[20.095874,50.096245],[20.096192,50.096236],[20.096197,50.096307],[20.096236,50.096306],[20.096238,50.096335],[20.096198,50.096336],[20.0962,50.096367],[20.095882,50.096376],[20.095874,50.096245]]]}},{"type":"Feature","id":"w337987743","properties":{"type":"yes","residential":true,"residents_est":21,"h3_10":"8a1e2e6ad307fff","h3_11":"8b1e2e6ad302fff"},"geometry":{"type":"Polygon","coordinates":[[[20.098571,50.099384],[20.098648,50.099306],[20.099288,50.099568],[20.099293,50.099563],[20.099541,50.099665],[20.099165,50.100045],[20.098917,50.099943],[20.099209,50.099646],[20.098571,50.099384]]]}},{"type":"Feature","id":"w337987776","properties":{"type":"yes","residential":true,"residents_est":1,"h3_10":"8a1e2e6ad297fff","h3_11":"8b1e2e6ad292fff"},"geometry":{"type":"Polygon","coordinates":[[[20.097495,50.093777],[20.097612,50.093775],[20.097613,50.093798],[20.097651,50.093797],[20.097653,50.093841],[20.097615,50.093842],[20.097614,50.093824],[20.097562,50.093825],[20.097565,50.093887],[20.0975,50.093888],[20.097495,50.093777]]]}},{"type":"Feature","id":"w337987779","properties":{"type":"yes","residential":true,"residents_est":0,"h3_10":"8a1e2e6ad2b7fff","h3_11":"8b1e2e6ad2b3fff"},"geometry":{"type":"Polygon","coordinates":[[[20.09743,50.094669],[20.0975,50.094668],[20.097503,50.094754],[20.097433,50.094755],[20.09743,50.094669]]]}},{"type":"Feature","id":"w337987821","properties":{"type":"house","residential":true,"residents_est":1,"h3_10":"8a1e2e6ad397fff","h3_11":"8b1e2e6ad390fff"},"geometry":{"type":"Polygon","coordinates":[[[20.094902,50.096572],[20.094979,50.096571],[20.09498,50.096605],[20.095015,50.096605],[20.095016,50.096636],[20.094981,50.096636],[20.094982,50.096648],[20.094904,50.096649],[20.094902,50.096572]]]}},{"type":"Feature","id":"w337987850","properties":{"type":"yes","residential":false,"residents_est":0,"h3_10":"8a1e2e6ad397fff","h3_11":"8b1e2e6ad394fff"},"geometry":{"type":"Polygon","coordinates":[[[20.094857,50.096752],[20.094911,50.096751],[20.094912,50.09679],[20.094859,50.096791],[20.094857,50.096752]]]}},{"type":"Feature","id":"w337987859","properties":{"type":"house","residential":true,"residents_est":1,"h3_10":"8a1e2e6ad397fff","h3_11":"8b1e2e6ad392fff"},"geometry":{"type":"Polygon","coordinates":[[[20.09453,50.096312],[20.094607,50.096311],[20.09461,50.096348],[20.094644,50.096348],[20.094645,50.096373],[20.094611,50.096374],[20.09461,50.096389],[20.094532,50.09639],[20.09453,50.096312]]]}},{"type":"Feature","id":"w337987865","properties":{"type":"house","levels":1.0,"residential":true,"residents_est":0,"h3_10":"8a1e2e6ad397fff","h3_11":"8b1e2e6ad396fff"},"geometry":{"type":"Polygon","coordinates":[[[20.094482,50.096578],[20.09456,50.096576],[20.094562,50.096604],[20.094593,50.096604],[20.094594,50.096639],[20.094563,50.096639],[20.094563,50.096656],[20.094486,50.096657],[20.094482,50.096578]]]}},{"type":"Feature","id":"w337987870","properties":{"type":"house","residential":true,"residents_est":1,"h3_10":"8a1e2e6ad397fff","h3_11":"8b1e2e6ad390fff"},"geometry":{"type":"Polygon","coordinates":[[[20.095321,50.096565],[20.095398,50.096564],[20.0954,50.096593],[20.095432,50.096592],[20.095433,50.096626],[20.095401,50.096627],[20.095402,50.09664],[20.095324,50.096641],[20.095321,50.096565]]]}},{"type":"Feature","id":"w337988137","properties":{"type":"yes","residential":true,"residents_est":58,"h3_10":"8a1e2e6ad337fff","h3_11":"8b1e2e6ad331fff"},"geometry":{"type":"Polygon","coordinates":[[[20.097616,50.10029],[20.09769,50.100215],[20.097726,50.10023],[20.0982,50.09975],[20.098704,50.099956],[20.098245,50.100421],[20.098213,50.100409],[20.098198,50.100424],[20.0984,50.100505],[20.098671,50.100229],[20.098858,50.100305],[20.098283,50.100885],[20.098096,50.100809],[20.098325,50.100579],[20.097616,50.10029]]]}},{"type":"Feature","id":"w337988141","properties":{"type":"yes","address":"Komasy 3","residential":true,"residents_est":11,"h3_10":"8a1e2e6ad2affff","h3_11":"8b1e2e6ad2aefff"},"geometry":{"type":"Polygon","coordinates":[[[20.099379,50.095478],[20.099555,50.095472],[20.099554,50.095466],[20.09954,50.095467],[20.099539,50.095448],[20.099553,50.095448],[20.099539,50.095304],[20.099606,50.095302],[20.099605,50.095295],[20.099648,50.095293],[20.099649,50.095302],[20.099713,50.0953],[20.099725,50.095468],[20.099947,50.095462],[20.099948,50.09547],[20.099987,50.095469],[20.099986,50.095457],[20.100223,50.09545],[20.100231,50.095559],[20.099994,50.095566],[20.099993,50.095555],[20.099952,50.095556],[20.099953,50.095563],[20.099682,50.095571],[20.099681,50.095551],[20.099385,50.095559],[20.099379,50.095478]]]}},{"type":"Feature","id":"w337988157","properties":{"type":"yes","residential":true,"residents_est":0,"h3_10":"8a1e2e6ad297fff","h3_11":"8b1e2e6ad296fff"},"geometry":{"type":"Polygon","coordinates":[[[20.096705,50.094032],[20.096712,50.093981],[20.096904,50.093992],[20.096897,50.094043],[20.096705,50.094032]]]}},{"type":"Feature","id":"w337988206","properties":{"type":"yes","residential":true,"residents_est":1,"h3_10":"8a1e2e6ad29ffff","h3_11":"8b1e2e6ad29dfff"},"geometry":{"type":"Polygon","coordinates":[[[20.099432,50.093969],[20.099501,50.093969],[20.099501,50.094079],[20.099432,50.094079],[20.099432,50.093969]]]}},{"type":"Feature","id":"w337988227","properties":{"type":"yes","residential":true,"residents_est":1,"h3_10":"8a1e2e6ad287fff","h3_11":"8b1e2e6ad286fff"},"geometry":{"type":"Polygon","coordinates":[[[20.098328,50.094657],[20.098475,50.09465],[20.098484,50.094726],[20.098336,50.094733],[20.098328,50.094657]]]}},{"type":"Feature","id":"w337988291","properties":{"type":"detached","residential":true,"residents_est":1,"h3_10":"8a1e2e6ad287fff","h3_11":"8b1e2e6ad282fff"},"geometry":{"type":"Polygon","coordinates":[[[20.098563,50.094404],[20.098693,50.0944],[20.098699,50.094474],[20.098569,50.094479],[20.098563,50.094404]]]}},{"type":"Feature","id":"w337988421","properties":{"type":"yes","residential":true,"residents_est":0,"h3_10":"8a1e2e6ad287fff","h3_11":"8b1e2e6ad282fff"},"geometry":{"type":"Polygon","coordinates":[[[20.098517,50.094571],[20.098603,50.094568],[20.098612,50.094668],[20.098526,50.094671],[20.098517,50.094571]]]}},{"type":"Feature","id":"w337988441","properties":{"type":"yes","residential":true,"residents_est":0,"h3_10":"8a1e2e6ad297fff","h3_11":"8b1e2e6ad295fff"},"geometry":{"type":"Polygon","coordinates":[[[20.097793,50.094476],[20.097861,50.094474],[20.097866,50.09455],[20.097798,50.094552],[20.097793,50.094476]]]}},{"type":"Feature","id":"w337988478","properties":{"type":"yes","residential":false,"residents_est":0,"h3_10":"8a1e2e6ad28ffff","h3_11":"8b1e2e6ad28cfff"},"geometry":{"type":"Polygon","coordinates":[[[20.100808,50.094655],[20.100866,50.094654],[20.10087,50.094733],[20.100813,50.094734],[20.100808,50.094655]]]}},{"type":"Feature","id":"w337988520","properties":{"type":"yes","residential":true,"residents_est":1,"h3_10":"8a1e2e6ad2a7fff","h3_11":"8b1e2e6ad2a2fff"},"geometry":{"type":"Polygon","coordinates":[[[20.098356,50.095595],[20.098531,50.095589],[20.098536,50.095649],[20.09836,50.095654],[20.098356,50.095595]]]}},{"type":"Feature","id":"w337988554","properties":{"type":"detached","address":"Lubocka 127","residential":true,"residents_est":1,"h3_10":"8a1e2e6ad297fff","h3_11":"8b1e2e6ad295fff"},"geometry":{"type":"Polygon","coordinates":[[[20.098005,50.094492],[20.098144,50.09449],[20.098148,50.094572],[20.098009,50.094575],[20.098005,50.094492]]]}},{"type":"Feature","id":"w337988564","properties":{"type":"yes","residential":true,"residents_est":4,"h3_10":"8a1e2e6ad307fff","h3_11":"8b1e2e6ad301fff"},"geometry":{"type":"Polygon","coordinates":[[[20.099744,50.099847],[20.099772,50.09975],[20.100125,50.099794],[20.100091,50.099889],[20.099744,50.099847]]]}},{"type":"Feature","id":"w337988574","properties":{"type":"greenhouse","residential":false,"residents_est":0,"h3_10":"8a1e2e6ad297fff","h3_11":"8b1e2e6ad293fff"},"geometry":{"type":"Polygon","coordinates":[[[20.097729,50.093694],[20.097791,50.093694],[20.097793,50.09379],[20.097731,50.093791],[20.097729,50.093694]]]}},{"type":"Feature","id":"w337988619","properties":{"type":"yes","residential":true,"residents_est":8,"h3_10":"8a1e2e6ad307fff","h3_11":"8b1e2e6ad306fff"},"geometry":{"type":"Polygon","coordinates":[[[20.0982,50.09975],[20.098313,50.099636],[20.098818,50.099841],[20.098704,50.099956],[20.0982,50.09975]]]}},{"type":"Feature","id":"w337988666","properties":{"type":"yes","residential":true,"residents_est":0,"h3_10":"8a1e2e6ad337fff","h3_11":"8b1e2e6ad330fff"},"geometry":{"type":"Polygon","coordinates":[[[20.097086,50.100381],[20.097142,50.100323],[20.097214,50.100352],[20.097156,50.10041],[20.097086,50.100381]]]}},{"type":"Feature","id":"w337988667","properties":{"type":"yes","residential":true,"residents_est":0,"h3_10":"8a1e2e6ad28ffff","h3_11":"8b1e2e6ad28dfff"},"geometry":{"type":"Polygon","coordinates":[[[20.100891,50.094794],[20.100989,50.094791],[20.100992,50.094846],[20.100894,50.094848],[20.100891,50.094794]]]}},{"type":"Feature","id":"w337988727","properties":{"type":"yes","residential":false,"residents_est":0,"h3_10":"8a1e2e6ad29ffff","h3_11":"8b1e2e6ad298fff"},"geometry":{"type":"Polygon","coordinates":[[[20.099231,50.093806],[20.099234,50.093752],[20.099321,50.093754],[20.099319,50.093807],[20.099231,50.093806]]]}},{"type":"Feature","id":"w337988745","properties":{"type":"yes","residential":true,"residents_est":0,"h3_10":"8a1e2e6ad307fff","h3_11":"8b1e2e6ad304fff"},"geometry":{"type":"Polygon","coordinates":[[[20.098817,50.100475],[20.098876,50.100417],[20.098956,50.100449],[20.098896,50.100508],[20.098817,50.100475]]]}},{"type":"Feature","id":"w337988758","properties":{"type":"yes","residential":true,"residents_est":1,"h3_10":"8a1e2e6ad29ffff","h3_11":"8b1e2e6ad29dfff"},"geometry":{"type":"Polygon","coordinates":[[[20.099669,50.094043],[20.099674,50.093926],[20.099739,50.093927],[20.099734,50.094044],[20.099669,50.094043]]]}},{"type":"Feature","id":"w337988814","properties":{"type":"garage","residential":false,"residents_est":0,"h3_10":"8a1e2e6ad2b7fff","h3_11":"8b1e2e6ad2b4fff"},"geometry":{"type":"Polygon","coordinates":[[[20.096593,50.095543],[20.096692,50.095539],[20.096698,50.095601],[20.096599,50.095605],[20.096593,50.095543]]]}},{"type":"Feature","id":"w337988823","properties":{"type":"yes","residential":true,"residents_est":4,"h3_10":"8a1e2e6ad307fff","h3_11":"8b1e2e6ad300fff"},"geometry":{"type":"Polygon","coordinates":[[[20.099015,50.100198],[20.099206,50.100004],[20.099337,50.100057],[20.099149,50.100253],[20.099015,50.100198]]]}},{"type":"Feature","id":"w337988885","properties":{"type":"detached","address":"Lubocka 123","residential":true,"residents_est":2,"h3_10":"8a1e2e6ad297fff","h3_11":"8b1e2e6ad294fff"},"geometry":{"type":"Polygon","coordinates":[[[20.097173,50.09448],[20.097313,50.094474],[20.097327,50.094594],[20.097246,50.094598],[20.097243,50.094571],[20.097184,50.094574],[20.097173,50.09448]]]}},{"type":"Feature","id":"w337988900","properties":{"type":"yes","residential":true,"residents_est":1,"h3_10":"8a1e2e6ad29ffff","h3_11":"8b1e2e6ad29dfff"},"geometry":{"type":"Polygon","coordinates":[[[20.099523,50.094238],[20.099527,50.094159],[20.099719,50.094166],[20.099712,50.094244],[20.099523,50.094238]]]}},{"type":"Feature","id":"w337988902","properties":{"type":"detached","address":"Lubocka 121","residential":true,"residents_est":2,"h3_10":"8a1e2e6ad2b7fff","h3_11":"8b1e2e6ad2b2fff"},"geometry":{"type":"Polygon","coordinates":[[[20.096837,50.094575],[20.096868,50.094574],[20.096863,50.094537],[20.096968,50.094531],[20.096986,50.094657],[20.09685,50.094665],[20.096837,50.094575]]]}},{"type":"Feature","id":"w337989003","properties":{"type":"yes","residential":true,"residents_est":1,"h3_10":"8a1e2e6ad2b7fff","h3_11":"8b1e2e6ad2b2fff"},"geometry":{"type":"Polygon","coordinates":[[[20.0969,50.09482],[20.097096,50.094816],[20.0971,50.094892],[20.096904,50.094897],[20.0969,50.09482]]]}},{"type":"Feature","id":"w337989044","properties":{"type":"detached","levels":2.0,"address":"Lubocka 131","residential":true,"residents_est":2,"h3_10":"8a1e2e6ad287fff","h3_11":"8b1e2e6ad282fff"},"geometry":{"type":"Polygon","coordinates":[[[20.098747,50.094495],[20.098776,50.094494],[20.098775,50.094465],[20.098913,50.094463],[20.098917,50.094559],[20.09875,50.094562],[20.098747,50.094495]]]}},{"type":"Feature","id":"w337989056","properties":{"type":"yes","residential":true,"residents_est":1,"h3_10":"8a1e2e6ad2b7fff","h3_11":"8b1e2e6ad2b3fff"},"geometry":{"type":"Polygon","coordinates":[[[20.097839,50.094624],[20.097881,50.094623],[20.097883,50.094639],[20.098019,50.094633],[20.098026,50.094696],[20.097848,50.094704],[20.097839,50.094624]]]}},{"type":"Feature","id":"w337989077","properties":{"type":"yes","residential":true,"residents_est":1,"h3_10":"8a1e2e6ad2b7fff","h3_11":"8b1e2e6ad2b2fff"},"geometry":{"type":"Polygon","coordinates":[[[20.097084,50.0947],[20.097156,50.094695],[20.097159,50.094716],[20.09721,50.094712],[20.097228,50.094818],[20.097106,50.094827],[20.097084,50.0947]]]}},{"type":"Feature","id":"w337989103","properties":{"type":"yes","residential":true,"residents_est":34,"h3_10":"8a1e2e6ad31ffff","h3_11":"8b1e2e6ad31cfff"},"geometry":{"type":"Polygon","coordinates":[[[20.098678,50.099168],[20.099135,50.098711],[20.099637,50.098918],[20.09918,50.099375],[20.098678,50.099168]]]}},{"type":"Feature","id":"w337989174","properties":{"type":"yes","residential":false,"residents_est":0,"h3_10":"8a1e2e6ad397fff","h3_11":"8b1e2e6ad396fff"},"geometry":{"type":"Polygon","coordinates":[[[20.094437,50.096799],[20.094435,50.096758],[20.094493,50.096757],[20.094494,50.096798],[20.094437,50.096799]]]}},{"type":"Feature","id":"w337989207","properties":{"type":"detached","levels":1.0,"address":"Lubocka 129","residential":true,"residents_est":1,"h3_10":"8a1e2e6ad287fff","h3_11":"8b1e2e6ad282fff"},"geometry":{"type":"Polygon","coordinates":[[[20.098342,50.094371],[20.098497,50.094367],[20.098509,50.094496],[20.09844,50.094498],[20.098437,50.094444],[20.098346,50.094446],[20.098342,50.094371]]]}},{"type":"Feature","id":"w337989259","properties":{"type":"detached","address":"Lubocka 124","residential":true,"residents_est":1,"h3_10":"8a1e2e6ad297fff","h3_11":"8b1e2e6ad290fff"},"geometry":{"type":"Polygon","coordinates":[[[20.097636,50.093947],[20.097689,50.093946],[20.097688,50.093928],[20.097721,50.093927],[20.097722,50.093945],[20.097788,50.093944],[20.097792,50.094022],[20.097641,50.094026],[20.097636,50.093947]]]}},{"type":"Feature","id":"w337989307","properties":{"type":"farm_auxiliary","address":"Henryka Rowida 4","residential":false,"residents_est":0,"h3_10":"8a1e2e6ad2b7fff","h3_11":"8b1e2e6ad2b6fff"},"geometry":{"type":"Polygon","coordinates":[[[20.096404,50.095142],[20.096544,50.095141],[20.096546,50.095212],[20.096497,50.095212],[20.096498,50.095228],[20.096464,50.095229],[20.096463,50.095213],[20.096405,50.095213],[20.096404,50.095142]]]}},{"type":"Feature","id":"w337989308","properties":{"type":"detached","levels":1.0,"address":"Lubocka 122","residential":true,"residents_est":1,"h3_10":"8a1e2e6ad297fff","h3_11":"8b1e2e6ad296fff"},"geometry":{"type":"Polygon","coordinates":[[[20.096642,50.0942],[20.096645,50.094111],[20.096789,50.094113],[20.096786,50.094202],[20.096721,50.094202],[20.09672,50.094222],[20.096685,50.094221],[20.096686,50.094201],[20.096642,50.0942]]]}},{"type":"Feature","id":"w337989318","properties":{"type":"yes","residential":true,"residents_est":0,"h3_10":"8a1e2e6ad287fff","h3_11":"8b1e2e6ad281fff"},"geometry":{"type":"Polygon","coordinates":[[[20.099742,50.095019],[20.099792,50.095017],[20.09979,50.094999],[20.099863,50.094996],[20.099865,50.095015],[20.099888,50.095014],[20.099891,50.095068],[20.099746,50.095073],[20.099742,50.095019]]]}},{"type":"Feature","id":"w585148484","properties":{"type":"detached","address":"Lubocka 145B","residential":true,"residents_est":1,"h3_10":"8a1e2e6ad2f7fff","h3_11":"8b1e2e6ad2f1fff"},"geometry":{"type":"Polygon","coordinates":[[[20.102886,50.09524],[20.102888,50.095163],[20.103005,50.095164],[20.103006,50.095152],[20.103063,50.095153],[20.103062,50.095242],[20.102886,50.09524]]]}},{"type":"Feature","id":"w720521143","properties":{"type":"yes","residential":false,"residents_est":0,"h3_10":"8a1e2e6ad397fff","h3_11":"8b1e2e6ad392fff"},"geometry":{"type":"Polygon","coordinates":[[[20.094516,50.096108],[20.094624,50.096104],[20.094627,50.096144],[20.094523,50.096152],[20.094516,50.096108]]]}},{"type":"Feature","id":"w720521146","properties":{"type":"yes","residential":false,"residents_est":0,"h3_10":"8a1e2e6ad397fff","h3_11":"8b1e2e6ad391fff"},"geometry":{"type":"Polygon","coordinates":[[[20.095926,50.096605],[20.095974,50.096603],[20.09598,50.096659],[20.095931,50.096661],[20.095926,50.096605]]]}},{"type":"Feature","id":"w724661625","properties":{"type":"yes","residential":true,"residents_est":91,"h3_10":"8a1e2e6ad327fff","h3_11":"8b1e2e6ad325fff"},"geometry":{"type":"Polygon","coordinates":[[[20.098474,50.101444],[20.099103,50.100804],[20.100174,50.101237],[20.099812,50.101605],[20.099618,50.101527],[20.099351,50.101798],[20.098474,50.101444]]]}},{"type":"Feature","id":"w725203970","properties":{"type":"yes","residential":false,"residents_est":0,"h3_10":"8a1e2e6ad397fff","h3_11":"8b1e2e6ad396fff"},"geometry":{"type":"Polygon","coordinates":[[[20.094493,50.096757],[20.094548,50.096756],[20.09455,50.096797],[20.094494,50.096798],[20.094493,50.096757]]]}},{"type":"Feature","id":"w725203974","properties":{"type":"house","levels":1.0,"residential":true,"residents_est":0,"h3_10":"8a1e2e6ad397fff","h3_11":"8b1e2e6ad396fff"},"geometry":{"type":"Polygon","coordinates":[[[20.094375,50.096609],[20.094407,50.096609],[20.094405,50.096579],[20.094482,50.096578],[20.094486,50.096657],[20.094409,50.096658],[20.094408,50.096643],[20.094376,50.096643],[20.094375,50.096609]]]}},{"type":"Feature","id":"w725203977","properties":{"type":"yes","residential":false,"residents_est":0,"h3_10":"8a1e2e6ad397fff","h3_11":"8b1e2e6ad390fff"},"geometry":{"type":"Polygon","coordinates":[[[20.094911,50.096751],[20.094967,50.09675],[20.094968,50.096789],[20.094912,50.09679],[20.094911,50.096751]]]}},{"type":"Feature","id":"w725203978","properties":{"type":"house","residential":true,"residents_est":0,"h3_10":"8a1e2e6ad397fff","h3_11":"8b1e2e6ad396fff"},"geometry":{"type":"Polygon","coordinates":[[[20.094794,50.096601],[20.094826,50.0966],[20.094825,50.096573],[20.094902,50.096572],[20.094904,50.096649],[20.094827,50.09665],[20.094826,50.096636],[20.094796,50.096637],[20.094794,50.096601]]]}},{"type":"Feature","id":"w725203979","properties":{"type":"house","residential":true,"residents_est":1,"h3_10":"8a1e2e6ad397fff","h3_11":"8b1e2e6ad390fff"},"geometry":{"type":"Polygon","coordinates":[[[20.095213,50.096595],[20.095245,50.096594],[20.095244,50.096566],[20.095321,50.096565],[20.095324,50.096641],[20.095247,50.096642],[20.095246,50.096629],[20.095215,50.09663],[20.095213,50.096595]]]}},{"type":"Feature","id":"w725203982","properties":{"type":"yes","residential":false,"residents_est":0,"h3_10":"8a1e2e6ad397fff","h3_11":"8b1e2e6ad390fff"},"geometry":{"type":"Polygon","coordinates":[[[20.095332,50.096744],[20.095388,50.096743],[20.09539,50.096778],[20.095333,50.096779],[20.095332,50.096744]]]}},{"type":"Feature","id":"w725203990","properties":{"type":"yes","residential":false,"residents_est":0,"h3_10":"8a1e2e6ad2b7fff","h3_11":"8b1e2e6ad2b2fff"},"geometry":{"type":"Polygon","coordinates":[[[20.096588,50.094735],[20.096641,50.094734],[20.096645,50.094779],[20.096591,50.094781],[20.096588,50.094735]]]}},{"type":"Feature","id":"w725203992","properties":{"type":"yes","residential":false,"residents_est":0,"h3_10":"8a1e2e6ad2b7fff","h3_11":"8b1e2e6ad2b2fff"},"geometry":{"type":"Polygon","coordinates":[[[20.097021,50.094789],[20.097095,50.094787],[20.097096,50.094816],[20.097022,50.094817],[20.097021,50.094789]]]}},{"type":"Feature","id":"w725203993","properties":{"type":"detached","address":"Lubocka 125","residential":true,"residents_est":1,"h3_10":"8a1e2e6ad297fff","h3_11":"8b1e2e6ad294fff"},"geometry":{"type":"Polygon","coordinates":[[[20.097493,50.0945],[20.09761,50.094497],[20.097615,50.094583],[20.097499,50.094586],[20.097493,50.0945]]]}},{"type":"Feature","id":"w725203998","properties":{"type":"yes","residential":true,"residents_est":0,"h3_10":"8a1e2e6ad2f7fff","h3_11":"8b1e2e6ad2f3fff"},"geometry":{"type":"Polygon","coordinates":[[[20.102778,50.094974],[20.102898,50.094974],[20.102899,50.095033],[20.102778,50.095033],[20.102778,50.094974]]]}},{"type":"Feature","id":"w725203999","properties":{"type":"detached","address":"Lubocka 145A","residential":true,"residents_est":3,"h3_10":"8a1e2e6ad2f7fff","h3_11":"8b1e2e6ad2f3fff"},"geometry":{"type":"Polygon","coordinates":[[[20.102788,50.094749],[20.102874,50.094747],[20.102872,50.094699],[20.102958,50.094698],[20.102959,50.094717],[20.103004,50.094717],[20.103008,50.094829],[20.102954,50.094829],[20.102955,50.094845],[20.102972,50.094845],[20.102975,50.094913],[20.102873,50.094915],[20.10287,50.094846],[20.102893,50.094846],[20.102892,50.09483],[20.102834,50.094831],[20.102833,50.094803],[20.102791,50.094803],[20.102788,50.094749]]]}},{"type":"Feature","id":"w725204000","properties":{"type":"yes","residential":true,"residents_est":0,"h3_10":"8a1e2e6ad337fff","h3_11":"8b1e2e6ad334fff"},"geometry":{"type":"Polygon","coordinates":[[[20.096979,50.100524],[20.097051,50.100453],[20.097099,50.100471],[20.097061,50.100508],[20.097098,50.100523],[20.097064,50.100558],[20.096979,50.100524]]]}},{"type":"Feature","id":"w725204001","properties":{"type":"yes","residential":true,"residents_est":1,"h3_10":"8a1e2e6ad337fff","h3_11":"8b1e2e6ad330fff"},"geometry":{"type":"Polygon","coordinates":[[[20.097141,50.100319],[20.097332,50.100125],[20.097404,50.100154],[20.097215,50.100348],[20.097141,50.100319]]]}},{"type":"Feature","id":"w725204002","properties":{"type":"yes","residential":true,"residents_est":3,"h3_10":"8a1e2e6ad337fff","h3_11":"8b1e2e6ad333fff"},"geometry":{"type":"Polygon","coordinates":[[[20.097332,50.100125],[20.097654,50.099796],[20.097726,50.099826],[20.097404,50.100154],[20.097332,50.100125]]]}},{"type":"Feature","id":"w725204003","properties":{"type":"yes","residential":true,"residents_est":0,"h3_10":"8a1e2e6ad317fff","h3_11":"8b1e2e6ad315fff"},"geometry":{"type":"Polygon","coordinates":[[[20.097811,50.0997],[20.09787,50.099643],[20.097941,50.099674],[20.097883,50.099731],[20.097811,50.0997]]]}},{"type":"Feature","id":"w725204004","properties":{"type":"yes","residential":true,"residents_est":1,"h3_10":"8a1e2e6ad337fff","h3_11":"8b1e2e6ad333fff"},"geometry":{"type":"Polygon","coordinates":[[[20.097654,50.099796],[20.097768,50.099683],[20.097883,50.099731],[20.09777,50.099844],[20.097654,50.099796]]]}},{"type":"Feature","id":"w725204005","properties":{"type":"yes","residential":true,"residents_est":10,"h3_10":"8a1e2e6ad31ffff","h3_11":"8b1e2e6ad318fff"},"geometry":{"type":"Polygon","coordinates":[[[20.099135,50.098711],[20.099252,50.098593],[20.09925,50.098588],[20.099843,50.098831],[20.099835,50.098833],[20.099718,50.098951],[20.099135,50.098711]]]}},{"type":"Feature","id":"w725204006","properties":{"type":"yes","residential":true,"residents_est":5,"h3_10":"8a1e2e6ad31ffff","h3_11":"8b1e2e6ad31cfff"},"geometry":{"type":"Polygon","coordinates":[[[20.09918,50.099375],[20.099637,50.098918],[20.099718,50.098951],[20.099261,50.099407],[20.09918,50.099375]]]}},{"type":"Feature","id":"w725204007","properties":{"type":"yes","residential":true,"residents_est":16,"h3_10":"8a1e2e6ad317fff","h3_11":"8b1e2e6ad311fff"},"geometry":{"type":"Polygon","coordinates":[[[20.097874,50.099618],[20.098326,50.099162],[20.098655,50.099299],[20.098571,50.099384],[20.098456,50.099336],[20.098088,50.099706],[20.097874,50.099618]]]}},{"type":"Feature","id":"w725204008","properties":{"type":"yes","residential":true,"residents_est":24,"h3_10":"8a1e2e6ad31ffff","h3_11":"8b1e2e6ad31dfff"},"geometry":{"type":"Polygon","coordinates":[[[20.099445,50.099485],[20.099902,50.099024],[20.100264,50.099173],[20.099808,50.099633],[20.099445,50.099485]]]}},{"type":"Feature","id":"w725204010","properties":{"type":"yes","residential":true,"residents_est":1,"h3_10":"8a1e2e6ad307fff","h3_11":"8b1e2e6ad301fff"},"geometry":{"type":"Polygon","coordinates":[[[20.09985,50.100046],[20.099904,50.09999],[20.100194,50.100106],[20.100138,50.100163],[20.09985,50.100046]]]}},{"type":"Feature","id":"w725204011","properties":{"type":"yes","residential":true,"residents_est":1,"h3_10":"8a1e2e6ad307fff","h3_11":"8b1e2e6ad305fff"},"geometry":{"type":"Polygon","coordinates":[[[20.099524,50.100272],[20.099621,50.100173],[20.099694,50.100202],[20.099597,50.100301],[20.099524,50.100272]]]}},{"type":"Feature","id":"w725204012","properties":{"type":"yes","residential":true,"residents_est":33,"h3_10":"8a1e2e6ad307fff","h3_11":"8b1e2e6ad305fff"},"geometry":{"type":"Polygon","coordinates":[[[20.099206,50.100004],[20.099364,50.099847],[20.100138,50.100163],[20.099611,50.1007],[20.099618,50.100703],[20.099614,50.100706],[20.099316,50.100585],[20.099694,50.100202],[20.099206,50.100004]]]}},{"type":"Feature","id":"w725204013","properties":{"type":"yes","residential":true,"residents_est":5,"h3_10":"8a1e2e6ad307fff","h3_11":"8b1e2e6ad304fff"},"geometry":{"type":"Polygon","coordinates":[[[20.098795,50.100109],[20.098944,50.099956],[20.099165,50.100045],[20.099015,50.100198],[20.098795,50.100109]]]}},{"type":"Feature","id":"w725204014","properties":{"type":"yes","residential":true,"residents_est":7,"h3_10":"8a1e2e6ad337fff","h3_11":"8b1e2e6ad331fff"},"geometry":{"type":"Polygon","coordinates":[[[20.0982,50.100424],[20.098213,50.100409],[20.098245,50.100421],[20.098498,50.100166],[20.098665,50.100234],[20.0984,50.100505],[20.0982,50.100424]]]}},{"type":"Feature","id":"w735337800","properties":{"type":"service","residential":false,"residents_est":0,"h3_10":"8a1e2e6ad2a7fff","h3_11":"8b1e2e6ad2a1fff"},"geometry":{"type":"Polygon","coordinates":[[[20.099173,50.096007],[20.099283,50.096005],[20.099286,50.096077],[20.099175,50.096078],[20.099173,50.096007]]]}},{"type":"Feature","id":"w735337804","properties":{"type":"service","residential":false,"residents_est":0,"h3_10":"8a1e2e6ad2a7fff","h3_11":"8b1e2e6ad2a4fff"},"geometry":{"type":"Polygon","coordinates":[[[20.098266,50.096132],[20.098593,50.096123],[20.098601,50.096244],[20.098274,50.096252],[20.098266,50.096132]]]}},{"type":"Feature","id":"w1075692764","properties":{"type":"yes","residential":true,"residents_est":1,"h3_10":"8a1e2e6ad337fff","h3_11":"8b1e2e6ad335fff"},"geometry":{"type":"Polygon","coordinates":[[[20.097496,50.100519],[20.097567,50.100442],[20.097814,50.100535],[20.097742,50.100613],[20.097496,50.100519]]]}},{"type":"Feature","id":"w1075692791","properties":{"type":"detached","address":"Lubocka 151B","residential":true,"residents_est":1,"h3_10":"8a1e2e6ad2c7fff","h3_11":"8b1e2e6ad2c4fff"},"geometry":{"type":"Polygon","coordinates":[[[20.103667,50.095194],[20.103675,50.095103],[20.103807,50.095108],[20.103799,50.095199],[20.103667,50.095194]]]}},{"type":"Feature","id":"w1075692792","properties":{"type":"detached","address":"Lubocka 159B","residential":true,"residents_est":2,"h3_10":"8a1e2e6ad2c7fff","h3_11":"8b1e2e6ad2c1fff"},"geometry":{"type":"Polygon","coordinates":[[[20.104572,50.094875],[20.10458,50.094753],[20.104708,50.094756],[20.104704,50.094811],[20.104691,50.094811],[20.104689,50.094831],[20.104704,50.094831],[20.104701,50.094879],[20.104572,50.094875]]]}},{"type":"Feature","id":"w1075692793","properties":{"type":"detached","address":"Lubocka 159A","residential":true,"residents_est":2,"h3_10":"8a1e2e6ad2c7fff","h3_11":"8b1e2e6ad2c3fff"},"geometry":{"type":"Polygon","coordinates":[[[20.104595,50.094585],[20.104603,50.094452],[20.104723,50.094455],[20.104719,50.094511],[20.104707,50.09451],[20.104706,50.094544],[20.104716,50.094544],[20.104714,50.094588],[20.104595,50.094585]]]}},{"type":"Feature","id":"w1170385654","properties":{"type":"detached","address":"Lubocka 159D","residential":true,"residents_est":1,"h3_10":"8a1e2e6ad2c7fff","h3_11":"8b1e2e6ad2c5fff"},"geometry":{"type":"Polygon","coordinates":[[[20.104578,50.095406],[20.104598,50.095277],[20.104707,50.095284],[20.104688,50.095413],[20.104578,50.095406]]]}},{"type":"Feature","id":"w1170385655","properties":{"type":"detached","address":"Lubocka 161E","residential":true,"residents_est":2,"h3_10":"8a1e2e6ad2effff","h3_11":"8b1e2e6ad2eefff"},"geometry":{"type":"Polygon","coordinates":[[[20.104874,50.095378],[20.104881,50.095329],[20.105062,50.095339],[20.105052,50.095419],[20.104994,50.095416],[20.10499,50.095452],[20.10488,50.095446],[20.104889,50.095379],[20.104874,50.095378]]]}},{"type":"Feature","id":"w1280143686","properties":{"type":"detached","address":"Lubocka 161","residential":true,"residents_est":2,"h3_10":"8a1e2e6ad2cffff","h3_11":"8b1e2e6ad2cafff"},"geometry":{"type":"Polygon","coordinates":[[[20.105028,50.094104],[20.105129,50.094101],[20.105131,50.09412],[20.105183,50.094119],[20.105186,50.094166],[20.105174,50.094166],[20.105177,50.094207],[20.105035,50.094211],[20.105028,50.094104]]]}},{"type":"Feature","id":"w1280143687","properties":{"type":"detached","address":"Lubocka 161B","residential":true,"residents_est":2,"h3_10":"8a1e2e6ad2cffff","h3_11":"8b1e2e6ad2cefff"},"geometry":{"type":"Polygon","coordinates":[[[20.104984,50.094651],[20.104988,50.094602],[20.105004,50.094603],[20.105009,50.094547],[20.105143,50.094552],[20.105129,50.094714],[20.104995,50.094709],[20.104999,50.094652],[20.104984,50.094651]]]}},{"type":"Feature","id":"w1280143691","properties":{"type":"detached","address":"Lubocka 145","residential":true,"residents_est":2,"h3_10":"8a1e2e6ad2d7fff","h3_11":"8b1e2e6ad2d5fff"},"geometry":{"type":"Polygon","coordinates":[[[20.102801,50.094412],[20.102847,50.094409],[20.102846,50.094403],[20.102855,50.094402],[20.102856,50.094409],[20.102879,50.094407],[20.102869,50.094351],[20.102961,50.094344],[20.102984,50.094479],[20.102863,50.094488],[20.102861,50.094474],[20.102813,50.094477],[20.102801,50.094412]]]}},{"type":"Feature","id":"w1341580619","properties":{"type":"yes","residential":true,"residents_est":7,"h3_10":"8a1e2e6ad32ffff","h3_11":"8b1e2e6ad32efff"},"geometry":{"type":"Polygon","coordinates":[[[20.099223,50.100676],[20.099279,50.100621],[20.100158,50.100983],[20.100102,50.101038],[20.099223,50.100676]]]}},{"type":"Feature","id":"w1341580620","properties":{"type":"yes","residential":true,"residents_est":26,"h3_10":"8a1e2e6ad32ffff","h3_11":"8b1e2e6ad32efff"},"geometry":{"type":"Polygon","coordinates":[[[20.099611,50.1007],[20.100194,50.100106],[20.100466,50.100216],[20.100405,50.100277],[20.10044,50.100292],[20.099915,50.100827],[20.099614,50.100706],[20.099618,50.100703],[20.099611,50.1007]]]}},{"type":"Feature","id":"w1341580621","properties":{"type":"yes","residential":true,"residents_est":4,"h3_10":"8a1e2e6ad307fff","h3_11":"8b1e2e6ad302fff"},"geometry":{"type":"Polygon","coordinates":[[[20.09843,50.099362],[20.098456,50.099336],[20.099086,50.099596],[20.099041,50.099649],[20.098491,50.09943],[20.09852,50.099399],[20.09843,50.099362]]]}},{"type":"Feature","id":"w1341580622","properties":{"type":"yes","residential":true,"residents_est":8,"h3_10":"8a1e2e6ad30ffff","h3_11":"8b1e2e6ad308fff"},"geometry":{"type":"Polygon","coordinates":[[[20.100522,50.099795],[20.100634,50.099532],[20.100901,50.099579],[20.100789,50.099841],[20.100522,50.099795]]]}},{"type":"Feature","id":"w1341580623","properties":{"type":"yes","residential":true,"residents_est":1,"h3_10":"8a1e2e6ad30ffff","h3_11":"8b1e2e6ad30cfff"},"geometry":{"type":"Polygon","coordinates":[[[20.100783,50.100034],[20.100864,50.099893],[20.100995,50.099923],[20.100914,50.100065],[20.100783,50.100034]]]}},{"type":"Feature","id":"w1341580624","properties":{"type":"yes","residential":true,"residents_est":1,"h3_10":"8a1e2e6ad30ffff","h3_11":"8b1e2e6ad30dfff"},"geometry":{"type":"Polygon","coordinates":[[[20.100914,50.100065],[20.100995,50.099923],[20.101131,50.099956],[20.101049,50.100096],[20.100914,50.100065]]]}},{"type":"Feature","id":"w1341580625","properties":{"type":"yes","residential":true,"residents_est":1,"h3_10":"8a1e2e6ad30ffff","h3_11":"8b1e2e6ad30dfff"},"geometry":{"type":"Polygon","coordinates":[[[20.101049,50.100096],[20.101125,50.099964],[20.101266,50.099998],[20.10119,50.10013],[20.101049,50.100096]]]}},{"type":"Feature","id":"w1362284246","properties":{"type":"roof","residential":false,"residents_est":0,"h3_10":"8a1e2e6ad397fff","h3_11":"8b1e2e6ad396fff"},"geometry":{"type":"Polygon","coordinates":[[[20.094266,50.096522],[20.094318,50.096522],[20.09432,50.096586],[20.094268,50.096587],[20.094266,50.096522]]]}},{"type":"Feature","id":"w1362284247","properties":{"type":"yes","residential":true,"residents_est":0,"h3_10":"8a1e2e6ad397fff","h3_11":"8b1e2e6ad390fff"},"geometry":{"type":"Polygon","coordinates":[[[20.095147,50.096779],[20.095241,50.096778],[20.095243,50.096832],[20.09515,50.096834],[20.095147,50.096779]]]}},{"type":"Feature","id":"w1362284248","properties":{"type":"yes","residential":true,"residents_est":0,"h3_10":"8a1e2e6ad397fff","h3_11":"8b1e2e6ad390fff"},"geometry":{"type":"Polygon","coordinates":[[[20.095275,50.096791],[20.095392,50.096788],[20.095395,50.096839],[20.095278,50.096842],[20.095275,50.096791]]]}},{"type":"Feature","id":"w1412681156","properties":{"type":"garage","residential":false,"residents_est":0,"h3_10":"8a1e2e6ad39ffff","h3_11":"8b1e2e6ad39efff"},"geometry":{"type":"Polygon","coordinates":[[[20.096333,50.096364],[20.096334,50.096335],[20.096421,50.096336],[20.09642,50.096364],[20.096333,50.096364]]]}},{"type":"Feature","id":"w1412681159","properties":{"type":"garage","residential":false,"residents_est":0,"h3_10":"8a1e2e6ad39ffff","h3_11":"8b1e2e6ad39efff"},"geometry":{"type":"Polygon","coordinates":[[[20.096336,50.096235],[20.096355,50.096219],[20.096407,50.096218],[20.09641,50.096259],[20.096337,50.096261],[20.096336,50.096235]]]}},{"type":"Feature","id":"w1412681161","properties":{"type":"detached","address":"Henryka Rowida 10","residential":true,"residents_est":2,"h3_10":"8a1e2e6ad39ffff","h3_11":"8b1e2e6ad39afff"},"geometry":{"type":"Polygon","coordinates":[[[20.096539,50.096033],[20.09656,50.096033],[20.09656,50.095978],[20.096598,50.095978],[20.096598,50.095972],[20.096676,50.095977],[20.096676,50.096092],[20.096539,50.096092],[20.096539,50.096033]]]}},{"type":"Feature","id":"w1531929241","properties":{"type":"yes","residential":false,"residents_est":0,"h3_10":"8a1e2e6ad2f7fff","h3_11":"8b1e2e6ad2f2fff"},"geometry":{"type":"Polygon","coordinates":[[[20.101795,50.094588],[20.101844,50.094584],[20.101858,50.094659],[20.10181,50.094662],[20.101795,50.094588]]]}},{"type":"Feature","id":"w1531929242","properties":{"type":"yes","residential":true,"residents_est":4,"h3_10":"8a1e2e6ad2affff","h3_11":"8b1e2e6ad2aefff"},"geometry":{"type":"Polygon","coordinates":[[[20.099317,50.095561],[20.099681,50.095551],[20.099682,50.095571],[20.099674,50.095571],[20.09968,50.095655],[20.099324,50.095665],[20.099317,50.095561]]]}},{"type":"Feature","id":"w1531929243","properties":{"type":"yes","residential":false,"residents_est":0,"h3_10":"8a1e2e6ad2b7fff","h3_11":"8b1e2e6ad2b4fff"},"geometry":{"type":"Polygon","coordinates":[[[20.0966,50.095455],[20.09665,50.095453],[20.096654,50.095518],[20.096605,50.09552],[20.0966,50.095455]]]}}]}