{"type":"FeatureCollection","features":[{"type":"Feature","id":"w231346742","properties":{"type":"yes","address":"Władysława Łokietka 202","residential":true,"residents_est":5,"h3_10":"8a1e2e79bc47fff","h3_11":"8b1e2e79bc45fff"},"geometry":{"type":"Polygon","coordinates":[[[19.907867,50.102174],[19.907954,50.102171],[19.907952,50.102143],[19.90813,50.102137],[19.908136,50.102215],[19.907966,50.10222],[19.907967,50.102231],[19.907872,50.102234],[19.907867,50.102174]]]}},{"type":"Feature","id":"w231346753","properties":{"type":"detached","address":"Chabrowa 30","residential":true,"residents_est":5,"h3_10":"8a1e2e79bccffff","h3_11":"8b1e2e79bcc9fff"},"geometry":{"type":"Polygon","coordinates":[[[19.907806,50.098686],[19.907954,50.098659],[19.907945,50.098639],[19.90797,50.098634],[19.907979,50.098655],[19.908026,50.098647],[19.908043,50.09869],[19.907826,50.098729],[19.907806,50.098686]]]}},{"type":"Feature","id":"w231346761","properties":{"type":"yes","address":"Władysława Łokietka 246a","residential":true,"residents_est":4,"h3_10":"8a1e2e79bd67fff","h3_11":"8b1e2e79bd60fff"},"geometry":{"type":"Polygon","coordinates":[[[19.904733,50.10539],[19.904795,50.105386],[19.904792,50.105369],[19.904864,50.105364],[19.904867,50.105382],[19.904909,50.105379],[19.904926,50.10547],[19.904854,50.105476],[19.904855,50.105483],[19.904747,50.105483],[19.904733,50.10539]]]}},{"type":"Feature","id":"w231346810","properties":{"type":"yes","address":"Poziomkowa 4","residential":true,"residents_est":0,"h3_10":"8a1e2e79bd5ffff","h3_11":"8b1e2e79bd59fff"},"geometry":{"type":"Polygon","coordinates":[[[19.906667,50.103126],[19.906778,50.103107],[19.906798,50.103155],[19.906689,50.103175],[19.906667,50.103126]]]}},{"type":"Feature","id":"w231346822","properties":{"type":"yes","address":"Władysława Łokietka 246","residential":true,"residents_est":4,"h3_10":"8a1e2e79bd67fff","h3_11":"8b1e2e79bd60fff"},"geometry":{"type":"Polygon","coordinates":[[[19.904909,50.105379],[19.904952,50.105376],[19.904949,50.105359],[19.905021,50.105354],[19.905024,50.105372],[19.905086,50.105368],[19.905102,50.105456],[19.905,50.105471],[19.904998,50.105464],[19.904926,50.10547],[19.904909,50.105379]]]}},{"type":"Feature","id":"w231346859","properties":{"type":"yes","address":"Władysława Łokietka 250","residential":true,"residents_est":3,"h3_10":"8a1e2e79bd67fff","h3_11":"8b1e2e79bd60fff"},"geometry":{"type":"Polygon","coordinates":[[[19.904843,50.105652],[19.904854,50.105571],[19.904935,50.105576],[19.904937,50.105561],[19.90502,50.105566],[19.905007,50.105654],[19.904934,50.105649],[19.904933,50.105657],[19.904843,50.105652]]]}},{"type":"Feature","id":"w231346912","properties":{"type":"yes","address":"Władysława Łokietka 207a","residential":true,"residents_est":4,"h3_10":"8a1e2e79bd6ffff","h3_11":"8b1e2e79bd6bfff"},"geometry":{"type":"Polygon","coordinates":[[[19.906735,50.10456],[19.90682,50.104541],[19.906825,50.10455],[19.906876,50.104539],[19.906871,50.104528],[19.906925,50.104516],[19.906969,50.104597],[19.906796,50.104632],[19.906771,50.104586],[19.906751,50.104591],[19.906735,50.10456]]]}},{"type":"Feature","id":"w231346913","properties":{"type":"yes","residential":true,"residents_est":3,"h3_10":"8a1e2e79bd47fff","h3_11":"8b1e2e79bd44fff"},"geometry":{"type":"Polygon","coordinates":[[[19.904708,50.104668],[19.90479,50.104653],[19.904848,50.104783],[19.904765,50.104798],[19.904708,50.104668]]]}},{"type":"Feature","id":"w231346916","properties":{"type":"yes","address":"Władysława Łokietka 208","residential":true,"residents_est":4,"h3_10":"8a1e2e79bc67fff","h3_11":"8b1e2e79bc63fff"},"geometry":{"type":"Polygon","coordinates":[[[19.90787,50.102599],[19.907882,50.102547],[19.907905,50.102549],[19.907911,50.102523],[19.907997,50.102531],[19.907991,50.102557],[19.908019,50.10256],[19.907997,50.102655],[19.907877,50.102644],[19.907881,50.1026],[19.90787,50.102599]]]}},{"type":"Feature","id":"w231346933","properties":{"type":"yes","address":"Władysława Łokietka 238","residential":true,"residents_est":3,"h3_10":"8a1e2e79bd47fff","h3_11":"8b1e2e79bd45fff"},"geometry":{"type":"Polygon","coordinates":[[[19.905724,50.104792],[19.905733,50.104738],[19.905756,50.104739],[19.905761,50.104711],[19.905824,50.104716],[19.905822,50.10473],[19.905898,50.104735],[19.905891,50.104778],[19.905877,50.104777],[19.905868,50.10482],[19.905743,50.104811],[19.905746,50.104794],[19.905724,50.104792]]]}},{"type":"Feature","id":"w231346975","properties":{"type":"yes","address":"Poziomkowa 6","residential":false,"residents_est":0,"h3_10":"8a1e2e79bd5ffff","h3_11":"8b1e2e79bd59fff"},"geometry":{"type":"Polygon","coordinates":[[[19.906025,50.103258],[19.906105,50.103241],[19.906127,50.103283],[19.906046,50.1033],[19.906025,50.103258]]]}},{"type":"Feature","id":"w231347004","properties":{"type":"yes","address":"Władysława Łokietka 236c","residential":true,"residents_est":6,"h3_10":"8a1e2e79bd47fff","h3_11":"8b1e2e79bd44fff"},"geometry":{"type":"Polygon","coordinates":[[[19.904922,50.104663],[19.904966,50.104656],[19.904962,50.104645],[19.905032,50.104635],[19.905041,50.104658],[19.90507,50.104654],[19.905061,50.10463],[19.90513,50.104619],[19.905134,50.104629],[19.905179,50.104622],[19.905212,50.104709],[19.904955,50.104749],[19.904922,50.104663]]]}},{"type":"Feature","id":"w231347020","properties":{"type":"yes","address":"Władysława Łokietka 236b","residential":true,"residents_est":6,"h3_10":"8a1e2e79bd47fff","h3_11":"8b1e2e79bd45fff"},"geometry":{"type":"Polygon","coordinates":[[[19.905347,50.104597],[19.905391,50.104591],[19.905388,50.104581],[19.905458,50.104573],[19.905466,50.104597],[19.905495,50.104594],[19.905487,50.104569],[19.905558,50.10456],[19.905561,50.104571],[19.905606,50.104565],[19.905631,50.104653],[19.905373,50.104684],[19.905347,50.104597]]]}},{"type":"Feature","id":"w231347044","properties":{"type":"yes","address":"Władysława Łokietka 248","residential":true,"residents_est":6,"h3_10":"8a1e2e79bd67fff","h3_11":"8b1e2e79bd66fff"},"geometry":{"type":"Polygon","coordinates":[[[19.904114,50.105482],[19.904127,50.105468],[19.904187,50.105457],[19.904196,50.105444],[19.90422,50.105441],[19.904238,50.105448],[19.904304,50.105437],[19.904323,50.105482],[19.904334,50.10548],[19.904356,50.105531],[19.904244,50.10555],[19.90425,50.105564],[19.90422,50.10557],[19.904234,50.105602],[19.904148,50.105617],[19.904127,50.105566],[19.904147,50.105563],[19.904114,50.105482]]]}},{"type":"Feature","id":"w231347050","properties":{"type":"yes","residential":true,"residents_est":16,"h3_10":"8a1e2e79bd47fff","h3_11":"8b1e2e79bd45fff"},"geometry":{"type":"Polygon","coordinates":[[[19.90575,50.104561],[19.905792,50.104559],[19.90579,50.104548],[19.90586,50.104544],[19.905863,50.104569],[19.905893,50.104568],[19.90589,50.104542],[19.905959,50.104539],[19.905961,50.104551],[19.906069,50.104564],[19.906037,50.104696],[19.905918,50.104682],[19.905935,50.104637],[19.905761,50.104647],[19.90575,50.104561]]]}},{"type":"Feature","id":"w231347119","properties":{"type":"yes","address":"Władysława Łokietka 190","residential":true,"residents_est":5,"h3_10":"8a1e2e79bc47fff","h3_11":"8b1e2e79bc43fff"},"geometry":{"type":"Polygon","coordinates":[[[19.907755,50.101469],[19.907863,50.101445],[19.907878,50.101475],[19.907915,50.101477],[19.907933,50.101492],[19.907999,50.101478],[19.908027,50.101533],[19.907831,50.10158],[19.907808,50.101542],[19.907795,50.101545],[19.907755,50.101469]]]}},{"type":"Feature","id":"w231347125","properties":{"type":"retail","address":"Władysława Łokietka 242","name":"Łokietka Centrum Handlowe","residential":false,"residents_est":0,"h3_10":"8a1e2e79bd67fff","h3_11":"8b1e2e79bd63fff"},"geometry":{"type":"Polygon","coordinates":[[[19.904706,50.105126],[19.905402,50.10502],[19.905424,50.105081],[19.90525,50.105108],[19.905276,50.105182],[19.904756,50.105262],[19.904706,50.105126]]]}},{"type":"Feature","id":"w231347157","properties":{"type":"yes","address":"Władysława Łokietka 254","residential":true,"residents_est":3,"h3_10":"8a1e2e79bd67fff","h3_11":"8b1e2e79bd64fff"},"geometry":{"type":"Polygon","coordinates":[[[19.904705,50.105901],[19.904708,50.105818],[19.904871,50.10582],[19.904868,50.105903],[19.904705,50.105901]]]}},{"type":"Feature","id":"w231347179","properties":{"type":"yes","address":"Władysława Łokietka 209","residential":true,"residents_est":3,"h3_10":"8a1e2e79bd6ffff","h3_11":"8b1e2e79bd6efff"},"geometry":{"type":"Polygon","coordinates":[[[19.90613,50.104938],[19.90629,50.104928],[19.906296,50.104966],[19.906333,50.104963],[19.906338,50.105002],[19.906143,50.105018],[19.90613,50.104938]]]}},{"type":"Feature","id":"w231347188","properties":{"type":"yes","residential":false,"residents_est":0,"h3_10":"8a1e2e79bc67fff","h3_11":"8b1e2e79bc61fff"},"geometry":{"type":"Polygon","coordinates":[[[19.90825,50.10303],[19.908392,50.103],[19.908408,50.10303],[19.908265,50.10306],[19.90825,50.10303]]]}},{"type":"Feature","id":"w231347210","properties":{"type":"yes","residential":true,"residents_est":4,"h3_10":"8a1e2e79bc6ffff","h3_11":"8b1e2e79bc6cfff"},"geometry":{"type":"Polygon","coordinates":[[[19.908509,50.102974],[19.908791,50.102912],[19.908817,50.102961],[19.908534,50.103022],[19.908509,50.102974]]]}},{"type":"Feature","id":"w231347268","properties":{"type":"yes","residential":false,"residents_est":0,"h3_10":"8a1e2e79bc4ffff","h3_11":"8b1e2e79bc4efff"},"geometry":{"type":"Polygon","coordinates":[[[19.908933,50.101351],[19.908958,50.101281],[19.909013,50.101289],[19.908988,50.101359],[19.908933,50.101351]]]}},{"type":"Feature","id":"w231347276","properties":{"type":"yes","residential":true,"residents_est":2,"h3_10":"8a1e2e79bc67fff","h3_11":"8b1e2e79bc60fff"},"geometry":{"type":"Polygon","coordinates":[[[19.907393,50.102975],[19.90756,50.102959],[19.907573,50.103014],[19.907406,50.10303],[19.907393,50.102975]]]}},{"type":"Feature","id":"w231347279","properties":{"type":"yes","residential":true,"residents_est":2,"h3_10":"8a1e2e79bc47fff","h3_11":"8b1e2e79bc45fff"},"geometry":{"type":"Polygon","coordinates":[[[19.907791,50.102016],[19.90791,50.101998],[19.907931,50.102055],[19.907812,50.102073],[19.907791,50.102016]]]}},{"type":"Feature","id":"w231347307","properties":{"type":"yes","address":"Władysława Łokietka 213","residential":true,"residents_est":7,"h3_10":"8a1e2e79bd67fff","h3_11":"8b1e2e79bd61fff"},"geometry":{"type":"Polygon","coordinates":[[[19.905776,50.105496],[19.905781,50.105393],[19.905907,50.105396],[19.905908,50.105408],[19.90594,50.105409],[19.905941,50.105396],[19.906069,50.105399],[19.906064,50.105502],[19.905776,50.105496]]]}},{"type":"Feature","id":"w231347364","properties":{"type":"yes","residential":true,"residents_est":1,"h3_10":"8a1e2e79bc47fff","h3_11":"8b1e2e79bc41fff"},"geometry":{"type":"Polygon","coordinates":[[[19.908414,50.10191],[19.908415,50.101841],[19.908492,50.101842],[19.90849,50.101911],[19.908414,50.10191]]]}},{"type":"Feature","id":"w231347393","properties":{"type":"yes","address":"Władysława Łokietka 216","residential":true,"residents_est":3,"h3_10":"8a1e2e79bc67fff","h3_11":"8b1e2e79bc65fff"},"geometry":{"type":"Polygon","coordinates":[[[19.907637,50.103089],[19.907684,50.102992],[19.907809,50.10301],[19.907762,50.103107],[19.907637,50.103089]]]}},{"type":"Feature","id":"w231347416","properties":{"type":"yes","residential":false,"residents_est":0,"h3_10":"8a1e2e79bc47fff","h3_11":"8b1e2e79bc41fff"},"geometry":{"type":"Polygon","coordinates":[[[19.90863,50.101917],[19.908644,50.101882],[19.908738,50.101898],[19.908724,50.101933],[19.90863,50.101917]]]}},{"type":"Feature","id":"w231347420","properties":{"type":"yes","address":"Władysława Łokietka 200","residential":true,"residents_est":3,"h3_10":"8a1e2e79bc47fff","h3_11":"8b1e2e79bc45fff"},"geometry":{"type":"Polygon","coordinates":[[[19.908331,50.102054],[19.908341,50.10198],[19.908489,50.101988],[19.90848,50.102062],[19.908331,50.102054]]]}},{"type":"Feature","id":"w231347494","properties":{"type":"yes","residential":true,"residents_est":1,"h3_10":"8a1e2e79bc6ffff","h3_11":"8b1e2e79bc6bfff"},"geometry":{"type":"Polygon","coordinates":[[[19.909455,50.102059],[19.909599,50.102025],[19.909619,50.10206],[19.909475,50.102094],[19.909455,50.102059]]]}},{"type":"Feature","id":"w231347499","properties":{"type":"yes","address":"Władysława Łokietka 218","residential":true,"residents_est":3,"h3_10":"8a1e2e79bc67fff","h3_11":"8b1e2e79bc64fff"},"geometry":{"type":"Polygon","coordinates":[[[19.907263,50.103212],[19.907265,50.103192],[19.90729,50.103192],[19.907297,50.103136],[19.907448,50.103143],[19.907438,50.10322],[19.907263,50.103212]]]}},{"type":"Feature","id":"w231347503","properties":{"type":"yes","residential":true,"residents_est":2,"h3_10":"8a1e2e79bd4ffff","h3_11":"8b1e2e79bd4afff"},"geometry":{"type":"Polygon","coordinates":[[[19.906983,50.103714],[19.907002,50.103653],[19.907125,50.103669],[19.907106,50.10373],[19.906983,50.103714]]]}},{"type":"Feature","id":"w231347510","properties":{"type":"yes","address":"Władysława Łokietka 185","residential":true,"residents_est":3,"h3_10":"8a1e2e79bc6ffff","h3_11":"8b1e2e79bc6afff"},"geometry":{"type":"Polygon","coordinates":[[[19.908964,50.102102],[19.909097,50.102086],[19.909126,50.10217],[19.908994,50.102189],[19.908964,50.102102]]]}},{"type":"Feature","id":"w231347536","properties":{"type":"yes","address":"Władysława Łokietka 217","residential":true,"residents_est":3,"h3_10":"8a1e2e79bd67fff","h3_11":"8b1e2e79bd65fff"},"geometry":{"type":"Polygon","coordinates":[[[19.905458,50.105668],[19.905584,50.105657],[19.905606,50.105762],[19.90548,50.105773],[19.905458,50.105668]]]}},{"type":"Feature","id":"w231347555","properties":{"type":"yes","residential":false,"residents_est":0,"h3_10":"8a1e2e79bd5ffff","h3_11":"8b1e2e79bd58fff"},"geometry":{"type":"Polygon","coordinates":[[[19.905837,50.103278],[19.905917,50.103262],[19.905943,50.103313],[19.905862,50.10333],[19.905837,50.103278]]]}},{"type":"Feature","id":"w231347594","properties":{"type":"yes","residential":false,"residents_est":0,"h3_10":"8a1e2e79bc47fff","h3_11":"8b1e2e79bc43fff"},"geometry":{"type":"Polygon","coordinates":[[[19.908024,50.101369],[19.908103,50.101351],[19.908132,50.101401],[19.908053,50.10142],[19.908024,50.101369]]]}},{"type":"Feature","id":"w231347610","properties":{"type":"yes","residential":false,"residents_est":0,"h3_10":"8a1e2e79bc4ffff","h3_11":"8b1e2e79bc4efff"},"geometry":{"type":"Polygon","coordinates":[[[19.908942,50.101484],[19.908971,50.101429],[19.909043,50.101442],[19.909013,50.101499],[19.908942,50.101484]]]}},{"type":"Feature","id":"w231347611","properties":{"type":"yes","address":"Władysława Łokietka 224","residential":true,"residents_est":3,"h3_10":"8a1e2e79bd4ffff","h3_11":"8b1e2e79bd4afff"},"geometry":{"type":"Polygon","coordinates":[[[19.907002,50.103653],[19.907037,50.103544],[19.90716,50.103561],[19.907125,50.103669],[19.907002,50.103653]]]}},{"type":"Feature","id":"w231347636","properties":{"type":"yes","address":"Władysława Łokietka 192","residential":true,"residents_est":2,"h3_10":"8a1e2e79bc4ffff","h3_11":"8b1e2e79bc4efff"},"geometry":{"type":"Polygon","coordinates":[[[19.908997,50.10153],[19.909043,50.101442],[19.909152,50.101463],[19.909108,50.101549],[19.908997,50.10153]]]}},{"type":"Feature","id":"w231347672","properties":{"type":"yes","address":"Władysława Łokietka 203","residential":true,"residents_est":2,"h3_10":"8a1e2e79bd4ffff","h3_11":"8b1e2e79bd48fff"},"geometry":{"type":"Polygon","coordinates":[[[19.907393,50.103863],[19.907506,50.103841],[19.907536,50.103912],[19.907422,50.103934],[19.907393,50.103863]]]}},{"type":"Feature","id":"w231347686","properties":{"type":"detached","address":"Władysława Łokietka 201","residential":true,"residents_est":3,"h3_10":"8a1e2e79bd4ffff","h3_11":"8b1e2e79bd4bfff"},"geometry":{"type":"Polygon","coordinates":[[[19.907513,50.103751],[19.907615,50.103733],[19.907609,50.103718],[19.907644,50.103712],[19.907671,50.10377],[19.907535,50.103795],[19.907513,50.103751]]]}},{"type":"Feature","id":"w231347688","properties":{"type":"yes","residential":false,"residents_est":0,"h3_10":"8a1e2e79bd4ffff","h3_11":"8b1e2e79bd49fff"},"geometry":{"type":"Polygon","coordinates":[[[19.907507,50.103844],[19.907568,50.103832],[19.907599,50.1039],[19.907536,50.103912],[19.907507,50.103844]]]}},{"type":"Feature","id":"w231347697","properties":{"type":"yes","address":"Władysława Łokietka 219","residential":true,"residents_est":3,"h3_10":"8a1e2e79bd67fff","h3_11":"8b1e2e79bd65fff"},"geometry":{"type":"Polygon","coordinates":[[[19.90548,50.105773],[19.905626,50.10576],[19.905645,50.105851],[19.9055,50.105863],[19.90548,50.105773]]]}},{"type":"Feature","id":"w231347734","properties":{"type":"yes","residential":false,"residents_est":0,"h3_10":"8a1e2e79bc47fff","h3_11":"8b1e2e79bc43fff"},"geometry":{"type":"Polygon","coordinates":[[[19.907949,50.101552],[19.908049,50.101529],[19.908067,50.101564],[19.907965,50.101585],[19.907949,50.101552]]]}},{"type":"Feature","id":"w231347754","properties":{"type":"yes","residential":true,"residents_est":7,"h3_10":"8a1e2e79bd6ffff","h3_11":"8b1e2e79bd6cfff"},"geometry":{"type":"Polygon","coordinates":[[[19.906167,50.105401],[19.906172,50.105298],[19.906299,50.1053],[19.906298,50.105312],[19.906332,50.105313],[19.906333,50.105301],[19.90646,50.105303],[19.906455,50.105407],[19.906167,50.105401]]]}},{"type":"Feature","id":"w231347766","properties":{"type":"yes","address":"Władysława Łokietka 197","residential":true,"residents_est":3,"h3_10":"8a1e2e79bc67fff","h3_11":"8b1e2e79bc61fff"},"geometry":{"type":"Polygon","coordinates":[[[19.908206,50.102951],[19.908352,50.10292],[19.908392,50.103],[19.908246,50.103031],[19.908206,50.102951]]]}},{"type":"Feature","id":"w231347812","properties":{"type":"yes","residential":true,"residents_est":1,"h3_10":"8a1e2e79bd67fff","h3_11":"8b1e2e79bd64fff"},"geometry":{"type":"Polygon","coordinates":[[[19.9046,50.1056],[19.90475,50.105597],[19.904752,50.10564],[19.904602,50.105643],[19.9046,50.1056]]]}},{"type":"Feature","id":"w231347828","properties":{"type":"yes","residential":true,"residents_est":2,"h3_10":"8a1e2e79bc67fff","h3_11":"8b1e2e79bc63fff"},"geometry":{"type":"Polygon","coordinates":[[[19.907888,50.102521],[19.907898,50.102474],[19.908096,50.102493],[19.908087,50.102539],[19.907888,50.102521]]]}},{"type":"Feature","id":"w231347839","properties":{"type":"yes","residential":true,"residents_est":7,"h3_10":"8a1e2e79bd4ffff","h3_11":"8b1e2e79bd4efff"},"geometry":{"type":"Polygon","coordinates":[[[19.90601,50.103844],[19.906288,50.103814],[19.906285,50.1038],[19.906396,50.103791],[19.906406,50.103885],[19.906307,50.103888],[19.906235,50.103898],[19.906231,50.103882],[19.906025,50.103904],[19.90601,50.103844]]]}},{"type":"Feature","id":"w231347842","properties":{"type":"yes","address":"Władysława Łokietka 207","residential":true,"residents_est":4,"h3_10":"8a1e2e79bd4ffff","h3_11":"8b1e2e79bd4cfff"},"geometry":{"type":"Polygon","coordinates":[[[19.906972,50.104307],[19.907136,50.104275],[19.907178,50.104362],[19.907138,50.104371],[19.907146,50.104389],[19.907022,50.104413],[19.906972,50.104307]]]}},{"type":"Feature","id":"w231347873","properties":{"type":"yes","residential":true,"residents_est":2,"h3_10":"8a1e2e79bd67fff","h3_11":"8b1e2e79bd64fff"},"geometry":{"type":"Polygon","coordinates":[[[19.904532,50.105756],[19.904643,50.105749],[19.904656,50.10583],[19.904545,50.105837],[19.904532,50.105756]]]}},{"type":"Feature","id":"w231347875","properties":{"type":"yes","residential":true,"residents_est":2,"h3_10":"8a1e2e79bc6ffff","h3_11":"8b1e2e79bc6bfff"},"geometry":{"type":"Polygon","coordinates":[[[19.909367,50.102012],[19.909531,50.101974],[19.909553,50.102014],[19.909389,50.102052],[19.909367,50.102012]]]}},{"type":"Feature","id":"w231347881","properties":{"type":"yes","residential":true,"residents_est":3,"h3_10":"8a1e2e79bc6ffff","h3_11":"8b1e2e79bc6bfff"},"geometry":{"type":"Polygon","coordinates":[[[19.909261,50.102036],[19.909366,50.10201],[19.909426,50.102117],[19.90932,50.102144],[19.909261,50.102036]]]}},{"type":"Feature","id":"w231347886","properties":{"type":"yes","residential":false,"residents_est":0,"h3_10":"8a1e2e79bd4ffff","h3_11":"8b1e2e79bd4bfff"},"geometry":{"type":"Polygon","coordinates":[[[19.907651,50.103727],[19.907712,50.103716],[19.907731,50.103757],[19.907671,50.10377],[19.907651,50.103727]]]}},{"type":"Feature","id":"w231347897","properties":{"type":"yes","address":"Władysława Łokietka 198","residential":false,"residents_est":0,"h3_10":"8a1e2e79bc47fff","h3_11":"8b1e2e79bc41fff"},"geometry":{"type":"Polygon","coordinates":[[[19.908557,50.101916],[19.90858,50.101861],[19.908648,50.101873],[19.908625,50.101928],[19.908557,50.101916]]]}},{"type":"Feature","id":"w231347921","properties":{"type":"yes","residential":false,"residents_est":0,"h3_10":"8a1e2e79bd47fff","h3_11":"8b1e2e79bd45fff"},"geometry":{"type":"Polygon","coordinates":[[[19.905923,50.104712],[19.905932,50.104684],[19.906069,50.104704],[19.906045,50.104737],[19.905987,50.104721],[19.905923,50.104712]]]}},{"type":"Feature","id":"w231347934","properties":{"type":"yes","residential":true,"residents_est":1,"h3_10":"8a1e2e79bd67fff","h3_11":"8b1e2e79bd64fff"},"geometry":{"type":"Polygon","coordinates":[[[19.904523,50.105708],[19.904636,50.1057],[19.904644,50.105748],[19.904531,50.105756],[19.904523,50.105708]]]}},{"type":"Feature","id":"w231347969","properties":{"type":"yes","address":"Władysława Łokietka 228","residential":true,"residents_est":3,"h3_10":"8a1e2e79bd4ffff","h3_11":"8b1e2e79bd4efff"},"geometry":{"type":"Polygon","coordinates":[[[19.906496,50.103989],[19.906499,50.103939],[19.906534,50.10394],[19.906535,50.103924],[19.906681,50.103927],[19.906679,50.103973],[19.906665,50.103973],[19.906663,50.104014],[19.906531,50.104012],[19.906532,50.10399],[19.906496,50.103989]]]}},{"type":"Feature","id":"w231348010","properties":{"type":"yes","address":"Władysława Łokietka 220","residential":true,"residents_est":2,"h3_10":"8a1e2e79bc67fff","h3_11":"8b1e2e79bc64fff"},"geometry":{"type":"Polygon","coordinates":[[[19.907174,50.103351],[19.907189,50.103286],[19.907312,50.103296],[19.907298,50.103362],[19.907174,50.103351]]]}},{"type":"Feature","id":"w231348030","properties":{"type":"yes","residential":true,"residents_est":4,"h3_10":"8a1e2e79bd6ffff","h3_11":"8b1e2e79bd6afff"},"geometry":{"type":"Polygon","coordinates":[[[19.906449,50.104872],[19.906615,50.104845],[19.906654,50.104949],[19.906488,50.104977],[19.906449,50.104872]]]}},{"type":"Feature","id":"w231348042","properties":{"type":"yes","residential":true,"residents_est":2,"h3_10":"8a1e2e79bc47fff","h3_11":"8b1e2e79bc45fff"},"geometry":{"type":"Polygon","coordinates":[[[19.908219,50.102159],[19.908349,50.102155],[19.908354,50.102219],[19.908224,50.102224],[19.908219,50.102159]]]}},{"type":"Feature","id":"w231348043","properties":{"type":"yes","residential":true,"residents_est":2,"h3_10":"8a1e2e79bd4ffff","h3_11":"8b1e2e79bd4efff"},"geometry":{"type":"Polygon","coordinates":[[[19.906396,50.103791],[19.906495,50.103787],[19.906504,50.103881],[19.906406,50.103885],[19.906396,50.103791]]]}},{"type":"Feature","id":"w231348067","properties":{"type":"yes","address":"Władysława Łokietka 226","residential":true,"residents_est":4,"h3_10":"8a1e2e79bd4ffff","h3_11":"8b1e2e79bd4afff"},"geometry":{"type":"Polygon","coordinates":[[[19.906682,50.103874],[19.906687,50.103772],[19.906699,50.103772],[19.906701,50.103751],[19.906783,50.103752],[19.906782,50.103774],[19.90683,50.103775],[19.906826,50.103877],[19.906682,50.103874]]]}},{"type":"Feature","id":"w231348113","properties":{"type":"yes","address":"Władysława Łokietka 190A","residential":true,"residents_est":3,"h3_10":"8a1e2e79bc4ffff","h3_11":"8b1e2e79bc4efff"},"geometry":{"type":"Polygon","coordinates":[[[19.90852,50.101436],[19.908685,50.101428],[19.908686,50.101435],[19.908749,50.101431],[19.908756,50.101488],[19.90861,50.101495],[19.908611,50.101503],[19.908528,50.101506],[19.90852,50.101436]]]}},{"type":"Feature","id":"w231348170","properties":{"type":"yes","address":"Władysława Łokietka 204","residential":true,"residents_est":5,"h3_10":"8a1e2e79bc67fff","h3_11":"8b1e2e79bc63fff"},"geometry":{"type":"Polygon","coordinates":[[[19.907656,50.102375],[19.907684,50.102372],[19.907671,50.10232],[19.907832,50.102301],[19.907862,50.102408],[19.907664,50.10243],[19.907656,50.102375]]]}},{"type":"Feature","id":"w231348182","properties":{"type":"yes","residential":true,"residents_est":4,"h3_10":"8a1e2e79bc6ffff","h3_11":"8b1e2e79bc6cfff"},"geometry":{"type":"Polygon","coordinates":[[[19.908789,50.102828],[19.908909,50.102802],[19.908975,50.102926],[19.908855,50.102952],[19.908789,50.102828]]]}},{"type":"Feature","id":"w231348202","properties":{"type":"yes","address":"Władysława Łokietka 188","residential":true,"residents_est":3,"h3_10":"8a1e2e79bc4ffff","h3_11":"8b1e2e79bc4efff"},"geometry":{"type":"Polygon","coordinates":[[[19.908988,50.101359],[19.909019,50.101271],[19.909156,50.101293],[19.909147,50.101314],[19.909183,50.10132],[19.909166,50.101362],[19.909133,50.101357],[19.909124,50.10138],[19.908988,50.101359]]]}},{"type":"Feature","id":"w247399731","properties":{"type":"house","levels":1.0,"residential":true,"residents_est":2,"h3_10":"8a1e2e79bd47fff","h3_11":"8b1e2e79bd41fff"},"geometry":{"type":"Polygon","coordinates":[[[19.905978,50.104224],[19.905978,50.104202],[19.90615,50.104208],[19.906144,50.10427],[19.906031,50.104265],[19.906033,50.104226],[19.905978,50.104224]]]}},{"type":"Feature","id":"w292246153","properties":{"type":"yes","address":"Poziomkowa 5","residential":true,"residents_est":5,"h3_10":"8a1e2e79bc67fff","h3_11":"8b1e2e79bc66fff"},"geometry":{"type":"Polygon","coordinates":[[[19.906705,50.102927],[19.906718,50.102924],[19.906707,50.102902],[19.90684,50.102875],[19.906844,50.102882],[19.906927,50.102865],[19.906964,50.10294],[19.906795,50.102975],[19.906793,50.10297],[19.906745,50.102979],[19.906734,50.102957],[19.906722,50.10296],[19.906705,50.102927]]]}},{"type":"Feature","id":"w484628895","properties":{"type":"yes","residential":false,"residents_est":0,"h3_10":"8a1e2e79bd07fff","h3_11":"8b1e2e79bd03fff"},"geometry":{"type":"Polygon","coordinates":[[[19.900504,50.104097],[19.900505,50.104072],[19.900593,50.104073],[19.900592,50.104098],[19.900504,50.104097]]]}},{"type":"Feature","id":"w706399903","properties":{"type":"yes","address":"Władysława Łokietka 240F","residential":true,"residents_est":7,"h3_10":"8a1e2e79bd2ffff","h3_11":"8b1e2e79bd2dfff"},"geometry":{"type":"Polygon","coordinates":[[[19.902396,50.10537],[19.902611,50.10532],[19.902614,50.105324],[19.902674,50.105312],[19.90272,50.105403],[19.902443,50.105462],[19.902396,50.10537]]]}},{"type":"Feature","id":"w706399905","properties":{"type":"yes","address":"Władysława Łokietka 240G","residential":true,"residents_est":7,"h3_10":"8a1e2e79bd2ffff","h3_11":"8b1e2e79bd2dfff"},"geometry":{"type":"Polygon","coordinates":[[[19.902012,50.105451],[19.902078,50.105437],[19.902076,50.105432],[19.902289,50.105392],[19.902336,50.105484],[19.902059,50.105543],[19.902012,50.105451]]]}},{"type":"Feature","id":"w706399908","properties":{"type":"yes","residential":false,"residents_est":0,"h3_10":"8a1e2e79bd47fff","h3_11":"8b1e2e79bd45fff"},"geometry":{"type":"Polygon","coordinates":[[[19.905482,50.104757],[19.905531,50.104752],[19.905528,50.10474],[19.905547,50.104735],[19.905559,50.104785],[19.905491,50.104792],[19.905482,50.104757]]]}},{"type":"Feature","id":"w706399909","properties":{"type":"yes","address":"Władysława Łokietka 244","residential":false,"residents_est":0,"h3_10":"8a1e2e79bd67fff","h3_11":"8b1e2e79bd60fff"},"geometry":{"type":"Polygon","coordinates":[[[19.905292,50.105329],[19.905341,50.105278],[19.905398,50.105301],[19.905347,50.105353],[19.905292,50.105329]]]}},{"type":"Feature","id":"w706399910","properties":{"type":"yes","address":"Władysława Łokietka 244A","residential":false,"residents_est":0,"h3_10":"8a1e2e79bd67fff","h3_11":"8b1e2e79bd60fff"},"geometry":{"type":"Polygon","coordinates":[[[19.905237,50.105359],[19.905276,50.105322],[19.905347,50.105353],[19.905308,50.10539],[19.905237,50.105359]]]}},{"type":"Feature","id":"w706399911","properties":{"type":"yes","address":"Władysława Łokietka 244B","residential":false,"residents_est":0,"h3_10":"8a1e2e79bd67fff","h3_11":"8b1e2e79bd60fff"},"geometry":{"type":"Polygon","coordinates":[[[19.9052,50.105395],[19.905237,50.105359],[19.905308,50.10539],[19.905271,50.105426],[19.9052,50.105395]]]}},{"type":"Feature","id":"w706399913","properties":{"type":"yes","address":"Władysława Łokietka 240D","residential":true,"residents_est":16,"h3_10":"8a1e2e79bd77fff","h3_11":"8b1e2e79bd75fff"},"geometry":{"type":"Polygon","coordinates":[[[19.903972,50.105034],[19.904026,50.105024],[19.90402,50.105013],[19.904219,50.104977],[19.904224,50.104988],[19.904278,50.104979],[19.90429,50.105007],[19.90427,50.10501],[19.904277,50.105027],[19.904297,50.105023],[19.904319,50.105073],[19.904013,50.105129],[19.903992,50.10508],[19.903999,50.105078],[19.903993,50.105066],[19.903987,50.105067],[19.903972,50.105034]]]}},{"type":"Feature","id":"w706399914","properties":{"type":"yes","address":"Władysława Łokietka 240C","residential":true,"residents_est":16,"h3_10":"8a1e2e79bd67fff","h3_11":"8b1e2e79bd62fff"},"geometry":{"type":"Polygon","coordinates":[[[19.904386,50.104959],[19.904439,50.104949],[19.904434,50.104938],[19.904633,50.104902],[19.904637,50.104914],[19.904692,50.104904],[19.904704,50.104932],[19.904683,50.104936],[19.904691,50.104953],[19.904711,50.104949],[19.904733,50.104998],[19.904428,50.105054],[19.904406,50.105004],[19.904413,50.105003],[19.904407,50.104991],[19.904401,50.104992],[19.904386,50.104959]]]}},{"type":"Feature","id":"w706399915","properties":{"type":"yes","address":"Władysława Łokietka 242B","residential":true,"residents_est":15,"h3_10":"8a1e2e79bd67fff","h3_11":"8b1e2e79bd66fff"},"geometry":{"type":"Polygon","coordinates":[[[19.904234,50.105263],[19.904286,50.105251],[19.904281,50.10524],[19.904462,50.105203],[19.904467,50.105215],[19.90452,50.105204],[19.904567,50.105298],[19.904428,50.105329],[19.904422,50.105317],[19.904392,50.105323],[19.904397,50.105333],[19.904281,50.105356],[19.904234,50.105263]]]}},{"type":"Feature","id":"w706399916","properties":{"type":"yes","address":"Władysława Łokietka 240B","residential":true,"residents_est":16,"h3_10":"8a1e2e79bd47fff","h3_11":"8b1e2e79bd44fff"},"geometry":{"type":"Polygon","coordinates":[[[19.904804,50.104887],[19.904858,50.104878],[19.904853,50.104867],[19.905053,50.104833],[19.905057,50.104845],[19.905112,50.104836],[19.905123,50.104865],[19.905103,50.104868],[19.905109,50.104885],[19.90513,50.104882],[19.905149,50.104931],[19.904843,50.104983],[19.904823,50.104933],[19.904829,50.104932],[19.904824,50.104919],[19.904818,50.10492],[19.904804,50.104887]]]}},{"type":"Feature","id":"w706399917","properties":{"type":"yes","address":"Władysława Łokietka 205A","residential":true,"residents_est":214,"h3_10":"8a1e2e79bd6ffff","h3_11":"8b1e2e79bd69fff"},"geometry":{"type":"Polygon","coordinates":[[[19.907,50.105174],[19.907107,50.10507],[19.907131,50.10508],[19.907144,50.105067],[19.907121,50.105057],[19.907359,50.104826],[19.907334,50.104815],[19.907446,50.104706],[19.907471,50.104716],[19.907602,50.104589],[19.907624,50.104598],[19.907638,50.104586],[19.907615,50.104576],[19.907721,50.104472],[19.907865,50.104532],[19.907853,50.104544],[19.908591,50.104858],[19.908604,50.104845],[19.908591,50.104839],[19.908634,50.104798],[19.908825,50.104879],[19.908758,50.104945],[19.908779,50.104954],[19.90879,50.104942],[19.908846,50.104966],[19.908743,50.105065],[19.908476,50.104952],[19.908489,50.104939],[19.908464,50.104928],[19.908458,50.104934],[19.907759,50.104636],[19.907746,50.104649],[19.907756,50.104655],[19.907728,50.104683],[19.907716,50.104677],[19.907541,50.104848],[19.907568,50.10486],[19.907499,50.104928],[19.90747,50.104917],[19.907294,50.105089],[19.907306,50.105094],[19.907277,50.105123],[19.907265,50.105117],[19.90725,50.10513],[19.907951,50.105427],[19.907944,50.105434],[19.90797,50.105444],[19.907983,50.105431],[19.908249,50.105545],[19.90815,50.105644],[19.908091,50.105622],[19.908105,50.10561],[19.908082,50.105601],[19.908014,50.105666],[19.907824,50.105586],[19.907865,50.105544],[19.907879,50.10555],[19.907894,50.105535],[19.907156,50.105223],[19.907143,50.105235],[19.907,50.105174]]]}},{"type":"Feature","id":"w706399924","properties":{"type":"yes","residential":false,"residents_est":0,"h3_10":"8a1e2e79bc67fff","h3_11":"8b1e2e79bc64fff"},"geometry":{"type":"Polygon","coordinates":[[[19.907043,50.103229],[19.90717,50.103226],[19.907169,50.103249],[19.907146,50.103259],[19.907044,50.103259],[19.907043,50.103229]]]}},{"type":"Feature","id":"w706399925","properties":{"type":"yes","residential":false,"residents_est":0,"h3_10":"8a1e2e79bc67fff","h3_11":"8b1e2e79bc60fff"},"geometry":{"type":"Polygon","coordinates":[[[19.907331,50.103048],[19.907392,50.103044],[19.907397,50.103079],[19.907336,50.103082],[19.907331,50.103048]]]}},{"type":"Feature","id":"w706399926","properties":{"type":"yes","address":"Poziomkowa 3","residential":true,"residents_est":5,"h3_10":"8a1e2e79bc67fff","h3_11":"8b1e2e79bc60fff"},"geometry":{"type":"Polygon","coordinates":[[[19.907135,50.102848],[19.907148,50.102846],[19.907138,50.102824],[19.90727,50.102796],[19.907274,50.102803],[19.907358,50.102786],[19.907395,50.102861],[19.907257,50.10289],[19.907253,50.102885],[19.907231,50.102889],[19.907233,50.102894],[19.907225,50.102896],[19.907223,50.102892],[19.907175,50.102901],[19.907164,50.10288],[19.907152,50.102882],[19.907135,50.102848]]]}},{"type":"Feature","id":"w706399927","properties":{"type":"yes","residential":false,"residents_est":0,"h3_10":"8a1e2e79bd4ffff","h3_11":"8b1e2e79bd4efff"},"geometry":{"type":"Polygon","coordinates":[[[19.906499,50.103814],[19.90656,50.103812],[19.906565,50.103859],[19.906503,50.103861],[19.906499,50.103814]]]}},{"type":"Feature","id":"w706399928","properties":{"type":"yes","residential":true,"residents_est":1,"h3_10":"8a1e2e79bd47fff","h3_11":"8b1e2e79bd43fff"},"geometry":{"type":"Polygon","coordinates":[[[19.905905,50.103859],[19.906011,50.103848],[19.906025,50.103904],[19.905919,50.103914],[19.905905,50.103859]]]}},{"type":"Feature","id":"w706399929","properties":{"type":"yes","address":"Władysława Łokietka 230","residential":true,"residents_est":6,"h3_10":"8a1e2e79bd47fff","h3_11":"8b1e2e79bd43fff"},"geometry":{"type":"Polygon","coordinates":[[[19.905905,50.104019],[19.905995,50.104012],[19.905994,50.104007],[19.906144,50.104],[19.906163,50.104099],[19.905924,50.104117],[19.905905,50.104019]]]}},{"type":"Feature","id":"w706399930","properties":{"type":"yes","address":"Władysława Łokietka 230A","residential":true,"residents_est":6,"h3_10":"8a1e2e79bd47fff","h3_11":"8b1e2e79bd43fff"},"geometry":{"type":"Polygon","coordinates":[[[19.905555,50.104047],[19.905644,50.10404],[19.905643,50.104034],[19.905794,50.104028],[19.905813,50.104126],[19.905573,50.104145],[19.905555,50.104047]]]}},{"type":"Feature","id":"w706399931","properties":{"type":"yes","address":"Władysława Łokietka 230B","residential":true,"residents_est":6,"h3_10":"8a1e2e79bd47fff","h3_11":"8b1e2e79bd40fff"},"geometry":{"type":"Polygon","coordinates":[[[19.905189,50.104111],[19.905364,50.104075],[19.905367,50.10408],[19.905422,50.104071],[19.905462,50.104167],[19.90523,50.104207],[19.905189,50.104111]]]}},{"type":"Feature","id":"w706399932","properties":{"type":"yes","address":"Władysława Łokietka 230C","residential":true,"residents_est":6,"h3_10":"8a1e2e79bd47fff","h3_11":"8b1e2e79bd46fff"},"geometry":{"type":"Polygon","coordinates":[[[19.904848,50.10417],[19.905023,50.104134],[19.905025,50.10414],[19.905081,50.10413],[19.905121,50.104226],[19.904888,50.104265],[19.904848,50.10417]]]}},{"type":"Feature","id":"w839663543","properties":{"type":"yes","address":"Skotnica 35F","residential":true,"residents_est":3,"h3_10":"8a1e2e79bd2ffff","h3_11":"8b1e2e79bd2cfff"},"geometry":{"type":"Polygon","coordinates":[[[19.901598,50.105527],[19.901701,50.105506],[19.901756,50.105615],[19.901706,50.105626],[19.901696,50.105606],[19.901654,50.105615],[19.901638,50.105583],[19.901627,50.105585],[19.901598,50.105527]]]}},{"type":"Feature","id":"w839663552","properties":{"type":"yes","address":"Skotnica 35","residential":true,"residents_est":3,"h3_10":"8a1e2e79bd27fff","h3_11":"8b1e2e79bd25fff"},"geometry":{"type":"Polygon","coordinates":[[[19.900611,50.105717],[19.900714,50.105699],[19.900761,50.10581],[19.900711,50.105819],[19.900703,50.105799],[19.90066,50.105807],[19.900647,50.105774],[19.900636,50.105776],[19.900611,50.105717]]]}},{"type":"Feature","id":"w839663556","properties":{"type":"yes","address":"Skotnica 35E","residential":true,"residents_est":2,"h3_10":"8a1e2e79bd2ffff","h3_11":"8b1e2e79bd2cfff"},"geometry":{"type":"Polygon","coordinates":[[[19.901375,50.105575],[19.901476,50.105554],[19.901505,50.105612],[19.901494,50.105614],[19.90151,50.105646],[19.901468,50.105655],[19.901478,50.105675],[19.90143,50.105685],[19.901375,50.105575]]]}},{"type":"Feature","id":"w839663561","properties":{"type":"yes","residential":true,"residents_est":7,"h3_10":"8a1e2e79bd6ffff","h3_11":"8b1e2e79bd68fff"},"geometry":{"type":"Polygon","coordinates":[[[19.906463,50.105123],[19.906468,50.105017],[19.906748,50.105023],[19.906742,50.105128],[19.906619,50.105126],[19.90662,50.105113],[19.906592,50.105113],[19.906591,50.105125],[19.906463,50.105123]]]}},{"type":"Feature","id":"w839663562","properties":{"type":"yes","residential":true,"residents_est":7,"h3_10":"8a1e2e79bd6ffff","h3_11":"8b1e2e79bd6efff"},"geometry":{"type":"Polygon","coordinates":[[[19.906082,50.105215],[19.906087,50.105112],[19.906214,50.105114],[19.906213,50.105127],[19.906247,50.105127],[19.906248,50.105115],[19.906376,50.105118],[19.906371,50.105221],[19.906082,50.105215]]]}},{"type":"Feature","id":"w893654082","properties":{"type":"yes","residential":false,"residents_est":0,"h3_10":"8a1e2e79bd67fff","h3_11":"8b1e2e79bd64fff"},"geometry":{"type":"Polygon","coordinates":[[[19.904545,50.105837],[19.904656,50.10583],[19.90466,50.105854],[19.904549,50.105862],[19.904545,50.105837]]]}},{"type":"Feature","id":"w893654083","properties":{"type":"yes","residential":false,"residents_est":0,"h3_10":"8a1e2e79bd67fff","h3_11":"8b1e2e79bd64fff"},"geometry":{"type":"Polygon","coordinates":[[[19.904464,50.105711],[19.904523,50.105708],[19.904531,50.105756],[19.904473,50.10576],[19.904464,50.105711]]]}},{"type":"Feature","id":"w893654084","properties":{"type":"yes","residential":false,"residents_est":0,"h3_10":"8a1e2e79bd67fff","h3_11":"8b1e2e79bd60fff"},"geometry":{"type":"Polygon","coordinates":[[[19.905012,50.105624],[19.90502,50.105566],[19.90508,50.10557],[19.905072,50.105627],[19.905012,50.105624]]]}},{"type":"Feature","id":"w893654085","properties":{"type":"yes","residential":false,"residents_est":0,"h3_10":"8a1e2e79bd67fff","h3_11":"8b1e2e79bd64fff"},"geometry":{"type":"Polygon","coordinates":[[[19.90475,50.105597],[19.904805,50.105597],[19.904806,50.105639],[19.904752,50.10564],[19.90475,50.105597]]]}},{"type":"Feature","id":"w893654092","properties":{"type":"yes","residential":false,"residents_est":0,"h3_10":"8a1e2e79bd5ffff","h3_11":"8b1e2e79bd59fff"},"geometry":{"type":"Polygon","coordinates":[[[19.906323,50.10318],[19.906396,50.103169],[19.906405,50.103195],[19.906332,50.103206],[19.906323,50.10318]]]}},{"type":"Feature","id":"w893654093","properties":{"type":"yes","residential":false,"residents_est":0,"h3_10":"8a1e2e79bd5ffff","h3_11":"8b1e2e79bd59fff"},"geometry":{"type":"Polygon","coordinates":[[[19.906621,50.103134],[19.906667,50.103126],[19.906689,50.103175],[19.906647,50.103181],[19.90664,50.103167],[19.906634,50.103168],[19.906621,50.103134]]]}},{"type":"Feature","id":"w893654096","properties":{"type":"yes","residential":false,"residents_est":0,"h3_10":"8a1e2e79bc67fff","h3_11":"8b1e2e79bc61fff"},"geometry":{"type":"Polygon","coordinates":[[[19.908198,50.102933],[19.908343,50.102903],[19.908352,50.10292],[19.908207,50.10295],[19.908198,50.102933]]]}},{"type":"Feature","id":"w893654098","properties":{"type":"yes","residential":false,"residents_est":0,"h3_10":"8a1e2e79bc6ffff","h3_11":"8b1e2e79bc6cfff"},"geometry":{"type":"Polygon","coordinates":[[[19.908804,50.103025],[19.908883,50.103006],[19.908893,50.103014],[19.908848,50.10306],[19.908804,50.103025]]]}},{"type":"Feature","id":"w1049554495","properties":{"type":"detached","levels":2.0,"residential":true,"residents_est":7,"h3_10":"8a1e2e79bceffff","h3_11":"8b1e2e79bceafff"},"geometry":{"type":"Polygon","coordinates":[[[19.906222,50.099509],[19.90639,50.099487],[19.906418,50.099571],[19.906367,50.099578],[19.906364,50.099567],[19.9063,50.099576],[19.906303,50.099586],[19.90625,50.099593],[19.906222,50.099509]]]}},{"type":"Feature","id":"w1049554504","properties":{"type":"detached","levels":2.0,"residential":true,"residents_est":6,"h3_10":"8a1e2e79bcc7fff","h3_11":"8b1e2e79bcc5fff"},"geometry":{"type":"Polygon","coordinates":[[[19.905679,50.09957],[19.905848,50.099551],[19.90587,50.099636],[19.905819,50.099642],[19.905816,50.099631],[19.905752,50.099638],[19.905755,50.099649],[19.905701,50.099654],[19.905679,50.09957]]]}},{"type":"Feature","id":"w1049554523","properties":{"type":"detached","levels":2.0,"residential":true,"residents_est":7,"h3_10":"8a1e2e79bccffff","h3_11":"8b1e2e79bccdfff"},"geometry":{"type":"Polygon","coordinates":[[[19.907211,50.099332],[19.90734,50.099309],[19.907354,50.099341],[19.907338,50.099344],[19.907355,50.099384],[19.907371,50.099381],[19.907386,50.099415],[19.907258,50.099438],[19.907211,50.099332]]]}},{"type":"Feature","id":"w1049554530","properties":{"type":"detached","levels":2.0,"residential":true,"residents_est":7,"h3_10":"8a1e2e79bceffff","h3_11":"8b1e2e79bcebfff"},"geometry":{"type":"Polygon","coordinates":[[[19.906714,50.099444],[19.906881,50.099421],[19.906909,50.099505],[19.906859,50.099512],[19.906855,50.099501],[19.906792,50.09951],[19.906796,50.09952],[19.906742,50.099528],[19.906714,50.099444]]]}},{"type":"Feature","id":"w1049554563","properties":{"type":"detached","levels":2.0,"residential":true,"residents_est":7,"h3_10":"8a1e2e79bccffff","h3_11":"8b1e2e79bccdfff"},"geometry":{"type":"Polygon","coordinates":[[[19.90752,50.099162],[19.907648,50.099138],[19.907695,50.099244],[19.907566,50.099268],[19.907552,50.099235],[19.907568,50.099232],[19.907551,50.099193],[19.907535,50.099196],[19.90752,50.099162]]]}},{"type":"Feature","id":"w1049554582","properties":{"type":"detached","levels":2.0,"residential":true,"residents_est":7,"h3_10":"8a1e2e79bceffff","h3_11":"8b1e2e79bcebfff"},"geometry":{"type":"Polygon","coordinates":[[[19.906881,50.099421],[19.907049,50.099397],[19.907077,50.099481],[19.907023,50.099489],[19.907019,50.099478],[19.906956,50.099487],[19.90696,50.099497],[19.906909,50.099505],[19.906881,50.099421]]]}},{"type":"Feature","id":"w1049554589","properties":{"type":"detached","levels":2.0,"residential":true,"residents_est":6,"h3_10":"8a1e2e79bceffff","h3_11":"8b1e2e79bceafff"},"geometry":{"type":"Polygon","coordinates":[[[19.90639,50.099487],[19.906557,50.099465],[19.906585,50.099548],[19.906531,50.099556],[19.906528,50.099545],[19.906465,50.099554],[19.906468,50.099564],[19.906418,50.099571],[19.90639,50.099487]]]}},{"type":"Feature","id":"w1049554623","properties":{"type":"detached","levels":2.0,"residential":true,"residents_est":7,"h3_10":"8a1e2e79bccffff","h3_11":"8b1e2e79bccdfff"},"geometry":{"type":"Polygon","coordinates":[[[19.907164,50.099226],[19.907293,50.099203],[19.907308,50.099237],[19.907292,50.09924],[19.907309,50.09928],[19.907325,50.099277],[19.90734,50.099309],[19.907211,50.099332],[19.907164,50.099226]]]}},{"type":"Feature","id":"w1049554649","properties":{"type":"detached","levels":2.0,"residential":true,"residents_est":7,"h3_10":"8a1e2e79bcc7fff","h3_11":"8b1e2e79bcc5fff"},"geometry":{"type":"Polygon","coordinates":[[[19.905848,50.099551],[19.906017,50.099533],[19.906039,50.099618],[19.905984,50.099624],[19.905982,50.099613],[19.905918,50.09962],[19.905921,50.099631],[19.90587,50.099636],[19.905848,50.099551]]]}},{"type":"Feature","id":"w1049554673","properties":{"type":"detached","levels":2.0,"residential":true,"residents_est":7,"h3_10":"8a1e2e79bccffff","h3_11":"8b1e2e79bccdfff"},"geometry":{"type":"Polygon","coordinates":[[[19.907566,50.099268],[19.907695,50.099244],[19.907741,50.09935],[19.907612,50.099374],[19.907598,50.099339],[19.907614,50.099336],[19.907596,50.099297],[19.90758,50.0993],[19.907566,50.099268]]]}},{"type":"Feature","id":"w1166188968","properties":{"type":"school","address":"Władysława Łokietka 194","residential":false,"residents_est":0,"h3_10":"8a1e2e79bc47fff","h3_11":"8b1e2e79bc41fff"},"geometry":{"type":"Polygon","coordinates":[[[19.90878,50.101719],[19.908811,50.101595],[19.909084,50.101622],[19.908963,50.101738],[19.90878,50.101719]]]}},{"type":"Feature","id":"w1166188969","properties":{"type":"house","address":"Władysława Łokietka 194B","residential":true,"residents_est":5,"h3_10":"8a1e2e79bc47fff","h3_11":"8b1e2e79bc41fff"},"geometry":{"type":"Polygon","coordinates":[[[19.90832,50.101734],[19.908325,50.101645],[19.90837,50.101646],[19.908371,50.101633],[19.90844,50.101634],[19.908435,50.101749],[19.908382,50.101748],[19.908382,50.101735],[19.90832,50.101734]]]}},{"type":"Feature","id":"w1166188970","properties":{"type":"house","address":"Władysława Łokietka 194A","residential":true,"residents_est":5,"h3_10":"8a1e2e79bc47fff","h3_11":"8b1e2e79bc41fff"},"geometry":{"type":"Polygon","coordinates":[[[19.908435,50.101749],[19.90844,50.101634],[19.908509,50.101636],[19.908508,50.101649],[19.908554,50.101649],[19.90855,50.101738],[19.908488,50.101737],[19.908488,50.10175],[19.908435,50.101749]]]}},{"type":"Feature","id":"w1166188971","properties":{"type":"house","address":"Władysława Łokietka 194C","residential":true,"residents_est":6,"h3_10":"8a1e2e79bc47fff","h3_11":"8b1e2e79bc40fff"},"geometry":{"type":"Polygon","coordinates":[[[19.90804,50.101652],[19.908107,50.101645],[19.90811,50.101658],[19.908155,50.101653],[19.908178,50.101741],[19.908117,50.101748],[19.90812,50.101761],[19.908069,50.101766],[19.90804,50.101652]]]}},{"type":"Feature","id":"w1166188972","properties":{"type":"house","address":"Władysława Łokietka 194D","residential":true,"residents_est":6,"h3_10":"8a1e2e79bc47fff","h3_11":"8b1e2e79bc40fff"},"geometry":{"type":"Polygon","coordinates":[[[19.907929,50.101677],[19.907975,50.101672],[19.907971,50.10166],[19.90804,50.101652],[19.908069,50.101766],[19.908016,50.101772],[19.908013,50.101759],[19.907952,50.101766],[19.907929,50.101677]]]}},{"type":"Feature","id":"w1166188973","properties":{"type":"house","address":"Władysława Łokietka 194F","residential":true,"residents_est":6,"h3_10":"8a1e2e79bc47fff","h3_11":"8b1e2e79bc40fff"},"geometry":{"type":"Polygon","coordinates":[[[19.907502,50.101763],[19.907634,50.101732],[19.90769,50.101832],[19.907637,50.101844],[19.90763,50.101832],[19.907582,50.101843],[19.907571,50.101823],[19.907539,50.10183],[19.907502,50.101763]]]}},{"type":"Feature","id":"w1166188974","properties":{"type":"house","address":"Władysława Łokietka 194E","residential":true,"residents_est":6,"h3_10":"8a1e2e79bc47fff","h3_11":"8b1e2e79bc40fff"},"geometry":{"type":"Polygon","coordinates":[[[19.907634,50.101732],[19.907766,50.101702],[19.907803,50.101769],[19.907772,50.101776],[19.907783,50.101796],[19.907735,50.101807],[19.907742,50.101819],[19.90769,50.101832],[19.907634,50.101732]]]}},{"type":"Feature","id":"w1166188975","properties":{"type":"house","address":"Władysława Łokietka 194H","residential":true,"residents_est":6,"h3_10":"8a1e2e79bc47fff","h3_11":"8b1e2e79bc46fff"},"geometry":{"type":"Polygon","coordinates":[[[19.907111,50.101857],[19.907242,50.101825],[19.907299,50.101924],[19.907248,50.101936],[19.90724,50.101924],[19.907193,50.101936],[19.907181,50.101916],[19.907149,50.101924],[19.907111,50.101857]]]}},{"type":"Feature","id":"w1166188976","properties":{"type":"house","address":"Władysława Łokietka 194G","residential":true,"residents_est":6,"h3_10":"8a1e2e79bc47fff","h3_11":"8b1e2e79bc46fff"},"geometry":{"type":"Polygon","coordinates":[[[19.907242,50.101825],[19.907374,50.101793],[19.907413,50.10186],[19.907381,50.101868],[19.907393,50.101887],[19.907345,50.101899],[19.907352,50.101911],[19.907299,50.101924],[19.907242,50.101825]]]}},{"type":"Feature","id":"w1166188977","properties":{"type":"house","address":"Władysława Łokietka 194K","residential":true,"residents_est":6,"h3_10":"8a1e2e79bc77fff","h3_11":"8b1e2e79bc71fff"},"geometry":{"type":"Polygon","coordinates":[[[19.906721,50.10195],[19.906852,50.101918],[19.90691,50.102018],[19.906858,50.10203],[19.90685,50.102018],[19.906803,50.102029],[19.906791,50.102009],[19.90676,50.102017],[19.906721,50.10195]]]}},{"type":"Feature","id":"w1166188978","properties":{"type":"house","address":"Władysława Łokietka 194J","residential":true,"residents_est":6,"h3_10":"8a1e2e79bc47fff","h3_11":"8b1e2e79bc46fff"},"geometry":{"type":"Polygon","coordinates":[[[19.906852,50.101918],[19.906984,50.101887],[19.907023,50.101954],[19.906992,50.101961],[19.907003,50.101981],[19.906955,50.101993],[19.906962,50.102005],[19.90691,50.102018],[19.906852,50.101918]]]}},{"type":"Feature","id":"w1166188979","properties":{"type":"house","address":"Władysława Łokietka 194M","residential":true,"residents_est":6,"h3_10":"8a1e2e79bc77fff","h3_11":"8b1e2e79bc71fff"},"geometry":{"type":"Polygon","coordinates":[[[19.906334,50.102061],[19.906399,50.102045],[19.906408,50.10206],[19.906482,50.102042],[19.906522,50.102111],[19.906382,50.102144],[19.906334,50.102061]]]}},{"type":"Feature","id":"w1166188980","properties":{"type":"house","address":"Władysława Łokietka 194L","residential":true,"residents_est":6,"h3_10":"8a1e2e79bc77fff","h3_11":"8b1e2e79bc71fff"},"geometry":{"type":"Polygon","coordinates":[[[19.906482,50.102042],[19.906556,50.102024],[19.906548,50.10201],[19.906613,50.101994],[19.906662,50.102077],[19.906522,50.102111],[19.906482,50.102042]]]}},{"type":"Feature","id":"w1166188981","properties":{"type":"house","address":"Władysława Łokietka 194P","residential":true,"residents_est":6,"h3_10":"8a1e2e79bc77fff","h3_11":"8b1e2e79bc70fff"},"geometry":{"type":"Polygon","coordinates":[[[19.905926,50.10216],[19.905991,50.102144],[19.905999,50.102158],[19.906074,50.10214],[19.906113,50.102209],[19.905974,50.102243],[19.905926,50.10216]]]}},{"type":"Feature","id":"w1166188982","properties":{"type":"house","address":"Władysława Łokietka 194N","residential":true,"residents_est":6,"h3_10":"8a1e2e79bc77fff","h3_11":"8b1e2e79bc70fff"},"geometry":{"type":"Polygon","coordinates":[[[19.906074,50.10214],[19.906148,50.102122],[19.90614,50.102108],[19.906205,50.102092],[19.906253,50.102175],[19.906113,50.102209],[19.906074,50.10214]]]}},{"type":"Feature","id":"w1166188983","properties":{"type":"house","address":"Władysława Łokietka 194S","residential":true,"residents_est":6,"h3_10":"8a1e2e79bc77fff","h3_11":"8b1e2e79bc74fff"},"geometry":{"type":"Polygon","coordinates":[[[19.905517,50.102258],[19.905582,50.102242],[19.905591,50.102257],[19.905665,50.102239],[19.905705,50.102307],[19.905565,50.10234],[19.905517,50.102258]]]}},{"type":"Feature","id":"w1166188984","properties":{"type":"house","address":"Władysława Łokietka 194R","residential":true,"residents_est":6,"h3_10":"8a1e2e79bc77fff","h3_11":"8b1e2e79bc70fff"},"geometry":{"type":"Polygon","coordinates":[[[19.905665,50.102239],[19.905739,50.102221],[19.905731,50.102207],[19.905796,50.102191],[19.905844,50.102273],[19.905705,50.102307],[19.905665,50.102239]]]}},{"type":"Feature","id":"w1185586330","properties":{"type":"construction","residential":false,"residents_est":0,"h3_10":"8a1e2e79bc5ffff","h3_11":"8b1e2e79bc59fff"},"geometry":{"type":"Polygon","coordinates":[[[19.908895,50.10063],[19.909105,50.100607],[19.909121,50.100665],[19.909091,50.100668],[19.909096,50.100687],[19.908946,50.100703],[19.908941,50.100684],[19.908911,50.100688],[19.908895,50.10063]]]}},{"type":"Feature","id":"w1185586332","properties":{"type":"house","address":"Władysława Łokietka 174C","residential":true,"residents_est":8,"h3_10":"8a1e2e79bc5ffff","h3_11":"8b1e2e79bc59fff"},"geometry":{"type":"Polygon","coordinates":[[[19.908592,50.100676],[19.908805,50.100647],[19.908825,50.100707],[19.908795,50.100711],[19.908801,50.10073],[19.908649,50.100751],[19.908642,50.100732],[19.908612,50.100736],[19.908592,50.100676]]]}},{"type":"Feature","id":"w1185586333","properties":{"type":"house","address":"Władysława Łokietka 174B","residential":true,"residents_est":8,"h3_10":"8a1e2e79bc5ffff","h3_11":"8b1e2e79bc58fff"},"geometry":{"type":"Polygon","coordinates":[[[19.90829,50.100722],[19.908502,50.100688],[19.908525,50.100749],[19.908495,50.100754],[19.908502,50.100772],[19.908351,50.100796],[19.908343,50.100778],[19.908314,50.100783],[19.90829,50.100722]]]}},{"type":"Feature","id":"w1185586334","properties":{"type":"house","address":"Władysława Łokietka 174A","residential":true,"residents_est":7,"h3_10":"8a1e2e79bc5ffff","h3_11":"8b1e2e79bc58fff"},"geometry":{"type":"Polygon","coordinates":[[[19.908029,50.100773],[19.908208,50.100739],[19.908245,50.100817],[19.90809,50.100846],[19.908081,50.100827],[19.908057,50.100832],[19.908029,50.100773]]]}},{"type":"Feature","id":"w1303344695","properties":{"type":"residential","residential":true,"residents_est":16,"h3_10":"8a1e2e79bc27fff","h3_11":"8b1e2e79bc20fff"},"geometry":{"type":"Polygon","coordinates":[[[19.902322,50.102751],[19.902431,50.102739],[19.902449,50.102811],[19.902497,50.102806],[19.90251,50.102857],[19.902457,50.102863],[19.902459,50.102871],[19.902356,50.102882],[19.902322,50.102751]]]}},{"type":"Feature","id":"w1303344696","properties":{"type":"residential","residential":true,"residents_est":18,"h3_10":"8a1e2e79bc27fff","h3_11":"8b1e2e79bc20fff"},"geometry":{"type":"Polygon","coordinates":[[[19.902595,50.102798],[19.902639,50.102794],[19.902622,50.102721],[19.902738,50.10271],[19.902769,50.102841],[19.902609,50.102856],[19.902595,50.102798]]]}},{"type":"Feature","id":"w1303344698","properties":{"type":"residential","residential":true,"residents_est":18,"h3_10":"8a1e2e79bc27fff","h3_11":"8b1e2e79bc21fff"},"geometry":{"type":"Polygon","coordinates":[[[19.902846,50.102696],[19.902963,50.102678],[19.90299,50.102752],[19.903031,50.102745],[19.903051,50.102798],[19.903006,50.102805],[19.90301,50.102815],[19.902897,50.102832],[19.902846,50.102696]]]}},{"type":"Feature","id":"w1303344699","properties":{"type":"residential","residential":true,"residents_est":18,"h3_10":"8a1e2e79bc27fff","h3_11":"8b1e2e79bc21fff"},"geometry":{"type":"Polygon","coordinates":[[[19.903125,50.102732],[19.90317,50.102725],[19.903138,50.102648],[19.903251,50.102629],[19.903304,50.10276],[19.903147,50.102786],[19.903125,50.102732]]]}},{"type":"Feature","id":"w1303344700","properties":{"type":"residential","residential":true,"residents_est":15,"h3_10":"8a1e2e79bc2ffff","h3_11":"8b1e2e79bc2efff"},"geometry":{"type":"Polygon","coordinates":[[[19.903374,50.102615],[19.903474,50.102598],[19.903501,50.102666],[19.903547,50.102659],[19.903567,50.102709],[19.90353,50.102715],[19.903534,50.102725],[19.903426,50.102743],[19.903374,50.102615]]]}},{"type":"Feature","id":"w1303344701","properties":{"type":"residential","residential":true,"residents_est":17,"h3_10":"8a1e2e79bc2ffff","h3_11":"8b1e2e79bc2efff"},"geometry":{"type":"Polygon","coordinates":[[[19.903643,50.10264],[19.903691,50.102631],[19.90366,50.102561],[19.903765,50.102542],[19.903821,50.102669],[19.903668,50.102697],[19.903643,50.10264]]]}},{"type":"Feature","id":"w1303344702","properties":{"type":"residential","residential":true,"residents_est":17,"h3_10":"8a1e2e79bc2ffff","h3_11":"8b1e2e79bc28fff"},"geometry":{"type":"Polygon","coordinates":[[[19.903883,50.102531],[19.903993,50.102511],[19.904021,50.102573],[19.904072,50.102564],[19.904098,50.102622],[19.903938,50.102652],[19.903883,50.102531]]]}},{"type":"Feature","id":"w1303344703","properties":{"type":"residential","residential":true,"residents_est":20,"h3_10":"8a1e2e79bc2ffff","h3_11":"8b1e2e79bc28fff"},"geometry":{"type":"Polygon","coordinates":[[[19.904146,50.102534],[19.904199,50.102524],[19.904173,50.102466],[19.904282,50.102446],[19.904345,50.102584],[19.904183,50.102615],[19.904146,50.102534]]]}},{"type":"Feature","id":"w1303344704","properties":{"type":"residential","residential":true,"residents_est":16,"h3_10":"8a1e2e79bc2ffff","h3_11":"8b1e2e79bc28fff"},"geometry":{"type":"Polygon","coordinates":[[[19.90447,50.102475],[19.904609,50.102449],[19.90466,50.102559],[19.90452,50.102586],[19.90447,50.102475]]]}},{"type":"Feature","id":"w1303344705","properties":{"type":"residential","residential":true,"residents_est":12,"h3_10":"8a1e2e79bc2ffff","h3_11":"8b1e2e79bc29fff"},"geometry":{"type":"Polygon","coordinates":[[[19.904747,50.102429],[19.904862,50.102408],[19.904912,50.102502],[19.904794,50.102524],[19.904747,50.102429]]]}},{"type":"Feature","id":"w1303344706","properties":{"type":"residential","residential":true,"residents_est":36,"h3_10":"8a1e2e79bc27fff","h3_11":"8b1e2e79bc26fff"},"geometry":{"type":"Polygon","coordinates":[[[19.901688,50.102911],[19.901719,50.102908],[19.901705,50.102852],[19.901768,50.102846],[19.90176,50.102811],[19.901886,50.102799],[19.901906,50.102884],[19.902014,50.102873],[19.902031,50.102942],[19.901703,50.102975],[19.901688,50.102911]]]}},{"type":"Feature","id":"w1303344717","properties":{"type":"residential","address":"Władysława Łokietka 158BK","residential":true,"residents_est":25,"h3_10":"8a1e2e79bceffff","h3_11":"8b1e2e79bcebfff"},"geometry":{"type":"Polygon","coordinates":[[[19.907086,50.099666],[19.907261,50.099637],[19.907327,50.099802],[19.907197,50.099823],[19.907155,50.099719],[19.90711,50.099727],[19.907086,50.099666]]]}},{"type":"Feature","id":"w1303344718","properties":{"type":"residential","address":"Władysława Łokietka 158BJ","residential":true,"residents_est":25,"h3_10":"8a1e2e79bceffff","h3_11":"8b1e2e79bcebfff"},"geometry":{"type":"Polygon","coordinates":[[[19.907261,50.099637],[19.907442,50.099607],[19.907466,50.099668],[19.907418,50.099676],[19.90746,50.099781],[19.907327,50.099802],[19.907261,50.099637]]]}},{"type":"Feature","id":"w1303344719","properties":{"type":"residential","address":"Władysława Łokietka 158BP","residential":true,"residents_est":24,"h3_10":"8a1e2e79bceffff","h3_11":"8b1e2e79bce8fff"},"geometry":{"type":"Polygon","coordinates":[[[19.906339,50.099788],[19.906514,50.099759],[19.90658,50.099924],[19.90645,50.099945],[19.906408,50.099841],[19.906363,50.099849],[19.906339,50.099788]]]}},{"type":"Feature","id":"w1303344720","properties":{"type":"residential","address":"Władysława Łokietka 158BN","residential":true,"residents_est":25,"h3_10":"8a1e2e79bceffff","h3_11":"8b1e2e79bce8fff"},"geometry":{"type":"Polygon","coordinates":[[[19.906514,50.099759],[19.906695,50.099729],[19.906719,50.09979],[19.906671,50.099798],[19.906713,50.099903],[19.90658,50.099924],[19.906514,50.099759]]]}},{"type":"Feature","id":"w1303344725","properties":{"type":"residential","address":"Władysława Łokietka 158BM","residential":true,"residents_est":18,"h3_10":"8a1e2e79bceffff","h3_11":"8b1e2e79bce8fff"},"geometry":{"type":"Polygon","coordinates":[[[19.906734,50.099789],[19.906856,50.099769],[19.906843,50.099737],[19.906907,50.099727],[19.906941,50.099812],[19.906882,50.099822],[19.906901,50.099871],[19.906775,50.099892],[19.906734,50.099789]]]}},{"type":"Feature","id":"w1303344726","properties":{"type":"residential","address":"Władysława Łokietka 158BL","residential":true,"residents_est":17,"h3_10":"8a1e2e79bceffff","h3_11":"8b1e2e79bcebfff"},"geometry":{"type":"Polygon","coordinates":[[[19.906907,50.099727],[19.90697,50.099716],[19.906983,50.099749],[19.907095,50.09973],[19.907135,50.099832],[19.907019,50.099851],[19.906999,50.099803],[19.906941,50.099812],[19.906907,50.099727]]]}},{"type":"Feature","id":"w1303344727","properties":{"type":"residential","address":"Władysława Łokietka 158CF","residential":true,"residents_est":18,"h3_10":"8a1e2e79bce7fff","h3_11":"8b1e2e79bce0fff"},"geometry":{"type":"Polygon","coordinates":[[[19.904855,50.100093],[19.904977,50.100073],[19.904964,50.10004],[19.905028,50.10003],[19.905062,50.100116],[19.905003,50.100125],[19.905022,50.100175],[19.904896,50.100195],[19.904855,50.100093]]]}},{"type":"Feature","id":"w1303344728","properties":{"type":"residential","address":"Władysława Łokietka 158CE","residential":true,"residents_est":17,"h3_10":"8a1e2e79bce7fff","h3_11":"8b1e2e79bce3fff"},"geometry":{"type":"Polygon","coordinates":[[[19.905028,50.10003],[19.905091,50.10002],[19.905104,50.100052],[19.905216,50.100034],[19.905257,50.100135],[19.90514,50.100154],[19.90512,50.100106],[19.905062,50.100116],[19.905028,50.10003]]]}},{"type":"Feature","id":"w1303344729","properties":{"type":"construction","address":"Władysława Łokietka 158CD","residential":false,"residents_est":0,"h3_10":"8a1e2e79bce7fff","h3_11":"8b1e2e79bce3fff"},"geometry":{"type":"Polygon","coordinates":[[[19.905212,50.09997],[19.905388,50.09994],[19.905454,50.100106],[19.905323,50.100126],[19.905282,50.100023],[19.905237,50.10003],[19.905212,50.09997]]]}},{"type":"Feature","id":"w1303344730","properties":{"type":"residential","address":"Władysława Łokietka 158CC","residential":true,"residents_est":26,"h3_10":"8a1e2e79bce7fff","h3_11":"8b1e2e79bce3fff"},"geometry":{"type":"Polygon","coordinates":[[[19.905388,50.09994],[19.905569,50.099911],[19.905593,50.099972],[19.905545,50.09998],[19.905586,50.100084],[19.905454,50.100106],[19.905388,50.09994]]]}},{"type":"Feature","id":"w1303344731","properties":{"type":"residential","address":"Władysława Łokietka 158CA","residential":true,"residents_est":17,"h3_10":"8a1e2e79bceffff","h3_11":"8b1e2e79bceefff"},"geometry":{"type":"Polygon","coordinates":[[[19.905788,50.099907],[19.905852,50.099896],[19.905865,50.099929],[19.905977,50.09991],[19.906017,50.100012],[19.905901,50.100031],[19.905881,50.099983],[19.905823,50.099992],[19.905788,50.099907]]]}},{"type":"Feature","id":"w1303344732","properties":{"type":"residential","address":"Władysława Łokietka 158CB","residential":true,"residents_est":19,"h3_10":"8a1e2e79bceffff","h3_11":"8b1e2e79bceefff"},"geometry":{"type":"Polygon","coordinates":[[[19.905616,50.099969],[19.905738,50.099949],[19.905725,50.099917],[19.905788,50.099907],[19.905823,50.099992],[19.905763,50.100002],[19.905783,50.100051],[19.905657,50.100072],[19.905616,50.099969]]]}},{"type":"Feature","id":"w1327961779","properties":{"type":"residential","address":"Stelmachów 108C","residential":true,"residents_est":26,"h3_10":"8a1e2e79bc97fff","h3_11":"8b1e2e79bc92fff"},"geometry":{"type":"Polygon","coordinates":[[[19.898452,50.098229],[19.898675,50.098181],[19.898736,50.098298],[19.898601,50.098327],[19.89859,50.098305],[19.898512,50.098322],[19.898523,50.098344],[19.898512,50.098346],[19.898452,50.098229]]]}},{"type":"Feature","id":"w1327961785","properties":{"type":"residential","address":"Stelmachów 108B","residential":true,"residents_est":12,"h3_10":"8a1e2e79bc97fff","h3_11":"8b1e2e79bc92fff"},"geometry":{"type":"Polygon","coordinates":[[[19.898437,50.098055],[19.89859,50.098023],[19.898627,50.098096],[19.898474,50.098127],[19.898437,50.098055]]]}},{"type":"Feature","id":"w1327961786","properties":{"type":"residential","address":"Stelmachów 108A","residential":true,"residents_est":12,"h3_10":"8a1e2e79bc97fff","h3_11":"8b1e2e79bc92fff"},"geometry":{"type":"Polygon","coordinates":[[[19.898341,50.097902],[19.898493,50.09787],[19.89853,50.097943],[19.898378,50.097975],[19.898341,50.097902]]]}},{"type":"Feature","id":"w1328663304","properties":{"type":"yes","residential":true,"residents_est":5,"h3_10":"8a1e2e79bd07fff","h3_11":"8b1e2e79bd00fff"},"geometry":{"type":"Polygon","coordinates":[[[19.900115,50.104474],[19.900116,50.104406],[19.90044,50.104407],[19.900439,50.104476],[19.900115,50.104474]]]}},{"type":"Feature","id":"w1328663305","properties":{"type":"yes","residential":true,"residents_est":5,"h3_10":"8a1e2e79bd27fff","h3_11":"8b1e2e79bd23fff"},"geometry":{"type":"Polygon","coordinates":[[[19.900216,50.105127],[19.900245,50.104994],[19.900392,50.105007],[19.900363,50.10514],[19.900216,50.105127]]]}},{"type":"Feature","id":"w1382967465","properties":{"type":"house","address":"Władysława Łokietka 176A","residential":true,"residents_est":5,"h3_10":"8a1e2e79bc57fff","h3_11":"8b1e2e79bc51fff"},"geometry":{"type":"Polygon","coordinates":[[[19.906975,50.101222],[19.907011,50.101213],[19.907021,50.101231],[19.907099,50.101211],[19.907143,50.101284],[19.907029,50.101312],[19.906975,50.101222]]]}},{"type":"Feature","id":"w1382967466","properties":{"type":"house","address":"Władysława Łokietka 176","residential":true,"residents_est":5,"h3_10":"8a1e2e79bc57fff","h3_11":"8b1e2e79bc55fff"},"geometry":{"type":"Polygon","coordinates":[[[19.906871,50.101268],[19.90695,50.101248],[19.90694,50.10123],[19.906975,50.101222],[19.907029,50.101312],[19.906915,50.10134],[19.906871,50.101268]]]}},{"type":"Feature","id":"w1484016457","properties":{"type":"residential","residential":true,"residents_est":12,"h3_10":"8a1e2e79bc2ffff","h3_11":"8b1e2e79bc29fff"},"geometry":{"type":"Polygon","coordinates":[[[19.905021,50.10238],[19.905147,50.102354],[19.905195,50.102447],[19.905069,50.102473],[19.905021,50.10238]]]}},{"type":"Feature","id":"w1484016458","properties":{"type":"yes","residential":true,"residents_est":4,"h3_10":"8a1e2e79bc4ffff","h3_11":"8b1e2e79bc4cfff"},"geometry":{"type":"Polygon","coordinates":[[[19.909305,50.101937],[19.909551,50.101891],[19.909581,50.101956],[19.909335,50.102002],[19.909305,50.101937]]]}},{"type":"Feature","id":"w1562549974","properties":{"type":"pavilion","residential":false,"residents_est":0,"h3_10":"8a1e2e79bd1ffff","h3_11":"8b1e2e79bd1afff"},"geometry":{"type":"Polygon","coordinates":[[[19.900538,50.102714],[19.900578,50.10271],[19.900591,50.102764],[19.900552,50.102768],[19.900538,50.102714]]]}},{"type":"Feature","id":"w1562549975","properties":{"type":"pavilion","residential":false,"residents_est":0,"h3_10":"8a1e2e79bd1ffff","h3_11":"8b1e2e79bd1afff"},"geometry":{"type":"Polygon","coordinates":[[[19.900668,50.1027],[19.900708,50.102696],[19.900721,50.102749],[19.900682,50.102753],[19.900668,50.1027]]]}}]}