{"type":"FeatureCollection","features":[{"type":"Feature","id":"w233373770","properties":{"type":"yes","residential":true,"residents_est":1,"h3_10":"8a1e05b48897fff","h3_11":"8b1e05b48890fff"},"geometry":{"type":"Polygon","coordinates":[[[19.837722,50.03152],[19.837734,50.031485],[19.837949,50.031518],[19.837936,50.031553],[19.837722,50.03152]]]}},{"type":"Feature","id":"w233375162","properties":{"type":"yes","residential":true,"residents_est":3,"h3_10":"8a1e05b4889ffff","h3_11":"8b1e05b4889bfff"},"geometry":{"type":"Polygon","coordinates":[[[19.840284,50.030528],[19.84043,50.030522],[19.840438,50.030604],[19.840292,50.03061],[19.840284,50.030528]]]}},{"type":"Feature","id":"w233375546","properties":{"type":"yes","residential":false,"residents_est":0,"h3_10":"8a1e05b48897fff","h3_11":"8b1e05b48894fff"},"geometry":{"type":"Polygon","coordinates":[[[19.837393,50.031642],[19.837413,50.031581],[19.837476,50.031589],[19.837456,50.031651],[19.837393,50.031642]]]}},{"type":"Feature","id":"w233375842","properties":{"type":"yes","address":"Kolna 15h","residential":true,"residents_est":5,"h3_10":"8a1e05b48897fff","h3_11":"8b1e05b48894fff"},"geometry":{"type":"Polygon","coordinates":[[[19.83746,50.031638],[19.837498,50.031521],[19.837665,50.031543],[19.837622,50.03166],[19.83746,50.031638]]]}},{"type":"Feature","id":"w718809554","properties":{"type":"yes","residential":true,"residents_est":3,"h3_10":"8a1e05b48837fff","h3_11":"8b1e05b48831fff"},"geometry":{"type":"Polygon","coordinates":[[[19.841122,50.035147],[19.841241,50.035122],[19.841289,50.03522],[19.84117,50.035244],[19.841122,50.035147]]]}}]}