{"type":"FeatureCollection","features":[{"type":"Feature","id":"w337603767","properties":{"type":"yes","address":"Radłowa 2","residential":true,"residents_est":1,"h3_10":"8a1e05a6014ffff","h3_11":"8b1e05a6014bfff"},"geometry":{"type":"Polygon","coordinates":[[[19.865528,49.974985],[19.865528,49.974945],[19.865557,49.974945],[19.865557,49.974896],[19.865529,49.974896],[19.86553,49.974837],[19.865665,49.974838],[19.865664,49.974891],[19.865686,49.974891],[19.865685,49.974986],[19.865528,49.974985]]]}},{"type":"Feature","id":"w337603776","properties":{"type":"yes","residential":true,"residents_est":1,"h3_10":"8a1e05a6012ffff","h3_11":"8b1e05a60129fff"},"geometry":{"type":"Polygon","coordinates":[[[19.860412,49.976512],[19.860419,49.976499],[19.860439,49.976504],[19.860461,49.976461],[19.860725,49.976517],[19.860686,49.976593],[19.860423,49.976536],[19.860433,49.976517],[19.860412,49.976512]]]}},{"type":"Feature","id":"w337603793","properties":{"type":"yes","residential":true,"residents_est":0,"h3_10":"8a1e05a60177fff","h3_11":"8b1e05a60176fff"},"geometry":{"type":"Polygon","coordinates":[[[19.860413,49.976046],[19.860434,49.976029],[19.860426,49.976024],[19.860466,49.975989],[19.860503,49.976006],[19.860493,49.976015],[19.860539,49.976036],[19.860507,49.976065],[19.860484,49.976053],[19.860462,49.976071],[19.860413,49.976046]]]}},{"type":"Feature","id":"w337603815","properties":{"type":"yes","address":"Leśna 12","residential":true,"residents_est":0,"h3_10":"8a1e05a6004ffff","h3_11":"8b1e05a6004bfff"},"geometry":{"type":"Polygon","coordinates":[[[19.867909,49.972518],[19.867949,49.972512],[19.867942,49.972494],[19.867961,49.972481],[19.867993,49.972476],[19.868017,49.972482],[19.868027,49.972508],[19.868085,49.9725],[19.86811,49.972567],[19.867936,49.972594],[19.867909,49.972518]]]}},{"type":"Feature","id":"w337603819","properties":{"type":"yes","address":"Leśna 4A","residential":true,"residents_est":1,"h3_10":"8a1e05a6004ffff","h3_11":"8b1e05a60048fff"},"geometry":{"type":"Polygon","coordinates":[[[19.867327,49.972506],[19.867473,49.972483],[19.867538,49.972683],[19.86743,49.9727],[19.867409,49.972645],[19.86744,49.97264],[19.867435,49.972627],[19.867376,49.972636],[19.867361,49.972595],[19.867377,49.972593],[19.867364,49.972562],[19.867348,49.972564],[19.867327,49.972506]]]}},{"type":"Feature","id":"w337603884","properties":{"type":"yes","address":"Radłowa 5","residential":true,"residents_est":0,"h3_10":"8a1e05a6016ffff","h3_11":"8b1e05a6016bfff"},"geometry":{"type":"Polygon","coordinates":[[[19.865004,49.975962],[19.865006,49.975874],[19.86506,49.975874],[19.86506,49.975844],[19.865154,49.975845],[19.865153,49.975879],[19.865143,49.975879],[19.865142,49.975964],[19.865067,49.975963],[19.865055,49.975971],[19.865037,49.975971],[19.865024,49.975962],[19.865004,49.975962]]]}},{"type":"Feature","id":"w337603895","properties":{"type":"yes","address":"Graniczna 1C","residential":true,"residents_est":1,"h3_10":"8a1e05a6012ffff","h3_11":"8b1e05a60128fff"},"geometry":{"type":"Polygon","coordinates":[[[19.859638,49.976598],[19.859672,49.976546],[19.859716,49.976558],[19.859762,49.976487],[19.859872,49.976517],[19.859827,49.976587],[19.859883,49.976602],[19.859849,49.976654],[19.859767,49.976632],[19.859759,49.976644],[19.859713,49.976632],[19.85972,49.976621],[19.859638,49.976598]]]}},{"type":"Feature","id":"w337603902","properties":{"type":"yes","address":"Graniczna 10","residential":true,"residents_est":0,"h3_10":"8a1e05a6010ffff","h3_11":"8b1e05a6010dfff"},"geometry":{"type":"Polygon","coordinates":[[[19.860612,49.975608],[19.860641,49.975584],[19.860663,49.975595],[19.860695,49.975571],[19.860668,49.975557],[19.860716,49.975519],[19.860822,49.975575],[19.86078,49.975608],[19.860789,49.975613],[19.860708,49.975678],[19.860645,49.975645],[19.86066,49.975633],[19.860612,49.975608]]]}},{"type":"Feature","id":"w337603911","properties":{"type":"yes","address":"Leona Petrażyckiego 137a","residential":true,"residents_est":1,"h3_10":"8a1e05a60147fff","h3_11":"8b1e05a60144fff"},"geometry":{"type":"Polygon","coordinates":[[[19.862717,49.976246],[19.862745,49.976167],[19.862859,49.976183],[19.862854,49.976195],[19.862938,49.976207],[19.862959,49.976148],[19.863081,49.976166],[19.863036,49.976293],[19.86291,49.976274],[19.862917,49.976257],[19.862845,49.976247],[19.862839,49.976264],[19.862717,49.976246]]]}},{"type":"Feature","id":"w337603917","properties":{"type":"yes","address":"Leśna 2A","residential":true,"residents_est":0,"h3_10":"8a1e05a60047fff","h3_11":"8b1e05a60043fff"},"geometry":{"type":"Polygon","coordinates":[[[19.865609,49.972729],[19.865632,49.972656],[19.865702,49.972665],[19.865707,49.972648],[19.865795,49.97266],[19.865783,49.972696],[19.865801,49.972698],[19.865791,49.972729],[19.865772,49.972727],[19.865765,49.97275],[19.865741,49.972747],[19.865736,49.972761],[19.865648,49.97275],[19.865653,49.972735],[19.865609,49.972729]]]}},{"type":"Feature","id":"w337603925","properties":{"type":"yes","address":"Graniczna 14","residential":true,"residents_est":0,"h3_10":"8a1e05a60177fff","h3_11":"8b1e05a60175fff"},"geometry":{"type":"Polygon","coordinates":[[[19.861857,49.976289],[19.861865,49.97627],[19.861876,49.976272],[19.861888,49.976247],[19.862006,49.976269],[19.861996,49.976291],[19.862013,49.976294],[19.862004,49.976315],[19.861989,49.976312],[19.861978,49.976336],[19.861862,49.976312],[19.861871,49.976291],[19.861857,49.976289]]]}},{"type":"Feature","id":"w337603932","properties":{"type":"yes","address":"Radłowa 1","residential":true,"residents_est":0,"h3_10":"8a1e05a6014ffff","h3_11":"8b1e05a6014bfff"},"geometry":{"type":"Polygon","coordinates":[[[19.864984,49.975107],[19.864985,49.975054],[19.865018,49.975055],[19.865019,49.975006],[19.865057,49.975006],[19.865081,49.974991],[19.865104,49.975007],[19.865142,49.975007],[19.865141,49.975065],[19.865128,49.975074],[19.865128,49.97509],[19.86514,49.975099],[19.865139,49.975143],[19.865016,49.975142],[19.865017,49.975107],[19.864984,49.975107]]]}},{"type":"Feature","id":"w337603951","properties":{"type":"yes","address":"Radłowa 4","residential":true,"residents_est":0,"h3_10":"8a1e05a6014ffff","h3_11":"8b1e05a60149fff"},"geometry":{"type":"Polygon","coordinates":[[[19.865475,49.975419],[19.865477,49.975305],[19.865583,49.975299],[19.865589,49.975327],[19.865627,49.975327],[19.865627,49.97534],[19.865636,49.97534],[19.865635,49.975379],[19.865624,49.975378],[19.865622,49.975419],[19.865615,49.97542],[19.865614,49.975477],[19.865481,49.975476],[19.865482,49.97542],[19.865475,49.975419]]]}},{"type":"Feature","id":"w337603952","properties":{"type":"yes","address":"Graniczna 14","residential":true,"residents_est":1,"h3_10":"8a1e05a60177fff","h3_11":"8b1e05a60175fff"},"geometry":{"type":"Polygon","coordinates":[[[19.861637,49.976491],[19.861678,49.976399],[19.861703,49.976403],[19.86173,49.976343],[19.861807,49.976358],[19.861801,49.976369],[19.861876,49.976383],[19.861856,49.976427],[19.861903,49.976436],[19.861882,49.976484],[19.861862,49.97648],[19.861846,49.976515],[19.861752,49.976492],[19.861749,49.976499],[19.861695,49.976489],[19.86169,49.9765],[19.861637,49.976491]]]}},{"type":"Feature","id":"w337603962","properties":{"type":"convent","address":"Leśna 5","name":"Dom zakonny Zgromadzenia Sług Miłości — Centrum Don Guanella","residential":false,"residents_est":0,"h3_10":"8a1e05a60157fff","h3_11":"8b1e05a60153fff"},"geometry":{"type":"Polygon","coordinates":[[[19.861537,49.974845],[19.86178,49.974717],[19.861708,49.97466],[19.861679,49.974676],[19.861594,49.974609],[19.861979,49.974406],[19.861972,49.974401],[19.86209,49.974339],[19.862186,49.974415],[19.862094,49.974469],[19.862082,49.97446],[19.86181,49.974606],[19.861915,49.974687],[19.861948,49.97467],[19.862026,49.97473],[19.861909,49.974793],[19.861885,49.974774],[19.861675,49.974886],[19.861663,49.974982],[19.861563,49.974976],[19.861579,49.974878],[19.861537,49.974845]]]}},{"type":"Feature","id":"w337603977","properties":{"type":"yes","address":"Leśna 10","residential":true,"residents_est":0,"h3_10":"8a1e05a6004ffff","h3_11":"8b1e05a60048fff"},"geometry":{"type":"Polygon","coordinates":[[[19.867655,49.972663],[19.867777,49.972641],[19.867817,49.972735],[19.867695,49.972756],[19.867655,49.972663]]]}},{"type":"Feature","id":"w337603979","properties":{"type":"yes","residential":true,"residents_est":0,"h3_10":"8a1e05a60157fff","h3_11":"8b1e05a60155fff"},"geometry":{"type":"Polygon","coordinates":[[[19.862268,49.975393],[19.862313,49.975333],[19.862507,49.975395],[19.862462,49.975454],[19.862268,49.975393]]]}},{"type":"Feature","id":"w337603980","properties":{"type":"yes","address":"Graniczna 2","residential":true,"residents_est":0,"h3_10":"8a1e05a6012ffff","h3_11":"8b1e05a6012bfff"},"geometry":{"type":"Polygon","coordinates":[[[19.859767,49.975987],[19.859803,49.975918],[19.859966,49.975953],[19.85993,49.976023],[19.859767,49.975987]]]}},{"type":"Feature","id":"w337603993","properties":{"type":"yes","address":"Graniczna 14A","residential":true,"residents_est":0,"h3_10":"8a1e05a60177fff","h3_11":"8b1e05a60174fff"},"geometry":{"type":"Polygon","coordinates":[[[19.861277,49.976345],[19.861319,49.976267],[19.861486,49.976305],[19.861444,49.976382],[19.861277,49.976345]]]}},{"type":"Feature","id":"w337604017","properties":{"type":"yes","residential":true,"residents_est":0,"h3_10":"8a1e05a60147fff","h3_11":"8b1e05a60144fff"},"geometry":{"type":"Polygon","coordinates":[[[19.862794,49.975871],[19.862823,49.975817],[19.863139,49.975887],[19.863109,49.975942],[19.862794,49.975871]]]}},{"type":"Feature","id":"w337604042","properties":{"type":"yes","address":"Graniczna 17","residential":true,"residents_est":0,"h3_10":"8a1e05a60167fff","h3_11":"8b1e05a60166fff"},"geometry":{"type":"Polygon","coordinates":[[[19.861794,49.97695],[19.861825,49.976878],[19.861955,49.976901],[19.861924,49.976973],[19.861794,49.97695]]]}},{"type":"Feature","id":"w337604092","properties":{"type":"yes","address":"Graniczna 1B","residential":true,"residents_est":1,"h3_10":"8a1e05a6012ffff","h3_11":"8b1e05a6012efff"},"geometry":{"type":"Polygon","coordinates":[[[19.858873,49.976513],[19.858921,49.9764],[19.859129,49.976436],[19.859081,49.97655],[19.858873,49.976513]]]}},{"type":"Feature","id":"w337604097","properties":{"type":"yes","residential":true,"residents_est":0,"h3_10":"8a1e05a60147fff","h3_11":"8b1e05a60145fff"},"geometry":{"type":"Polygon","coordinates":[[[19.863315,49.975985],[19.863336,49.975922],[19.863484,49.975943],[19.863463,49.976005],[19.863315,49.975985]]]}},{"type":"Feature","id":"w337604110","properties":{"type":"yes","residential":true,"residents_est":0,"h3_10":"8a1e05a6012ffff","h3_11":"8b1e05a6012cfff"},"geometry":{"type":"Polygon","coordinates":[[[19.859516,49.97665],[19.859549,49.976596],[19.859635,49.976618],[19.859603,49.976672],[19.859516,49.97665]]]}},{"type":"Feature","id":"w337604146","properties":{"type":"yes","residential":false,"residents_est":0,"h3_10":"8a1e05a60177fff","h3_11":"8b1e05a60174fff"},"geometry":{"type":"Polygon","coordinates":[[[19.86116,49.976407],[19.861186,49.976356],[19.861265,49.976372],[19.861238,49.976424],[19.86116,49.976407]]]}},{"type":"Feature","id":"w337604162","properties":{"type":"yes","address":"Graniczna 1","residential":true,"residents_est":0,"h3_10":"8a1e05a6012ffff","h3_11":"8b1e05a60128fff"},"geometry":{"type":"Polygon","coordinates":[[[19.859299,49.976522],[19.859335,49.976448],[19.859467,49.976475],[19.859431,49.976549],[19.859299,49.976522]]]}},{"type":"Feature","id":"w337604169","properties":{"type":"yes","residential":true,"residents_est":0,"h3_10":"8a1e05a60147fff","h3_11":"8b1e05a60141fff"},"geometry":{"type":"Polygon","coordinates":[[[19.863619,49.975677],[19.863641,49.975563],[19.863767,49.975572],[19.863748,49.975684],[19.863619,49.975677]]]}},{"type":"Feature","id":"w337604173","properties":{"type":"yes","address":"Graniczna 6","residential":true,"residents_est":0,"h3_10":"8a1e05a60177fff","h3_11":"8b1e05a60176fff"},"geometry":{"type":"Polygon","coordinates":[[[19.860584,49.976061],[19.860647,49.975999],[19.860756,49.976045],[19.860692,49.976108],[19.860584,49.976061]]]}},{"type":"Feature","id":"w337604195","properties":{"type":"yes","address":"Graniczna 16","residential":true,"residents_est":1,"h3_10":"8a1e05a60167fff","h3_11":"8b1e05a60166fff"},"geometry":{"type":"Polygon","coordinates":[[[19.862293,49.976689],[19.862337,49.9766],[19.862524,49.976638],[19.862475,49.976738],[19.862351,49.976713],[19.862357,49.976702],[19.862293,49.976689]]]}},{"type":"Feature","id":"w337604222","properties":{"type":"yes","address":"Graniczna 18","residential":true,"residents_est":0,"h3_10":"8a1e05a60167fff","h3_11":"8b1e05a60162fff"},"geometry":{"type":"Polygon","coordinates":[[[19.862102,49.976452],[19.862139,49.976356],[19.862266,49.976377],[19.862234,49.97646],[19.86218,49.976451],[19.862175,49.976463],[19.862102,49.976452]]]}},{"type":"Feature","id":"w337604250","properties":{"type":"yes","address":"Leona Petrażyckiego 137","residential":true,"residents_est":0,"h3_10":"8a1e05a60147fff","h3_11":"8b1e05a60143fff"},"geometry":{"type":"Polygon","coordinates":[[[19.863339,49.975496],[19.863364,49.97541],[19.863573,49.975435],[19.863549,49.975521],[19.863339,49.975496]]]}},{"type":"Feature","id":"w337604279","properties":{"type":"yes","address":"Leśna 2","residential":true,"residents_est":0,"h3_10":"8a1e05a6004ffff","h3_11":"8b1e05a6004cfff"},"geometry":{"type":"Polygon","coordinates":[[[19.866677,49.973182],[19.866678,49.973089],[19.866746,49.973089],[19.866746,49.973134],[19.866763,49.973135],[19.866762,49.973183],[19.866677,49.973182]]]}},{"type":"Feature","id":"w337604337","properties":{"type":"yes","residential":true,"residents_est":0,"h3_10":"8a1e05a60047fff","h3_11":"8b1e05a60041fff"},"geometry":{"type":"Polygon","coordinates":[[[19.866126,49.973077],[19.866165,49.972996],[19.86625,49.973013],[19.866231,49.973053],[19.866269,49.97306],[19.866249,49.973101],[19.866126,49.973077]]]}},{"type":"Feature","id":"w337604356","properties":{"type":"yes","residential":true,"residents_est":3,"h3_10":"8a1e05a60147fff","h3_11":"8b1e05a60142fff"},"geometry":{"type":"Polygon","coordinates":[[[19.862599,49.975475],[19.862629,49.975369],[19.863291,49.975448],[19.86326,49.975557],[19.862599,49.975475]]]}},{"type":"Feature","id":"w337604369","properties":{"type":"yes","address":"Graniczna 4","residential":true,"residents_est":0,"h3_10":"8a1e05a6012ffff","h3_11":"8b1e05a60129fff"},"geometry":{"type":"Polygon","coordinates":[[[19.860258,49.976228],[19.860303,49.976152],[19.860519,49.976205],[19.860484,49.976264],[19.860319,49.976222],[19.860307,49.976241],[19.860258,49.976228]]]}},{"type":"Feature","id":"w337604521","properties":{"type":"yes","address":"Graniczna 8","residential":true,"residents_est":1,"h3_10":"8a1e05a6010ffff","h3_11":"8b1e05a6010dfff"},"geometry":{"type":"Polygon","coordinates":[[[19.860406,49.975766],[19.860501,49.97569],[19.86057,49.975727],[19.860552,49.975741],[19.86063,49.975782],[19.860549,49.975847],[19.860406,49.975766]]]}},{"type":"Feature","id":"w663913488","properties":{"type":"yes","address":"Graniczna 2K","residential":true,"residents_est":0,"h3_10":"8a1e05a6010ffff","h3_11":"8b1e05a60109fff"},"geometry":{"type":"Polygon","coordinates":[[[19.860579,49.975168],[19.860682,49.975061],[19.860845,49.975126],[19.860742,49.975233],[19.860579,49.975168]]]}},{"type":"Feature","id":"w663913489","properties":{"type":"yes","address":"Graniczna 2L","residential":true,"residents_est":0,"h3_10":"8a1e05a60157fff","h3_11":"8b1e05a60156fff"},"geometry":{"type":"Polygon","coordinates":[[[19.860785,49.974993],[19.860896,49.974894],[19.861037,49.974959],[19.860925,49.975058],[19.860785,49.974993]]]}},{"type":"Feature","id":"w663913491","properties":{"type":"house","address":"Leona Petrażyckiego 137b","residential":true,"residents_est":1,"h3_10":"8a1e05a6015ffff","h3_11":"8b1e05a6015dfff"},"geometry":{"type":"Polygon","coordinates":[[[19.863546,49.975114],[19.863547,49.975057],[19.863626,49.975057],[19.863626,49.975043],[19.863617,49.975043],[19.863618,49.975001],[19.86379,49.975009],[19.863789,49.975059],[19.863827,49.97506],[19.863826,49.975116],[19.863784,49.975116],[19.863784,49.975124],[19.863689,49.975123],[19.863689,49.975116],[19.863546,49.975114]]]}},{"type":"Feature","id":"w663913494","properties":{"type":"house","address":"Graniczna 9B","residential":true,"residents_est":1,"h3_10":"8a1e05a6012ffff","h3_11":"8b1e05a6012dfff"},"geometry":{"type":"Polygon","coordinates":[[[19.860065,49.976907],[19.860203,49.976907],[19.860203,49.977059],[19.860065,49.977059],[19.860065,49.976907]]]}},{"type":"Feature","id":"w706640271","properties":{"type":"yes","residential":true,"residents_est":0,"h3_10":"8a1e05a60147fff","h3_11":"8b1e05a60145fff"},"geometry":{"type":"Polygon","coordinates":[[[19.863463,49.976005],[19.863484,49.975943],[19.86361,49.97596],[19.863589,49.976022],[19.863463,49.976005]]]}},{"type":"Feature","id":"w706640274","properties":{"type":"yes","residential":true,"residents_est":0,"h3_10":"8a1e05a60147fff","h3_11":"8b1e05a60140fff"},"geometry":{"type":"Polygon","coordinates":[[[19.863109,49.975942],[19.863139,49.975887],[19.86328,49.975919],[19.863251,49.975973],[19.863109,49.975942]]]}},{"type":"Feature","id":"w706640276","properties":{"type":"yes","residential":false,"residents_est":0,"h3_10":"8a1e05a60147fff","h3_11":"8b1e05a60143fff"},"geometry":{"type":"Polygon","coordinates":[[[19.863549,49.975521],[19.863563,49.975474],[19.863611,49.97548],[19.863598,49.975527],[19.863549,49.975521]]]}},{"type":"Feature","id":"w706640277","properties":{"type":"yes","residential":false,"residents_est":0,"h3_10":"8a1e05a60147fff","h3_11":"8b1e05a60143fff"},"geometry":{"type":"Polygon","coordinates":[[[19.863687,49.975533],[19.863695,49.975497],[19.863792,49.975506],[19.863787,49.975539],[19.863687,49.975533]]]}},{"type":"Feature","id":"w706640278","properties":{"type":"yes","residential":false,"residents_est":0,"h3_10":"8a1e05a60147fff","h3_11":"8b1e05a60143fff"},"geometry":{"type":"Polygon","coordinates":[[[19.863778,49.975348],[19.863785,49.975309],[19.863866,49.975316],[19.863858,49.975354],[19.863778,49.975348]]]}},{"type":"Feature","id":"w706640279","properties":{"type":"yes","residential":false,"residents_est":0,"h3_10":"8a1e05a60147fff","h3_11":"8b1e05a60141fff"},"geometry":{"type":"Polygon","coordinates":[[[19.863592,49.975636],[19.863602,49.97557],[19.863639,49.975573],[19.863626,49.975638],[19.863592,49.975636]]]}},{"type":"Feature","id":"w706640280","properties":{"type":"yes","residential":true,"residents_est":0,"h3_10":"8a1e05a60147fff","h3_11":"8b1e05a60141fff"},"geometry":{"type":"Polygon","coordinates":[[[19.863613,49.975717],[19.863619,49.975677],[19.8638,49.975688],[19.863794,49.975728],[19.863613,49.975717]]]}},{"type":"Feature","id":"w706640281","properties":{"type":"yes","residential":false,"residents_est":0,"h3_10":"8a1e05a6014ffff","h3_11":"8b1e05a60148fff"},"geometry":{"type":"Polygon","coordinates":[[[19.86501,49.975216],[19.865011,49.975177],[19.865095,49.975177],[19.865096,49.975216],[19.86501,49.975216]]]}},{"type":"Feature","id":"w991056367","properties":{"type":"house","address":"Graniczna 19","residential":true,"residents_est":1,"h3_10":"8a1e05a60167fff","h3_11":"8b1e05a60164fff"},"geometry":{"type":"Polygon","coordinates":[[[19.862322,49.977123],[19.862378,49.977027],[19.862584,49.977076],[19.862537,49.977157],[19.862494,49.977147],[19.862477,49.977176],[19.862392,49.977156],[19.8624,49.977142],[19.862322,49.977123]]]}},{"type":"Feature","id":"w1005991291","properties":{"type":"yes","address":"Radłowa 7","residential":true,"residents_est":2,"h3_10":"8a1e05a6016ffff","h3_11":"8b1e05a60168fff"},"geometry":{"type":"Polygon","coordinates":[[[19.864804,49.976484],[19.864805,49.97642],[19.864835,49.976421],[19.864837,49.976345],[19.864872,49.976346],[19.864873,49.976305],[19.865097,49.976307],[19.865095,49.976394],[19.865017,49.976393],[19.865014,49.976505],[19.864851,49.976503],[19.864852,49.976485],[19.864804,49.976484]]]}},{"type":"Feature","id":"w1076367013","properties":{"type":"yes","residential":true,"residents_est":0,"h3_10":"8a1e05a60167fff","h3_11":"8b1e05a60164fff"},"geometry":{"type":"Polygon","coordinates":[[[19.862608,49.977199],[19.862614,49.977147],[19.862719,49.977152],[19.862714,49.977205],[19.862608,49.977199]]]}},{"type":"Feature","id":"w1084498621","properties":{"type":"garage","residential":false,"residents_est":0,"h3_10":"8a1e05a60027fff","h3_11":"8b1e05a60025fff"},"geometry":{"type":"Polygon","coordinates":[[[19.860827,49.974469],[19.860895,49.974428],[19.860945,49.974463],[19.860878,49.974503],[19.860827,49.974469]]]}},{"type":"Feature","id":"w1084498622","properties":{"type":"garage","residential":false,"residents_est":0,"h3_10":"8a1e05a60027fff","h3_11":"8b1e05a60021fff"},"geometry":{"type":"Polygon","coordinates":[[[19.86095,49.974399],[19.861013,49.974354],[19.861068,49.974386],[19.861006,49.974431],[19.86095,49.974399]]]}},{"type":"Feature","id":"w1084498623","properties":{"type":"garage","residential":false,"residents_est":0,"h3_10":"8a1e05a60027fff","h3_11":"8b1e05a60021fff"},"geometry":{"type":"Polygon","coordinates":[[[19.861072,49.974318],[19.861135,49.974277],[19.861189,49.974311],[19.861125,49.974352],[19.861072,49.974318]]]}},{"type":"Feature","id":"w1084498624","properties":{"type":"garage","residential":false,"residents_est":0,"h3_10":"8a1e05a60027fff","h3_11":"8b1e05a60021fff"},"geometry":{"type":"Polygon","coordinates":[[[19.861196,49.974241],[19.861258,49.974198],[19.861317,49.974234],[19.861255,49.974276],[19.861196,49.974241]]]}},{"type":"Feature","id":"w1084498625","properties":{"type":"garage","residential":false,"residents_est":0,"h3_10":"8a1e05a60027fff","h3_11":"8b1e05a60021fff"},"geometry":{"type":"Polygon","coordinates":[[[19.861328,49.974161],[19.861387,49.974124],[19.861441,49.97416],[19.861382,49.974197],[19.861328,49.974161]]]}},{"type":"Feature","id":"w1084498626","properties":{"type":"garage","residential":false,"residents_est":0,"h3_10":"8a1e05a6002ffff","h3_11":"8b1e05a6002efff"},"geometry":{"type":"Polygon","coordinates":[[[19.861448,49.974083],[19.86151,49.974045],[19.861565,49.974082],[19.861504,49.97412],[19.861448,49.974083]]]}},{"type":"Feature","id":"w1084498627","properties":{"type":"garage","residential":false,"residents_est":0,"h3_10":"8a1e05a6002ffff","h3_11":"8b1e05a6002efff"},"geometry":{"type":"Polygon","coordinates":[[[19.861574,49.974012],[19.861642,49.973971],[19.861696,49.974008],[19.861628,49.974049],[19.861574,49.974012]]]}},{"type":"Feature","id":"w1084498628","properties":{"type":"garage","residential":false,"residents_est":0,"h3_10":"8a1e05a6002ffff","h3_11":"8b1e05a6002efff"},"geometry":{"type":"Polygon","coordinates":[[[19.861694,49.973939],[19.86176,49.9739],[19.861807,49.973932],[19.861741,49.973972],[19.861694,49.973939]]]}},{"type":"Feature","id":"w1084498629","properties":{"type":"house","address":"Leśna 4B","residential":true,"residents_est":1,"h3_10":"8a1e05a6004ffff","h3_11":"8b1e05a6004cfff"},"geometry":{"type":"Polygon","coordinates":[[[19.866993,49.972875],[19.867127,49.972862],[19.867158,49.972995],[19.867023,49.973008],[19.866993,49.972875]]]}},{"type":"Feature","id":"w1084498630","properties":{"type":"yes","residential":false,"residents_est":0,"h3_10":"8a1e05a6004ffff","h3_11":"8b1e05a6004cfff"},"geometry":{"type":"Polygon","coordinates":[[[19.86706,49.973005],[19.867158,49.972995],[19.867167,49.973033],[19.867069,49.973043],[19.86706,49.973005]]]}},{"type":"Feature","id":"w1084498631","properties":{"type":"yes","residential":true,"residents_est":3,"h3_10":"8a1e05a6010ffff","h3_11":"8b1e05a6010afff"},"geometry":{"type":"Polygon","coordinates":[[[19.859634,49.975048],[19.859767,49.974932],[19.859949,49.975018],[19.859988,49.974985],[19.860199,49.975085],[19.860062,49.975204],[19.859861,49.975109],[19.859827,49.975139],[19.859634,49.975048]]]}},{"type":"Feature","id":"w1105022561","properties":{"type":"yes","residential":true,"residents_est":0,"h3_10":"8a1e05a6015ffff","h3_11":"8b1e05a6015efff"},"geometry":{"type":"Polygon","coordinates":[[[19.862867,49.974708],[19.862973,49.974674],[19.863004,49.974715],[19.862898,49.974749],[19.862867,49.974708]]]}},{"type":"Feature","id":"w1105022562","properties":{"type":"yes","residential":false,"residents_est":0,"h3_10":"8a1e05a6015ffff","h3_11":"8b1e05a6015efff"},"geometry":{"type":"Polygon","coordinates":[[[19.862874,49.974413],[19.862914,49.974399],[19.862953,49.974443],[19.862913,49.974458],[19.862874,49.974413]]]}},{"type":"Feature","id":"w1105022563","properties":{"type":"yes","residential":false,"residents_est":0,"h3_10":"8a1e05a60157fff","h3_11":"8b1e05a60155fff"},"geometry":{"type":"Polygon","coordinates":[[[19.861908,49.975168],[19.861918,49.975156],[19.861938,49.975151],[19.86196,49.975157],[19.86198,49.975173],[19.861934,49.975198],[19.861914,49.975182],[19.861908,49.975168]]]}},{"type":"Feature","id":"w1105022564","properties":{"type":"yes","residential":false,"residents_est":0,"h3_10":"8a1e05a60157fff","h3_11":"8b1e05a60150fff"},"geometry":{"type":"Polygon","coordinates":[[[19.86171,49.975201],[19.861777,49.975163],[19.861809,49.975187],[19.861743,49.975225],[19.86171,49.975201]]]}},{"type":"Feature","id":"w1105022565","properties":{"type":"outbuilding","residential":false,"residents_est":0,"h3_10":"8a1e05a6002ffff","h3_11":"8b1e05a60028fff"},"geometry":{"type":"Polygon","coordinates":[[[19.862151,49.974105],[19.862153,49.974055],[19.862212,49.974056],[19.86221,49.974106],[19.862151,49.974105]]]}},{"type":"Feature","id":"w1105022566","properties":{"type":"service","residential":false,"residents_est":0,"h3_10":"8a1e05a6002ffff","h3_11":"8b1e05a6002cfff"},"geometry":{"type":"Polygon","coordinates":[[[19.862004,49.97418],[19.86207,49.974145],[19.86215,49.974207],[19.862084,49.974243],[19.862004,49.97418]]]}},{"type":"Feature","id":"w1271897914","properties":{"type":"residential","residential":true,"residents_est":13,"h3_10":"8a1e05a6010ffff","h3_11":"8b1e05a6010efff"},"geometry":{"type":"Polygon","coordinates":[[[19.858919,49.975108],[19.859095,49.975051],[19.859117,49.97508],[19.859065,49.975097],[19.859088,49.975126],[19.859116,49.975117],[19.859163,49.975178],[19.859184,49.975171],[19.859198,49.975189],[19.859173,49.975197],[19.859215,49.975251],[19.859255,49.975238],[19.85942,49.975452],[19.85948,49.975481],[19.859463,49.975496],[19.859512,49.975519],[19.859689,49.975364],[19.859795,49.975414],[19.859781,49.975426],[19.859856,49.975461],[19.859816,49.975496],[19.85979,49.975483],[19.859757,49.975512],[19.859744,49.975505],[19.859642,49.975594],[19.859673,49.975609],[19.859625,49.975644],[19.859639,49.975659],[19.859562,49.97571],[19.859287,49.97558],[19.859238,49.975499],[19.859217,49.975505],[19.85911,49.975357],[19.859094,49.975362],[19.85906,49.975315],[19.859087,49.975307],[19.859049,49.975254],[19.859035,49.975255],[19.858919,49.975108]]]}},{"type":"Feature","id":"w1271897915","properties":{"type":"terrace","residential":true,"residents_est":2,"h3_10":"8a1e05a60157fff","h3_11":"8b1e05a60154fff"},"geometry":{"type":"Polygon","coordinates":[[[19.861057,49.975464],[19.861131,49.975399],[19.861164,49.975415],[19.861218,49.975367],[19.861251,49.975383],[19.861305,49.975335],[19.86133,49.975347],[19.861394,49.975291],[19.861445,49.975315],[19.861496,49.97527],[19.861528,49.975285],[19.861605,49.975218],[19.861673,49.97525],[19.861617,49.975299],[19.86158,49.975282],[19.861521,49.975333],[19.861496,49.975322],[19.861427,49.975382],[19.861399,49.975369],[19.861345,49.975416],[19.861328,49.975408],[19.86126,49.975468],[19.861239,49.975459],[19.861171,49.975518],[19.861057,49.975464]]]}},{"type":"Feature","id":"w1301599955","properties":{"type":"yes","residential":false,"residents_est":0,"h3_10":"8a1e05a60047fff","h3_11":"8b1e05a60042fff"},"geometry":{"type":"Polygon","coordinates":[[[19.865456,49.972782],[19.865468,49.972738],[19.865538,49.972746],[19.865526,49.97279],[19.865456,49.972782]]]}},{"type":"Feature","id":"w1301599959","properties":{"type":"yes","residential":false,"residents_est":0,"h3_10":"8a1e05a60047fff","h3_11":"8b1e05a60041fff"},"geometry":{"type":"Polygon","coordinates":[[[19.866479,49.973136],[19.866565,49.973133],[19.866568,49.973175],[19.866483,49.973178],[19.866479,49.973136]]]}},{"type":"Feature","id":"w1301599960","properties":{"type":"yes","residential":true,"residents_est":0,"h3_10":"8a1e05a6004ffff","h3_11":"8b1e05a6004efff"},"geometry":{"type":"Polygon","coordinates":[[[19.866733,49.97285],[19.866874,49.972837],[19.866887,49.972897],[19.866746,49.97291],[19.866733,49.97285]]]}},{"type":"Feature","id":"w1301599961","properties":{"type":"yes","residential":false,"residents_est":0,"h3_10":"8a1e05a6004ffff","h3_11":"8b1e05a6004efff"},"geometry":{"type":"Polygon","coordinates":[[[19.866814,49.97261],[19.866859,49.972606],[19.86687,49.972654],[19.866825,49.972659],[19.866814,49.97261]]]}},{"type":"Feature","id":"w1301599962","properties":{"type":"yes","residential":true,"residents_est":0,"h3_10":"8a1e05a6004ffff","h3_11":"8b1e05a6004efff"},"geometry":{"type":"Polygon","coordinates":[[[19.866706,49.972727],[19.866847,49.972715],[19.866874,49.972837],[19.866733,49.97285],[19.866706,49.972727]]]}},{"type":"Feature","id":"w1301599978","properties":{"type":"yes","residential":true,"residents_est":0,"h3_10":"8a1e05a6012ffff","h3_11":"8b1e05a6012efff"},"geometry":{"type":"Polygon","coordinates":[[[19.859086,49.976535],[19.859129,49.976436],[19.859184,49.976447],[19.859139,49.976545],[19.859086,49.976535]]]}},{"type":"Feature","id":"w1316463200","properties":{"type":"house","address":"Leśna 18","residential":true,"residents_est":0,"h3_10":"8a1e05a60027fff","h3_11":"8b1e05a60024fff"},"geometry":{"type":"Polygon","coordinates":[[[19.860166,49.974555],[19.860166,49.974478],[19.860206,49.97448],[19.860206,49.974469],[19.860262,49.974469],[19.860262,49.974555],[19.860166,49.974555]]]}},{"type":"Feature","id":"w1316463201","properties":{"type":"house","address":"Leśna 16","residential":true,"residents_est":0,"h3_10":"8a1e05a60027fff","h3_11":"8b1e05a60024fff"},"geometry":{"type":"Polygon","coordinates":[[[19.860262,49.974555],[19.860262,49.974469],[19.860319,49.97447],[19.860319,49.97448],[19.860361,49.974478],[19.860361,49.974555],[19.860262,49.974555]]]}},{"type":"Feature","id":"w1316463202","properties":{"type":"house","address":"Leśna 192","residential":true,"residents_est":1,"h3_10":"8a1e05a60007fff","h3_11":"8b1e05a60005fff"},"geometry":{"type":"Polygon","coordinates":[[[19.860828,49.973682],[19.860878,49.973617],[19.860996,49.973658],[19.860964,49.973693],[19.860986,49.973701],[19.860964,49.973728],[19.860828,49.973682]]]}},{"type":"Feature","id":"w1316463212","properties":{"type":"house","address":"Leśna 212","residential":true,"residents_est":0,"h3_10":"8a1e05a6002ffff","h3_11":"8b1e05a6002efff"},"geometry":{"type":"Polygon","coordinates":[[[19.861305,49.973895],[19.861386,49.973847],[19.861472,49.973906],[19.861426,49.973934],[19.861442,49.973946],[19.861408,49.973966],[19.861305,49.973895]]]}},{"type":"Feature","id":"w1316463217","properties":{"type":"house","address":"Leśna 214","residential":true,"residents_est":0,"h3_10":"8a1e05a6002ffff","h3_11":"8b1e05a6002efff"},"geometry":{"type":"Polygon","coordinates":[[[19.861386,49.973847],[19.861466,49.973798],[19.861569,49.973869],[19.861535,49.97389],[19.861518,49.973878],[19.861472,49.973906],[19.861386,49.973847]]]}},{"type":"Feature","id":"w1316463221","properties":{"type":"house","address":"Leśna 190","residential":true,"residents_est":0,"h3_10":"8a1e05a60027fff","h3_11":"8b1e05a60023fff"},"geometry":{"type":"Polygon","coordinates":[[[19.860775,49.973744],[19.860828,49.973682],[19.860964,49.973728],[19.860942,49.973755],[19.86092,49.973748],[19.860893,49.973784],[19.860775,49.973744]]]}},{"type":"Feature","id":"w1316463223","properties":{"type":"house","address":"Leśna 188","residential":true,"residents_est":0,"h3_10":"8a1e05a60027fff","h3_11":"8b1e05a60023fff"},"geometry":{"type":"Polygon","coordinates":[[[19.860726,49.973808],[19.860775,49.973744],[19.860893,49.973784],[19.860862,49.973819],[19.860883,49.973826],[19.860861,49.973854],[19.860726,49.973808]]]}},{"type":"Feature","id":"w1316463229","properties":{"type":"house","address":"Leśna 216","residential":true,"residents_est":0,"h3_10":"8a1e05a6002ffff","h3_11":"8b1e05a6002efff"},"geometry":{"type":"Polygon","coordinates":[[[19.861466,49.973798],[19.861546,49.973749],[19.861633,49.973808],[19.861587,49.973836],[19.861603,49.973848],[19.861569,49.973869],[19.861466,49.973798]]]}},{"type":"Feature","id":"w1316463231","properties":{"type":"house","address":"Leśna 194","residential":true,"residents_est":0,"h3_10":"8a1e05a60007fff","h3_11":"8b1e05a60005fff"},"geometry":{"type":"Polygon","coordinates":[[[19.860919,49.973568],[19.860973,49.973506],[19.861107,49.973551],[19.861086,49.973578],[19.861064,49.973571],[19.861036,49.973608],[19.860919,49.973568]]]}},{"type":"Feature","id":"w1316463235","properties":{"type":"house","address":"Leśna 210","residential":true,"residents_est":0,"h3_10":"8a1e05a6002ffff","h3_11":"8b1e05a6002efff"},"geometry":{"type":"Polygon","coordinates":[[[19.861224,49.973944],[19.861305,49.973895],[19.861408,49.973966],[19.861374,49.973987],[19.861357,49.973976],[19.861311,49.974003],[19.861224,49.973944]]]}},{"type":"Feature","id":"w1316463238","properties":{"type":"house","address":"Leśna 186","residential":true,"residents_est":0,"h3_10":"8a1e05a60027fff","h3_11":"8b1e05a60023fff"},"geometry":{"type":"Polygon","coordinates":[[[19.860671,49.973871],[19.860726,49.973808],[19.860861,49.973854],[19.860839,49.973881],[19.860817,49.973874],[19.86079,49.973911],[19.860671,49.973871]]]}},{"type":"Feature","id":"w1316463252","properties":{"type":"house","address":"Leśna 142","residential":true,"residents_est":0,"h3_10":"8a1e05a60027fff","h3_11":"8b1e05a60023fff"},"geometry":{"type":"Polygon","coordinates":[[[19.860374,49.973829],[19.860405,49.973793],[19.860382,49.973786],[19.860403,49.973759],[19.860539,49.973801],[19.860492,49.973866],[19.860374,49.973829]]]}},{"type":"Feature","id":"w1316463258","properties":{"type":"house","address":"Leśna 48","residential":true,"residents_est":0,"h3_10":"8a1e05a60027fff","h3_11":"8b1e05a60020fff"},"geometry":{"type":"Polygon","coordinates":[[[19.860142,49.974326],[19.860142,49.974241],[19.860255,49.974241],[19.860255,49.974318],[19.860198,49.974316],[19.860198,49.974326],[19.860142,49.974326]]]}},{"type":"Feature","id":"w1316463260","properties":{"type":"house","address":"Leśna 58","residential":true,"residents_est":0,"h3_10":"8a1e05a60027fff","h3_11":"8b1e05a60026fff"},"geometry":{"type":"Polygon","coordinates":[[[19.859501,49.974317],[19.859501,49.97424],[19.859612,49.97424],[19.859611,49.974325],[19.859555,49.974325],[19.859555,49.974315],[19.859501,49.974317]]]}},{"type":"Feature","id":"w1316463261","properties":{"type":"house","address":"Leśna 30","residential":true,"residents_est":0,"h3_10":"8a1e05a6011ffff","h3_11":"8b1e05a60119fff"},"geometry":{"type":"Polygon","coordinates":[[[19.859499,49.974554],[19.859499,49.974477],[19.859539,49.974479],[19.859539,49.974469],[19.859595,49.974469],[19.859595,49.974554],[19.859499,49.974554]]]}},{"type":"Feature","id":"w1316463262","properties":{"type":"house","address":"Leśna 50","residential":true,"residents_est":0,"h3_10":"8a1e05a60027fff","h3_11":"8b1e05a60020fff"},"geometry":{"type":"Polygon","coordinates":[[[19.860032,49.974317],[19.860032,49.974241],[19.860142,49.974241],[19.860142,49.974326],[19.860085,49.974326],[19.860086,49.974316],[19.860032,49.974317]]]}},{"type":"Feature","id":"w1316463266","properties":{"type":"house","address":"Leśna 34","residential":true,"residents_est":0,"h3_10":"8a1e05a6011ffff","h3_11":"8b1e05a60119fff"},"geometry":{"type":"Polygon","coordinates":[[[19.859303,49.974554],[19.859303,49.974477],[19.859346,49.974479],[19.859346,49.974468],[19.859403,49.974468],[19.859402,49.974554],[19.859303,49.974554]]]}},{"type":"Feature","id":"w1316463267","properties":{"type":"house","address":"Leśna 24","residential":true,"residents_est":0,"h3_10":"8a1e05a60027fff","h3_11":"8b1e05a60024fff"},"geometry":{"type":"Polygon","coordinates":[[[19.859787,49.974554],[19.859788,49.974469],[19.859844,49.974469],[19.859844,49.974479],[19.859887,49.974478],[19.859887,49.974555],[19.859787,49.974554]]]}},{"type":"Feature","id":"w1316463268","properties":{"type":"house","address":"Leśna 22","residential":true,"residents_est":0,"h3_10":"8a1e05a60027fff","h3_11":"8b1e05a60024fff"},"geometry":{"type":"Polygon","coordinates":[[[19.85997,49.974555],[19.85997,49.974478],[19.860013,49.97448],[19.860013,49.974469],[19.86007,49.974469],[19.860069,49.974555],[19.85997,49.974555]]]}},{"type":"Feature","id":"w1316463270","properties":{"type":"house","address":"Leśna 32","residential":true,"residents_est":0,"h3_10":"8a1e05a6011ffff","h3_11":"8b1e05a60119fff"},"geometry":{"type":"Polygon","coordinates":[[[19.859402,49.974554],[19.859403,49.974468],[19.859459,49.974468],[19.859459,49.974479],[19.859499,49.974477],[19.859499,49.974554],[19.859402,49.974554]]]}},{"type":"Feature","id":"w1316463273","properties":{"type":"house","address":"Leśna 56","residential":true,"residents_est":0,"h3_10":"8a1e05a60027fff","h3_11":"8b1e05a60026fff"},"geometry":{"type":"Polygon","coordinates":[[[19.859611,49.974325],[19.859612,49.97424],[19.859725,49.97424],[19.859724,49.974317],[19.859668,49.974315],[19.859668,49.974325],[19.859611,49.974325]]]}},{"type":"Feature","id":"w1316463275","properties":{"type":"house","address":"Leśna 54","residential":true,"residents_est":0,"h3_10":"8a1e05a60027fff","h3_11":"8b1e05a60026fff"},"geometry":{"type":"Polygon","coordinates":[[[19.859808,49.974317],[19.859808,49.97424],[19.859921,49.97424],[19.859921,49.974326],[19.859865,49.974326],[19.859865,49.974315],[19.859808,49.974317]]]}},{"type":"Feature","id":"w1316463276","properties":{"type":"house","address":"Leśna 52","residential":true,"residents_est":0,"h3_10":"8a1e05a60027fff","h3_11":"8b1e05a60026fff"},"geometry":{"type":"Polygon","coordinates":[[[19.859921,49.974326],[19.859921,49.97424],[19.860032,49.974241],[19.860032,49.974317],[19.859978,49.974316],[19.859978,49.974326],[19.859921,49.974326]]]}},{"type":"Feature","id":"w1316463279","properties":{"type":"house","address":"Leśna 20","residential":true,"residents_est":0,"h3_10":"8a1e05a60027fff","h3_11":"8b1e05a60024fff"},"geometry":{"type":"Polygon","coordinates":[[[19.860069,49.974555],[19.86007,49.974469],[19.860126,49.974469],[19.860126,49.97448],[19.860166,49.974478],[19.860166,49.974555],[19.860069,49.974555]]]}},{"type":"Feature","id":"w1316463280","properties":{"type":"house","address":"Leśna 26","residential":true,"residents_est":0,"h3_10":"8a1e05a60027fff","h3_11":"8b1e05a60024fff"},"geometry":{"type":"Polygon","coordinates":[[[19.859691,49.974554],[19.859691,49.974477],[19.859731,49.974479],[19.859731,49.974469],[19.859788,49.974469],[19.859787,49.974554],[19.859691,49.974554]]]}},{"type":"Feature","id":"w1316463281","properties":{"type":"house","address":"Leśna 28","residential":true,"residents_est":0,"h3_10":"8a1e05a6011ffff","h3_11":"8b1e05a60119fff"},"geometry":{"type":"Polygon","coordinates":[[[19.859595,49.974554],[19.859595,49.974469],[19.859651,49.974469],[19.859651,49.974479],[19.859691,49.974477],[19.859691,49.974554],[19.859595,49.974554]]]}},{"type":"Feature","id":"w1316463282","properties":{"type":"house","address":"Leśna 180","residential":true,"residents_est":0,"h3_10":"8a1e05a60027fff","h3_11":"8b1e05a60021fff"},"geometry":{"type":"Polygon","coordinates":[[[19.86077,49.974166],[19.86089,49.97414],[19.86091,49.974179],[19.860934,49.974174],[19.860949,49.974203],[19.860805,49.974234],[19.86077,49.974166]]]}},{"type":"Feature","id":"w1316463283","properties":{"type":"house","address":"Leśna 182","residential":true,"residents_est":0,"h3_10":"8a1e05a60027fff","h3_11":"8b1e05a60021fff"},"geometry":{"type":"Polygon","coordinates":[[[19.860735,49.974099],[19.860878,49.974068],[19.860893,49.974097],[19.86087,49.974102],[19.86089,49.97414],[19.86077,49.974166],[19.860735,49.974099]]]}},{"type":"Feature","id":"w1316463284","properties":{"type":"house","address":"Leśna 178","residential":true,"residents_est":0,"h3_10":"8a1e05a60027fff","h3_11":"8b1e05a60021fff"},"geometry":{"type":"Polygon","coordinates":[[[19.860805,49.974234],[19.860949,49.974203],[19.860964,49.974231],[19.86094,49.974236],[19.860961,49.974275],[19.860841,49.974302],[19.860805,49.974234]]]}},{"type":"Feature","id":"w1316463285","properties":{"type":"house","address":"Leśna 130","residential":true,"residents_est":0,"h3_10":"8a1e05a60027fff","h3_11":"8b1e05a60025fff"},"geometry":{"type":"Polygon","coordinates":[[[19.860533,49.974368],[19.860682,49.974336],[19.86072,49.974405],[19.860591,49.974432],[19.860572,49.974393],[19.860549,49.974398],[19.860533,49.974368]]]}},{"type":"Feature","id":"w1316463286","properties":{"type":"house","address":"Leśna 138","residential":true,"residents_est":0,"h3_10":"8a1e05a60027fff","h3_11":"8b1e05a60020fff"},"geometry":{"type":"Polygon","coordinates":[[[19.860393,49.974099],[19.860541,49.974067],[19.860578,49.974134],[19.860448,49.974162],[19.860431,49.974124],[19.860408,49.974129],[19.860393,49.974099]]]}},{"type":"Feature","id":"w1316463287","properties":{"type":"house","address":"Leśna 132","residential":true,"residents_est":0,"h3_10":"8a1e05a60027fff","h3_11":"8b1e05a60020fff"},"geometry":{"type":"Polygon","coordinates":[[[19.860518,49.974338],[19.860541,49.974333],[19.860519,49.974296],[19.860649,49.974269],[19.860682,49.974336],[19.860533,49.974368],[19.860518,49.974338]]]}},{"type":"Feature","id":"w1316463288","properties":{"type":"house","address":"Leśna 134","residential":true,"residents_est":0,"h3_10":"8a1e05a60027fff","h3_11":"8b1e05a60020fff"},"geometry":{"type":"Polygon","coordinates":[[[19.860463,49.974233],[19.860611,49.974202],[19.860649,49.974269],[19.860519,49.974296],[19.860502,49.974258],[19.860479,49.974263],[19.860463,49.974233]]]}},{"type":"Feature","id":"w1316463289","properties":{"type":"house","address":"Leśna 136","residential":true,"residents_est":0,"h3_10":"8a1e05a60027fff","h3_11":"8b1e05a60020fff"},"geometry":{"type":"Polygon","coordinates":[[[19.860447,49.974203],[19.86047,49.974198],[19.860448,49.974162],[19.860578,49.974134],[19.860611,49.974202],[19.860463,49.974233],[19.860447,49.974203]]]}},{"type":"Feature","id":"w1316463292","properties":{"type":"house","address":"Leśna 208","residential":true,"residents_est":0,"h3_10":"8a1e05a6002ffff","h3_11":"8b1e05a6002efff"},"geometry":{"type":"Polygon","coordinates":[[[19.861144,49.973993],[19.861224,49.973944],[19.861311,49.974003],[19.861265,49.974031],[19.861282,49.974043],[19.861248,49.974064],[19.861144,49.973993]]]}},{"type":"Feature","id":"w1316463295","properties":{"type":"house","address":"Leśna 206","residential":true,"residents_est":0,"h3_10":"8a1e05a60027fff","h3_11":"8b1e05a60021fff"},"geometry":{"type":"Polygon","coordinates":[[[19.861063,49.974042],[19.861144,49.973993],[19.861248,49.974064],[19.861214,49.974084],[19.861197,49.974073],[19.86115,49.974101],[19.861063,49.974042]]]}},{"type":"Feature","id":"w1316463296","properties":{"type":"house","address":"Leśna 184","residential":true,"residents_est":0,"h3_10":"8a1e05a60027fff","h3_11":"8b1e05a60023fff"},"geometry":{"type":"Polygon","coordinates":[[[19.860699,49.974031],[19.86082,49.974005],[19.86084,49.974044],[19.860863,49.974039],[19.860878,49.974068],[19.860735,49.974099],[19.860699,49.974031]]]}},{"type":"Feature","id":"w1316463298","properties":{"type":"house","address":"Leśna 140","residential":true,"residents_est":0,"h3_10":"8a1e05a60027fff","h3_11":"8b1e05a60020fff"},"geometry":{"type":"Polygon","coordinates":[[[19.860377,49.974069],[19.8604,49.974064],[19.860377,49.974026],[19.860507,49.973997],[19.860541,49.974067],[19.860393,49.974099],[19.860377,49.974069]]]}}]}