{"type":"FeatureCollection","features":[{"type":"Feature","id":"w231346763","properties":{"type":"yes","residential":false,"residents_est":0,"h3_10":"8a1e2e7982affff","h3_11":"8b1e2e7982aafff"},"geometry":{"type":"Polygon","coordinates":[[[19.908946,50.112449],[19.908961,50.112411],[19.909029,50.112422],[19.909015,50.112459],[19.908946,50.112449]]]}},{"type":"Feature","id":"w231346764","properties":{"type":"yes","address":"Na Mostkach 33","residential":true,"residents_est":3,"h3_10":"8a1e2e7982a7fff","h3_11":"8b1e2e7982a1fff"},"geometry":{"type":"Polygon","coordinates":[[[19.908549,50.113173],[19.90857,50.11314],[19.908557,50.113137],[19.908586,50.113093],[19.908655,50.113112],[19.908661,50.113102],[19.908801,50.11314],[19.908777,50.113175],[19.908767,50.113173],[19.908735,50.113223],[19.908549,50.113173]]]}},{"type":"Feature","id":"w231346779","properties":{"type":"yes","residential":false,"residents_est":0,"h3_10":"8a1e2e7982b7fff","h3_11":"8b1e2e7982b5fff"},"geometry":{"type":"Polygon","coordinates":[[[19.906712,50.112668],[19.906737,50.112632],[19.90679,50.112645],[19.906766,50.112682],[19.906712,50.112668]]]}},{"type":"Feature","id":"w231346793","properties":{"type":"yes","address":"Na Mostkach 37","residential":true,"residents_est":3,"h3_10":"8a1e2e798217fff","h3_11":"8b1e2e798213fff"},"geometry":{"type":"Polygon","coordinates":[[[19.909222,50.113437],[19.909282,50.113343],[19.909353,50.113362],[19.909349,50.113368],[19.909457,50.113396],[19.909436,50.11343],[19.909467,50.113438],[19.909448,50.113468],[19.909417,50.113459],[19.909399,50.113483],[19.909222,50.113437]]]}},{"type":"Feature","id":"w231346795","properties":{"type":"yes","address":"Zygmunta Waliszewskiego 5","residential":true,"residents_est":2,"h3_10":"8a1e2e798237fff","h3_11":"8b1e2e798236fff"},"geometry":{"type":"Polygon","coordinates":[[[19.907703,50.115013],[19.907762,50.114906],[19.907891,50.114936],[19.907871,50.114972],[19.907901,50.114978],[19.907886,50.115004],[19.907857,50.114997],[19.907832,50.115043],[19.907703,50.115013]]]}},{"type":"Feature","id":"w231346796","properties":{"type":"yes","residential":true,"residents_est":25,"h3_10":"8a1e2e79838ffff","h3_11":"8b1e2e79838bfff"},"geometry":{"type":"Polygon","coordinates":[[[19.907296,50.113745],[19.907497,50.113446],[19.907764,50.113521],[19.907629,50.113722],[19.907556,50.113701],[19.90749,50.113799],[19.907296,50.113745]]]}},{"type":"Feature","id":"w231346903","properties":{"type":"yes","address":"Na Mostkach 31a","residential":true,"residents_est":4,"h3_10":"8a1e2e7982a7fff","h3_11":"8b1e2e7982a1fff"},"geometry":{"type":"Polygon","coordinates":[[[19.908221,50.113105],[19.908255,50.113052],[19.908229,50.113044],[19.908286,50.112952],[19.908338,50.112965],[19.90836,50.112959],[19.908385,50.112966],[19.908394,50.11298],[19.908445,50.112993],[19.908386,50.113086],[19.908361,50.113079],[19.908327,50.113133],[19.908221,50.113105]]]}},{"type":"Feature","id":"w231346962","properties":{"type":"yes","address":"Na Mostkach 32a","residential":true,"residents_est":3,"h3_10":"8a1e2e7982affff","h3_11":"8b1e2e7982aafff"},"geometry":{"type":"Polygon","coordinates":[[[19.908929,50.112405],[19.908976,50.11228],[19.909109,50.112301],[19.909097,50.112335],[19.909137,50.112342],[19.909116,50.112398],[19.909075,50.112391],[19.909061,50.112426],[19.908929,50.112405]]]}},{"type":"Feature","id":"w231346987","properties":{"type":"yes","residential":true,"residents_est":3,"h3_10":"8a1e2e7982a7fff","h3_11":"8b1e2e7982a3fff"},"geometry":{"type":"Polygon","coordinates":[[[19.907916,50.112868],[19.907955,50.112809],[19.908025,50.112829],[19.908034,50.112816],[19.908077,50.112828],[19.908087,50.112811],[19.908146,50.112828],[19.908116,50.112874],[19.908151,50.112884],[19.908112,50.112943],[19.908026,50.11292],[19.908021,50.112928],[19.907943,50.112906],[19.907961,50.11288],[19.907916,50.112868]]]}},{"type":"Feature","id":"w231346994","properties":{"type":"yes","address":"Jęczmienna 30","residential":true,"residents_est":3,"h3_10":"8a1e2e798387fff","h3_11":"8b1e2e798381fff"},"geometry":{"type":"Polygon","coordinates":[[[19.905925,50.114625],[19.905951,50.114573],[19.905925,50.114574],[19.905951,50.114523],[19.905984,50.11453],[19.905988,50.114522],[19.906126,50.114557],[19.906078,50.114652],[19.905925,50.114625]]]}},{"type":"Feature","id":"w231346998","properties":{"type":"yes","address":"Jęczmienna 28a","residential":true,"residents_est":4,"h3_10":"8a1e2e7983a7fff","h3_11":"8b1e2e7983a3fff"},"geometry":{"type":"Polygon","coordinates":[[[19.905186,50.115242],[19.905227,50.115177],[19.905242,50.115181],[19.905269,50.115137],[19.905355,50.115152],[19.90536,50.115161],[19.905392,50.115169],[19.905365,50.115212],[19.90538,50.115217],[19.905301,50.115343],[19.905218,50.115322],[19.905247,50.115276],[19.905186,50.115242]]]}},{"type":"Feature","id":"w231347090","properties":{"type":"yes","address":"Na Mostkach 11","residential":true,"residents_est":4,"h3_10":"8a1e2e7982b7fff","h3_11":"8b1e2e7982b6fff"},"geometry":{"type":"Polygon","coordinates":[[[19.90536,50.112378],[19.905382,50.112345],[19.905362,50.112335],[19.905374,50.112317],[19.9054,50.112321],[19.905414,50.112298],[19.905484,50.112317],[19.905514,50.11227],[19.905581,50.112288],[19.905588,50.112277],[19.905637,50.112291],[19.905631,50.1123],[19.905696,50.112318],[19.905634,50.112414],[19.905568,50.112396],[19.905556,50.112404],[19.905518,50.112394],[19.905517,50.112383],[19.905459,50.112367],[19.905437,50.112399],[19.90536,50.112378]]]}},{"type":"Feature","id":"w231347196","properties":{"type":"yes","residential":true,"residents_est":1,"h3_10":"8a1e2e79821ffff","h3_11":"8b1e2e79821efff"},"geometry":{"type":"Polygon","coordinates":[[[19.909919,50.113442],[19.909968,50.113357],[19.910038,50.113374],[19.909989,50.113459],[19.909919,50.113442]]]}},{"type":"Feature","id":"w231347198","properties":{"type":"bunker","name":"Schron amunicyjny Pękowice","residential":false,"residents_est":0,"h3_10":"8a1e2e798237fff","h3_11":"8b1e2e798231fff"},"geometry":{"type":"Polygon","coordinates":[[[19.909458,50.114936],[19.909481,50.114883],[19.909676,50.114917],[19.909653,50.114971],[19.909458,50.114936]]]}},{"type":"Feature","id":"w231347202","properties":{"type":"yes","residential":false,"residents_est":0,"h3_10":"8a1e2e7982f7fff","h3_11":"8b1e2e7982f2fff"},"geometry":{"type":"Polygon","coordinates":[[[19.910827,50.111977],[19.91086,50.111908],[19.910923,50.11192],[19.910891,50.111989],[19.910827,50.111977]]]}},{"type":"Feature","id":"w231347229","properties":{"type":"house","address":"Na Mostkach 39","residential":true,"residents_est":4,"h3_10":"8a1e2e7982affff","h3_11":"8b1e2e7982adfff"},"geometry":{"type":"Polygon","coordinates":[[[19.910063,50.11327],[19.910117,50.113188],[19.91026,50.113226],[19.910207,50.113309],[19.910063,50.11327]]]}},{"type":"Feature","id":"w231347246","properties":{"type":"yes","residential":true,"residents_est":2,"h3_10":"8a1e2e7982a7fff","h3_11":"8b1e2e7982a3fff"},"geometry":{"type":"Polygon","coordinates":[[[19.907666,50.112762],[19.907708,50.112684],[19.907878,50.112722],[19.907839,50.112799],[19.907666,50.112762]]]}},{"type":"Feature","id":"w231347250","properties":{"type":"yes","address":"Na Mostkach 20","residential":true,"residents_est":2,"h3_10":"8a1e2e7982b7fff","h3_11":"8b1e2e7982b3fff"},"geometry":{"type":"Polygon","coordinates":[[[19.906523,50.112181],[19.906551,50.112094],[19.906693,50.112113],[19.906666,50.1122],[19.906523,50.112181]]]}},{"type":"Feature","id":"w231347256","properties":{"type":"yes","residential":false,"residents_est":0,"h3_10":"8a1e2e7982b7fff","h3_11":"8b1e2e7982b5fff"},"geometry":{"type":"Polygon","coordinates":[[[19.906737,50.112632],[19.906798,50.112544],[19.90684,50.112555],[19.906782,50.112643],[19.906737,50.112632]]]}},{"type":"Feature","id":"w231347263","properties":{"type":"garages","residential":false,"residents_est":0,"h3_10":"8a1e2e7982f7fff","h3_11":"8b1e2e7982f2fff"},"geometry":{"type":"Polygon","coordinates":[[[19.910891,50.111989],[19.910923,50.11192],[19.911036,50.111931],[19.911068,50.112014],[19.910891,50.111989]]]}},{"type":"Feature","id":"w231347264","properties":{"type":"yes","residential":false,"residents_est":0,"h3_10":"8a1e2e7982b7fff","h3_11":"8b1e2e7982b0fff"},"geometry":{"type":"Polygon","coordinates":[[[19.906133,50.11254],[19.906177,50.11247],[19.906239,50.112485],[19.906194,50.112556],[19.906133,50.11254]]]}},{"type":"Feature","id":"w231347281","properties":{"type":"yes","residential":true,"residents_est":1,"h3_10":"8a1e2e798287fff","h3_11":"8b1e2e798286fff"},"geometry":{"type":"Polygon","coordinates":[[[19.906914,50.112064],[19.906947,50.111979],[19.907015,50.11199],[19.906983,50.112075],[19.906914,50.112064]]]}},{"type":"Feature","id":"w231347312","properties":{"type":"yes","address":"Na Mostkach 25","residential":true,"residents_est":1,"h3_10":"8a1e2e7982b7fff","h3_11":"8b1e2e7982b1fff"},"geometry":{"type":"Polygon","coordinates":[[[19.906936,50.112579],[19.906978,50.112514],[19.907079,50.112538],[19.90704,50.112604],[19.906936,50.112579]]]}},{"type":"Feature","id":"w231347325","properties":{"type":"yes","residential":true,"residents_est":2,"h3_10":"8a1e2e798297fff","h3_11":"8b1e2e798294fff"},"geometry":{"type":"Polygon","coordinates":[[[19.90638,50.111737],[19.906411,50.111657],[19.906551,50.111679],[19.90652,50.11176],[19.90638,50.111737]]]}},{"type":"Feature","id":"w231347340","properties":{"type":"yes","residential":true,"residents_est":1,"h3_10":"8a1e2e79821ffff","h3_11":"8b1e2e79821efff"},"geometry":{"type":"Polygon","coordinates":[[[19.91004,50.113566],[19.91008,50.113506],[19.910194,50.113537],[19.910154,50.113597],[19.91004,50.113566]]]}},{"type":"Feature","id":"w231347351","properties":{"type":"yes","address":"Na Mostkach 33a","residential":true,"residents_est":2,"h3_10":"8a1e2e7982a7fff","h3_11":"8b1e2e7982a1fff"},"geometry":{"type":"Polygon","coordinates":[[[19.908409,50.113364],[19.908505,50.113219],[19.908596,50.113244],[19.9085,50.113389],[19.908409,50.113364]]]}},{"type":"Feature","id":"w231347358","properties":{"type":"yes","address":"Na Mostkach 24","residential":true,"residents_est":2,"h3_10":"8a1e2e7982b7fff","h3_11":"8b1e2e7982b1fff"},"geometry":{"type":"Polygon","coordinates":[[[19.907008,50.112262],[19.907045,50.112151],[19.907162,50.112167],[19.907124,50.112279],[19.907008,50.112262]]]}},{"type":"Feature","id":"w231347363","properties":{"type":"yes","residential":false,"residents_est":0,"h3_10":"8a1e2e7982b7fff","h3_11":"8b1e2e7982b2fff"},"geometry":{"type":"Polygon","coordinates":[[[19.90591,50.111817],[19.905923,50.111778],[19.906012,50.111792],[19.905998,50.111831],[19.90591,50.111817]]]}},{"type":"Feature","id":"w231347379","properties":{"type":"yes","residential":true,"residents_est":1,"h3_10":"8a1e2e7982a7fff","h3_11":"8b1e2e7982a5fff"},"geometry":{"type":"Polygon","coordinates":[[[19.908112,50.113539],[19.908156,50.113474],[19.908222,50.113492],[19.908178,50.113558],[19.908112,50.113539]]]}},{"type":"Feature","id":"w231347389","properties":{"type":"yes","residential":true,"residents_est":2,"h3_10":"8a1e2e79838ffff","h3_11":"8b1e2e798388fff"},"geometry":{"type":"Polygon","coordinates":[[[19.906979,50.114353],[19.907001,50.114319],[19.907255,50.11439],[19.907232,50.114424],[19.906979,50.114353]]]}},{"type":"Feature","id":"w231347395","properties":{"type":"yes","residential":true,"residents_est":2,"h3_10":"8a1e2e798217fff","h3_11":"8b1e2e798213fff"},"geometry":{"type":"Polygon","coordinates":[[[19.909188,50.113638],[19.909246,50.113555],[19.909367,50.11359],[19.909309,50.113672],[19.909188,50.113638]]]}},{"type":"Feature","id":"w231347404","properties":{"type":"greenhouse","residential":false,"residents_est":0,"h3_10":"8a1e2e79828ffff","h3_11":"8b1e2e798289fff"},"geometry":{"type":"Polygon","coordinates":[[[19.910454,50.11191],[19.910576,50.111621],[19.910701,50.111643],[19.91058,50.111931],[19.910454,50.11191]]]}},{"type":"Feature","id":"w231347422","properties":{"type":"yes","residential":true,"residents_est":1,"h3_10":"8a1e2e7982b7fff","h3_11":"8b1e2e7982b5fff"},"geometry":{"type":"Polygon","coordinates":[[[19.906667,50.112642],[19.906682,50.112617],[19.906674,50.112615],[19.906691,50.112588],[19.9067,50.112591],[19.906728,50.112546],[19.906786,50.11256],[19.906719,50.112656],[19.906667,50.112642]]]}},{"type":"Feature","id":"w231347452","properties":{"type":"yes","residential":true,"residents_est":2,"h3_10":"8a1e2e798387fff","h3_11":"8b1e2e798385fff"},"geometry":{"type":"Polygon","coordinates":[[[19.905636,50.114933],[19.905732,50.114769],[19.905799,50.114785],[19.905703,50.11495],[19.905636,50.114933]]]}},{"type":"Feature","id":"w231347465","properties":{"type":"yes","residential":true,"residents_est":1,"h3_10":"8a1e2e7982a7fff","h3_11":"8b1e2e7982a2fff"},"geometry":{"type":"Polygon","coordinates":[[[19.907531,50.11289],[19.907557,50.112838],[19.907668,50.112862],[19.907642,50.112913],[19.907531,50.11289]]]}},{"type":"Feature","id":"w231347482","properties":{"type":"yes","residential":true,"residents_est":1,"h3_10":"8a1e2e79838ffff","h3_11":"8b1e2e79838bfff"},"geometry":{"type":"Polygon","coordinates":[[[19.907495,50.113792],[19.907556,50.113701],[19.907621,50.11372],[19.90756,50.11381],[19.907495,50.113792]]]}},{"type":"Feature","id":"w231347495","properties":{"type":"yes","address":"Na Mostkach 36","residential":true,"residents_est":2,"h3_10":"8a1e2e7982affff","h3_11":"8b1e2e7982a8fff"},"geometry":{"type":"Polygon","coordinates":[[[19.909652,50.112877],[19.909682,50.112788],[19.909832,50.112809],[19.909801,50.112898],[19.909652,50.112877]]]}},{"type":"Feature","id":"w231347501","properties":{"type":"yes","residential":true,"residents_est":2,"h3_10":"8a1e2e79828ffff","h3_11":"8b1e2e79828bfff"},"geometry":{"type":"Polygon","coordinates":[[[19.910036,50.111549],[19.910078,50.111419],[19.910188,50.111434],[19.910145,50.111564],[19.910036,50.111549]]]}},{"type":"Feature","id":"w231347504","properties":{"type":"yes","residential":true,"residents_est":2,"h3_10":"8a1e2e79828ffff","h3_11":"8b1e2e798289fff"},"geometry":{"type":"Polygon","coordinates":[[[19.910607,50.111544],[19.910639,50.111467],[19.910846,50.111502],[19.910814,50.111579],[19.910607,50.111544]]]}},{"type":"Feature","id":"w231347506","properties":{"type":"yes","address":"Gryczana 37a","residential":true,"residents_est":2,"h3_10":"8a1e2e7982d7fff","h3_11":"8b1e2e7982d2fff"},"geometry":{"type":"Polygon","coordinates":[[[19.911365,50.110834],[19.911398,50.110743],[19.911535,50.110764],[19.911501,50.110856],[19.911458,50.110849],[19.91145,50.110869],[19.911418,50.110864],[19.911426,50.110843],[19.911365,50.110834]]]}},{"type":"Feature","id":"w231347512","properties":{"type":"yes","address":"Na Mostkach 27a","residential":true,"residents_est":2,"h3_10":"8a1e2e7982a7fff","h3_11":"8b1e2e7982a2fff"},"geometry":{"type":"Polygon","coordinates":[[[19.907173,50.112743],[19.907228,50.112656],[19.90733,50.112683],[19.907356,50.112667],[19.907379,50.112671],[19.907393,50.112684],[19.907389,50.112699],[19.907373,50.112709],[19.907359,50.112706],[19.907313,50.112778],[19.907173,50.112743]]]}},{"type":"Feature","id":"w231347517","properties":{"type":"industrial","address":"Jęczmienna 28","name":"KRAKŻAL","residential":false,"residents_est":0,"h3_10":"8a1e2e798387fff","h3_11":"8b1e2e798380fff"},"geometry":{"type":"Polygon","coordinates":[[[19.905179,50.114818],[19.905638,50.114056],[19.905795,50.114096],[19.905334,50.114857],[19.905179,50.114818]]]}},{"type":"Feature","id":"w231347521","properties":{"type":"yes","residential":true,"residents_est":2,"h3_10":"8a1e2e798287fff","h3_11":"8b1e2e798286fff"},"geometry":{"type":"Polygon","coordinates":[[[19.907346,50.112081],[19.907387,50.111967],[19.907495,50.111983],[19.907454,50.112097],[19.907346,50.112081]]]}},{"type":"Feature","id":"w231347524","properties":{"type":"yes","residential":true,"residents_est":1,"h3_10":"8a1e2e7982b7fff","h3_11":"8b1e2e7982b5fff"},"geometry":{"type":"Polygon","coordinates":[[[19.906404,50.112674],[19.90645,50.112598],[19.906523,50.112617],[19.906477,50.112692],[19.906404,50.112674]]]}},{"type":"Feature","id":"w231347537","properties":{"type":"greenhouse","residential":false,"residents_est":0,"h3_10":"8a1e2e7982f7fff","h3_11":"8b1e2e7982f2fff"},"geometry":{"type":"Polygon","coordinates":[[[19.91074,50.111959],[19.910836,50.111732],[19.910905,50.111744],[19.910809,50.111971],[19.91074,50.111959]]]}},{"type":"Feature","id":"w231347548","properties":{"type":"yes","residential":true,"residents_est":2,"h3_10":"8a1e2e79821ffff","h3_11":"8b1e2e79821efff"},"geometry":{"type":"Polygon","coordinates":[[[19.91008,50.113506],[19.910146,50.113406],[19.910256,50.113436],[19.910194,50.113537],[19.91008,50.113506]]]}},{"type":"Feature","id":"w231347563","properties":{"type":"yes","address":"Na Mostkach 26","residential":true,"residents_est":2,"h3_10":"8a1e2e798287fff","h3_11":"8b1e2e798286fff"},"geometry":{"type":"Polygon","coordinates":[[[19.907228,50.112292],[19.907269,50.112193],[19.907413,50.112217],[19.907372,50.112316],[19.907228,50.112292]]]}},{"type":"Feature","id":"w231347579","properties":{"type":"yes","residential":true,"residents_est":2,"h3_10":"8a1e2e7982affff","h3_11":"8b1e2e7982a9fff"},"geometry":{"type":"Polygon","coordinates":[[[19.909744,50.112662],[19.909774,50.112583],[19.909964,50.112613],[19.909934,50.112692],[19.909744,50.112662]]]}},{"type":"Feature","id":"w231347619","properties":{"type":"yes","address":"Na Mostkach 23","residential":true,"residents_est":1,"h3_10":"8a1e2e7982b7fff","h3_11":"8b1e2e7982b1fff"},"geometry":{"type":"Polygon","coordinates":[[[19.906798,50.112544],[19.90684,50.112479],[19.906977,50.112513],[19.906936,50.112579],[19.906798,50.112544]]]}},{"type":"Feature","id":"w231347640","properties":{"type":"yes","residential":true,"residents_est":1,"h3_10":"8a1e2e79838ffff","h3_11":"8b1e2e79838efff"},"geometry":{"type":"Polygon","coordinates":[[[19.906906,50.114333],[19.906977,50.114227],[19.90705,50.114247],[19.906979,50.114353],[19.906906,50.114333]]]}},{"type":"Feature","id":"w231347667","properties":{"type":"yes","residential":true,"residents_est":1,"h3_10":"8a1e2e7982d7fff","h3_11":"8b1e2e7982d4fff"},"geometry":{"type":"Polygon","coordinates":[[[19.910814,50.111579],[19.910846,50.111502],[19.910916,50.111514],[19.910884,50.111591],[19.910814,50.111579]]]}},{"type":"Feature","id":"w231347671","properties":{"type":"yes","address":"Na Mostkach 21","residential":true,"residents_est":1,"h3_10":"8a1e2e7982b7fff","h3_11":"8b1e2e7982b1fff"},"geometry":{"type":"Polygon","coordinates":[[[19.906688,50.112521],[19.906728,50.112452],[19.906839,50.112479],[19.906786,50.11256],[19.906703,50.112539],[19.906711,50.112527],[19.906688,50.112521]]]}},{"type":"Feature","id":"w231347681","properties":{"type":"yes","residential":true,"residents_est":2,"h3_10":"8a1e2e7982d7fff","h3_11":"8b1e2e7982d4fff"},"geometry":{"type":"Polygon","coordinates":[[[19.910891,50.111575],[19.910916,50.111514],[19.91109,50.111537],[19.91107,50.111599],[19.910891,50.111575]]]}},{"type":"Feature","id":"w231347705","properties":{"type":"yes","address":"Na Mostkach 9","residential":true,"residents_est":2,"h3_10":"8a1e2e7982b7fff","h3_11":"8b1e2e7982b6fff"},"geometry":{"type":"Polygon","coordinates":[[[19.905313,50.112531],[19.905357,50.112466],[19.905519,50.112508],[19.905475,50.112574],[19.905313,50.112531]]]}},{"type":"Feature","id":"w231347712","properties":{"type":"yes","residential":true,"residents_est":1,"h3_10":"8a1e2e79821ffff","h3_11":"8b1e2e79821efff"},"geometry":{"type":"Polygon","coordinates":[[[19.90984,50.113528],[19.9099,50.113437],[19.909989,50.113459],[19.909928,50.113552],[19.90984,50.113528]]]}},{"type":"Feature","id":"w231347716","properties":{"type":"yes","residential":false,"residents_est":0,"h3_10":"8a1e2e79838ffff","h3_11":"8b1e2e79838bfff"},"geometry":{"type":"Polygon","coordinates":[[[19.907284,50.11377],[19.9073,50.113746],[19.907441,50.113785],[19.907426,50.11381],[19.907284,50.11377]]]}},{"type":"Feature","id":"w231347747","properties":{"type":"yes","address":"Pękowicka 204","residential":true,"residents_est":2,"h3_10":"8a1e2e7982d7fff","h3_11":"8b1e2e7982d4fff"},"geometry":{"type":"Polygon","coordinates":[[[19.911052,50.111658],[19.911082,50.111563],[19.91123,50.111582],[19.9112,50.111677],[19.911052,50.111658]]]}},{"type":"Feature","id":"w231347752","properties":{"type":"yes","residential":true,"residents_est":2,"h3_10":"8a1e2e79838ffff","h3_11":"8b1e2e798388fff"},"geometry":{"type":"Polygon","coordinates":[[[19.906977,50.114227],[19.907028,50.114151],[19.907159,50.114188],[19.907108,50.114264],[19.906977,50.114227]]]}},{"type":"Feature","id":"w231347765","properties":{"type":"yes","residential":true,"residents_est":1,"h3_10":"8a1e2e79838ffff","h3_11":"8b1e2e79838afff"},"geometry":{"type":"Polygon","coordinates":[[[19.90724,50.113836],[19.907284,50.11377],[19.907372,50.113795],[19.907328,50.113859],[19.90724,50.113836]]]}},{"type":"Feature","id":"w231347774","properties":{"type":"yes","residential":true,"residents_est":2,"h3_10":"8a1e2e7982affff","h3_11":"8b1e2e7982adfff"},"geometry":{"type":"Polygon","coordinates":[[[19.909743,50.113183],[19.909764,50.113151],[19.910044,50.113227],[19.910078,50.113178],[19.910117,50.113188],[19.910063,50.11327],[19.909743,50.113183]]]}},{"type":"Feature","id":"w231347803","properties":{"type":"yes","address":"Na Mostkach 22","residential":true,"residents_est":2,"h3_10":"8a1e2e7982b7fff","h3_11":"8b1e2e7982b1fff"},"geometry":{"type":"Polygon","coordinates":[[[19.906755,50.112232],[19.906787,50.11214],[19.906926,50.11216],[19.906888,50.112267],[19.90679,50.112252],[19.906796,50.112238],[19.906755,50.112232]]]}},{"type":"Feature","id":"w231347847","properties":{"type":"yes","residential":true,"residents_est":4,"h3_10":"8a1e2e7982a7fff","h3_11":"8b1e2e7982a5fff"},"geometry":{"type":"Polygon","coordinates":[[[19.907558,50.113377],[19.907609,50.113289],[19.907881,50.113358],[19.907824,50.113444],[19.907558,50.113377]]]}},{"type":"Feature","id":"w231347935","properties":{"type":"yes","residential":true,"residents_est":1,"h3_10":"8a1e2e7982a7fff","h3_11":"8b1e2e7982a5fff"},"geometry":{"type":"Polygon","coordinates":[[[19.908323,50.113453],[19.908352,50.113408],[19.908472,50.113442],[19.908443,50.113485],[19.908323,50.113453]]]}},{"type":"Feature","id":"w231347940","properties":{"type":"yes","address":"Na Mostkach 18","residential":true,"residents_est":2,"h3_10":"8a1e2e7982b7fff","h3_11":"8b1e2e7982b3fff"},"geometry":{"type":"Polygon","coordinates":[[[19.906278,50.112117],[19.906312,50.112014],[19.906449,50.112033],[19.906419,50.112126],[19.906336,50.112115],[19.906333,50.112125],[19.906278,50.112117]]]}},{"type":"Feature","id":"w231347950","properties":{"type":"yes","address":"Na Mostkach 19","residential":true,"residents_est":2,"h3_10":"8a1e2e7982b7fff","h3_11":"8b1e2e7982b0fff"},"geometry":{"type":"Polygon","coordinates":[[[19.906461,50.112502],[19.906518,50.112405],[19.906643,50.112432],[19.906603,50.1125],[19.906566,50.112491],[19.906547,50.112523],[19.906461,50.112502]]]}},{"type":"Feature","id":"w231347959","properties":{"type":"yes","residential":true,"residents_est":1,"h3_10":"8a1e2e7982a7fff","h3_11":"8b1e2e7982a4fff"},"geometry":{"type":"Polygon","coordinates":[[[19.90759,50.113432],[19.907617,50.113392],[19.907768,50.11343],[19.90775,50.113459],[19.907684,50.113444],[19.907675,50.113455],[19.90759,50.113432]]]}},{"type":"Feature","id":"w231347975","properties":{"type":"yes","address":"Na Mostkach 29","residential":true,"residents_est":3,"h3_10":"8a1e2e7982a7fff","h3_11":"8b1e2e7982a0fff"},"geometry":{"type":"Polygon","coordinates":[[[19.907693,50.113197],[19.907751,50.113108],[19.907833,50.11313],[19.907849,50.113107],[19.907925,50.113128],[19.907909,50.113151],[19.907958,50.113164],[19.907908,50.11324],[19.90779,50.113208],[19.907782,50.113221],[19.907693,50.113197]]]}},{"type":"Feature","id":"w231348076","properties":{"type":"yes","address":"Na Mostkach 16","residential":true,"residents_est":2,"h3_10":"8a1e2e7982b7fff","h3_11":"8b1e2e7982b2fff"},"geometry":{"type":"Polygon","coordinates":[[[19.905795,50.111953],[19.905815,50.111902],[19.905936,50.111921],[19.905932,50.111931],[19.905998,50.111942],[19.905968,50.112019],[19.9058,50.111992],[19.905814,50.111956],[19.905795,50.111953]]]}},{"type":"Feature","id":"w231348079","properties":{"type":"yes","residential":true,"residents_est":2,"h3_10":"8a1e2e798297fff","h3_11":"8b1e2e798294fff"},"geometry":{"type":"Polygon","coordinates":[[[19.905923,50.111778],[19.905953,50.111709],[19.906095,50.111734],[19.906089,50.111747],[19.906119,50.111753],[19.9061,50.111805],[19.905923,50.111778]]]}},{"type":"Feature","id":"w231348085","properties":{"type":"yes","address":"Na Mostkach 27","residential":true,"residents_est":2,"h3_10":"8a1e2e7982a7fff","h3_11":"8b1e2e7982a2fff"},"geometry":{"type":"Polygon","coordinates":[[[19.907508,50.112726],[19.90755,50.112649],[19.907708,50.112684],[19.907666,50.112762],[19.90759,50.112745],[19.907582,50.112758],[19.907554,50.112752],[19.907562,50.112738],[19.907508,50.112726]]]}},{"type":"Feature","id":"w231348090","properties":{"type":"yes","address":"Na Mostkach 17","residential":true,"residents_est":2,"h3_10":"8a1e2e7982b7fff","h3_11":"8b1e2e7982b0fff"},"geometry":{"type":"Polygon","coordinates":[[[19.906251,50.112448],[19.906264,50.112425],[19.906258,50.112423],[19.906298,50.112351],[19.906409,50.112376],[19.906368,50.112449],[19.906362,50.112448],[19.90635,50.11247],[19.906251,50.112448]]]}},{"type":"Feature","id":"w231348093","properties":{"type":"yes","residential":true,"residents_est":13,"h3_10":"8a1e2e79838ffff","h3_11":"8b1e2e79838afff"},"geometry":{"type":"Polygon","coordinates":[[[19.907065,50.114146],[19.907242,50.113884],[19.907214,50.113876],[19.90724,50.113836],[19.907273,50.113845],[19.907246,50.113885],[19.90738,50.113922],[19.907203,50.114184],[19.907065,50.114146]]]}},{"type":"Feature","id":"w231348117","properties":{"type":"yes","address":"Na Mostkach 13","residential":true,"residents_est":2,"h3_10":"8a1e2e7982b7fff","h3_11":"8b1e2e7982b0fff"},"geometry":{"type":"Polygon","coordinates":[[[19.905823,50.112451],[19.905876,50.112369],[19.905929,50.112383],[19.905938,50.112369],[19.90602,50.112391],[19.905963,50.11248],[19.905909,50.112466],[19.905904,50.112473],[19.905823,50.112451]]]}},{"type":"Feature","id":"w231348123","properties":{"type":"yes","address":"Jęczmienna 28","residential":true,"residents_est":3,"h3_10":"8a1e2e7983a7fff","h3_11":"8b1e2e7983a2fff"},"geometry":{"type":"Polygon","coordinates":[[[19.904833,50.115388],[19.904887,50.115304],[19.905068,50.115352],[19.905015,50.115436],[19.904945,50.115417],[19.904935,50.115432],[19.904895,50.115421],[19.904903,50.115407],[19.904833,50.115388]]]}},{"type":"Feature","id":"w231348136","properties":{"type":"yes","address":"Na Mostkach 31","residential":true,"residents_est":3,"h3_10":"8a1e2e7982a7fff","h3_11":"8b1e2e7982a1fff"},"geometry":{"type":"Polygon","coordinates":[[[19.908103,50.113343],[19.908163,50.113257],[19.908335,50.113303],[19.908277,50.113391],[19.908103,50.113343]]]}},{"type":"Feature","id":"w231348158","properties":{"type":"detached","address":"Na Zielonki 36","residential":true,"residents_est":5,"h3_10":"8a1e2e7983affff","h3_11":"8b1e2e7983a8fff"},"geometry":{"type":"Polygon","coordinates":[[[19.907205,50.115288],[19.907226,50.11525],[19.907254,50.115257],[19.907261,50.115246],[19.907443,50.11529],[19.907409,50.115347],[19.907362,50.115336],[19.907352,50.115353],[19.907218,50.11532],[19.907232,50.115296],[19.907205,50.115288]]]}},{"type":"Feature","id":"w231348162","properties":{"type":"yes","residential":true,"residents_est":2,"h3_10":"8a1e2e7982b7fff","h3_11":"8b1e2e7982b3fff"},"geometry":{"type":"Polygon","coordinates":[[[19.906837,50.11199],[19.90688,50.111878],[19.907048,50.111905],[19.907015,50.11199],[19.906895,50.111971],[19.906885,50.111998],[19.906837,50.11199]]]}},{"type":"Feature","id":"w323163888","properties":{"type":"yes","address":"Długopolska 108B","residential":true,"residents_est":2,"h3_10":"8a1e2e7982e7fff","h3_11":"8b1e2e7982e6fff"},"geometry":{"type":"Polygon","coordinates":[[[19.911704,50.113165],[19.911724,50.113108],[19.911789,50.113117],[19.911795,50.113099],[19.911876,50.113111],[19.91187,50.11313],[19.911918,50.113137],[19.911894,50.113208],[19.911816,50.113197],[19.91181,50.113212],[19.911758,50.113204],[19.911769,50.113175],[19.911704,50.113165]]]}},{"type":"Feature","id":"w323163905","properties":{"type":"yes","address":"Długopolska 108C","residential":true,"residents_est":2,"h3_10":"8a1e2e7982e7fff","h3_11":"8b1e2e7982e6fff"},"geometry":{"type":"Polygon","coordinates":[[[19.912212,50.11318],[19.912218,50.113165],[19.912234,50.113158],[19.912241,50.113136],[19.912379,50.113155],[19.912355,50.113232],[19.912319,50.113227],[19.912315,50.113242],[19.912268,50.113236],[19.912273,50.113221],[19.912217,50.113214],[19.912223,50.113192],[19.912212,50.11318]]]}},{"type":"Feature","id":"w362071000","properties":{"type":"yes","residential":true,"residents_est":25,"h3_10":"8a1e2e798357fff","h3_11":"8b1e2e798356fff"},"geometry":{"type":"Polygon","coordinates":[[[19.910836,50.116422],[19.910914,50.116281],[19.91146,50.116401],[19.911386,50.116541],[19.910836,50.116422]]]}},{"type":"Feature","id":"w362071001","properties":{"type":"yes","residential":true,"residents_est":17,"h3_10":"8a1e2e798357fff","h3_11":"8b1e2e798356fff"},"geometry":{"type":"Polygon","coordinates":[[[19.910726,50.116646],[19.910793,50.116513],[19.910997,50.116556],[19.910972,50.116602],[19.911279,50.116667],[19.911235,50.116753],[19.910726,50.116646]]]}},{"type":"Feature","id":"w505861966","properties":{"type":"yes","residential":true,"residents_est":2,"h3_10":"8a1e2e798397fff","h3_11":"8b1e2e798393fff"},"geometry":{"type":"Polygon","coordinates":[[[19.904557,50.113372],[19.904601,50.113305],[19.904652,50.113319],[19.904659,50.113308],[19.904715,50.113323],[19.904708,50.113334],[19.904759,50.113348],[19.904714,50.113415],[19.904557,50.113372]]]}},{"type":"Feature","id":"w505861973","properties":{"type":"yes","residential":true,"residents_est":2,"h3_10":"8a1e2e7982d7fff","h3_11":"8b1e2e7982d0fff"},"geometry":{"type":"Polygon","coordinates":[[[19.911186,50.111476],[19.911227,50.111355],[19.911227,50.11136],[19.911298,50.11137],[19.911296,50.111377],[19.91134,50.111384],[19.911317,50.111451],[19.911307,50.11145],[19.911294,50.111487],[19.911264,50.111483],[19.911266,50.111477],[19.911192,50.111467],[19.911186,50.111476]]]}},{"type":"Feature","id":"w505861974","properties":{"type":"yes","residential":true,"residents_est":2,"h3_10":"8a1e2e7982d7fff","h3_11":"8b1e2e7982d6fff"},"geometry":{"type":"Polygon","coordinates":[[[19.910835,50.111428],[19.910877,50.111306],[19.910877,50.111311],[19.910948,50.111321],[19.910946,50.111328],[19.910991,50.111334],[19.910968,50.111402],[19.910957,50.111401],[19.910943,50.111438],[19.910913,50.111434],[19.910915,50.111428],[19.91084,50.111418],[19.910835,50.111428]]]}},{"type":"Feature","id":"w706379826","properties":{"type":"yes","residential":true,"residents_est":2,"h3_10":"8a1e2e7982affff","h3_11":"8b1e2e7982a9fff"},"geometry":{"type":"Polygon","coordinates":[[[19.90994,50.112875],[19.909959,50.112817],[19.910004,50.112824],[19.910008,50.112812],[19.91013,50.112829],[19.910103,50.112907],[19.909982,50.11289],[19.909985,50.112881],[19.90994,50.112875]]]}},{"type":"Feature","id":"w706379827","properties":{"type":"yes","residential":true,"residents_est":3,"h3_10":"8a1e2e7982affff","h3_11":"8b1e2e7982adfff"},"geometry":{"type":"Polygon","coordinates":[[[19.9097,50.113251],[19.909737,50.113193],[19.910021,50.113269],[19.909983,50.113326],[19.9097,50.113251]]]}},{"type":"Feature","id":"w706379828","properties":{"type":"yes","residential":true,"residents_est":2,"h3_10":"8a1e2e7982a7fff","h3_11":"8b1e2e7982a6fff"},"geometry":{"type":"Polygon","coordinates":[[[19.906628,50.1132],[19.906681,50.113122],[19.906783,50.113151],[19.906731,50.113229],[19.906719,50.113226],[19.906702,50.113251],[19.906648,50.113235],[19.906665,50.113211],[19.906628,50.1132]]]}},{"type":"Feature","id":"w706379829","properties":{"type":"yes","residential":false,"residents_est":0,"h3_10":"8a1e2e7982b7fff","h3_11":"8b1e2e7982b6fff"},"geometry":{"type":"Polygon","coordinates":[[[19.905655,50.112575],[19.905694,50.112519],[19.905755,50.112537],[19.905716,50.112593],[19.905655,50.112575]]]}},{"type":"Feature","id":"w706379865","properties":{"type":"yes","residential":true,"residents_est":2,"h3_10":"8a1e2e798297fff","h3_11":"8b1e2e798293fff"},"geometry":{"type":"Polygon","coordinates":[[[19.906835,50.110832],[19.906861,50.110757],[19.906874,50.110758],[19.906887,50.110721],[19.906966,50.110732],[19.90694,50.110809],[19.906997,50.110817],[19.906984,50.110853],[19.906835,50.110832]]]}},{"type":"Feature","id":"w706379876","properties":{"type":"yes","residential":true,"residents_est":2,"h3_10":"8a1e2e7982d7fff","h3_11":"8b1e2e7982d6fff"},"geometry":{"type":"Polygon","coordinates":[[[19.910729,50.111408],[19.910741,50.111371],[19.91073,50.111369],[19.910754,50.111302],[19.910799,50.111308],[19.910801,50.111301],[19.910872,50.111311],[19.910877,50.111306],[19.910835,50.111428],[19.910835,50.111417],[19.910729,50.111408]]]}},{"type":"Feature","id":"w706379877","properties":{"type":"yes","residential":true,"residents_est":2,"h3_10":"8a1e2e7982d7fff","h3_11":"8b1e2e7982d6fff"},"geometry":{"type":"Polygon","coordinates":[[[19.91108,50.111457],[19.911092,50.11142],[19.911081,50.111418],[19.911104,50.111351],[19.911149,50.111357],[19.911152,50.11135],[19.911222,50.11136],[19.911227,50.111355],[19.911186,50.111476],[19.911186,50.111466],[19.91108,50.111457]]]}},{"type":"Feature","id":"w706379878","properties":{"type":"yes","residential":true,"residents_est":2,"h3_10":"8a1e2e7982d7fff","h3_11":"8b1e2e7982d6fff"},"geometry":{"type":"Polygon","coordinates":[[[19.911078,50.111252],[19.91111,50.111159],[19.911163,50.111167],[19.91116,50.111176],[19.911258,50.11119],[19.911251,50.111212],[19.911271,50.111215],[19.911261,50.111246],[19.91124,50.111243],[19.911229,50.111274],[19.911149,50.111263],[19.911145,50.111272],[19.911144,50.111262],[19.911078,50.111252]]]}},{"type":"Feature","id":"w706379879","properties":{"type":"yes","residential":true,"residents_est":2,"h3_10":"8a1e2e7982d7fff","h3_11":"8b1e2e7982d6fff"},"geometry":{"type":"Polygon","coordinates":[[[19.910917,50.111196],[19.910928,50.111166],[19.910948,50.111169],[19.910956,50.111146],[19.911054,50.111161],[19.911058,50.111152],[19.91111,50.111159],[19.911078,50.111252],[19.911011,50.111243],[19.911008,50.111252],[19.911006,50.111242],[19.910926,50.111231],[19.910937,50.111199],[19.910917,50.111196]]]}},{"type":"Feature","id":"w706379881","properties":{"type":"yes","residential":true,"residents_est":1,"h3_10":"8a1e2e7982affff","h3_11":"8b1e2e7982aafff"},"geometry":{"type":"Polygon","coordinates":[[[19.90882,50.112476],[19.908835,50.112433],[19.909064,50.112468],[19.909048,50.112511],[19.90882,50.112476]]]}},{"type":"Feature","id":"w706379883","properties":{"type":"yes","residential":true,"residents_est":3,"h3_10":"8a1e2e7982affff","h3_11":"8b1e2e7982aefff"},"geometry":{"type":"Polygon","coordinates":[[[19.90879,50.112711],[19.908833,50.112623],[19.908929,50.11264],[19.908924,50.112651],[19.909007,50.112668],[19.908956,50.112776],[19.908869,50.112757],[19.908882,50.11273],[19.90879,50.112711]]]}},{"type":"Feature","id":"w706379884","properties":{"type":"yes","residential":true,"residents_est":3,"h3_10":"8a1e2e7982affff","h3_11":"8b1e2e7982aafff"},"geometry":{"type":"Polygon","coordinates":[[[19.909291,50.112491],[19.909322,50.112404],[19.909514,50.112432],[19.909498,50.112477],[19.909513,50.11248],[19.909489,50.112544],[19.909401,50.11253],[19.909409,50.112509],[19.909291,50.112491]]]}},{"type":"Feature","id":"w706379885","properties":{"type":"yes","residential":true,"residents_est":3,"h3_10":"8a1e2e79828ffff","h3_11":"8b1e2e79828cfff"},"geometry":{"type":"Polygon","coordinates":[[[19.909434,50.112116],[19.909455,50.112056],[19.90948,50.112059],[19.90949,50.11203],[19.909623,50.11205],[19.909617,50.112066],[19.909699,50.112079],[19.909674,50.112149],[19.909589,50.112137],[19.909593,50.112123],[19.909566,50.112119],[19.909551,50.112163],[19.909448,50.112148],[19.909458,50.11212],[19.909434,50.112116]]]}},{"type":"Feature","id":"w739592717","properties":{"type":"house","levels":2.0,"address":"Na Popielówkę 29B","residential":true,"residents_est":3,"h3_10":"8a1e2e7982dffff","h3_11":"8b1e2e7982dbfff"},"geometry":{"type":"Polygon","coordinates":[[[19.91358,50.11076],[19.913603,50.110689],[19.913608,50.110689],[19.913603,50.110703],[19.913669,50.110712],[19.913675,50.110698],[19.913751,50.110709],[19.913729,50.110779],[19.91358,50.11076]]]}},{"type":"Feature","id":"w739592722","properties":{"type":"house","address":"Na Popielówkę 31E","residential":true,"residents_est":2,"h3_10":"8a1e2e7982dffff","h3_11":"8b1e2e7982dafff"},"geometry":{"type":"Polygon","coordinates":[[[19.913177,50.110513],[19.913204,50.110428],[19.913297,50.11044],[19.91327,50.110524],[19.913268,50.110517],[19.913223,50.110511],[19.91322,50.110519],[19.913177,50.110513]]]}},{"type":"Feature","id":"w764440021","properties":{"type":"house","levels":0.0,"address":"Na Popielówkę 31D","residential":true,"residents_est":2,"h3_10":"8a1e2e7982dffff","h3_11":"8b1e2e7982dbfff"},"geometry":{"type":"Polygon","coordinates":[[[19.91327,50.110524],[19.913297,50.11044],[19.91339,50.110453],[19.913363,50.110537],[19.913319,50.110532],[19.913321,50.110524],[19.913276,50.110518],[19.91327,50.110524]]]}},{"type":"Feature","id":"w839396279","properties":{"type":"yes","address":"Pękowicka 63","residential":true,"residents_est":2,"h3_10":"8a1e2e7982f7fff","h3_11":"8b1e2e7982f3fff"},"geometry":{"type":"Polygon","coordinates":[[[19.91168,50.111901],[19.911703,50.111838],[19.911909,50.111868],[19.911887,50.111931],[19.91168,50.111901]]]}},{"type":"Feature","id":"w839396283","properties":{"type":"yes","address":"Pękowicka 61","residential":true,"residents_est":2,"h3_10":"8a1e2e7982d7fff","h3_11":"8b1e2e7982d5fff"},"geometry":{"type":"Polygon","coordinates":[[[19.911802,50.111665],[19.911825,50.111593],[19.912026,50.111616],[19.911998,50.111697],[19.911802,50.111665]]]}},{"type":"Feature","id":"w839396284","properties":{"type":"yes","address":"Na Popielówkę 9M","residential":true,"residents_est":2,"h3_10":"8a1e2e7982f7fff","h3_11":"8b1e2e7982f0fff"},"geometry":{"type":"Polygon","coordinates":[[[19.911302,50.112343],[19.911339,50.112234],[19.911489,50.112255],[19.911452,50.112363],[19.9114,50.112356],[19.911403,50.112347],[19.911355,50.112341],[19.911351,50.11235],[19.911302,50.112343]]]}},{"type":"Feature","id":"w839396285","properties":{"type":"yes","address":"Na Piaski 9N","residential":true,"residents_est":2,"h3_10":"8a1e2e7982f7fff","h3_11":"8b1e2e7982f0fff"},"geometry":{"type":"Polygon","coordinates":[[[19.911151,50.112321],[19.911188,50.112213],[19.911339,50.112234],[19.911302,50.112343],[19.911252,50.112336],[19.911254,50.112327],[19.911206,50.11232],[19.911203,50.112329],[19.911151,50.112321]]]}},{"type":"Feature","id":"w839396286","properties":{"type":"yes","address":"Na Popielówkę 9L","residential":true,"residents_est":2,"h3_10":"8a1e2e7982f7fff","h3_11":"8b1e2e7982f1fff"},"geometry":{"type":"Polygon","coordinates":[[[19.911533,50.112377],[19.911569,50.112269],[19.91172,50.11229],[19.911683,50.112398],[19.911633,50.112391],[19.911636,50.112382],[19.911587,50.112376],[19.911584,50.112384],[19.911533,50.112377]]]}},{"type":"Feature","id":"w839396287","properties":{"type":"yes","address":"Na Popielówkę 9K","residential":true,"residents_est":3,"h3_10":"8a1e2e7982f7fff","h3_11":"8b1e2e7982f1fff"},"geometry":{"type":"Polygon","coordinates":[[[19.911683,50.112398],[19.91172,50.11229],[19.91187,50.11231],[19.911833,50.112419],[19.911781,50.112412],[19.911784,50.112403],[19.911736,50.112397],[19.911733,50.112405],[19.911683,50.112398]]]}},{"type":"Feature","id":"w839663450","properties":{"type":"yes","residential":false,"residents_est":0,"h3_10":"8a1e2e798387fff","h3_11":"8b1e2e798384fff"},"geometry":{"type":"Polygon","coordinates":[[[19.905053,50.11494],[19.905094,50.114874],[19.905147,50.114888],[19.905106,50.114955],[19.905053,50.11494]]]}},{"type":"Feature","id":"w839663451","properties":{"type":"yes","address":"Na Mostkach 9w","residential":true,"residents_est":3,"h3_10":"8a1e2e798397fff","h3_11":"8b1e2e798393fff"},"geometry":{"type":"Polygon","coordinates":[[[19.904432,50.11363],[19.904497,50.113534],[19.90456,50.113551],[19.904576,50.113529],[19.904664,50.113553],[19.904602,50.113644],[19.904567,50.113635],[19.904549,50.113662],[19.904432,50.11363]]]}},{"type":"Feature","id":"w839663452","properties":{"type":"yes","address":"Na Mostkach 9x","residential":true,"residents_est":2,"h3_10":"8a1e2e798397fff","h3_11":"8b1e2e798391fff"},"geometry":{"type":"Polygon","coordinates":[[[19.904725,50.113712],[19.904788,50.113616],[19.90483,50.113627],[19.904863,50.113578],[19.904942,50.113599],[19.904895,50.113671],[19.90488,50.113667],[19.90483,50.113741],[19.904725,50.113712]]]}},{"type":"Feature","id":"w839663484","properties":{"type":"yes","residential":false,"residents_est":0,"h3_10":"8a1e2e7983affff","h3_11":"8b1e2e7983abfff"},"geometry":{"type":"Polygon","coordinates":[[[19.907427,50.114947],[19.90745,50.11491],[19.907538,50.114933],[19.907515,50.11497],[19.907427,50.114947]]]}},{"type":"Feature","id":"w839663485","properties":{"type":"yes","residential":true,"residents_est":3,"h3_10":"8a1e2e79838ffff","h3_11":"8b1e2e798388fff"},"geometry":{"type":"Polygon","coordinates":[[[19.907516,50.114274],[19.907605,50.114141],[19.907725,50.114174],[19.907696,50.114217],[19.907685,50.114214],[19.907669,50.114238],[19.907681,50.114241],[19.907637,50.114307],[19.907516,50.114274]]]}},{"type":"Feature","id":"w840478630","properties":{"type":"yes","residential":true,"residents_est":23,"h3_10":"8a1e2e798377fff","h3_11":"8b1e2e798372fff"},"geometry":{"type":"Polygon","coordinates":[[[19.910714,50.117127],[19.910823,50.116917],[19.911167,50.116991],[19.911058,50.1172],[19.910714,50.117127]]]}},{"type":"Feature","id":"w840478635","properties":{"type":"yes","residential":true,"residents_est":2,"h3_10":"8a1e2e79830ffff","h3_11":"8b1e2e79830afff"},"geometry":{"type":"Polygon","coordinates":[[[19.909788,50.116436],[19.90984,50.116328],[19.909961,50.116351],[19.90991,50.11646],[19.909788,50.116436]]]}},{"type":"Feature","id":"w840478637","properties":{"type":"yes","residential":true,"residents_est":19,"h3_10":"8a1e2e79830ffff","h3_11":"8b1e2e79830bfff"},"geometry":{"type":"Polygon","coordinates":[[[19.910069,50.116496],[19.910156,50.116319],[19.910489,50.116386],[19.910403,50.116563],[19.910069,50.116496]]]}},{"type":"Feature","id":"w893625835","properties":{"type":"house","address":"Na Popielówkę 31F","residential":true,"residents_est":5,"h3_10":"8a1e2e7982dffff","h3_11":"8b1e2e7982dafff"},"geometry":{"type":"Polygon","coordinates":[[[19.912874,50.110454],[19.912903,50.110369],[19.91309,50.110394],[19.913062,50.110479],[19.913018,50.110474],[19.913021,50.110466],[19.912975,50.110459],[19.912973,50.110467],[19.912965,50.110466],[19.912967,50.110458],[19.912922,50.110453],[19.912919,50.11046],[19.912874,50.110454]]]}},{"type":"Feature","id":"w893625836","properties":{"type":"house","address":"Na Popielówkę 31G","residential":true,"residents_est":5,"h3_10":"8a1e2e7982dffff","h3_11":"8b1e2e7982dafff"},"geometry":{"type":"Polygon","coordinates":[[[19.912687,50.110429],[19.912715,50.110344],[19.912903,50.110369],[19.912874,50.110454],[19.91283,50.110448],[19.912832,50.110441],[19.912788,50.110434],[19.912785,50.110442],[19.912777,50.110441],[19.91278,50.110433],[19.912734,50.110428],[19.912732,50.110436],[19.912687,50.110429]]]}},{"type":"Feature","id":"w893625839","properties":{"type":"house","levels":2.0,"address":"Na Popielówkę 29G","residential":true,"residents_est":3,"h3_10":"8a1e2e7982dffff","h3_11":"8b1e2e7982dafff"},"geometry":{"type":"Polygon","coordinates":[[[19.912565,50.110624],[19.912586,50.110554],[19.912663,50.110564],[19.912658,50.110577],[19.912725,50.110586],[19.912729,50.110572],[19.912734,50.110573],[19.912712,50.110644],[19.912565,50.110624]]]}},{"type":"Feature","id":"w893625840","properties":{"type":"house","levels":2.0,"address":"Na Popielówkę 29F","residential":true,"residents_est":3,"h3_10":"8a1e2e7982dffff","h3_11":"8b1e2e7982dafff"},"geometry":{"type":"Polygon","coordinates":[[[19.912712,50.110644],[19.912734,50.110573],[19.912739,50.110574],[19.912735,50.110587],[19.9128,50.110596],[19.912806,50.110582],[19.912882,50.110593],[19.91286,50.110663],[19.912712,50.110644]]]}},{"type":"Feature","id":"w893625841","properties":{"type":"house","levels":2.0,"address":"Na Popielówkę 29E","residential":true,"residents_est":3,"h3_10":"8a1e2e7982dffff","h3_11":"8b1e2e7982dafff"},"geometry":{"type":"Polygon","coordinates":[[[19.913,50.110682],[19.913021,50.110612],[19.913098,50.110622],[19.913093,50.110635],[19.913159,50.110644],[19.913164,50.11063],[19.913169,50.110631],[19.913146,50.110702],[19.913,50.110682]]]}},{"type":"Feature","id":"w893625842","properties":{"type":"house","levels":2.0,"address":"Na Popielówkę 29D","residential":true,"residents_est":3,"h3_10":"8a1e2e7982dffff","h3_11":"8b1e2e7982dafff"},"geometry":{"type":"Polygon","coordinates":[[[19.913146,50.110702],[19.913169,50.110631],[19.913174,50.110631],[19.913169,50.110645],[19.913235,50.110654],[19.913241,50.11064],[19.913317,50.110651],[19.913295,50.110721],[19.913146,50.110702]]]}},{"type":"Feature","id":"w893625843","properties":{"type":"house","levels":2.0,"address":"Na Popielówkę 29C","residential":true,"residents_est":3,"h3_10":"8a1e2e7982dffff","h3_11":"8b1e2e7982dbfff"},"geometry":{"type":"Polygon","coordinates":[[[19.913434,50.11074],[19.913455,50.11067],[19.913532,50.11068],[19.913527,50.110693],[19.913593,50.110702],[19.913598,50.110688],[19.913603,50.110689],[19.91358,50.11076],[19.913434,50.11074]]]}},{"type":"Feature","id":"w893625844","properties":{"type":"yes","address":"Na Popielówkę 29A","residential":true,"residents_est":1,"h3_10":"8a1e2e7982dffff","h3_11":"8b1e2e7982d9fff"},"geometry":{"type":"Polygon","coordinates":[[[19.913866,50.110797],[19.913889,50.110728],[19.913964,50.110738],[19.91396,50.110751],[19.914028,50.11076],[19.914035,50.110747],[19.914014,50.110817],[19.913866,50.110797]]]}},{"type":"Feature","id":"w893625857","properties":{"type":"detached","address":"Na Popielówkę 33C","residential":true,"residents_est":3,"h3_10":"8a1e2e7982dffff","h3_11":"8b1e2e7982dbfff"},"geometry":{"type":"Polygon","coordinates":[[[19.913585,50.110385],[19.913605,50.110325],[19.913687,50.110336],[19.913684,50.110343],[19.913767,50.110355],[19.913749,50.110407],[19.913585,50.110385]]]}},{"type":"Feature","id":"w893625861","properties":{"type":"yes","residential":true,"residents_est":1,"h3_10":"8a1e2e7982a7fff","h3_11":"8b1e2e7982a1fff"},"geometry":{"type":"Polygon","coordinates":[[[19.908176,50.11326],[19.908196,50.11323],[19.908341,50.113269],[19.908321,50.113299],[19.908176,50.11326]]]}},{"type":"Feature","id":"w893625862","properties":{"type":"yes","residential":false,"residents_est":0,"h3_10":"8a1e2e7982a7fff","h3_11":"8b1e2e7982a2fff"},"geometry":{"type":"Polygon","coordinates":[[[19.907128,50.112818],[19.907158,50.112768],[19.907233,50.112788],[19.907203,50.112837],[19.907128,50.112818]]]}},{"type":"Feature","id":"w893647910","properties":{"type":"yes","address":"Na Popielówkę 25D","residential":true,"residents_est":2,"h3_10":"8a1e2e7982dffff","h3_11":"8b1e2e7982d8fff"},"geometry":{"type":"Polygon","coordinates":[[[19.913462,50.111117],[19.913489,50.111033],[19.913494,50.111034],[19.913487,50.111056],[19.913528,50.111061],[19.913536,50.111038],[19.913624,50.11105],[19.913596,50.111135],[19.913462,50.111117]]]}},{"type":"Feature","id":"w893647911","properties":{"type":"yes","address":"Na Popielówkę 25E","residential":true,"residents_est":2,"h3_10":"8a1e2e7982dffff","h3_11":"8b1e2e7982d8fff"},"geometry":{"type":"Polygon","coordinates":[[[19.913327,50.111099],[19.913356,50.111015],[19.913444,50.111026],[19.913436,50.11105],[19.913477,50.111055],[19.913489,50.111033],[19.913462,50.111117],[19.913327,50.111099]]]}},{"type":"Feature","id":"w893647913","properties":{"type":"yes","address":"Na Popielówkę 25C","residential":true,"residents_est":2,"h3_10":"8a1e2e7982dffff","h3_11":"8b1e2e7982d9fff"},"geometry":{"type":"Polygon","coordinates":[[[19.913716,50.111151],[19.913743,50.111067],[19.913827,50.111079],[19.913821,50.111101],[19.913867,50.111108],[19.913877,50.111085],[19.91385,50.111169],[19.913716,50.111151]]]}},{"type":"Feature","id":"w893647916","properties":{"type":"yes","address":"Na Popielówkę 27D","residential":true,"residents_est":2,"h3_10":"8a1e2e7982dffff","h3_11":"8b1e2e7982d8fff"},"geometry":{"type":"Polygon","coordinates":[[[19.913536,50.110947],[19.913564,50.110862],[19.913698,50.110881],[19.913671,50.110965],[19.913582,50.110953],[19.91359,50.11093],[19.913549,50.110925],[19.913542,50.110948],[19.913536,50.110947]]]}},{"type":"Feature","id":"w893647917","properties":{"type":"yes","address":"Na Popielówkę 27E","residential":true,"residents_est":2,"h3_10":"8a1e2e7982dffff","h3_11":"8b1e2e7982d8fff"},"geometry":{"type":"Polygon","coordinates":[[[19.913402,50.110929],[19.913431,50.110844],[19.913564,50.110862],[19.913536,50.110947],[19.913532,50.110946],[19.913539,50.110923],[19.913498,50.110918],[19.913491,50.110941],[19.913402,50.110929]]]}},{"type":"Feature","id":"w893647918","properties":{"type":"yes","address":"Na Popielówkę 27B","residential":true,"residents_est":2,"h3_10":"8a1e2e7982dffff","h3_11":"8b1e2e7982d9fff"},"geometry":{"type":"Polygon","coordinates":[[[19.913916,50.110998],[19.913943,50.110913],[19.914077,50.110931],[19.91405,50.111015],[19.913961,50.111004],[19.913969,50.110981],[19.913928,50.110976],[19.913916,50.110998]]]}},{"type":"Feature","id":"w893647919","properties":{"type":"yes","address":"Na Popielówkę 27C","residential":true,"residents_est":2,"h3_10":"8a1e2e7982dffff","h3_11":"8b1e2e7982d9fff"},"geometry":{"type":"Polygon","coordinates":[[[19.913781,50.110979],[19.913809,50.110895],[19.913943,50.110913],[19.913916,50.110998],[19.913911,50.110997],[19.913919,50.110974],[19.913877,50.110969],[19.913869,50.110991],[19.913781,50.110979]]]}},{"type":"Feature","id":"w893647923","properties":{"type":"house","levels":0.0,"address":"Na Popielówkę 31","residential":true,"residents_est":2,"h3_10":"8a1e2e7982dffff","h3_11":"8b1e2e7982dbfff"},"geometry":{"type":"Polygon","coordinates":[[[19.913897,50.110608],[19.913924,50.110523],[19.914017,50.110536],[19.91399,50.11062],[19.913903,50.110601],[19.913897,50.110608]]]}},{"type":"Feature","id":"w893647924","properties":{"type":"house","address":"Na Popielówkę 31A","residential":true,"residents_est":2,"h3_10":"8a1e2e7982dffff","h3_11":"8b1e2e7982dbfff"},"geometry":{"type":"Polygon","coordinates":[[[19.913804,50.110596],[19.913831,50.110511],[19.913924,50.110523],[19.913897,50.110608],[19.913896,50.1106],[19.91385,50.110594],[19.913847,50.110602],[19.913804,50.110596]]]}},{"type":"Feature","id":"w893647925","properties":{"type":"house","levels":0.0,"address":"Na Popielówkę 31B","residential":true,"residents_est":2,"h3_10":"8a1e2e7982dffff","h3_11":"8b1e2e7982dbfff"},"geometry":{"type":"Polygon","coordinates":[[[19.913584,50.110566],[19.913611,50.110482],[19.913704,50.110494],[19.913677,50.110579],[19.913633,50.110573],[19.913635,50.110566],[19.91359,50.11056],[19.913584,50.110566]]]}},{"type":"Feature","id":"w893647926","properties":{"type":"house","address":"Na Popielówkę 31C","residential":true,"residents_est":2,"h3_10":"8a1e2e7982dffff","h3_11":"8b1e2e7982dbfff"},"geometry":{"type":"Polygon","coordinates":[[[19.91349,50.110555],[19.913518,50.110469],[19.913611,50.110482],[19.913584,50.110566],[19.913582,50.110559],[19.913536,50.110552],[19.913534,50.11056],[19.91349,50.110555]]]}},{"type":"Feature","id":"w1006835254","properties":{"type":"yes","address":"Na Popielówkę 25F","residential":true,"residents_est":1,"h3_10":"8a1e2e7982dffff","h3_11":"8b1e2e7982d8fff"},"geometry":{"type":"Polygon","coordinates":[[[19.913075,50.111063],[19.913095,50.111002],[19.913142,50.111008],[19.913148,50.110988],[19.913234,50.110999],[19.913207,50.111081],[19.913075,50.111063]]]}},{"type":"Feature","id":"w1006835255","properties":{"type":"yes","address":"Na Popielówkę 25G","residential":true,"residents_est":1,"h3_10":"8a1e2e7982dffff","h3_11":"8b1e2e7982d8fff"},"geometry":{"type":"Polygon","coordinates":[[[19.912942,50.111044],[19.912969,50.110963],[19.913057,50.110975],[19.91305,50.110996],[19.913095,50.111002],[19.913075,50.111063],[19.912942,50.111044]]]}},{"type":"Feature","id":"w1049554646","properties":{"type":"yes","levels":2.0,"residential":true,"residents_est":3,"h3_10":"8a1e2e7983b7fff","h3_11":"8b1e2e7983b3fff"},"geometry":{"type":"Polygon","coordinates":[[[19.90381,50.114572],[19.903846,50.114507],[19.904,50.114543],[19.903923,50.11468],[19.903821,50.114657],[19.903862,50.114585],[19.90381,50.114572]]]}},{"type":"Feature","id":"w1089451124","properties":{"type":"yes","residential":true,"residents_est":2,"h3_10":"8a1e2e7982e7fff","h3_11":"8b1e2e7982e2fff"},"geometry":{"type":"Polygon","coordinates":[[[19.912324,50.112763],[19.912351,50.11269],[19.912561,50.112723],[19.912534,50.112796],[19.912324,50.112763]]]}},{"type":"Feature","id":"w1089451125","properties":{"type":"yes","residential":true,"residents_est":3,"h3_10":"8a1e2e7982e7fff","h3_11":"8b1e2e7982e2fff"},"geometry":{"type":"Polygon","coordinates":[[[19.911982,50.112714],[19.91201,50.112641],[19.91222,50.112673],[19.912192,50.112746],[19.911982,50.112714]]]}},{"type":"Feature","id":"w1089451126","properties":{"type":"yes","residential":true,"residents_est":2,"h3_10":"8a1e2e7982f7fff","h3_11":"8b1e2e7982f5fff"},"geometry":{"type":"Polygon","coordinates":[[[19.911659,50.112663],[19.911687,50.11259],[19.911897,50.112622],[19.911869,50.112696],[19.911659,50.112663]]]}},{"type":"Feature","id":"w1089451127","properties":{"type":"yes","residential":true,"residents_est":2,"h3_10":"8a1e2e7982f7fff","h3_11":"8b1e2e7982f5fff"},"geometry":{"type":"Polygon","coordinates":[[[19.911318,50.112611],[19.911345,50.112538],[19.911555,50.11257],[19.911528,50.112643],[19.911318,50.112611]]]}},{"type":"Feature","id":"w1089451128","properties":{"type":"semidetached_house","residential":true,"residents_est":6,"h3_10":"8a1e2e7982f7fff","h3_11":"8b1e2e7982f0fff"},"geometry":{"type":"Polygon","coordinates":[[[19.910974,50.112564],[19.911004,50.112478],[19.911227,50.112509],[19.911197,50.112596],[19.910974,50.112564]]]}},{"type":"Feature","id":"w1089451130","properties":{"type":"yes","address":"Na Popielówkę 9J","residential":true,"residents_est":2,"h3_10":"8a1e2e7982f7fff","h3_11":"8b1e2e7982f1fff"},"geometry":{"type":"Polygon","coordinates":[[[19.911918,50.112429],[19.911955,50.11232],[19.912105,50.112341],[19.912068,50.112449],[19.912016,50.112442],[19.912019,50.112433],[19.911971,50.112427],[19.911967,50.112435],[19.911918,50.112429]]]}},{"type":"Feature","id":"w1089451131","properties":{"type":"yes","address":"Na Popielówkę 9I","residential":true,"residents_est":3,"h3_10":"8a1e2e7982f7fff","h3_11":"8b1e2e7982f1fff"},"geometry":{"type":"Polygon","coordinates":[[[19.912069,50.112448],[19.912105,50.11234],[19.912255,50.11236],[19.912219,50.112469],[19.912166,50.112462],[19.912169,50.112453],[19.912122,50.112447],[19.912118,50.112455],[19.912069,50.112448]]]}},{"type":"Feature","id":"w1089451132","properties":{"type":"yes","address":"Na Popielówkę 9H","residential":true,"residents_est":2,"h3_10":"8a1e2e7982c7fff","h3_11":"8b1e2e7982c4fff"},"geometry":{"type":"Polygon","coordinates":[[[19.912295,50.112484],[19.912332,50.112375],[19.912481,50.112396],[19.912445,50.112504],[19.912393,50.112497],[19.912396,50.112488],[19.912348,50.112482],[19.912344,50.11249],[19.912295,50.112484]]]}},{"type":"Feature","id":"w1089451133","properties":{"type":"yes","address":"Na Popielówkę 9G","residential":true,"residents_est":2,"h3_10":"8a1e2e7982c7fff","h3_11":"8b1e2e7982c4fff"},"geometry":{"type":"Polygon","coordinates":[[[19.912446,50.112503],[19.912482,50.112394],[19.912632,50.112415],[19.912596,50.112524],[19.912543,50.112517],[19.912546,50.112508],[19.912499,50.112501],[19.912495,50.11251],[19.912446,50.112503]]]}},{"type":"Feature","id":"w1089451134","properties":{"type":"yes","address":"Na Popielówkę 9F","residential":true,"residents_est":2,"h3_10":"8a1e2e7982c7fff","h3_11":"8b1e2e7982c4fff"},"geometry":{"type":"Polygon","coordinates":[[[19.912666,50.112536],[19.912703,50.112427],[19.912853,50.112448],[19.912816,50.112557],[19.912764,50.11255],[19.912767,50.112541],[19.912719,50.112534],[19.912716,50.112543],[19.912666,50.112536]]]}},{"type":"Feature","id":"w1089451135","properties":{"type":"yes","address":"Na Popielówkę 9E","residential":true,"residents_est":2,"h3_10":"8a1e2e7982c7fff","h3_11":"8b1e2e7982c4fff"},"geometry":{"type":"Polygon","coordinates":[[[19.912817,50.112556],[19.912854,50.112448],[19.913003,50.112468],[19.912967,50.112577],[19.912915,50.11257],[19.912917,50.112561],[19.91287,50.112555],[19.912866,50.112563],[19.912817,50.112556]]]}},{"type":"Feature","id":"w1089451136","properties":{"type":"yes","address":"Na Popielówkę 9D","residential":true,"residents_est":3,"h3_10":"8a1e2e7982c7fff","h3_11":"8b1e2e7982c5fff"},"geometry":{"type":"Polygon","coordinates":[[[19.913061,50.112591],[19.913098,50.112482],[19.913247,50.112503],[19.913211,50.112611],[19.913159,50.112604],[19.913162,50.112595],[19.913114,50.112589],[19.91311,50.112597],[19.913061,50.112591]]]}},{"type":"Feature","id":"w1089451140","properties":{"type":"detached","address":"Pękowicka 65","residential":true,"residents_est":6,"h3_10":"8a1e2e7982c7fff","h3_11":"8b1e2e7982c6fff"},"geometry":{"type":"Polygon","coordinates":[[[19.912156,50.111922],[19.912184,50.111831],[19.91242,50.111861],[19.912391,50.111952],[19.912156,50.111922]]]}},{"type":"Feature","id":"w1089451141","properties":{"type":"yes","residential":true,"residents_est":2,"h3_10":"8a1e2e7982f7fff","h3_11":"8b1e2e7982f3fff"},"geometry":{"type":"Polygon","coordinates":[[[19.911294,50.112126],[19.91131,50.112059],[19.911536,50.112087],[19.911517,50.112153],[19.911294,50.112126]]]}},{"type":"Feature","id":"w1089451142","properties":{"type":"yes","residential":true,"residents_est":2,"h3_10":"8a1e2e7982f7fff","h3_11":"8b1e2e7982f3fff"},"geometry":{"type":"Polygon","coordinates":[[[19.91161,50.112168],[19.911627,50.112102],[19.911852,50.112129],[19.911833,50.112195],[19.91161,50.112168]]]}},{"type":"Feature","id":"w1089451143","properties":{"type":"yes","residential":true,"residents_est":2,"h3_10":"8a1e2e7982c7fff","h3_11":"8b1e2e7982c6fff"},"geometry":{"type":"Polygon","coordinates":[[[19.91193,50.112209],[19.911947,50.112142],[19.912172,50.112169],[19.912153,50.112236],[19.91193,50.112209]]]}},{"type":"Feature","id":"w1089451144","properties":{"type":"yes","residential":true,"residents_est":2,"h3_10":"8a1e2e7982c7fff","h3_11":"8b1e2e7982c6fff"},"geometry":{"type":"Polygon","coordinates":[[[19.912238,50.112249],[19.912255,50.112183],[19.91248,50.11221],[19.912461,50.112277],[19.912238,50.112249]]]}},{"type":"Feature","id":"w1089451145","properties":{"type":"yes","residential":true,"residents_est":2,"h3_10":"8a1e2e7982c7fff","h3_11":"8b1e2e7982c4fff"},"geometry":{"type":"Polygon","coordinates":[[[19.912544,50.112293],[19.912561,50.112226],[19.912786,50.112253],[19.912768,50.11232],[19.912544,50.112293]]]}},{"type":"Feature","id":"w1089451146","properties":{"type":"yes","residential":true,"residents_est":2,"h3_10":"8a1e2e7982c7fff","h3_11":"8b1e2e7982c4fff"},"geometry":{"type":"Polygon","coordinates":[[[19.912857,50.112338],[19.912873,50.112272],[19.913098,50.112299],[19.91308,50.112366],[19.912857,50.112338]]]}},{"type":"Feature","id":"w1089451147","properties":{"type":"yes","residential":true,"residents_est":2,"h3_10":"8a1e2e7982c7fff","h3_11":"8b1e2e7982c5fff"},"geometry":{"type":"Polygon","coordinates":[[[19.913168,50.112382],[19.913185,50.112316],[19.91341,50.112343],[19.913391,50.112409],[19.913168,50.112382]]]}},{"type":"Feature","id":"w1090316081","properties":{"type":"yes","address":"Na Popielówkę 25H","residential":true,"residents_est":1,"h3_10":"8a1e2e7982dffff","h3_11":"8b1e2e7982defff"},"geometry":{"type":"Polygon","coordinates":[[[19.912695,50.111008],[19.912715,50.110948],[19.912762,50.110953],[19.912768,50.110933],[19.912854,50.110944],[19.912827,50.111027],[19.912695,50.111008]]]}},{"type":"Feature","id":"w1090316082","properties":{"type":"yes","address":"Na Popielówkę 27F","residential":true,"residents_est":1,"h3_10":"8a1e2e7982dffff","h3_11":"8b1e2e7982d8fff"},"geometry":{"type":"Polygon","coordinates":[[[19.913159,50.110889],[19.913179,50.110829],[19.913226,50.110834],[19.913232,50.110814],[19.913318,50.110826],[19.913291,50.110908],[19.913159,50.110889]]]}},{"type":"Feature","id":"w1090316083","properties":{"type":"yes","address":"Na Popielówkę 25J","residential":true,"residents_est":1,"h3_10":"8a1e2e7982dffff","h3_11":"8b1e2e7982defff"},"geometry":{"type":"Polygon","coordinates":[[[19.912296,50.110957],[19.912323,50.110876],[19.91241,50.110888],[19.912403,50.110909],[19.912449,50.110915],[19.912429,50.110975],[19.912296,50.110957]]]}},{"type":"Feature","id":"w1090316084","properties":{"type":"yes","address":"Na Popielówkę 25I","residential":true,"residents_est":1,"h3_10":"8a1e2e7982dffff","h3_11":"8b1e2e7982defff"},"geometry":{"type":"Polygon","coordinates":[[[19.912429,50.110975],[19.912449,50.110915],[19.912495,50.110921],[19.912502,50.1109],[19.912588,50.110912],[19.912561,50.110994],[19.912429,50.110975]]]}},{"type":"Feature","id":"w1090316085","properties":{"type":"yes","address":"Na Popielówkę 25L","residential":true,"residents_est":2,"h3_10":"8a1e2e7982d7fff","h3_11":"8b1e2e7982d3fff"},"geometry":{"type":"Polygon","coordinates":[[[19.91191,50.110902],[19.911937,50.110821],[19.912024,50.110833],[19.912017,50.110854],[19.912062,50.11086],[19.912042,50.11092],[19.91191,50.110902]]]}},{"type":"Feature","id":"w1090316086","properties":{"type":"yes","address":"Na Popielówkę 25K","residential":true,"residents_est":2,"h3_10":"8a1e2e7982d7fff","h3_11":"8b1e2e7982d3fff"},"geometry":{"type":"Polygon","coordinates":[[[19.912042,50.11092],[19.912062,50.11086],[19.912109,50.110866],[19.912116,50.110845],[19.912202,50.110857],[19.912175,50.110939],[19.912042,50.11092]]]}},{"type":"Feature","id":"w1090316087","properties":{"type":"yes","address":"Na Popielówkę 27H","residential":true,"residents_est":2,"h3_10":"8a1e2e7982dffff","h3_11":"8b1e2e7982defff"},"geometry":{"type":"Polygon","coordinates":[[[19.912777,50.110844],[19.912806,50.110759],[19.912939,50.110778],[19.912911,50.110862],[19.912906,50.110862],[19.912914,50.110839],[19.912873,50.110833],[19.912866,50.110856],[19.912777,50.110844]]]}},{"type":"Feature","id":"w1090316088","properties":{"type":"yes","address":"Na Popielówkę 27G","residential":true,"residents_est":2,"h3_10":"8a1e2e7982dffff","h3_11":"8b1e2e7982d8fff"},"geometry":{"type":"Polygon","coordinates":[[[19.912911,50.110862],[19.912939,50.110778],[19.913073,50.110796],[19.913046,50.11088],[19.912957,50.110868],[19.912965,50.110846],[19.912924,50.11084],[19.912916,50.110863],[19.912911,50.110862]]]}},{"type":"Feature","id":"w1090316089","properties":{"type":"yes","address":"Na Popielówkę 27J","residential":true,"residents_est":2,"h3_10":"8a1e2e7982dffff","h3_11":"8b1e2e7982defff"},"geometry":{"type":"Polygon","coordinates":[[[19.912399,50.110789],[19.912428,50.110704],[19.912561,50.110723],[19.912533,50.110807],[19.912528,50.110807],[19.912536,50.110784],[19.912495,50.110778],[19.912488,50.110801],[19.912399,50.110789]]]}},{"type":"Feature","id":"w1090316090","properties":{"type":"yes","address":"Na Popielówkę 27I","residential":true,"residents_est":2,"h3_10":"8a1e2e7982dffff","h3_11":"8b1e2e7982defff"},"geometry":{"type":"Polygon","coordinates":[[[19.912533,50.110807],[19.912561,50.110723],[19.912694,50.110741],[19.912668,50.110825],[19.912579,50.110813],[19.912587,50.110791],[19.912546,50.110785],[19.912538,50.110808],[19.912533,50.110807]]]}},{"type":"Feature","id":"w1090316098","properties":{"type":"residential","address":"Na Popielówkę 5","residential":true,"residents_est":6,"h3_10":"8a1e2e7982e7fff","h3_11":"8b1e2e7982e0fff"},"geometry":{"type":"Polygon","coordinates":[[[19.912638,50.11312],[19.912662,50.113049],[19.912789,50.113067],[19.912781,50.11309],[19.9128,50.113092],[19.912784,50.113141],[19.912638,50.11312]]]}},{"type":"Feature","id":"w1112736244","properties":{"type":"yes","address":"Na Mostkach 34","residential":true,"residents_est":2,"h3_10":"8a1e2e7982affff","h3_11":"8b1e2e7982a8fff"},"geometry":{"type":"Polygon","coordinates":[[[19.909205,50.112781],[19.909239,50.112712],[19.909396,50.112744],[19.909378,50.112779],[19.909358,50.112774],[19.909341,50.112809],[19.909205,50.112781]]]}},{"type":"Feature","id":"w1151003917","properties":{"type":"industrial","residential":false,"residents_est":0,"h3_10":"8a1e2e79830ffff","h3_11":"8b1e2e798308fff"},"geometry":{"type":"Polygon","coordinates":[[[19.90973,50.116879],[19.909811,50.116696],[19.909925,50.116723],[19.909921,50.116736],[19.90997,50.116747],[19.909987,50.116719],[19.910638,50.116862],[19.910526,50.117077],[19.909869,50.116941],[19.909882,50.116912],[19.90973,50.116879]]]}},{"type":"Feature","id":"w1166182566","properties":{"type":"yes","residential":true,"residents_est":1,"h3_10":"8a1e2e79839ffff","h3_11":"8b1e2e798399fff"},"geometry":{"type":"Polygon","coordinates":[[[19.906405,50.113541],[19.906452,50.113464],[19.906553,50.11349],[19.906506,50.113567],[19.906405,50.113541]]]}},{"type":"Feature","id":"w1166182568","properties":{"type":"construction","address":"Na Mostkach 9R","residential":false,"residents_est":0,"h3_10":"8a1e2e79839ffff","h3_11":"8b1e2e79839efff"},"geometry":{"type":"Polygon","coordinates":[[[19.904902,50.113522],[19.904939,50.113466],[19.904911,50.113458],[19.904962,50.11338],[19.905073,50.11341],[19.904984,50.113545],[19.904902,50.113522]]]}},{"type":"Feature","id":"w1166182569","properties":{"type":"construction","residential":false,"residents_est":0,"h3_10":"8a1e2e798297fff","h3_11":"8b1e2e798290fff"},"geometry":{"type":"Polygon","coordinates":[[[19.906462,50.111199],[19.906496,50.111079],[19.906531,50.111083],[19.906537,50.111064],[19.906776,50.111092],[19.906743,50.11121],[19.906602,50.111194],[19.906596,50.111215],[19.906462,50.111199]]]}},{"type":"Feature","id":"w1166182581","properties":{"type":"yes","address":"Jęczmienna 20","residential":true,"residents_est":4,"h3_10":"8a1e2e7983b7fff","h3_11":"8b1e2e7983b0fff"},"geometry":{"type":"Polygon","coordinates":[[[19.903448,50.115092],[19.90348,50.115025],[19.903609,50.115049],[19.903621,50.115024],[19.903727,50.115045],[19.903672,50.115164],[19.903538,50.115139],[19.903551,50.115112],[19.903448,50.115092]]]}},{"type":"Feature","id":"w1166182582","properties":{"type":"yes","residential":true,"residents_est":20,"h3_10":"8a1e2e7983affff","h3_11":"8b1e2e7983aefff"},"geometry":{"type":"Polygon","coordinates":[[[19.906215,50.115387],[19.906441,50.115027],[19.906602,50.115069],[19.906376,50.115429],[19.906215,50.115387]]]}},{"type":"Feature","id":"w1166182583","properties":{"type":"yes","address":"Na Mostkach 31C","residential":true,"residents_est":2,"h3_10":"8a1e2e79838ffff","h3_11":"8b1e2e79838bfff"},"geometry":{"type":"Polygon","coordinates":[[[19.90761,50.11399],[19.907668,50.113904],[19.907812,50.113944],[19.907754,50.11403],[19.90761,50.11399]]]}},{"type":"Feature","id":"w1244120944","properties":{"type":"house","address":"Pękowicka 69","residential":true,"residents_est":3,"h3_10":"8a1e2e7982f7fff","h3_11":"8b1e2e7982f4fff"},"geometry":{"type":"Polygon","coordinates":[[[19.910933,50.112879],[19.910955,50.112811],[19.911073,50.112827],[19.911066,50.112849],[19.911087,50.112852],[19.911072,50.112898],[19.910933,50.112879]]]}},{"type":"Feature","id":"w1320069980","properties":{"type":"house","address":"Na Popielówkę 23E","residential":true,"residents_est":6,"h3_10":"8a1e2e7982dffff","h3_11":"8b1e2e7982dcfff"},"geometry":{"type":"Polygon","coordinates":[[[19.913125,50.111294],[19.913157,50.111184],[19.913332,50.111205],[19.913299,50.111316],[19.913245,50.111309],[19.913248,50.1113],[19.913184,50.111292],[19.913181,50.111301],[19.913125,50.111294]]]}},{"type":"Feature","id":"w1320069981","properties":{"type":"house","address":"Na Popielówkę 23D","residential":true,"residents_est":6,"h3_10":"8a1e2e7982dffff","h3_11":"8b1e2e7982ddfff"},"geometry":{"type":"Polygon","coordinates":[[[19.913299,50.111316],[19.913332,50.111205],[19.913506,50.111227],[19.913473,50.111338],[19.913416,50.111331],[19.913419,50.111321],[19.913355,50.111313],[19.913352,50.111323],[19.913299,50.111316]]]}},{"type":"Feature","id":"w1320069983","properties":{"type":"house","address":"Na Popielówkę 23C","residential":true,"residents_est":5,"h3_10":"8a1e2e7982dffff","h3_11":"8b1e2e7982ddfff"},"geometry":{"type":"Polygon","coordinates":[[[19.913527,50.111344],[19.91356,50.111234],[19.913735,50.111256],[19.913701,50.111366],[19.913648,50.111359],[19.913651,50.11135],[19.913587,50.111342],[19.913584,50.111351],[19.913527,50.111344]]]}},{"type":"Feature","id":"w1320069986","properties":{"type":"house","address":"Na Popielówkę 23F","residential":true,"residents_est":6,"h3_10":"8a1e2e7982dffff","h3_11":"8b1e2e7982dcfff"},"geometry":{"type":"Polygon","coordinates":[[[19.912825,50.111281],[19.912858,50.11117],[19.913034,50.111192],[19.913002,50.111303],[19.912945,50.111296],[19.912948,50.111286],[19.912884,50.111278],[19.912882,50.111288],[19.912825,50.111281]]]}},{"type":"Feature","id":"w1320069987","properties":{"type":"house","address":"Na Popielówkę 23G","residential":true,"residents_est":6,"h3_10":"8a1e2e7982dffff","h3_11":"8b1e2e7982dcfff"},"geometry":{"type":"Polygon","coordinates":[[[19.912571,50.11125],[19.912604,50.111139],[19.912781,50.111161],[19.912748,50.111271],[19.912691,50.111264],[19.912694,50.111254],[19.912631,50.111247],[19.912628,50.111257],[19.912571,50.11125]]]}},{"type":"Feature","id":"w1320069988","properties":{"type":"house","address":"Na Popielówkę 23H","residential":true,"residents_est":5,"h3_10":"8a1e2e7982d7fff","h3_11":"8b1e2e7982d1fff"},"geometry":{"type":"Polygon","coordinates":[[[19.912317,50.111218],[19.91235,50.111108],[19.912527,50.11113],[19.912494,50.11124],[19.912437,50.111233],[19.91244,50.111223],[19.912376,50.111215],[19.912373,50.111225],[19.912317,50.111218]]]}},{"type":"Feature","id":"w1320069989","properties":{"type":"house","address":"Na Popielówkę 23J","residential":true,"residents_est":6,"h3_10":"8a1e2e7982d7fff","h3_11":"8b1e2e7982d1fff"},"geometry":{"type":"Polygon","coordinates":[[[19.912064,50.111187],[19.912097,50.111077],[19.912274,50.111098],[19.912241,50.111209],[19.912184,50.111202],[19.912187,50.111192],[19.912123,50.111184],[19.91212,50.111194],[19.912064,50.111187]]]}},{"type":"Feature","id":"w1320069990","properties":{"type":"house","address":"Na Popielówkę 23K","residential":true,"residents_est":6,"h3_10":"8a1e2e7982d7fff","h3_11":"8b1e2e7982d3fff"},"geometry":{"type":"Polygon","coordinates":[[[19.91181,50.111156],[19.911843,50.111045],[19.91202,50.111067],[19.911988,50.111178],[19.911931,50.111171],[19.911934,50.111161],[19.91187,50.111153],[19.911867,50.111163],[19.91181,50.111156]]]}},{"type":"Feature","id":"w1387065265","properties":{"type":"house","address":"Pękowicka 69C","residential":true,"residents_est":3,"h3_10":"8a1e2e7982e7fff","h3_11":"8b1e2e7982e6fff"},"geometry":{"type":"Polygon","coordinates":[[[19.912178,50.113055],[19.912195,50.113006],[19.912216,50.113009],[19.912224,50.112987],[19.912348,50.113005],[19.912323,50.113076],[19.912178,50.113055]]]}},{"type":"Feature","id":"w1387065266","properties":{"type":"house","address":"Pękowicka 69B","residential":true,"residents_est":3,"h3_10":"8a1e2e7982e7fff","h3_11":"8b1e2e7982e6fff"},"geometry":{"type":"Polygon","coordinates":[[[19.911759,50.112996],[19.911784,50.112925],[19.911907,50.112942],[19.911899,50.112964],[19.91192,50.112967],[19.911903,50.113016],[19.911759,50.112996]]]}},{"type":"Feature","id":"w1387065267","properties":{"type":"house","address":"Pękowicka 69A","residential":true,"residents_est":3,"h3_10":"8a1e2e7982f7fff","h3_11":"8b1e2e7982f5fff"},"geometry":{"type":"Polygon","coordinates":[[[19.911343,50.112938],[19.911367,50.112867],[19.911492,50.112884],[19.911485,50.112906],[19.911506,50.112909],[19.911489,50.112958],[19.911343,50.112938]]]}},{"type":"Feature","id":"w1387065268","properties":{"type":"construction","address":"Na Popielówkę 15","residential":false,"residents_est":0,"h3_10":"8a1e2e7982c7fff","h3_11":"8b1e2e7982c0fff"},"geometry":{"type":"Polygon","coordinates":[[[19.912815,50.112036],[19.91284,50.111953],[19.913051,50.11198],[19.913026,50.112062],[19.912936,50.112051],[19.912938,50.112044],[19.912888,50.112037],[19.912886,50.112045],[19.912815,50.112036]]]}}]}