{"type":"FeatureCollection","features":[{"type":"Feature","id":"w337950143","properties":{"type":"yes","residential":true,"residents_est":12,"h3_10":"8a1e2e618237fff","h3_11":"8b1e2e618231fff"},"geometry":{"type":"Polygon","coordinates":[[[20.152954,50.115619],[20.153076,50.115562],[20.153061,50.115549],[20.15314,50.115512],[20.153212,50.115576],[20.153133,50.115612],[20.15323,50.115699],[20.153255,50.115687],[20.153301,50.115727],[20.153153,50.115796],[20.152954,50.115619]]]}},{"type":"Feature","id":"w337950156","properties":{"type":"yes","residential":true,"residents_est":2,"h3_10":"8a1e2e6182d7fff","h3_11":"8b1e2e6182d5fff"},"geometry":{"type":"Polygon","coordinates":[[[20.155698,50.112569],[20.155866,50.112504],[20.155928,50.112569],[20.155762,50.112634],[20.155698,50.112569]]]}},{"type":"Feature","id":"w337950198","properties":{"type":"yes","residential":true,"residents_est":3,"h3_10":"8a1e2e618237fff","h3_11":"8b1e2e618233fff"},"geometry":{"type":"Polygon","coordinates":[[[20.152675,50.115324],[20.152812,50.115265],[20.152837,50.115283],[20.152931,50.115236],[20.153021,50.115308],[20.152921,50.115359],[20.152883,50.115328],[20.152866,50.115337],[20.152836,50.115313],[20.152723,50.115371],[20.152675,50.115324]]]}},{"type":"Feature","id":"w337950207","properties":{"type":"yes","residential":true,"residents_est":3,"h3_10":"8a1e2e618207fff","h3_11":"8b1e2e618204fff"},"geometry":{"type":"Polygon","coordinates":[[[20.15366,50.115804],[20.153758,50.115738],[20.153924,50.115843],[20.153831,50.115906],[20.153731,50.115848],[20.153709,50.115862],[20.153679,50.115843],[20.1537,50.115829],[20.15366,50.115804]]]}},{"type":"Feature","id":"w337950237","properties":{"type":"yes","residential":true,"residents_est":1,"h3_10":"8a1e2e6182dffff","h3_11":"8b1e2e6182dbfff"},"geometry":{"type":"Polygon","coordinates":[[[20.157349,50.111576],[20.157415,50.11155],[20.157477,50.111612],[20.157409,50.111639],[20.157349,50.111576]]]}},{"type":"Feature","id":"w337950299","properties":{"type":"yes","residential":true,"residents_est":3,"h3_10":"8a1e2e618217fff","h3_11":"8b1e2e618216fff"},"geometry":{"type":"Polygon","coordinates":[[[20.152152,50.114784],[20.152226,50.114758],[20.152153,50.114672],[20.152264,50.114633],[20.152347,50.114731],[20.152238,50.114771],[20.152253,50.114789],[20.152281,50.114779],[20.152301,50.114803],[20.152273,50.114812],[20.152298,50.114841],[20.152224,50.114867],[20.152152,50.114784]]]}},{"type":"Feature","id":"w337950300","properties":{"type":"yes","residential":true,"residents_est":2,"h3_10":"8a1e2e6182f7fff","h3_11":"8b1e2e6182f6fff"},"geometry":{"type":"Polygon","coordinates":[[[20.154118,50.113288],[20.154148,50.113265],[20.154137,50.113259],[20.154185,50.113222],[20.154205,50.113233],[20.154235,50.113211],[20.154314,50.113253],[20.154285,50.113275],[20.154297,50.113281],[20.154247,50.113319],[20.154236,50.113313],[20.154206,50.113336],[20.154118,50.113288]]]}},{"type":"Feature","id":"w337950329","properties":{"type":"yes","residential":true,"residents_est":3,"h3_10":"8a1e2e618217fff","h3_11":"8b1e2e618214fff"},"geometry":{"type":"Polygon","coordinates":[[[20.15234,50.114961],[20.152441,50.11491],[20.152468,50.114929],[20.152567,50.114871],[20.152693,50.11496],[20.15259,50.115021],[20.152551,50.114992],[20.152539,50.114998],[20.152513,50.114979],[20.152525,50.114972],[20.152492,50.114947],[20.152388,50.115],[20.15234,50.114961]]]}},{"type":"Feature","id":"w337950347","properties":{"type":"yes","residential":true,"residents_est":3,"h3_10":"8a1e2e618237fff","h3_11":"8b1e2e618233fff"},"geometry":{"type":"Polygon","coordinates":[[[20.152784,50.115571],[20.152854,50.115537],[20.152875,50.115555],[20.152949,50.11552],[20.15294,50.115512],[20.153077,50.115452],[20.15312,50.115489],[20.152916,50.115592],[20.152929,50.115604],[20.152858,50.115634],[20.152784,50.115571]]]}},{"type":"Feature","id":"w337950474","properties":{"type":"yes","residential":true,"residents_est":12,"h3_10":"8a1e2e618217fff","h3_11":"8b1e2e618214fff"},"geometry":{"type":"Polygon","coordinates":[[[20.152201,50.115099],[20.152328,50.115028],[20.152589,50.11522],[20.15246,50.115292],[20.152201,50.115099]]]}},{"type":"Feature","id":"w337950483","properties":{"type":"yes","residential":true,"residents_est":1,"h3_10":"8a1e2e6182f7fff","h3_11":"8b1e2e6182f2fff"},"geometry":{"type":"Polygon","coordinates":[[[20.154181,50.11298],[20.154247,50.112943],[20.15436,50.113026],[20.154293,50.113063],[20.154181,50.11298]]]}},{"type":"Feature","id":"w337950586","properties":{"type":"yes","residential":true,"residents_est":1,"h3_10":"8a1e2e6182c7fff","h3_11":"8b1e2e6182c2fff"},"geometry":{"type":"Polygon","coordinates":[[[20.156031,50.112457],[20.156128,50.112423],[20.156175,50.112477],[20.156078,50.112512],[20.156031,50.112457]]]}},{"type":"Feature","id":"w337950609","properties":{"type":"yes","residential":true,"residents_est":2,"h3_10":"8a1e2e6182dffff","h3_11":"8b1e2e6182dafff"},"geometry":{"type":"Polygon","coordinates":[[[20.15671,50.111613],[20.156822,50.111542],[20.156896,50.111589],[20.156785,50.11166],[20.15671,50.111613]]]}},{"type":"Feature","id":"w337950863","properties":{"type":"yes","residential":true,"residents_est":2,"h3_10":"8a1e2e618217fff","h3_11":"8b1e2e618216fff"},"geometry":{"type":"Polygon","coordinates":[[[20.151845,50.11488],[20.151942,50.114842],[20.152029,50.114934],[20.151931,50.114972],[20.151845,50.11488]]]}},{"type":"Feature","id":"w337950867","properties":{"type":"yes","residential":true,"residents_est":3,"h3_10":"8a1e2e618237fff","h3_11":"8b1e2e618233fff"},"geometry":{"type":"Polygon","coordinates":[[[20.152464,50.115414],[20.152574,50.115361],[20.152708,50.115477],[20.152597,50.11553],[20.152464,50.115414]]]}},{"type":"Feature","id":"w337950962","properties":{"type":"yes","residential":true,"residents_est":1,"h3_10":"8a1e2e618227fff","h3_11":"8b1e2e618222fff"},"geometry":{"type":"Polygon","coordinates":[[[20.153319,50.116087],[20.15338,50.116048],[20.153448,50.116093],[20.153388,50.116132],[20.153319,50.116087]]]}},{"type":"Feature","id":"w337950977","properties":{"type":"yes","residential":true,"residents_est":2,"h3_10":"8a1e2e6182d7fff","h3_11":"8b1e2e6182d1fff"},"geometry":{"type":"Polygon","coordinates":[[[20.156124,50.112339],[20.156264,50.112287],[20.156322,50.11235],[20.156182,50.112403],[20.156124,50.112339]]]}},{"type":"Feature","id":"w337951025","properties":{"type":"yes","residential":true,"residents_est":3,"h3_10":"8a1e2e618227fff","h3_11":"8b1e2e618223fff"},"geometry":{"type":"Polygon","coordinates":[[[20.153859,50.116263],[20.154055,50.116194],[20.154122,50.116273],[20.153925,50.116342],[20.153859,50.116263]]]}},{"type":"Feature","id":"w337951268","properties":{"type":"yes","residential":false,"residents_est":0,"h3_10":"8a1e2e6182d7fff","h3_11":"8b1e2e6182d0fff"},"geometry":{"type":"Polygon","coordinates":[[[20.154885,50.112319],[20.154998,50.112276],[20.155027,50.112308],[20.154915,50.112351],[20.154885,50.112319]]]}},{"type":"Feature","id":"w337951606","properties":{"type":"yes","residential":true,"residents_est":2,"h3_10":"8a1e2e6182dffff","h3_11":"8b1e2e6182dbfff"},"geometry":{"type":"Polygon","coordinates":[[[20.157253,50.111486],[20.157434,50.111409],[20.157482,50.111457],[20.157302,50.111535],[20.157253,50.111486]]]}},{"type":"Feature","id":"w337951666","properties":{"type":"yes","residential":true,"residents_est":2,"h3_10":"8a1e2e6182d7fff","h3_11":"8b1e2e6182d2fff"},"geometry":{"type":"Polygon","coordinates":[[[20.155098,50.111963],[20.155141,50.111939],[20.155134,50.111932],[20.155197,50.111898],[20.155289,50.111968],[20.155182,50.112026],[20.155098,50.111963]]]}},{"type":"Feature","id":"w337951714","properties":{"type":"yes","residential":true,"residents_est":2,"h3_10":"8a1e2e6182f7fff","h3_11":"8b1e2e6182f2fff"},"geometry":{"type":"Polygon","coordinates":[[[20.154471,50.112935],[20.154567,50.112868],[20.154671,50.11293],[20.154629,50.112959],[20.154639,50.112965],[20.154586,50.113002],[20.154471,50.112935]]]}},{"type":"Feature","id":"w337951782","properties":{"type":"yes","residential":true,"residents_est":10,"h3_10":"8a1e2e618217fff","h3_11":"8b1e2e618212fff"},"geometry":{"type":"Polygon","coordinates":[[[20.152252,50.114478],[20.152367,50.114334],[20.15259,50.114408],[20.152515,50.114504],[20.152388,50.114463],[20.15235,50.114512],[20.152252,50.114478]]]}},{"type":"Feature","id":"w337951802","properties":{"type":"yes","residential":true,"residents_est":13,"h3_10":"8a1e2e618237fff","h3_11":"8b1e2e618231fff"},"geometry":{"type":"Polygon","coordinates":[[[20.153277,50.115916],[20.153369,50.115825],[20.153532,50.115891],[20.153501,50.115923],[20.153761,50.11603],[20.1537,50.116092],[20.153277,50.115916]]]}},{"type":"Feature","id":"w337951854","properties":{"type":"yes","residential":true,"residents_est":3,"h3_10":"8a1e2e6182dffff","h3_11":"8b1e2e6182dafff"},"geometry":{"type":"Polygon","coordinates":[[[20.156432,50.111627],[20.156482,50.111601],[20.156509,50.111622],[20.156547,50.111602],[20.156678,50.111708],[20.156589,50.111753],[20.156432,50.111627]]]}},{"type":"Feature","id":"w337951952","properties":{"type":"yes","residential":true,"residents_est":10,"h3_10":"8a1e2e6182d7fff","h3_11":"8b1e2e6182d3fff"},"geometry":{"type":"Polygon","coordinates":[[[20.15508,50.111765],[20.155211,50.1117],[20.155345,50.11162],[20.155397,50.111661],[20.155261,50.11174],[20.155356,50.111816],[20.15523,50.111882],[20.15508,50.111765]]]}},{"type":"Feature","id":"w337951969","properties":{"type":"yes","residential":true,"residents_est":2,"h3_10":"8a1e2e6182dffff","h3_11":"8b1e2e6182d8fff"},"geometry":{"type":"Polygon","coordinates":[[[20.156583,50.11191],[20.156696,50.111858],[20.15678,50.111934],[20.156669,50.111987],[20.156583,50.11191]]]}},{"type":"Feature","id":"w337951971","properties":{"type":"yes","residential":true,"residents_est":2,"h3_10":"8a1e2e6182dffff","h3_11":"8b1e2e6182dafff"},"geometry":{"type":"Polygon","coordinates":[[[20.156212,50.111353],[20.156253,50.111308],[20.156409,50.111364],[20.156447,50.111387],[20.156415,50.11141],[20.156384,50.111392],[20.15637,50.111409],[20.156212,50.111353]]]}},{"type":"Feature","id":"w337951973","properties":{"type":"yes","residential":true,"residents_est":3,"h3_10":"8a1e2e618207fff","h3_11":"8b1e2e618206fff"},"geometry":{"type":"Polygon","coordinates":[[[20.15339,50.115628],[20.153491,50.115561],[20.153627,50.115644],[20.153439,50.115765],[20.153401,50.115739],[20.153482,50.115684],[20.15339,50.115628]]]}},{"type":"Feature","id":"w337952089","properties":{"type":"yes","residential":true,"residents_est":4,"h3_10":"8a1e2e6182d7fff","h3_11":"8b1e2e6182d3fff"},"geometry":{"type":"Polygon","coordinates":[[[20.15535,50.111913],[20.155487,50.111868],[20.155462,50.111834],[20.155603,50.111791],[20.155664,50.111872],[20.15551,50.111919],[20.155535,50.111952],[20.155411,50.11199],[20.15535,50.111913]]]}},{"type":"Feature","id":"w337952134","properties":{"type":"yes","residential":true,"residents_est":1,"h3_10":"8a1e2e618217fff","h3_11":"8b1e2e618214fff"},"geometry":{"type":"Polygon","coordinates":[[[20.152663,50.115187],[20.152755,50.115141],[20.152782,50.115161],[20.15282,50.115142],[20.152853,50.115166],[20.152813,50.115187],[20.152821,50.115193],[20.152727,50.11524],[20.152663,50.115187]]]}},{"type":"Feature","id":"w337952168","properties":{"type":"yes","address":"Węgrzynowicka 55A","residential":true,"residents_est":2,"h3_10":"8a1e2e6182dffff","h3_11":"8b1e2e6182dcfff"},"geometry":{"type":"Polygon","coordinates":[[[20.156313,50.1122],[20.156384,50.112173],[20.156397,50.112187],[20.156457,50.112165],[20.15653,50.112245],[20.15649,50.11226],[20.156476,50.112245],[20.156387,50.112278],[20.156313,50.1122]]]}},{"type":"Feature","id":"w337952190","properties":{"type":"yes","residential":true,"residents_est":2,"h3_10":"8a1e2e6182dffff","h3_11":"8b1e2e6182dafff"},"geometry":{"type":"Polygon","coordinates":[[[20.156722,50.111296],[20.156825,50.111249],[20.156942,50.111353],[20.156884,50.111379],[20.156866,50.111362],[20.156819,50.111383],[20.156784,50.111352],[20.156761,50.111362],[20.156729,50.111334],[20.156752,50.111323],[20.156722,50.111296]]]}},{"type":"Feature","id":"w337952240","properties":{"type":"yes","residential":true,"residents_est":2,"h3_10":"8a1e2e618207fff","h3_11":"8b1e2e618206fff"},"geometry":{"type":"Polygon","coordinates":[[[20.153178,50.115505],[20.153287,50.115448],[20.15338,50.115521],[20.15327,50.115578],[20.153233,50.11555],[20.15321,50.115562],[20.153183,50.11554],[20.153207,50.115528],[20.153178,50.115505]]]}},{"type":"Feature","id":"w337952271","properties":{"type":"yes","residential":true,"residents_est":2,"h3_10":"8a1e2e6182a7fff","h3_11":"8b1e2e6182a5fff"},"geometry":{"type":"Polygon","coordinates":[[[20.151932,50.114503],[20.152006,50.114478],[20.151975,50.114438],[20.152048,50.114415],[20.152078,50.114455],[20.152006,50.114479],[20.15211,50.114612],[20.152035,50.114637],[20.151932,50.114503]]]}},{"type":"Feature","id":"w337952275","properties":{"type":"yes","residential":true,"residents_est":1,"h3_10":"8a1e2e6182d7fff","h3_11":"8b1e2e6182d5fff"},"geometry":{"type":"Polygon","coordinates":[[[20.155469,50.112652],[20.155587,50.112628],[20.155622,50.112697],[20.155502,50.112721],[20.155469,50.112652]]]}},{"type":"Feature","id":"w720225810","properties":{"type":"greenhouse","residential":false,"residents_est":0,"h3_10":"8a1e2e618227fff","h3_11":"8b1e2e618222fff"},"geometry":{"type":"Polygon","coordinates":[[[20.153355,50.116206],[20.153559,50.116139],[20.153589,50.116176],[20.153385,50.116244],[20.153355,50.116206]]]}},{"type":"Feature","id":"w720225830","properties":{"type":"yes","residential":true,"residents_est":1,"h3_10":"8a1e2e6182f7fff","h3_11":"8b1e2e6182f2fff"},"geometry":{"type":"Polygon","coordinates":[[[20.15449,50.112704],[20.154534,50.112688],[20.154626,50.112787],[20.154583,50.112804],[20.15449,50.112704]]]}},{"type":"Feature","id":"w720225831","properties":{"type":"greenhouse","residential":false,"residents_est":0,"h3_10":"8a1e2e6182f7fff","h3_11":"8b1e2e6182f2fff"},"geometry":{"type":"Polygon","coordinates":[[[20.154393,50.112763],[20.154429,50.112748],[20.154498,50.112815],[20.154461,50.11283],[20.154393,50.112763]]]}},{"type":"Feature","id":"w720225838","properties":{"type":"yes","residential":true,"residents_est":1,"h3_10":"8a1e2e6182dffff","h3_11":"8b1e2e6182dbfff"},"geometry":{"type":"Polygon","coordinates":[[[20.157426,50.111562],[20.157522,50.111524],[20.157571,50.111574],[20.157477,50.111612],[20.157426,50.111562]]]}},{"type":"Feature","id":"w720225840","properties":{"type":"yes","residential":true,"residents_est":1,"h3_10":"8a1e2e6182d7fff","h3_11":"8b1e2e6182d5fff"},"geometry":{"type":"Polygon","coordinates":[[[20.155389,50.112668],[20.155469,50.112652],[20.155502,50.112721],[20.155423,50.112737],[20.155389,50.112668]]]}},{"type":"Feature","id":"w720225842","properties":{"type":"yes","residential":false,"residents_est":0,"h3_10":"8a1e2e6182d7fff","h3_11":"8b1e2e6182d5fff"},"geometry":{"type":"Polygon","coordinates":[[[20.155881,50.112587],[20.155947,50.112562],[20.15598,50.112596],[20.155912,50.112623],[20.155881,50.112587]]]}},{"type":"Feature","id":"w720225843","properties":{"type":"yes","residential":false,"residents_est":0,"h3_10":"8a1e2e6182c7fff","h3_11":"8b1e2e6182c2fff"},"geometry":{"type":"Polygon","coordinates":[[[20.156078,50.112512],[20.156175,50.112477],[20.156203,50.112508],[20.156105,50.112543],[20.156078,50.112512]]]}},{"type":"Feature","id":"w720225844","properties":{"type":"yes","residential":false,"residents_est":0,"h3_10":"8a1e2e6182dffff","h3_11":"8b1e2e6182dcfff"},"geometry":{"type":"Polygon","coordinates":[[[20.156669,50.111987],[20.15676,50.111944],[20.156794,50.111974],[20.156704,50.112017],[20.156669,50.111987]]]}},{"type":"Feature","id":"w720225847","properties":{"type":"yes","residential":false,"residents_est":0,"h3_10":"8a1e2e6182d7fff","h3_11":"8b1e2e6182d5fff"},"geometry":{"type":"Polygon","coordinates":[[[20.155621,50.112488],[20.155697,50.112471],[20.155716,50.112506],[20.155641,50.112524],[20.155621,50.112488]]]}},{"type":"Feature","id":"w720225869","properties":{"type":"yes","residential":true,"residents_est":1,"h3_10":"8a1e2e6182dffff","h3_11":"8b1e2e6182d9fff"},"geometry":{"type":"Polygon","coordinates":[[[20.157337,50.11174],[20.157401,50.111719],[20.157453,50.111785],[20.157388,50.111806],[20.157337,50.11174]]]}},{"type":"Feature","id":"w720225870","properties":{"type":"yes","address":"Węgrzynowicka 94","residential":true,"residents_est":3,"h3_10":"8a1e2e6182dffff","h3_11":"8b1e2e6182d9fff"},"geometry":{"type":"Polygon","coordinates":[[[20.157585,50.111761],[20.157715,50.111699],[20.157828,50.111795],[20.157698,50.111858],[20.157585,50.111761]]]}},{"type":"Feature","id":"w720225871","properties":{"type":"yes","residential":true,"residents_est":2,"h3_10":"8a1e2e6182dffff","h3_11":"8b1e2e6182d9fff"},"geometry":{"type":"Polygon","coordinates":[[[20.157482,50.112024],[20.157516,50.111998],[20.15753,50.111999],[20.157588,50.111968],[20.157596,50.111974],[20.157635,50.111954],[20.157691,50.111998],[20.157652,50.112018],[20.157659,50.112024],[20.157553,50.11208],[20.157482,50.112024]]]}},{"type":"Feature","id":"w1047828400","properties":{"type":"outbuilding","levels":1.0,"residential":false,"residents_est":0,"h3_10":"8a1e2e618237fff","h3_11":"8b1e2e618230fff"},"geometry":{"type":"Polygon","coordinates":[[[20.15276,50.115792],[20.152879,50.115743],[20.152935,50.115798],[20.152816,50.115847],[20.15276,50.115792]]]}},{"type":"Feature","id":"w1364774005","properties":{"type":"yes","residential":false,"residents_est":0,"h3_10":"8a1e2e6182cffff","h3_11":"8b1e2e6182cafff"},"geometry":{"type":"Polygon","coordinates":[[[20.158027,50.112213],[20.158088,50.112171],[20.158134,50.112198],[20.158073,50.11224],[20.158027,50.112213]]]}}]}