{"type":"FeatureCollection","features":[{"type":"Feature","id":"w337428995","properties":{"type":"yes","residential":true,"residents_est":2,"h3_10":"8a1e2e698107fff","h3_11":"8b1e2e698104fff"},"geometry":{"type":"Polygon","coordinates":[[[20.014814,49.994624],[20.014815,49.994592],[20.014833,49.994592],[20.014837,49.994494],[20.014919,49.994495],[20.014916,49.994564],[20.014934,49.994564],[20.014932,49.994594],[20.014914,49.994594],[20.014913,49.994626],[20.014814,49.994624]]]}},{"type":"Feature","id":"w337472863","properties":{"type":"yes","residential":true,"residents_est":0,"h3_10":"8a1e2e6981a7fff","h3_11":"8b1e2e6981a4fff"},"geometry":{"type":"Polygon","coordinates":[[[20.012051,49.993097],[20.012118,49.993089],[20.01214,49.993162],[20.012072,49.99317],[20.012051,49.993097]]]}},{"type":"Feature","id":"w337473198","properties":{"type":"yes","address":"Koszutki 36","residential":true,"residents_est":0,"h3_10":"8a1e2e6981a7fff","h3_11":"8b1e2e6981a4fff"},"geometry":{"type":"Polygon","coordinates":[[[20.011709,49.993099],[20.011848,49.993086],[20.011867,49.993173],[20.011771,49.993182],[20.011768,49.993172],[20.011726,49.993175],[20.011709,49.993099]]]}},{"type":"Feature","id":"w377437196","properties":{"type":"house","address":"Akacjowa 7B","residential":true,"residents_est":1,"h3_10":"8a1e2e6980dffff","h3_11":"8b1e2e6980defff"},"geometry":{"type":"Polygon","coordinates":[[[20.019133,49.988028],[20.019145,49.987932],[20.019265,49.987938],[20.019262,49.987966],[20.01936,49.987972],[20.019353,49.98803],[20.019217,49.988023],[20.019215,49.988032],[20.019133,49.988028]]]}},{"type":"Feature","id":"w377437200","properties":{"type":"yes","address":"Akacjowa 9","residential":true,"residents_est":0,"h3_10":"8a1e2e6980dffff","h3_11":"8b1e2e6980dafff"},"geometry":{"type":"Polygon","coordinates":[[[20.019769,49.987553],[20.019778,49.987487],[20.019938,49.987496],[20.019922,49.98758],[20.019794,49.987575],[20.019797,49.987555],[20.019769,49.987553]]]}},{"type":"Feature","id":"w377437201","properties":{"type":"house","address":"Akacjowa 9a","residential":true,"residents_est":0,"h3_10":"8a1e2e6980dffff","h3_11":"8b1e2e6980dafff"},"geometry":{"type":"Polygon","coordinates":[[[20.020006,49.987816],[20.020012,49.987738],[20.020137,49.987742],[20.02013,49.987821],[20.020006,49.987816]]]}},{"type":"Feature","id":"w712544713","properties":{"type":"yes","residential":false,"residents_est":0,"h3_10":"8a1e2e698107fff","h3_11":"8b1e2e698100fff"},"geometry":{"type":"Polygon","coordinates":[[[20.014688,49.99451],[20.014692,49.994456],[20.01475,49.994457],[20.014745,49.994512],[20.014688,49.99451]]]}},{"type":"Feature","id":"w712544714","properties":{"type":"yes","address":"Słoneczna 13","residential":true,"residents_est":0,"h3_10":"8a1e2e698107fff","h3_11":"8b1e2e698106fff"},"geometry":{"type":"Polygon","coordinates":[[[20.014398,49.994462],[20.014398,49.994446],[20.014409,49.994441],[20.014409,49.994431],[20.014591,49.994437],[20.014588,49.994507],[20.014406,49.994508],[20.014407,49.994469],[20.014398,49.994462]]]}},{"type":"Feature","id":"w866903819","properties":{"type":"yes","residential":false,"residents_est":0,"h3_10":"8a1e2e6981a7fff","h3_11":"8b1e2e6981a4fff"},"geometry":{"type":"Polygon","coordinates":[[[20.011694,49.993064],[20.011772,49.993057],[20.011777,49.993082],[20.0117,49.993089],[20.011694,49.993064]]]}},{"type":"Feature","id":"w867037594","properties":{"type":"yes","residential":false,"residents_est":0,"h3_10":"8a1e2e6980dffff","h3_11":"8b1e2e6980dafff"},"geometry":{"type":"Polygon","coordinates":[[[20.019937,49.987956],[20.019945,49.987869],[20.019998,49.987871],[20.01999,49.987958],[20.019937,49.987956]]]}},{"type":"Feature","id":"w867037639","properties":{"type":"yes","residential":true,"residents_est":0,"h3_10":"8a1e2e6980dffff","h3_11":"8b1e2e6980dafff"},"geometry":{"type":"Polygon","coordinates":[[[20.019554,49.987686],[20.019566,49.987595],[20.019681,49.987602],[20.019667,49.987694],[20.019554,49.987686]]]}},{"type":"Feature","id":"w977471305","properties":{"type":"house","address":"Krzyszkowicka 97C","residential":true,"residents_est":0,"h3_10":"8a1e2e6980affff","h3_11":"8b1e2e6980a9fff"},"geometry":{"type":"Polygon","coordinates":[[[20.01688,49.990158],[20.016886,49.990089],[20.01703,49.990094],[20.017027,49.990129],[20.017045,49.990129],[20.017042,49.990164],[20.01688,49.990158]]]}},{"type":"Feature","id":"w977471306","properties":{"type":"house","address":"Krzyszkowicka 97B","residential":true,"residents_est":0,"h3_10":"8a1e2e6980affff","h3_11":"8b1e2e6980adfff"},"geometry":{"type":"Polygon","coordinates":[[[20.016874,49.990227],[20.01688,49.990158],[20.017042,49.990164],[20.017039,49.990198],[20.017021,49.990198],[20.017018,49.990232],[20.016874,49.990227]]]}},{"type":"Feature","id":"w977471307","properties":{"type":"house","address":"Krzyszkowicka 97A","residential":true,"residents_est":0,"h3_10":"8a1e2e6980affff","h3_11":"8b1e2e6980adfff"},"geometry":{"type":"Polygon","coordinates":[[[20.016868,49.990296],[20.016874,49.990227],[20.017018,49.990232],[20.017015,49.990267],[20.017033,49.990267],[20.01703,49.990301],[20.016868,49.990296]]]}},{"type":"Feature","id":"w977471308","properties":{"type":"house","address":"Krzyszkowicka 97","residential":true,"residents_est":0,"h3_10":"8a1e2e6980affff","h3_11":"8b1e2e6980adfff"},"geometry":{"type":"Polygon","coordinates":[[[20.016862,49.990365],[20.016868,49.990296],[20.01703,49.990301],[20.017027,49.990336],[20.017009,49.990336],[20.017006,49.99037],[20.016862,49.990365]]]}},{"type":"Feature","id":"w1174362895","properties":{"type":"house","address":"Krzyszkowicka 89K","residential":true,"residents_est":0,"h3_10":"8a1e2e69808ffff","h3_11":"8b1e2e698089fff"},"geometry":{"type":"Polygon","coordinates":[[[20.017489,49.988894],[20.017499,49.988814],[20.017606,49.988819],[20.017597,49.988899],[20.017489,49.988894]]]}},{"type":"Feature","id":"w1174362896","properties":{"type":"house","address":"Krzyszkowicka 89J","residential":true,"residents_est":0,"h3_10":"8a1e2e69808ffff","h3_11":"8b1e2e698089fff"},"geometry":{"type":"Polygon","coordinates":[[[20.01748,49.988972],[20.017489,49.988894],[20.017597,49.988899],[20.017587,49.988977],[20.01748,49.988972]]]}},{"type":"Feature","id":"w1174362897","properties":{"type":"house","address":"Krzyszkowicka 89I","residential":true,"residents_est":0,"h3_10":"8a1e2e69808ffff","h3_11":"8b1e2e698089fff"},"geometry":{"type":"Polygon","coordinates":[[[20.017471,49.98905],[20.01748,49.988972],[20.017587,49.988977],[20.017578,49.989055],[20.017471,49.98905]]]}},{"type":"Feature","id":"w1174362898","properties":{"type":"house","address":"Krzyszkowicka 89H","residential":true,"residents_est":0,"h3_10":"8a1e2e6980f7fff","h3_11":"8b1e2e6980f2fff"},"geometry":{"type":"Polygon","coordinates":[[[20.017461,49.98913],[20.017471,49.98905],[20.017578,49.989055],[20.017565,49.98913],[20.017569,49.989135],[20.017461,49.98913]]]}},{"type":"Feature","id":"w1174362899","properties":{"type":"house","address":"Krzyszkowicka 89G","residential":true,"residents_est":0,"h3_10":"8a1e2e6980f7fff","h3_11":"8b1e2e6980f2fff"},"geometry":{"type":"Polygon","coordinates":[[[20.017452,49.989264],[20.017462,49.989186],[20.017556,49.989191],[20.017547,49.989269],[20.017452,49.989264]]]}},{"type":"Feature","id":"w1174362900","properties":{"type":"house","address":"Krzyszkowicka 89F","residential":true,"residents_est":0,"h3_10":"8a1e2e6980f7fff","h3_11":"8b1e2e6980f2fff"},"geometry":{"type":"Polygon","coordinates":[[[20.017443,49.989342],[20.017452,49.989264],[20.017547,49.989269],[20.017537,49.989347],[20.017443,49.989342]]]}},{"type":"Feature","id":"w1174362901","properties":{"type":"house","address":"Krzyszkowicka 89E","residential":true,"residents_est":0,"h3_10":"8a1e2e6980f7fff","h3_11":"8b1e2e6980f2fff"},"geometry":{"type":"Polygon","coordinates":[[[20.017433,49.98942],[20.017443,49.989342],[20.017537,49.989347],[20.017527,49.989425],[20.017433,49.98942]]]}},{"type":"Feature","id":"w1174362902","properties":{"type":"house","address":"Krzyszkowicka 89D","residential":true,"residents_est":0,"h3_10":"8a1e2e6980f7fff","h3_11":"8b1e2e6980f6fff"},"geometry":{"type":"Polygon","coordinates":[[[20.017423,49.989498],[20.017433,49.98942],[20.017527,49.989425],[20.017518,49.989503],[20.017423,49.989498]]]}},{"type":"Feature","id":"w1174362903","properties":{"type":"house","address":"Krzyszkowicka 89C","residential":true,"residents_est":0,"h3_10":"8a1e2e6980f7fff","h3_11":"8b1e2e6980f6fff"},"geometry":{"type":"Polygon","coordinates":[[[20.017423,49.989649],[20.017434,49.989556],[20.017532,49.989561],[20.017521,49.989653],[20.017423,49.989649]]]}},{"type":"Feature","id":"w1174362904","properties":{"type":"house","address":"Krzyszkowicka 89B","residential":true,"residents_est":0,"h3_10":"8a1e2e6980f7fff","h3_11":"8b1e2e6980f6fff"},"geometry":{"type":"Polygon","coordinates":[[[20.017412,49.989741],[20.017423,49.989649],[20.017521,49.989653],[20.01751,49.989746],[20.017412,49.989741]]]}},{"type":"Feature","id":"w1311767858","properties":{"type":"yes","address":"Malinowa 7","residential":true,"residents_est":0,"h3_10":"8a1e2e69808ffff","h3_11":"8b1e2e69808bfff"},"geometry":{"type":"Polygon","coordinates":[[[20.017091,49.988617],[20.017092,49.98858],[20.017117,49.98858],[20.017118,49.988547],[20.017142,49.988547],[20.017155,49.988538],[20.017176,49.988539],[20.01719,49.988548],[20.017233,49.988548],[20.017231,49.988652],[20.01722,49.988652],[20.017219,49.988708],[20.017118,49.988708],[20.017118,49.988651],[20.017096,49.988651],[20.017097,49.988617],[20.017091,49.988617]]]}},{"type":"Feature","id":"w1430392134","properties":{"type":"house","address":"Krzyszkowicka 97D","residential":true,"residents_est":0,"h3_10":"8a1e2e6980affff","h3_11":"8b1e2e6980a9fff"},"geometry":{"type":"Polygon","coordinates":[[[20.01695,49.989801],[20.016957,49.989747],[20.017104,49.989754],[20.017098,49.989808],[20.01695,49.989801]]]}},{"type":"Feature","id":"w1430392135","properties":{"type":"house","address":"Krzyszkowicka 97E","residential":true,"residents_est":0,"h3_10":"8a1e2e6980affff","h3_11":"8b1e2e6980a9fff"},"geometry":{"type":"Polygon","coordinates":[[[20.016957,49.989747],[20.016963,49.989695],[20.01711,49.989702],[20.017104,49.989754],[20.016957,49.989747]]]}},{"type":"Feature","id":"w1430392136","properties":{"type":"house","address":"Krzyszkowicka 97F","residential":true,"residents_est":0,"h3_10":"8a1e2e6980f7fff","h3_11":"8b1e2e6980f6fff"},"geometry":{"type":"Polygon","coordinates":[[[20.016963,49.989695],[20.016969,49.989643],[20.017116,49.98965],[20.01711,49.989702],[20.016963,49.989695]]]}},{"type":"Feature","id":"w1430392137","properties":{"type":"house","address":"Krzyszkowicka 97G","residential":true,"residents_est":0,"h3_10":"8a1e2e6980f7fff","h3_11":"8b1e2e6980f6fff"},"geometry":{"type":"Polygon","coordinates":[[[20.016969,49.989643],[20.016975,49.989591],[20.017122,49.989598],[20.017116,49.98965],[20.016969,49.989643]]]}},{"type":"Feature","id":"w1430392138","properties":{"type":"house","address":"Krzyszkowicka 97H","residential":true,"residents_est":0,"h3_10":"8a1e2e6980f7fff","h3_11":"8b1e2e6980f6fff"},"geometry":{"type":"Polygon","coordinates":[[[20.016975,49.989591],[20.016981,49.989539],[20.017129,49.989546],[20.017122,49.989598],[20.016975,49.989591]]]}},{"type":"Feature","id":"w1430392139","properties":{"type":"house","address":"Krzyszkowicka 97J","residential":true,"residents_est":0,"h3_10":"8a1e2e6980f7fff","h3_11":"8b1e2e6980f6fff"},"geometry":{"type":"Polygon","coordinates":[[[20.016981,49.989539],[20.016987,49.989485],[20.017135,49.989492],[20.017129,49.989546],[20.016981,49.989539]]]}},{"type":"Feature","id":"w1430392140","properties":{"type":"house","address":"Krzyszkowicka 97K","residential":true,"residents_est":0,"h3_10":"8a1e2e69808ffff","h3_11":"8b1e2e69808dfff"},"geometry":{"type":"Polygon","coordinates":[[[20.016993,49.989432],[20.017,49.989379],[20.017147,49.989386],[20.017141,49.989439],[20.016993,49.989432]]]}},{"type":"Feature","id":"w1430392141","properties":{"type":"house","address":"Krzyszkowicka 97L","residential":true,"residents_est":0,"h3_10":"8a1e2e69808ffff","h3_11":"8b1e2e69808dfff"},"geometry":{"type":"Polygon","coordinates":[[[20.017,49.989379],[20.017006,49.989328],[20.017153,49.989335],[20.017147,49.989386],[20.017,49.989379]]]}},{"type":"Feature","id":"w1430392142","properties":{"type":"house","address":"Krzyszkowicka 97M","residential":true,"residents_est":0,"h3_10":"8a1e2e69808ffff","h3_11":"8b1e2e69808dfff"},"geometry":{"type":"Polygon","coordinates":[[[20.017006,49.989328],[20.017012,49.989277],[20.017159,49.989284],[20.017153,49.989335],[20.017006,49.989328]]]}},{"type":"Feature","id":"w1430392143","properties":{"type":"house","address":"Krzyszkowicka 97N","residential":true,"residents_est":0,"h3_10":"8a1e2e69808ffff","h3_11":"8b1e2e69808dfff"},"geometry":{"type":"Polygon","coordinates":[[[20.017012,49.989277],[20.017018,49.989226],[20.017165,49.989233],[20.017159,49.989284],[20.017012,49.989277]]]}},{"type":"Feature","id":"w1430392144","properties":{"type":"house","address":"Krzyszkowicka 97P","residential":true,"residents_est":0,"h3_10":"8a1e2e69808ffff","h3_11":"8b1e2e69808dfff"},"geometry":{"type":"Polygon","coordinates":[[[20.017018,49.989226],[20.017024,49.989175],[20.017171,49.989182],[20.017165,49.989233],[20.017018,49.989226]]]}},{"type":"Feature","id":"w1430392145","properties":{"type":"house","address":"Krzyszkowicka 97R","residential":true,"residents_est":0,"h3_10":"8a1e2e69808ffff","h3_11":"8b1e2e69808dfff"},"geometry":{"type":"Polygon","coordinates":[[[20.017024,49.989175],[20.01703,49.989124],[20.017178,49.989132],[20.017171,49.989182],[20.017024,49.989175]]]}},{"type":"Feature","id":"w1430392146","properties":{"type":"house","address":"Krzyszkowicka 97S","residential":true,"residents_est":0,"h3_10":"8a1e2e69808ffff","h3_11":"8b1e2e69808dfff"},"geometry":{"type":"Polygon","coordinates":[[[20.01703,49.989124],[20.017036,49.989073],[20.017184,49.989081],[20.017178,49.989132],[20.01703,49.989124]]]}},{"type":"Feature","id":"w1430392147","properties":{"type":"house","address":"Krzyszkowicka 97T","residential":true,"residents_est":0,"h3_10":"8a1e2e69808ffff","h3_11":"8b1e2e69808dfff"},"geometry":{"type":"Polygon","coordinates":[[[20.017036,49.989073],[20.017042,49.989022],[20.01719,49.98903],[20.017184,49.989081],[20.017036,49.989073]]]}},{"type":"Feature","id":"w1430392148","properties":{"type":"house","address":"Krzyszkowicka 97U","residential":true,"residents_est":0,"h3_10":"8a1e2e69808ffff","h3_11":"8b1e2e698089fff"},"geometry":{"type":"Polygon","coordinates":[[[20.017042,49.989022],[20.017048,49.988972],[20.017196,49.988979],[20.01719,49.98903],[20.017042,49.989022]]]}},{"type":"Feature","id":"w1430392149","properties":{"type":"house","address":"Krzyszkowicka 97V","residential":true,"residents_est":0,"h3_10":"8a1e2e69808ffff","h3_11":"8b1e2e698089fff"},"geometry":{"type":"Polygon","coordinates":[[[20.017048,49.988972],[20.017054,49.988919],[20.017202,49.988926],[20.017196,49.988979],[20.017048,49.988972]]]}},{"type":"Feature","id":"w1430392168","properties":{"type":"house","address":"Krzyszkowicka 85U","residential":true,"residents_est":0,"h3_10":"8a1e2e6980f7fff","h3_11":"8b1e2e6980f0fff"},"geometry":{"type":"Polygon","coordinates":[[[20.017682,49.989592],[20.017686,49.989539],[20.017834,49.989543],[20.01783,49.989596],[20.017682,49.989592]]]}},{"type":"Feature","id":"w1430392169","properties":{"type":"house","address":"Krzyszkowicka 85V","residential":true,"residents_est":0,"h3_10":"8a1e2e6980f7fff","h3_11":"8b1e2e6980f0fff"},"geometry":{"type":"Polygon","coordinates":[[[20.017686,49.989539],[20.01769,49.989488],[20.017837,49.989492],[20.017834,49.989543],[20.017686,49.989539]]]}},{"type":"Feature","id":"w1430392170","properties":{"type":"house","address":"Krzyszkowicka 85W","residential":true,"residents_est":0,"h3_10":"8a1e2e6980f7fff","h3_11":"8b1e2e6980f0fff"},"geometry":{"type":"Polygon","coordinates":[[[20.01769,49.989488],[20.017693,49.989437],[20.017841,49.989441],[20.017837,49.989492],[20.01769,49.989488]]]}},{"type":"Feature","id":"w1430392171","properties":{"type":"house","address":"Krzyszkowicka 85X","residential":true,"residents_est":0,"h3_10":"8a1e2e6980f7fff","h3_11":"8b1e2e6980f2fff"},"geometry":{"type":"Polygon","coordinates":[[[20.017693,49.989437],[20.017697,49.989386],[20.017844,49.98939],[20.017841,49.989441],[20.017693,49.989437]]]}},{"type":"Feature","id":"w1430392172","properties":{"type":"house","address":"Krzyszkowicka 85Y","residential":true,"residents_est":0,"h3_10":"8a1e2e6980f7fff","h3_11":"8b1e2e6980f2fff"},"geometry":{"type":"Polygon","coordinates":[[[20.017697,49.989386],[20.0177,49.989335],[20.017848,49.989339],[20.017844,49.98939],[20.017697,49.989386]]]}},{"type":"Feature","id":"w1430392173","properties":{"type":"house","address":"Krzyszkowicka 85Z","residential":true,"residents_est":0,"h3_10":"8a1e2e6980f7fff","h3_11":"8b1e2e6980f2fff"},"geometry":{"type":"Polygon","coordinates":[[[20.0177,49.989335],[20.017704,49.989284],[20.017852,49.989288],[20.017848,49.989339],[20.0177,49.989335]]]}},{"type":"Feature","id":"w1430392174","properties":{"type":"house","address":"Krzyszkowicka 85AA","residential":true,"residents_est":0,"h3_10":"8a1e2e6980f7fff","h3_11":"8b1e2e6980f2fff"},"geometry":{"type":"Polygon","coordinates":[[[20.017704,49.989284],[20.017708,49.989233],[20.017855,49.989237],[20.017852,49.989288],[20.017704,49.989284]]]}},{"type":"Feature","id":"w1430392175","properties":{"type":"house","address":"Krzyszkowicka 85AB","residential":true,"residents_est":0,"h3_10":"8a1e2e6980f7fff","h3_11":"8b1e2e6980f2fff"},"geometry":{"type":"Polygon","coordinates":[[[20.017708,49.989233],[20.017711,49.98918],[20.017859,49.989184],[20.017855,49.989237],[20.017708,49.989233]]]}},{"type":"Feature","id":"w1430392176","properties":{"type":"house","address":"Krzyszkowicka 85AC","residential":true,"residents_est":0,"h3_10":"8a1e2e6980d7fff","h3_11":"8b1e2e6980d4fff"},"geometry":{"type":"Polygon","coordinates":[[[20.017763,49.989011],[20.017769,49.988931],[20.017869,49.988934],[20.017864,49.989014],[20.017763,49.989011]]]}},{"type":"Feature","id":"w1430392177","properties":{"type":"house","address":"Krzyszkowicka 85AD","residential":true,"residents_est":0,"h3_10":"8a1e2e6980d7fff","h3_11":"8b1e2e6980d4fff"},"geometry":{"type":"Polygon","coordinates":[[[20.017769,49.988931],[20.017775,49.988852],[20.017875,49.988855],[20.017869,49.988934],[20.017769,49.988931]]]}},{"type":"Feature","id":"w1430392178","properties":{"type":"house","address":"Krzyszkowicka 85AE","residential":true,"residents_est":0,"h3_10":"8a1e2e6980d7fff","h3_11":"8b1e2e6980d4fff"},"geometry":{"type":"Polygon","coordinates":[[[20.017775,49.988852],[20.01778,49.988774],[20.01788,49.988777],[20.017875,49.988855],[20.017775,49.988852]]]}},{"type":"Feature","id":"w1430392179","properties":{"type":"house","address":"Krzyszkowicka 85AF","residential":true,"residents_est":0,"h3_10":"8a1e2e6980d7fff","h3_11":"8b1e2e6980d4fff"},"geometry":{"type":"Polygon","coordinates":[[[20.01778,49.988774],[20.017786,49.988694],[20.017886,49.988697],[20.01788,49.988777],[20.01778,49.988774]]]}},{"type":"Feature","id":"w1430392180","properties":{"type":"house","address":"Krzyszkowicka 85AK","residential":true,"residents_est":0,"h3_10":"8a1e2e6980d7fff","h3_11":"8b1e2e6980d2fff"},"geometry":{"type":"Polygon","coordinates":[[[20.017807,49.988343],[20.017814,49.988249],[20.017917,49.988252],[20.01791,49.988346],[20.017807,49.988343]]]}},{"type":"Feature","id":"w1430392181","properties":{"type":"house","address":"Krzyszkowicka 85AJ","residential":true,"residents_est":0,"h3_10":"8a1e2e6980d7fff","h3_11":"8b1e2e6980d6fff"},"geometry":{"type":"Polygon","coordinates":[[[20.017801,49.988435],[20.017807,49.988343],[20.01791,49.988346],[20.017904,49.988438],[20.017801,49.988435]]]}},{"type":"Feature","id":"w1430392182","properties":{"type":"house","address":"Krzyszkowicka 85AH","residential":true,"residents_est":0,"h3_10":"8a1e2e6980d7fff","h3_11":"8b1e2e6980d6fff"},"geometry":{"type":"Polygon","coordinates":[[[20.017794,49.988528],[20.017801,49.988435],[20.017904,49.988438],[20.017898,49.988531],[20.017794,49.988528]]]}},{"type":"Feature","id":"w1430392183","properties":{"type":"house","address":"Krzyszkowicka 85AG","residential":true,"residents_est":0,"h3_10":"8a1e2e6980d7fff","h3_11":"8b1e2e6980d6fff"},"geometry":{"type":"Polygon","coordinates":[[[20.017788,49.988622],[20.017794,49.988528],[20.017898,49.988531],[20.017891,49.988625],[20.017788,49.988622]]]}},{"type":"Feature","id":"w1473408356","properties":{"type":"construction","address":"Krzyszkowicka 81V","residential":false,"residents_est":0,"h3_10":"8a1e2e6980f7fff","h3_11":"8b1e2e6980f3fff"},"geometry":{"type":"Polygon","coordinates":[[[20.018098,49.98936],[20.018103,49.989306],[20.018259,49.989312],[20.018254,49.989366],[20.018098,49.98936]]]}}]}