{"type":"FeatureCollection","features":[{"type":"Feature","id":"w133322137","properties":{"type":"yes","address":"Józefa Ostafina 34","residential":true,"residents_est":4,"h3_10":"8a1e2e61b177fff","h3_11":"8b1e2e61b170fff"},"geometry":{"type":"Polygon","coordinates":[[[20.159199,50.103022],[20.15931,50.102998],[20.159324,50.103026],[20.159404,50.103009],[20.159443,50.103086],[20.15938,50.103099],[20.159376,50.10309],[20.159359,50.103093],[20.159361,50.103097],[20.159251,50.10312],[20.159234,50.103088],[20.159221,50.103091],[20.159206,50.103062],[20.159219,50.10306],[20.159199,50.103022]]]}},{"type":"Feature","id":"w337950132","properties":{"type":"yes","residential":true,"residents_est":7,"h3_10":"8a1e2e61b16ffff","h3_11":"8b1e2e61b16dfff"},"geometry":{"type":"Polygon","coordinates":[[[20.162846,50.103858],[20.163002,50.103833],[20.163023,50.103886],[20.163003,50.103889],[20.16302,50.103933],[20.163228,50.103901],[20.163248,50.103952],[20.163038,50.103985],[20.163033,50.103967],[20.162896,50.103989],[20.162846,50.103858]]]}},{"type":"Feature","id":"w337950192","properties":{"type":"yes","residential":true,"residents_est":3,"h3_10":"8a1e2e61b177fff","h3_11":"8b1e2e61b170fff"},"geometry":{"type":"Polygon","coordinates":[[[20.159343,50.10289],[20.159389,50.102882],[20.159385,50.102871],[20.15945,50.10286],[20.159444,50.102848],[20.159495,50.102839],[20.159513,50.102883],[20.159527,50.10288],[20.15954,50.102911],[20.159364,50.102941],[20.159343,50.10289]]]}},{"type":"Feature","id":"w337950203","properties":{"type":"yes","residential":true,"residents_est":4,"h3_10":"8a1e2e61b16ffff","h3_11":"8b1e2e61b16cfff"},"geometry":{"type":"Polygon","coordinates":[[[20.162367,50.103646],[20.16242,50.103626],[20.162434,50.103641],[20.162544,50.1036],[20.162627,50.10369],[20.162464,50.103752],[20.162437,50.103724],[20.162484,50.103706],[20.162455,50.103674],[20.162408,50.103691],[20.162367,50.103646]]]}},{"type":"Feature","id":"w337950440","properties":{"type":"yes","residential":true,"residents_est":3,"h3_10":"8a1e2e61b147fff","h3_11":"8b1e2e61b145fff"},"geometry":{"type":"Polygon","coordinates":[[[20.161855,50.103048],[20.16199,50.103025],[20.162023,50.103105],[20.161888,50.103128],[20.161855,50.103048]]]}},{"type":"Feature","id":"w337950815","properties":{"type":"yes","residential":true,"residents_est":4,"h3_10":"8a1e2e61b167fff","h3_11":"8b1e2e61b163fff"},"geometry":{"type":"Polygon","coordinates":[[[20.161615,50.103293],[20.16175,50.10325],[20.161835,50.103361],[20.1617,50.103404],[20.161615,50.103293]]]}},{"type":"Feature","id":"w337950839","properties":{"type":"yes","residential":true,"residents_est":1,"h3_10":"8a1e2e61b177fff","h3_11":"8b1e2e61b170fff"},"geometry":{"type":"Polygon","coordinates":[[[20.159717,50.103133],[20.159823,50.103114],[20.159842,50.103163],[20.159738,50.103182],[20.159717,50.103133]]]}},{"type":"Feature","id":"w337950898","properties":{"type":"yes","residential":true,"residents_est":3,"h3_10":"8a1e2e61b16ffff","h3_11":"8b1e2e61b168fff"},"geometry":{"type":"Polygon","coordinates":[[[20.162516,50.103322],[20.162639,50.103288],[20.162702,50.103384],[20.16258,50.103417],[20.162516,50.103322]]]}},{"type":"Feature","id":"w337950908","properties":{"type":"yes","residential":true,"residents_est":3,"h3_10":"8a1e2e61b16ffff","h3_11":"8b1e2e61b16efff"},"geometry":{"type":"Polygon","coordinates":[[[20.162049,50.103204],[20.162159,50.103164],[20.162235,50.10325],[20.162125,50.10329],[20.162049,50.103204]]]}},{"type":"Feature","id":"w337950972","properties":{"type":"yes","residential":true,"residents_est":3,"h3_10":"8a1e2e61b16ffff","h3_11":"8b1e2e61b168fff"},"geometry":{"type":"Polygon","coordinates":[[[20.162726,50.103532],[20.162866,50.103506],[20.162907,50.103597],[20.162767,50.103623],[20.162726,50.103532]]]}},{"type":"Feature","id":"w337951056","properties":{"type":"yes","residential":true,"residents_est":3,"h3_10":"8a1e2e61b147fff","h3_11":"8b1e2e61b145fff"},"geometry":{"type":"Polygon","coordinates":[[[20.161427,50.103117],[20.161597,50.103078],[20.161641,50.103157],[20.161471,50.103196],[20.161427,50.103117]]]}},{"type":"Feature","id":"w337951329","properties":{"type":"yes","residential":true,"residents_est":3,"h3_10":"8a1e2e61b16ffff","h3_11":"8b1e2e61b169fff"},"geometry":{"type":"Polygon","coordinates":[[[20.163559,50.103576],[20.163647,50.103501],[20.163759,50.103555],[20.16367,50.103631],[20.163559,50.103576]]]}},{"type":"Feature","id":"w337951348","properties":{"type":"yes","residential":true,"residents_est":2,"h3_10":"8a1e2e61b16ffff","h3_11":"8b1e2e61b16efff"},"geometry":{"type":"Polygon","coordinates":[[[20.161922,50.103328],[20.162054,50.103299],[20.16208,50.103349],[20.161948,50.103377],[20.161922,50.103328]]]}},{"type":"Feature","id":"w337951521","properties":{"type":"yes","residential":true,"residents_est":3,"h3_10":"8a1e2e61b16ffff","h3_11":"8b1e2e61b16dfff"},"geometry":{"type":"Polygon","coordinates":[[[20.162993,50.103701],[20.163132,50.103671],[20.163173,50.103752],[20.163034,50.103782],[20.162993,50.103701]]]}},{"type":"Feature","id":"w337951577","properties":{"type":"yes","residential":false,"residents_est":0,"h3_10":"8a1e2e61b16ffff","h3_11":"8b1e2e61b16dfff"},"geometry":{"type":"Polygon","coordinates":[[[20.163328,50.103889],[20.16341,50.103875],[20.163433,50.103932],[20.16335,50.103946],[20.163328,50.103889]]]}},{"type":"Feature","id":"w337951788","properties":{"type":"yes","residential":true,"residents_est":5,"h3_10":"8a1e2e61b16ffff","h3_11":"8b1e2e61b16efff"},"geometry":{"type":"Polygon","coordinates":[[[20.162157,50.103389],[20.16229,50.103359],[20.162332,50.103438],[20.162383,50.103426],[20.16241,50.103477],[20.162227,50.103518],[20.162157,50.103389]]]}},{"type":"Feature","id":"w337951897","properties":{"type":"yes","residential":true,"residents_est":3,"h3_10":"8a1e2e61b147fff","h3_11":"8b1e2e61b141fff"},"geometry":{"type":"Polygon","coordinates":[[[20.16236,50.102731],[20.162465,50.102641],[20.162577,50.102696],[20.162488,50.102772],[20.162417,50.102738],[20.162402,50.102751],[20.16236,50.102731]]]}},{"type":"Feature","id":"w337952282","properties":{"type":"yes","residential":true,"residents_est":4,"h3_10":"8a1e2e61b177fff","h3_11":"8b1e2e61b175fff"},"geometry":{"type":"Polygon","coordinates":[[[20.15962,50.103341],[20.159734,50.103315],[20.159753,50.10335],[20.159694,50.103363],[20.159707,50.103387],[20.159635,50.103404],[20.15963,50.103393],[20.159646,50.103389],[20.15962,50.103341]]]}},{"type":"Feature","id":"w720328339","properties":{"type":"yes","residential":false,"residents_est":0,"h3_10":"8a1e2e61b16ffff","h3_11":"8b1e2e61b16efff"},"geometry":{"type":"Polygon","coordinates":[[[20.162383,50.103325],[20.162457,50.103315],[20.162473,50.103361],[20.162398,50.103371],[20.162383,50.103325]]]}},{"type":"Feature","id":"w720328340","properties":{"type":"yes","residential":false,"residents_est":0,"h3_10":"8a1e2e61b16ffff","h3_11":"8b1e2e61b169fff"},"geometry":{"type":"Polygon","coordinates":[[[20.16367,50.103631],[20.163759,50.103555],[20.163798,50.103574],[20.163709,50.10365],[20.16367,50.103631]]]}},{"type":"Feature","id":"w720328341","properties":{"type":"yes","residential":true,"residents_est":4,"h3_10":"8a1e2e61b16ffff","h3_11":"8b1e2e61b169fff"},"geometry":{"type":"Polygon","coordinates":[[[20.163193,50.103309],[20.163264,50.103248],[20.163305,50.103267],[20.16331,50.103263],[20.163422,50.103318],[20.16334,50.103388],[20.163227,50.103333],[20.163233,50.103328],[20.163193,50.103309]]]}},{"type":"Feature","id":"w720328342","properties":{"type":"yes","residential":true,"residents_est":5,"h3_10":"8a1e2e61b147fff","h3_11":"8b1e2e61b146fff"},"geometry":{"type":"Polygon","coordinates":[[[20.160863,50.102593],[20.161065,50.102551],[20.161122,50.102666],[20.160982,50.102695],[20.160961,50.102654],[20.1609,50.102666],[20.160863,50.102593]]]}}]}