{"type":"FeatureCollection","features":[{"type":"Feature","id":"r1145833","properties":{"type":"commercial","levels":5.0,"address":"Podgórska 36","name":"Centrum Biurowe Kazimierz","residential":false,"residents_est":0,"h3_10":"8a1e2e6869b7fff","h3_11":"8b1e2e6869b3fff"},"geometry":{"type":"Polygon","coordinates":[[[19.956876,50.0528],[19.957066,50.052759],[19.958361,50.053152],[19.958293,50.053247],[19.957173,50.053442],[19.956876,50.0528]],[[19.957254,50.053033],[19.957365,50.053287],[19.957832,50.053207],[19.957836,50.053172],[19.957303,50.053017],[19.957254,50.053033]]]}},{"type":"Feature","id":"w82257244","properties":{"type":"yes","levels":3.0,"address":"Gęsia 8","residential":true,"residents_est":3,"h3_10":"8a1e2e6869b7fff","h3_11":"8b1e2e6869b6fff"},"geometry":{"type":"Polygon","coordinates":[[[19.956633,50.053707],[19.956935,50.05366],[19.956982,50.053785],[19.95668,50.053832],[19.956633,50.053707]]]}},{"type":"Feature","id":"w82390220","properties":{"type":"apartments","levels":8.0,"address":"Grzegórzecka 67E","residential":true,"residents_est":50,"h3_10":"8a1e2e68691ffff","h3_11":"8b1e2e68691afff"},"geometry":{"type":"Polygon","coordinates":[[[19.9613,50.054319],[19.961422,50.05418],[19.961667,50.05427],[19.961658,50.054285],[19.961693,50.054296],[19.961705,50.05428],[19.961711,50.054282],[19.9617,50.054298],[19.961736,50.054308],[19.961747,50.054294],[19.96178,50.054301],[19.961976,50.05435],[19.961969,50.054363],[19.962005,50.05437],[19.961924,50.054507],[19.961775,50.054475],[19.961763,50.054493],[19.961773,50.054496],[19.96177,50.0545],[19.961674,50.054476],[19.961407,50.054391],[19.961411,50.054386],[19.96142,50.05439],[19.961434,50.054371],[19.9613,50.054319]]]}},{"type":"Feature","id":"w82390512","properties":{"type":"apartments","levels":8.0,"address":"Grzegórzecka 67D","residential":true,"residents_est":137,"h3_10":"8a1e2e68691ffff","h3_11":"8b1e2e68691efff"},"geometry":{"type":"Polygon","coordinates":[[[19.960727,50.055093],[19.960823,50.054907],[19.960846,50.054912],[19.96088,50.054848],[19.960856,50.054843],[19.960931,50.054698],[19.960954,50.054703],[19.960968,50.054676],[19.960945,50.054671],[19.961033,50.054501],[19.961065,50.054507],[19.961073,50.054492],[19.961269,50.054534],[19.961261,50.05455],[19.961395,50.054578],[19.961403,50.054562],[19.961591,50.054602],[19.961583,50.054618],[19.961617,50.054625],[19.961546,50.054762],[19.961406,50.054733],[19.961395,50.054754],[19.961404,50.054756],[19.961402,50.054761],[19.961306,50.05474],[19.961309,50.054735],[19.961318,50.054737],[19.961329,50.054716],[19.961182,50.054685],[19.961169,50.05471],[19.961186,50.054714],[19.961135,50.054814],[19.961168,50.054821],[19.961171,50.054815],[19.961179,50.054816],[19.961147,50.054878],[19.961139,50.054876],[19.961143,50.05487],[19.96111,50.054863],[19.961058,50.054963],[19.961041,50.054959],[19.961027,50.054986],[19.961036,50.054988],[19.961028,50.055004],[19.961109,50.055022],[19.961117,50.055006],[19.961257,50.055036],[19.961249,50.055052],[19.961383,50.05508],[19.961391,50.055064],[19.961581,50.055105],[19.961573,50.055121],[19.961604,50.055127],[19.961533,50.055264],[19.961394,50.055234],[19.961382,50.055256],[19.961392,50.055258],[19.96139,50.055263],[19.961293,50.055243],[19.961296,50.055238],[19.961306,50.05524],[19.961316,50.055218],[19.961175,50.055188],[19.961164,50.05521],[19.961173,50.055212],[19.96117,50.055216],[19.961074,50.055196],[19.961077,50.055191],[19.961086,50.055193],[19.961098,50.055172],[19.960727,50.055093]]]}},{"type":"Feature","id":"w82390748","properties":{"type":"retail","levels":2.0,"residential":false,"residents_est":0,"h3_10":"8a1e2e686927fff","h3_11":"8b1e2e686922fff"},"geometry":{"type":"Polygon","coordinates":[[[19.960544,50.056472],[19.960599,50.056365],[19.96113,50.056477],[19.961075,50.056584],[19.960544,50.056472]]]}},{"type":"Feature","id":"w82390993","properties":{"type":"industrial","levels":2.0,"residential":false,"residents_est":0,"h3_10":"8a1e2e686917fff","h3_11":"8b1e2e686913fff"},"geometry":{"type":"Polygon","coordinates":[[[19.959874,50.054766],[19.960586,50.054674],[19.96061,50.054751],[19.960555,50.054845],[19.95997,50.054928],[19.959956,50.054884],[19.960124,50.054862],[19.960099,50.054784],[19.95989,50.054811],[19.959874,50.054766]]]}},{"type":"Feature","id":"w82391065","properties":{"type":"industrial","levels":1.0,"residential":false,"residents_est":0,"h3_10":"8a1e2e686917fff","h3_11":"8b1e2e686914fff"},"geometry":{"type":"Polygon","coordinates":[[[19.959563,50.055402],[19.959618,50.055273],[19.959739,50.055248],[19.959664,50.055099],[19.959807,50.055069],[19.959792,50.055038],[19.959869,50.055022],[19.959955,50.055191],[19.959995,50.055183],[19.960028,50.055249],[19.960015,50.05528],[19.960048,50.055344],[19.959971,50.05536],[19.960028,50.055472],[19.959897,50.0555],[19.959861,50.055429],[19.959603,50.055482],[19.959563,50.055402]]]}},{"type":"Feature","id":"w82487983","properties":{"type":"industrial","address":"Grzegórzecka 69a","residential":false,"residents_est":0,"h3_10":"8a1e2e68692ffff","h3_11":"8b1e2e686928fff"},"geometry":{"type":"Polygon","coordinates":[[[19.962605,50.056634],[19.962646,50.056559],[19.96278,50.05659],[19.962739,50.056664],[19.962605,50.056634]]]}},{"type":"Feature","id":"w82487989","properties":{"type":"service","levels":1.0,"residential":false,"residents_est":0,"h3_10":"8a1e2e68682ffff","h3_11":"8b1e2e68682cfff"},"geometry":{"type":"Polygon","coordinates":[[[19.965154,50.05442],[19.965176,50.0542],[19.965543,50.054215],[19.965538,50.054262],[19.965381,50.054255],[19.965364,50.054428],[19.965154,50.05442]]]}},{"type":"Feature","id":"w83490122","properties":{"type":"office","levels":1.0,"residential":false,"residents_est":0,"h3_10":"8a1e2e68686ffff","h3_11":"8b1e2e686869fff"},"geometry":{"type":"Polygon","coordinates":[[[19.971032,50.053926],[19.97107,50.053848],[19.971099,50.053854],[19.971111,50.053829],[19.971279,50.053863],[19.971268,50.053886],[19.971296,50.053894],[19.971257,50.053972],[19.971032,50.053926]]]}},{"type":"Feature","id":"w83490131","properties":{"type":"yes","residential":true,"residents_est":14,"h3_10":"8a1e2e68695ffff","h3_11":"8b1e2e68695cfff"},"geometry":{"type":"Polygon","coordinates":[[[19.966274,50.054944],[19.966444,50.054834],[19.967046,50.055219],[19.966876,50.055329],[19.966274,50.054944]]]}},{"type":"Feature","id":"w83490133","properties":{"type":"yes","residential":true,"residents_est":17,"h3_10":"8a1e2e68694ffff","h3_11":"8b1e2e68694efff"},"geometry":{"type":"Polygon","coordinates":[[[19.967025,50.055394],[19.967159,50.055266],[19.967974,50.055623],[19.96784,50.055751],[19.967025,50.055394]]]}},{"type":"Feature","id":"w83490134","properties":{"type":"yes","residential":true,"residents_est":4,"h3_10":"8a1e2e68695ffff","h3_11":"8b1e2e68695efff"},"geometry":{"type":"Polygon","coordinates":[[[19.96628,50.054644],[19.966569,50.054632],[19.966582,50.054766],[19.966293,50.054777],[19.96628,50.054644]]]}},{"type":"Feature","id":"w83490139","properties":{"type":"yes","residential":true,"residents_est":2,"h3_10":"8a1e2e68695ffff","h3_11":"8b1e2e68695bfff"},"geometry":{"type":"Polygon","coordinates":[[[19.967336,50.054454],[19.967504,50.054433],[19.967529,50.054515],[19.967507,50.054517],[19.967541,50.054629],[19.967394,50.054647],[19.967336,50.054454]]]}},{"type":"Feature","id":"w83490142","properties":{"type":"yes","residential":true,"residents_est":14,"h3_10":"8a1e2e686947fff","h3_11":"8b1e2e686942fff"},"geometry":{"type":"Polygon","coordinates":[[[19.965658,50.055339],[19.965828,50.055229],[19.966431,50.055613],[19.966261,50.055724],[19.965658,50.055339]]]}},{"type":"Feature","id":"w83490144","properties":{"type":"yes","residential":true,"residents_est":18,"h3_10":"8a1e2e686947fff","h3_11":"8b1e2e686940fff"},"geometry":{"type":"Polygon","coordinates":[[[19.966371,50.055823],[19.966533,50.055669],[19.967277,50.055993],[19.967115,50.056147],[19.966371,50.055823]]]}},{"type":"Feature","id":"w83490145","properties":{"type":"yes","residential":true,"residents_est":18,"h3_10":"8a1e2e68696ffff","h3_11":"8b1e2e686968fff"},"geometry":{"type":"Polygon","coordinates":[[[19.967686,50.056397],[19.967849,50.05624],[19.968597,50.056563],[19.968435,50.056719],[19.967686,50.056397]]]}},{"type":"Feature","id":"w153173413","properties":{"type":"yes","residential":true,"residents_est":0,"h3_10":"8a1e2e686887fff","h3_11":"8b1e2e686883fff"},"geometry":{"type":"Polygon","coordinates":[[[19.961463,50.050172],[19.961588,50.050152],[19.961622,50.050213],[19.961485,50.050236],[19.961463,50.050172]]]}},{"type":"Feature","id":"w153173416","properties":{"type":"apartments","levels":3.0,"residential":true,"residents_est":4,"h3_10":"8a1e2e68688ffff","h3_11":"8b1e2e68688afff"},"geometry":{"type":"Polygon","coordinates":[[[19.962583,50.049892],[19.962743,50.049858],[19.962725,50.049818],[19.962764,50.049804],[19.96283,50.049958],[19.962636,50.049999],[19.962583,50.049892]]]}},{"type":"Feature","id":"w153173524","properties":{"type":"apartments","residential":true,"residents_est":41,"h3_10":"8a1e2e68689ffff","h3_11":"8b1e2e68689efff"},"geometry":{"type":"Polygon","coordinates":[[[19.961136,50.049353],[19.961379,50.049313],[19.96138,50.049317],[19.961362,50.04932],[19.961412,50.049445],[19.961463,50.049437],[19.961588,50.049752],[19.961485,50.049768],[19.961489,50.049778],[19.96151,50.049775],[19.96156,50.049901],[19.961363,50.049932],[19.961136,50.049353]]]}},{"type":"Feature","id":"w153173541","properties":{"type":"yes","residential":true,"residents_est":6,"h3_10":"8a1e2e68689ffff","h3_11":"8b1e2e686898fff"},"geometry":{"type":"Polygon","coordinates":[[[19.961849,50.049512],[19.962059,50.049471],[19.962102,50.049573],[19.962071,50.049578],[19.962089,50.04962],[19.962119,50.049614],[19.962136,50.049652],[19.962111,50.049656],[19.962136,50.049713],[19.962162,50.049712],[19.961951,50.049749],[19.961925,50.049689],[19.961901,50.049694],[19.961851,50.049577],[19.961876,50.049573],[19.961849,50.049512]]]}},{"type":"Feature","id":"w153238357","properties":{"type":"university","levels":4.0,"address":"Gustawa Herlinga-Grudzińskiego 1C","residential":false,"residents_est":0,"h3_10":"8a1e2e6868f7fff","h3_11":"8b1e2e6868f5fff"},"geometry":{"type":"Polygon","coordinates":[[[19.964226,50.051301],[19.964628,50.051265],[19.964916,50.051258],[19.964907,50.051214],[19.964857,50.051221],[19.964855,50.051214],[19.965826,50.05112],[19.965847,50.051211],[19.965892,50.051207],[19.96592,50.051325],[19.965306,50.051383],[19.965305,50.051379],[19.965316,50.051378],[19.965314,50.051367],[19.964888,50.051353],[19.964646,50.051359],[19.964248,50.051396],[19.964226,50.051301]]]}},{"type":"Feature","id":"w153238360","properties":{"type":"university","levels":1.0,"address":"Gustawa Herlinga-Grudzińskiego 1b","residential":false,"residents_est":0,"h3_10":"8a1e2e6868f7fff","h3_11":"8b1e2e6868f6fff"},"geometry":{"type":"Polygon","coordinates":[[[19.963659,50.050752],[19.963672,50.050723],[19.963697,50.050699],[19.963786,50.050663],[19.963885,50.050656],[19.963881,50.050644],[19.964371,50.050598],[19.964412,50.050765],[19.964353,50.050769],[19.964372,50.050846],[19.964384,50.050844],[19.964447,50.051113],[19.964433,50.051115],[19.964437,50.051144],[19.964182,50.051169],[19.964176,50.05114],[19.964162,50.051139],[19.9641,50.050875],[19.964113,50.050875],[19.964111,50.050846],[19.964036,50.050854],[19.964044,50.050879],[19.963858,50.050898],[19.963852,50.050865],[19.96379,50.050861],[19.963707,50.050833],[19.963677,50.05081],[19.963661,50.050782],[19.963659,50.050752]]]}},{"type":"Feature","id":"w153238401","properties":{"type":"retail","levels":1.0,"address":"Jana Dekerta 44a","name":"Motorland","residential":false,"residents_est":0,"h3_10":"8a1e2e6868dffff","h3_11":"8b1e2e6868d9fff"},"geometry":{"type":"Polygon","coordinates":[[[19.967564,50.049437],[19.967802,50.049373],[19.967928,50.049563],[19.96769,50.049627],[19.967564,50.049437]]]}},{"type":"Feature","id":"w153238404","properties":{"type":"office","address":"Zabłocie 22","name":"Punkt Obsługi Przedsiębiorcy","residential":false,"residents_est":0,"h3_10":"8a1e2e6868c7fff","h3_11":"8b1e2e6868c3fff"},"geometry":{"type":"Polygon","coordinates":[[[19.966493,50.050201],[19.967088,50.05014],[19.967134,50.050309],[19.966537,50.050371],[19.966493,50.050201]]]}},{"type":"Feature","id":"w153238450","properties":{"type":"university","levels":3.0,"address":"Zabłocie 20","residential":false,"residents_est":0,"h3_10":"8a1e2e6868dffff","h3_11":"8b1e2e6868dcfff"},"geometry":{"type":"Polygon","coordinates":[[[19.96584,50.049814],[19.966758,50.04967],[19.966772,50.049706],[19.966846,50.049695],[19.966876,50.049772],[19.966802,50.049783],[19.966843,50.049892],[19.965925,50.050037],[19.96584,50.049814]]]}},{"type":"Feature","id":"w153238451","properties":{"type":"university","levels":2.0,"address":"Gustawa Herlinga-Grudzińskiego 1a","residential":false,"residents_est":0,"h3_10":"8a1e2e6868c7fff","h3_11":"8b1e2e6868c6fff"},"geometry":{"type":"Polygon","coordinates":[[[19.964733,50.050562],[19.965409,50.050496],[19.965404,50.050476],[19.965398,50.050477],[19.965397,50.050471],[19.965665,50.050445],[19.965667,50.050451],[19.965659,50.050452],[19.965679,50.050536],[19.965708,50.050533],[19.965708,50.050539],[19.965681,50.050542],[19.965701,50.050625],[19.965727,50.050622],[19.965729,50.050627],[19.965703,50.05063],[19.965792,50.051019],[19.965532,50.051044],[19.965441,50.050663],[19.965337,50.050672],[19.965399,50.050721],[19.965413,50.050746],[19.965415,50.050787],[19.965403,50.050816],[19.965368,50.050851],[19.965336,50.050864],[19.96529,50.050872],[19.965256,50.050869],[19.965194,50.050851],[19.965148,50.050862],[19.965108,50.050696],[19.96503,50.050703],[19.965121,50.051084],[19.96486,50.051109],[19.964733,50.050562]]]}},{"type":"Feature","id":"w153238469","properties":{"type":"retail","residential":false,"residents_est":0,"h3_10":"8a1e2e6868cffff","h3_11":"8b1e2e6868c9fff"},"geometry":{"type":"Polygon","coordinates":[[[19.968506,50.050168],[19.968523,50.050165],[19.968583,50.05029],[19.968668,50.050274],[19.968662,50.050263],[19.968669,50.050261],[19.96872,50.05037],[19.968528,50.050339],[19.968546,50.050283],[19.968559,50.05028],[19.968506,50.050168]]]}},{"type":"Feature","id":"w154364122","properties":{"type":"hotel","levels":6.0,"address":"Gęsia 22a","name":"Galaxy","residential":false,"residents_est":0,"h3_10":"8a1e2e686987fff","h3_11":"8b1e2e686984fff"},"geometry":{"type":"Polygon","coordinates":[[[19.958149,50.05346],[19.958662,50.053417],[19.958811,50.053392],[19.958847,50.053393],[19.958881,50.053402],[19.95891,50.053416],[19.958931,50.053436],[19.95894,50.053456],[19.958951,50.053518],[19.95895,50.053569],[19.958981,50.053744],[19.958928,50.053748],[19.958925,50.053733],[19.958907,50.053735],[19.95891,50.053752],[19.958734,50.053767],[19.958717,50.053671],[19.95821,50.053709],[19.958195,50.053621],[19.95817,50.053622],[19.958149,50.05346]]]}},{"type":"Feature","id":"w158034392","properties":{"type":"office","levels":3.0,"address":"Aleja Pokoju 1","residential":false,"residents_est":0,"h3_10":"8a1e2e686927fff","h3_11":"8b1e2e686924fff"},"geometry":{"type":"Polygon","coordinates":[[[19.960577,50.057345],[19.960581,50.057292],[19.960616,50.057201],[19.960674,50.05713],[19.960754,50.057067],[19.96085,50.057018],[19.960925,50.056992],[19.961043,50.056968],[19.961131,50.056962],[19.961133,50.056946],[19.961192,50.056948],[19.961172,50.057201],[19.9611,50.057199],[19.961103,50.057154],[19.961095,50.057154],[19.961095,50.057149],[19.960789,50.057139],[19.960789,50.057144],[19.960781,50.057144],[19.960765,50.057342],[19.960772,50.057347],[19.961002,50.057355],[19.960985,50.057581],[19.961002,50.057582],[19.960993,50.0577],[19.960933,50.057698],[19.960934,50.057681],[19.960792,50.057627],[19.960688,50.057557],[19.960636,50.057501],[19.960599,50.057437],[19.960582,50.057386],[19.960577,50.057345]]]}},{"type":"Feature","id":"w158034393","properties":{"type":"office","levels":20.0,"address":"Aleja Pokoju 1","name":"Błękitek","residential":false,"residents_est":0,"h3_10":"8a1e2e686927fff","h3_11":"8b1e2e686924fff"},"geometry":{"type":"Polygon","coordinates":[[[19.960765,50.057342],[19.960781,50.057144],[19.960789,50.057144],[19.960789,50.057139],[19.961095,50.057149],[19.961095,50.057154],[19.961103,50.057154],[19.961088,50.057353],[19.961081,50.057357],[19.960772,50.057347],[19.960765,50.057342]]]}},{"type":"Feature","id":"w162965672","properties":{"type":"apartments","levels":8.0,"address":"Grzegórzecka 67C","residential":true,"residents_est":140,"h3_10":"8a1e2e686907fff","h3_11":"8b1e2e686906fff"},"geometry":{"type":"Polygon","coordinates":[[[19.960292,50.05594],[19.960604,50.055334],[19.961188,50.055458],[19.96111,50.05561],[19.960969,50.05558],[19.960958,50.055601],[19.960968,50.055603],[19.960966,50.055608],[19.960923,50.0556],[19.96087,50.055588],[19.960872,50.055583],[19.960882,50.055585],[19.960892,50.055564],[19.960748,50.055533],[19.960735,50.055558],[19.960748,50.055561],[19.960697,50.05566],[19.960739,50.055665],[19.960723,50.055697],[19.960709,50.055723],[19.960671,50.055711],[19.960619,50.055812],[19.960606,50.05581],[19.960593,50.055835],[19.961175,50.055958],[19.961096,50.056111],[19.960958,50.056081],[19.960946,50.056104],[19.960955,50.056106],[19.960953,50.056111],[19.960857,50.056091],[19.960869,50.056087],[19.96088,50.056065],[19.960739,50.056035],[19.960727,50.056057],[19.960736,50.056059],[19.960734,50.056064],[19.960638,50.056044],[19.960641,50.056039],[19.96065,50.056041],[19.960662,50.056019],[19.960292,50.05594]]]}},{"type":"Feature","id":"w184238993","properties":{"type":"office","levels":3.0,"address":"Grzegórzecka 69","residential":false,"residents_est":0,"h3_10":"8a1e2e68692ffff","h3_11":"8b1e2e68692dfff"},"geometry":{"type":"Polygon","coordinates":[[[19.962877,50.056725],[19.962945,50.056601],[19.96348,50.056736],[19.963411,50.056858],[19.962877,50.056725]]]}},{"type":"Feature","id":"w184238994","properties":{"type":"yes","levels":3.0,"address":"Grzegórzecka 71","residential":true,"residents_est":7,"h3_10":"8a1e2e68692ffff","h3_11":"8b1e2e68692dfff"},"geometry":{"type":"Polygon","coordinates":[[[19.963418,50.056846],[19.963487,50.056723],[19.964062,50.05686],[19.963966,50.05699],[19.963793,50.056949],[19.9638,50.056938],[19.963418,50.056846]]]}},{"type":"Feature","id":"w184239014","properties":{"type":"yes","residential":true,"residents_est":10,"h3_10":"8a1e2e68692ffff","h3_11":"8b1e2e686929fff"},"geometry":{"type":"Polygon","coordinates":[[[19.963722,50.05678],[19.964002,50.056565],[19.964056,50.056509],[19.964257,50.056573],[19.964173,50.056685],[19.964188,50.05669],[19.964062,50.05686],[19.963722,50.05678]]]}},{"type":"Feature","id":"w204280422","properties":{"type":"apartments","levels":8.0,"address":"Grzegórzecka 67H","residential":true,"residents_est":124,"h3_10":"8a1e2e686907fff","h3_11":"8b1e2e686900fff"},"geometry":{"type":"Polygon","coordinates":[[[19.961346,50.056165],[19.961425,50.056012],[19.961771,50.056086],[19.961787,50.056057],[19.961837,50.055959],[19.961804,50.055952],[19.961801,50.055958],[19.961793,50.055957],[19.961811,50.055921],[19.961825,50.055895],[19.961833,50.055896],[19.96183,50.055902],[19.961862,50.055909],[19.961927,50.055784],[19.961798,50.055756],[19.961787,50.055777],[19.961796,50.055779],[19.961793,50.055785],[19.961697,50.055764],[19.961699,50.055759],[19.961709,50.055761],[19.96172,50.05574],[19.96158,50.05571],[19.961658,50.055558],[19.962243,50.055683],[19.961929,50.056289],[19.961564,50.056212],[19.961553,50.056233],[19.961562,50.056235],[19.96156,50.056239],[19.961515,50.05623],[19.961464,50.056219],[19.961466,50.056214],[19.961476,50.056216],[19.961487,50.056195],[19.961346,50.056165]]]}},{"type":"Feature","id":"w295031381","properties":{"type":"yes","residential":true,"residents_est":0,"h3_10":"8a1e2e6869b7fff","h3_11":"8b1e2e6869b4fff"},"geometry":{"type":"Polygon","coordinates":[[[19.957028,50.053928],[19.957179,50.053904],[19.957183,50.053915],[19.957183,50.053926],[19.957173,50.053939],[19.957133,50.053953],[19.95706,50.053965],[19.957058,50.053959],[19.95704,50.053962],[19.957028,50.053928]]]}},{"type":"Feature","id":"w295031393","properties":{"type":"yes","levels":2.0,"residential":true,"residents_est":1,"h3_10":"8a1e2e6869b7fff","h3_11":"8b1e2e6869b4fff"},"geometry":{"type":"Polygon","coordinates":[[[19.956725,50.053974],[19.957028,50.053928],[19.957041,50.053965],[19.956739,50.054011],[19.956725,50.053974]]]}},{"type":"Feature","id":"w295031396","properties":{"type":"yes","levels":2.0,"residential":true,"residents_est":1,"h3_10":"8a1e2e6869b7fff","h3_11":"8b1e2e6869b1fff"},"geometry":{"type":"Polygon","coordinates":[[[19.957657,50.053536],[19.957732,50.053523],[19.957786,50.053654],[19.957777,50.053655],[19.957801,50.053715],[19.957736,50.053726],[19.957657,50.053536]]]}},{"type":"Feature","id":"w295031399","properties":{"type":"yes","address":"Gęsia 6","residential":true,"residents_est":1,"h3_10":"8a1e2e6869b7fff","h3_11":"8b1e2e6869b4fff"},"geometry":{"type":"Polygon","coordinates":[[[19.956701,50.053909],[19.956949,50.053871],[19.956937,50.053838],[19.956991,50.05383],[19.957028,50.053928],[19.956725,50.053974],[19.956701,50.053909]]]}},{"type":"Feature","id":"w295031400","properties":{"type":"yes","address":"Gęsia 10","residential":true,"residents_est":1,"h3_10":"8a1e2e6869b7fff","h3_11":"8b1e2e6869b4fff"},"geometry":{"type":"Polygon","coordinates":[[[19.956975,50.053786],[19.957134,50.053762],[19.957165,50.053845],[19.957065,50.05386],[19.957087,50.053919],[19.957028,50.053928],[19.956975,50.053786]]]}},{"type":"Feature","id":"w403240370","properties":{"type":"apartments","levels":4.0,"address":"Grzegórzecka 73a","residential":true,"residents_est":16,"h3_10":"8a1e2e686977fff","h3_11":"8b1e2e686970fff"},"geometry":{"type":"Polygon","coordinates":[[[19.964735,50.056476],[19.96476,50.056436],[19.964775,50.056439],[19.964789,50.056417],[19.964773,50.056413],[19.964796,50.056373],[19.964812,50.056377],[19.964838,50.056335],[19.964857,50.05634],[19.964874,50.056312],[19.964839,50.056303],[19.964855,50.056275],[19.964872,50.056279],[19.964886,50.056255],[19.964869,50.056251],[19.964893,50.056212],[19.964909,50.056216],[19.964925,50.056188],[19.965112,50.056234],[19.964923,50.056553],[19.964736,50.056507],[19.964751,50.05648],[19.964735,50.056476]]]}},{"type":"Feature","id":"w403240371","properties":{"type":"apartments","address":"Grzegórzecka 73b","residential":true,"residents_est":19,"h3_10":"8a1e2e686977fff","h3_11":"8b1e2e686973fff"},"geometry":{"type":"Polygon","coordinates":[[[19.964975,50.05607],[19.964999,50.05603],[19.965016,50.056035],[19.96503,50.056011],[19.965014,50.056007],[19.965031,50.055979],[19.965066,50.055987],[19.965081,50.05596],[19.965062,50.055954],[19.965165,50.055782],[19.965333,50.055823],[19.965296,50.055886],[19.965315,50.055891],[19.965163,50.056148],[19.964975,50.056102],[19.964992,50.056074],[19.964975,50.05607]]]}},{"type":"Feature","id":"w403246160","properties":{"type":"yes","residential":true,"residents_est":1,"h3_10":"8a1e2e686977fff","h3_11":"8b1e2e686974fff"},"geometry":{"type":"Polygon","coordinates":[[[19.964716,50.05658],[19.964731,50.056553],[19.964859,50.056584],[19.964832,50.056629],[19.964726,50.056603],[19.964741,50.056579],[19.964723,50.056575],[19.964716,50.05658]]]}},{"type":"Feature","id":"w403246161","properties":{"type":"yes","residential":true,"residents_est":0,"h3_10":"8a1e2e686977fff","h3_11":"8b1e2e686970fff"},"geometry":{"type":"Polygon","coordinates":[[[19.964969,50.056151],[19.964985,50.056124],[19.96499,50.056125],[19.964985,50.056132],[19.965003,50.056136],[19.965016,50.056112],[19.965123,50.056138],[19.965097,50.056182],[19.964969,50.056151]]]}},{"type":"Feature","id":"w427461727","properties":{"type":"apartments","address":"Grzegórzecka 77","residential":true,"residents_est":57,"h3_10":"8a1e2e686967fff","h3_11":"8b1e2e686966fff"},"geometry":{"type":"Polygon","coordinates":[[[19.964941,50.057103],[19.965167,50.056719],[19.965364,50.056768],[19.965194,50.057055],[19.965574,50.057148],[19.965582,50.057133],[19.965593,50.057136],[19.965616,50.057098],[19.965604,50.057096],[19.965743,50.05686],[19.965942,50.056909],[19.965722,50.057283],[19.964941,50.057103]]]}},{"type":"Feature","id":"w427461728","properties":{"type":"apartments","address":"Grzegórzecka 77A","residential":true,"residents_est":57,"h3_10":"8a1e2e686967fff","h3_11":"8b1e2e686962fff"},"geometry":{"type":"Polygon","coordinates":[[[19.965247,50.056578],[19.965469,50.056202],[19.965669,50.05625],[19.965605,50.05636],[19.965587,50.056356],[19.965578,50.05637],[19.965575,50.056376],[19.965592,50.05638],[19.96553,50.056486],[19.965518,50.056483],[19.965496,50.056521],[19.965508,50.056524],[19.965499,50.056538],[19.965877,50.05663],[19.965887,50.056616],[19.965899,50.056619],[19.965921,50.056581],[19.965909,50.056578],[19.965971,50.056473],[19.965989,50.056477],[19.966001,50.056457],[19.965984,50.056452],[19.966035,50.056365],[19.966052,50.056369],[19.966062,50.056351],[19.966045,50.056347],[19.966047,50.056343],[19.966246,50.056391],[19.966024,50.056768],[19.965247,50.056578]]]}},{"type":"Feature","id":"w427461729","properties":{"type":"apartments","address":"Grzegórzecka 77B","residential":true,"residents_est":38,"h3_10":"8a1e2e686947fff","h3_11":"8b1e2e686946fff"},"geometry":{"type":"Polygon","coordinates":[[[19.965552,50.056061],[19.965714,50.055785],[19.965753,50.055795],[19.965756,50.055789],[19.965902,50.055854],[19.965845,50.05595],[19.965828,50.055946],[19.965808,50.055981],[19.965824,50.055985],[19.965803,50.056021],[19.966182,50.056114],[19.966244,50.056008],[19.966424,50.056089],[19.966329,50.056251],[19.965552,50.056061]]]}},{"type":"Feature","id":"w427463239","properties":{"type":"apartments","levels":8.0,"address":"Grzegórzecka 67G","residential":true,"residents_est":125,"h3_10":"8a1e2e68691ffff","h3_11":"8b1e2e68691dfff"},"geometry":{"type":"Polygon","coordinates":[[[19.961781,50.055318],[19.96186,50.055163],[19.962208,50.055237],[19.962273,50.055111],[19.962241,50.055104],[19.962238,50.055111],[19.962229,50.055109],[19.962245,50.055076],[19.962261,50.055046],[19.96227,50.055048],[19.962267,50.055054],[19.962299,50.055061],[19.962314,50.055033],[19.962363,50.054937],[19.962235,50.054909],[19.962224,50.05493],[19.962234,50.054932],[19.962231,50.054938],[19.962133,50.054917],[19.962136,50.054911],[19.962146,50.054913],[19.962157,50.054893],[19.962015,50.054862],[19.962093,50.054711],[19.962679,50.054835],[19.962366,50.055442],[19.962,50.055365],[19.96199,50.055385],[19.961999,50.055387],[19.961997,50.055393],[19.961947,50.055383],[19.961898,50.055372],[19.961902,50.055366],[19.961912,50.055368],[19.961922,50.055348],[19.961781,50.055318]]]}},{"type":"Feature","id":"w477554772","properties":{"type":"apartments","levels":6.0,"address":"Zabłocie 28","residential":true,"residents_est":33,"h3_10":"8a1e2e6868c7fff","h3_11":"8b1e2e6868c5fff"},"geometry":{"type":"Polygon","coordinates":[[[19.96631,50.050849],[19.966364,50.050844],[19.96636,50.050828],[19.966466,50.050817],[19.96647,50.050832],[19.96652,50.050828],[19.966524,50.050846],[19.966556,50.050843],[19.966584,50.050954],[19.966565,50.050956],[19.966612,50.051144],[19.966593,50.051147],[19.966612,50.051229],[19.966628,50.051227],[19.966634,50.051247],[19.966617,50.051249],[19.966626,50.051285],[19.966443,50.051304],[19.966413,50.051181],[19.966393,50.051183],[19.966371,50.051093],[19.966412,50.051089],[19.966405,50.051062],[19.966417,50.05106],[19.96641,50.051021],[19.966335,50.051028],[19.966311,50.050931],[19.96633,50.050929],[19.96631,50.050849]]]}},{"type":"Feature","id":"w477554942","properties":{"type":"apartments","levels":6.0,"address":"Zabłocie 24","residential":true,"residents_est":32,"h3_10":"8a1e2e6868effff","h3_11":"8b1e2e6868eafff"},"geometry":{"type":"Polygon","coordinates":[[[19.967636,50.050747],[19.967757,50.050734],[19.967767,50.050774],[19.967786,50.050772],[19.967793,50.050799],[19.967812,50.050797],[19.967819,50.050824],[19.967838,50.050822],[19.967857,50.050897],[19.967876,50.050896],[19.967885,50.050932],[19.967874,50.050934],[19.967895,50.051015],[19.967906,50.051014],[19.967949,50.051189],[19.967693,50.051215],[19.967682,50.051167],[19.967664,50.051168],[19.967658,50.051147],[19.967674,50.051145],[19.967665,50.051105],[19.967684,50.051103],[19.967657,50.050994],[19.967677,50.050992],[19.967657,50.050911],[19.967676,50.050909],[19.967636,50.050747]]]}},{"type":"Feature","id":"w477555104","properties":{"type":"apartments","levels":6.0,"address":"Zabłocie 26","residential":true,"residents_est":54,"h3_10":"8a1e2e6868c7fff","h3_11":"8b1e2e6868c5fff"},"geometry":{"type":"Polygon","coordinates":[[[19.966806,50.051177],[19.966862,50.051172],[19.966853,50.051137],[19.96706,50.051112],[19.96703,50.05099],[19.967011,50.050992],[19.966956,50.050768],[19.966975,50.050766],[19.966967,50.050733],[19.967057,50.050724],[19.967061,50.050737],[19.9671,50.050733],[19.967097,50.05072],[19.967154,50.050714],[19.967162,50.050744],[19.967181,50.050742],[19.967219,50.050896],[19.9672,50.050898],[19.967218,50.050971],[19.967199,50.050973],[19.967229,50.051095],[19.967417,50.051075],[19.967423,50.051095],[19.967442,50.051093],[19.967447,50.051112],[19.967501,50.051106],[19.967526,50.051205],[19.96735,50.051223],[19.967347,50.051211],[19.967202,50.051226],[19.967199,50.051213],[19.967148,50.051218],[19.96715,50.051231],[19.967002,50.051246],[19.967005,50.051259],[19.966832,50.051277],[19.966806,50.051177]]]}},{"type":"Feature","id":"w493922111","properties":{"type":"office","levels":3.0,"name":"ATAL Residence Zabłocie IV","residential":false,"residents_est":0,"h3_10":"8a1e2e686897fff","h3_11":"8b1e2e686891fff"},"geometry":{"type":"Polygon","coordinates":[[[19.960657,50.049359],[19.960894,50.049323],[19.961267,50.050257],[19.961252,50.050275],[19.961097,50.050298],[19.961053,50.050198],[19.961031,50.050194],[19.961024,50.050176],[19.961038,50.050168],[19.961034,50.05016],[19.961004,50.050159],[19.960974,50.050143],[19.960777,50.049627],[19.960756,50.049628],[19.960657,50.049359]]]}},{"type":"Feature","id":"w493922112","properties":{"type":"apartments","levels":8.0,"address":"Zabłocie 12","name":"ATAL Residence Zabłocie I","residential":true,"residents_est":184,"h3_10":"8a1e2e686897fff","h3_11":"8b1e2e686890fff"},"geometry":{"type":"Polygon","coordinates":[[[19.959818,50.049896],[19.959835,50.049762],[19.959919,50.049767],[19.959921,50.049749],[19.960011,50.049754],[19.960008,50.049772],[19.960127,50.049778],[19.96013,50.04976],[19.960179,50.049763],[19.960177,50.049781],[19.960247,50.049788],[19.960321,50.049775],[19.960248,50.049591],[19.960289,50.049584],[19.960283,50.049568],[19.960242,50.049575],[19.960187,50.049437],[19.9605,50.049386],[19.960738,50.049992],[19.960717,50.049995],[19.960736,50.050044],[19.960757,50.05004],[19.960788,50.050121],[19.960769,50.050124],[19.960788,50.050176],[19.960808,50.050172],[19.960861,50.050306],[19.960841,50.050309],[19.960852,50.050337],[19.960595,50.050378],[19.960584,50.050352],[19.960494,50.050366],[19.960436,50.050363],[19.960432,50.05038],[19.960391,50.050378],[19.96039,50.050385],[19.9603,50.050384],[19.960302,50.050365],[19.960262,50.050363],[19.960281,50.050243],[19.960495,50.050256],[19.960469,50.050187],[19.960441,50.050167],[19.960421,50.05014],[19.960384,50.050045],[19.960465,50.050032],[19.960459,50.050016],[19.960418,50.050022],[19.960364,50.049886],[19.960283,50.049899],[19.960276,50.049881],[19.960246,50.049886],[19.960242,50.049919],[19.96021,50.049917],[19.960208,50.049936],[19.960107,50.04993],[19.96011,50.049912],[19.960034,50.049908],[19.960032,50.049926],[19.959982,50.049923],[19.959985,50.049905],[19.959958,50.049903],[19.959956,50.049922],[19.959858,50.049917],[19.95986,50.049898],[19.959818,50.049896]]]}},{"type":"Feature","id":"w502468730","properties":{"type":"commercial","levels":6.0,"address":"Kotlarska 11","name":"Kotlarska 11","residential":false,"residents_est":0,"h3_10":"8a1e2e6869a7fff","h3_11":"8b1e2e6869a0fff"},"geometry":{"type":"Polygon","coordinates":[[[19.958435,50.05426],[19.958893,50.054193],[19.959138,50.054116],[19.959249,50.054177],[19.959171,50.054377],[19.959092,50.054389],[19.959126,50.054493],[19.959062,50.054658],[19.958598,50.054724],[19.958435,50.05426]]]}},{"type":"Feature","id":"w503263832","properties":{"type":"industrial","levels":1.0,"residential":false,"residents_est":0,"h3_10":"8a1e2e686917fff","h3_11":"8b1e2e686910fff"},"geometry":{"type":"Polygon","coordinates":[[[19.960108,50.055357],[19.96039,50.054893],[19.96051,50.054923],[19.960227,50.055387],[19.960108,50.055357]]]}},{"type":"Feature","id":"w503263834","properties":{"type":"apartments","levels":6.0,"residential":true,"residents_est":35,"h3_10":"8a1e2e6869a7fff","h3_11":"8b1e2e6869a2fff"},"geometry":{"type":"Polygon","coordinates":[[[19.957898,50.053996],[19.958521,50.05393],[19.958593,50.054119],[19.958388,50.054133],[19.958361,50.054058],[19.958131,50.054091],[19.958154,50.054166],[19.957961,50.054213],[19.957898,50.053996]]]}},{"type":"Feature","id":"w507735612","properties":{"type":"service","residential":false,"residents_est":0,"h3_10":"8a1e2e6868d7fff","h3_11":"8b1e2e6868d1fff"},"geometry":{"type":"Polygon","coordinates":[[[19.965629,50.049856],[19.96568,50.049847],[19.96574,50.049984],[19.96569,50.049993],[19.965629,50.049856]]]}},{"type":"Feature","id":"w507735613","properties":{"type":"service","residential":false,"residents_est":0,"h3_10":"8a1e2e6868c7fff","h3_11":"8b1e2e6868c4fff"},"geometry":{"type":"Polygon","coordinates":[[[19.966097,50.051091],[19.96615,50.051082],[19.966189,50.051186],[19.966137,50.051194],[19.966097,50.051091]]]}},{"type":"Feature","id":"w522102944","properties":{"type":"apartments","address":"Grzegórzecka 79E","residential":true,"residents_est":63,"h3_10":"8a1e2e686967fff","h3_11":"8b1e2e686963fff"},"geometry":{"type":"Polygon","coordinates":[[[19.966319,50.056811],[19.966377,50.0567],[19.966917,50.056829],[19.967058,50.056572],[19.966573,50.056359],[19.966671,50.056255],[19.967288,50.056531],[19.967037,50.056977],[19.966319,50.056811]]]}},{"type":"Feature","id":"w522102945","properties":{"type":"apartments","address":"Grzegórzecka 79F","residential":true,"residents_est":48,"h3_10":"8a1e2e68696ffff","h3_11":"8b1e2e68696cfff"},"geometry":{"type":"Polygon","coordinates":[[[19.967399,50.057058],[19.9676,50.056692],[19.967774,50.056737],[19.967632,50.056994],[19.967742,50.05702],[19.967753,50.057009],[19.967968,50.057058],[19.967963,50.057072],[19.968094,50.057099],[19.968116,50.057068],[19.968094,50.057061],[19.968168,50.056943],[19.968267,50.056965],[19.968264,50.056983],[19.968336,50.056997],[19.968194,50.057236],[19.967399,50.057058]]]}},{"type":"Feature","id":"w524842376","properties":{"type":"apartments","levels":8.0,"address":"Grzegórzecka 67F","residential":true,"residents_est":62,"h3_10":"8a1e2e68691ffff","h3_11":"8b1e2e686919fff"},"geometry":{"type":"Polygon","coordinates":[[[19.962149,50.054544],[19.962221,50.054401],[19.962243,50.054403],[19.962251,50.054393],[19.962394,50.054408],[19.962686,50.05442],[19.963031,50.054406],[19.963039,50.054462],[19.962985,50.054569],[19.962852,50.054579],[19.962854,50.054602],[19.962742,50.054607],[19.96274,50.054584],[19.962626,50.054585],[19.962497,50.054577],[19.962492,50.054603],[19.962442,50.0546],[19.962389,50.054595],[19.962393,50.054571],[19.962149,50.054544]]]}},{"type":"Feature","id":"w531423681","properties":{"type":"apartments","levels":10.0,"address":"Grzegórzecka 69B","residential":true,"residents_est":139,"h3_10":"8a1e2e68692ffff","h3_11":"8b1e2e68692afff"},"geometry":{"type":"Polygon","coordinates":[[[19.962458,50.056449],[19.962463,50.056429],[19.962481,50.056404],[19.96253,50.05636],[19.962593,50.056313],[19.962665,50.056271],[19.962778,50.056213],[19.962889,50.056166],[19.963019,50.056122],[19.963247,50.056069],[19.963425,50.056052],[19.963498,50.056061],[19.963533,50.056082],[19.963543,50.056101],[19.963539,50.056132],[19.96352,50.056157],[19.963408,50.056248],[19.963224,50.056348],[19.963106,50.056398],[19.962982,50.056439],[19.962755,50.056492],[19.962577,50.056509],[19.962518,50.056504],[19.962478,50.056488],[19.962462,50.05647],[19.962458,50.056449]]]}},{"type":"Feature","id":"w531423683","properties":{"type":"apartments","levels":10.0,"address":"Grzegórzecka 69c","residential":true,"residents_est":119,"h3_10":"8a1e2e68690ffff","h3_11":"8b1e2e68690cfff"},"geometry":{"type":"Polygon","coordinates":[[[19.962719,50.055829],[19.962725,50.055802],[19.962745,50.055778],[19.962776,50.05576],[19.962816,50.05575],[19.962858,50.055749],[19.962955,50.055763],[19.962992,50.055758],[19.963026,50.055745],[19.96305,50.055726],[19.963121,50.055597],[19.963155,50.055564],[19.963201,50.055541],[19.963255,50.055527],[19.963313,50.055522],[19.96337,50.055526],[19.963781,50.055615],[19.963804,50.055628],[19.963815,50.055647],[19.963813,50.055666],[19.963778,50.055735],[19.963763,50.055752],[19.963738,50.055763],[19.963679,50.055761],[19.963406,50.055706],[19.963368,50.055711],[19.963335,50.055724],[19.963311,50.055743],[19.963242,50.055873],[19.963207,50.055903],[19.963161,50.055926],[19.963107,50.055941],[19.963049,50.055946],[19.962991,50.055941],[19.962782,50.055896],[19.962749,50.055879],[19.962727,50.055856],[19.962719,50.055829]]]}},{"type":"Feature","id":"w531423685","properties":{"type":"construction","levels":10.0,"residential":false,"residents_est":0,"h3_10":"8a1e2e686977fff","h3_11":"8b1e2e686976fff"},"geometry":{"type":"Polygon","coordinates":[[[19.963576,50.056435],[19.963582,50.056408],[19.963602,50.056384],[19.963634,50.056366],[19.963945,50.056246],[19.963912,50.055954],[19.963917,50.055927],[19.963936,50.055903],[19.963966,50.055884],[19.964005,50.055873],[19.964064,50.05587],[19.964105,50.055878],[19.964139,50.055894],[19.964159,50.055917],[19.964167,50.055954],[19.964289,50.055948],[19.964329,50.055957],[19.964362,50.055974],[19.964384,50.055997],[19.964393,50.056023],[19.964387,50.05605],[19.964367,50.056074],[19.964335,50.056092],[19.964205,50.056112],[19.964191,50.056123],[19.964212,50.056279],[19.964206,50.056306],[19.964186,50.05633],[19.964154,50.056348],[19.963761,50.056499],[19.963722,50.056509],[19.96368,50.05651],[19.963639,50.056502],[19.963606,50.056485],[19.963584,50.056462],[19.963576,50.056435]]]}},{"type":"Feature","id":"w531423687","properties":{"type":"apartments","levels":10.0,"address":"Grzegórzecka 69D","residential":true,"residents_est":239,"h3_10":"8a1e2e68690ffff","h3_11":"8b1e2e68690bfff"},"geometry":{"type":"Polygon","coordinates":[[[19.963016,50.05523],[19.963027,50.055205],[19.963066,50.055178],[19.963133,50.055167],[19.963357,50.055155],[19.96338,50.055148],[19.963396,50.055135],[19.963402,50.0551],[19.96335,50.054702],[19.96337,50.054668],[19.963407,50.054635],[19.963441,50.054616],[19.963515,50.054602],[19.963652,50.054598],[19.963775,50.054616],[19.9642,50.054746],[19.96426,50.054779],[19.96428,50.054815],[19.964278,50.05485],[19.964255,50.054881],[19.96422,50.054902],[19.964176,50.05491],[19.964127,50.05491],[19.963776,50.054803],[19.963721,50.054809],[19.963697,50.054818],[19.963658,50.054839],[19.963643,50.054862],[19.963638,50.054891],[19.963655,50.055067],[19.963653,50.055095],[19.963692,50.055133],[19.963738,50.055144],[19.964009,50.055134],[19.964045,50.055149],[19.964069,50.055171],[19.964078,50.055233],[19.964072,50.05526],[19.964051,50.055283],[19.963965,50.055304],[19.963106,50.055338],[19.963054,50.055325],[19.963026,50.055298],[19.963016,50.05523]]]}},{"type":"Feature","id":"w531423693","properties":{"type":"apartments","levels":10.0,"address":"Grzegórzecka 69e","residential":true,"residents_est":142,"h3_10":"8a1e2e686957fff","h3_11":"8b1e2e686954fff"},"geometry":{"type":"Polygon","coordinates":[[[19.964142,50.055448],[19.96416,50.055416],[19.964204,50.055401],[19.964671,50.055379],[19.964651,50.055236],[19.964395,50.055065],[19.96438,50.055047],[19.964373,50.055027],[19.964385,50.054988],[19.96443,50.054959],[19.964495,50.05495],[19.964555,50.054966],[19.964836,50.055154],[19.96487,50.055198],[19.964897,50.055421],[19.964894,50.055442],[19.964869,50.05548],[19.964813,50.055511],[19.964778,50.055519],[19.964645,50.055525],[19.964665,50.055718],[19.964652,50.055743],[19.964635,50.055753],[19.964614,50.055759],[19.964505,50.055765],[19.96447,50.055755],[19.964447,50.055732],[19.964424,50.055535],[19.964212,50.055545],[19.964191,50.05554],[19.964173,50.055532],[19.964152,50.055511],[19.964142,50.055448]]]}},{"type":"Feature","id":"w531650657","properties":{"type":"apartments","levels":8.0,"name":"ATAL Residence Zabłocie II","residential":true,"residents_est":62,"h3_10":"8a1e2e686897fff","h3_11":"8b1e2e686894fff"},"geometry":{"type":"Polygon","coordinates":[[[19.959319,50.050248],[19.959442,50.050134],[19.959472,50.050126],[19.959605,50.050179],[19.9597,50.050184],[19.959694,50.050202],[19.959729,50.050204],[19.95973,50.050186],[19.959825,50.050191],[19.959822,50.050209],[19.959857,50.050211],[19.959856,50.050193],[19.959949,50.050198],[19.959947,50.050216],[19.959982,50.050218],[19.959985,50.050199],[19.960075,50.050205],[19.960072,50.050223],[19.960107,50.050224],[19.96011,50.050207],[19.960204,50.050212],[19.960197,50.050229],[19.960232,50.050231],[19.960234,50.050213],[19.960284,50.050216],[19.960262,50.050363],[19.96018,50.050357],[19.960177,50.050382],[19.960003,50.050372],[19.960006,50.05035],[19.95993,50.050345],[19.959927,50.050367],[19.959755,50.050356],[19.959756,50.050336],[19.959676,50.050331],[19.959674,50.050348],[19.959584,50.05034],[19.959587,50.050317],[19.959551,50.050315],[19.959547,50.050328],[19.959525,50.050327],[19.959465,50.050302],[19.959475,50.050292],[19.959413,50.050263],[19.959394,50.050281],[19.959319,50.050248]]]}},{"type":"Feature","id":"w552531282","properties":{"type":"apartments","levels":8.0,"address":"Profesora Marka Stachowskiego 4","name":"Pianissimo","residential":true,"residents_est":147,"h3_10":"8a1e2e686827fff","h3_11":"8b1e2e686823fff"},"geometry":{"type":"Polygon","coordinates":[[[19.962906,50.054069],[19.962916,50.053992],[19.962941,50.053967],[19.962963,50.053962],[19.962995,50.053969],[19.963132,50.053975],[19.963158,50.053971],[19.963194,50.053977],[19.963217,50.053988],[19.963359,50.053995],[19.963417,50.053983],[19.963473,50.054001],[19.963623,50.054007],[19.963672,50.053995],[19.963729,50.054013],[19.963893,50.054021],[19.963952,50.054009],[19.964001,50.054025],[19.964149,50.054033],[19.964209,50.054021],[19.964258,50.054037],[19.964383,50.054044],[19.96442,50.054034],[19.96446,50.054034],[19.964493,50.054048],[19.964588,50.05406],[19.964601,50.054072],[19.964572,50.054228],[19.964585,50.054293],[19.964615,50.054327],[19.9646,50.054366],[19.964611,50.054414],[19.9646,50.054423],[19.964548,50.054428],[19.96455,50.054435],[19.964517,50.054438],[19.964516,50.054431],[19.964399,50.054442],[19.964393,50.054415],[19.964376,50.054416],[19.96434,50.054371],[19.964331,50.054323],[19.964305,50.054324],[19.964283,50.054216],[19.964305,50.054214],[19.964306,50.054201],[19.964146,50.054194],[19.964144,50.054211],[19.963971,50.054203],[19.963972,50.054188],[19.963905,50.054184],[19.963904,50.0542],[19.963668,50.054189],[19.96367,50.054172],[19.963311,50.054156],[19.963313,50.054141],[19.96313,50.054132],[19.963047,50.05412],[19.962926,50.054089],[19.962912,50.054082],[19.962906,50.054069]]]}},{"type":"Feature","id":"w560485536","properties":{"type":"service","levels":1.0,"residential":false,"residents_est":0,"h3_10":"8a1e2e686907fff","h3_11":"8b1e2e686904fff"},"geometry":{"type":"Polygon","coordinates":[[[19.960912,50.056303],[19.96093,50.056268],[19.961067,50.056298],[19.961049,50.056333],[19.960912,50.056303]]]}},{"type":"Feature","id":"w560485537","properties":{"type":"yes","levels":3.0,"residential":true,"residents_est":2,"h3_10":"8a1e2e686937fff","h3_11":"8b1e2e686931fff"},"geometry":{"type":"Polygon","coordinates":[[[19.960483,50.056231],[19.960514,50.056172],[19.960863,50.056248],[19.960833,50.056307],[19.960483,50.056231]]]}},{"type":"Feature","id":"w560485539","properties":{"type":"service","levels":1.0,"residential":false,"residents_est":0,"h3_10":"8a1e2e6869affff","h3_11":"8b1e2e6869adfff"},"geometry":{"type":"Polygon","coordinates":[[[19.960755,50.054503],[19.960791,50.054433],[19.96083,50.054441],[19.960795,50.054511],[19.960755,50.054503]]]}},{"type":"Feature","id":"w560485542","properties":{"type":"industrial","levels":1.0,"residential":false,"residents_est":0,"h3_10":"8a1e2e686917fff","h3_11":"8b1e2e686913fff"},"geometry":{"type":"Polygon","coordinates":[[[19.960458,50.054551],[19.960509,50.054479],[19.960649,50.054456],[19.960744,50.054468],[19.960689,50.054669],[19.960589,50.054658],[19.960629,50.054523],[19.960458,50.054551]]]}},{"type":"Feature","id":"w560485543","properties":{"type":"industrial","levels":1.0,"residential":false,"residents_est":0,"h3_10":"8a1e2e6869affff","h3_11":"8b1e2e6869acfff"},"geometry":{"type":"Polygon","coordinates":[[[19.960042,50.054551],[19.960373,50.054498],[19.960395,50.054554],[19.960064,50.054607],[19.960042,50.054551]]]}},{"type":"Feature","id":"w560485549","properties":{"type":"service","residential":false,"residents_est":0,"h3_10":"8a1e2e686917fff","h3_11":"8b1e2e686915fff"},"geometry":{"type":"Polygon","coordinates":[[[19.960195,50.055596],[19.960245,50.055505],[19.960289,50.055515],[19.96024,50.055606],[19.960195,50.055596]]]}},{"type":"Feature","id":"w560485553","properties":{"type":"apartments","levels":5.0,"residential":true,"residents_est":5,"h3_10":"8a1e2e686937fff","h3_11":"8b1e2e686930fff"},"geometry":{"type":"Polygon","coordinates":[[[19.959435,50.056212],[19.959439,50.056098],[19.959605,50.056101],[19.959602,50.056214],[19.959435,50.056212]]]}},{"type":"Feature","id":"w560485554","properties":{"type":"apartments","levels":5.0,"residential":true,"residents_est":11,"h3_10":"8a1e2e686937fff","h3_11":"8b1e2e686934fff"},"geometry":{"type":"Polygon","coordinates":[[[19.959427,50.056452],[19.959435,50.056212],[19.959602,50.056214],[19.959594,50.056454],[19.959427,50.056452]]]}},{"type":"Feature","id":"w560485555","properties":{"type":"apartments","levels":5.0,"residential":true,"residents_est":9,"h3_10":"8a1e2e686937fff","h3_11":"8b1e2e686934fff"},"geometry":{"type":"Polygon","coordinates":[[[19.959422,50.056615],[19.959427,50.056452],[19.959594,50.056454],[19.959592,50.056499],[19.959673,50.0565],[19.959671,50.056571],[19.95959,50.05657],[19.959589,50.056617],[19.959422,50.056615]]]}},{"type":"Feature","id":"w560485556","properties":{"type":"apartments","levels":5.0,"residential":true,"residents_est":9,"h3_10":"8a1e2e686937fff","h3_11":"8b1e2e686930fff"},"geometry":{"type":"Polygon","coordinates":[[[19.959439,50.056098],[19.959443,50.055973],[19.959523,50.055974],[19.959524,50.05593],[19.959652,50.055931],[19.959646,50.056101],[19.959439,50.056098]]]}},{"type":"Feature","id":"w560485557","properties":{"type":"apartments","levels":7.0,"residential":true,"residents_est":15,"h3_10":"8a1e2e686937fff","h3_11":"8b1e2e686932fff"},"geometry":{"type":"Polygon","coordinates":[[[19.959508,50.05593],[19.959512,50.055798],[19.959818,50.055802],[19.959814,50.055934],[19.959508,50.05593]]]}},{"type":"Feature","id":"w560485558","properties":{"type":"apartments","levels":5.0,"residential":true,"residents_est":10,"h3_10":"8a1e2e686937fff","h3_11":"8b1e2e686934fff"},"geometry":{"type":"Polygon","coordinates":[[[19.959417,50.05679],[19.959422,50.056615],[19.959589,50.056617],[19.959588,50.056646],[19.959662,50.056646],[19.959659,50.05675],[19.959594,50.056749],[19.959592,50.056792],[19.959417,50.05679]]]}},{"type":"Feature","id":"w562871679","properties":{"type":"yes","residential":true,"residents_est":1,"h3_10":"8a1e2e6869a7fff","h3_11":"8b1e2e6869a3fff"},"geometry":{"type":"Polygon","coordinates":[[[19.958813,50.053884],[19.958879,50.053874],[19.959062,50.053994],[19.958864,50.054024],[19.958813,50.053884]]]}},{"type":"Feature","id":"w562871688","properties":{"type":"yes","address":"Gęsia 12","residential":true,"residents_est":13,"h3_10":"8a1e2e6869b7fff","h3_11":"8b1e2e6869b0fff"},"geometry":{"type":"Polygon","coordinates":[[[19.957085,50.053631],[19.957639,50.053545],[19.957714,50.053743],[19.957159,50.053829],[19.957085,50.053631]]]}},{"type":"Feature","id":"w569687955","properties":{"type":"yes","residential":true,"residents_est":22,"h3_10":"8a1e2e68689ffff","h3_11":"8b1e2e686899fff"},"geometry":{"type":"Polygon","coordinates":[[[19.962076,50.049059],[19.962288,50.049023],[19.962426,50.04935],[19.962471,50.049342],[19.962531,50.049486],[19.96253,50.049511],[19.962545,50.049546],[19.962565,50.049567],[19.962624,50.049707],[19.962609,50.04971],[19.96262,50.049737],[19.962644,50.049754],[19.96249,50.049781],[19.96254,50.0499],[19.962583,50.049892],[19.962636,50.049999],[19.962496,50.05003],[19.962405,50.049837],[19.962427,50.049832],[19.962422,50.049818],[19.962398,50.049822],[19.96239,50.049793],[19.96244,50.049784],[19.962435,50.049771],[19.962386,50.049779],[19.962338,50.049644],[19.962514,50.049614],[19.962494,50.049566],[19.962318,50.049596],[19.962297,50.04956],[19.962338,50.049552],[19.962332,50.049538],[19.962288,50.049546],[19.96225,50.049465],[19.962209,50.049336],[19.962184,50.049279],[19.962222,50.049273],[19.962216,50.049259],[19.962179,50.049265],[19.962113,50.049153],[19.962076,50.049059]]]}},{"type":"Feature","id":"w693884117","properties":{"type":"yes","levels":8.0,"address":"Ślusarska 5","residential":true,"residents_est":24,"h3_10":"8a1e2e68689ffff","h3_11":"8b1e2e68689afff"},"geometry":{"type":"Polygon","coordinates":[[[19.961617,50.049099],[19.961879,50.049047],[19.96206,50.04947],[19.961849,50.049512],[19.961841,50.049492],[19.961807,50.049497],[19.961643,50.049119],[19.961627,50.049122],[19.961617,50.049099]]]}},{"type":"Feature","id":"w693884123","properties":{"type":"yes","residential":true,"residents_est":1,"h3_10":"8a1e2e68689ffff","h3_11":"8b1e2e686898fff"},"geometry":{"type":"Polygon","coordinates":[[[19.961527,50.049435],[19.961559,50.049416],[19.961595,50.049422],[19.961691,50.049649],[19.961617,50.049661],[19.961527,50.049435]]]}},{"type":"Feature","id":"w693884125","properties":{"type":"yes","residential":true,"residents_est":1,"h3_10":"8a1e2e68689ffff","h3_11":"8b1e2e68689cfff"},"geometry":{"type":"Polygon","coordinates":[[[19.9614,50.050022],[19.961509,50.050005],[19.961571,50.05012],[19.96152,50.050126],[19.961534,50.050161],[19.961463,50.050172],[19.9614,50.050022]]]}},{"type":"Feature","id":"w693884127","properties":{"type":"service","levels":1.0,"residential":false,"residents_est":0,"h3_10":"8a1e2e686897fff","h3_11":"8b1e2e686890fff"},"geometry":{"type":"Polygon","coordinates":[[[19.959963,50.050105],[19.959967,50.050077],[19.960071,50.050083],[19.960067,50.050111],[19.959963,50.050105]]]}},{"type":"Feature","id":"w709690640","properties":{"type":"service","residential":false,"residents_est":0,"h3_10":"8a1e2e6868d7fff","h3_11":"8b1e2e6868d1fff"},"geometry":{"type":"Polygon","coordinates":[[[19.96569,50.049993],[19.96574,50.049984],[19.96577,50.050053],[19.965718,50.050063],[19.96569,50.049993]]]}},{"type":"Feature","id":"w709690641","properties":{"type":"yes","residential":false,"residents_est":0,"h3_10":"8a1e2e6868c7fff","h3_11":"8b1e2e6868c4fff"},"geometry":{"type":"Polygon","coordinates":[[[19.966144,50.051208],[19.966175,50.051203],[19.9662,50.051262],[19.966168,50.051268],[19.966144,50.051208]]]}},{"type":"Feature","id":"w709690642","properties":{"type":"yes","residential":false,"residents_est":0,"h3_10":"8a1e2e6868f7fff","h3_11":"8b1e2e6868f4fff"},"geometry":{"type":"Polygon","coordinates":[[[19.964032,50.051261],[19.964066,50.051258],[19.964082,50.051331],[19.964049,50.051334],[19.964032,50.051261]]]}},{"type":"Feature","id":"w709690643","properties":{"type":"service","residential":false,"residents_est":0,"h3_10":"8a1e2e68681ffff","h3_11":"8b1e2e68681afff"},"geometry":{"type":"Polygon","coordinates":[[[19.96383,50.051842],[19.963831,50.051799],[19.963898,50.051799],[19.963897,50.051842],[19.96383,50.051842]]]}},{"type":"Feature","id":"w709881739","properties":{"type":"yes","residential":true,"residents_est":1,"h3_10":"8a1e2e6868cffff","h3_11":"8b1e2e6868cafff"},"geometry":{"type":"Polygon","coordinates":[[[19.968047,50.050098],[19.96821,50.050052],[19.968245,50.0501],[19.968083,50.050146],[19.968047,50.050098]]]}},{"type":"Feature","id":"w709881772","properties":{"type":"yes","residential":true,"residents_est":0,"h3_10":"8a1e2e6868cffff","h3_11":"8b1e2e6868c9fff"},"geometry":{"type":"Polygon","coordinates":[[[19.968835,50.050109],[19.968938,50.050091],[19.968965,50.05015],[19.968864,50.050169],[19.968835,50.050109]]]}},{"type":"Feature","id":"w709881774","properties":{"type":"yes","residential":true,"residents_est":1,"h3_10":"8a1e2e6868cffff","h3_11":"8b1e2e6868cbfff"},"geometry":{"type":"Polygon","coordinates":[[[19.968519,50.050155],[19.968609,50.050137],[19.968616,50.050149],[19.968608,50.05015],[19.968667,50.050273],[19.968583,50.05029],[19.968519,50.050155]]]}},{"type":"Feature","id":"w710495478","properties":{"type":"yes","residential":true,"residents_est":1,"h3_10":"8a1e2e6868b7fff","h3_11":"8b1e2e6868b3fff"},"geometry":{"type":"Polygon","coordinates":[[[19.95982,50.050601],[19.95983,50.05053],[19.959997,50.050539],[19.959993,50.050573],[19.96,50.050577],[19.959987,50.05061],[19.95982,50.050601]]]}},{"type":"Feature","id":"w758781161","properties":{"type":"university","levels":5.0,"address":"Gustawa Herlinga-Grudzińskiego 1","residential":false,"residents_est":0,"h3_10":"8a1e2e6868d7fff","h3_11":"8b1e2e6868d0fff"},"geometry":{"type":"Polygon","coordinates":[[[19.964805,50.050136],[19.965568,50.050061],[19.965606,50.050218],[19.964843,50.050294],[19.964805,50.050136]]]}},{"type":"Feature","id":"w1002051576","properties":{"type":"apartments","address":"Zabłocie 27","residential":true,"residents_est":39,"h3_10":"8a1e2e68689ffff","h3_11":"8b1e2e68689dfff"},"geometry":{"type":"Polygon","coordinates":[[[19.961546,50.050071],[19.962021,50.049966],[19.96191,50.049757],[19.962162,50.049712],[19.962165,50.049719],[19.962104,50.049729],[19.962125,50.049779],[19.962172,50.049771],[19.962174,50.049777],[19.962128,50.049785],[19.962134,50.049799],[19.96218,50.049791],[19.962286,50.050034],[19.962197,50.050061],[19.96219,50.050046],[19.962167,50.050051],[19.962175,50.050067],[19.961952,50.050129],[19.9619,50.050114],[19.961867,50.050121],[19.96188,50.050144],[19.961629,50.0502],[19.961635,50.050212],[19.961627,50.050214],[19.961546,50.050071]]]}},{"type":"Feature","id":"w1018503366","properties":{"type":"dormitory","levels":11.0,"name":"Student Depot","residential":true,"residents_est":158,"h3_10":"8a1e2e686927fff","h3_11":"8b1e2e686925fff"},"geometry":{"type":"Polygon","coordinates":[[[19.961312,50.057885],[19.961351,50.057323],[19.961372,50.057323],[19.961374,50.057294],[19.96138,50.057199],[19.961359,50.057199],[19.961378,50.056927],[19.961642,50.056897],[19.961558,50.058003],[19.961312,50.057885]]]}},{"type":"Feature","id":"w1039863595","properties":{"type":"outbuilding","levels":1.0,"residential":false,"residents_est":0,"h3_10":"8a1e2e686827fff","h3_11":"8b1e2e686824fff"},"geometry":{"type":"Polygon","coordinates":[[[19.963166,50.054614],[19.963216,50.054502],[19.963267,50.054488],[19.963296,50.05449],[19.963343,50.054508],[19.963356,50.054523],[19.963357,50.05454],[19.963307,50.054633],[19.963286,50.054653],[19.963242,50.05466],[19.963195,50.054651],[19.963175,50.054637],[19.963166,50.054614]]]}},{"type":"Feature","id":"w1060103543","properties":{"type":"residential","address":"Grzegórzecka 79D","residential":true,"residents_est":35,"h3_10":"8a1e2e686967fff","h3_11":"8b1e2e686965fff"},"geometry":{"type":"Polygon","coordinates":[[[19.966022,50.057339],[19.966086,50.057223],[19.966628,50.057347],[19.966669,50.057273],[19.966687,50.057277],[19.966704,50.057246],[19.966687,50.057242],[19.966782,50.057072],[19.966969,50.057114],[19.966817,50.057388],[19.966888,50.057404],[19.966822,50.057522],[19.966022,50.057339]]]}},{"type":"Feature","id":"w1146821472","properties":{"type":"residential","residential":true,"residents_est":31,"h3_10":"8a1e2e68690ffff","h3_11":"8b1e2e68690cfff"},"geometry":{"type":"Polygon","coordinates":[[[19.962617,50.056083],[19.962618,50.05603],[19.962719,50.055829],[19.962727,50.055856],[19.962749,50.055879],[19.962782,50.055896],[19.962991,50.055941],[19.963049,50.055946],[19.963107,50.055941],[19.963161,50.055926],[19.963207,50.055903],[19.963205,50.055969],[19.963243,50.056007],[19.963312,50.056037],[19.963425,50.056052],[19.963247,50.056069],[19.963019,50.056122],[19.962889,50.056166],[19.96272,50.056242],[19.962652,50.056166],[19.962617,50.056083]]]}},{"type":"Feature","id":"w1211097388","properties":{"type":"service","residential":false,"residents_est":0,"h3_10":"8a1e2e6868cffff","h3_11":"8b1e2e6868cefff"},"geometry":{"type":"Polygon","coordinates":[[[19.967226,50.050417],[19.967308,50.050396],[19.967342,50.050452],[19.967264,50.050473],[19.967226,50.050417]]]}},{"type":"Feature","id":"w1252946298","properties":{"type":"service","residential":false,"residents_est":0,"h3_10":"8a1e2e686957fff","h3_11":"8b1e2e686953fff"},"geometry":{"type":"Polygon","coordinates":[[[19.965316,50.054767],[19.965318,50.054743],[19.965412,50.054746],[19.96541,50.05477],[19.965316,50.054767]]]}},{"type":"Feature","id":"w1255734893","properties":{"type":"shed","residential":false,"residents_est":0,"h3_10":"8a1e2e68689ffff","h3_11":"8b1e2e68689cfff"},"geometry":{"type":"Polygon","coordinates":[[[19.961667,50.049815],[19.961746,50.049802],[19.961765,50.04985],[19.961686,50.049862],[19.961667,50.049815]]]}},{"type":"Feature","id":"w1262935397","properties":{"type":"service","residential":false,"residents_est":0,"h3_10":"8a1e2e68692ffff","h3_11":"8b1e2e68692dfff"},"geometry":{"type":"Polygon","coordinates":[[[19.963023,50.057036],[19.963032,50.056984],[19.963115,50.05699],[19.963106,50.057041],[19.963023,50.057036]]]}},{"type":"Feature","id":"w1272578920","properties":{"type":"service","residential":false,"residents_est":0,"h3_10":"8a1e2e686837fff","h3_11":"8b1e2e686835fff"},"geometry":{"type":"Polygon","coordinates":[[[19.962447,50.053981],[19.96245,50.053953],[19.962524,50.053957],[19.962521,50.053984],[19.962447,50.053981]]]}},{"type":"Feature","id":"w1289652603","properties":{"type":"roof","levels":1.0,"residential":false,"residents_est":0,"h3_10":"8a1e2e686927fff","h3_11":"8b1e2e686925fff"},"geometry":{"type":"Polygon","coordinates":[[[19.961322,50.057322],[19.961346,50.057198],[19.96138,50.057199],[19.961372,50.057323],[19.961322,50.057322]]]}},{"type":"Feature","id":"w1315397835","properties":{"type":"yes","residential":false,"residents_est":0,"h3_10":"8a1e2e6868dffff","h3_11":"8b1e2e6868ddfff"},"geometry":{"type":"Polygon","coordinates":[[[19.967012,50.049866],[19.967057,50.049859],[19.967078,50.049914],[19.967032,50.049921],[19.967012,50.049866]]]}},{"type":"Feature","id":"w1443772950","properties":{"type":"office","levels":3.0,"address":"Zabłocie 22A","residential":false,"residents_est":0,"h3_10":"8a1e2e6868c7fff","h3_11":"8b1e2e6868c2fff"},"geometry":{"type":"Polygon","coordinates":[[[19.966007,50.050252],[19.966267,50.050226],[19.96636,50.050606],[19.966228,50.050619],[19.966236,50.050645],[19.966194,50.05065],[19.966186,50.050623],[19.966102,50.050632],[19.966007,50.050252]]]}},{"type":"Feature","id":"w1495164331","properties":{"type":"yes","residential":false,"residents_est":0,"h3_10":"8a1e2e686907fff","h3_11":"8b1e2e686901fff"},"geometry":{"type":"Polygon","coordinates":[[[19.962453,50.055831],[19.962478,50.055787],[19.96252,50.055798],[19.962497,50.055841],[19.962453,50.055831]]]}}]}