{"type":"FeatureCollection","features":[{"type":"Feature","id":"w133328462","properties":{"type":"yes","residential":true,"residents_est":1,"h3_10":"8a1e2e6f5a5ffff","h3_11":"8b1e2e6f5a5efff"},"geometry":{"type":"Polygon","coordinates":[[[20.19063,50.086247],[20.190673,50.086201],[20.190781,50.086243],[20.190739,50.086289],[20.19063,50.086247]]]}},{"type":"Feature","id":"w133328471","properties":{"type":"yes","residential":true,"residents_est":3,"h3_10":"8a1e2e6f5aeffff","h3_11":"8b1e2e6f5ae8fff"},"geometry":{"type":"Polygon","coordinates":[[[20.189794,50.085624],[20.189851,50.085549],[20.190008,50.085599],[20.18993,50.0857],[20.189817,50.085664],[20.189837,50.085638],[20.189794,50.085624]]]}},{"type":"Feature","id":"w133328481","properties":{"type":"yes","address":"Pobiednik Wielki 86","residential":true,"residents_est":4,"h3_10":"8a1e2e6f5aeffff","h3_11":"8b1e2e6f5aedfff"},"geometry":{"type":"Polygon","coordinates":[[[20.190193,50.085933],[20.190262,50.085864],[20.190464,50.085948],[20.190395,50.086016],[20.190193,50.085933]]]}},{"type":"Feature","id":"w337950231","properties":{"type":"yes","residential":true,"residents_est":4,"h3_10":"8a1e2e6f5b87fff","h3_11":"8b1e2e6f5b84fff"},"geometry":{"type":"Polygon","coordinates":[[[20.180401,50.087755],[20.180405,50.087732],[20.18043,50.087721],[20.180623,50.087733],[20.180609,50.087826],[20.180482,50.087821],[20.180483,50.087817],[20.180412,50.087811],[20.180419,50.08777],[20.180401,50.087755]]]}},{"type":"Feature","id":"w337950258","properties":{"type":"yes","residential":true,"residents_est":3,"h3_10":"8a1e2e6f5b37fff","h3_11":"8b1e2e6f5b36fff"},"geometry":{"type":"Polygon","coordinates":[[[20.180985,50.090394],[20.181002,50.090313],[20.181055,50.090317],[20.181058,50.090298],[20.18121,50.090311],[20.181196,50.090375],[20.181171,50.090374],[20.181164,50.090409],[20.181099,50.090404],[20.181101,50.090394],[20.181049,50.090389],[20.181047,50.090399],[20.180985,50.090394]]]}},{"type":"Feature","id":"w337950275","properties":{"type":"yes","residential":true,"residents_est":3,"h3_10":"8a1e2e6f5b2ffff","h3_11":"8b1e2e6f5b2efff"},"geometry":{"type":"Polygon","coordinates":[[[20.184031,50.090525],[20.184036,50.090474],[20.184057,50.090475],[20.184067,50.090417],[20.184151,50.090424],[20.184148,50.090434],[20.184226,50.090441],[20.184208,50.090526],[20.184123,50.090518],[20.18412,50.090533],[20.184031,50.090525]]]}},{"type":"Feature","id":"w337950366","properties":{"type":"yes","residential":true,"residents_est":1,"h3_10":"8a1e2e6f5b07fff","h3_11":"8b1e2e6f5b01fff"},"geometry":{"type":"Polygon","coordinates":[[[20.184238,50.090111],[20.184254,50.090041],[20.184337,50.090049],[20.184322,50.09011],[20.184334,50.090111],[20.184331,50.090121],[20.184238,50.090111]]]}},{"type":"Feature","id":"w337950382","properties":{"type":"yes","residential":true,"residents_est":3,"h3_10":"8a1e2e6f5b9ffff","h3_11":"8b1e2e6f5b9cfff"},"geometry":{"type":"Polygon","coordinates":[[[20.180753,50.086739],[20.180764,50.086692],[20.180772,50.086692],[20.180777,50.086672],[20.180805,50.086676],[20.180816,50.08667],[20.180896,50.086684],[20.180875,50.086771],[20.180867,50.086771],[20.180857,50.086808],[20.180755,50.086798],[20.180764,50.08676],[20.180756,50.086759],[20.180761,50.08674],[20.180753,50.086739]]]}},{"type":"Feature","id":"w337950387","properties":{"type":"yes","residential":true,"residents_est":3,"h3_10":"8a1e2e6f5b9ffff","h3_11":"8b1e2e6f5b9cfff"},"geometry":{"type":"Polygon","coordinates":[[[20.181016,50.08663],[20.181029,50.086593],[20.181021,50.086591],[20.181027,50.086571],[20.181019,50.08657],[20.181036,50.08652],[20.181044,50.086521],[20.181051,50.086501],[20.181176,50.086519],[20.181146,50.086609],[20.181137,50.086607],[20.181125,50.086645],[20.181016,50.08663]]]}},{"type":"Feature","id":"w337950455","properties":{"type":"yes","residential":true,"residents_est":1,"h3_10":"8a1e2e6f5bb7fff","h3_11":"8b1e2e6f5bb1fff"},"geometry":{"type":"Polygon","coordinates":[[[20.180085,50.087755],[20.180094,50.087701],[20.180206,50.087708],[20.180197,50.087763],[20.180085,50.087755]]]}},{"type":"Feature","id":"w337950471","properties":{"type":"yes","residential":true,"residents_est":2,"h3_10":"8a1e2e6f5b9ffff","h3_11":"8b1e2e6f5b98fff"},"geometry":{"type":"Polygon","coordinates":[[[20.181195,50.086428],[20.181244,50.086337],[20.181363,50.086363],[20.181314,50.086455],[20.181195,50.086428]]]}},{"type":"Feature","id":"w337950521","properties":{"type":"yes","residential":true,"residents_est":1,"h3_10":"8a1e2e6f5b27fff","h3_11":"8b1e2e6f5b23fff"},"geometry":{"type":"Polygon","coordinates":[[[20.183138,50.090547],[20.183142,50.090483],[20.183266,50.090486],[20.183263,50.09055],[20.183138,50.090547]]]}},{"type":"Feature","id":"w337950541","properties":{"type":"greenhouse","residential":false,"residents_est":0,"h3_10":"8a1e2e6f5acffff","h3_11":"8b1e2e6f5accfff"},"geometry":{"type":"Polygon","coordinates":[[[20.189708,50.08477],[20.189795,50.084682],[20.189861,50.084709],[20.189774,50.084797],[20.189708,50.08477]]]}},{"type":"Feature","id":"w337950583","properties":{"type":"house","levels":1.0,"address":"Pysocice 66d","residential":true,"residents_est":2,"h3_10":"8a1e2e6f5b37fff","h3_11":"8b1e2e6f5b31fff"},"geometry":{"type":"Polygon","coordinates":[[[20.182299,50.090227],[20.182429,50.09022],[20.182439,50.090312],[20.182345,50.090317],[20.182339,50.090271],[20.182304,50.090273],[20.182299,50.090227]]]}},{"type":"Feature","id":"w337950732","properties":{"type":"yes","residential":true,"residents_est":2,"h3_10":"8a1e2e6f5b37fff","h3_11":"8b1e2e6f5b34fff"},"geometry":{"type":"Polygon","coordinates":[[[20.181112,50.090628],[20.181113,50.090582],[20.1812,50.090583],[20.181201,50.090561],[20.181272,50.090562],[20.18127,50.090631],[20.181112,50.090628]]]}},{"type":"Feature","id":"w337950781","properties":{"type":"yes","address":"Pobiednik Wielki 88","residential":true,"residents_est":2,"h3_10":"8a1e2e6f5af7fff","h3_11":"8b1e2e6f5af5fff"},"geometry":{"type":"Polygon","coordinates":[[[20.186651,50.085529],[20.186689,50.085451],[20.186847,50.085483],[20.186811,50.085561],[20.186651,50.085529]]]}},{"type":"Feature","id":"w337950856","properties":{"type":"house","levels":2.0,"address":"Pysocice 76","residential":true,"residents_est":4,"h3_10":"8a1e2e6f5b2ffff","h3_11":"8b1e2e6f5b2efff"},"geometry":{"type":"Polygon","coordinates":[[[20.183872,50.090746],[20.183878,50.090668],[20.184028,50.090673],[20.184022,50.090751],[20.183872,50.090746]]]}},{"type":"Feature","id":"w337950970","properties":{"type":"yes","levels":2.0,"address":"Pysocice 68","residential":true,"residents_est":2,"h3_10":"8a1e2e6f5b27fff","h3_11":"8b1e2e6f5b22fff"},"geometry":{"type":"Polygon","coordinates":[[[20.182449,50.090485],[20.182608,50.090481],[20.182613,50.090559],[20.182454,50.090563],[20.182449,50.090485]]]}},{"type":"Feature","id":"w337951023","properties":{"type":"yes","residential":false,"residents_est":0,"h3_10":"8a1e2e6f5b37fff","h3_11":"8b1e2e6f5b34fff"},"geometry":{"type":"Polygon","coordinates":[[[20.181335,50.090584],[20.181338,50.090535],[20.18143,50.090537],[20.181428,50.090586],[20.181335,50.090584]]]}},{"type":"Feature","id":"w337951036","properties":{"type":"yes","residential":true,"residents_est":2,"h3_10":"8a1e2e6f5af7fff","h3_11":"8b1e2e6f5af4fff"},"geometry":{"type":"Polygon","coordinates":[[[20.186516,50.085481],[20.186566,50.085386],[20.186658,50.085406],[20.186607,50.085501],[20.186516,50.085481]]]}},{"type":"Feature","id":"w337951048","properties":{"type":"yes","residential":true,"residents_est":3,"h3_10":"8a1e2e6f5bb7fff","h3_11":"8b1e2e6f5bb5fff"},"geometry":{"type":"Polygon","coordinates":[[[20.179349,50.088129],[20.179385,50.088045],[20.179548,50.088074],[20.179512,50.088158],[20.179349,50.088129]]]}},{"type":"Feature","id":"w337951063","properties":{"type":"yes","residential":true,"residents_est":1,"h3_10":"8a1e2e6f5b2ffff","h3_11":"8b1e2e6f5b2afff"},"geometry":{"type":"Polygon","coordinates":[[[20.184252,50.09026],[20.184262,50.090207],[20.184358,50.090215],[20.184348,50.090267],[20.184252,50.09026]]]}},{"type":"Feature","id":"w337951080","properties":{"type":"outbuilding","levels":1.0,"residential":false,"residents_est":0,"h3_10":"8a1e2e6f5b2ffff","h3_11":"8b1e2e6f5b2efff"},"geometry":{"type":"Polygon","coordinates":[[[20.184116,50.090836],[20.18412,50.090772],[20.184223,50.090775],[20.184219,50.090839],[20.184116,50.090836]]]}},{"type":"Feature","id":"w337951460","properties":{"type":"yes","residential":true,"residents_est":2,"h3_10":"8a1e2e6f5b27fff","h3_11":"8b1e2e6f5b22fff"},"geometry":{"type":"Polygon","coordinates":[[[20.182914,50.090482],[20.183071,50.090472],[20.183082,50.090545],[20.182925,50.090555],[20.182914,50.090482]]]}},{"type":"Feature","id":"w337951514","properties":{"type":"yes","residential":true,"residents_est":3,"h3_10":"8a1e2e6f5b37fff","h3_11":"8b1e2e6f5b34fff"},"geometry":{"type":"Polygon","coordinates":[[[20.181281,50.090465],[20.181298,50.090339],[20.181415,50.090346],[20.181398,50.090471],[20.181281,50.090465]]]}},{"type":"Feature","id":"w337951519","properties":{"type":"yes","residential":true,"residents_est":0,"h3_10":"8a1e2e6f5b37fff","h3_11":"8b1e2e6f5b30fff"},"geometry":{"type":"Polygon","coordinates":[[[20.18169,50.090387],[20.181748,50.09031],[20.181809,50.090329],[20.18175,50.090406],[20.18169,50.090387]]]}},{"type":"Feature","id":"w337951529","properties":{"type":"yes","residential":true,"residents_est":2,"h3_10":"8a1e2e6f5af7fff","h3_11":"8b1e2e6f5af0fff"},"geometry":{"type":"Polygon","coordinates":[[[20.186655,50.085358],[20.186713,50.085255],[20.186812,50.085278],[20.186756,50.085381],[20.186655,50.085358]]]}},{"type":"Feature","id":"w337951562","properties":{"type":"house","levels":2.0,"address":"Pysocice 80","residential":true,"residents_est":6,"h3_10":"8a1e2e6f5b27fff","h3_11":"8b1e2e6f5b21fff"},"geometry":{"type":"Polygon","coordinates":[[[20.184162,50.091074],[20.184164,50.090975],[20.184318,50.090976],[20.184317,50.091075],[20.184162,50.091074]]]}},{"type":"Feature","id":"w337951610","properties":{"type":"yes","residential":true,"residents_est":2,"h3_10":"8a1e2e6f5b07fff","h3_11":"8b1e2e6f5b05fff"},"geometry":{"type":"Polygon","coordinates":[[[20.183897,50.090457],[20.184018,50.090453],[20.184024,50.09052],[20.183902,50.090522],[20.183897,50.090457]]]}},{"type":"Feature","id":"w337951657","properties":{"type":"yes","residential":true,"residents_est":3,"h3_10":"8a1e2e6f5b37fff","h3_11":"8b1e2e6f5b34fff"},"geometry":{"type":"Polygon","coordinates":[[[20.181494,50.090637],[20.181502,50.090566],[20.181694,50.090575],[20.181688,50.090632],[20.181656,50.090631],[20.181654,50.090644],[20.181494,50.090637]]]}},{"type":"Feature","id":"w337951667","properties":{"type":"yes","residential":true,"residents_est":4,"h3_10":"8a1e2e6f5ac7fff","h3_11":"8b1e2e6f5ac1fff"},"geometry":{"type":"Polygon","coordinates":[[[20.189131,50.084943],[20.189211,50.08487],[20.189425,50.084967],[20.189359,50.085028],[20.18922,50.084965],[20.189207,50.084977],[20.189131,50.084943]]]}},{"type":"Feature","id":"w337951717","properties":{"type":"yes","residential":true,"residents_est":2,"h3_10":"8a1e2e6f5b07fff","h3_11":"8b1e2e6f5b04fff"},"geometry":{"type":"Polygon","coordinates":[[[20.183323,50.090423],[20.183347,50.090379],[20.183468,50.090406],[20.183414,50.090506],[20.183325,50.090487],[20.183356,50.09043],[20.183323,50.090423]]]}},{"type":"Feature","id":"w337951721","properties":{"type":"yes","residential":true,"residents_est":2,"h3_10":"8a1e2e6f5b07fff","h3_11":"8b1e2e6f5b01fff"},"geometry":{"type":"Polygon","coordinates":[[[20.183972,50.090084],[20.183978,50.09006],[20.184008,50.090064],[20.18402,50.090018],[20.184202,50.090035],[20.184188,50.090096],[20.18413,50.090089],[20.184127,50.0901],[20.183972,50.090084]]]}},{"type":"Feature","id":"w337951784","properties":{"type":"yes","residential":true,"residents_est":2,"h3_10":"8a1e2e6f5b37fff","h3_11":"8b1e2e6f5b35fff"},"geometry":{"type":"Polygon","coordinates":[[[20.181783,50.090668],[20.181795,50.0906],[20.181994,50.090615],[20.181984,50.090669],[20.181874,50.090661],[20.181872,50.090674],[20.181783,50.090668]]]}},{"type":"Feature","id":"w337951809","properties":{"type":"yes","residential":true,"residents_est":2,"h3_10":"8a1e2e6f5ba7fff","h3_11":"8b1e2e6f5ba2fff"},"geometry":{"type":"Polygon","coordinates":[[[20.180185,50.088046],[20.18019,50.088015],[20.180216,50.088017],[20.18022,50.08799],[20.180368,50.088],[20.180357,50.088059],[20.180185,50.088046]]]}},{"type":"Feature","id":"w337951954","properties":{"type":"yes","residential":true,"residents_est":3,"h3_10":"8a1e2e6f5bb7fff","h3_11":"8b1e2e6f5bb5fff"},"geometry":{"type":"Polygon","coordinates":[[[20.179142,50.088166],[20.179235,50.08801],[20.179322,50.088032],[20.179229,50.088188],[20.179142,50.088166]]]}},{"type":"Feature","id":"w337952148","properties":{"type":"yes","address":"Pobiednik Wielki 87","residential":true,"residents_est":3,"h3_10":"8a1e2e6f5acffff","h3_11":"8b1e2e6f5accfff"},"geometry":{"type":"Polygon","coordinates":[[[20.189394,50.084783],[20.189464,50.084717],[20.1896,50.084776],[20.18953,50.084843],[20.189483,50.084822],[20.189459,50.084845],[20.18942,50.084828],[20.189444,50.084805],[20.189394,50.084783]]]}},{"type":"Feature","id":"w337952204","properties":{"type":"yes","residential":true,"residents_est":4,"h3_10":"8a1e2e6f5b07fff","h3_11":"8b1e2e6f5b04fff"},"geometry":{"type":"Polygon","coordinates":[[[20.182975,50.090286],[20.183017,50.090221],[20.183196,50.090268],[20.183154,50.090333],[20.183163,50.090336],[20.183108,50.090421],[20.183041,50.090403],[20.183096,50.090318],[20.182975,50.090286]]]}},{"type":"Feature","id":"w337952215","properties":{"type":"yes","residential":true,"residents_est":2,"h3_10":"8a1e2e6f5b07fff","h3_11":"8b1e2e6f5b05fff"},"geometry":{"type":"Polygon","coordinates":[[[20.183946,50.090267],[20.183968,50.090174],[20.184099,50.090187],[20.184089,50.090232],[20.184106,50.090234],[20.184101,50.090256],[20.184083,50.090255],[20.184077,50.09028],[20.183946,50.090267]]]}},{"type":"Feature","id":"w337952279","properties":{"type":"yes","residential":true,"residents_est":2,"h3_10":"8a1e2e6f5ba7fff","h3_11":"8b1e2e6f5ba6fff"},"geometry":{"type":"Polygon","coordinates":[[[20.179941,50.088273],[20.17995,50.088193],[20.180104,50.0882],[20.180095,50.088281],[20.179941,50.088273]]]}},{"type":"Feature","id":"w385505338","properties":{"type":"yes","residential":true,"residents_est":4,"h3_10":"8a1e2e6f5a5ffff","h3_11":"8b1e2e6f5a58fff"},"geometry":{"type":"Polygon","coordinates":[[[20.190777,50.086152],[20.190813,50.086104],[20.190823,50.086103],[20.190846,50.086078],[20.191017,50.086144],[20.191006,50.086157],[20.191045,50.086172],[20.190998,50.086223],[20.190959,50.086208],[20.190949,50.086218],[20.190777,50.086152]]]}},{"type":"Feature","id":"w385505793","properties":{"type":"yes","residential":true,"residents_est":2,"h3_10":"8a1e2e6f5a5ffff","h3_11":"8b1e2e6f5a5efff"},"geometry":{"type":"Polygon","coordinates":[[[20.190552,50.086086],[20.190612,50.086021],[20.190698,50.086055],[20.190637,50.08612],[20.190552,50.086086]]]}},{"type":"Feature","id":"w385506526","properties":{"type":"yes","residential":true,"residents_est":2,"h3_10":"8a1e2e6f5a5ffff","h3_11":"8b1e2e6f5a58fff"},"geometry":{"type":"Polygon","coordinates":[[[20.191109,50.086306],[20.191182,50.08623],[20.191294,50.086273],[20.191221,50.08635],[20.191109,50.086306]]]}},{"type":"Feature","id":"w385507085","properties":{"type":"yes","residential":true,"residents_est":2,"h3_10":"8a1e2e6f5a5ffff","h3_11":"8b1e2e6f5a5efff"},"geometry":{"type":"Polygon","coordinates":[[[20.190452,50.086277],[20.190522,50.086202],[20.190621,50.08624],[20.190535,50.086332],[20.190499,50.086318],[20.190515,50.086301],[20.190452,50.086277]]]}},{"type":"Feature","id":"w385507500","properties":{"type":"yes","residential":true,"residents_est":5,"h3_10":"8a1e2e6f5aeffff","h3_11":"8b1e2e6f5ae9fff"},"geometry":{"type":"Polygon","coordinates":[[[20.190665,50.085387],[20.190697,50.085354],[20.190688,50.085351],[20.190777,50.085259],[20.190932,50.08532],[20.190843,50.085413],[20.190834,50.085409],[20.190802,50.085442],[20.190665,50.085387]]]}},{"type":"Feature","id":"w720551554","properties":{"type":"yes","residential":false,"residents_est":0,"h3_10":"8a1e2e6f5b2ffff","h3_11":"8b1e2e6f5b2cfff"},"geometry":{"type":"Polygon","coordinates":[[[20.184603,50.09114],[20.184662,50.091139],[20.184663,50.091172],[20.184603,50.091173],[20.184603,50.09114]]]}},{"type":"Feature","id":"w720551556","properties":{"type":"yes","residential":false,"residents_est":0,"h3_10":"8a1e2e6f5b2ffff","h3_11":"8b1e2e6f5b2cfff"},"geometry":{"type":"Polygon","coordinates":[[[20.184225,50.090951],[20.184226,50.090925],[20.184309,50.090927],[20.184307,50.090954],[20.184225,50.090951]]]}},{"type":"Feature","id":"w720551557","properties":{"type":"outbuilding","levels":1.0,"residential":false,"residents_est":0,"h3_10":"8a1e2e6f5b27fff","h3_11":"8b1e2e6f5b21fff"},"geometry":{"type":"Polygon","coordinates":[[[20.184095,50.091074],[20.184096,50.090975],[20.184164,50.090975],[20.184162,50.091074],[20.184095,50.091074]]]}},{"type":"Feature","id":"w720551558","properties":{"type":"outbuilding","levels":1.0,"residential":false,"residents_est":0,"h3_10":"8a1e2e6f5b2ffff","h3_11":"8b1e2e6f5b2efff"},"geometry":{"type":"Polygon","coordinates":[[[20.18412,50.090772],[20.184122,50.090735],[20.184226,50.090737],[20.184223,50.090775],[20.18412,50.090772]]]}},{"type":"Feature","id":"w720551559","properties":{"type":"yes","residential":false,"residents_est":0,"h3_10":"8a1e2e6f5b07fff","h3_11":"8b1e2e6f5b05fff"},"geometry":{"type":"Polygon","coordinates":[[[20.183833,50.090459],[20.183897,50.090457],[20.183902,50.090522],[20.183837,50.090524],[20.183833,50.090459]]]}},{"type":"Feature","id":"w720551560","properties":{"type":"yes","residential":true,"residents_est":3,"h3_10":"8a1e2e6f5b07fff","h3_11":"8b1e2e6f5b00fff"},"geometry":{"type":"Polygon","coordinates":[[[20.183487,50.090056],[20.183507,50.090025],[20.183499,50.090023],[20.183561,50.089926],[20.183666,50.089954],[20.183646,50.089985],[20.183656,50.089995],[20.183644,50.090014],[20.183617,50.090015],[20.183598,50.090044],[20.183605,50.090047],[20.183594,50.090049],[20.183575,50.090079],[20.183487,50.090056]]]}},{"type":"Feature","id":"w720551561","properties":{"type":"yes","residential":false,"residents_est":0,"h3_10":"8a1e2e6f5b07fff","h3_11":"8b1e2e6f5b05fff"},"geometry":{"type":"Polygon","coordinates":[[[20.183666,50.090357],[20.183673,50.090318],[20.183739,50.090321],[20.183734,50.090361],[20.183666,50.090357]]]}},{"type":"Feature","id":"w720551562","properties":{"type":"yes","residential":false,"residents_est":0,"h3_10":"8a1e2e6f5b37fff","h3_11":"8b1e2e6f5b31fff"},"geometry":{"type":"Polygon","coordinates":[[[20.182287,50.090469],[20.182294,50.090434],[20.182367,50.090438],[20.182361,50.090474],[20.182287,50.090469]]]}},{"type":"Feature","id":"w720551572","properties":{"type":"yes","residential":false,"residents_est":0,"h3_10":"8a1e2e6f5ba7fff","h3_11":"8b1e2e6f5ba2fff"},"geometry":{"type":"Polygon","coordinates":[[[20.180097,50.088268],[20.180104,50.088206],[20.180156,50.088208],[20.180149,50.088271],[20.180097,50.088268]]]}},{"type":"Feature","id":"w720551573","properties":{"type":"yes","residential":true,"residents_est":2,"h3_10":"8a1e2e6f5ba7fff","h3_11":"8b1e2e6f5ba2fff"},"geometry":{"type":"Polygon","coordinates":[[[20.180475,50.087981],[20.180487,50.087893],[20.180616,50.087903],[20.180613,50.087928],[20.180638,50.087938],[20.180635,50.08795],[20.180622,50.087956],[20.180617,50.08799],[20.180475,50.087981]]]}},{"type":"Feature","id":"w720551574","properties":{"type":"yes","residential":true,"residents_est":3,"h3_10":"8a1e2e6f5b87fff","h3_11":"8b1e2e6f5b82fff"},"geometry":{"type":"Polygon","coordinates":[[[20.180545,50.087015],[20.180552,50.086969],[20.180577,50.08697],[20.180586,50.086913],[20.180735,50.086922],[20.180719,50.087026],[20.180545,50.087015]]]}},{"type":"Feature","id":"w720551575","properties":{"type":"yes","residential":true,"residents_est":3,"h3_10":"8a1e2e6f5b97fff","h3_11":"8b1e2e6f5b91fff"},"geometry":{"type":"Polygon","coordinates":[[[20.180084,50.086606],[20.180144,50.086496],[20.180186,50.086505],[20.180195,50.086502],[20.180263,50.086522],[20.180204,50.086632],[20.180084,50.086606]]]}},{"type":"Feature","id":"w720551576","properties":{"type":"yes","residential":true,"residents_est":3,"h3_10":"8a1e2e6f5b9ffff","h3_11":"8b1e2e6f5b9efff"},"geometry":{"type":"Polygon","coordinates":[[[20.180274,50.086291],[20.180341,50.086162],[20.180449,50.086185],[20.180397,50.086284],[20.180381,50.086281],[20.180365,50.086311],[20.180274,50.086291]]]}},{"type":"Feature","id":"w720551577","properties":{"type":"yes","residential":true,"residents_est":3,"h3_10":"8a1e2e6f5bb7fff","h3_11":"8b1e2e6f5bb3fff"},"geometry":{"type":"Polygon","coordinates":[[[20.179536,50.087533],[20.179573,50.087428],[20.179722,50.087449],[20.179686,50.087555],[20.179536,50.087533]]]}},{"type":"Feature","id":"w720551578","properties":{"type":"yes","residential":true,"residents_est":1,"h3_10":"8a1e2e6f5bb7fff","h3_11":"8b1e2e6f5bb5fff"},"geometry":{"type":"Polygon","coordinates":[[[20.179512,50.088158],[20.179548,50.088074],[20.179612,50.088086],[20.179576,50.08817],[20.179512,50.088158]]]}},{"type":"Feature","id":"w720551579","properties":{"type":"yes","residential":true,"residents_est":1,"h3_10":"8a1e2e6f5bb7fff","h3_11":"8b1e2e6f5bb5fff"},"geometry":{"type":"Polygon","coordinates":[[[20.179235,50.08801],[20.179287,50.087918],[20.17935,50.087932],[20.179295,50.088025],[20.179235,50.08801]]]}},{"type":"Feature","id":"w720551581","properties":{"type":"yes","residential":true,"residents_est":2,"h3_10":"8a1e2e6f5bb7fff","h3_11":"8b1e2e6f5bb0fff"},"geometry":{"type":"Polygon","coordinates":[[[20.179395,50.087708],[20.179421,50.087661],[20.179457,50.087669],[20.179476,50.087634],[20.179566,50.087654],[20.179547,50.087689],[20.179566,50.087694],[20.179541,50.087741],[20.179486,50.087728],[20.179479,50.087741],[20.179401,50.087724],[20.179407,50.087711],[20.179395,50.087708]]]}},{"type":"Feature","id":"w720566010","properties":{"type":"house","levels":2.0,"address":"Wodzickich 9","residential":true,"residents_est":7,"h3_10":"8a1e2e6f5b0ffff","h3_11":"8b1e2e6f5b0efff"},"geometry":{"type":"Polygon","coordinates":[[[20.184413,50.089582],[20.184425,50.089528],[20.184464,50.089531],[20.18448,50.089463],[20.184624,50.089477],[20.184599,50.089591],[20.184541,50.089585],[20.184539,50.089593],[20.184413,50.089582]]]}},{"type":"Feature","id":"w720566011","properties":{"type":"greenhouse","residential":false,"residents_est":0,"h3_10":"8a1e2e6f5b07fff","h3_11":"8b1e2e6f5b04fff"},"geometry":{"type":"Polygon","coordinates":[[[20.182955,50.090125],[20.182977,50.090066],[20.183024,50.090074],[20.183001,50.090132],[20.182955,50.090125]]]}},{"type":"Feature","id":"w720901191","properties":{"type":"yes","address":"Pobiednik Wielki 130B","residential":true,"residents_est":3,"h3_10":"8a1e2e6f5a5ffff","h3_11":"8b1e2e6f5a5bfff"},"geometry":{"type":"Polygon","coordinates":[[[20.191378,50.085924],[20.191453,50.085841],[20.19161,50.085899],[20.191535,50.085982],[20.191378,50.085924]]]}},{"type":"Feature","id":"w720901192","properties":{"type":"yes","address":"Pobiednik Wielki 130A","residential":true,"residents_est":2,"h3_10":"8a1e2e6f5a5ffff","h3_11":"8b1e2e6f5a5afff"},"geometry":{"type":"Polygon","coordinates":[[[20.191034,50.085837],[20.19109,50.085769],[20.191187,50.085801],[20.191131,50.08587],[20.191034,50.085837]]]}},{"type":"Feature","id":"w720901193","properties":{"type":"yes","address":"Pobiednik Wielki 117A","residential":true,"residents_est":3,"h3_10":"8a1e2e6f5a5ffff","h3_11":"8b1e2e6f5a5cfff"},"geometry":{"type":"Polygon","coordinates":[[[20.190887,50.086478],[20.190959,50.086408],[20.19113,50.086481],[20.191057,50.086551],[20.190887,50.086478]]]}},{"type":"Feature","id":"w721077494","properties":{"type":"yes","residential":false,"residents_est":0,"h3_10":"8a1e2e6f5ac7fff","h3_11":"8b1e2e6f5ac2fff"},"geometry":{"type":"Polygon","coordinates":[[[20.188177,50.084517],[20.188229,50.084509],[20.188257,50.084581],[20.188205,50.084589],[20.188177,50.084517]]]}},{"type":"Feature","id":"w721157020","properties":{"type":"yes","residential":true,"residents_est":2,"h3_10":"8a1e2e6f5b9ffff","h3_11":"8b1e2e6f5b9dfff"},"geometry":{"type":"Polygon","coordinates":[[[20.181496,50.086533],[20.181529,50.086462],[20.181688,50.086493],[20.181655,50.086564],[20.181496,50.086533]]]}},{"type":"Feature","id":"w722675924","properties":{"type":"yes","residential":false,"residents_est":0,"h3_10":"8a1e2e6f5af7fff","h3_11":"8b1e2e6f5af0fff"},"geometry":{"type":"Polygon","coordinates":[[[20.186813,50.085295],[20.186828,50.085243],[20.186894,50.085251],[20.186879,50.085302],[20.186813,50.085295]]]}},{"type":"Feature","id":"w722675926","properties":{"type":"yes","residential":true,"residents_est":6,"h3_10":"8a1e2e6f5aeffff","h3_11":"8b1e2e6f5ae9fff"},"geometry":{"type":"Polygon","coordinates":[[[20.190279,50.085534],[20.190334,50.085451],[20.190655,50.085538],[20.1906,50.085621],[20.190279,50.085534]]]}},{"type":"Feature","id":"w722675938","properties":{"type":"greenhouse","residential":false,"residents_est":0,"h3_10":"8a1e2e6f5aeffff","h3_11":"8b1e2e6f5aebfff"},"geometry":{"type":"Polygon","coordinates":[[[20.190293,50.085256],[20.19041,50.085048],[20.190508,50.085071],[20.190391,50.085279],[20.190293,50.085256]]]}},{"type":"Feature","id":"w722675939","properties":{"type":"greenhouse","residential":false,"residents_est":0,"h3_10":"8a1e2e6f5aeffff","h3_11":"8b1e2e6f5aebfff"},"geometry":{"type":"Polygon","coordinates":[[[20.190132,50.085241],[20.19027,50.08501],[20.190375,50.085036],[20.190237,50.085267],[20.190132,50.085241]]]}},{"type":"Feature","id":"w722675940","properties":{"type":"greenhouse","residential":false,"residents_est":0,"h3_10":"8a1e2e6f5aeffff","h3_11":"8b1e2e6f5aebfff"},"geometry":{"type":"Polygon","coordinates":[[[20.189997,50.085209],[20.19014,50.084973],[20.190246,50.085],[20.190104,50.085235],[20.189997,50.085209]]]}},{"type":"Feature","id":"w722675941","properties":{"type":"greenhouse","residential":false,"residents_est":0,"h3_10":"8a1e2e6f5aeffff","h3_11":"8b1e2e6f5aebfff"},"geometry":{"type":"Polygon","coordinates":[[[20.189879,50.085171],[20.190023,50.084947],[20.190121,50.084973],[20.189977,50.085197],[20.189879,50.085171]]]}},{"type":"Feature","id":"w722675942","properties":{"type":"greenhouse","residential":false,"residents_est":0,"h3_10":"8a1e2e6f5aeffff","h3_11":"8b1e2e6f5aebfff"},"geometry":{"type":"Polygon","coordinates":[[[20.189789,50.085149],[20.189941,50.084919],[20.190006,50.084937],[20.189854,50.085167],[20.189789,50.085149]]]}},{"type":"Feature","id":"w722675943","properties":{"type":"greenhouse","residential":false,"residents_est":0,"h3_10":"8a1e2e6f5aeffff","h3_11":"8b1e2e6f5aebfff"},"geometry":{"type":"Polygon","coordinates":[[[20.189702,50.085126],[20.189844,50.084901],[20.189918,50.08492],[20.189776,50.085145],[20.189702,50.085126]]]}},{"type":"Feature","id":"w722675944","properties":{"type":"greenhouse","residential":false,"residents_est":0,"h3_10":"8a1e2e6f5aeffff","h3_11":"8b1e2e6f5aeafff"},"geometry":{"type":"Polygon","coordinates":[[[20.189626,50.085103],[20.189771,50.084877],[20.189831,50.084893],[20.189686,50.085119],[20.189626,50.085103]]]}},{"type":"Feature","id":"w722675945","properties":{"type":"greenhouse","residential":false,"residents_est":0,"h3_10":"8a1e2e6f5aeffff","h3_11":"8b1e2e6f5aeafff"},"geometry":{"type":"Polygon","coordinates":[[[20.189547,50.085086],[20.189701,50.084849],[20.189752,50.084862],[20.189598,50.0851],[20.189547,50.085086]]]}},{"type":"Feature","id":"w722675946","properties":{"type":"greenhouse","residential":false,"residents_est":0,"h3_10":"8a1e2e6f5aeffff","h3_11":"8b1e2e6f5aeafff"},"geometry":{"type":"Polygon","coordinates":[[[20.189333,50.085316],[20.189461,50.085113],[20.189532,50.085131],[20.189404,50.085334],[20.189333,50.085316]]]}},{"type":"Feature","id":"w722675947","properties":{"type":"greenhouse","residential":false,"residents_est":0,"h3_10":"8a1e2e6f5aeffff","h3_11":"8b1e2e6f5aeafff"},"geometry":{"type":"Polygon","coordinates":[[[20.189424,50.085338],[20.189538,50.085134],[20.189607,50.08515],[20.189493,50.085354],[20.189424,50.085338]]]}},{"type":"Feature","id":"w722675948","properties":{"type":"greenhouse","residential":false,"residents_est":0,"h3_10":"8a1e2e6f5aeffff","h3_11":"8b1e2e6f5aeafff"},"geometry":{"type":"Polygon","coordinates":[[[20.189504,50.085361],[20.189629,50.085162],[20.189695,50.085179],[20.18957,50.085378],[20.189504,50.085361]]]}},{"type":"Feature","id":"w722675949","properties":{"type":"greenhouse","residential":false,"residents_est":0,"h3_10":"8a1e2e6f5aeffff","h3_11":"8b1e2e6f5aeafff"},"geometry":{"type":"Polygon","coordinates":[[[20.18959,50.085383],[20.189712,50.085181],[20.189767,50.085195],[20.189646,50.085396],[20.18959,50.085383]]]}},{"type":"Feature","id":"w722675950","properties":{"type":"greenhouse","residential":false,"residents_est":0,"h3_10":"8a1e2e6f5aeffff","h3_11":"8b1e2e6f5ae8fff"},"geometry":{"type":"Polygon","coordinates":[[[20.189653,50.085402],[20.189783,50.085193],[20.189834,50.085206],[20.189703,50.085415],[20.189653,50.085402]]]}},{"type":"Feature","id":"w722675951","properties":{"type":"greenhouse","residential":false,"residents_est":0,"h3_10":"8a1e2e6f5aeffff","h3_11":"8b1e2e6f5ae8fff"},"geometry":{"type":"Polygon","coordinates":[[[20.189732,50.085422],[20.189852,50.085211],[20.18992,50.085227],[20.189799,50.085438],[20.189732,50.085422]]]}},{"type":"Feature","id":"w722675952","properties":{"type":"greenhouse","residential":false,"residents_est":0,"h3_10":"8a1e2e6f5aeffff","h3_11":"8b1e2e6f5ae8fff"},"geometry":{"type":"Polygon","coordinates":[[[20.189821,50.085443],[20.189942,50.085239],[20.190011,50.085256],[20.18989,50.085459],[20.189821,50.085443]]]}},{"type":"Feature","id":"w722675953","properties":{"type":"greenhouse","residential":false,"residents_est":0,"h3_10":"8a1e2e6f5aeffff","h3_11":"8b1e2e6f5ae8fff"},"geometry":{"type":"Polygon","coordinates":[[[20.18992,50.085468],[20.190033,50.085268],[20.190105,50.085285],[20.189992,50.085485],[20.18992,50.085468]]]}},{"type":"Feature","id":"w722675954","properties":{"type":"greenhouse","residential":false,"residents_est":0,"h3_10":"8a1e2e6f5aeffff","h3_11":"8b1e2e6f5ae8fff"},"geometry":{"type":"Polygon","coordinates":[[[20.190005,50.085493],[20.190122,50.085291],[20.190199,50.08531],[20.190083,50.085511],[20.190005,50.085493]]]}},{"type":"Feature","id":"w722675955","properties":{"type":"greenhouse","residential":false,"residents_est":0,"h3_10":"8a1e2e6f5aeffff","h3_11":"8b1e2e6f5ae9fff"},"geometry":{"type":"Polygon","coordinates":[[[20.1901,50.085518],[20.190237,50.085305],[20.190333,50.085331],[20.190197,50.085543],[20.1901,50.085518]]]}},{"type":"Feature","id":"w722675977","properties":{"type":"yes","residential":true,"residents_est":71,"h3_10":"8a1e2e6f5a57fff","h3_11":"8b1e2e6f5a53fff"},"geometry":{"type":"Polygon","coordinates":[[[20.189432,50.086437],[20.189888,50.08593],[20.190174,50.086036],[20.189719,50.086543],[20.189432,50.086437]]]}},{"type":"Feature","id":"w1026133304","properties":{"type":"yes","residential":true,"residents_est":6,"h3_10":"8a1e2e6f5b2ffff","h3_11":"8b1e2e6f5b2afff"},"geometry":{"type":"Polygon","coordinates":[[[20.18441,50.090158],[20.184436,50.090044],[20.184698,50.090068],[20.184672,50.090183],[20.18441,50.090158]]]}},{"type":"Feature","id":"w1026133333","properties":{"type":"yes","residential":true,"residents_est":3,"h3_10":"8a1e2e6f5ba7fff","h3_11":"8b1e2e6f5ba3fff"},"geometry":{"type":"Polygon","coordinates":[[[20.180611,50.088094],[20.180622,50.08802],[20.180817,50.088032],[20.180805,50.088107],[20.180611,50.088094]]]}},{"type":"Feature","id":"w1047828316","properties":{"type":"outbuilding","levels":1.0,"residential":false,"residents_est":0,"h3_10":"8a1e2e6f5b2ffff","h3_11":"8b1e2e6f5b2cfff"},"geometry":{"type":"Polygon","coordinates":[[[20.184317,50.091075],[20.184318,50.090976],[20.184378,50.090977],[20.184376,50.091076],[20.184317,50.091075]]]}},{"type":"Feature","id":"w1047828425","properties":{"type":"outbuilding","levels":1.0,"residential":false,"residents_est":0,"h3_10":"8a1e2e6f5ba7fff","h3_11":"8b1e2e6f5ba6fff"},"geometry":{"type":"Polygon","coordinates":[[[20.180075,50.08838],[20.180087,50.088322],[20.180292,50.08834],[20.180284,50.088375],[20.1801,50.088358],[20.180095,50.088382],[20.180075,50.08838]]]}},{"type":"Feature","id":"w1347555842","properties":{"type":"house","residential":true,"residents_est":6,"h3_10":"8a1e2e6f5ab7fff","h3_11":"8b1e2e6f5ab6fff"},"geometry":{"type":"Polygon","coordinates":[[[20.180842,50.085111],[20.180906,50.084988],[20.18103,50.085014],[20.180967,50.085137],[20.180842,50.085111]]]}},{"type":"Feature","id":"w1347555843","properties":{"type":"house","residential":true,"residents_est":7,"h3_10":"8a1e2e6f5ab7fff","h3_11":"8b1e2e6f5ab2fff"},"geometry":{"type":"Polygon","coordinates":[[[20.180945,50.084901],[20.181008,50.084779],[20.18114,50.084807],[20.181078,50.084929],[20.180945,50.084901]]]}},{"type":"Feature","id":"w1347555844","properties":{"type":"house","residential":true,"residents_est":7,"h3_10":"8a1e2e6f5ab7fff","h3_11":"8b1e2e6f5ab5fff"},"geometry":{"type":"Polygon","coordinates":[[[20.18195,50.085343],[20.182144,50.085342],[20.182144,50.085407],[20.182104,50.085407],[20.182104,50.085456],[20.181951,50.085456],[20.18195,50.085343]]]}},{"type":"Feature","id":"w1347555845","properties":{"type":"yes","residential":true,"residents_est":2,"h3_10":"8a1e2e6f5ab7fff","h3_11":"8b1e2e6f5ab5fff"},"geometry":{"type":"Polygon","coordinates":[[[20.181719,50.085355],[20.18172,50.085285],[20.18188,50.085284],[20.181877,50.085356],[20.181719,50.085355]]]}},{"type":"Feature","id":"w1364971670","properties":{"type":"construction","residential":false,"residents_est":0,"h3_10":"8a1e2e6f5b9ffff","h3_11":"8b1e2e6f5b9afff"},"geometry":{"type":"Polygon","coordinates":[[[20.180485,50.085827],[20.180518,50.085755],[20.180608,50.085771],[20.180635,50.085709],[20.180705,50.085721],[20.180627,50.085897],[20.180526,50.085878],[20.180544,50.085837],[20.180485,50.085827]]]}},{"type":"Feature","id":"w1364971678","properties":{"type":"construction","residential":false,"residents_est":0,"h3_10":"8a1e2e6f5b0ffff","h3_11":"8b1e2e6f5b0dfff"},"geometry":{"type":"Polygon","coordinates":[[[20.185413,50.089899],[20.185444,50.089755],[20.185568,50.089766],[20.185537,50.08991],[20.185413,50.089899]]]}},{"type":"Feature","id":"w1364971680","properties":{"type":"yes","residential":true,"residents_est":4,"h3_10":"8a1e2e6f5b07fff","h3_11":"8b1e2e6f5b01fff"},"geometry":{"type":"Polygon","coordinates":[[[20.184194,50.089898],[20.184227,50.089736],[20.184384,50.08975],[20.184364,50.089845],[20.18434,50.089843],[20.184326,50.089909],[20.184194,50.089898]]]}},{"type":"Feature","id":"w1364971681","properties":{"type":"residential","address":"Wodzickich 7A","residential":true,"residents_est":11,"h3_10":"8a1e2e6f5b0ffff","h3_11":"8b1e2e6f5b0cfff"},"geometry":{"type":"Polygon","coordinates":[[[20.18451,50.089911],[20.184528,50.089828],[20.184704,50.089844],[20.184686,50.089927],[20.18451,50.089911]]]}},{"type":"Feature","id":"w1364971682","properties":{"type":"yes","residential":true,"residents_est":3,"h3_10":"8a1e2e6f5b0ffff","h3_11":"8b1e2e6f5b0cfff"},"geometry":{"type":"Polygon","coordinates":[[[20.184802,50.089941],[20.184821,50.089842],[20.185012,50.089857],[20.184993,50.089956],[20.184802,50.089941]]]}},{"type":"Feature","id":"w1364971685","properties":{"type":"house","address":"Wodzickich 13","residential":true,"residents_est":7,"h3_10":"8a1e2e6f5b0ffff","h3_11":"8b1e2e6f5b0afff"},"geometry":{"type":"Polygon","coordinates":[[[20.18473,50.089175],[20.184739,50.089127],[20.184755,50.089128],[20.184762,50.089096],[20.184746,50.089095],[20.184756,50.089047],[20.184881,50.089058],[20.184872,50.089103],[20.184899,50.089105],[20.184886,50.089171],[20.18487,50.08917],[20.184867,50.089186],[20.18473,50.089175]]]}},{"type":"Feature","id":"w1364971686","properties":{"type":"garage","levels":1.0,"residential":false,"residents_est":0,"h3_10":"8a1e2e6f5b0ffff","h3_11":"8b1e2e6f5b0afff"},"geometry":{"type":"Polygon","coordinates":[[[20.185142,50.089174],[20.185156,50.089115],[20.185326,50.089131],[20.185312,50.089191],[20.185142,50.089174]]]}},{"type":"Feature","id":"w1411009826","properties":{"type":"yes","residential":true,"residents_est":2,"h3_10":"8a1e2e6f5b37fff","h3_11":"8b1e2e6f5b31fff"},"geometry":{"type":"Polygon","coordinates":[[[20.182441,50.090429],[20.182613,50.090424],[20.182616,50.090481],[20.182444,50.090485],[20.182441,50.090429]]]}}]}