{"type":"FeatureCollection","features":[{"type":"Feature","id":"w231346768","properties":{"type":"house","address":"Jurajska 3","residential":true,"residents_est":2,"h3_10":"8a1e2e79885ffff","h3_11":"8b1e2e798858fff"},"geometry":{"type":"Polygon","coordinates":[[[19.900792,50.123732],[19.900875,50.123657],[19.901002,50.123716],[19.900993,50.123723],[19.901061,50.123754],[19.900995,50.123814],[19.900927,50.123783],[19.900919,50.12379],[19.900792,50.123732]]]}},{"type":"Feature","id":"w231346823","properties":{"type":"yes","residential":true,"residents_est":4,"h3_10":"8a1e2e7988e7fff","h3_11":"8b1e2e7988e2fff"},"geometry":{"type":"Polygon","coordinates":[[[19.897732,50.123002],[19.8981,50.122955],[19.898125,50.123038],[19.897869,50.12307],[19.897877,50.123097],[19.897842,50.123101],[19.897855,50.123143],[19.897799,50.123149],[19.897786,50.123108],[19.897765,50.123111],[19.897732,50.123002]]]}},{"type":"Feature","id":"w231346934","properties":{"type":"yes","address":"Pękowicka 284","residential":true,"residents_est":1,"h3_10":"8a1e2e79885ffff","h3_11":"8b1e2e79885bfff"},"geometry":{"type":"Polygon","coordinates":[[[19.901634,50.123253],[19.901717,50.123177],[19.901767,50.123199],[19.901783,50.123198],[19.901803,50.123207],[19.901806,50.123217],[19.901858,50.12324],[19.901819,50.123276],[19.901867,50.123297],[19.901813,50.123348],[19.901715,50.123304],[19.901726,50.123294],[19.901634,50.123253]]]}},{"type":"Feature","id":"w231347177","properties":{"type":"yes","residential":false,"residents_est":0,"h3_10":"8a1e2e79885ffff","h3_11":"8b1e2e798858fff"},"geometry":{"type":"Polygon","coordinates":[[[19.901218,50.123801],[19.901253,50.123766],[19.901319,50.123794],[19.901284,50.123828],[19.901218,50.123801]]]}},{"type":"Feature","id":"w231347272","properties":{"type":"yes","residential":false,"residents_est":0,"h3_10":"8a1e2e79889ffff","h3_11":"8b1e2e79889dfff"},"geometry":{"type":"Polygon","coordinates":[[[19.893966,50.12135],[19.894031,50.121339],[19.894058,50.121409],[19.893992,50.121419],[19.893966,50.12135]]]}},{"type":"Feature","id":"w231347301","properties":{"type":"yes","residential":true,"residents_est":0,"h3_10":"8a1e2e798847fff","h3_11":"8b1e2e798840fff"},"geometry":{"type":"Polygon","coordinates":[[[19.90072,50.124758],[19.900794,50.124698],[19.900861,50.124731],[19.900787,50.124792],[19.90072,50.124758]]]}},{"type":"Feature","id":"w231347525","properties":{"type":"yes","address":"Jurajska 16","residential":true,"residents_est":1,"h3_10":"8a1e2e7988e7fff","h3_11":"8b1e2e7988e2fff"},"geometry":{"type":"Polygon","coordinates":[[[19.897347,50.123049],[19.897535,50.123025],[19.89756,50.123107],[19.897372,50.123131],[19.897347,50.123049]]]}},{"type":"Feature","id":"w231347613","properties":{"type":"house","address":"Jurajska 2","residential":true,"residents_est":3,"h3_10":"8a1e2e798847fff","h3_11":"8b1e2e798840fff"},"geometry":{"type":"Polygon","coordinates":[[[19.900771,50.124806],[19.900861,50.124731],[19.900881,50.12474],[19.900904,50.124738],[19.900921,50.124724],[19.900997,50.124716],[19.901026,50.12473],[19.900992,50.12476],[19.901042,50.124784],[19.901003,50.124818],[19.900984,50.124818],[19.90098,50.124843],[19.900918,50.124888],[19.900771,50.124806]]]}},{"type":"Feature","id":"w231347770","properties":{"type":"house","address":"Jurajska 1","residential":true,"residents_est":2,"h3_10":"8a1e2e79885ffff","h3_11":"8b1e2e798858fff"},"geometry":{"type":"Polygon","coordinates":[[[19.901252,50.123869],[19.901319,50.123795],[19.901354,50.123809],[19.90135,50.123813],[19.90136,50.123818],[19.90139,50.123814],[19.901417,50.12382],[19.901436,50.123834],[19.90145,50.123856],[19.901529,50.123845],[19.901543,50.123888],[19.901475,50.123898],[19.901479,50.123906],[19.901442,50.123912],[19.901414,50.123938],[19.901252,50.123869]]]}},{"type":"Feature","id":"w231348225","properties":{"type":"yes","address":"Jurajska 22b","residential":true,"residents_est":1,"h3_10":"8a1e2e798847fff","h3_11":"8b1e2e798845fff"},"geometry":{"type":"Polygon","coordinates":[[[19.900922,50.125039],[19.900988,50.124958],[19.901076,50.124989],[19.90101,50.125069],[19.900922,50.125039]]]}},{"type":"Feature","id":"w323214472","properties":{"type":"yes","address":"Ojcowska 7","residential":true,"residents_est":1,"h3_10":"8a1e2e79894ffff","h3_11":"8b1e2e79894afff"},"geometry":{"type":"Polygon","coordinates":[[[19.899317,50.126649],[19.899322,50.12656],[19.89953,50.126567],[19.899528,50.126613],[19.899487,50.126612],[19.899485,50.126636],[19.899459,50.126636],[19.899459,50.126652],[19.899317,50.126649]]]}},{"type":"Feature","id":"w323214473","properties":{"type":"yes","address":"Łąkowa 13","residential":true,"residents_est":1,"h3_10":"8a1e2e798957fff","h3_11":"8b1e2e798952fff"},"geometry":{"type":"Polygon","coordinates":[[[19.896563,50.126166],[19.89671,50.126163],[19.896714,50.126233],[19.896704,50.126233],[19.896705,50.126261],[19.896686,50.126262],[19.896687,50.126288],[19.896586,50.12629],[19.896583,50.126236],[19.896566,50.126236],[19.896563,50.126166]]]}},{"type":"Feature","id":"w323214474","properties":{"type":"yes","address":"Łąkowa 2","residential":true,"residents_est":1,"h3_10":"8a1e2e79895ffff","h3_11":"8b1e2e798959fff"},"geometry":{"type":"Polygon","coordinates":[[[19.898997,50.126447],[19.899011,50.12636],[19.899087,50.126365],[19.899088,50.126356],[19.89919,50.126363],[19.899186,50.12639],[19.899213,50.126392],[19.899206,50.126432],[19.899179,50.12643],[19.899174,50.126459],[19.898997,50.126447]]]}},{"type":"Feature","id":"w323214475","properties":{"type":"yes","address":"Ojcowska 22","residential":true,"residents_est":1,"h3_10":"8a1e2e79896ffff","h3_11":"8b1e2e79896efff"},"geometry":{"type":"Polygon","coordinates":[[[19.898832,50.127931],[19.898876,50.127895],[19.898891,50.127902],[19.898923,50.127876],[19.89899,50.127909],[19.899004,50.127898],[19.899059,50.127926],[19.899004,50.127971],[19.899018,50.127978],[19.898982,50.128007],[19.898832,50.127931]]]}},{"type":"Feature","id":"w323214476","properties":{"type":"yes","address":"Łąkowa 4","residential":true,"residents_est":1,"h3_10":"8a1e2e79895ffff","h3_11":"8b1e2e79895efff"},"geometry":{"type":"Polygon","coordinates":[[[19.897893,50.126447],[19.898053,50.126446],[19.898055,50.126475],[19.898068,50.126475],[19.89807,50.126539],[19.897957,50.126541],[19.897958,50.12656],[19.897912,50.12656],[19.897912,50.126541],[19.897895,50.126541],[19.897893,50.126447]]]}},{"type":"Feature","id":"w323214477","properties":{"type":"yes","address":"Ojcowska 17","residential":true,"residents_est":1,"h3_10":"8a1e2e798947fff","h3_11":"8b1e2e798940fff"},"geometry":{"type":"Polygon","coordinates":[[[19.898605,50.127459],[19.898645,50.127341],[19.89869,50.127347],[19.898693,50.127339],[19.898708,50.127333],[19.898737,50.127337],[19.898745,50.127346],[19.898742,50.127355],[19.898781,50.12736],[19.898739,50.127479],[19.898605,50.127459]]]}},{"type":"Feature","id":"w323214479","properties":{"type":"yes","address":"Ojcowska 12","residential":true,"residents_est":1,"h3_10":"8a1e2e79894ffff","h3_11":"8b1e2e79894cfff"},"geometry":{"type":"Polygon","coordinates":[[[19.899532,50.127272],[19.899607,50.127213],[19.899663,50.127242],[19.899678,50.127229],[19.899724,50.127253],[19.899708,50.127266],[19.899745,50.127285],[19.899655,50.127356],[19.899572,50.127314],[19.899588,50.127301],[19.899532,50.127272]]]}},{"type":"Feature","id":"w323214483","properties":{"type":"yes","address":"Łąkowa 16","residential":true,"residents_est":1,"h3_10":"8a1e2e798827fff","h3_11":"8b1e2e798825fff"},"geometry":{"type":"Polygon","coordinates":[[[19.895665,50.126351],[19.895695,50.12635],[19.895692,50.126305],[19.895816,50.126301],[19.895821,50.126384],[19.89583,50.126384],[19.895832,50.126426],[19.8957,50.126429],[19.895698,50.126392],[19.895668,50.126393],[19.895665,50.126351]]]}},{"type":"Feature","id":"w323214485","properties":{"type":"yes","address":"Stroma 2","residential":true,"residents_est":1,"h3_10":"8a1e2e79894ffff","h3_11":"8b1e2e798948fff"},"geometry":{"type":"Polygon","coordinates":[[[19.90005,50.127147],[19.900141,50.127076],[19.900265,50.127143],[19.900133,50.127238],[19.900091,50.127216],[19.900136,50.127182],[19.900096,50.127161],[19.900088,50.127167],[19.90005,50.127147]]]}},{"type":"Feature","id":"w323214486","properties":{"type":"yes","address":"Stroma 1","residential":true,"residents_est":1,"h3_10":"8a1e2e79896ffff","h3_11":"8b1e2e79896bfff"},"geometry":{"type":"Polygon","coordinates":[[[19.900214,50.127598],[19.90027,50.127553],[19.900312,50.127575],[19.900325,50.127564],[19.900423,50.127615],[19.900354,50.127671],[19.900312,50.127649],[19.900295,50.127663],[19.900239,50.127634],[19.900256,50.12762],[19.900214,50.127598]]]}},{"type":"Feature","id":"w323214494","properties":{"type":"yes","address":"Ojcowska 8","residential":true,"residents_est":1,"h3_10":"8a1e2e798867fff","h3_11":"8b1e2e798864fff"},"geometry":{"type":"Polygon","coordinates":[[[19.900072,50.126415],[19.90014,50.126352],[19.900148,50.126356],[19.900185,50.126324],[19.900272,50.126367],[19.900199,50.126429],[19.900189,50.126424],[19.900153,50.126454],[19.900072,50.126415]]]}},{"type":"Feature","id":"w323214496","properties":{"type":"house","address":"Ojcowska 18","residential":true,"residents_est":2,"h3_10":"8a1e2e79896ffff","h3_11":"8b1e2e79896afff"},"geometry":{"type":"Polygon","coordinates":[[[19.899163,50.127631],[19.899231,50.127577],[19.8993,50.127613],[19.89932,50.127597],[19.899392,50.127634],[19.899304,50.127704],[19.899239,50.127671],[19.899225,50.127681],[19.899187,50.127661],[19.8992,50.127651],[19.899163,50.127631]]]}},{"type":"Feature","id":"w323214505","properties":{"type":"yes","address":"Łąkowa 14","residential":true,"residents_est":1,"h3_10":"8a1e2e798957fff","h3_11":"8b1e2e798956fff"},"geometry":{"type":"Polygon","coordinates":[[[19.896188,50.126466],[19.896267,50.126464],[19.896268,50.126475],[19.896352,50.126473],[19.896351,50.126462],[19.896414,50.126461],[19.896417,50.126533],[19.89638,50.126534],[19.896381,50.126575],[19.896193,50.126578],[19.896188,50.126466]]]}},{"type":"Feature","id":"w323214514","properties":{"type":"yes","address":"Ojcowska 11","residential":true,"residents_est":1,"h3_10":"8a1e2e79894ffff","h3_11":"8b1e2e79894efff"},"geometry":{"type":"Polygon","coordinates":[[[19.899215,50.12682],[19.89922,50.126748],[19.899408,50.126754],[19.899404,50.126788],[19.899427,50.126796],[19.899432,50.126811],[19.899424,50.12682],[19.899404,50.126825],[19.899215,50.12682]]]}},{"type":"Feature","id":"w323214519","properties":{"type":"yes","residential":true,"residents_est":1,"h3_10":"8a1e2e798847fff","h3_11":"8b1e2e798845fff"},"geometry":{"type":"Polygon","coordinates":[[[19.900831,50.12517],[19.900861,50.125127],[19.901013,50.12517],[19.900969,50.125231],[19.900838,50.125195],[19.900851,50.125176],[19.900831,50.12517]]]}},{"type":"Feature","id":"w323214520","properties":{"type":"yes","residential":true,"residents_est":1,"h3_10":"8a1e2e798977fff","h3_11":"8b1e2e798970fff"},"geometry":{"type":"Polygon","coordinates":[[[19.896733,50.127851],[19.896769,50.127751],[19.89698,50.127783],[19.896944,50.127881],[19.896733,50.127851]]]}},{"type":"Feature","id":"w323214525","properties":{"type":"yes","address":"Cesarska 5","residential":true,"residents_est":1,"h3_10":"8a1e2e79884ffff","h3_11":"8b1e2e79884afff"},"geometry":{"type":"Polygon","coordinates":[[[19.902322,50.123937],[19.902387,50.123886],[19.902454,50.12392],[19.902491,50.123891],[19.902548,50.123921],[19.902436,50.124009],[19.902457,50.12402],[19.902425,50.124045],[19.902351,50.124006],[19.90238,50.123983],[19.902393,50.12399],[19.902405,50.123981],[19.902322,50.123937]]]}},{"type":"Feature","id":"w323214533","properties":{"type":"yes","address":"Jurajska 65A","residential":true,"residents_est":1,"h3_10":"8a1e2e79884ffff","h3_11":"8b1e2e798848fff"},"geometry":{"type":"Polygon","coordinates":[[[19.902504,50.124692],[19.902532,50.124662],[19.902525,50.124659],[19.902618,50.124557],[19.902715,50.124593],[19.902691,50.12462],[19.902682,50.124641],[19.902586,50.124724],[19.902504,50.124692]]]}},{"type":"Feature","id":"w323214542","properties":{"type":"yes","address":"Łąkowa 15","residential":true,"residents_est":1,"h3_10":"8a1e2e798957fff","h3_11":"8b1e2e798952fff"},"geometry":{"type":"Polygon","coordinates":[[[19.896163,50.126233],[19.896163,50.126219],[19.896177,50.126211],[19.896177,50.126183],[19.896391,50.126185],[19.896389,50.126266],[19.896339,50.126266],[19.896339,50.126272],[19.896175,50.12627],[19.896176,50.126243],[19.896163,50.126233]]]}},{"type":"Feature","id":"w323214545","properties":{"type":"yes","address":"Łąkowa 11","residential":true,"residents_est":1,"h3_10":"8a1e2e798957fff","h3_11":"8b1e2e798953fff"},"geometry":{"type":"Polygon","coordinates":[[[19.896823,50.126241],[19.896865,50.126239],[19.896859,50.126198],[19.896876,50.126197],[19.896873,50.126178],[19.896953,50.126173],[19.896969,50.126161],[19.896994,50.126159],[19.897037,50.126182],[19.897049,50.126181],[19.89706,50.126252],[19.896973,50.126258],[19.896949,50.126276],[19.89695,50.126286],[19.896831,50.126292],[19.896823,50.126241]]]}},{"type":"Feature","id":"w323214551","properties":{"type":"yes","residential":true,"residents_est":2,"h3_10":"8a1e2e798867fff","h3_11":"8b1e2e798863fff"},"geometry":{"type":"Polygon","coordinates":[[[19.900702,50.125792],[19.900795,50.125724],[19.900809,50.125732],[19.900975,50.12561],[19.901058,50.125658],[19.900798,50.125847],[19.900702,50.125792]]]}},{"type":"Feature","id":"w323214559","properties":{"type":"yes","address":"Ojcowska 10","residential":true,"residents_est":1,"h3_10":"8a1e2e79894ffff","h3_11":"8b1e2e79894efff"},"geometry":{"type":"Polygon","coordinates":[[[19.899623,50.127002],[19.899675,50.126957],[19.899769,50.127002],[19.899789,50.126986],[19.8998,50.126991],[19.899842,50.126956],[19.899918,50.126994],[19.89991,50.127001],[19.899959,50.127026],[19.899884,50.127088],[19.899834,50.127063],[19.899826,50.127069],[19.899743,50.127028],[19.89972,50.127048],[19.899672,50.127025],[19.899683,50.127016],[19.899673,50.12701],[19.899661,50.12702],[19.899623,50.127002]]]}},{"type":"Feature","id":"w323214571","properties":{"type":"garage","residential":false,"residents_est":0,"h3_10":"8a1e2e798947fff","h3_11":"8b1e2e798941fff"},"geometry":{"type":"Polygon","coordinates":[[[19.899051,50.127497],[19.899102,50.127456],[19.899179,50.127495],[19.899128,50.127536],[19.899051,50.127497]]]}},{"type":"Feature","id":"w323214573","properties":{"type":"yes","address":"Cesarska 3","residential":true,"residents_est":1,"h3_10":"8a1e2e79884ffff","h3_11":"8b1e2e79884afff"},"geometry":{"type":"Polygon","coordinates":[[[19.901854,50.124175],[19.901943,50.124091],[19.902065,50.124144],[19.901979,50.124228],[19.901854,50.124175]]]}},{"type":"Feature","id":"w323214579","properties":{"type":"yes","residential":true,"residents_est":0,"h3_10":"8a1e2e79886ffff","h3_11":"8b1e2e79886efff"},"geometry":{"type":"Polygon","coordinates":[[[19.901549,50.12541],[19.901601,50.125348],[19.901696,50.125382],[19.901644,50.125443],[19.901549,50.12541]]]}},{"type":"Feature","id":"w323214582","properties":{"type":"yes","address":"Ojcowska 6","residential":true,"residents_est":1,"h3_10":"8a1e2e798867fff","h3_11":"8b1e2e798860fff"},"geometry":{"type":"Polygon","coordinates":[[[19.900327,50.12614],[19.900405,50.126073],[19.90052,50.126128],[19.900442,50.126194],[19.900327,50.12614]]]}},{"type":"Feature","id":"w323214583","properties":{"type":"yes","address":"Jurajska 53","residential":true,"residents_est":0,"h3_10":"8a1e2e79886ffff","h3_11":"8b1e2e79886cfff"},"geometry":{"type":"Polygon","coordinates":[[[19.901761,50.12572],[19.901766,50.125704],[19.901785,50.125706],[19.901793,50.125682],[19.901932,50.125701],[19.901907,50.125781],[19.901767,50.125762],[19.90178,50.125722],[19.901761,50.12572]]]}},{"type":"Feature","id":"w323214585","properties":{"type":"yes","residential":true,"residents_est":0,"h3_10":"8a1e2e79896ffff","h3_11":"8b1e2e79896bfff"},"geometry":{"type":"Polygon","coordinates":[[[19.900062,50.127572],[19.90017,50.127485],[19.900241,50.127522],[19.900133,50.127608],[19.900062,50.127572]]]}},{"type":"Feature","id":"w323214591","properties":{"type":"yes","residential":true,"residents_est":1,"h3_10":"8a1e2e79895ffff","h3_11":"8b1e2e79895dfff"},"geometry":{"type":"Polygon","coordinates":[[[19.899135,50.126688],[19.899137,50.126643],[19.89925,50.126644],[19.899248,50.12669],[19.899135,50.126688]]]}},{"type":"Feature","id":"w323214597","properties":{"type":"yes","residential":true,"residents_est":0,"h3_10":"8a1e2e798827fff","h3_11":"8b1e2e798825fff"},"geometry":{"type":"Polygon","coordinates":[[[19.895963,50.126225],[19.896053,50.126224],[19.896055,50.126297],[19.895965,50.126298],[19.895963,50.126225]]]}},{"type":"Feature","id":"w323214598","properties":{"type":"yes","residential":true,"residents_est":1,"h3_10":"8a1e2e798867fff","h3_11":"8b1e2e798861fff"},"geometry":{"type":"Polygon","coordinates":[[[19.901095,50.126002],[19.901174,50.125956],[19.901268,50.126023],[19.901182,50.126069],[19.901095,50.126002]]]}},{"type":"Feature","id":"w323214601","properties":{"type":"yes","residential":true,"residents_est":1,"h3_10":"8a1e2e79884ffff","h3_11":"8b1e2e79884bfff"},"geometry":{"type":"Polygon","coordinates":[[[19.902964,50.124187],[19.903048,50.124096],[19.903144,50.124133],[19.90306,50.124224],[19.902964,50.124187]]]}},{"type":"Feature","id":"w323214616","properties":{"type":"yes","residential":true,"residents_est":0,"h3_10":"8a1e2e79884ffff","h3_11":"8b1e2e79884efff"},"geometry":{"type":"Polygon","coordinates":[[[19.901921,50.124281],[19.901971,50.124236],[19.902091,50.124292],[19.902035,50.124338],[19.901921,50.124281]]]}},{"type":"Feature","id":"w323214617","properties":{"type":"yes","residential":false,"residents_est":0,"h3_10":"8a1e2e798957fff","h3_11":"8b1e2e798952fff"},"geometry":{"type":"Polygon","coordinates":[[[19.896481,50.126267],[19.896565,50.126265],[19.896568,50.126321],[19.896484,50.126323],[19.896481,50.126267]]]}},{"type":"Feature","id":"w323214619","properties":{"type":"yes","address":"Łąkowa 7","residential":true,"residents_est":1,"h3_10":"8a1e2e798957fff","h3_11":"8b1e2e798953fff"},"geometry":{"type":"Polygon","coordinates":[[[19.897517,50.126294],[19.89752,50.126195],[19.897745,50.126197],[19.897741,50.126298],[19.897517,50.126294]]]}},{"type":"Feature","id":"w323214621","properties":{"type":"yes","residential":true,"residents_est":1,"h3_10":"8a1e2e798867fff","h3_11":"8b1e2e798863fff"},"geometry":{"type":"Polygon","coordinates":[[[19.900424,50.125664],[19.900486,50.125598],[19.900628,50.125653],[19.900565,50.125718],[19.900424,50.125664]]]}},{"type":"Feature","id":"w323214628","properties":{"type":"yes","residential":true,"residents_est":1,"h3_10":"8a1e2e79895ffff","h3_11":"8b1e2e798959fff"},"geometry":{"type":"Polygon","coordinates":[[[19.899208,50.12633],[19.899217,50.126273],[19.899352,50.126282],[19.899342,50.126339],[19.899208,50.12633]]]}},{"type":"Feature","id":"w323214630","properties":{"type":"yes","address":"Jurajska 51","residential":true,"residents_est":1,"h3_10":"8a1e2e79886ffff","h3_11":"8b1e2e79886cfff"},"geometry":{"type":"Polygon","coordinates":[[[19.902105,50.126009],[19.902106,50.125899],[19.902233,50.1259],[19.902232,50.12601],[19.902105,50.126009]]]}},{"type":"Feature","id":"w323214644","properties":{"type":"yes","residential":false,"residents_est":0,"h3_10":"8a1e2e798947fff","h3_11":"8b1e2e798944fff"},"geometry":{"type":"Polygon","coordinates":[[[19.898034,50.127734],[19.898052,50.127685],[19.898134,50.127698],[19.898115,50.127746],[19.898034,50.127734]]]}},{"type":"Feature","id":"w323214645","properties":{"type":"yes","residential":false,"residents_est":0,"h3_10":"8a1e2e798957fff","h3_11":"8b1e2e798951fff"},"geometry":{"type":"Polygon","coordinates":[[[19.897322,50.126601],[19.897323,50.126565],[19.897408,50.126566],[19.897407,50.126601],[19.897322,50.126601]]]}},{"type":"Feature","id":"w323214648","properties":{"type":"yes","address":"Łąkowa 12","residential":true,"residents_est":1,"h3_10":"8a1e2e798957fff","h3_11":"8b1e2e798952fff"},"geometry":{"type":"Polygon","coordinates":[[[19.896583,50.126448],[19.896722,50.126445],[19.896728,50.126542],[19.896589,50.126546],[19.896583,50.126448]]]}},{"type":"Feature","id":"w323214651","properties":{"type":"yes","residential":true,"residents_est":0,"h3_10":"8a1e2e79894ffff","h3_11":"8b1e2e79894efff"},"geometry":{"type":"Polygon","coordinates":[[[19.899488,50.127152],[19.899542,50.12711],[19.899628,50.127155],[19.899574,50.127198],[19.899488,50.127152]]]}},{"type":"Feature","id":"w323214652","properties":{"type":"yes","address":"Jurajska 57","residential":true,"residents_est":1,"h3_10":"8a1e2e79886ffff","h3_11":"8b1e2e79886efff"},"geometry":{"type":"Polygon","coordinates":[[[19.901185,50.12548],[19.901254,50.125407],[19.901462,50.125489],[19.901396,50.125561],[19.901359,50.125547],[19.901341,50.125566],[19.901286,50.125545],[19.901304,50.125526],[19.901185,50.12548]]]}},{"type":"Feature","id":"w323214656","properties":{"type":"yes","address":"Ojcowska 25","residential":true,"residents_est":1,"h3_10":"8a1e2e798947fff","h3_11":"8b1e2e798944fff"},"geometry":{"type":"Polygon","coordinates":[[[19.897816,50.127951],[19.897847,50.127869],[19.89802,50.127896],[19.897992,50.127975],[19.897816,50.127951]]]}},{"type":"Feature","id":"w323214659","properties":{"type":"yes","address":"Jurajska 76","residential":true,"residents_est":1,"h3_10":"8a1e2e798867fff","h3_11":"8b1e2e798861fff"},"geometry":{"type":"Polygon","coordinates":[[[19.901083,50.125863],[19.901194,50.125814],[19.901234,50.125852],[19.901207,50.125864],[19.90125,50.125904],[19.901166,50.125941],[19.901083,50.125863]]]}},{"type":"Feature","id":"w323214660","properties":{"type":"yes","residential":false,"residents_est":0,"h3_10":"8a1e2e79886ffff","h3_11":"8b1e2e79886efff"},"geometry":{"type":"Polygon","coordinates":[[[19.901459,50.125566],[19.901492,50.125532],[19.901558,50.125558],[19.901525,50.125592],[19.901459,50.125566]]]}},{"type":"Feature","id":"w323214665","properties":{"type":"yes","address":"Jurajska 80","residential":true,"residents_est":1,"h3_10":"8a1e2e798867fff","h3_11":"8b1e2e798863fff"},"geometry":{"type":"Polygon","coordinates":[[[19.900583,50.125473],[19.900643,50.125393],[19.900675,50.125403],[19.900685,50.125389],[19.900758,50.125411],[19.900688,50.125506],[19.900583,50.125473]]]}},{"type":"Feature","id":"w323214667","properties":{"type":"yes","residential":true,"residents_est":1,"h3_10":"8a1e2e798947fff","h3_11":"8b1e2e798943fff"},"geometry":{"type":"Polygon","coordinates":[[[19.898641,50.127035],[19.898683,50.126912],[19.898866,50.126937],[19.898842,50.127004],[19.898903,50.127013],[19.898887,50.12707],[19.898641,50.127035]]]}},{"type":"Feature","id":"w323214684","properties":{"type":"yes","address":"Ojcowska 13","residential":true,"residents_est":1,"h3_10":"8a1e2e798947fff","h3_11":"8b1e2e798943fff"},"geometry":{"type":"Polygon","coordinates":[[[19.898972,50.127111],[19.899012,50.127002],[19.899139,50.127022],[19.899116,50.127086],[19.899123,50.127088],[19.899109,50.127131],[19.898972,50.127111]]]}},{"type":"Feature","id":"w323214686","properties":{"type":"yes","residential":true,"residents_est":1,"h3_10":"8a1e2e798947fff","h3_11":"8b1e2e798943fff"},"geometry":{"type":"Polygon","coordinates":[[[19.898604,50.127148],[19.898621,50.127097],[19.898862,50.127136],[19.89883,50.127216],[19.898728,50.127199],[19.89874,50.127169],[19.898604,50.127148]]]}},{"type":"Feature","id":"w323214707","properties":{"type":"yes","residential":true,"residents_est":0,"h3_10":"8a1e2e798947fff","h3_11":"8b1e2e798944fff"},"geometry":{"type":"Polygon","coordinates":[[[19.89792,50.127613],[19.897931,50.127573],[19.898061,50.127588],[19.898051,50.127627],[19.89792,50.127613]]]}},{"type":"Feature","id":"w323214714","properties":{"type":"yes","address":"Stroma 4","residential":true,"residents_est":1,"h3_10":"8a1e2e79894ffff","h3_11":"8b1e2e79894dfff"},"geometry":{"type":"Polygon","coordinates":[[[19.900328,50.127306],[19.900371,50.127273],[19.9004,50.127289],[19.900429,50.127267],[19.900559,50.127336],[19.900464,50.12741],[19.900334,50.12734],[19.900358,50.127322],[19.900328,50.127306]]]}},{"type":"Feature","id":"w323214715","properties":{"type":"yes","address":"Ojcowska 5","residential":true,"residents_est":1,"h3_10":"8a1e2e79895ffff","h3_11":"8b1e2e798959fff"},"geometry":{"type":"Polygon","coordinates":[[[19.899469,50.126456],[19.899488,50.126327],[19.899588,50.126334],[19.89958,50.126381],[19.899669,50.126388],[19.899658,50.126454],[19.899587,50.126449],[19.899585,50.126463],[19.899469,50.126456]]]}},{"type":"Feature","id":"w323214720","properties":{"type":"yes","address":"Ojcowska 4","residential":true,"residents_est":1,"h3_10":"8a1e2e798867fff","h3_11":"8b1e2e798860fff"},"geometry":{"type":"Polygon","coordinates":[[[19.900565,50.125979],[19.900673,50.125886],[19.900743,50.125922],[19.90071,50.125949],[19.900758,50.125974],[19.900681,50.126037],[19.900565,50.125979]]]}},{"type":"Feature","id":"w323214732","properties":{"type":"yes","address":"Ojcowska 20","residential":true,"residents_est":1,"h3_10":"8a1e2e798947fff","h3_11":"8b1e2e798945fff"},"geometry":{"type":"Polygon","coordinates":[[[19.898856,50.127682],[19.898907,50.127638],[19.898964,50.127665],[19.898955,50.127673],[19.899056,50.127721],[19.898972,50.127794],[19.898872,50.127745],[19.898912,50.12771],[19.898856,50.127682]]]}},{"type":"Feature","id":"w323214735","properties":{"type":"yes","address":"Ojcowska 26","residential":true,"residents_est":1,"h3_10":"8a1e2e798967fff","h3_11":"8b1e2e798963fff"},"geometry":{"type":"Polygon","coordinates":[[[19.898474,50.128087],[19.898542,50.128029],[19.898676,50.128094],[19.898608,50.128152],[19.898573,50.128135],[19.89855,50.128154],[19.898492,50.128126],[19.898515,50.128106],[19.898474,50.128087]]]}},{"type":"Feature","id":"w323214741","properties":{"type":"residential","address":"Jurajska 61","residential":true,"residents_est":8,"h3_10":"8a1e2e798847fff","h3_11":"8b1e2e798841fff"},"geometry":{"type":"Polygon","coordinates":[[[19.901659,50.124862],[19.901765,50.124751],[19.901836,50.124778],[19.901841,50.124773],[19.901956,50.124818],[19.901925,50.124851],[19.901939,50.124857],[19.901872,50.124927],[19.901859,50.124921],[19.901827,50.124954],[19.901714,50.12491],[19.901733,50.124891],[19.901659,50.124862]]]}},{"type":"Feature","id":"w323214745","properties":{"type":"yes","address":"Łąkowa 9","residential":true,"residents_est":1,"h3_10":"8a1e2e798957fff","h3_11":"8b1e2e798953fff"},"geometry":{"type":"Polygon","coordinates":[[[19.897205,50.12617],[19.89733,50.126169],[19.897331,50.126207],[19.897407,50.126207],[19.897409,50.126289],[19.897298,50.12629],[19.897296,50.126252],[19.897207,50.126253],[19.897205,50.12617]]]}},{"type":"Feature","id":"w323214748","properties":{"type":"yes","address":"Jurajska 55","residential":true,"residents_est":1,"h3_10":"8a1e2e79886ffff","h3_11":"8b1e2e79886efff"},"geometry":{"type":"Polygon","coordinates":[[[19.90154,50.1257],[19.901613,50.125628],[19.901718,50.125672],[19.901644,50.125745],[19.90154,50.1257]]]}},{"type":"Feature","id":"w323214749","properties":{"type":"yes","address":"Dworska 4","residential":true,"residents_est":1,"h3_10":"8a1e2e79886ffff","h3_11":"8b1e2e79886dfff"},"geometry":{"type":"Polygon","coordinates":[[[19.902575,50.126071],[19.902593,50.126046],[19.902579,50.126042],[19.902603,50.126008],[19.902639,50.126019],[19.902685,50.125955],[19.902831,50.125999],[19.902743,50.126121],[19.902575,50.126071]]]}},{"type":"Feature","id":"w323214751","properties":{"type":"yes","address":"Ojcowska 21","residential":true,"residents_est":1,"h3_10":"8a1e2e798947fff","h3_11":"8b1e2e798944fff"},"geometry":{"type":"Polygon","coordinates":[[[19.89823,50.127767],[19.89826,50.127687],[19.898401,50.127709],[19.89837,50.12779],[19.89823,50.127767]]]}},{"type":"Feature","id":"w323214754","properties":{"type":"yes","address":"Jurajska 63","residential":true,"residents_est":1,"h3_10":"8a1e2e79884ffff","h3_11":"8b1e2e79884cfff"},"geometry":{"type":"Polygon","coordinates":[[[19.902006,50.124719],[19.902033,50.124694],[19.902021,50.124689],[19.902095,50.124622],[19.902199,50.12467],[19.902126,50.124736],[19.902115,50.124731],[19.902088,50.124756],[19.902006,50.124719]]]}},{"type":"Feature","id":"w323214756","properties":{"type":"yes","residential":false,"residents_est":0,"h3_10":"8a1e2e79886ffff","h3_11":"8b1e2e79886cfff"},"geometry":{"type":"Polygon","coordinates":[[[19.901973,50.126118],[19.901988,50.126066],[19.902068,50.126077],[19.902054,50.126128],[19.901973,50.126118]]]}},{"type":"Feature","id":"w323214771","properties":{"type":"yes","address":"Jurajska 65","residential":true,"residents_est":1,"h3_10":"8a1e2e79884ffff","h3_11":"8b1e2e798848fff"},"geometry":{"type":"Polygon","coordinates":[[[19.902759,50.124407],[19.902855,50.124304],[19.902951,50.124341],[19.902916,50.124379],[19.902907,50.124401],[19.902881,50.124416],[19.902856,50.124444],[19.902759,50.124407]]]}},{"type":"Feature","id":"w459259590","properties":{"type":"yes","residential":false,"residents_est":0,"h3_10":"8a1e2e798927fff","h3_11":"8b1e2e798922fff"},"geometry":{"type":"Polygon","coordinates":[[[19.892939,50.128077],[19.892952,50.12804],[19.89303,50.128051],[19.893017,50.128088],[19.892939,50.128077]]]}},{"type":"Feature","id":"w459460879","properties":{"type":"yes","address":"Jurajska 23","residential":true,"residents_est":0,"h3_10":"8a1e2e7988cffff","h3_11":"8b1e2e7988c9fff"},"geometry":{"type":"Polygon","coordinates":[[[19.900761,50.121834],[19.900793,50.121806],[19.90078,50.1218],[19.900817,50.121767],[19.900959,50.121833],[19.900923,50.121866],[19.900909,50.121859],[19.900877,50.121888],[19.900761,50.121834]]]}},{"type":"Feature","id":"w706400216","properties":{"type":"yes","residential":true,"residents_est":1,"h3_10":"8a1e2e798857fff","h3_11":"8b1e2e798855fff"},"geometry":{"type":"Polygon","coordinates":[[[19.899739,50.124343],[19.899907,50.124271],[19.899973,50.124328],[19.89981,50.124405],[19.899739,50.124343]]]}},{"type":"Feature","id":"w706400218","properties":{"type":"yes","residential":true,"residents_est":1,"h3_10":"8a1e2e79885ffff","h3_11":"8b1e2e798858fff"},"geometry":{"type":"Polygon","coordinates":[[[19.901108,50.123899],[19.901196,50.123812],[19.901275,50.123845],[19.901187,50.123931],[19.901108,50.123899]]]}},{"type":"Feature","id":"w706400220","properties":{"type":"yes","address":"Jurajska 21","residential":true,"residents_est":1,"h3_10":"8a1e2e7988cffff","h3_11":"8b1e2e7988c9fff"},"geometry":{"type":"Polygon","coordinates":[[[19.900506,50.121716],[19.900538,50.121688],[19.900525,50.121682],[19.900562,50.121649],[19.900705,50.121715],[19.900668,50.121748],[19.900654,50.121741],[19.900622,50.12177],[19.900506,50.121716]]]}},{"type":"Feature","id":"w706400221","properties":{"type":"house","address":"Jurajska 28","residential":true,"residents_est":2,"h3_10":"8a1e2e7988c7fff","h3_11":"8b1e2e7988c1fff"},"geometry":{"type":"Polygon","coordinates":[[[19.898851,50.12228],[19.899042,50.122234],[19.899075,50.122286],[19.899003,50.122305],[19.899038,50.12236],[19.898954,50.122382],[19.898937,50.122355],[19.898924,50.122359],[19.898906,50.12233],[19.898887,50.122335],[19.898851,50.12228]]]}},{"type":"Feature","id":"w786209788","properties":{"type":"yes","address":"Szydło 59K","residential":true,"residents_est":1,"h3_10":"8a1e2e798997fff","h3_11":"8b1e2e798992fff"},"geometry":{"type":"Polygon","coordinates":[[[19.889215,50.123656],[19.889238,50.123637],[19.88922,50.123627],[19.889279,50.12358],[19.889438,50.123661],[19.889392,50.123698],[19.88937,50.123687],[19.889333,50.123717],[19.889234,50.123671],[19.889237,50.123668],[19.889215,50.123656]]]}},{"type":"Feature","id":"w786209789","properties":{"type":"yes","residential":false,"residents_est":0,"h3_10":"8a1e2e798997fff","h3_11":"8b1e2e798992fff"},"geometry":{"type":"Polygon","coordinates":[[[19.889293,50.123567],[19.889329,50.123537],[19.889401,50.123575],[19.889365,50.123604],[19.889293,50.123567]]]}},{"type":"Feature","id":"w836462956","properties":{"type":"yes","residential":true,"residents_est":1,"h3_10":"8a1e2e798977fff","h3_11":"8b1e2e798973fff"},"geometry":{"type":"Polygon","coordinates":[[[19.896949,50.127243],[19.89698,50.127168],[19.897112,50.127191],[19.89708,50.127266],[19.896949,50.127243]]]}},{"type":"Feature","id":"w836462967","properties":{"type":"yes","residential":true,"residents_est":1,"h3_10":"8a1e2e798947fff","h3_11":"8b1e2e798946fff"},"geometry":{"type":"Polygon","coordinates":[[[19.897289,50.127269],[19.897314,50.127197],[19.897461,50.127219],[19.897447,50.127259],[19.897428,50.127257],[19.897416,50.127288],[19.897289,50.127269]]]}},{"type":"Feature","id":"w836462968","properties":{"type":"yes","residential":true,"residents_est":1,"h3_10":"8a1e2e798957fff","h3_11":"8b1e2e798955fff"},"geometry":{"type":"Polygon","coordinates":[[[19.897314,50.127197],[19.89734,50.127127],[19.897467,50.127147],[19.897456,50.127177],[19.897476,50.127179],[19.897461,50.127219],[19.897314,50.127197]]]}},{"type":"Feature","id":"w836462969","properties":{"type":"yes","residential":true,"residents_est":1,"h3_10":"8a1e2e798947fff","h3_11":"8b1e2e798946fff"},"geometry":{"type":"Polygon","coordinates":[[[19.89757,50.127313],[19.897597,50.127243],[19.897744,50.127265],[19.89773,50.127304],[19.897711,50.127299],[19.897698,50.12733],[19.89757,50.127313]]]}},{"type":"Feature","id":"w836462970","properties":{"type":"yes","residential":true,"residents_est":1,"h3_10":"8a1e2e798947fff","h3_11":"8b1e2e798946fff"},"geometry":{"type":"Polygon","coordinates":[[[19.897597,50.127243],[19.897621,50.127172],[19.897751,50.127192],[19.897739,50.127222],[19.897759,50.127225],[19.897744,50.127265],[19.897597,50.127243]]]}},{"type":"Feature","id":"w836462971","properties":{"type":"yes","residential":true,"residents_est":1,"h3_10":"8a1e2e798947fff","h3_11":"8b1e2e798946fff"},"geometry":{"type":"Polygon","coordinates":[[[19.897852,50.127351],[19.897875,50.127281],[19.898024,50.127302],[19.898011,50.127341],[19.897991,50.127339],[19.897981,50.127369],[19.897852,50.127351]]]}},{"type":"Feature","id":"w836462972","properties":{"type":"yes","residential":true,"residents_est":1,"h3_10":"8a1e2e798947fff","h3_11":"8b1e2e798946fff"},"geometry":{"type":"Polygon","coordinates":[[[19.897875,50.127281],[19.897899,50.12721],[19.898029,50.127229],[19.898019,50.127259],[19.898038,50.127262],[19.898024,50.127302],[19.897875,50.127281]]]}},{"type":"Feature","id":"w836462973","properties":{"type":"yes","residential":true,"residents_est":1,"h3_10":"8a1e2e798947fff","h3_11":"8b1e2e798940fff"},"geometry":{"type":"Polygon","coordinates":[[[19.898161,50.127323],[19.898185,50.127252],[19.898316,50.127271],[19.898305,50.127301],[19.898325,50.127304],[19.898311,50.127342],[19.898315,50.127344],[19.898161,50.127323]]]}},{"type":"Feature","id":"w836462974","properties":{"type":"yes","residential":true,"residents_est":1,"h3_10":"8a1e2e798947fff","h3_11":"8b1e2e798940fff"},"geometry":{"type":"Polygon","coordinates":[[[19.898136,50.127393],[19.898161,50.127323],[19.898315,50.127344],[19.898309,50.127347],[19.898296,50.127384],[19.898277,50.127382],[19.898267,50.127412],[19.898136,50.127393]]]}},{"type":"Feature","id":"w836462975","properties":{"type":"yes","residential":false,"residents_est":0,"h3_10":"8a1e2e798957fff","h3_11":"8b1e2e798953fff"},"geometry":{"type":"Polygon","coordinates":[[[19.897054,50.12627],[19.897107,50.126268],[19.897111,50.126327],[19.897057,50.126328],[19.897054,50.12627]]]}},{"type":"Feature","id":"w836462976","properties":{"type":"yes","residential":true,"residents_est":1,"h3_10":"8a1e2e79895ffff","h3_11":"8b1e2e79895efff"},"geometry":{"type":"Polygon","coordinates":[[[19.897841,50.126205],[19.898013,50.126199],[19.898015,50.126227],[19.898024,50.126233],[19.898025,50.126249],[19.898018,50.126255],[19.89802,50.126283],[19.897849,50.126289],[19.897841,50.126205]]]}},{"type":"Feature","id":"w836462982","properties":{"type":"yes","residential":false,"residents_est":0,"h3_10":"8a1e2e798947fff","h3_11":"8b1e2e798944fff"},"geometry":{"type":"Polygon","coordinates":[[[19.897933,50.127573],[19.897942,50.12754],[19.898027,50.127549],[19.898018,50.127583],[19.897933,50.127573]]]}},{"type":"Feature","id":"w836462983","properties":{"type":"yes","residential":false,"residents_est":0,"h3_10":"8a1e2e798947fff","h3_11":"8b1e2e798944fff"},"geometry":{"type":"Polygon","coordinates":[[[19.89818,50.127745],[19.898201,50.127685],[19.898257,50.127694],[19.898234,50.127755],[19.89818,50.127745]]]}},{"type":"Feature","id":"w836462985","properties":{"type":"yes","residential":true,"residents_est":1,"h3_10":"8a1e2e79892ffff","h3_11":"8b1e2e79892bfff"},"geometry":{"type":"Polygon","coordinates":[[[19.895239,50.127668],[19.895275,50.127573],[19.895456,50.1276],[19.89542,50.127696],[19.895239,50.127668]]]}},{"type":"Feature","id":"w836719205","properties":{"type":"yes","residential":true,"residents_est":1,"h3_10":"8a1e2e798867fff","h3_11":"8b1e2e798861fff"},"geometry":{"type":"Polygon","coordinates":[[[19.900798,50.125847],[19.900869,50.125793],[19.900952,50.12584],[19.900879,50.125893],[19.900798,50.125847]]]}},{"type":"Feature","id":"w836719206","properties":{"type":"yes","residential":true,"residents_est":1,"h3_10":"8a1e2e798867fff","h3_11":"8b1e2e798863fff"},"geometry":{"type":"Polygon","coordinates":[[[19.900928,50.125754],[19.901058,50.125658],[19.901143,50.125706],[19.901012,50.125801],[19.900928,50.125754]]]}},{"type":"Feature","id":"w836719207","properties":{"type":"roof","residential":false,"residents_est":0,"h3_10":"8a1e2e798867fff","h3_11":"8b1e2e798863fff"},"geometry":{"type":"Polygon","coordinates":[[[19.900841,50.125635],[19.90095,50.125541],[19.900982,50.125543],[19.901052,50.125581],[19.900998,50.125624],[19.900975,50.12561],[19.900899,50.125664],[19.900841,50.125635]]]}},{"type":"Feature","id":"w836719208","properties":{"type":"yes","residential":false,"residents_est":0,"h3_10":"8a1e2e798867fff","h3_11":"8b1e2e798864fff"},"geometry":{"type":"Polygon","coordinates":[[[19.900024,50.126481],[19.900075,50.12645],[19.900139,50.126493],[19.900088,50.126524],[19.900024,50.126481]]]}},{"type":"Feature","id":"w836719209","properties":{"type":"yes","residential":false,"residents_est":0,"h3_10":"8a1e2e798867fff","h3_11":"8b1e2e798860fff"},"geometry":{"type":"Polygon","coordinates":[[[19.900606,50.125852],[19.900651,50.125816],[19.900717,50.125851],[19.900673,50.125886],[19.900606,50.125852]]]}},{"type":"Feature","id":"w836741874","properties":{"type":"yes","address":"Jurajska 82","residential":true,"residents_est":1,"h3_10":"8a1e2e798847fff","h3_11":"8b1e2e798845fff"},"geometry":{"type":"Polygon","coordinates":[[[19.900798,50.125284],[19.900856,50.1252],[19.900969,50.125231],[19.900898,50.125333],[19.900836,50.125315],[19.900848,50.125298],[19.900798,50.125284]]]}},{"type":"Feature","id":"w836741877","properties":{"type":"garage","residential":false,"residents_est":0,"h3_10":"8a1e2e798847fff","h3_11":"8b1e2e798845fff"},"geometry":{"type":"Polygon","coordinates":[[[19.901048,50.125115],[19.901069,50.125071],[19.901112,50.125079],[19.901091,50.125123],[19.901048,50.125115]]]}},{"type":"Feature","id":"w836741878","properties":{"type":"yes","residential":true,"residents_est":0,"h3_10":"8a1e2e79886ffff","h3_11":"8b1e2e79886efff"},"geometry":{"type":"Polygon","coordinates":[[[19.901505,50.125537],[19.901574,50.125465],[19.901629,50.125486],[19.90156,50.125559],[19.901505,50.125537]]]}},{"type":"Feature","id":"w836741879","properties":{"type":"yes","residential":true,"residents_est":0,"h3_10":"8a1e2e79886ffff","h3_11":"8b1e2e79886efff"},"geometry":{"type":"Polygon","coordinates":[[[19.901574,50.125612],[19.901642,50.125547],[19.90171,50.125577],[19.901643,50.125641],[19.901574,50.125612]]]}},{"type":"Feature","id":"w836741881","properties":{"type":"yes","residential":false,"residents_est":0,"h3_10":"8a1e2e79886ffff","h3_11":"8b1e2e79886cfff"},"geometry":{"type":"Polygon","coordinates":[[[19.902059,50.126112],[19.902068,50.126077],[19.902162,50.126087],[19.902153,50.126122],[19.902059,50.126112]]]}},{"type":"Feature","id":"w1049554731","properties":{"type":"detached","levels":2.0,"residential":true,"residents_est":2,"h3_10":"8a1e2e798867fff","h3_11":"8b1e2e798862fff"},"geometry":{"type":"Polygon","coordinates":[[[19.899777,50.125729],[19.899852,50.125629],[19.899973,50.125667],[19.899897,50.125767],[19.899777,50.125729]]]}},{"type":"Feature","id":"w1050471686","properties":{"type":"yes","levels":1.0,"residential":true,"residents_est":53,"h3_10":"8a1e2e79880ffff","h3_11":"8b1e2e79880afff"},"geometry":{"type":"Polygon","coordinates":[[[19.895875,50.124202],[19.895951,50.124025],[19.895996,50.123946],[19.896099,50.123864],[19.896104,50.123848],[19.896119,50.123834],[19.896151,50.123834],[19.896201,50.123863],[19.896394,50.123791],[19.896396,50.123775],[19.896404,50.123771],[19.897886,50.124066],[19.898021,50.123884],[19.898736,50.123875],[19.898771,50.123891],[19.898803,50.12392],[19.898804,50.123939],[19.898573,50.124337],[19.898516,50.124376],[19.898556,50.124394],[19.898572,50.12444],[19.898532,50.124487],[19.898486,50.12452],[19.898274,50.124562],[19.89814,50.124559],[19.898115,50.124499],[19.897967,50.124592],[19.897172,50.124719],[19.897122,50.124737],[19.897052,50.124747],[19.897008,50.124746],[19.896654,50.12469],[19.896529,50.124643],[19.89613,50.124363],[19.896115,50.124302],[19.895978,50.124307],[19.895925,50.124277],[19.895875,50.124202]]]}},{"type":"Feature","id":"w1177940890","properties":{"type":"semidetached_house","residential":true,"residents_est":1,"h3_10":"8a1e2e798977fff","h3_11":"8b1e2e798974fff"},"geometry":{"type":"Polygon","coordinates":[[[19.896427,50.1281],[19.89646,50.128009],[19.89657,50.128025],[19.896537,50.128117],[19.896427,50.1281]]]}},{"type":"Feature","id":"w1177941255","properties":{"type":"semidetached_house","residential":true,"residents_est":1,"h3_10":"8a1e2e798977fff","h3_11":"8b1e2e798974fff"},"geometry":{"type":"Polygon","coordinates":[[[19.896537,50.128117],[19.89657,50.128025],[19.89668,50.128042],[19.896646,50.128133],[19.896537,50.128117]]]}},{"type":"Feature","id":"w1177941262","properties":{"type":"semidetached_house","residential":true,"residents_est":1,"h3_10":"8a1e2e798977fff","h3_11":"8b1e2e798974fff"},"geometry":{"type":"Polygon","coordinates":[[[19.896018,50.128103],[19.896051,50.128011],[19.896161,50.128028],[19.896128,50.128119],[19.896018,50.128103]]]}},{"type":"Feature","id":"w1177941263","properties":{"type":"semidetached_house","residential":true,"residents_est":1,"h3_10":"8a1e2e798977fff","h3_11":"8b1e2e798974fff"},"geometry":{"type":"Polygon","coordinates":[[[19.896128,50.128119],[19.896161,50.128028],[19.896271,50.128044],[19.896237,50.128136],[19.896128,50.128119]]]}},{"type":"Feature","id":"w1177941264","properties":{"type":"semidetached_house","residential":true,"residents_est":1,"h3_10":"8a1e2e79892ffff","h3_11":"8b1e2e798929fff"},"geometry":{"type":"Polygon","coordinates":[[[19.895746,50.128064],[19.895779,50.127973],[19.895889,50.127989],[19.895856,50.128081],[19.895746,50.128064]]]}},{"type":"Feature","id":"w1177941265","properties":{"type":"semidetached_house","residential":true,"residents_est":1,"h3_10":"8a1e2e798977fff","h3_11":"8b1e2e798974fff"},"geometry":{"type":"Polygon","coordinates":[[[19.895856,50.128081],[19.895889,50.127989],[19.895999,50.128006],[19.895965,50.128097],[19.895856,50.128081]]]}},{"type":"Feature","id":"w1177941266","properties":{"type":"semidetached_house","residential":true,"residents_est":1,"h3_10":"8a1e2e79892ffff","h3_11":"8b1e2e798929fff"},"geometry":{"type":"Polygon","coordinates":[[[19.895478,50.128025],[19.895511,50.127933],[19.895621,50.12795],[19.895588,50.128041],[19.895478,50.128025]]]}},{"type":"Feature","id":"w1177941267","properties":{"type":"semidetached_house","residential":true,"residents_est":1,"h3_10":"8a1e2e79892ffff","h3_11":"8b1e2e798929fff"},"geometry":{"type":"Polygon","coordinates":[[[19.895588,50.128041],[19.895621,50.12795],[19.895731,50.127966],[19.895697,50.128057],[19.895588,50.128041]]]}},{"type":"Feature","id":"w1177941268","properties":{"type":"semidetached_house","residential":true,"residents_est":1,"h3_10":"8a1e2e79892ffff","h3_11":"8b1e2e798929fff"},"geometry":{"type":"Polygon","coordinates":[[[19.895211,50.127987],[19.895244,50.127896],[19.895354,50.127912],[19.895321,50.128003],[19.895211,50.127987]]]}},{"type":"Feature","id":"w1177941269","properties":{"type":"semidetached_house","residential":true,"residents_est":1,"h3_10":"8a1e2e79892ffff","h3_11":"8b1e2e798929fff"},"geometry":{"type":"Polygon","coordinates":[[[19.895321,50.128003],[19.895354,50.127912],[19.895464,50.127928],[19.89543,50.12802],[19.895321,50.128003]]]}},{"type":"Feature","id":"w1177941270","properties":{"type":"semidetached_house","residential":true,"residents_est":1,"h3_10":"8a1e2e79892ffff","h3_11":"8b1e2e798928fff"},"geometry":{"type":"Polygon","coordinates":[[[19.894938,50.127947],[19.894971,50.127856],[19.895081,50.127872],[19.895048,50.127963],[19.894938,50.127947]]]}},{"type":"Feature","id":"w1177941271","properties":{"type":"semidetached_house","residential":true,"residents_est":1,"h3_10":"8a1e2e79892ffff","h3_11":"8b1e2e79892bfff"},"geometry":{"type":"Polygon","coordinates":[[[19.895048,50.127963],[19.895081,50.127872],[19.895191,50.127888],[19.895157,50.12798],[19.895048,50.127963]]]}},{"type":"Feature","id":"w1177941272","properties":{"type":"semidetached_house","residential":true,"residents_est":1,"h3_10":"8a1e2e79892ffff","h3_11":"8b1e2e79892afff"},"geometry":{"type":"Polygon","coordinates":[[[19.894668,50.127905],[19.894701,50.127814],[19.894811,50.127831],[19.894779,50.127922],[19.894668,50.127905]]]}},{"type":"Feature","id":"w1177941273","properties":{"type":"semidetached_house","residential":true,"residents_est":1,"h3_10":"8a1e2e79892ffff","h3_11":"8b1e2e798928fff"},"geometry":{"type":"Polygon","coordinates":[[[19.894779,50.127922],[19.894811,50.127831],[19.894921,50.127847],[19.894888,50.127938],[19.894779,50.127922]]]}},{"type":"Feature","id":"w1177941274","properties":{"type":"semidetached_house","residential":true,"residents_est":1,"h3_10":"8a1e2e79892ffff","h3_11":"8b1e2e79892afff"},"geometry":{"type":"Polygon","coordinates":[[[19.894405,50.127865],[19.894438,50.127774],[19.894548,50.12779],[19.894515,50.127881],[19.894405,50.127865]]]}},{"type":"Feature","id":"w1177941275","properties":{"type":"semidetached_house","residential":true,"residents_est":1,"h3_10":"8a1e2e79892ffff","h3_11":"8b1e2e79892afff"},"geometry":{"type":"Polygon","coordinates":[[[19.894515,50.127881],[19.894548,50.12779],[19.894658,50.127806],[19.894624,50.127898],[19.894515,50.127881]]]}},{"type":"Feature","id":"w1177941276","properties":{"type":"semidetached_house","residential":true,"residents_est":1,"h3_10":"8a1e2e79892ffff","h3_11":"8b1e2e79892afff"},"geometry":{"type":"Polygon","coordinates":[[[19.894137,50.127824],[19.89417,50.127733],[19.89428,50.127749],[19.894247,50.12784],[19.894137,50.127824]]]}},{"type":"Feature","id":"w1177941277","properties":{"type":"semidetached_house","residential":true,"residents_est":1,"h3_10":"8a1e2e79892ffff","h3_11":"8b1e2e79892afff"},"geometry":{"type":"Polygon","coordinates":[[[19.894247,50.12784],[19.89428,50.127749],[19.89439,50.127765],[19.894356,50.127857],[19.894247,50.12784]]]}},{"type":"Feature","id":"w1177941278","properties":{"type":"semidetached_house","residential":true,"residents_est":1,"h3_10":"8a1e2e798907fff","h3_11":"8b1e2e798905fff"},"geometry":{"type":"Polygon","coordinates":[[[19.893866,50.127786],[19.893899,50.127694],[19.894009,50.127711],[19.893976,50.127802],[19.893866,50.127786]]]}},{"type":"Feature","id":"w1177941279","properties":{"type":"semidetached_house","residential":true,"residents_est":1,"h3_10":"8a1e2e798907fff","h3_11":"8b1e2e798905fff"},"geometry":{"type":"Polygon","coordinates":[[[19.893976,50.127802],[19.894009,50.127711],[19.894119,50.127727],[19.894085,50.127819],[19.893976,50.127802]]]}},{"type":"Feature","id":"w1177941280","properties":{"type":"semidetached_house","residential":true,"residents_est":1,"h3_10":"8a1e2e798907fff","h3_11":"8b1e2e798905fff"},"geometry":{"type":"Polygon","coordinates":[[[19.893598,50.127746],[19.893631,50.127655],[19.893741,50.127671],[19.893708,50.127762],[19.893598,50.127746]]]}},{"type":"Feature","id":"w1177941281","properties":{"type":"semidetached_house","residential":true,"residents_est":1,"h3_10":"8a1e2e798907fff","h3_11":"8b1e2e798905fff"},"geometry":{"type":"Polygon","coordinates":[[[19.893708,50.127762],[19.893741,50.127671],[19.893851,50.127687],[19.893817,50.127779],[19.893708,50.127762]]]}},{"type":"Feature","id":"w1177941282","properties":{"type":"semidetached_house","residential":true,"residents_est":1,"h3_10":"8a1e2e798907fff","h3_11":"8b1e2e798904fff"},"geometry":{"type":"Polygon","coordinates":[[[19.893332,50.127705],[19.893365,50.127614],[19.893475,50.12763],[19.893442,50.127721],[19.893332,50.127705]]]}},{"type":"Feature","id":"w1177941283","properties":{"type":"semidetached_house","residential":true,"residents_est":1,"h3_10":"8a1e2e798907fff","h3_11":"8b1e2e798905fff"},"geometry":{"type":"Polygon","coordinates":[[[19.893442,50.127721],[19.893475,50.12763],[19.893585,50.127646],[19.893552,50.127738],[19.893442,50.127721]]]}},{"type":"Feature","id":"w1177941284","properties":{"type":"semidetached_house","residential":true,"residents_est":1,"h3_10":"8a1e2e798907fff","h3_11":"8b1e2e798904fff"},"geometry":{"type":"Polygon","coordinates":[[[19.892955,50.127646],[19.892988,50.127555],[19.893098,50.127571],[19.893065,50.127662],[19.892955,50.127646]]]}},{"type":"Feature","id":"w1177941285","properties":{"type":"semidetached_house","residential":true,"residents_est":1,"h3_10":"8a1e2e798907fff","h3_11":"8b1e2e798904fff"},"geometry":{"type":"Polygon","coordinates":[[[19.893065,50.127662],[19.893098,50.127571],[19.893208,50.127587],[19.893174,50.127679],[19.893065,50.127662]]]}},{"type":"Feature","id":"w1177941286","properties":{"type":"semidetached_house","residential":true,"residents_est":1,"h3_10":"8a1e2e798907fff","h3_11":"8b1e2e798904fff"},"geometry":{"type":"Polygon","coordinates":[[[19.892695,50.127607],[19.892728,50.127516],[19.892838,50.127532],[19.892805,50.127623],[19.892695,50.127607]]]}},{"type":"Feature","id":"w1177941287","properties":{"type":"semidetached_house","residential":true,"residents_est":1,"h3_10":"8a1e2e798907fff","h3_11":"8b1e2e798904fff"},"geometry":{"type":"Polygon","coordinates":[[[19.892805,50.127623],[19.892838,50.127532],[19.892948,50.127548],[19.892915,50.12764],[19.892805,50.127623]]]}},{"type":"Feature","id":"w1177941671","properties":{"type":"detached","residential":true,"residents_est":1,"h3_10":"8a1e2e79892ffff","h3_11":"8b1e2e798928fff"},"geometry":{"type":"Polygon","coordinates":[[[19.894637,50.128093],[19.894663,50.128021],[19.894807,50.128042],[19.894782,50.128114],[19.894637,50.128093]]]}},{"type":"Feature","id":"w1177941672","properties":{"type":"detached","residential":true,"residents_est":1,"h3_10":"8a1e2e79892ffff","h3_11":"8b1e2e79892efff"},"geometry":{"type":"Polygon","coordinates":[[[19.894304,50.128043],[19.894329,50.127972],[19.894474,50.127993],[19.894448,50.128064],[19.894304,50.128043]]]}},{"type":"Feature","id":"w1177941673","properties":{"type":"detached","residential":true,"residents_est":1,"h3_10":"8a1e2e79892ffff","h3_11":"8b1e2e79892efff"},"geometry":{"type":"Polygon","coordinates":[[[19.893971,50.127995],[19.893997,50.127924],[19.894141,50.127945],[19.894116,50.128016],[19.893971,50.127995]]]}},{"type":"Feature","id":"w1177941674","properties":{"type":"detached","residential":true,"residents_est":1,"h3_10":"8a1e2e798907fff","h3_11":"8b1e2e798905fff"},"geometry":{"type":"Polygon","coordinates":[[[19.893639,50.127947],[19.893665,50.127876],[19.893809,50.127897],[19.893784,50.127968],[19.893639,50.127947]]]}},{"type":"Feature","id":"w1177941675","properties":{"type":"detached","residential":true,"residents_est":1,"h3_10":"8a1e2e798927fff","h3_11":"8b1e2e798923fff"},"geometry":{"type":"Polygon","coordinates":[[[19.893307,50.127895],[19.893332,50.127824],[19.893477,50.127845],[19.893452,50.127916],[19.893307,50.127895]]]}},{"type":"Feature","id":"w1177941676","properties":{"type":"detached","residential":true,"residents_est":1,"h3_10":"8a1e2e798907fff","h3_11":"8b1e2e798904fff"},"geometry":{"type":"Polygon","coordinates":[[[19.892942,50.127841],[19.892968,50.12777],[19.893112,50.127791],[19.893087,50.127862],[19.892942,50.127841]]]}},{"type":"Feature","id":"w1177941677","properties":{"type":"detached","residential":true,"residents_est":1,"h3_10":"8a1e2e798907fff","h3_11":"8b1e2e798904fff"},"geometry":{"type":"Polygon","coordinates":[[[19.892617,50.127791],[19.892642,50.12772],[19.892787,50.127741],[19.892762,50.127812],[19.892617,50.127791]]]}},{"type":"Feature","id":"w1205031615","properties":{"type":"yes","residential":true,"residents_est":1,"h3_10":"8a1e2e798867fff","h3_11":"8b1e2e798866fff"},"geometry":{"type":"Polygon","coordinates":[[[19.899694,50.126122],[19.899748,50.125985],[19.899902,50.12601],[19.899848,50.126147],[19.899694,50.126122]]]}},{"type":"Feature","id":"w1207389941","properties":{"type":"yes","address":"Ojcowska 21A","residential":true,"residents_est":1,"h3_10":"8a1e2e798947fff","h3_11":"8b1e2e798944fff"},"geometry":{"type":"Polygon","coordinates":[[[19.89756,50.12768],[19.897591,50.127598],[19.897804,50.127631],[19.897773,50.127713],[19.89756,50.12768]]]}},{"type":"Feature","id":"w1207389942","properties":{"type":"yes","address":"Ojcowska 21B","residential":true,"residents_est":1,"h3_10":"8a1e2e798977fff","h3_11":"8b1e2e798973fff"},"geometry":{"type":"Polygon","coordinates":[[[19.896793,50.127576],[19.896825,50.127485],[19.897049,50.127518],[19.897016,50.127609],[19.896793,50.127576]]]}},{"type":"Feature","id":"w1207389943","properties":{"type":"yes","address":"Ojcowska 21C","residential":true,"residents_est":1,"h3_10":"8a1e2e798977fff","h3_11":"8b1e2e798972fff"},"geometry":{"type":"Polygon","coordinates":[[[19.896064,50.127467],[19.896096,50.127376],[19.896319,50.127409],[19.896287,50.127499],[19.896064,50.127467]]]}},{"type":"Feature","id":"w1305636110","properties":{"type":"yes","residential":true,"residents_est":1,"h3_10":"8a1e2e798997fff","h3_11":"8b1e2e798992fff"},"geometry":{"type":"Polygon","coordinates":[[[19.888963,50.123544],[19.889058,50.123466],[19.889187,50.123531],[19.889092,50.123609],[19.888963,50.123544]]]}},{"type":"Feature","id":"w1305636111","properties":{"type":"yes","residential":false,"residents_est":0,"h3_10":"8a1e2e798997fff","h3_11":"8b1e2e798992fff"},"geometry":{"type":"Polygon","coordinates":[[[19.889127,50.123477],[19.889163,50.123445],[19.889244,50.123482],[19.889208,50.123514],[19.889127,50.123477]]]}},{"type":"Feature","id":"w1305636121","properties":{"type":"yes","residential":true,"residents_est":1,"h3_10":"8a1e2e798977fff","h3_11":"8b1e2e798973fff"},"geometry":{"type":"Polygon","coordinates":[[[19.896536,50.127347],[19.896563,50.127271],[19.896746,50.127298],[19.89672,50.127374],[19.896536,50.127347]]]}},{"type":"Feature","id":"w1305636122","properties":{"type":"construction","residential":false,"residents_est":0,"h3_10":"8a1e2e798977fff","h3_11":"8b1e2e798972fff"},"geometry":{"type":"Polygon","coordinates":[[[19.896054,50.127323],[19.896087,50.127224],[19.896202,50.12724],[19.896169,50.127339],[19.896054,50.127323]]]}},{"type":"Feature","id":"w1357876062","properties":{"type":"construction","address":"Jurajska 10A","residential":false,"residents_est":0,"h3_10":"8a1e2e798847fff","h3_11":"8b1e2e798846fff"},"geometry":{"type":"Polygon","coordinates":[[[19.90018,50.124722],[19.900275,50.124664],[19.90035,50.124714],[19.900256,50.124773],[19.90018,50.124722]]]}},{"type":"Feature","id":"w1357876063","properties":{"type":"construction","address":"Jurajska 10B","residential":false,"residents_est":0,"h3_10":"8a1e2e798847fff","h3_11":"8b1e2e798846fff"},"geometry":{"type":"Polygon","coordinates":[[[19.900029,50.124632],[19.900123,50.124573],[19.900199,50.124624],[19.900104,50.124682],[19.900029,50.124632]]]}},{"type":"Feature","id":"w1357876064","properties":{"type":"construction","address":"Jurajska 10","residential":false,"residents_est":0,"h3_10":"8a1e2e798847fff","h3_11":"8b1e2e798842fff"},"geometry":{"type":"Polygon","coordinates":[[[19.900321,50.124617],[19.900416,50.124558],[19.900491,50.124608],[19.900397,50.124667],[19.900321,50.124617]]]}},{"type":"Feature","id":"w1520013685","properties":{"type":"detached","residential":true,"residents_est":1,"h3_10":"8a1e2e798847fff","h3_11":"8b1e2e798842fff"},"geometry":{"type":"Polygon","coordinates":[[[19.900534,50.124508],[19.900632,50.124439],[19.900705,50.124482],[19.900607,50.12455],[19.900534,50.124508]]]}},{"type":"Feature","id":"w1520013686","properties":{"type":"detached","address":"Jurajska 6","residential":true,"residents_est":3,"h3_10":"8a1e2e79885ffff","h3_11":"8b1e2e79885cfff"},"geometry":{"type":"Polygon","coordinates":[[[19.900682,50.124297],[19.900814,50.124218],[19.900843,50.124237],[19.900831,50.124244],[19.900878,50.124276],[19.900916,50.124253],[19.900976,50.124294],[19.900866,50.12436],[19.900832,50.124337],[19.900766,50.124376],[19.900729,50.124351],[19.900746,50.124341],[19.900682,50.124297]]]}},{"type":"Feature","id":"w1520013687","properties":{"type":"detached","address":"Jurajska 53A","residential":true,"residents_est":2,"h3_10":"8a1e2e79886ffff","h3_11":"8b1e2e79886afff"},"geometry":{"type":"Polygon","coordinates":[[[19.902118,50.125186],[19.902239,50.125062],[19.902365,50.125112],[19.902244,50.125236],[19.902118,50.125186]]]}}]}