{"type":"FeatureCollection","features":[{"type":"Feature","id":"w54531854","properties":{"type":"yes","levels":5.0,"address":"Gustawa Morcinka 17","residential":true,"residents_est":23,"h3_10":"8a1e2e6acd67fff","h3_11":"8b1e2e6acd64fff"},"geometry":{"type":"Polygon","coordinates":[[[20.043827,50.10648],[20.043835,50.106471],[20.044054,50.106416],[20.044072,50.106444],[20.044085,50.106441],[20.0441,50.106465],[20.044086,50.106469],[20.044141,50.106553],[20.044132,50.106556],[20.044141,50.10657],[20.043919,50.106626],[20.043907,50.106607],[20.043893,50.10661],[20.043873,50.106577],[20.043889,50.106573],[20.043827,50.10648]]]}},{"type":"Feature","id":"w82004997","properties":{"type":"apartments","levels":4.0,"residential":true,"residents_est":75,"h3_10":"8a1e2e6acd67fff","h3_11":"8b1e2e6acd65fff"},"geometry":{"type":"Polygon","coordinates":[[[20.044364,50.106425],[20.044372,50.106415],[20.044517,50.106378],[20.044523,50.106388],[20.044555,50.10638],[20.044549,50.10637],[20.044602,50.106357],[20.044634,50.106409],[20.044622,50.106412],[20.044644,50.106459],[20.04465,50.106459],[20.044664,50.106483],[20.044683,50.10648],[20.044704,50.106515],[20.044747,50.106504],[20.044741,50.106495],[20.044867,50.106464],[20.044883,50.106493],[20.044897,50.106489],[20.044913,50.106514],[20.044899,50.106517],[20.044955,50.106602],[20.044944,50.106605],[20.044952,50.10662],[20.044735,50.106675],[20.044723,50.106656],[20.044708,50.106659],[20.044685,50.106625],[20.044701,50.10662],[20.044644,50.106532],[20.04463,50.106527],[20.044456,50.106571],[20.044445,50.106552],[20.044429,50.106556],[20.044407,50.106521],[20.044422,50.106517],[20.044364,50.106425]]]}},{"type":"Feature","id":"w114861981","properties":{"type":"yes","residential":true,"residents_est":22,"h3_10":"8a1e2e6acda7fff","h3_11":"8b1e2e6acda5fff"},"geometry":{"type":"Polygon","coordinates":[[[20.037178,50.103764],[20.037243,50.10364],[20.037551,50.103707],[20.03757,50.10367],[20.037675,50.103693],[20.037609,50.103819],[20.037294,50.10375],[20.03728,50.103751],[20.037264,50.103782],[20.037178,50.103764]]]}},{"type":"Feature","id":"w114861983","properties":{"type":"yes","residential":true,"residents_est":6,"h3_10":"8a1e2e6acc27fff","h3_11":"8b1e2e6acc20fff"},"geometry":{"type":"Polygon","coordinates":[[[20.041376,50.103451],[20.041483,50.103292],[20.041615,50.103331],[20.041502,50.103488],[20.041376,50.103451]]]}},{"type":"Feature","id":"w114861984","properties":{"type":"yes","address":"Nad Baranówką 4","residential":true,"residents_est":84,"h3_10":"8a1e2e6acc27fff","h3_11":"8b1e2e6acc24fff"},"geometry":{"type":"Polygon","coordinates":[[[20.041035,50.103827],[20.041048,50.103711],[20.041359,50.103723],[20.041359,50.103717],[20.041386,50.103717],[20.041391,50.103688],[20.041877,50.103723],[20.041863,50.103804],[20.041555,50.103782],[20.041517,50.104],[20.041601,50.104005],[20.041628,50.103865],[20.041828,50.103883],[20.041809,50.103959],[20.041736,50.103953],[20.041715,50.104076],[20.041673,50.104074],[20.041666,50.104128],[20.041321,50.104109],[20.04137,50.103814],[20.041345,50.103814],[20.041342,50.103839],[20.041035,50.103827]]]}},{"type":"Feature","id":"w114861987","properties":{"type":"yes","residential":true,"residents_est":2,"h3_10":"8a1e2e6acd0ffff","h3_11":"8b1e2e6acd0efff"},"geometry":{"type":"Polygon","coordinates":[[[20.040446,50.104665],[20.040466,50.104572],[20.040552,50.10458],[20.040533,50.104672],[20.040446,50.104665]]]}},{"type":"Feature","id":"w114861989","properties":{"type":"yes","residential":true,"residents_est":4,"h3_10":"8a1e2e6acd1ffff","h3_11":"8b1e2e6acd1bfff"},"geometry":{"type":"Polygon","coordinates":[[[20.040541,50.103278],[20.040578,50.10321],[20.040801,50.103261],[20.040765,50.103329],[20.040708,50.103316],[20.0407,50.103329],[20.040669,50.103323],[20.040678,50.103309],[20.040619,50.103295],[20.040612,50.103308],[20.04058,50.103301],[20.040587,50.103288],[20.040541,50.103278]]]}},{"type":"Feature","id":"w114861993","properties":{"type":"yes","address":"Gustawa Morcinka 14","residential":true,"residents_est":3,"h3_10":"8a1e2e6acd0ffff","h3_11":"8b1e2e6acd0dfff"},"geometry":{"type":"Polygon","coordinates":[[[20.041835,50.104725],[20.041843,50.104644],[20.041998,50.10465],[20.041991,50.104731],[20.041934,50.104729],[20.041932,50.104747],[20.04189,50.104745],[20.041892,50.104727],[20.041835,50.104725]]]}},{"type":"Feature","id":"w114861995","properties":{"type":"yes","residential":true,"residents_est":3,"h3_10":"8a1e2e6acd07fff","h3_11":"8b1e2e6acd06fff"},"geometry":{"type":"Polygon","coordinates":[[[20.038661,50.10476],[20.038691,50.104651],[20.038796,50.104655],[20.03877,50.104773],[20.038661,50.10476]]]}},{"type":"Feature","id":"w114862002","properties":{"type":"yes","address":"Gustawa Morcinka 16e","residential":true,"residents_est":3,"h3_10":"8a1e2e6acd77fff","h3_11":"8b1e2e6acd71fff"},"geometry":{"type":"Polygon","coordinates":[[[20.04314,50.105273],[20.043152,50.105191],[20.043333,50.105202],[20.043321,50.105284],[20.04314,50.105273]]]}},{"type":"Feature","id":"w114862004","properties":{"type":"yes","address":"Jeziorany 2","residential":true,"residents_est":2,"h3_10":"8a1e2e6acd07fff","h3_11":"8b1e2e6acd06fff"},"geometry":{"type":"Polygon","coordinates":[[[20.039041,50.104781],[20.039064,50.104711],[20.039198,50.104726],[20.039164,50.104824],[20.039098,50.104815],[20.039107,50.10479],[20.039041,50.104781]]]}},{"type":"Feature","id":"w114862018","properties":{"type":"yes","address":"Jeziorany 6;4A","residential":true,"residents_est":4,"h3_10":"8a1e2e6acd07fff","h3_11":"8b1e2e6acd02fff"},"geometry":{"type":"Polygon","coordinates":[[[20.039063,50.104523],[20.039089,50.104443],[20.039106,50.104446],[20.039124,50.104391],[20.03923,50.104406],[20.039213,50.104461],[20.039228,50.104462],[20.039202,50.104542],[20.039156,50.104536],[20.039153,50.104544],[20.039063,50.104523]]]}},{"type":"Feature","id":"w114862026","properties":{"type":"yes","address":"Gustawa Morcinka 2","residential":true,"residents_est":5,"h3_10":"8a1e2e6acd37fff","h3_11":"8b1e2e6acd31fff"},"geometry":{"type":"Polygon","coordinates":[[[20.038322,50.1051],[20.03837,50.104983],[20.038411,50.104989],[20.038421,50.104967],[20.038594,50.104996],[20.038579,50.105031],[20.038558,50.105028],[20.038535,50.10509],[20.038478,50.105077],[20.038474,50.105067],[20.038406,50.105056],[20.038384,50.105111],[20.038322,50.1051]]]}},{"type":"Feature","id":"w114862031","properties":{"type":"yes","address":"Jeziorany 3","residential":true,"residents_est":4,"h3_10":"8a1e2e6acd2ffff","h3_11":"8b1e2e6acd2bfff"},"geometry":{"type":"Polygon","coordinates":[[[20.04146,50.105088],[20.041462,50.105058],[20.041498,50.105059],[20.0415,50.105034],[20.041639,50.10504],[20.041633,50.105101],[20.041617,50.1051],[20.041612,50.10515],[20.041484,50.105147],[20.041487,50.105089],[20.04146,50.105088]]]}},{"type":"Feature","id":"w114862035","properties":{"type":"yes","address":"Gustawa Morcinka 3","residential":true,"residents_est":2,"h3_10":"8a1e2e6acd2ffff","h3_11":"8b1e2e6acd2cfff"},"geometry":{"type":"Polygon","coordinates":[[[20.040661,50.10611],[20.040773,50.106109],[20.040775,50.106172],[20.040663,50.106173],[20.040661,50.10611]]]}},{"type":"Feature","id":"w114862036","properties":{"type":"yes","address":"Gustawa Morcinka 8","residential":true,"residents_est":3,"h3_10":"8a1e2e6acd07fff","h3_11":"8b1e2e6acd01fff"},"geometry":{"type":"Polygon","coordinates":[[[20.040579,50.104813],[20.040597,50.104738],[20.040747,50.104752],[20.040729,50.104827],[20.040579,50.104813]]]}},{"type":"Feature","id":"w114862038","properties":{"type":"yes","address":"Gustawa Morcinka 6","residential":true,"residents_est":3,"h3_10":"8a1e2e6acd27fff","h3_11":"8b1e2e6acd23fff"},"geometry":{"type":"Polygon","coordinates":[[[20.039917,50.105565],[20.03993,50.105473],[20.040068,50.105482],[20.040055,50.105573],[20.039917,50.105565]]]}},{"type":"Feature","id":"w114862042","properties":{"type":"yes","address":"Gustawa Morcinka 2a","residential":true,"residents_est":4,"h3_10":"8a1e2e6acd07fff","h3_11":"8b1e2e6acd04fff"},"geometry":{"type":"Polygon","coordinates":[[[20.038893,50.1051],[20.038923,50.105033],[20.039091,50.105063],[20.039041,50.105181],[20.038986,50.105172],[20.038998,50.105147],[20.038915,50.105132],[20.038926,50.105106],[20.038893,50.1051]]]}},{"type":"Feature","id":"w114862045","properties":{"type":"yes","residential":true,"residents_est":5,"h3_10":"8a1e2e6acd07fff","h3_11":"8b1e2e6acd00fff"},"geometry":{"type":"Polygon","coordinates":[[[20.039663,50.104732],[20.03968,50.104679],[20.03978,50.104692],[20.039763,50.104744],[20.039898,50.104764],[20.039872,50.104844],[20.039669,50.104813],[20.039694,50.104736],[20.039663,50.104732]]]}},{"type":"Feature","id":"w114862047","properties":{"type":"yes","address":"Jeziorany 5","residential":true,"residents_est":5,"h3_10":"8a1e2e6acd1ffff","h3_11":"8b1e2e6acd18fff"},"geometry":{"type":"Polygon","coordinates":[[[20.039967,50.103789],[20.039991,50.103732],[20.040047,50.103741],[20.040064,50.103699],[20.040228,50.103726],[20.040186,50.103825],[20.039967,50.103789]]]}},{"type":"Feature","id":"w114862048","properties":{"type":"yes","residential":true,"residents_est":5,"h3_10":"8a1e2e6acd17fff","h3_11":"8b1e2e6acd12fff"},"geometry":{"type":"Polygon","coordinates":[[[20.037715,50.103945],[20.037772,50.103838],[20.037959,50.10388],[20.037902,50.103986],[20.037715,50.103945]]]}},{"type":"Feature","id":"w114862053","properties":{"type":"yes","levels":2.0,"address":"Gustawa Morcinka 30","residential":true,"residents_est":5,"h3_10":"8a1e2e6acd47fff","h3_11":"8b1e2e6acd44fff"},"geometry":{"type":"Polygon","coordinates":[[[20.044299,50.105179],[20.044527,50.105166],[20.044533,50.105264],[20.044486,50.105266],[20.044487,50.105278],[20.044439,50.10528],[20.044437,50.105262],[20.044363,50.105263],[20.044363,50.105253],[20.044304,50.105255],[20.044299,50.105179]]]}},{"type":"Feature","id":"w114862058","properties":{"type":"yes","address":"Gustawa Morcinka 20a","residential":true,"residents_est":5,"h3_10":"8a1e2e6acd67fff","h3_11":"8b1e2e6acd62fff"},"geometry":{"type":"Polygon","coordinates":[[[20.043718,50.105869],[20.043721,50.105812],[20.04377,50.105813],[20.043774,50.105733],[20.043834,50.105734],[20.043834,50.105723],[20.043904,50.105724],[20.043898,50.105851],[20.043859,50.10585],[20.043858,50.105872],[20.043718,50.105869]]]}},{"type":"Feature","id":"w114862061","properties":{"type":"yes","residential":true,"residents_est":4,"h3_10":"8a1e2e6acd2ffff","h3_11":"8b1e2e6acd29fff"},"geometry":{"type":"Polygon","coordinates":[[[20.041425,50.105764],[20.041432,50.105673],[20.041566,50.10568],[20.041555,50.105812],[20.041441,50.105809],[20.041446,50.105766],[20.041425,50.105764]]]}},{"type":"Feature","id":"w114862068","properties":{"type":"yes","address":"Gustawa Morcinka 26","residential":true,"residents_est":3,"h3_10":"8a1e2e6acd47fff","h3_11":"8b1e2e6acd46fff"},"geometry":{"type":"Polygon","coordinates":[[[20.044159,50.104796],[20.044274,50.104793],[20.044279,50.104897],[20.044164,50.1049],[20.044159,50.104796]]]}},{"type":"Feature","id":"w114862074","properties":{"type":"yes","residential":true,"residents_est":4,"h3_10":"8a1e2e6acd2ffff","h3_11":"8b1e2e6acd2bfff"},"geometry":{"type":"Polygon","coordinates":[[[20.041455,50.105365],[20.041467,50.105244],[20.041565,50.105248],[20.041566,50.10524],[20.04162,50.105241],[20.041607,50.105371],[20.041455,50.105365]]]}},{"type":"Feature","id":"w114862076","properties":{"type":"yes","address":"Gustawa Morcinka 24","residential":true,"residents_est":3,"h3_10":"8a1e2e6acd47fff","h3_11":"8b1e2e6acd40fff"},"geometry":{"type":"Polygon","coordinates":[[[20.044406,50.104801],[20.044612,50.104795],[20.044616,50.104863],[20.04441,50.104869],[20.044406,50.104801]]]}},{"type":"Feature","id":"w114862078","properties":{"type":"yes","residential":true,"residents_est":5,"h3_10":"8a1e2e6acc27fff","h3_11":"8b1e2e6acc20fff"},"geometry":{"type":"Polygon","coordinates":[[[20.041525,50.103615],[20.041531,50.103564],[20.041698,50.103573],[20.041702,50.10354],[20.041864,50.103548],[20.041855,50.103632],[20.041525,50.103615]]]}},{"type":"Feature","id":"w338036500","properties":{"type":"yes","address":"Jeziorany 8","residential":true,"residents_est":4,"h3_10":"8a1e2e6acd17fff","h3_11":"8b1e2e6acd15fff"},"geometry":{"type":"Polygon","coordinates":[[[20.038221,50.104376],[20.03823,50.104347],[20.038245,50.104349],[20.038254,50.104318],[20.038385,50.104335],[20.038383,50.10434],[20.038434,50.104348],[20.03841,50.104427],[20.038358,50.104421],[20.038356,50.104426],[20.038226,50.104409],[20.038235,50.104378],[20.038221,50.104376]]]}},{"type":"Feature","id":"w338036532","properties":{"type":"yes","address":"Jeziorany 10","residential":true,"residents_est":4,"h3_10":"8a1e2e6acd17fff","h3_11":"8b1e2e6acd14fff"},"geometry":{"type":"Polygon","coordinates":[[[20.037672,50.104445],[20.037702,50.104349],[20.037717,50.104351],[20.037743,50.10434],[20.037746,50.10433],[20.037757,50.104329],[20.037851,50.104344],[20.037836,50.104409],[20.037849,50.104411],[20.037832,50.104466],[20.037672,50.104445]]]}},{"type":"Feature","id":"w338036600","properties":{"type":"yes","residential":true,"residents_est":2,"h3_10":"8a1e2e6acd0ffff","h3_11":"8b1e2e6acd0cfff"},"geometry":{"type":"Polygon","coordinates":[[[20.041243,50.104963],[20.041261,50.104875],[20.041378,50.104886],[20.04136,50.104973],[20.041243,50.104963]]]}},{"type":"Feature","id":"w338036606","properties":{"type":"yes","address":"Jeziorany 1","residential":true,"residents_est":3,"h3_10":"8a1e2e6acd07fff","h3_11":"8b1e2e6acd03fff"},"geometry":{"type":"Polygon","coordinates":[[[20.03974,50.104562],[20.039762,50.10448],[20.039901,50.104495],[20.03988,50.104577],[20.03974,50.104562]]]}},{"type":"Feature","id":"w338036617","properties":{"type":"yes","residential":true,"residents_est":3,"h3_10":"8a1e2e6acd0ffff","h3_11":"8b1e2e6acd0efff"},"geometry":{"type":"Polygon","coordinates":[[[20.040618,50.104474],[20.040661,50.104401],[20.040852,50.104448],[20.040809,50.104521],[20.040618,50.104474]]]}},{"type":"Feature","id":"w338036649","properties":{"type":"yes","residential":false,"residents_est":0,"h3_10":"8a1e2e6acd0ffff","h3_11":"8b1e2e6acd0cfff"},"geometry":{"type":"Polygon","coordinates":[[[20.04132,50.104814],[20.041324,50.104774],[20.041402,50.104778],[20.041398,50.104817],[20.04132,50.104814]]]}},{"type":"Feature","id":"w338036676","properties":{"type":"service","residential":false,"residents_est":0,"h3_10":"8a1e2e6acd17fff","h3_11":"8b1e2e6acd16fff"},"geometry":{"type":"Polygon","coordinates":[[[20.037429,50.103941],[20.037449,50.103898],[20.037547,50.103917],[20.037526,50.10396],[20.037429,50.103941]]]}},{"type":"Feature","id":"w338036722","properties":{"type":"yes","residential":true,"residents_est":2,"h3_10":"8a1e2e6acc27fff","h3_11":"8b1e2e6acc21fff"},"geometry":{"type":"Polygon","coordinates":[[[20.042401,50.103376],[20.042435,50.103291],[20.042529,50.103306],[20.0425,50.103379],[20.042516,50.103382],[20.042511,50.103394],[20.042401,50.103376]]]}},{"type":"Feature","id":"w338036724","properties":{"type":"yes","residential":true,"residents_est":1,"h3_10":"8a1e2e6acd0ffff","h3_11":"8b1e2e6acd08fff"},"geometry":{"type":"Polygon","coordinates":[[[20.041495,50.104722],[20.041496,50.104665],[20.041609,50.104666],[20.041604,50.104722],[20.041495,50.104722]]]}},{"type":"Feature","id":"w338036856","properties":{"type":"yes","residential":true,"residents_est":2,"h3_10":"8a1e2e6acd57fff","h3_11":"8b1e2e6acd55fff"},"geometry":{"type":"Polygon","coordinates":[[[20.043482,50.104602],[20.043485,50.104563],[20.043504,50.104564],[20.043508,50.10451],[20.043621,50.104513],[20.043615,50.104606],[20.043482,50.104602]]]}},{"type":"Feature","id":"w338036864","properties":{"type":"yes","residential":true,"residents_est":1,"h3_10":"8a1e2e6acd07fff","h3_11":"8b1e2e6acd02fff"},"geometry":{"type":"Polygon","coordinates":[[[20.039285,50.104594],[20.039302,50.104541],[20.039412,50.104556],[20.039395,50.104609],[20.039285,50.104594]]]}},{"type":"Feature","id":"w338036872","properties":{"type":"yes","residential":true,"residents_est":3,"h3_10":"8a1e2e6acd2ffff","h3_11":"8b1e2e6acd2efff"},"geometry":{"type":"Polygon","coordinates":[[[20.040081,50.105711],[20.040099,50.105601],[20.040219,50.105609],[20.040201,50.10572],[20.040081,50.105711]]]}},{"type":"Feature","id":"w338036889","properties":{"type":"yes","residential":true,"residents_est":3,"h3_10":"8a1e2e6acd0ffff","h3_11":"8b1e2e6acd0cfff"},"geometry":{"type":"Polygon","coordinates":[[[20.040804,50.104813],[20.040814,50.104741],[20.040988,50.104752],[20.040975,50.104823],[20.040804,50.104813]]]}},{"type":"Feature","id":"w338036976","properties":{"type":"yes","residential":true,"residents_est":2,"h3_10":"8a1e2e6acd0ffff","h3_11":"8b1e2e6acd0cfff"},"geometry":{"type":"Polygon","coordinates":[[[20.041042,50.104893],[20.04106,50.104807],[20.041139,50.104814],[20.041121,50.104899],[20.041042,50.104893]]]}},{"type":"Feature","id":"w338037152","properties":{"type":"yes","address":"Jeziorany 6","residential":true,"residents_est":3,"h3_10":"8a1e2e6acd17fff","h3_11":"8b1e2e6acd15fff"},"geometry":{"type":"Polygon","coordinates":[[[20.038726,50.104444],[20.038734,50.104417],[20.038748,50.104419],[20.038757,50.104388],[20.038921,50.104413],[20.038898,50.104493],[20.03873,50.104476],[20.038739,50.104446],[20.038726,50.104444]]]}},{"type":"Feature","id":"w338037193","properties":{"type":"yes","residential":true,"residents_est":6,"h3_10":"8a1e2e6acd0ffff","h3_11":"8b1e2e6acd09fff"},"geometry":{"type":"Polygon","coordinates":[[[20.042182,50.104714],[20.042194,50.104605],[20.042309,50.10461],[20.042301,50.104677],[20.042477,50.104685],[20.042462,50.104754],[20.042293,50.104744],[20.042296,50.104719],[20.042182,50.104714]]]}},{"type":"Feature","id":"w706306525","properties":{"type":"yes","residential":false,"residents_est":0,"h3_10":"8a1e2e6acd1ffff","h3_11":"8b1e2e6acd1bfff"},"geometry":{"type":"Polygon","coordinates":[[[20.040551,50.10352],[20.040569,50.103474],[20.04064,50.103486],[20.040619,50.103532],[20.040551,50.10352]]]}},{"type":"Feature","id":"w706306526","properties":{"type":"yes","residential":false,"residents_est":0,"h3_10":"8a1e2e6acd1ffff","h3_11":"8b1e2e6acd1bfff"},"geometry":{"type":"Polygon","coordinates":[[[20.040594,50.103397],[20.040614,50.103361],[20.04071,50.103383],[20.040704,50.103392],[20.040692,50.103389],[20.040677,50.103416],[20.040594,50.103397]]]}},{"type":"Feature","id":"w706306529","properties":{"type":"yes","residential":true,"residents_est":4,"h3_10":"8a1e2e6acd1ffff","h3_11":"8b1e2e6acd1bfff"},"geometry":{"type":"Polygon","coordinates":[[[20.040185,50.103464],[20.040226,50.103387],[20.040212,50.103384],[20.040238,50.103335],[20.040376,50.103366],[20.040335,50.103442],[20.040321,50.103439],[20.040295,50.103488],[20.040185,50.103464]]]}},{"type":"Feature","id":"w706306532","properties":{"type":"yes","address":"Gustawa Morcinka 34","residential":true,"residents_est":4,"h3_10":"8a1e2e6acd67fff","h3_11":"8b1e2e6acd63fff"},"geometry":{"type":"Polygon","coordinates":[[[20.044273,50.105527],[20.044519,50.105523],[20.044522,50.1056],[20.044322,50.105603],[20.044321,50.105583],[20.044275,50.105584],[20.044273,50.105527]]]}},{"type":"Feature","id":"w706306533","properties":{"type":"yes","residential":true,"residents_est":2,"h3_10":"8a1e2e6acd47fff","h3_11":"8b1e2e6acd44fff"},"geometry":{"type":"Polygon","coordinates":[[[20.044147,50.105208],[20.04428,50.105204],[20.044285,50.105268],[20.044151,50.105272],[20.044147,50.105208]]]}},{"type":"Feature","id":"w706306534","properties":{"type":"yes","residential":true,"residents_est":2,"h3_10":"8a1e2e6acd47fff","h3_11":"8b1e2e6acd42fff"},"geometry":{"type":"Polygon","coordinates":[[[20.044139,50.10455],[20.044268,50.104546],[20.044275,50.104627],[20.044145,50.10463],[20.044139,50.10455]]]}},{"type":"Feature","id":"w706306535","properties":{"type":"yes","residential":true,"residents_est":2,"h3_10":"8a1e2e6acd57fff","h3_11":"8b1e2e6acd55fff"},"geometry":{"type":"Polygon","coordinates":[[[20.043848,50.104586],[20.043933,50.104585],[20.043935,50.104667],[20.043863,50.104668],[20.043864,50.104659],[20.04385,50.104659],[20.043848,50.104586]]]}},{"type":"Feature","id":"w706306536","properties":{"type":"yes","residential":false,"residents_est":0,"h3_10":"8a1e2e6acd07fff","h3_11":"8b1e2e6acd01fff"},"geometry":{"type":"Polygon","coordinates":[[[20.040434,50.104718],[20.040446,50.104665],[20.040533,50.104672],[20.040521,50.104726],[20.040434,50.104718]]]}},{"type":"Feature","id":"w706306537","properties":{"type":"yes","residential":false,"residents_est":0,"h3_10":"8a1e2e6acd07fff","h3_11":"8b1e2e6acd01fff"},"geometry":{"type":"Polygon","coordinates":[[[20.040436,50.104789],[20.040443,50.104737],[20.040498,50.10474],[20.04049,50.104793],[20.040436,50.104789]]]}},{"type":"Feature","id":"w706306538","properties":{"type":"yes","residential":false,"residents_est":0,"h3_10":"8a1e2e6acd0ffff","h3_11":"8b1e2e6acd0efff"},"geometry":{"type":"Polygon","coordinates":[[[20.040833,50.10468],[20.040847,50.10463],[20.040895,50.104636],[20.040882,50.104684],[20.040833,50.10468]]]}},{"type":"Feature","id":"w706306539","properties":{"type":"yes","residential":false,"residents_est":0,"h3_10":"8a1e2e6acd0ffff","h3_11":"8b1e2e6acd0efff"},"geometry":{"type":"Polygon","coordinates":[[[20.040929,50.104583],[20.040986,50.104571],[20.041006,50.104606],[20.04095,50.104619],[20.040929,50.104583]]]}},{"type":"Feature","id":"w706306541","properties":{"type":"yes","residential":false,"residents_est":0,"h3_10":"8a1e2e6acd0ffff","h3_11":"8b1e2e6acd0dfff"},"geometry":{"type":"Polygon","coordinates":[[[20.041726,50.104772],[20.041726,50.10473],[20.041772,50.10473],[20.041771,50.104772],[20.041726,50.104772]]]}},{"type":"Feature","id":"w706306542","properties":{"type":"yes","residential":true,"residents_est":2,"h3_10":"8a1e2e6acd0ffff","h3_11":"8b1e2e6acd0dfff"},"geometry":{"type":"Polygon","coordinates":[[[20.041811,50.104945],[20.041815,50.104911],[20.041835,50.104912],[20.041839,50.104875],[20.041984,50.104882],[20.041977,50.104951],[20.041811,50.104945]]]}},{"type":"Feature","id":"w706306543","properties":{"type":"yes","residential":true,"residents_est":2,"h3_10":"8a1e2e6acd0ffff","h3_11":"8b1e2e6acd0dfff"},"geometry":{"type":"Polygon","coordinates":[[[20.041808,50.104977],[20.041811,50.104945],[20.041977,50.104951],[20.04197,50.10502],[20.041825,50.105014],[20.041829,50.104978],[20.041808,50.104977]]]}},{"type":"Feature","id":"w706306544","properties":{"type":"yes","residential":true,"residents_est":3,"h3_10":"8a1e2e6acd77fff","h3_11":"8b1e2e6acd76fff"},"geometry":{"type":"Polygon","coordinates":[[[20.041794,50.105121],[20.041798,50.105086],[20.041963,50.105093],[20.041955,50.105164],[20.04181,50.105158],[20.041814,50.105122],[20.041794,50.105121]]]}},{"type":"Feature","id":"w706306545","properties":{"type":"yes","residential":false,"residents_est":0,"h3_10":"8a1e2e6acd2ffff","h3_11":"8b1e2e6acd2bfff"},"geometry":{"type":"Polygon","coordinates":[[[20.041541,50.105239],[20.041543,50.105211],[20.041622,50.105214],[20.04162,50.105241],[20.041541,50.105239]]]}},{"type":"Feature","id":"w706306546","properties":{"type":"yes","residential":true,"residents_est":5,"h3_10":"8a1e2e6acd77fff","h3_11":"8b1e2e6acd76fff"},"geometry":{"type":"Polygon","coordinates":[[[20.041756,50.105415],[20.041763,50.105338],[20.041808,50.10534],[20.041811,50.105318],[20.041825,50.105319],[20.041826,50.105313],[20.041888,50.105315],[20.041887,50.105322],[20.041946,50.105325],[20.041941,50.10537],[20.041976,50.105372],[20.041966,50.105474],[20.041871,50.10547],[20.041876,50.105419],[20.041756,50.105415]]]}},{"type":"Feature","id":"w706306547","properties":{"type":"yes","residential":true,"residents_est":4,"h3_10":"8a1e2e6acd2ffff","h3_11":"8b1e2e6acd29fff"},"geometry":{"type":"Polygon","coordinates":[[[20.041766,50.105752],[20.041769,50.105703],[20.041781,50.105704],[20.041784,50.105637],[20.041932,50.10564],[20.041929,50.105709],[20.041895,50.105709],[20.041893,50.105756],[20.041766,50.105752]]]}},{"type":"Feature","id":"w706306548","properties":{"type":"yes","residential":true,"residents_est":3,"h3_10":"8a1e2e6acd2ffff","h3_11":"8b1e2e6acd29fff"},"geometry":{"type":"Polygon","coordinates":[[[20.041762,50.105788],[20.041766,50.105752],[20.041895,50.105757],[20.041892,50.105787],[20.04191,50.105788],[20.041906,50.105862],[20.041766,50.105858],[20.04177,50.105788],[20.041762,50.105788]]]}},{"type":"Feature","id":"w706306549","properties":{"type":"yes","residential":true,"residents_est":3,"h3_10":"8a1e2e6acd2ffff","h3_11":"8b1e2e6acd28fff"},"geometry":{"type":"Polygon","coordinates":[[[20.040845,50.105526],[20.040854,50.105438],[20.040882,50.105439],[20.040894,50.105428],[20.040914,50.105429],[20.040923,50.105441],[20.040951,50.105443],[20.040941,50.105531],[20.040935,50.105531],[20.040931,50.105564],[20.040846,50.105559],[20.04085,50.105527],[20.040845,50.105526]]]}},{"type":"Feature","id":"w706306550","properties":{"type":"yes","residential":true,"residents_est":1,"h3_10":"8a1e2e6acd27fff","h3_11":"8b1e2e6acd22fff"},"geometry":{"type":"Polygon","coordinates":[[[20.038987,50.105381],[20.039078,50.10538],[20.039077,50.105443],[20.038988,50.105443],[20.038987,50.105381]]]}},{"type":"Feature","id":"w706306562","properties":{"type":"yes","residential":true,"residents_est":18,"h3_10":"8a1e2e6acd6ffff","h3_11":"8b1e2e6acd69fff"},"geometry":{"type":"Polygon","coordinates":[[[20.046756,50.105597],[20.046802,50.105597],[20.046803,50.105561],[20.046933,50.105562],[20.046934,50.105597],[20.046961,50.105598],[20.046963,50.105656],[20.046935,50.105656],[20.046936,50.105787],[20.046757,50.105788],[20.046756,50.105652],[20.046775,50.105652],[20.046774,50.105603],[20.046757,50.105603],[20.046756,50.105597]]]}},{"type":"Feature","id":"w725291841","properties":{"type":"service","residential":false,"residents_est":0,"h3_10":"8a1e2e6acd37fff","h3_11":"8b1e2e6acd30fff"},"geometry":{"type":"Polygon","coordinates":[[[20.038036,50.105115],[20.038066,50.105074],[20.038128,50.105093],[20.038098,50.105134],[20.038036,50.105115]]]}},{"type":"Feature","id":"w725291842","properties":{"type":"yes","residential":false,"residents_est":0,"h3_10":"8a1e2e6acd07fff","h3_11":"8b1e2e6acd06fff"},"geometry":{"type":"Polygon","coordinates":[[[20.038628,50.104883],[20.038644,50.104822],[20.038695,50.104827],[20.038679,50.104889],[20.038628,50.104883]]]}},{"type":"Feature","id":"w725291843","properties":{"type":"yes","residential":false,"residents_est":0,"h3_10":"8a1e2e6acd07fff","h3_11":"8b1e2e6acd06fff"},"geometry":{"type":"Polygon","coordinates":[[[20.038786,50.1047],[20.038796,50.104655],[20.038839,50.104657],[20.038828,50.104702],[20.038786,50.1047]]]}},{"type":"Feature","id":"w725291844","properties":{"type":"yes","residential":false,"residents_est":0,"h3_10":"8a1e2e6acd17fff","h3_11":"8b1e2e6acd15fff"},"geometry":{"type":"Polygon","coordinates":[[[20.038309,50.104681],[20.038352,50.104623],[20.038405,50.104638],[20.038359,50.104699],[20.038309,50.104681]]]}},{"type":"Feature","id":"w725291846","properties":{"type":"yes","residential":false,"residents_est":0,"h3_10":"8a1e2e6acd17fff","h3_11":"8b1e2e6acd14fff"},"geometry":{"type":"Polygon","coordinates":[[[20.037835,50.104603],[20.037844,50.104578],[20.037924,50.104589],[20.037911,50.104624],[20.037844,50.104616],[20.037848,50.104605],[20.037835,50.104603]]]}},{"type":"Feature","id":"w725845569","properties":{"type":"yes","address":"Nad Baranówką 3","residential":true,"residents_est":4,"h3_10":"8a1e2e6acc27fff","h3_11":"8b1e2e6acc23fff"},"geometry":{"type":"Polygon","coordinates":[[[20.042132,50.103267],[20.042146,50.10314],[20.042291,50.103146],[20.042277,50.103274],[20.042132,50.103267]]]}},{"type":"Feature","id":"w725845572","properties":{"type":"yes","residential":false,"residents_est":0,"h3_10":"8a1e2e6acc27fff","h3_11":"8b1e2e6acc21fff"},"geometry":{"type":"Polygon","coordinates":[[[20.042065,50.103373],[20.042135,50.103372],[20.042136,50.103408],[20.042067,50.103409],[20.042065,50.103373]]]}},{"type":"Feature","id":"w725845573","properties":{"type":"yes","residential":false,"residents_est":0,"h3_10":"8a1e2e6acc27fff","h3_11":"8b1e2e6acc20fff"},"geometry":{"type":"Polygon","coordinates":[[[20.04158,50.103382],[20.041615,50.103331],[20.04166,50.103344],[20.041624,50.103395],[20.04158,50.103382]]]}},{"type":"Feature","id":"w725845574","properties":{"type":"yes","residential":true,"residents_est":3,"h3_10":"8a1e2e6acc27fff","h3_11":"8b1e2e6acc20fff"},"geometry":{"type":"Polygon","coordinates":[[[20.041293,50.103487],[20.041375,50.103366],[20.041423,50.10338],[20.041375,50.103452],[20.041502,50.103488],[20.041467,50.103538],[20.041293,50.103487]]]}},{"type":"Feature","id":"w1043574560","properties":{"type":"yes","address":"Jeziorany 1A","residential":true,"residents_est":6,"h3_10":"8a1e2e6acd27fff","h3_11":"8b1e2e6acd23fff"},"geometry":{"type":"Polygon","coordinates":[[[20.039516,50.105518],[20.039537,50.105443],[20.039605,50.105451],[20.039614,50.105418],[20.039803,50.105439],[20.039794,50.105472],[20.039812,50.105474],[20.039791,50.105549],[20.039516,50.105518]]]}},{"type":"Feature","id":"w1043574561","properties":{"type":"yes","address":"Jeziorany 1B","residential":true,"residents_est":6,"h3_10":"8a1e2e6acd07fff","h3_11":"8b1e2e6acd05fff"},"geometry":{"type":"Polygon","coordinates":[[[20.039574,50.105315],[20.039595,50.10524],[20.039663,50.105248],[20.039672,50.105215],[20.039862,50.105236],[20.039852,50.105269],[20.03987,50.105271],[20.039849,50.105346],[20.039574,50.105315]]]}},{"type":"Feature","id":"w1043574562","properties":{"type":"yes","address":"Jeziorany 1C","residential":true,"residents_est":2,"h3_10":"8a1e2e6acd07fff","h3_11":"8b1e2e6acd00fff"},"geometry":{"type":"Polygon","coordinates":[[[20.039658,50.105042],[20.03969,50.104935],[20.03978,50.104946],[20.039748,50.105053],[20.039658,50.105042]]]}},{"type":"Feature","id":"w1076607715","properties":{"type":"yes","residential":true,"residents_est":4,"h3_10":"8a1e2e6acd47fff","h3_11":"8b1e2e6acd46fff"},"geometry":{"type":"Polygon","coordinates":[[[20.04377,50.105061],[20.043771,50.104954],[20.043785,50.104954],[20.043786,50.104906],[20.043892,50.104906],[20.043892,50.10496],[20.043907,50.10496],[20.043906,50.105061],[20.04377,50.105061]]]}},{"type":"Feature","id":"w1155392211","properties":{"type":"yes","residential":true,"residents_est":5,"h3_10":"8a1e2e6acd77fff","h3_11":"8b1e2e6acd73fff"},"geometry":{"type":"Polygon","coordinates":[[[20.04348,50.104796],[20.043485,50.104728],[20.043505,50.104729],[20.043508,50.104673],[20.043618,50.104676],[20.043606,50.104855],[20.043497,50.104852],[20.043501,50.104797],[20.04348,50.104796]]]}},{"type":"Feature","id":"w1155392214","properties":{"type":"yes","address":"Jeziorany 1D","residential":true,"residents_est":2,"h3_10":"8a1e2e6acd07fff","h3_11":"8b1e2e6acd00fff"},"geometry":{"type":"Polygon","coordinates":[[[20.039748,50.105053],[20.03978,50.104946],[20.03987,50.104958],[20.039838,50.105064],[20.039748,50.105053]]]}},{"type":"Feature","id":"w1341580568","properties":{"type":"yes","residential":true,"residents_est":5,"h3_10":"8a1e2e6acd77fff","h3_11":"8b1e2e6acd73fff"},"geometry":{"type":"Polygon","coordinates":[[[20.043461,50.105049],[20.043466,50.104981],[20.043485,50.104982],[20.043489,50.104926],[20.043599,50.104929],[20.043587,50.105108],[20.043478,50.105105],[20.043482,50.10505],[20.043461,50.105049]]]}},{"type":"Feature","id":"w1341580569","properties":{"type":"yes","residential":true,"residents_est":5,"h3_10":"8a1e2e6acd77fff","h3_11":"8b1e2e6acd71fff"},"geometry":{"type":"Polygon","coordinates":[[[20.043443,50.105304],[20.043448,50.105236],[20.043468,50.105236],[20.043472,50.105181],[20.043582,50.105184],[20.043569,50.105362],[20.043461,50.105359],[20.043465,50.105304],[20.043443,50.105304]]]}},{"type":"Feature","id":"w1341580570","properties":{"type":"yes","residential":true,"residents_est":5,"h3_10":"8a1e2e6acd77fff","h3_11":"8b1e2e6acd75fff"},"geometry":{"type":"Polygon","coordinates":[[[20.043424,50.105554],[20.043429,50.105486],[20.043449,50.105487],[20.043453,50.105431],[20.043562,50.105434],[20.04355,50.105612],[20.043441,50.105609],[20.043445,50.105554],[20.043424,50.105554]]]}},{"type":"Feature","id":"w1341580571","properties":{"type":"yes","residential":true,"residents_est":2,"h3_10":"8a1e2e6acd77fff","h3_11":"8b1e2e6acd75fff"},"geometry":{"type":"Polygon","coordinates":[[[20.043394,50.105783],[20.043397,50.105744],[20.043416,50.105744],[20.04342,50.10569],[20.043533,50.105694],[20.043527,50.105786],[20.043394,50.105783]]]}},{"type":"Feature","id":"w1341580572","properties":{"type":"construction","residential":false,"residents_est":0,"h3_10":"8a1e2e6acd57fff","h3_11":"8b1e2e6acd54fff"},"geometry":{"type":"Polygon","coordinates":[[[20.042805,50.10474],[20.042809,50.10466],[20.043029,50.104665],[20.043025,50.104745],[20.042805,50.10474]]]}},{"type":"Feature","id":"w1341580573","properties":{"type":"yes","residential":false,"residents_est":0,"h3_10":"8a1e2e6acd47fff","h3_11":"8b1e2e6acd46fff"},"geometry":{"type":"Polygon","coordinates":[[[20.044168,50.104949],[20.044238,50.104946],[20.044243,50.104998],[20.044173,50.105001],[20.044168,50.104949]]]}}]}