{"type":"FeatureCollection","features":[{"type":"Feature","id":"w133524089","properties":{"type":"yes","residential":true,"residents_est":12,"h3_10":"8a1e2e6f158ffff","h3_11":"8b1e2e6f158afff"},"geometry":{"type":"Polygon","coordinates":[[[20.179283,50.058259],[20.179549,50.058229],[20.179576,50.058329],[20.179311,50.058359],[20.179283,50.058259]]]}},{"type":"Feature","id":"w133524097","properties":{"type":"detached","residential":true,"residents_est":18,"h3_10":"8a1e2e6f15b7fff","h3_11":"8b1e2e6f15b5fff"},"geometry":{"type":"Polygon","coordinates":[[[20.175995,50.059695],[20.176008,50.059652],[20.176068,50.05966],[20.17608,50.059623],[20.17618,50.059635],[20.176174,50.059662],[20.176268,50.059675],[20.176249,50.059736],[20.176154,50.059724],[20.176148,50.059743],[20.176047,50.059731],[20.176055,50.059703],[20.175995,50.059695]]]}},{"type":"Feature","id":"w133524100","properties":{"type":"yes","residential":true,"residents_est":8,"h3_10":"8a1e2e6f1597fff","h3_11":"8b1e2e6f1594fff"},"geometry":{"type":"Polygon","coordinates":[[[20.175835,50.058582],[20.17585,50.058535],[20.175885,50.05854],[20.175887,50.058532],[20.176023,50.05855],[20.176015,50.058577],[20.17605,50.058581],[20.176035,50.05863],[20.176,50.058625],[20.175993,50.058648],[20.175857,50.058631],[20.175871,50.058586],[20.175835,50.058582]]]}},{"type":"Feature","id":"w133524106","properties":{"type":"house","levels":1.0,"residential":true,"residents_est":8,"h3_10":"8a1e2e6f1587fff","h3_11":"8b1e2e6f1583fff"},"geometry":{"type":"Polygon","coordinates":[[[20.177982,50.058697],[20.178011,50.058696],[20.178003,50.058634],[20.178007,50.058648],[20.178149,50.058641],[20.178148,50.058627],[20.178153,50.058626],[20.178161,50.058766],[20.178018,50.05877],[20.178016,50.058733],[20.177986,50.058735],[20.177982,50.058697]]]}},{"type":"Feature","id":"w133524108","properties":{"type":"yes","residential":true,"residents_est":5,"h3_10":"8a1e2e6f15b7fff","h3_11":"8b1e2e6f15b3fff"},"geometry":{"type":"Polygon","coordinates":[[[20.176332,50.05893],[20.176431,50.058883],[20.176515,50.058957],[20.176416,50.059004],[20.176332,50.05893]]]}},{"type":"Feature","id":"w133524117","properties":{"type":"yes","address":"Drożyska 61","residential":true,"residents_est":9,"h3_10":"8a1e2e6f15b7fff","h3_11":"8b1e2e6f15b6fff"},"geometry":{"type":"Polygon","coordinates":[[[20.174983,50.059475],[20.175027,50.059386],[20.17509,50.059399],[20.175085,50.059409],[20.175231,50.059438],[20.175192,50.059517],[20.175157,50.05951],[20.175145,50.059534],[20.175063,50.059518],[20.175073,50.059494],[20.175042,50.059488],[20.175046,50.059481],[20.174993,50.059471],[20.174983,50.059475]]]}},{"type":"Feature","id":"w337889621","properties":{"type":"yes","residential":true,"residents_est":3,"h3_10":"8a1e2e6f14e7fff","h3_11":"8b1e2e6f14e2fff"},"geometry":{"type":"Polygon","coordinates":[[[20.184284,50.057346],[20.184313,50.057291],[20.18435,50.057298],[20.184357,50.057284],[20.184402,50.057293],[20.184366,50.057364],[20.184284,50.057346]]]}},{"type":"Feature","id":"w337889628","properties":{"type":"yes","residential":true,"residents_est":62,"h3_10":"8a1e2e6f1587fff","h3_11":"8b1e2e6f1580fff"},"geometry":{"type":"Polygon","coordinates":[[[20.177758,50.058925],[20.177916,50.058922],[20.177917,50.058943],[20.178087,50.058939],[20.178079,50.058843],[20.178151,50.058841],[20.178168,50.059091],[20.177767,50.059098],[20.177758,50.058925]]]}},{"type":"Feature","id":"w337889629","properties":{"type":"yes","residential":true,"residents_est":5,"h3_10":"8a1e2e6f14b7fff","h3_11":"8b1e2e6f14b4fff"},"geometry":{"type":"Polygon","coordinates":[[[20.1781,50.057403],[20.178116,50.057306],[20.17824,50.057316],[20.178225,50.057411],[20.1781,50.057403]]]}},{"type":"Feature","id":"w337889638","properties":{"type":"yes","residential":true,"residents_est":6,"h3_10":"8a1e2e6f149ffff","h3_11":"8b1e2e6f149bfff"},"geometry":{"type":"Polygon","coordinates":[[[20.180656,50.055017],[20.180672,50.054909],[20.180801,50.054916],[20.180785,50.055025],[20.180656,50.055017]]]}},{"type":"Feature","id":"w337889653","properties":{"type":"farm_auxiliary","residential":false,"residents_est":0,"h3_10":"8a1e2e6f14a7fff","h3_11":"8b1e2e6f14a3fff"},"geometry":{"type":"Polygon","coordinates":[[[20.179861,50.057192],[20.179896,50.057188],[20.179871,50.0571],[20.179995,50.057086],[20.180028,50.057174],[20.180067,50.05717],[20.180076,50.057201],[20.17987,50.057227],[20.179861,50.057192]]]}},{"type":"Feature","id":"w337889709","properties":{"type":"yes","residential":true,"residents_est":7,"h3_10":"8a1e2e6f14affff","h3_11":"8b1e2e6f14aefff"},"geometry":{"type":"Polygon","coordinates":[[[20.181148,50.057349],[20.181287,50.057338],[20.181291,50.057386],[20.181326,50.057384],[20.18133,50.057428],[20.181295,50.05743],[20.181296,50.057438],[20.181156,50.057443],[20.181148,50.057349]]]}},{"type":"Feature","id":"w337889710","properties":{"type":"yes","residential":true,"residents_est":3,"h3_10":"8a1e2e6f148ffff","h3_11":"8b1e2e6f148cfff"},"geometry":{"type":"Polygon","coordinates":[[[20.181531,50.05657],[20.181642,50.056555],[20.181657,50.056598],[20.181672,50.056596],[20.181677,50.056606],[20.181549,50.056624],[20.181531,50.05657]]]}},{"type":"Feature","id":"w337889744","properties":{"type":"yes","residential":true,"residents_est":5,"h3_10":"8a1e2e6f1487fff","h3_11":"8b1e2e6f1485fff"},"geometry":{"type":"Polygon","coordinates":[[[20.180423,50.056892],[20.180439,50.056889],[20.180425,50.056856],[20.180528,50.056838],[20.180535,50.056854],[20.180587,50.056845],[20.180611,50.0569],[20.180458,50.056933],[20.180451,50.056918],[20.180435,50.056921],[20.180423,50.056892]]]}},{"type":"Feature","id":"w337889748","properties":{"type":"house","residential":true,"residents_est":9,"h3_10":"8a1e2e6f14affff","h3_11":"8b1e2e6f14a8fff"},"geometry":{"type":"Polygon","coordinates":[[[20.181616,50.057125],[20.181704,50.057122],[20.181708,50.057164],[20.181691,50.057165],[20.181694,50.057212],[20.181711,50.057212],[20.181715,50.057258],[20.181625,50.057261],[20.181622,50.057215],[20.181639,50.057214],[20.181635,50.057167],[20.181619,50.057167],[20.181616,50.057125]]]}},{"type":"Feature","id":"w337889772","properties":{"type":"yes","residential":true,"residents_est":5,"h3_10":"8a1e2e6f14affff","h3_11":"8b1e2e6f14aafff"},"geometry":{"type":"Polygon","coordinates":[[[20.181306,50.056883],[20.181382,50.056869],[20.181386,50.056884],[20.181437,50.056877],[20.181462,50.056953],[20.181338,50.056967],[20.181306,50.056883]]]}},{"type":"Feature","id":"w337889777","properties":{"type":"yes","residential":true,"residents_est":5,"h3_10":"8a1e2e6f14effff","h3_11":"8b1e2e6f14eefff"},"geometry":{"type":"Polygon","coordinates":[[[20.185934,50.057433],[20.185938,50.057356],[20.186088,50.057358],[20.186085,50.057437],[20.185934,50.057433]]]}},{"type":"Feature","id":"w337889876","properties":{"type":"yes","residential":true,"residents_est":35,"h3_10":"8a1e2e6f14cffff","h3_11":"8b1e2e6f14ccfff"},"geometry":{"type":"Polygon","coordinates":[[[20.186458,50.05638],[20.186779,50.056358],[20.186795,50.056482],[20.18648,50.056507],[20.186458,50.05638]]]}},{"type":"Feature","id":"w337889879","properties":{"type":"yes","residential":true,"residents_est":6,"h3_10":"8a1e2e6f14a7fff","h3_11":"8b1e2e6f14a0fff"},"geometry":{"type":"Polygon","coordinates":[[[20.179867,50.057649],[20.180013,50.057626],[20.180045,50.057713],[20.1799,50.057736],[20.179867,50.057649]]]}},{"type":"Feature","id":"w337889926","properties":{"type":"house","levels":1.0,"residential":true,"residents_est":7,"h3_10":"8a1e2e6f159ffff","h3_11":"8b1e2e6f1599fff"},"geometry":{"type":"Polygon","coordinates":[[[20.178723,50.057742],[20.178908,50.057737],[20.178911,50.05782],[20.178728,50.057825],[20.178723,50.057742]]]}},{"type":"Feature","id":"w337889974","properties":{"type":"yes","residential":true,"residents_est":5,"h3_10":"8a1e2e6f14a7fff","h3_11":"8b1e2e6f14a2fff"},"geometry":{"type":"Polygon","coordinates":[[[20.179366,50.057047],[20.179494,50.057031],[20.17952,50.057117],[20.179392,50.057133],[20.179366,50.057047]]]}},{"type":"Feature","id":"w337889987","properties":{"type":"farm_auxiliary","residential":false,"residents_est":0,"h3_10":"8a1e2e6f14a7fff","h3_11":"8b1e2e6f14a6fff"},"geometry":{"type":"Polygon","coordinates":[[[20.179035,50.057621],[20.179167,50.057615],[20.179179,50.05774],[20.179045,50.057746],[20.179035,50.057621]]]}},{"type":"Feature","id":"w337889994","properties":{"type":"yes","residential":true,"residents_est":5,"h3_10":"8a1e2e6f14f7fff","h3_11":"8b1e2e6f14f5fff"},"geometry":{"type":"Polygon","coordinates":[[[20.1838,50.057243],[20.183816,50.057163],[20.183955,50.057174],[20.18394,50.057254],[20.1838,50.057243]]]}},{"type":"Feature","id":"w337889997","properties":{"type":"yes","residential":true,"residents_est":5,"h3_10":"8a1e2e6f1597fff","h3_11":"8b1e2e6f1595fff"},"geometry":{"type":"Polygon","coordinates":[[[20.176565,50.058826],[20.176702,50.058791],[20.176749,50.058866],[20.176612,50.058901],[20.176565,50.058826]]]}},{"type":"Feature","id":"w337890031","properties":{"type":"yes","residential":true,"residents_est":5,"h3_10":"8a1e2e6f14a7fff","h3_11":"8b1e2e6f14a1fff"},"geometry":{"type":"Polygon","coordinates":[[[20.180571,50.057558],[20.180708,50.05754],[20.180716,50.057566],[20.180743,50.057562],[20.180754,50.057592],[20.180726,50.057596],[20.180735,50.057623],[20.180598,50.057642],[20.180571,50.057558]]]}},{"type":"Feature","id":"w337890037","properties":{"type":"detached","residential":true,"residents_est":13,"h3_10":"8a1e2e6f14affff","h3_11":"8b1e2e6f14a9fff"},"geometry":{"type":"Polygon","coordinates":[[[20.182403,50.05713],[20.182415,50.057059],[20.182612,50.057071],[20.182599,50.057144],[20.182403,50.05713]]]}},{"type":"Feature","id":"w337890097","properties":{"type":"yes","residential":true,"residents_est":6,"h3_10":"8a1e2e6f149ffff","h3_11":"8b1e2e6f149bfff"},"geometry":{"type":"Polygon","coordinates":[[[20.180935,50.054961],[20.180942,50.054872],[20.181094,50.054877],[20.181086,50.054966],[20.180935,50.054961]]]}},{"type":"Feature","id":"w337890121","properties":{"type":"yes","residential":true,"residents_est":5,"h3_10":"8a1e2e6f14effff","h3_11":"8b1e2e6f14e8fff"},"geometry":{"type":"Polygon","coordinates":[[[20.186542,50.057438],[20.186543,50.057358],[20.186699,50.057359],[20.186698,50.057439],[20.186542,50.057438]]]}},{"type":"Feature","id":"w337890166","properties":{"type":"yes","residential":true,"residents_est":6,"h3_10":"8a1e2e6f14a7fff","h3_11":"8b1e2e6f14a1fff"},"geometry":{"type":"Polygon","coordinates":[[[20.180897,50.057654],[20.180912,50.057643],[20.180926,50.057643],[20.180923,50.057608],[20.18104,50.057604],[20.181049,50.057707],[20.180932,50.057712],[20.180929,50.057678],[20.180916,50.057678],[20.180899,50.057668],[20.180897,50.057654]]]}},{"type":"Feature","id":"w337890213","properties":{"type":"yes","residential":true,"residents_est":6,"h3_10":"8a1e2e6f14e7fff","h3_11":"8b1e2e6f14e3fff"},"geometry":{"type":"Polygon","coordinates":[[[20.18537,50.057441],[20.185372,50.057346],[20.185514,50.057347],[20.185513,50.057442],[20.18537,50.057441]]]}},{"type":"Feature","id":"w337890229","properties":{"type":"yes","residential":true,"residents_est":7,"h3_10":"8a1e2e6f1597fff","h3_11":"8b1e2e6f1594fff"},"geometry":{"type":"Polygon","coordinates":[[[20.176302,50.058721],[20.176461,50.058679],[20.17652,50.058772],[20.176364,50.058812],[20.176302,50.058721]]]}},{"type":"Feature","id":"w337890278","properties":{"type":"yes","residential":true,"residents_est":3,"h3_10":"8a1e2e6f14b7fff","h3_11":"8b1e2e6f14b1fff"},"geometry":{"type":"Polygon","coordinates":[[[20.179426,50.056947],[20.179636,50.056932],[20.179642,50.056969],[20.179432,50.056984],[20.179426,50.056947]]]}},{"type":"Feature","id":"w337890306","properties":{"type":"yes","residential":true,"residents_est":6,"h3_10":"8a1e2e6f159ffff","h3_11":"8b1e2e6f159bfff"},"geometry":{"type":"Polygon","coordinates":[[[20.178321,50.057818],[20.178341,50.057718],[20.178478,50.05773],[20.178455,50.057831],[20.178321,50.057818]]]}},{"type":"Feature","id":"w337890359","properties":{"type":"yes","residential":true,"residents_est":3,"h3_10":"8a1e2e6f1507fff","h3_11":"8b1e2e6f1506fff"},"geometry":{"type":"Polygon","coordinates":[[[20.179946,50.061757],[20.18007,50.06174],[20.180087,50.061792],[20.179963,50.061809],[20.179946,50.061757]]]}},{"type":"Feature","id":"w337890406","properties":{"type":"yes","residential":true,"residents_est":6,"h3_10":"8a1e2e6f14f7fff","h3_11":"8b1e2e6f14f5fff"},"geometry":{"type":"Polygon","coordinates":[[[20.184036,50.057244],[20.18404,50.057164],[20.18422,50.057168],[20.184216,50.057249],[20.184036,50.057244]]]}},{"type":"Feature","id":"w337890410","properties":{"type":"yes","residential":true,"residents_est":3,"h3_10":"8a1e2e6f15b7fff","h3_11":"8b1e2e6f15b5fff"},"geometry":{"type":"Polygon","coordinates":[[[20.176372,50.059794],[20.176397,50.059711],[20.176487,50.059722],[20.176462,50.059806],[20.176372,50.059794]]]}},{"type":"Feature","id":"w337890423","properties":{"type":"yes","residential":true,"residents_est":3,"h3_10":"8a1e2e6f141ffff","h3_11":"8b1e2e6f141bfff"},"geometry":{"type":"Polygon","coordinates":[[[20.183147,50.057515],[20.183185,50.057426],[20.183249,50.05744],[20.183214,50.057527],[20.183147,50.057515]]]}},{"type":"Feature","id":"w337890449","properties":{"type":"yes","residential":true,"residents_est":5,"h3_10":"8a1e2e6f14b7fff","h3_11":"8b1e2e6f14b1fff"},"geometry":{"type":"Polygon","coordinates":[[[20.179019,50.056975],[20.179124,50.056961],[20.179157,50.057062],[20.179052,50.057077],[20.179019,50.056975]]]}},{"type":"Feature","id":"w337890453","properties":{"type":"industrial","residential":false,"residents_est":0,"h3_10":"8a1e2e6f1587fff","h3_11":"8b1e2e6f1586fff"},"geometry":{"type":"Polygon","coordinates":[[[20.177229,50.058978],[20.177389,50.058946],[20.177514,50.059203],[20.177355,50.059236],[20.177229,50.058978]]]}},{"type":"Feature","id":"w337890463","properties":{"type":"yes","residential":true,"residents_est":2,"h3_10":"8a1e2e6f141ffff","h3_11":"8b1e2e6f141bfff"},"geometry":{"type":"Polygon","coordinates":[[[20.183283,50.057578],[20.183318,50.057499],[20.183391,50.057512],[20.183356,50.057591],[20.183283,50.057578]]]}},{"type":"Feature","id":"w337890525","properties":{"type":"yes","residential":true,"residents_est":4,"h3_10":"8a1e2e6f159ffff","h3_11":"8b1e2e6f1598fff"},"geometry":{"type":"Polygon","coordinates":[[[20.178113,50.057839],[20.178124,50.057787],[20.178292,50.057802],[20.178282,50.057853],[20.178113,50.057839]]]}},{"type":"Feature","id":"w337890562","properties":{"type":"yes","residential":true,"residents_est":8,"h3_10":"8a1e2e6f14e7fff","h3_11":"8b1e2e6f14e1fff"},"geometry":{"type":"Polygon","coordinates":[[[20.185629,50.057695],[20.185636,50.057588],[20.185819,50.057595],[20.185812,50.057702],[20.185629,50.057695]]]}},{"type":"Feature","id":"w337890635","properties":{"type":"yes","residential":true,"residents_est":5,"h3_10":"8a1e2e6f14effff","h3_11":"8b1e2e6f14edfff"},"geometry":{"type":"Polygon","coordinates":[[[20.186733,50.057591],[20.186742,50.057482],[20.186843,50.057484],[20.186835,50.057594],[20.186733,50.057591]]]}},{"type":"Feature","id":"w337890658","properties":{"type":"yes","residential":true,"residents_est":6,"h3_10":"8a1e2e6f14e7fff","h3_11":"8b1e2e6f14e1fff"},"geometry":{"type":"Polygon","coordinates":[[[20.185237,50.057573],[20.18524,50.0575],[20.185371,50.057503],[20.185371,50.057491],[20.18541,50.057492],[20.185407,50.057576],[20.185237,50.057573]]]}},{"type":"Feature","id":"w337890722","properties":{"type":"yes","residential":true,"residents_est":7,"h3_10":"8a1e2e6f159ffff","h3_11":"8b1e2e6f159afff"},"geometry":{"type":"Polygon","coordinates":[[[20.178022,50.057736],[20.178052,50.057595],[20.178183,50.057606],[20.178175,50.057645],[20.178141,50.057642],[20.17812,50.057744],[20.178022,50.057736]]]}},{"type":"Feature","id":"w337890756","properties":{"type":"yes","residential":true,"residents_est":7,"h3_10":"8a1e2e6f14e7fff","h3_11":"8b1e2e6f14e2fff"},"geometry":{"type":"Polygon","coordinates":[[[20.184471,50.057282],[20.184489,50.05716],[20.184653,50.05717],[20.184646,50.057215],[20.184602,50.057212],[20.18459,50.057289],[20.184471,50.057282]]]}},{"type":"Feature","id":"w337890790","properties":{"type":"yes","residential":true,"residents_est":7,"h3_10":"8a1e2e6f1417fff","h3_11":"8b1e2e6f1412fff"},"geometry":{"type":"Polygon","coordinates":[[[20.180825,50.05776],[20.181008,50.05773],[20.181038,50.057809],[20.180855,50.057837],[20.180825,50.05776]]]}},{"type":"Feature","id":"w337890798","properties":{"type":"yes","residential":true,"residents_est":5,"h3_10":"8a1e2e6f14f7fff","h3_11":"8b1e2e6f14f4fff"},"geometry":{"type":"Polygon","coordinates":[[[20.182848,50.057305],[20.182855,50.057217],[20.182997,50.05722],[20.18299,50.057311],[20.182848,50.057305]]]}},{"type":"Feature","id":"w337890833","properties":{"type":"house","residential":true,"residents_est":10,"h3_10":"8a1e2e6f14affff","h3_11":"8b1e2e6f14a9fff"},"geometry":{"type":"Polygon","coordinates":[[[20.182098,50.057221],[20.182106,50.057137],[20.182247,50.057142],[20.18224,50.057226],[20.182098,50.057221]]]}},{"type":"Feature","id":"w337890844","properties":{"type":"yes","residential":true,"residents_est":8,"h3_10":"8a1e2e6f1487fff","h3_11":"8b1e2e6f1485fff"},"geometry":{"type":"Polygon","coordinates":[[[20.180705,50.056689],[20.180874,50.056679],[20.180889,50.056777],[20.180813,50.056781],[20.180815,50.056793],[20.180722,50.056799],[20.180705,50.056689]]]}},{"type":"Feature","id":"w337890863","properties":{"type":"yes","residential":true,"residents_est":9,"h3_10":"8a1e2e6f14effff","h3_11":"8b1e2e6f14e9fff"},"geometry":{"type":"Polygon","coordinates":[[[20.187188,50.057421],[20.187233,50.057309],[20.187297,50.05732],[20.187287,50.057348],[20.187424,50.057371],[20.18739,50.057456],[20.187188,50.057421]]]}},{"type":"Feature","id":"w337890890","properties":{"type":"farm_auxiliary","residential":false,"residents_est":0,"h3_10":"8a1e2e6f14affff","h3_11":"8b1e2e6f14a9fff"},"geometry":{"type":"Polygon","coordinates":[[[20.182623,50.057216],[20.182633,50.057166],[20.182651,50.057167],[20.182654,50.057155],[20.182807,50.057167],[20.182792,50.05723],[20.182623,50.057216]]]}},{"type":"Feature","id":"w337890916","properties":{"type":"house","residential":true,"residents_est":11,"h3_10":"8a1e2e6f14affff","h3_11":"8b1e2e6f14a8fff"},"geometry":{"type":"Polygon","coordinates":[[[20.181376,50.057319],[20.18138,50.05723],[20.181519,50.057233],[20.181516,50.057322],[20.181471,50.057321],[20.18147,50.057336],[20.181432,50.057336],[20.181433,50.057321],[20.181376,50.057319]]]}},{"type":"Feature","id":"w337890921","properties":{"type":"yes","residential":true,"residents_est":6,"h3_10":"8a1e2e6f14affff","h3_11":"8b1e2e6f14aefff"},"geometry":{"type":"Polygon","coordinates":[[[20.180852,50.057393],[20.180853,50.05731],[20.181028,50.05731],[20.181027,50.057394],[20.180852,50.057393]]]}},{"type":"Feature","id":"w337890923","properties":{"type":"yes","residential":true,"residents_est":6,"h3_10":"8a1e2e6f14affff","h3_11":"8b1e2e6f14a8fff"},"geometry":{"type":"Polygon","coordinates":[[[20.181712,50.057322],[20.181826,50.057314],[20.181832,50.057352],[20.181851,50.057351],[20.181863,50.05742],[20.181749,50.057427],[20.181743,50.057388],[20.181723,50.057389],[20.181712,50.057322]]]}},{"type":"Feature","id":"w337890926","properties":{"type":"yes","residential":true,"residents_est":5,"h3_10":"8a1e2e6f14effff","h3_11":"8b1e2e6f14e9fff"},"geometry":{"type":"Polygon","coordinates":[[[20.187194,50.057247],[20.18721,50.057154],[20.187348,50.057163],[20.187333,50.057255],[20.187194,50.057247]]]}},{"type":"Feature","id":"w337890937","properties":{"type":"house","residential":true,"residents_est":14,"h3_10":"8a1e2e6f1487fff","h3_11":"8b1e2e6f1484fff"},"geometry":{"type":"Polygon","coordinates":[[[20.180082,50.05697],[20.180251,50.056942],[20.180284,50.057027],[20.180225,50.057037],[20.180233,50.057059],[20.180187,50.057066],[20.180179,50.057044],[20.180115,50.057054],[20.180082,50.05697]]]}},{"type":"Feature","id":"w337890942","properties":{"type":"yes","residential":true,"residents_est":8,"h3_10":"8a1e2e6f14f7fff","h3_11":"8b1e2e6f14f5fff"},"geometry":{"type":"Polygon","coordinates":[[[20.183615,50.057397],[20.183636,50.057313],[20.183773,50.057335],[20.183775,50.057327],[20.183836,50.057334],[20.183811,50.05742],[20.183615,50.057397]]]}},{"type":"Feature","id":"w337890985","properties":{"type":"yes","residential":true,"residents_est":6,"h3_10":"8a1e2e6f14e7fff","h3_11":"8b1e2e6f14e3fff"},"geometry":{"type":"Polygon","coordinates":[[[20.18492,50.057331],[20.184935,50.057251],[20.185102,50.057264],[20.185088,50.057344],[20.18492,50.057331]]]}},{"type":"Feature","id":"w337891019","properties":{"type":"yes","residential":true,"residents_est":7,"h3_10":"8a1e2e6f1587fff","h3_11":"8b1e2e6f1583fff"},"geometry":{"type":"Polygon","coordinates":[[[20.177759,50.058729],[20.177842,50.058728],[20.177841,50.058702],[20.177907,50.058701],[20.177908,50.058779],[20.177854,50.058779],[20.177855,50.05885],[20.177761,50.058851],[20.177759,50.058729]]]}},{"type":"Feature","id":"w337891072","properties":{"type":"yes","residential":true,"residents_est":5,"h3_10":"8a1e2e6f14effff","h3_11":"8b1e2e6f14ecfff"},"geometry":{"type":"Polygon","coordinates":[[[20.18627,50.057542],[20.186275,50.057471],[20.186437,50.057475],[20.186433,50.057546],[20.18627,50.057542]]]}},{"type":"Feature","id":"w337891076","properties":{"type":"yes","residential":true,"residents_est":6,"h3_10":"8a1e2e6f14a7fff","h3_11":"8b1e2e6f14a1fff"},"geometry":{"type":"Polygon","coordinates":[[[20.180193,50.057679],[20.180335,50.057654],[20.180371,50.057742],[20.180331,50.057749],[20.180338,50.057767],[20.180284,50.057776],[20.180277,50.057758],[20.18023,50.057766],[20.180193,50.057679]]]}},{"type":"Feature","id":"w337891125","properties":{"type":"yes","residential":true,"residents_est":6,"h3_10":"8a1e2e6f159ffff","h3_11":"8b1e2e6f1598fff"},"geometry":{"type":"Polygon","coordinates":[[[20.178036,50.058137],[20.17806,50.058051],[20.178212,50.05807],[20.178188,50.058154],[20.178151,50.058151],[20.178147,50.058169],[20.1781,50.058164],[20.178105,50.058145],[20.178036,50.058137]]]}},{"type":"Feature","id":"w337891127","properties":{"type":"yes","residential":true,"residents_est":7,"h3_10":"8a1e2e6f159ffff","h3_11":"8b1e2e6f159bfff"},"geometry":{"type":"Polygon","coordinates":[[[20.178371,50.05749],[20.178386,50.057397],[20.178549,50.057407],[20.178534,50.0575],[20.178477,50.057497],[20.178475,50.057514],[20.178434,50.057511],[20.178437,50.057494],[20.178371,50.05749]]]}},{"type":"Feature","id":"w337891130","properties":{"type":"yes","residential":true,"residents_est":11,"h3_10":"8a1e2e6f159ffff","h3_11":"8b1e2e6f159cfff"},"geometry":{"type":"Polygon","coordinates":[[[20.177724,50.05811],[20.177733,50.058054],[20.177771,50.058056],[20.177767,50.058081],[20.177948,50.058093],[20.17793,50.058211],[20.17773,50.058201],[20.177744,50.058111],[20.177724,50.05811]]]}},{"type":"Feature","id":"w337891132","properties":{"type":"yes","residential":true,"residents_est":5,"h3_10":"8a1e2e6f14affff","h3_11":"8b1e2e6f14aafff"},"geometry":{"type":"Polygon","coordinates":[[[20.181525,50.056862],[20.18169,50.056842],[20.18171,50.056913],[20.181545,50.056932],[20.181525,50.056862]]]}},{"type":"Feature","id":"w337891158","properties":{"type":"yes","residential":true,"residents_est":5,"h3_10":"8a1e2e6f14b7fff","h3_11":"8b1e2e6f14b5fff"},"geometry":{"type":"Polygon","coordinates":[[[20.178579,50.057286],[20.178746,50.05728],[20.178753,50.057353],[20.178586,50.05736],[20.178579,50.057286]]]}},{"type":"Feature","id":"w337891160","properties":{"type":"yes","residential":true,"residents_est":6,"h3_10":"8a1e2e6f14affff","h3_11":"8b1e2e6f14a9fff"},"geometry":{"type":"Polygon","coordinates":[[[20.18245,50.057405],[20.182462,50.057312],[20.182603,50.057319],[20.182598,50.057352],[20.182633,50.057354],[20.18263,50.057381],[20.182595,50.057379],[20.18259,50.057413],[20.18245,50.057405]]]}},{"type":"Feature","id":"w337891173","properties":{"type":"yes","residential":true,"residents_est":10,"h3_10":"8a1e2e6f14a7fff","h3_11":"8b1e2e6f14a4fff"},"geometry":{"type":"Polygon","coordinates":[[[20.179769,50.05786],[20.179897,50.057836],[20.179904,50.057851],[20.179949,50.057842],[20.179943,50.057829],[20.180031,50.057813],[20.180067,50.057897],[20.179806,50.057945],[20.179769,50.05786]]]}},{"type":"Feature","id":"w337891185","properties":{"type":"yes","residential":true,"residents_est":6,"h3_10":"8a1e2e6f14b7fff","h3_11":"8b1e2e6f14b5fff"},"geometry":{"type":"Polygon","coordinates":[[[20.178909,50.057292],[20.178926,50.057289],[20.178931,50.057299],[20.17901,50.057285],[20.179065,50.057415],[20.178925,50.05744],[20.178911,50.057407],[20.178955,50.057399],[20.178909,50.057292]]]}},{"type":"Feature","id":"w721925110","properties":{"type":"yes","residential":true,"residents_est":47,"h3_10":"8a1e2e6f1587fff","h3_11":"8b1e2e6f1584fff"},"geometry":{"type":"Polygon","coordinates":[[[20.177433,50.059336],[20.177621,50.059293],[20.177763,50.059548],[20.177575,50.059592],[20.177433,50.059336]]]}},{"type":"Feature","id":"w721925114","properties":{"type":"yes","residential":true,"residents_est":3,"h3_10":"8a1e2e6f14b7fff","h3_11":"8b1e2e6f14b4fff"},"geometry":{"type":"Polygon","coordinates":[[[20.178092,50.057452],[20.1781,50.057403],[20.17824,50.057413],[20.178232,50.057461],[20.178092,50.057452]]]}},{"type":"Feature","id":"w721925116","properties":{"type":"yes","residential":false,"residents_est":0,"h3_10":"8a1e2e6f159ffff","h3_11":"8b1e2e6f1599fff"},"geometry":{"type":"Polygon","coordinates":[[[20.178908,50.057737],[20.178958,50.057736],[20.178963,50.057819],[20.178911,50.05782],[20.178908,50.057737]]]}},{"type":"Feature","id":"w721925117","properties":{"type":"yes","residential":false,"residents_est":0,"h3_10":"8a1e2e6f14a7fff","h3_11":"8b1e2e6f14a6fff"},"geometry":{"type":"Polygon","coordinates":[[[20.179032,50.057587],[20.179163,50.057583],[20.179167,50.057615],[20.179035,50.057621],[20.179032,50.057587]]]}},{"type":"Feature","id":"w721925118","properties":{"type":"yes","residential":true,"residents_est":3,"h3_10":"8a1e2e6f14b7fff","h3_11":"8b1e2e6f14b5fff"},"geometry":{"type":"Polygon","coordinates":[[[20.178582,50.057361],[20.178649,50.057358],[20.178659,50.057473],[20.178593,50.057475],[20.178582,50.057361]]]}},{"type":"Feature","id":"w721925119","properties":{"type":"yes","residential":true,"residents_est":3,"h3_10":"8a1e2e6f14a7fff","h3_11":"8b1e2e6f14a3fff"},"geometry":{"type":"Polygon","coordinates":[[[20.18003,50.057209],[20.180077,50.057202],[20.18007,50.057173],[20.180161,50.057163],[20.180175,50.057212],[20.180035,50.057229],[20.18003,50.057209]]]}},{"type":"Feature","id":"w721925120","properties":{"type":"yes","residential":true,"residents_est":3,"h3_10":"8a1e2e6f14a7fff","h3_11":"8b1e2e6f14a0fff"},"geometry":{"type":"Polygon","coordinates":[[[20.180175,50.057635],[20.180317,50.05761],[20.180335,50.057654],[20.180193,50.057679],[20.180175,50.057635]]]}},{"type":"Feature","id":"w721925121","properties":{"type":"yes","residential":false,"residents_est":0,"h3_10":"8a1e2e6f1417fff","h3_11":"8b1e2e6f1412fff"},"geometry":{"type":"Polygon","coordinates":[[[20.181155,50.057877],[20.181226,50.057873],[20.181231,50.057906],[20.181161,50.057911],[20.181155,50.057877]]]}},{"type":"Feature","id":"w721925122","properties":{"type":"yes","residential":true,"residents_est":3,"h3_10":"8a1e2e6f14affff","h3_11":"8b1e2e6f14aefff"},"geometry":{"type":"Polygon","coordinates":[[[20.181027,50.057421],[20.181029,50.057317],[20.181089,50.057317],[20.181088,50.057422],[20.181027,50.057421]]]}},{"type":"Feature","id":"w721925123","properties":{"type":"yes","residential":false,"residents_est":0,"h3_10":"8a1e2e6f14affff","h3_11":"8b1e2e6f14a8fff"},"geometry":{"type":"Polygon","coordinates":[[[20.181461,50.057417],[20.181539,50.057411],[20.181546,50.057454],[20.181468,50.057459],[20.181461,50.057417]]]}},{"type":"Feature","id":"w721925124","properties":{"type":"yes","residential":true,"residents_est":3,"h3_10":"8a1e2e6f14affff","h3_11":"8b1e2e6f14aafff"},"geometry":{"type":"Polygon","coordinates":[[[20.181259,50.056818],[20.181353,50.056802],[20.181382,50.056869],[20.181306,50.056883],[20.181301,50.056871],[20.181282,50.056875],[20.181259,50.056818]]]}},{"type":"Feature","id":"w721925125","properties":{"type":"yes","residential":false,"residents_est":0,"h3_10":"8a1e2e6f14affff","h3_11":"8b1e2e6f14aafff"},"geometry":{"type":"Polygon","coordinates":[[[20.181517,50.056835],[20.181613,50.056824],[20.181616,50.056835],[20.181589,50.056839],[20.181593,50.056853],[20.181525,50.056862],[20.181517,50.056835]]]}},{"type":"Feature","id":"w721925126","properties":{"type":"yes","residential":false,"residents_est":0,"h3_10":"8a1e2e6f14affff","h3_11":"8b1e2e6f14aafff"},"geometry":{"type":"Polygon","coordinates":[[[20.181477,50.056755],[20.181478,50.056719],[20.181531,50.056719],[20.181531,50.056755],[20.181477,50.056755]]]}},{"type":"Feature","id":"w721925128","properties":{"type":"yes","residential":true,"residents_est":3,"h3_10":"8a1e2e6f14affff","h3_11":"8b1e2e6f14a9fff"},"geometry":{"type":"Polygon","coordinates":[[[20.18224,50.057226],[20.182247,50.057142],[20.182322,50.057145],[20.182315,50.057229],[20.18224,50.057226]]]}},{"type":"Feature","id":"w721925129","properties":{"type":"yes","residential":false,"residents_est":0,"h3_10":"8a1e2e6f14affff","h3_11":"8b1e2e6f14a9fff"},"geometry":{"type":"Polygon","coordinates":[[[20.182063,50.05722],[20.182067,50.057165],[20.182103,50.057166],[20.182098,50.057221],[20.182063,50.05722]]]}},{"type":"Feature","id":"w721925130","properties":{"type":"yes","residential":true,"residents_est":4,"h3_10":"8a1e2e6f14f7fff","h3_11":"8b1e2e6f14f4fff"},"geometry":{"type":"Polygon","coordinates":[[[20.182989,50.057336],[20.182997,50.05722],[20.183069,50.057223],[20.183058,50.057339],[20.182989,50.057336]]]}},{"type":"Feature","id":"w721925132","properties":{"type":"yes","residential":false,"residents_est":0,"h3_10":"8a1e2e6f14f7fff","h3_11":"8b1e2e6f14f5fff"},"geometry":{"type":"Polygon","coordinates":[[[20.183931,50.057294],[20.18394,50.057254],[20.183993,50.05726],[20.18399,50.057272],[20.184011,50.057274],[20.184006,50.057301],[20.183931,50.057294]]]}},{"type":"Feature","id":"w721925133","properties":{"type":"yes","residential":true,"residents_est":6,"h3_10":"8a1e2e6f14e7fff","h3_11":"8b1e2e6f14e2fff"},"geometry":{"type":"Polygon","coordinates":[[[20.18414,50.057396],[20.184181,50.057324],[20.184343,50.057362],[20.184301,50.057432],[20.18414,50.057396]]]}},{"type":"Feature","id":"w721925134","properties":{"type":"yes","residential":false,"residents_est":0,"h3_10":"8a1e2e6f14e7fff","h3_11":"8b1e2e6f14e2fff"},"geometry":{"type":"Polygon","coordinates":[[[20.184575,50.057385],[20.184585,50.057324],[20.184649,50.057328],[20.184639,50.057389],[20.184575,50.057385]]]}},{"type":"Feature","id":"w721925135","properties":{"type":"yes","residential":true,"residents_est":4,"h3_10":"8a1e2e6f14e7fff","h3_11":"8b1e2e6f14e2fff"},"geometry":{"type":"Polygon","coordinates":[[[20.18446,50.057356],[20.184471,50.057282],[20.18459,50.057289],[20.184578,50.057365],[20.18446,50.057356]]]}},{"type":"Feature","id":"w721925136","properties":{"type":"yes","residential":true,"residents_est":4,"h3_10":"8a1e2e6f14e7fff","h3_11":"8b1e2e6f14e2fff"},"geometry":{"type":"Polygon","coordinates":[[[20.184716,50.057335],[20.184724,50.057288],[20.184925,50.057303],[20.18492,50.057331],[20.184898,50.05733],[20.184894,50.057348],[20.184716,50.057335]]]}},{"type":"Feature","id":"w721925137","properties":{"type":"yes","residential":true,"residents_est":4,"h3_10":"8a1e2e6f14effff","h3_11":"8b1e2e6f14eefff"},"geometry":{"type":"Polygon","coordinates":[[[20.185815,50.057364],[20.185937,50.057364],[20.185934,50.057433],[20.185881,50.057432],[20.18588,50.057441],[20.185816,50.05744],[20.185815,50.057364]]]}},{"type":"Feature","id":"w721925138","properties":{"type":"yes","residential":true,"residents_est":6,"h3_10":"8a1e2e6f14effff","h3_11":"8b1e2e6f14eefff"},"geometry":{"type":"Polygon","coordinates":[[[20.185666,50.057355],[20.185815,50.057354],[20.185816,50.05744],[20.185667,50.05744],[20.185666,50.057355]]]}},{"type":"Feature","id":"w721925139","properties":{"type":"yes","residential":false,"residents_est":0,"h3_10":"8a1e2e6f14e7fff","h3_11":"8b1e2e6f14e1fff"},"geometry":{"type":"Polygon","coordinates":[[[20.185866,50.057581],[20.185871,50.057539],[20.185966,50.057544],[20.18596,50.057587],[20.185866,50.057581]]]}},{"type":"Feature","id":"w721925140","properties":{"type":"yes","residential":false,"residents_est":0,"h3_10":"8a1e2e6f14effff","h3_11":"8b1e2e6f14ecfff"},"geometry":{"type":"Polygon","coordinates":[[[20.186314,50.057608],[20.186319,50.057546],[20.186399,50.057548],[20.186395,50.05761],[20.186314,50.057608]]]}},{"type":"Feature","id":"w721925141","properties":{"type":"yes","residential":false,"residents_est":0,"h3_10":"8a1e2e6f14effff","h3_11":"8b1e2e6f14ecfff"},"geometry":{"type":"Polygon","coordinates":[[[20.186436,50.057548],[20.18644,50.057477],[20.186487,50.057478],[20.186484,50.057549],[20.186436,50.057548]]]}},{"type":"Feature","id":"w721925144","properties":{"type":"yes","residential":false,"residents_est":0,"h3_10":"8a1e2e6f14effff","h3_11":"8b1e2e6f14e9fff"},"geometry":{"type":"Polygon","coordinates":[[[20.187137,50.057304],[20.187146,50.057246],[20.187227,50.057249],[20.18722,50.057308],[20.187137,50.057304]]]}},{"type":"Feature","id":"w721967080","properties":{"type":"yes","residential":false,"residents_est":0,"h3_10":"8a1e2e6f14affff","h3_11":"8b1e2e6f14a9fff"},"geometry":{"type":"Polygon","coordinates":[[[20.182323,50.057423],[20.182325,50.057364],[20.182386,50.057365],[20.182384,50.057424],[20.182323,50.057423]]]}},{"type":"Feature","id":"w721967081","properties":{"type":"greenhouse","residential":false,"residents_est":0,"h3_10":"8a1e2e6f141ffff","h3_11":"8b1e2e6f141afff"},"geometry":{"type":"Polygon","coordinates":[[[20.182569,50.057523],[20.182594,50.057433],[20.182644,50.057439],[20.18262,50.057528],[20.182569,50.057523]]]}},{"type":"Feature","id":"w721967108","properties":{"type":"yes","residential":false,"residents_est":0,"h3_10":"8a1e2e6f14cffff","h3_11":"8b1e2e6f14c8fff"},"geometry":{"type":"Polygon","coordinates":[[[20.187096,50.056339],[20.187165,50.056333],[20.187177,50.056388],[20.187109,50.056394],[20.187096,50.056339]]]}},{"type":"Feature","id":"w722165864","properties":{"type":"yes","residential":true,"residents_est":3,"h3_10":"8a1e2e6f149ffff","h3_11":"8b1e2e6f149bfff"},"geometry":{"type":"Polygon","coordinates":[[[20.180627,50.054905],[20.180632,50.05487],[20.180806,50.054881],[20.180801,50.054916],[20.180627,50.054905]]]}},{"type":"Feature","id":"w722165865","properties":{"type":"yes","residential":true,"residents_est":3,"h3_10":"8a1e2e6f149ffff","h3_11":"8b1e2e6f149bfff"},"geometry":{"type":"Polygon","coordinates":[[[20.18073,50.055063],[20.180737,50.055022],[20.180916,50.055034],[20.18091,50.055075],[20.18073,50.055063]]]}}]}