{"type":"FeatureCollection","features":[{"type":"Feature","id":"w106359899","properties":{"type":"apartments","levels":2.0,"address":"Mieczykowa 11","residential":true,"residents_est":3,"h3_10":"8a1e2e692d77fff","h3_11":"8b1e2e692d74fff"},"geometry":{"type":"Polygon","coordinates":[[[19.90075,49.997312],[19.900754,49.997205],[19.90082,49.997205],[19.90082,49.997217],[19.900848,49.997218],[19.90089,49.997218],[19.90089,49.997206],[19.901023,49.997208],[19.901023,49.997219],[19.901051,49.99722],[19.901094,49.99722],[19.901094,49.997208],[19.901227,49.99721],[19.901227,49.997221],[19.901256,49.997222],[19.901297,49.997222],[19.901297,49.99721],[19.901364,49.997211],[19.901361,49.997317],[19.901339,49.997317],[19.901338,49.99734],[19.90118,49.997338],[19.901181,49.997316],[19.901141,49.997315],[19.901135,49.997315],[19.901135,49.997338],[19.900976,49.997336],[19.900977,49.997314],[19.900941,49.997313],[19.900932,49.997313],[19.900931,49.997336],[19.900773,49.997334],[19.900774,49.997312],[19.90075,49.997312]]]}},{"type":"Feature","id":"w106360085","properties":{"type":"apartments","levels":3.0,"address":"Mieczykowa 13","residential":true,"residents_est":5,"h3_10":"8a1e2e692d2ffff","h3_11":"8b1e2e692d2dfff"},"geometry":{"type":"Polygon","coordinates":[[[19.900256,49.997646],[19.900258,49.997583],[19.900276,49.997583],[19.900277,49.997539],[19.900259,49.997539],[19.900261,49.997454],[19.900279,49.997455],[19.90028,49.99741],[19.900262,49.99741],[19.900264,49.997326],[19.900282,49.997326],[19.900283,49.997303],[19.900283,49.997282],[19.900265,49.997282],[19.900267,49.997186],[19.900362,49.997187],[19.900362,49.99722],[19.90044,49.997221],[19.900439,49.997291],[19.900461,49.997291],[19.900461,49.99732],[19.900438,49.99732],[19.900436,49.997419],[19.900459,49.99742],[19.900459,49.997449],[19.900435,49.997449],[19.900433,49.997548],[19.900455,49.997548],[19.900455,49.997577],[19.900432,49.997577],[19.90043,49.997665],[19.900348,49.997665],[19.900348,49.997646],[19.900256,49.997646]]]}},{"type":"Feature","id":"w106370405","properties":{"type":"apartments","levels":2.0,"address":"Mieczykowa 9","residential":true,"residents_est":3,"h3_10":"8a1e2e692d77fff","h3_11":"8b1e2e692d75fff"},"geometry":{"type":"Polygon","coordinates":[[[19.901491,49.997208],[19.901557,49.997203],[19.901559,49.997215],[19.901629,49.997211],[19.901627,49.997199],[19.901761,49.997191],[19.901762,49.997203],[19.901832,49.997199],[19.90183,49.997187],[19.901963,49.997179],[19.901965,49.997191],[19.902035,49.997187],[19.902033,49.997175],[19.902099,49.997171],[19.902114,49.997277],[19.902092,49.997278],[19.902095,49.9973],[19.901938,49.99731],[19.901935,49.997288],[19.901889,49.99729],[19.901892,49.997313],[19.901736,49.997322],[19.901733,49.9973],[19.901695,49.997302],[19.901686,49.997303],[19.901689,49.997325],[19.901533,49.997335],[19.901529,49.997312],[19.901506,49.997313],[19.901491,49.997208]]]}},{"type":"Feature","id":"w106370406","properties":{"type":"apartments","levels":3.0,"address":"Mieczykowa 7","residential":true,"residents_est":5,"h3_10":"8a1e2e692d67fff","h3_11":"8b1e2e692d62fff"},"geometry":{"type":"Polygon","coordinates":[[[19.902395,49.997242],[19.902418,49.997241],[19.902407,49.997171],[19.902486,49.997166],[19.902481,49.997134],[19.902577,49.997129],[19.90259,49.997223],[19.902572,49.997224],[19.902578,49.997269],[19.902596,49.997267],[19.902608,49.997351],[19.90259,49.997352],[19.902594,49.99738],[19.902597,49.997396],[19.902615,49.997395],[19.902627,49.997479],[19.902609,49.99748],[19.902615,49.997524],[19.902634,49.997523],[19.902643,49.997586],[19.902551,49.997591],[19.902553,49.997609],[19.902472,49.997614],[19.902459,49.997526],[19.902436,49.997527],[19.902434,49.997514],[19.902432,49.997498],[19.902455,49.997497],[19.90244,49.997398],[19.902418,49.9974],[19.902413,49.99737],[19.902436,49.997369],[19.902421,49.99727],[19.902399,49.997271],[19.902395,49.997242]]]}},{"type":"Feature","id":"w106370748","properties":{"type":"apartments","levels":3.0,"address":"Mieczykowa 5","residential":true,"residents_est":5,"h3_10":"8a1e2e692d67fff","h3_11":"8b1e2e692d64fff"},"geometry":{"type":"Polygon","coordinates":[[[19.902475,49.997808],[19.902499,49.997807],[19.902489,49.997737],[19.902567,49.997732],[19.902563,49.9977],[19.902658,49.997694],[19.902672,49.997789],[19.902654,49.99779],[19.90266,49.997834],[19.902678,49.997833],[19.902691,49.997917],[19.902672,49.997919],[19.902679,49.997962],[19.902697,49.997961],[19.902709,49.998045],[19.902691,49.998046],[19.902695,49.998076],[19.902697,49.99809],[19.902715,49.998089],[19.902724,49.998151],[19.902633,49.998157],[19.902635,49.998175],[19.902553,49.99818],[19.902541,49.998092],[19.902518,49.998093],[19.902513,49.998064],[19.902537,49.998063],[19.902522,49.997963],[19.902499,49.997965],[19.902494,49.997936],[19.90252,49.997934],[19.902505,49.997836],[19.902479,49.997838],[19.902475,49.997808]]]}},{"type":"Feature","id":"w125811724","properties":{"type":"apartments","levels":4.0,"residential":true,"residents_est":3,"h3_10":"8a1e2e692d27fff","h3_11":"8b1e2e692d25fff"},"geometry":{"type":"Polygon","coordinates":[[[19.898561,49.99787],[19.898558,49.99779],[19.898594,49.99779],[19.898602,49.9978],[19.89873,49.997802],[19.89874,49.997792],[19.898776,49.997791],[19.898777,49.997889],[19.898756,49.997889],[19.898754,49.997986],[19.898609,49.997985],[19.898609,49.997971],[19.898578,49.997971],[19.89858,49.99787],[19.898561,49.99787]]]}},{"type":"Feature","id":"w125811728","properties":{"type":"apartments","levels":4.0,"residential":true,"residents_est":12,"h3_10":"8a1e2e692d27fff","h3_11":"8b1e2e692d25fff"},"geometry":{"type":"Polygon","coordinates":[[[19.898047,49.998228],[19.898049,49.998175],[19.898069,49.998175],[19.898075,49.997883],[19.898055,49.997883],[19.898057,49.997806],[19.898068,49.997806],[19.898082,49.997797],[19.898082,49.99779],[19.898229,49.997796],[19.898238,49.997786],[19.898274,49.997786],[19.898273,49.997861],[19.898254,49.997861],[19.898247,49.99816],[19.898228,49.99816],[19.898225,49.998204],[19.898332,49.998205],[19.898333,49.998194],[19.898451,49.998195],[19.898451,49.998206],[19.898541,49.998207],[19.898542,49.998196],[19.89873,49.998199],[19.898743,49.998224],[19.898743,49.998247],[19.898756,49.998247],[19.898771,49.998275],[19.898771,49.998301],[19.898572,49.998305],[19.898573,49.998287],[19.898416,49.998285],[19.898415,49.998293],[19.898364,49.998292],[19.898365,49.998284],[19.898289,49.998283],[19.898289,49.998291],[19.898172,49.99829],[19.898172,49.998283],[19.89815,49.998269],[19.898151,49.99825],[19.898067,49.998249],[19.898067,49.998241],[19.898047,49.998228]]]}},{"type":"Feature","id":"w125811729","properties":{"type":"apartments","levels":4.0,"residential":true,"residents_est":5,"h3_10":"8a1e2e692d27fff","h3_11":"8b1e2e692d24fff"},"geometry":{"type":"Polygon","coordinates":[[[19.897568,49.997979],[19.897584,49.997973],[19.897585,49.997936],[19.89761,49.997937],[19.89761,49.997926],[19.897569,49.997926],[19.897571,49.997785],[19.897806,49.997788],[19.897806,49.997795],[19.89782,49.997804],[19.897831,49.997804],[19.89783,49.997874],[19.897788,49.997874],[19.897787,49.997884],[19.897813,49.997884],[19.897811,49.997975],[19.89783,49.997981],[19.897829,49.997999],[19.897811,49.998004],[19.89781,49.998011],[19.897583,49.99801],[19.897582,49.998004],[19.897568,49.997998],[19.897568,49.997979]]]}},{"type":"Feature","id":"w155072927","properties":{"type":"apartments","levels":4.0,"residential":true,"residents_est":12,"h3_10":"8a1e2e692d27fff","h3_11":"8b1e2e692d22fff"},"geometry":{"type":"Polygon","coordinates":[[[19.897186,49.997541],[19.897187,49.997518],[19.897202,49.997488],[19.897217,49.997488],[19.897216,49.997465],[19.897233,49.99744],[19.897385,49.997441],[19.897385,49.997452],[19.897461,49.997453],[19.897461,49.997442],[19.89751,49.997442],[19.897519,49.997031],[19.897501,49.997031],[19.897502,49.996953],[19.897533,49.996953],[19.897543,49.996964],[19.897675,49.996966],[19.897684,49.996954],[19.897716,49.996954],[19.897714,49.99705],[19.897693,49.997049],[19.897691,49.997161],[19.897687,49.997416],[19.897708,49.997416],[19.897704,49.997468],[19.897683,49.997482],[19.897685,49.997491],[19.897599,49.997489],[19.897599,49.997508],[19.897577,49.997521],[19.897579,49.997529],[19.897466,49.997528],[19.897466,49.997539],[19.897382,49.997538],[19.897382,49.997549],[19.897248,49.997548],[19.897248,49.997542],[19.897186,49.997541]]]}},{"type":"Feature","id":"w155072940","properties":{"type":"yes","levels":4.0,"residential":true,"residents_est":5,"h3_10":"8a1e2e692d2ffff","h3_11":"8b1e2e692d2cfff"},"geometry":{"type":"Polygon","coordinates":[[[19.898983,49.997495],[19.899,49.997485],[19.899008,49.997251],[19.899034,49.997241],[19.899034,49.997236],[19.899182,49.997242],[19.899192,49.997232],[19.899223,49.997233],[19.899226,49.997313],[19.899201,49.997313],[19.899199,49.997465],[19.899616,49.997466],[19.899616,49.997384],[19.89979,49.997384],[19.899789,49.997437],[19.89981,49.997438],[19.899808,49.997488],[19.899786,49.997507],[19.899704,49.997507],[19.899703,49.997528],[19.899684,49.997538],[19.89968,49.997547],[19.899487,49.997544],[19.899487,49.997558],[19.899318,49.997556],[19.899319,49.997543],[19.899126,49.997541],[19.899105,49.997522],[19.899104,49.997506],[19.899029,49.997504],[19.899011,49.997512],[19.898983,49.997495]]]}},{"type":"Feature","id":"w155072945","properties":{"type":"apartments","levels":4.0,"residential":true,"residents_est":17,"h3_10":"8a1e2e692d27fff","h3_11":"8b1e2e692d23fff"},"geometry":{"type":"Polygon","coordinates":[[[19.897971,49.997478],[19.89797,49.997419],[19.897993,49.997419],[19.897997,49.997294],[19.898014,49.997294],[19.898023,49.997059],[19.89802,49.997053],[19.897999,49.997053],[19.898001,49.996956],[19.89804,49.996958],[19.89804,49.996968],[19.89818,49.996969],[19.898181,49.996958],[19.89822,49.996957],[19.898218,49.997024],[19.898215,49.997031],[19.898197,49.997031],[19.898191,49.997296],[19.89817,49.997296],[19.898165,49.997447],[19.89859,49.997452],[19.898595,49.997292],[19.898567,49.997292],[19.898569,49.997225],[19.898609,49.997225],[19.898608,49.997235],[19.898767,49.997232],[19.898767,49.997248],[19.898788,49.997248],[19.898785,49.997324],[19.898764,49.997324],[19.898761,49.997426],[19.898783,49.997426],[19.898783,49.997437],[19.898771,49.997437],[19.89877,49.9975],[19.898676,49.997499],[19.898675,49.997525],[19.898655,49.997525],[19.898654,49.99754],[19.898461,49.997538],[19.898461,49.997552],[19.898289,49.997549],[19.898289,49.997536],[19.898095,49.997533],[19.898096,49.997519],[19.898075,49.997519],[19.898076,49.997493],[19.897991,49.997492],[19.897992,49.997478],[19.897971,49.997478]]]}},{"type":"Feature","id":"w155073051","properties":{"type":"apartments","levels":4.0,"residential":true,"residents_est":5,"h3_10":"8a1e2e692d37fff","h3_11":"8b1e2e692d35fff"},"geometry":{"type":"Polygon","coordinates":[[[19.896995,49.997044],[19.896996,49.996968],[19.897007,49.996968],[19.897022,49.996959],[19.897023,49.996952],[19.897171,49.996961],[19.897182,49.99695],[19.897215,49.996949],[19.897214,49.997015],[19.897211,49.997023],[19.897193,49.997023],[19.897187,49.997287],[19.897011,49.997285],[19.897015,49.997044],[19.896995,49.997044]]]}},{"type":"Feature","id":"w301173463","properties":{"type":"service","levels":1.0,"residential":false,"residents_est":0,"h3_10":"8a1e2e692d27fff","h3_11":"8b1e2e692d25fff"},"geometry":{"type":"Polygon","coordinates":[[[19.898369,49.9978],[19.898438,49.997801],[19.898465,49.997828],[19.898464,49.997859],[19.898371,49.997858],[19.898369,49.9978]]]}},{"type":"Feature","id":"w301173468","properties":{"type":"apartments","residential":true,"residents_est":2,"h3_10":"8a1e2e692d27fff","h3_11":"8b1e2e692d25fff"},"geometry":{"type":"Polygon","coordinates":[[[19.898574,49.998103],[19.898576,49.998002],[19.898671,49.998003],[19.898671,49.998016],[19.898753,49.998018],[19.898752,49.998105],[19.898574,49.998103]]]}},{"type":"Feature","id":"w337197358","properties":{"type":"yes","address":"Karola Homolacsa 57","residential":true,"residents_est":0,"h3_10":"8a1e2e692c67fff","h3_11":"8b1e2e692c61fff"},"geometry":{"type":"Polygon","coordinates":[[[19.906088,49.994984],[19.906134,49.994891],[19.906276,49.99492],[19.90623,49.995014],[19.906088,49.994984]]]}},{"type":"Feature","id":"w595752882","properties":{"type":"apartments","levels":4.0,"address":"Anny Szwed-Śniadowskiej 46","residential":true,"residents_est":10,"h3_10":"8a1e2e692d17fff","h3_11":"8b1e2e692d10fff"},"geometry":{"type":"Polygon","coordinates":[[[19.896458,49.995882],[19.896472,49.995753],[19.897147,49.995784],[19.897118,49.996039],[19.896926,49.99603],[19.89694,49.995904],[19.896458,49.995882]]]}},{"type":"Feature","id":"w595752883","properties":{"type":"apartments","levels":4.0,"address":"Anny Szwed-Śniadowskiej 45","residential":true,"residents_est":17,"h3_10":"8a1e2e692d07fff","h3_11":"8b1e2e692d02fff"},"geometry":{"type":"Polygon","coordinates":[[[19.897479,49.996132],[19.897519,49.995803],[19.898291,49.995841],[19.898239,49.996271],[19.89805,49.996262],[19.898087,49.995954],[19.897687,49.995934],[19.897662,49.996141],[19.897479,49.996132]]]}},{"type":"Feature","id":"w692996137","properties":{"type":"apartments","address":"Anny Szwed-Śniadowskiej 44","residential":true,"residents_est":16,"h3_10":"8a1e2e692d07fff","h3_11":"8b1e2e692d03fff"},"geometry":{"type":"Polygon","coordinates":[[[19.898611,49.996281],[19.898658,49.99586],[19.89944,49.995896],[19.899427,49.996006],[19.89882,49.995979],[19.898786,49.996289],[19.898611,49.996281]]]}},{"type":"Feature","id":"w692996138","properties":{"type":"apartments","address":"Anny Szwed-Śniadowskiej 42","residential":true,"residents_est":19,"h3_10":"8a1e2e692d0ffff","h3_11":"8b1e2e692d0cfff"},"geometry":{"type":"Polygon","coordinates":[[[19.899667,49.99603],[19.89968,49.995909],[19.900069,49.995927],[19.899995,49.996598],[19.899687,49.996584],[19.8997,49.996467],[19.899818,49.996473],[19.899866,49.996039],[19.899667,49.99603]]]}},{"type":"Feature","id":"w692996139","properties":{"type":"apartments","address":"Anny Szwed-Śniadowskiej 43","residential":true,"residents_est":18,"h3_10":"8a1e2e692d07fff","h3_11":"8b1e2e692d01fff"},"geometry":{"type":"Polygon","coordinates":[[[19.89857,49.996575],[19.898583,49.996456],[19.899182,49.996484],[19.899204,49.996284],[19.899127,49.996281],[19.89914,49.996163],[19.89941,49.996175],[19.899362,49.996611],[19.89857,49.996575]]]}},{"type":"Feature","id":"w759408819","properties":{"type":"apartments","address":"Anny Szwed-Śniadowskiej 41","residential":true,"residents_est":16,"h3_10":"8a1e2e692d0ffff","h3_11":"8b1e2e692d09fff"},"geometry":{"type":"Polygon","coordinates":[[[19.900468,49.996584],[19.900474,49.996533],[19.900495,49.996535],[19.900504,49.996457],[19.900483,49.996456],[19.900488,49.996404],[19.900509,49.996405],[19.900518,49.996327],[19.900497,49.996326],[19.900503,49.996275],[19.900524,49.996276],[19.900533,49.996198],[19.900512,49.996197],[19.900518,49.996146],[19.900539,49.996147],[19.900548,49.996066],[19.900527,49.996066],[19.900533,49.996013],[19.900554,49.996014],[19.900561,49.995951],[19.900643,49.995955],[19.900641,49.995968],[19.90076,49.995974],[19.900761,49.99596],[19.900873,49.995966],[19.900872,49.995979],[19.900918,49.995981],[19.90091,49.99605],[19.900917,49.99605],[19.900913,49.996083],[19.900781,49.996081],[19.900706,49.996073],[19.900695,49.996176],[19.900701,49.996177],[19.900697,49.996206],[19.900691,49.996206],[19.90068,49.996306],[19.900686,49.996306],[19.900683,49.996336],[19.900677,49.996335],[19.900665,49.996435],[19.900672,49.996435],[19.900669,49.996465],[19.900662,49.996464],[19.900657,49.996513],[19.900778,49.996518],[19.900772,49.99657],[19.900751,49.996569],[19.900746,49.996619],[19.900617,49.996613],[19.900615,49.996627],[19.900485,49.996621],[19.900489,49.996586],[19.900468,49.996584]]]}},{"type":"Feature","id":"w759409417","properties":{"type":"apartments","address":"Anny Szwed-Śniadowskiej 39","residential":true,"residents_est":16,"h3_10":"8a1e2e692d77fff","h3_11":"8b1e2e692d72fff"},"geometry":{"type":"Polygon","coordinates":[[[19.901099,49.996586],[19.901105,49.996536],[19.901125,49.996537],[19.901134,49.996458],[19.901114,49.996457],[19.901119,49.996406],[19.90114,49.996407],[19.901148,49.99633],[19.901128,49.996329],[19.901136,49.996264],[19.901197,49.996267],[19.901196,49.996279],[19.901231,49.996281],[19.901233,49.996268],[19.901348,49.996274],[19.901347,49.996286],[19.901391,49.996288],[19.901385,49.99639],[19.901301,49.996387],[19.901278,49.996592],[19.901359,49.996596],[19.90136,49.996583],[19.901439,49.996587],[19.901437,49.996599],[19.901524,49.996603],[19.901526,49.99659],[19.901638,49.996595],[19.901637,49.996609],[19.901757,49.996614],[19.901759,49.996601],[19.901839,49.996605],[19.901837,49.996618],[19.901882,49.99662],[19.901875,49.996689],[19.901881,49.99669],[19.901878,49.996722],[19.901108,49.99669],[19.90112,49.996587],[19.901099,49.996586]]]}},{"type":"Feature","id":"w759410523","properties":{"type":"apartments","address":"Anny Szwed-Śniadowskiej 40","residential":true,"residents_est":15,"h3_10":"8a1e2e692d57fff","h3_11":"8b1e2e692d54fff"},"geometry":{"type":"Polygon","coordinates":[[[19.901148,49.996095],[19.901152,49.996062],[19.901158,49.996062],[19.901166,49.995993],[19.90195,49.99603],[19.901906,49.996411],[19.901886,49.99641],[19.901883,49.99644],[19.901725,49.996437],[19.901731,49.996382],[19.901724,49.996382],[19.901728,49.996352],[19.901734,49.996352],[19.901745,49.996253],[19.901739,49.996252],[19.901743,49.996223],[19.901748,49.996223],[19.90176,49.996124],[19.901148,49.996095]]]}},{"type":"Feature","id":"w759411665","properties":{"type":"apartments","address":"Anny Szwed-Śniadowskiej 38","residential":true,"residents_est":14,"h3_10":"8a1e2e692d47fff","h3_11":"8b1e2e692d46fff"},"geometry":{"type":"Polygon","coordinates":[[[19.902262,49.996639],[19.90227,49.996567],[19.90229,49.996567],[19.902297,49.996511],[19.902277,49.99651],[19.902285,49.996438],[19.902306,49.996439],[19.902313,49.996381],[19.902292,49.99638],[19.9023,49.996309],[19.902321,49.99631],[19.902328,49.996249],[19.902307,49.996248],[19.902315,49.996177],[19.902329,49.996174],[19.902335,49.996122],[19.902316,49.996121],[19.902325,49.996044],[19.902583,49.996055],[19.902572,49.996154],[19.902496,49.996151],[19.902476,49.996338],[19.902482,49.996338],[19.902479,49.996368],[19.902472,49.996368],[19.902461,49.996467],[19.902467,49.996468],[19.902464,49.996497],[19.902457,49.996497],[19.902451,49.996545],[19.902573,49.996551],[19.902567,49.996603],[19.902546,49.996602],[19.902541,49.996652],[19.902411,49.996646],[19.90241,49.996659],[19.902281,49.996653],[19.902283,49.99664],[19.902262,49.996639]]]}},{"type":"Feature","id":"w769991350","properties":{"type":"apartments","address":"Anny Szwed-Śniadowskiej 37","residential":true,"residents_est":14,"h3_10":"8a1e2e692d47fff","h3_11":"8b1e2e692d42fff"},"geometry":{"type":"Polygon","coordinates":[[[19.902812,49.99617],[19.902824,49.996063],[19.903628,49.996101],[19.903624,49.996137],[19.903603,49.996136],[19.9036,49.996157],[19.903622,49.996158],[19.903613,49.996234],[19.903591,49.996233],[19.903585,49.996285],[19.903607,49.996286],[19.903599,49.996363],[19.903576,49.996362],[19.903571,49.996409],[19.903409,49.996401],[19.903433,49.9962],[19.903354,49.996196],[19.903353,49.996203],[19.903308,49.996201],[19.903308,49.996194],[19.90315,49.996186],[19.903149,49.996192],[19.903107,49.99619],[19.903108,49.996184],[19.902953,49.996177],[19.902952,49.996183],[19.902812,49.99617]]]}},{"type":"Feature","id":"w769991351","properties":{"type":"apartments","address":"Anny Szwed-Śniadowskiej 33","residential":true,"residents_est":18,"h3_10":"8a1e2e692d4ffff","h3_11":"8b1e2e692d4dfff"},"geometry":{"type":"Polygon","coordinates":[[[19.904968,49.996773],[19.905415,49.996191],[19.906052,49.99622],[19.906045,49.99629],[19.906054,49.99629],[19.90605,49.996326],[19.905912,49.996324],[19.905912,49.996319],[19.905761,49.996316],[19.905562,49.996302],[19.905562,49.996307],[19.905513,49.996304],[19.905463,49.996369],[19.90547,49.996372],[19.905446,49.996403],[19.90544,49.996401],[19.905372,49.996488],[19.905379,49.99649],[19.905356,49.99652],[19.90535,49.996518],[19.905284,49.996605],[19.90529,49.996607],[19.905268,49.996635],[19.905261,49.996633],[19.905147,49.996782],[19.904968,49.996773]]]}},{"type":"Feature","id":"w770015059","properties":{"type":"retail","residential":false,"residents_est":0,"h3_10":"8a1e2e692d2ffff","h3_11":"8b1e2e692d2afff"},"geometry":{"type":"Polygon","coordinates":[[[19.899387,49.997036],[19.899388,49.99698],[19.899501,49.99698],[19.8995,49.997037],[19.899387,49.997036]]]}},{"type":"Feature","id":"w770015060","properties":{"type":"apartments","levels":4.0,"residential":true,"residents_est":6,"h3_10":"8a1e2e692d2ffff","h3_11":"8b1e2e692d28fff"},"geometry":{"type":"Polygon","coordinates":[[[19.899571,49.997201],[19.899572,49.99715],[19.899589,49.99715],[19.899591,49.997079],[19.899591,49.997053],[19.899575,49.997053],[19.899576,49.996973],[19.899614,49.996973],[19.899614,49.996983],[19.899763,49.99698],[19.899762,49.996992],[19.899788,49.996992],[19.899777,49.997315],[19.89958,49.997314],[19.899582,49.997202],[19.899571,49.997201]]]}},{"type":"Feature","id":"w770015071","properties":{"type":"retail","residential":false,"residents_est":0,"h3_10":"8a1e2e692d27fff","h3_11":"8b1e2e692d23fff"},"geometry":{"type":"Polygon","coordinates":[[[19.898287,49.997026],[19.898289,49.996969],[19.89841,49.996971],[19.898408,49.997028],[19.898287,49.997026]]]}},{"type":"Feature","id":"w934632165","properties":{"type":"apartments","address":"Anny Szwed-Śniadowskiej 34","residential":true,"residents_est":12,"h3_10":"8a1e2e692d47fff","h3_11":"8b1e2e692d41fff"},"geometry":{"type":"Polygon","coordinates":[[[19.903889,49.996726],[19.9039,49.996617],[19.904339,49.996636],[19.904506,49.99642],[19.904691,49.996427],[19.904448,49.996751],[19.903889,49.996726]]]}},{"type":"Feature","id":"w965591140","properties":{"type":"apartments","address":"Anny Szwed-Śniadowskiej 31","residential":true,"residents_est":11,"h3_10":"8a1e2e692d6ffff","h3_11":"8b1e2e692d6bfff"},"geometry":{"type":"Polygon","coordinates":[[[19.904725,49.997048],[19.904817,49.996937],[19.905602,49.996972],[19.905593,49.997054],[19.9056,49.997054],[19.905596,49.997088],[19.904725,49.997048]]]}},{"type":"Feature","id":"w965591141","properties":{"type":"apartments","address":"Anny Szwed-Śniadowskiej 35","residential":true,"residents_est":16,"h3_10":"8a1e2e692d4ffff","h3_11":"8b1e2e692d4efff"},"geometry":{"type":"Polygon","coordinates":[[[19.903931,49.996424],[19.903964,49.996114],[19.904903,49.996156],[19.904816,49.996268],[19.904129,49.996237],[19.904108,49.996432],[19.903931,49.996424]]]}},{"type":"Feature","id":"w965591142","properties":{"type":"apartments","address":"Anny Szwed-Śniadowskiej 36","residential":true,"residents_est":15,"h3_10":"8a1e2e692d47fff","h3_11":"8b1e2e692d40fff"},"geometry":{"type":"Polygon","coordinates":[[[19.902779,49.996677],[19.902817,49.996339],[19.902994,49.996347],[19.902969,49.99657],[19.903579,49.996598],[19.903566,49.996713],[19.902779,49.996677]]]}},{"type":"Feature","id":"w1034475396","properties":{"type":"detached","levels":1.0,"residential":true,"residents_est":3,"h3_10":"8a1e2e692ceffff","h3_11":"8b1e2e692ce8fff"},"geometry":{"type":"Polygon","coordinates":[[[19.904399,49.992071],[19.904438,49.991976],[19.904565,49.991997],[19.904527,49.992093],[19.904399,49.992071]]]}},{"type":"Feature","id":"w1039516876","properties":{"type":"apartments","levels":4.0,"residential":true,"residents_est":2,"h3_10":"8a1e2e692d37fff","h3_11":"8b1e2e692d35fff"},"geometry":{"type":"Polygon","coordinates":[[[19.897011,49.997285],[19.897221,49.997287],[19.897219,49.997372],[19.897017,49.99737],[19.897011,49.997285]]]}},{"type":"Feature","id":"w1039517017","properties":{"type":"outbuilding","levels":1.0,"residential":false,"residents_est":0,"h3_10":"8a1e2e692d37fff","h3_11":"8b1e2e692d31fff"},"geometry":{"type":"Polygon","coordinates":[[[19.897311,49.99702],[19.897313,49.99696],[19.89738,49.996961],[19.897407,49.996991],[19.897405,49.997022],[19.897311,49.99702]]]}},{"type":"Feature","id":"w1416842622","properties":{"type":"detached","address":"Karola Knausa 18","residential":true,"residents_est":0,"h3_10":"8a1e2e692c6ffff","h3_11":"8b1e2e692c69fff"},"geometry":{"type":"Polygon","coordinates":[[[19.907544,49.994804],[19.907552,49.994737],[19.907718,49.994746],[19.907711,49.994812],[19.907544,49.994804]]]}},{"type":"Feature","id":"w1417920842","properties":{"type":"service","levels":1.0,"residential":false,"residents_est":0,"h3_10":"8a1e2e692d77fff","h3_11":"8b1e2e692d75fff"},"geometry":{"type":"Polygon","coordinates":[[[19.902149,49.997151],[19.902226,49.997147],[19.902233,49.9972],[19.902155,49.997204],[19.902149,49.997151]]]}},{"type":"Feature","id":"w1417920843","properties":{"type":"service","levels":1.0,"residential":false,"residents_est":0,"h3_10":"8a1e2e692d2ffff","h3_11":"8b1e2e692d29fff"},"geometry":{"type":"Polygon","coordinates":[[[19.900619,49.997242],[19.90062,49.997189],[19.900697,49.997189],[19.900696,49.997243],[19.900619,49.997242]]]}},{"type":"Feature","id":"w1418156592","properties":{"type":"office","name":"Biuro Sprzedaży Palladio","residential":false,"residents_est":0,"h3_10":"8a1e2e692d2ffff","h3_11":"8b1e2e692d29fff"},"geometry":{"type":"Polygon","coordinates":[[[19.900083,49.997118],[19.900083,49.997092],[19.900165,49.997093],[19.900166,49.997011],[19.900251,49.997011],[19.90025,49.997119],[19.900083,49.997118]]]}},{"type":"Feature","id":"w1427680790","properties":{"type":"construction","residential":false,"residents_est":0,"h3_10":"8a1e2e692c6ffff","h3_11":"8b1e2e692c6cfff"},"geometry":{"type":"Polygon","coordinates":[[[19.906721,49.995067],[19.906731,49.994955],[19.906832,49.99496],[19.906817,49.995071],[19.906721,49.995067]]]}},{"type":"Feature","id":"w1442103682","properties":{"type":"apartments","levels":5.0,"residential":true,"residents_est":95,"h3_10":"8a1e2e692d1ffff","h3_11":"8b1e2e692d19fff"},"geometry":{"type":"Polygon","coordinates":[[[19.898521,49.995643],[19.898598,49.995028],[19.899983,49.995085],[19.89996,49.995292],[19.898866,49.995249],[19.898848,49.995454],[19.899944,49.995495],[19.900001,49.995085],[19.900349,49.995093],[19.900277,49.99571],[19.898521,49.995643]]]}},{"type":"Feature","id":"w1459004695","properties":{"type":"yes","residential":false,"residents_est":0,"h3_10":"8a1e2e692d77fff","h3_11":"8b1e2e692d73fff"},"geometry":{"type":"Polygon","coordinates":[[[19.902032,49.996577],[19.902037,49.996531],[19.902099,49.996533],[19.902095,49.996579],[19.902032,49.996577]]]}},{"type":"Feature","id":"w1459004696","properties":{"type":"yes","residential":false,"residents_est":0,"h3_10":"8a1e2e692d77fff","h3_11":"8b1e2e692d73fff"},"geometry":{"type":"Polygon","coordinates":[[[19.902044,49.99647],[19.902049,49.996423],[19.902111,49.996426],[19.902105,49.996473],[19.902044,49.99647]]]}}]}