{"type":"FeatureCollection","features":[{"type":"Feature","id":"w133431348","properties":{"type":"yes","address":"Drożyska 3c","residential":true,"residents_est":87,"h3_10":"8a1e2e6f165ffff","h3_11":"8b1e2e6f165cfff"},"geometry":{"type":"Polygon","coordinates":[[[20.199779,50.055726],[20.199805,50.055614],[20.200145,50.055646],[20.200134,50.05569],[20.200344,50.05571],[20.200317,50.055825],[20.200192,50.055814],[20.200154,50.055978],[20.199861,50.055949],[20.19988,50.055867],[20.200004,50.055878],[20.200033,50.055751],[20.199779,50.055726]]]}},{"type":"Feature","id":"w133431408","properties":{"type":"yes","address":"Brzeska 12c","residential":true,"residents_est":8,"h3_10":"8a1e2e6f1767fff","h3_11":"8b1e2e6f1762fff"},"geometry":{"type":"Polygon","coordinates":[[[20.1967,50.059764],[20.196868,50.059691],[20.196947,50.059767],[20.19678,50.05984],[20.1967,50.059764]]]}},{"type":"Feature","id":"w133431419","properties":{"type":"yes","address":"Brzeska 13","residential":true,"residents_est":6,"h3_10":"8a1e2e6f176ffff","h3_11":"8b1e2e6f176bfff"},"geometry":{"type":"Polygon","coordinates":[[[20.19939,50.059512],[20.199413,50.05942],[20.199559,50.059436],[20.199535,50.059527],[20.199486,50.059522],[20.199479,50.059546],[20.199434,50.059541],[20.19944,50.059517],[20.19939,50.059512]]]}},{"type":"Feature","id":"w133524091","properties":{"type":"school","residential":false,"residents_est":0,"h3_10":"8a1e2e6f161ffff","h3_11":"8b1e2e6f161efff"},"geometry":{"type":"Polygon","coordinates":[[[20.194568,50.055511],[20.194912,50.055502],[20.194918,50.055613],[20.194574,50.055621],[20.194568,50.055511]]]}},{"type":"Feature","id":"w133524102","properties":{"type":"yes","address":"Biwakowa 1","residential":true,"residents_est":5,"h3_10":"8a1e2e6f16e7fff","h3_11":"8b1e2e6f16e3fff"},"geometry":{"type":"Polygon","coordinates":[[[20.197676,50.054568],[20.197725,50.054493],[20.197855,50.054527],[20.197807,50.054601],[20.19776,50.054589],[20.197745,50.054611],[20.197697,50.054598],[20.19771,50.054577],[20.197676,50.054568]]]}},{"type":"Feature","id":"w337889630","properties":{"type":"yes","residential":true,"residents_est":10,"h3_10":"8a1e2e6f16a7fff","h3_11":"8b1e2e6f16a6fff"},"geometry":{"type":"Polygon","coordinates":[[[20.191536,50.055012],[20.191616,50.054999],[20.19162,50.055009],[20.191804,50.054978],[20.191837,50.05506],[20.191804,50.055065],[20.191807,50.055072],[20.191707,50.055089],[20.191704,50.055082],[20.191573,50.055104],[20.191536,50.055012]]]}},{"type":"Feature","id":"w337889640","properties":{"type":"yes","residential":true,"residents_est":5,"h3_10":"8a1e2e6f1637fff","h3_11":"8b1e2e6f1633fff"},"geometry":{"type":"Polygon","coordinates":[[[20.193624,50.056537],[20.193681,50.056446],[20.193812,50.05648],[20.193754,50.056572],[20.193624,50.056537]]]}},{"type":"Feature","id":"w337889644","properties":{"type":"yes","residential":true,"residents_est":5,"h3_10":"8a1e2e6f1767fff","h3_11":"8b1e2e6f1760fff"},"geometry":{"type":"Polygon","coordinates":[[[20.197211,50.06043],[20.197242,50.06035],[20.197389,50.060373],[20.197358,50.060453],[20.1973,50.060443],[20.197293,50.060462],[20.19725,50.060455],[20.197257,50.060437],[20.197211,50.06043]]]}},{"type":"Feature","id":"w337889646","properties":{"type":"yes","residential":true,"residents_est":5,"h3_10":"8a1e2e6f16e7fff","h3_11":"8b1e2e6f16e4fff"},"geometry":{"type":"Polygon","coordinates":[[[20.196534,50.055616],[20.196565,50.055498],[20.196676,50.05551],[20.196672,50.055523],[20.196685,50.055525],[20.196671,50.055576],[20.196658,50.055575],[20.196648,50.055615],[20.19659,50.055608],[20.196586,50.055622],[20.196534,50.055616]]]}},{"type":"Feature","id":"w337889648","properties":{"type":"yes","residential":true,"residents_est":9,"h3_10":"8a1e2e6f16a7fff","h3_11":"8b1e2e6f16a0fff"},"geometry":{"type":"Polygon","coordinates":[[[20.192218,50.054922],[20.192368,50.054885],[20.192377,50.0549],[20.192483,50.054873],[20.192516,50.054928],[20.192433,50.054949],[20.192429,50.054942],[20.192404,50.054948],[20.192423,50.054979],[20.192274,50.055016],[20.192218,50.054922]]]}},{"type":"Feature","id":"w337889661","properties":{"type":"yes","residential":true,"residents_est":10,"h3_10":"8a1e2e6f16dffff","h3_11":"8b1e2e6f16defff"},"geometry":{"type":"Polygon","coordinates":[[[20.197286,50.052769],[20.197308,50.052709],[20.197394,50.052723],[20.197414,50.052666],[20.197563,50.052688],[20.197547,50.052733],[20.197565,50.052736],[20.197542,50.052799],[20.197372,50.052774],[20.197369,50.052781],[20.197286,50.052769]]]}},{"type":"Feature","id":"w337889664","properties":{"type":"yes","residential":true,"residents_est":11,"h3_10":"8a1e2e6f165ffff","h3_11":"8b1e2e6f165dfff"},"geometry":{"type":"Polygon","coordinates":[[[20.200635,50.055974],[20.200709,50.055957],[20.200679,50.055902],[20.200809,50.055872],[20.200886,50.05601],[20.200681,50.056057],[20.200635,50.055974]]]}},{"type":"Feature","id":"w337889669","properties":{"type":"yes","residential":true,"residents_est":7,"h3_10":"8a1e2e6f16effff","h3_11":"8b1e2e6f16e9fff"},"geometry":{"type":"Polygon","coordinates":[[[20.199417,50.054701],[20.199432,50.054665],[20.199447,50.054667],[20.199463,50.054629],[20.199587,50.05465],[20.199569,50.054693],[20.199579,50.054695],[20.199552,50.054761],[20.199423,50.054739],[20.199438,50.054704],[20.199417,50.054701]]]}},{"type":"Feature","id":"w337889679","properties":{"type":"detached","residential":true,"residents_est":12,"h3_10":"8a1e2e6f16e7fff","h3_11":"8b1e2e6f16e4fff"},"geometry":{"type":"Polygon","coordinates":[[[20.196829,50.05569],[20.196843,50.055584],[20.197017,50.055594],[20.197011,50.055635],[20.196978,50.055634],[20.196972,50.055679],[20.196888,50.055675],[20.196886,50.055693],[20.196829,50.05569]]]}},{"type":"Feature","id":"w337889706","properties":{"type":"yes","residential":true,"residents_est":37,"h3_10":"8a1e2e6f1777fff","h3_11":"8b1e2e6f1775fff"},"geometry":{"type":"Polygon","coordinates":[[[20.196371,50.059852],[20.196444,50.059806],[20.196506,50.059846],[20.196601,50.059792],[20.196646,50.059821],[20.196606,50.059847],[20.196794,50.059969],[20.196672,50.060047],[20.196371,50.059852]]]}},{"type":"Feature","id":"w337889715","properties":{"type":"yes","residential":true,"residents_est":7,"h3_10":"8a1e2e6f161ffff","h3_11":"8b1e2e6f161cfff"},"geometry":{"type":"Polygon","coordinates":[[[20.195068,50.056063],[20.195078,50.055979],[20.195172,50.055984],[20.195174,50.055968],[20.195217,50.055971],[20.195215,50.055985],[20.195287,50.055988],[20.195279,50.056072],[20.195199,50.056068],[20.1952,50.056058],[20.195123,50.056054],[20.195121,50.056064],[20.195068,50.056063]]]}},{"type":"Feature","id":"w337889734","properties":{"type":"yes","residential":true,"residents_est":5,"h3_10":"8a1e2e6f1697fff","h3_11":"8b1e2e6f1692fff"},"geometry":{"type":"Polygon","coordinates":[[[20.19079,50.052688],[20.190936,50.052674],[20.190954,50.05275],[20.190888,50.052759],[20.19089,50.052767],[20.19081,50.052775],[20.19079,50.052688]]]}},{"type":"Feature","id":"w337889776","properties":{"type":"yes","residential":true,"residents_est":6,"h3_10":"8a1e2e6f164ffff","h3_11":"8b1e2e6f164cfff"},"geometry":{"type":"Polygon","coordinates":[[[20.201617,50.05645],[20.201621,50.056409],[20.201638,50.056409],[20.201639,50.056397],[20.201791,50.056401],[20.201779,50.056486],[20.201743,50.056485],[20.201743,50.056507],[20.2017,50.056507],[20.201701,50.056484],[20.201632,50.056481],[20.201635,50.056451],[20.201617,50.05645]]]}},{"type":"Feature","id":"w337889786","properties":{"type":"yes","residential":true,"residents_est":7,"h3_10":"8a1e2e6f1637fff","h3_11":"8b1e2e6f1636fff"},"geometry":{"type":"Polygon","coordinates":[[[20.192533,50.057099],[20.192567,50.057028],[20.192716,50.057058],[20.192729,50.057032],[20.192785,50.057044],[20.192736,50.057139],[20.192533,50.057099]]]}},{"type":"Feature","id":"w337889791","properties":{"type":"yes","residential":true,"residents_est":10,"h3_10":"8a1e2e6f16effff","h3_11":"8b1e2e6f16eafff"},"geometry":{"type":"Polygon","coordinates":[[[20.198681,50.054277],[20.198738,50.054161],[20.198844,50.054183],[20.198829,50.054216],[20.198951,50.05424],[20.19891,50.054324],[20.198681,50.054277]]]}},{"type":"Feature","id":"w337889793","properties":{"type":"yes","residential":true,"residents_est":8,"h3_10":"8a1e2e6f16effff","h3_11":"8b1e2e6f16e9fff"},"geometry":{"type":"Polygon","coordinates":[[[20.199749,50.054565],[20.199776,50.054486],[20.199994,50.054517],[20.19996,50.054617],[20.199869,50.054604],[20.199876,50.054583],[20.199749,50.054565]]]}},{"type":"Feature","id":"w337889794","properties":{"type":"detached","residential":true,"residents_est":10,"h3_10":"8a1e2e6f164ffff","h3_11":"8b1e2e6f164efff"},"geometry":{"type":"Polygon","coordinates":[[[20.200966,50.056404],[20.200968,50.056331],[20.201031,50.056333],[20.201032,50.056319],[20.201071,50.05632],[20.20107,50.056333],[20.20113,50.056334],[20.201127,50.056407],[20.201057,50.056406],[20.201056,50.05642],[20.20103,50.056419],[20.201031,50.056406],[20.200966,50.056404]]]}},{"type":"Feature","id":"w337889797","properties":{"type":"yes","residential":true,"residents_est":6,"h3_10":"8a1e2e6f16d7fff","h3_11":"8b1e2e6f16d5fff"},"geometry":{"type":"Polygon","coordinates":[[[20.196194,50.053681],[20.19621,50.05368],[20.196209,50.053658],[20.196201,50.053658],[20.196199,50.053618],[20.196339,50.053615],[20.196341,50.053651],[20.196374,50.05365],[20.196375,50.053679],[20.196343,50.05368],[20.196345,50.053722],[20.196213,50.053725],[20.196211,50.053701],[20.196195,50.053701],[20.196194,50.053681]]]}},{"type":"Feature","id":"w337889800","properties":{"type":"yes","residential":true,"residents_est":7,"h3_10":"8a1e2e6f166ffff","h3_11":"8b1e2e6f166efff"},"geometry":{"type":"Polygon","coordinates":[[[20.200923,50.057269],[20.200986,50.057193],[20.201153,50.05725],[20.20109,50.057326],[20.200923,50.057269]]]}},{"type":"Feature","id":"w337889808","properties":{"type":"yes","residential":true,"residents_est":6,"h3_10":"8a1e2e6f178ffff","h3_11":"8b1e2e6f178cfff"},"geometry":{"type":"Polygon","coordinates":[[[20.191647,50.056569],[20.191705,50.056555],[20.191697,50.056541],[20.191741,50.056531],[20.191749,50.056546],[20.191802,50.056534],[20.191844,50.056608],[20.191688,50.056644],[20.191647,50.056569]]]}},{"type":"Feature","id":"w337889809","properties":{"type":"yes","residential":true,"residents_est":9,"h3_10":"8a1e2e6f1767fff","h3_11":"8b1e2e6f1763fff"},"geometry":{"type":"Polygon","coordinates":[[[20.1975,50.05988],[20.197522,50.05982],[20.197512,50.059819],[20.197526,50.059779],[20.197538,50.05978],[20.197553,50.05974],[20.197731,50.059768],[20.197702,50.059847],[20.197654,50.05984],[20.197651,50.059849],[20.197642,50.059847],[20.197635,50.059865],[20.197603,50.059859],[20.197589,50.059894],[20.1975,50.05988]]]}},{"type":"Feature","id":"w337889810","properties":{"type":"yes","residential":true,"residents_est":5,"h3_10":"8a1e2e6f1667fff","h3_11":"8b1e2e6f1663fff"},"geometry":{"type":"Polygon","coordinates":[[[20.200285,50.05733],[20.200288,50.057314],[20.200309,50.057301],[20.200312,50.057288],[20.200357,50.057292],[20.20036,50.057274],[20.200432,50.05728],[20.200418,50.057347],[20.200404,50.057345],[20.200399,50.057369],[20.200376,50.057367],[20.200372,50.057385],[20.200293,50.057378],[20.2003,50.057346],[20.200285,50.05733]]]}},{"type":"Feature","id":"w337889830","properties":{"type":"yes","residential":true,"residents_est":10,"h3_10":"8a1e2e6f1667fff","h3_11":"8b1e2e6f1665fff"},"geometry":{"type":"Polygon","coordinates":[[[20.200314,50.057996],[20.200387,50.057871],[20.20056,50.057913],[20.200486,50.058038],[20.200314,50.057996]]]}},{"type":"Feature","id":"w337889836","properties":{"type":"yes","levels":2.0,"address":"Brzeska 18f","residential":true,"residents_est":22,"h3_10":"8a1e2e6f1747fff","h3_11":"8b1e2e6f1741fff"},"geometry":{"type":"Polygon","coordinates":[[[20.198312,50.059311],[20.198345,50.059218],[20.198498,50.05924],[20.198505,50.05922],[20.19848,50.059205],[20.198494,50.059185],[20.198525,50.059162],[20.198534,50.059137],[20.198722,50.059164],[20.198699,50.05923],[20.198707,50.059232],[20.198694,50.059268],[20.198686,50.059267],[20.198674,50.0593],[20.198656,50.059297],[20.198633,50.059358],[20.198312,50.059311]]]}},{"type":"Feature","id":"w337889841","properties":{"type":"yes","residential":true,"residents_est":28,"h3_10":"8a1e2e6f1607fff","h3_11":"8b1e2e6f1602fff"},"geometry":{"type":"Polygon","coordinates":[[[20.194446,50.056222],[20.194465,50.056032],[20.19475,50.056041],[20.194742,50.056148],[20.194492,50.05614],[20.194484,50.05623],[20.194466,50.056231],[20.194467,50.056223],[20.194446,50.056222]]]}},{"type":"Feature","id":"w337889845","properties":{"type":"yes","residential":true,"residents_est":27,"h3_10":"8a1e2e6f174ffff","h3_11":"8b1e2e6f174bfff"},"geometry":{"type":"Polygon","coordinates":[[[20.199499,50.058432],[20.199634,50.058374],[20.199708,50.058447],[20.199752,50.058429],[20.199777,50.058453],[20.199785,50.058454],[20.199822,50.058496],[20.19974,50.058535],[20.199642,50.058572],[20.199597,50.058528],[20.199579,50.058534],[20.199528,50.058484],[20.199545,50.058477],[20.199499,50.058432]]]}},{"type":"Feature","id":"w337889855","properties":{"type":"yes","residential":true,"residents_est":8,"h3_10":"8a1e2e6f179ffff","h3_11":"8b1e2e6f1798fff"},"geometry":{"type":"Polygon","coordinates":[[[20.190388,50.055552],[20.190603,50.055529],[20.190626,50.055619],[20.19041,50.055641],[20.190388,50.055552]]]}},{"type":"Feature","id":"w337889867","properties":{"type":"yes","residential":true,"residents_est":7,"h3_10":"8a1e2e6f176ffff","h3_11":"8b1e2e6f176bfff"},"geometry":{"type":"Polygon","coordinates":[[[20.199717,50.059673],[20.199767,50.059542],[20.199888,50.059562],[20.199838,50.059692],[20.199717,50.059673]]]}},{"type":"Feature","id":"w337889940","properties":{"type":"yes","residential":true,"residents_est":5,"h3_10":"8a1e2e6f17affff","h3_11":"8b1e2e6f17abfff"},"geometry":{"type":"Polygon","coordinates":[[[20.191612,50.056939],[20.191727,50.056919],[20.191767,50.057014],[20.191651,50.057034],[20.191612,50.056939]]]}},{"type":"Feature","id":"w337889953","properties":{"type":"yes","residential":true,"residents_est":5,"h3_10":"8a1e2e6f1647fff","h3_11":"8b1e2e6f1640fff"},"geometry":{"type":"Polygon","coordinates":[[[20.199897,50.056408],[20.200062,50.056405],[20.200065,50.056475],[20.1999,50.056478],[20.199897,50.056408]]]}},{"type":"Feature","id":"w337889971","properties":{"type":"yes","residential":true,"residents_est":4,"h3_10":"8a1e2e6f174ffff","h3_11":"8b1e2e6f1749fff"},"geometry":{"type":"Polygon","coordinates":[[[20.200187,50.058723],[20.200348,50.058707],[20.200363,50.058769],[20.200202,50.058785],[20.200187,50.058723]]]}},{"type":"Feature","id":"w337889976","properties":{"type":"yes","residential":true,"residents_est":5,"h3_10":"8a1e2e6f16d7fff","h3_11":"8b1e2e6f16d1fff"},"geometry":{"type":"Polygon","coordinates":[[[20.196842,50.053168],[20.196907,50.053077],[20.197025,50.053118],[20.196963,50.053203],[20.196842,50.053168]]]}},{"type":"Feature","id":"w337889977","properties":{"type":"yes","residential":true,"residents_est":6,"h3_10":"8a1e2e6f1787fff","h3_11":"8b1e2e6f1781fff"},"geometry":{"type":"Polygon","coordinates":[[[20.190687,50.056455],[20.190858,50.056449],[20.190866,50.05654],[20.190694,50.056546],[20.190687,50.056455]]]}},{"type":"Feature","id":"w337889979","properties":{"type":"yes","residential":true,"residents_est":3,"h3_10":"8a1e2e6f160ffff","h3_11":"8b1e2e6f1608fff"},"geometry":{"type":"Polygon","coordinates":[[[20.19683,50.056361],[20.19685,50.05625],[20.196922,50.056256],[20.196902,50.056366],[20.19683,50.056361]]]}},{"type":"Feature","id":"w337889991","properties":{"type":"yes","residential":true,"residents_est":5,"h3_10":"8a1e2e6f164ffff","h3_11":"8b1e2e6f164bfff"},"geometry":{"type":"Polygon","coordinates":[[[20.202301,50.055608],[20.202396,50.055589],[20.202455,50.055715],[20.20236,50.055733],[20.202301,50.055608]]]}},{"type":"Feature","id":"w337890029","properties":{"type":"yes","residential":true,"residents_est":2,"h3_10":"8a1e2e6f169ffff","h3_11":"8b1e2e6f169cfff"},"geometry":{"type":"Polygon","coordinates":[[[20.192528,50.053241],[20.19258,50.053198],[20.192656,50.053236],[20.192605,50.053279],[20.192528,50.053241]]]}},{"type":"Feature","id":"w337890032","properties":{"type":"yes","residential":true,"residents_est":5,"h3_10":"8a1e2e6f1667fff","h3_11":"8b1e2e6f1661fff"},"geometry":{"type":"Polygon","coordinates":[[[20.200417,50.057686],[20.200432,50.057593],[20.200571,50.057602],[20.200556,50.057695],[20.200417,50.057686]]]}},{"type":"Feature","id":"w337890040","properties":{"type":"yes","residential":true,"residents_est":6,"h3_10":"8a1e2e6f16d7fff","h3_11":"8b1e2e6f16d0fff"},"geometry":{"type":"Polygon","coordinates":[[[20.196132,50.052993],[20.196273,50.052983],[20.196292,50.053083],[20.196151,50.053093],[20.196132,50.052993]]]}},{"type":"Feature","id":"w337890042","properties":{"type":"yes","residential":true,"residents_est":4,"h3_10":"8a1e2e6f1777fff","h3_11":"8b1e2e6f1775fff"},"geometry":{"type":"Polygon","coordinates":[[[20.196141,50.059946],[20.196298,50.059878],[20.196347,50.059924],[20.196189,50.059992],[20.196141,50.059946]]]}},{"type":"Feature","id":"w337890057","properties":{"type":"yes","residential":true,"residents_est":3,"h3_10":"8a1e2e6f16d7fff","h3_11":"8b1e2e6f16d1fff"},"geometry":{"type":"Polygon","coordinates":[[[20.196552,50.053321],[20.196642,50.053288],[20.196699,50.05335],[20.196609,50.053384],[20.196552,50.053321]]]}},{"type":"Feature","id":"w337890065","properties":{"type":"yes","residential":true,"residents_est":4,"h3_10":"8a1e2e6f161ffff","h3_11":"8b1e2e6f1619fff"},"geometry":{"type":"Polygon","coordinates":[[[20.196055,50.055463],[20.196153,50.055462],[20.196154,50.055558],[20.196056,50.055558],[20.196055,50.055463]]]}},{"type":"Feature","id":"w337890066","properties":{"type":"yes","residential":true,"residents_est":7,"h3_10":"8a1e2e6f1647fff","h3_11":"8b1e2e6f1640fff"},"geometry":{"type":"Polygon","coordinates":[[[20.200099,50.056593],[20.200101,50.056513],[20.200309,50.056517],[20.200304,50.056598],[20.200099,50.056593]]]}},{"type":"Feature","id":"w337890070","properties":{"type":"yes","residential":true,"residents_est":3,"h3_10":"8a1e2e6f16effff","h3_11":"8b1e2e6f16eafff"},"geometry":{"type":"Polygon","coordinates":[[[20.198807,50.05448],[20.198848,50.054407],[20.198929,50.054426],[20.198887,50.054499],[20.198807,50.05448]]]}},{"type":"Feature","id":"w337890077","properties":{"type":"yes","residential":true,"residents_est":3,"h3_10":"8a1e2e6f16f7fff","h3_11":"8b1e2e6f16f1fff"},"geometry":{"type":"Polygon","coordinates":[[[20.196443,50.054306],[20.196594,50.054282],[20.19661,50.054324],[20.196459,50.054348],[20.196443,50.054306]]]}},{"type":"Feature","id":"w337890083","properties":{"type":"yes","residential":false,"residents_est":0,"h3_10":"8a1e2e6f16f7fff","h3_11":"8b1e2e6f16f5fff"},"geometry":{"type":"Polygon","coordinates":[[[20.19635,50.054686],[20.196433,50.054675],[20.19645,50.054728],[20.196367,50.054739],[20.19635,50.054686]]]}},{"type":"Feature","id":"w337890089","properties":{"type":"yes","residential":true,"residents_est":6,"h3_10":"8a1e2e6f179ffff","h3_11":"8b1e2e6f1799fff"},"geometry":{"type":"Polygon","coordinates":[[[20.191082,50.055216],[20.191232,50.055188],[20.19127,50.055273],[20.19112,50.055301],[20.191082,50.055216]]]}},{"type":"Feature","id":"w337890110","properties":{"type":"yes","residential":false,"residents_est":0,"h3_10":"8a1e2e6f16e7fff","h3_11":"8b1e2e6f16e6fff"},"geometry":{"type":"Polygon","coordinates":[[[20.196603,50.054999],[20.196672,50.054999],[20.196673,50.055065],[20.196604,50.055065],[20.196603,50.054999]]]}},{"type":"Feature","id":"w337890115","properties":{"type":"yes","residential":true,"residents_est":5,"h3_10":"8a1e2e6f174ffff","h3_11":"8b1e2e6f1749fff"},"geometry":{"type":"Polygon","coordinates":[[[20.200226,50.058896],[20.200414,50.058861],[20.200441,50.05892],[20.200253,50.058956],[20.200226,50.058896]]]}},{"type":"Feature","id":"w337890118","properties":{"type":"yes","residential":true,"residents_est":4,"h3_10":"8a1e2e6f16dffff","h3_11":"8b1e2e6f16dcfff"},"geometry":{"type":"Polygon","coordinates":[[[20.197174,50.053367],[20.197223,50.053291],[20.197346,50.053324],[20.197297,50.053399],[20.197174,50.053367]]]}},{"type":"Feature","id":"w337890119","properties":{"type":"house","residential":true,"residents_est":14,"h3_10":"8a1e2e6f1787fff","h3_11":"8b1e2e6f1783fff"},"geometry":{"type":"Polygon","coordinates":[[[20.190751,50.056181],[20.190925,50.056156],[20.19096,50.056252],[20.190783,50.056277],[20.190751,50.056181]]]}},{"type":"Feature","id":"w337890129","properties":{"type":"yes","residential":true,"residents_est":4,"h3_10":"8a1e2e6f179ffff","h3_11":"8b1e2e6f1799fff"},"geometry":{"type":"Polygon","coordinates":[[[20.191246,50.055291],[20.191414,50.055261],[20.191439,50.055321],[20.191271,50.055351],[20.191246,50.055291]]]}},{"type":"Feature","id":"w337890153","properties":{"type":"yes","residential":true,"residents_est":3,"h3_10":"8a1e2e6f16d7fff","h3_11":"8b1e2e6f16d4fff"},"geometry":{"type":"Polygon","coordinates":[[[20.195943,50.053676],[20.195943,50.053623],[20.196094,50.053623],[20.196094,50.053677],[20.195943,50.053676]]]}},{"type":"Feature","id":"w337890156","properties":{"type":"yes","residential":true,"residents_est":7,"h3_10":"8a1e2e6f179ffff","h3_11":"8b1e2e6f1798fff"},"geometry":{"type":"Polygon","coordinates":[[[20.190251,50.055546],[20.190256,50.055391],[20.190361,50.055391],[20.190356,50.055546],[20.190251,50.055546]]]}},{"type":"Feature","id":"w337890189","properties":{"type":"yes","residential":false,"residents_est":0,"h3_10":"8a1e2e6f161ffff","h3_11":"8b1e2e6f1619fff"},"geometry":{"type":"Polygon","coordinates":[[[20.196374,50.055632],[20.196389,50.055557],[20.196451,50.055563],[20.196435,50.055637],[20.196374,50.055632]]]}},{"type":"Feature","id":"w337890191","properties":{"type":"detached","residential":true,"residents_est":11,"h3_10":"8a1e2e6f17b7fff","h3_11":"8b1e2e6f17b0fff"},"geometry":{"type":"Polygon","coordinates":[[[20.188503,50.056772],[20.18856,50.056768],[20.188554,50.056742],[20.188604,50.056738],[20.188609,50.056765],[20.188657,50.056762],[20.188669,50.056836],[20.188515,50.056846],[20.188503,50.056772]]]}},{"type":"Feature","id":"w337890199","properties":{"type":"yes","residential":true,"residents_est":5,"h3_10":"8a1e2e6f16d7fff","h3_11":"8b1e2e6f16d1fff"},"geometry":{"type":"Polygon","coordinates":[[[20.196822,50.053367],[20.196919,50.053279],[20.197007,50.053319],[20.196911,50.053407],[20.196822,50.053367]]]}},{"type":"Feature","id":"w337890200","properties":{"type":"yes","residential":true,"residents_est":4,"h3_10":"8a1e2e6f164ffff","h3_11":"8b1e2e6f164efff"},"geometry":{"type":"Polygon","coordinates":[[[20.201384,50.056316],[20.201529,50.056298],[20.201547,50.056359],[20.201402,50.056377],[20.201384,50.056316]]]}},{"type":"Feature","id":"w337890204","properties":{"type":"yes","residential":true,"residents_est":4,"h3_10":"8a1e2e6f160ffff","h3_11":"8b1e2e6f1608fff"},"geometry":{"type":"Polygon","coordinates":[[[20.196708,50.056146],[20.19673,50.056075],[20.196846,50.05609],[20.196825,50.056161],[20.196708,50.056146]]]}},{"type":"Feature","id":"w337890222","properties":{"type":"yes","residential":true,"residents_est":2,"h3_10":"8a1e2e6f1607fff","h3_11":"8b1e2e6f1603fff"},"geometry":{"type":"Polygon","coordinates":[[[20.195763,50.056221],[20.195771,50.056137],[20.195837,50.05614],[20.195828,50.056223],[20.195763,50.056221]]]}},{"type":"Feature","id":"w337890239","properties":{"type":"yes","residential":true,"residents_est":12,"h3_10":"8a1e2e6f174ffff","h3_11":"8b1e2e6f174afff"},"geometry":{"type":"Polygon","coordinates":[[[20.198904,50.058318],[20.198948,50.058311],[20.198942,50.058295],[20.198993,50.058287],[20.198996,50.058295],[20.199192,50.058262],[20.199188,50.058254],[20.199214,50.058249],[20.199217,50.058257],[20.199272,50.058248],[20.199345,50.05827],[20.199302,50.05833],[20.19926,50.058317],[20.199242,50.05832],[20.199245,50.058328],[20.199023,50.058361],[20.199025,50.058366],[20.198974,50.058374],[20.198968,50.05836],[20.198924,50.058367],[20.198904,50.058318]]]}},{"type":"Feature","id":"w337890246","properties":{"type":"yes","residential":false,"residents_est":0,"h3_10":"8a1e2e6f164ffff","h3_11":"8b1e2e6f164cfff"},"geometry":{"type":"Polygon","coordinates":[[[20.201856,50.056546],[20.201887,50.056483],[20.201943,50.056494],[20.201917,50.056547],[20.20189,50.056542],[20.201884,50.056552],[20.201856,50.056546]]]}},{"type":"Feature","id":"w337890249","properties":{"type":"yes","residential":true,"residents_est":5,"h3_10":"8a1e2e6f1747fff","h3_11":"8b1e2e6f1740fff"},"geometry":{"type":"Polygon","coordinates":[[[20.197493,50.058976],[20.197617,50.05894],[20.197671,50.059018],[20.197547,50.059054],[20.197493,50.058976]]]}},{"type":"Feature","id":"w337890255","properties":{"type":"yes","residential":true,"residents_est":5,"h3_10":"8a1e2e6f16d7fff","h3_11":"8b1e2e6f16d6fff"},"geometry":{"type":"Polygon","coordinates":[[[20.195711,50.0534],[20.195713,50.053279],[20.195823,50.05328],[20.195821,50.053401],[20.195711,50.0534]]]}},{"type":"Feature","id":"w337890259","properties":{"type":"yes","residential":true,"residents_est":6,"h3_10":"8a1e2e6f16e7fff","h3_11":"8b1e2e6f16e4fff"},"geometry":{"type":"Polygon","coordinates":[[[20.196821,50.055312],[20.196856,50.055191],[20.196977,50.055206],[20.196941,50.055327],[20.196821,50.055312]]]}},{"type":"Feature","id":"w337890271","properties":{"type":"yes","residential":true,"residents_est":6,"h3_10":"8a1e2e6f1637fff","h3_11":"8b1e2e6f1630fff"},"geometry":{"type":"Polygon","coordinates":[[[20.193423,50.056871],[20.193474,50.056783],[20.193615,50.056816],[20.193563,50.056903],[20.193423,50.056871]]]}},{"type":"Feature","id":"w337890280","properties":{"type":"yes","residential":true,"residents_est":5,"h3_10":"8a1e2e6f16a7fff","h3_11":"8b1e2e6f16a6fff"},"geometry":{"type":"Polygon","coordinates":[[[20.191513,50.055172],[20.191597,50.055156],[20.191658,50.055294],[20.191573,50.055309],[20.191513,50.055172]]]}},{"type":"Feature","id":"w337890282","properties":{"type":"yes","residential":true,"residents_est":3,"h3_10":"8a1e2e6f160ffff","h3_11":"8b1e2e6f160dfff"},"geometry":{"type":"Polygon","coordinates":[[[20.197317,50.056553],[20.197324,50.056485],[20.197399,50.056488],[20.197392,50.056556],[20.197317,50.056553]]]}},{"type":"Feature","id":"w337890289","properties":{"type":"yes","residential":true,"residents_est":3,"h3_10":"8a1e2e6f16d7fff","h3_11":"8b1e2e6f16d4fff"},"geometry":{"type":"Polygon","coordinates":[[[20.195805,50.05347],[20.195811,50.053407],[20.19593,50.053414],[20.195923,50.053477],[20.195805,50.05347]]]}},{"type":"Feature","id":"w337890309","properties":{"type":"yes","residential":true,"residents_est":5,"h3_10":"8a1e2e6f16e7fff","h3_11":"8b1e2e6f16e0fff"},"geometry":{"type":"Polygon","coordinates":[[[20.196912,50.054921],[20.197046,50.054908],[20.197068,50.055003],[20.196934,50.055016],[20.196912,50.054921]]]}},{"type":"Feature","id":"w337890317","properties":{"type":"yes","residential":true,"residents_est":4,"h3_10":"8a1e2e6f16d7fff","h3_11":"8b1e2e6f16d3fff"},"geometry":{"type":"Polygon","coordinates":[[[20.19642,50.052891],[20.19654,50.052885],[20.196551,50.052973],[20.196432,50.052979],[20.19642,50.052891]]]}},{"type":"Feature","id":"w337890332","properties":{"type":"yes","residential":true,"residents_est":4,"h3_10":"8a1e2e6f160ffff","h3_11":"8b1e2e6f160bfff"},"geometry":{"type":"Polygon","coordinates":[[[20.197405,50.055812],[20.197413,50.055752],[20.197586,50.055762],[20.197578,50.055821],[20.197405,50.055812]]]}},{"type":"Feature","id":"w337890345","properties":{"type":"yes","residential":true,"residents_est":5,"h3_10":"8a1e2e6f1797fff","h3_11":"8b1e2e6f1794fff"},"geometry":{"type":"Polygon","coordinates":[[[20.188164,50.05624],[20.188318,50.056233],[20.188327,50.056312],[20.188173,50.05632],[20.188164,50.05624]]]}},{"type":"Feature","id":"w337890350","properties":{"type":"yes","residential":true,"residents_est":4,"h3_10":"8a1e2e6f166ffff","h3_11":"8b1e2e6f1669fff"},"geometry":{"type":"Polygon","coordinates":[[[20.202397,50.057271],[20.202501,50.057264],[20.202518,50.057364],[20.202414,50.057372],[20.202397,50.057271]]]}},{"type":"Feature","id":"w337890387","properties":{"type":"yes","residential":true,"residents_est":6,"h3_10":"8a1e2e6f1617fff","h3_11":"8b1e2e6f1615fff"},"geometry":{"type":"Polygon","coordinates":[[[20.194194,50.056049],[20.194201,50.055956],[20.194349,50.055961],[20.194342,50.056053],[20.194194,50.056049]]]}},{"type":"Feature","id":"w337890399","properties":{"type":"yes","residential":true,"residents_est":2,"h3_10":"8a1e2e6f178ffff","h3_11":"8b1e2e6f178cfff"},"geometry":{"type":"Polygon","coordinates":[[[20.191837,50.056662],[20.191968,50.056644],[20.191983,50.056688],[20.191852,50.056706],[20.191837,50.056662]]]}},{"type":"Feature","id":"w337890402","properties":{"type":"yes","residential":true,"residents_est":5,"h3_10":"8a1e2e6f166ffff","h3_11":"8b1e2e6f166bfff"},"geometry":{"type":"Polygon","coordinates":[[[20.202177,50.056951],[20.202185,50.056885],[20.202363,50.056894],[20.202355,50.05696],[20.202177,50.056951]]]}},{"type":"Feature","id":"w337890411","properties":{"type":"yes","residential":true,"residents_est":4,"h3_10":"8a1e2e6f16effff","h3_11":"8b1e2e6f16ebfff"},"geometry":{"type":"Polygon","coordinates":[[[20.199368,50.054411],[20.199401,50.054357],[20.199548,50.054394],[20.199516,50.054448],[20.199368,50.054411]]]}},{"type":"Feature","id":"w337890415","properties":{"type":"yes","residential":true,"residents_est":5,"h3_10":"8a1e2e6f1637fff","h3_11":"8b1e2e6f1631fff"},"geometry":{"type":"Polygon","coordinates":[[[20.193743,50.056924],[20.19381,50.056844],[20.193937,50.056888],[20.193871,50.056968],[20.193743,50.056924]]]}},{"type":"Feature","id":"w337890420","properties":{"type":"yes","residential":true,"residents_est":5,"h3_10":"8a1e2e6f16f7fff","h3_11":"8b1e2e6f16f1fff"},"geometry":{"type":"Polygon","coordinates":[[[20.196298,50.054201],[20.196406,50.054188],[20.196441,50.054302],[20.196333,50.054316],[20.196298,50.054201]]]}},{"type":"Feature","id":"w337890428","properties":{"type":"yes","residential":true,"residents_est":7,"h3_10":"8a1e2e6f16d7fff","h3_11":"8b1e2e6f16d0fff"},"geometry":{"type":"Polygon","coordinates":[[[20.196035,50.053429],[20.196042,50.053373],[20.196239,50.053384],[20.196234,50.053429],[20.196269,50.053431],[20.196266,50.053449],[20.196231,50.053448],[20.196227,50.053479],[20.196085,50.053471],[20.19609,50.053432],[20.196035,50.053429]]]}},{"type":"Feature","id":"w337890446","properties":{"type":"yes","residential":true,"residents_est":3,"h3_10":"8a1e2e6f16a7fff","h3_11":"8b1e2e6f16a0fff"},"geometry":{"type":"Polygon","coordinates":[[[20.191909,50.055066],[20.191981,50.055053],[20.192032,50.055165],[20.191978,50.055175],[20.191948,50.055108],[20.191927,50.055112],[20.191909,50.055066]]]}},{"type":"Feature","id":"w337890450","properties":{"type":"yes","residential":false,"residents_est":0,"h3_10":"8a1e2e6f166ffff","h3_11":"8b1e2e6f166efff"},"geometry":{"type":"Polygon","coordinates":[[[20.200736,50.057467],[20.200751,50.057399],[20.20082,50.057406],[20.200805,50.057474],[20.200736,50.057467]]]}},{"type":"Feature","id":"w337890456","properties":{"type":"yes","residential":true,"residents_est":3,"h3_10":"8a1e2e6f16c7fff","h3_11":"8b1e2e6f16c0fff"},"geometry":{"type":"Polygon","coordinates":[[[20.197463,50.053835],[20.197523,50.053796],[20.197606,50.053848],[20.197547,50.053888],[20.197463,50.053835]]]}},{"type":"Feature","id":"w337890462","properties":{"type":"yes","residential":true,"residents_est":4,"h3_10":"8a1e2e6f160ffff","h3_11":"8b1e2e6f160bfff"},"geometry":{"type":"Polygon","coordinates":[[[20.197146,50.055698],[20.197159,50.055634],[20.197312,50.055647],[20.197299,50.055711],[20.197146,50.055698]]]}},{"type":"Feature","id":"w337890484","properties":{"type":"yes","residential":true,"residents_est":7,"h3_10":"8a1e2e6f16affff","h3_11":"8b1e2e6f16a8fff"},"geometry":{"type":"Polygon","coordinates":[[[20.193884,50.054611],[20.194115,50.054547],[20.194156,50.054608],[20.193925,50.054672],[20.193884,50.054611]]]}},{"type":"Feature","id":"w337890518","properties":{"type":"yes","residential":true,"residents_est":2,"h3_10":"8a1e2e6f16affff","h3_11":"8b1e2e6f16a8fff"},"geometry":{"type":"Polygon","coordinates":[[[20.194128,50.054675],[20.194198,50.054647],[20.194255,50.054705],[20.194185,50.054734],[20.194128,50.054675]]]}},{"type":"Feature","id":"w337890563","properties":{"type":"yes","residential":true,"residents_est":4,"h3_10":"8a1e2e6f169ffff","h3_11":"8b1e2e6f1698fff"},"geometry":{"type":"Polygon","coordinates":[[[20.192556,50.05291],[20.192652,50.052824],[20.192728,50.05286],[20.192633,50.052945],[20.192556,50.05291]]]}},{"type":"Feature","id":"w337890566","properties":{"type":"yes","residential":true,"residents_est":5,"h3_10":"8a1e2e6f17affff","h3_11":"8b1e2e6f17abfff"},"geometry":{"type":"Polygon","coordinates":[[[20.192133,50.056869],[20.192136,50.056796],[20.192301,50.0568],[20.192297,50.056872],[20.192133,50.056869]]]}},{"type":"Feature","id":"w337890603","properties":{"type":"yes","residential":true,"residents_est":7,"h3_10":"8a1e2e6f17b7fff","h3_11":"8b1e2e6f17b0fff"},"geometry":{"type":"Polygon","coordinates":[[[20.188351,50.057088],[20.188417,50.056955],[20.188528,50.056978],[20.188463,50.057111],[20.188351,50.057088]]]}},{"type":"Feature","id":"w337890613","properties":{"type":"yes","residential":true,"residents_est":3,"h3_10":"8a1e2e6f164ffff","h3_11":"8b1e2e6f1648fff"},"geometry":{"type":"Polygon","coordinates":[[[20.201923,50.056045],[20.201947,50.056044],[20.201946,50.056004],[20.202017,50.056002],[20.202023,50.056091],[20.201925,50.056092],[20.201923,50.056045]]]}},{"type":"Feature","id":"w337890623","properties":{"type":"yes","residential":true,"residents_est":5,"h3_10":"8a1e2e6f17b7fff","h3_11":"8b1e2e6f17b3fff"},"geometry":{"type":"Polygon","coordinates":[[[20.188602,50.056419],[20.188607,50.056303],[20.188718,50.056304],[20.188713,50.056422],[20.188602,50.056419]]]}},{"type":"Feature","id":"w337890625","properties":{"type":"yes","residential":true,"residents_est":6,"h3_10":"8a1e2e6f16c7fff","h3_11":"8b1e2e6f16c2fff"},"geometry":{"type":"Polygon","coordinates":[[[20.197353,50.053553],[20.197426,50.053458],[20.197556,50.053499],[20.197498,50.053575],[20.197458,50.053562],[20.197443,50.053582],[20.197353,50.053553]]]}},{"type":"Feature","id":"w337890637","properties":{"type":"detached","residential":true,"residents_est":14,"h3_10":"8a1e2e6f1647fff","h3_11":"8b1e2e6f1641fff"},"geometry":{"type":"Polygon","coordinates":[[[20.200486,50.056455],[20.200515,50.056453],[20.200507,50.056373],[20.20065,50.056365],[20.200665,50.056479],[20.200489,50.056487],[20.200486,50.056455]]]}},{"type":"Feature","id":"w337890643","properties":{"type":"yes","residential":true,"residents_est":5,"h3_10":"8a1e2e6f164ffff","h3_11":"8b1e2e6f164cfff"},"geometry":{"type":"Polygon","coordinates":[[[20.201573,50.05672],[20.201586,50.056604],[20.201698,50.05661],[20.201685,50.056727],[20.201573,50.05672]]]}},{"type":"Feature","id":"w337890646","properties":{"type":"yes","residential":true,"residents_est":8,"h3_10":"8a1e2e6f16a7fff","h3_11":"8b1e2e6f16a3fff"},"geometry":{"type":"Polygon","coordinates":[[[20.192681,50.0549],[20.192787,50.054862],[20.192782,50.054856],[20.192847,50.054833],[20.192914,50.054923],[20.192747,50.054981],[20.192681,50.0549]]]}},{"type":"Feature","id":"w337890650","properties":{"type":"yes","residential":true,"residents_est":5,"h3_10":"8a1e2e6f1677fff","h3_11":"8b1e2e6f1676fff"},"geometry":{"type":"Polygon","coordinates":[[[20.197897,50.056821],[20.197901,50.056749],[20.198031,50.056752],[20.198025,50.056857],[20.197917,50.056855],[20.197918,50.056822],[20.197897,50.056821]]]}},{"type":"Feature","id":"w337890655","properties":{"type":"yes","residential":true,"residents_est":5,"h3_10":"8a1e2e6f1617fff","h3_11":"8b1e2e6f1610fff"},"geometry":{"type":"Polygon","coordinates":[[[20.193321,50.055673],[20.193386,50.055672],[20.193385,50.055656],[20.193467,50.055655],[20.193471,50.055748],[20.193323,50.05575],[20.193321,50.055673]]]}},{"type":"Feature","id":"w337890666","properties":{"type":"yes","residential":true,"residents_est":6,"h3_10":"8a1e2e6f1747fff","h3_11":"8b1e2e6f1740fff"},"geometry":{"type":"Polygon","coordinates":[[[20.197723,50.058915],[20.197895,50.058869],[20.19794,50.058944],[20.197772,50.058987],[20.197723,50.058915]]]}},{"type":"Feature","id":"w337890675","properties":{"type":"yes","residential":true,"residents_est":5,"h3_10":"8a1e2e6f1637fff","h3_11":"8b1e2e6f1633fff"},"geometry":{"type":"Polygon","coordinates":[[[20.193517,50.056677],[20.193537,50.056632],[20.19357,50.056638],[20.193594,50.056582],[20.193684,50.056597],[20.193642,50.056699],[20.193517,50.056677]]]}},{"type":"Feature","id":"w337890678","properties":{"type":"yes","residential":true,"residents_est":4,"h3_10":"8a1e2e6f1607fff","h3_11":"8b1e2e6f1603fff"},"geometry":{"type":"Polygon","coordinates":[[[20.195289,50.056111],[20.195297,50.056063],[20.195342,50.056065],[20.195347,50.056053],[20.195453,50.056063],[20.19544,50.056124],[20.195289,50.056111]]]}},{"type":"Feature","id":"w337890679","properties":{"type":"yes","residential":true,"residents_est":6,"h3_10":"8a1e2e6f164ffff","h3_11":"8b1e2e6f1648fff"},"geometry":{"type":"Polygon","coordinates":[[[20.201786,50.056248],[20.201799,50.05618],[20.202022,50.056199],[20.202008,50.056267],[20.201786,50.056248]]]}},{"type":"Feature","id":"w337890680","properties":{"type":"yes","residential":true,"residents_est":8,"h3_10":"8a1e2e6f174ffff","h3_11":"8b1e2e6f174efff"},"geometry":{"type":"Polygon","coordinates":[[[20.198859,50.058621],[20.199025,50.058551],[20.199104,50.058629],[20.198961,50.058689],[20.19894,50.058669],[20.198914,50.05868],[20.198859,50.058621]]]}},{"type":"Feature","id":"w337890684","properties":{"type":"yes","residential":true,"residents_est":6,"h3_10":"8a1e2e6f1687fff","h3_11":"8b1e2e6f1685fff"},"geometry":{"type":"Polygon","coordinates":[[[20.193189,50.054294],[20.193316,50.054266],[20.193376,50.054382],[20.193282,50.054403],[20.193265,50.054372],[20.193234,50.054379],[20.193189,50.054294]]]}},{"type":"Feature","id":"w337890695","properties":{"type":"yes","residential":true,"residents_est":7,"h3_10":"8a1e2e6f1667fff","h3_11":"8b1e2e6f1661fff"},"geometry":{"type":"Polygon","coordinates":[[[20.200176,50.057867],[20.200225,50.057748],[20.200352,50.05777],[20.200336,50.05781],[20.200348,50.057812],[20.200316,50.057891],[20.200176,50.057867]]]}},{"type":"Feature","id":"w337890782","properties":{"type":"detached","levels":2.0,"residential":true,"residents_est":8,"h3_10":"8a1e2e6f1657fff","h3_11":"8b1e2e6f1655fff"},"geometry":{"type":"Polygon","coordinates":[[[20.198678,50.056363],[20.198688,50.056297],[20.198745,50.056301],[20.198746,50.056292],[20.198823,50.056297],[20.198811,50.056371],[20.198678,50.056363]]]}},{"type":"Feature","id":"w337890799","properties":{"type":"yes","residential":true,"residents_est":6,"h3_10":"8a1e2e6f1687fff","h3_11":"8b1e2e6f1685fff"},"geometry":{"type":"Polygon","coordinates":[[[20.19284,50.054339],[20.192973,50.054312],[20.193012,50.054389],[20.192968,50.054398],[20.192983,50.054427],[20.192895,50.054446],[20.19284,50.054339]]]}},{"type":"Feature","id":"w337890816","properties":{"type":"yes","residential":true,"residents_est":6,"h3_10":"8a1e2e6f16affff","h3_11":"8b1e2e6f16aefff"},"geometry":{"type":"Polygon","coordinates":[[[20.193428,50.054555],[20.193554,50.054528],[20.193609,50.054644],[20.193517,50.054664],[20.193501,50.054632],[20.193471,50.054639],[20.193428,50.054555]]]}},{"type":"Feature","id":"w337890866","properties":{"type":"yes","residential":true,"residents_est":6,"h3_10":"8a1e2e6f166ffff","h3_11":"8b1e2e6f166afff"},"geometry":{"type":"Polygon","coordinates":[[[20.200847,50.056896],[20.200862,50.056783],[20.200995,50.056791],[20.200984,50.056873],[20.200941,50.056871],[20.200937,50.056901],[20.200847,50.056896]]]}},{"type":"Feature","id":"w337890875","properties":{"type":"yes","residential":true,"residents_est":7,"h3_10":"8a1e2e6f1647fff","h3_11":"8b1e2e6f1646fff"},"geometry":{"type":"Polygon","coordinates":[[[20.1994,50.056495],[20.199413,50.056396],[20.199506,50.0564],[20.199505,50.056421],[20.199604,50.056427],[20.199595,50.056505],[20.1994,50.056495]]]}},{"type":"Feature","id":"w337890877","properties":{"type":"yes","residential":true,"residents_est":4,"h3_10":"8a1e2e6f176ffff","h3_11":"8b1e2e6f176cfff"},"geometry":{"type":"Polygon","coordinates":[[[20.198953,50.060139],[20.199045,50.060063],[20.199137,50.06011],[20.199095,50.060144],[20.199071,50.060132],[20.199021,50.060173],[20.198953,50.060139]]]}},{"type":"Feature","id":"w337890878","properties":{"type":"detached","residential":true,"residents_est":11,"h3_10":"8a1e2e6f160ffff","h3_11":"8b1e2e6f1608fff"},"geometry":{"type":"Polygon","coordinates":[[[20.197154,50.056318],[20.197173,50.056217],[20.197303,50.056227],[20.197292,50.056283],[20.197299,50.056284],[20.197291,50.056328],[20.197154,50.056318]]]}},{"type":"Feature","id":"w337890882","properties":{"type":"yes","residential":true,"residents_est":4,"h3_10":"8a1e2e6f1677fff","h3_11":"8b1e2e6f1673fff"},"geometry":{"type":"Polygon","coordinates":[[[20.198857,50.056453],[20.198888,50.05638],[20.199012,50.056402],[20.198981,50.056475],[20.198857,50.056453]]]}},{"type":"Feature","id":"w337890883","properties":{"type":"yes","residential":false,"residents_est":0,"h3_10":"8a1e2e6f174ffff","h3_11":"8b1e2e6f1749fff"},"geometry":{"type":"Polygon","coordinates":[[[20.200003,50.0589],[20.200064,50.058852],[20.200113,50.058877],[20.200052,50.058926],[20.200003,50.0589]]]}},{"type":"Feature","id":"w337890893","properties":{"type":"yes","residential":true,"residents_est":8,"h3_10":"8a1e2e6f169ffff","h3_11":"8b1e2e6f169cfff"},"geometry":{"type":"Polygon","coordinates":[[[20.1927,50.053196],[20.192816,50.053103],[20.192921,50.053158],[20.192783,50.05327],[20.192716,50.053236],[20.19274,50.053216],[20.1927,50.053196]]]}},{"type":"Feature","id":"w337890899","properties":{"type":"yes","residential":true,"residents_est":4,"h3_10":"8a1e2e6f16c7fff","h3_11":"8b1e2e6f16c2fff"},"geometry":{"type":"Polygon","coordinates":[[[20.197107,50.053648],[20.197169,50.053605],[20.197292,50.053683],[20.197231,50.053724],[20.197107,50.053648]]]}},{"type":"Feature","id":"w337890909","properties":{"type":"yes","residential":true,"residents_est":6,"h3_10":"8a1e2e6f1667fff","h3_11":"8b1e2e6f1661fff"},"geometry":{"type":"Polygon","coordinates":[[[20.20045,50.057526],[20.20048,50.057411],[20.20055,50.057418],[20.200543,50.05745],[20.200608,50.057456],[20.20059,50.057539],[20.20045,50.057526]]]}},{"type":"Feature","id":"w337890925","properties":{"type":"yes","residential":true,"residents_est":6,"h3_10":"8a1e2e6f174ffff","h3_11":"8b1e2e6f1748fff"},"geometry":{"type":"Polygon","coordinates":[[[20.199205,50.058636],[20.199316,50.058587],[20.199262,50.058534],[20.199343,50.0585],[20.199426,50.05858],[20.199231,50.058662],[20.199205,50.058636]]]}},{"type":"Feature","id":"w337890939","properties":{"type":"yes","residential":true,"residents_est":6,"h3_10":"8a1e2e6f1747fff","h3_11":"8b1e2e6f1743fff"},"geometry":{"type":"Polygon","coordinates":[[[20.198283,50.058763],[20.198434,50.058723],[20.198477,50.05879],[20.198375,50.058817],[20.1984,50.058856],[20.198341,50.058872],[20.198316,50.058833],[20.198325,50.058831],[20.198283,50.058763]]]}},{"type":"Feature","id":"w337890950","properties":{"type":"yes","residential":true,"residents_est":7,"h3_10":"8a1e2e6f16affff","h3_11":"8b1e2e6f16aefff"},"geometry":{"type":"Polygon","coordinates":[[[20.193016,50.054709],[20.193189,50.054666],[20.193237,50.054748],[20.193105,50.054782],[20.193101,50.054777],[20.193063,50.054786],[20.193016,50.054709]]]}},{"type":"Feature","id":"w337890955","properties":{"type":"yes","residential":true,"residents_est":4,"h3_10":"8a1e2e6f174ffff","h3_11":"8b1e2e6f174afff"},"geometry":{"type":"Polygon","coordinates":[[[20.199092,50.058516],[20.199156,50.058456],[20.199265,50.058504],[20.1992,50.058564],[20.199092,50.058516]]]}},{"type":"Feature","id":"w337890958","properties":{"type":"detached","residential":true,"residents_est":12,"h3_10":"8a1e2e6f17b7fff","h3_11":"8b1e2e6f17b0fff"},"geometry":{"type":"Polygon","coordinates":[[[20.187988,50.05697],[20.187995,50.056978],[20.188129,50.056956],[20.18813,50.056947],[20.188147,50.05699],[20.188178,50.056985],[20.188189,50.057014],[20.188158,50.057019],[20.188167,50.057043],[20.188025,50.057066],[20.187988,50.05697]]]}},{"type":"Feature","id":"w337890965","properties":{"type":"yes","residential":true,"residents_est":6,"h3_10":"8a1e2e6f16affff","h3_11":"8b1e2e6f16a8fff"},"geometry":{"type":"Polygon","coordinates":[[[20.193739,50.054822],[20.1939,50.054761],[20.19397,50.054838],[20.193835,50.054889],[20.193809,50.05486],[20.193783,50.05487],[20.193739,50.054822]]]}},{"type":"Feature","id":"w337890975","properties":{"type":"yes","residential":true,"residents_est":3,"h3_10":"8a1e2e6f1647fff","h3_11":"8b1e2e6f1640fff"},"geometry":{"type":"Polygon","coordinates":[[[20.200397,50.0566],[20.200403,50.056539],[20.200525,50.056545],[20.200519,50.056607],[20.200397,50.0566]]]}},{"type":"Feature","id":"w337890982","properties":{"type":"yes","residential":true,"residents_est":5,"h3_10":"8a1e2e6f174ffff","h3_11":"8b1e2e6f174afff"},"geometry":{"type":"Polygon","coordinates":[[[20.199298,50.058337],[20.199351,50.058263],[20.199492,50.058305],[20.199438,50.058379],[20.19938,50.058361],[20.199369,50.058377],[20.199334,50.058366],[20.199345,50.058351],[20.199298,50.058337]]]}},{"type":"Feature","id":"w337890984","properties":{"type":"yes","residential":true,"residents_est":5,"h3_10":"8a1e2e6f160ffff","h3_11":"8b1e2e6f160efff"},"geometry":{"type":"Polygon","coordinates":[[[20.19601,50.056065],[20.196013,50.056042],[20.19605,50.056044],[20.196054,50.056016],[20.196187,50.056024],[20.196174,50.056118],[20.19604,50.05611],[20.196046,50.056067],[20.19601,50.056065]]]}},{"type":"Feature","id":"w337891005","properties":{"type":"yes","residential":true,"residents_est":3,"h3_10":"8a1e2e6f166ffff","h3_11":"8b1e2e6f166afff"},"geometry":{"type":"Polygon","coordinates":[[[20.20122,50.057129],[20.201221,50.057046],[20.201297,50.057047],[20.201296,50.057083],[20.20132,50.057083],[20.201318,50.05713],[20.20122,50.057129]]]}},{"type":"Feature","id":"w337891009","properties":{"type":"yes","residential":true,"residents_est":7,"h3_10":"8a1e2e6f16a7fff","h3_11":"8b1e2e6f16a4fff"},"geometry":{"type":"Polygon","coordinates":[[[20.192099,50.055288],[20.192287,50.055248],[20.19233,50.055332],[20.192211,50.055363],[20.192207,50.055356],[20.192141,50.055371],[20.192099,50.055288]]]}},{"type":"Feature","id":"w337891016","properties":{"type":"yes","residential":true,"residents_est":7,"h3_10":"8a1e2e6f16c7fff","h3_11":"8b1e2e6f16c1fff"},"geometry":{"type":"Polygon","coordinates":[[[20.198108,50.053987],[20.19817,50.053919],[20.19833,50.053975],[20.198258,50.054062],[20.198187,50.054035],[20.198199,50.054022],[20.198108,50.053987]]]}},{"type":"Feature","id":"w337891034","properties":{"type":"yes","residential":true,"residents_est":6,"h3_10":"8a1e2e6f16e7fff","h3_11":"8b1e2e6f16e0fff"},"geometry":{"type":"Polygon","coordinates":[[[20.197108,50.055271],[20.197121,50.055185],[20.19727,50.055195],[20.197257,50.055277],[20.197198,50.055273],[20.197195,50.055293],[20.197146,50.055289],[20.197149,50.055273],[20.197108,50.055271]]]}},{"type":"Feature","id":"w337891037","properties":{"type":"yes","residential":true,"residents_est":3,"h3_10":"8a1e2e6f16e7fff","h3_11":"8b1e2e6f16e3fff"},"geometry":{"type":"Polygon","coordinates":[[[20.19745,50.054618],[20.197476,50.054582],[20.197562,50.054608],[20.197571,50.054595],[20.197615,50.054609],[20.19758,50.054657],[20.19745,50.054618]]]}},{"type":"Feature","id":"w337891038","properties":{"type":"yes","residential":true,"residents_est":6,"h3_10":"8a1e2e6f16a7fff","h3_11":"8b1e2e6f16a0fff"},"geometry":{"type":"Polygon","coordinates":[[[20.19197,50.054977],[20.192104,50.054945],[20.192153,50.055032],[20.192106,50.055043],[20.192112,50.055054],[20.19208,50.055062],[20.192074,50.055052],[20.192019,50.055064],[20.19197,50.054977]]]}},{"type":"Feature","id":"w337891039","properties":{"type":"yes","residential":true,"residents_est":6,"h3_10":"8a1e2e6f178ffff","h3_11":"8b1e2e6f178efff"},"geometry":{"type":"Polygon","coordinates":[[[20.191061,50.056374],[20.191121,50.056351],[20.191143,50.056374],[20.191195,50.056354],[20.191173,50.05633],[20.191233,50.056307],[20.1913,50.056379],[20.191128,50.056446],[20.191061,50.056374]]]}},{"type":"Feature","id":"w337891041","properties":{"type":"yes","residential":true,"residents_est":6,"h3_10":"8a1e2e6f1747fff","h3_11":"8b1e2e6f1743fff"},"geometry":{"type":"Polygon","coordinates":[[[20.197942,50.05884],[20.198028,50.058817],[20.198041,50.058837],[20.198133,50.058812],[20.198178,50.058881],[20.197997,50.058924],[20.197942,50.05884]]]}},{"type":"Feature","id":"w337891048","properties":{"type":"yes","residential":true,"residents_est":8,"h3_10":"8a1e2e6f179ffff","h3_11":"8b1e2e6f1798fff"},"geometry":{"type":"Polygon","coordinates":[[[20.190601,50.055392],[20.19083,50.055365],[20.190851,50.055452],[20.190779,50.05546],[20.190783,50.055478],[20.190729,50.055484],[20.190724,50.055465],[20.190653,50.055472],[20.190646,50.055442],[20.190614,50.055445],[20.190601,50.055392]]]}},{"type":"Feature","id":"w337891067","properties":{"type":"yes","residential":true,"residents_est":6,"h3_10":"8a1e2e6f176ffff","h3_11":"8b1e2e6f176cfff"},"geometry":{"type":"Polygon","coordinates":[[[20.19863,50.060039],[20.198736,50.059952],[20.198842,50.060005],[20.198802,50.060038],[20.19882,50.060047],[20.198793,50.060069],[20.198774,50.06006],[20.198735,50.060092],[20.19863,50.060039]]]}},{"type":"Feature","id":"w337891093","properties":{"type":"house","residential":true,"residents_est":17,"h3_10":"8a1e2e6f1797fff","h3_11":"8b1e2e6f1794fff"},"geometry":{"type":"Polygon","coordinates":[[[20.188607,50.056303],[20.188608,50.056275],[20.188717,50.056275],[20.18871,50.056171],[20.188838,50.056166],[20.188841,50.056208],[20.188848,50.056207],[20.188855,50.056291],[20.188807,50.056293],[20.188808,50.05631],[20.188768,50.056316],[20.188765,50.056294],[20.188718,50.056296],[20.188718,50.056304],[20.188607,50.056303]]]}},{"type":"Feature","id":"w337891111","properties":{"type":"yes","residential":true,"residents_est":5,"h3_10":"8a1e2e6f166ffff","h3_11":"8b1e2e6f1669fff"},"geometry":{"type":"Polygon","coordinates":[[[20.202159,50.057197],[20.202297,50.057195],[20.202301,50.057284],[20.202244,50.057285],[20.202244,50.057297],[20.202212,50.057298],[20.202211,50.057285],[20.202163,50.057285],[20.202159,50.057197]]]}},{"type":"Feature","id":"w337891116","properties":{"type":"yes","residential":true,"residents_est":7,"h3_10":"8a1e2e6f16c7fff","h3_11":"8b1e2e6f16c0fff"},"geometry":{"type":"Polygon","coordinates":[[[20.197787,50.054039],[20.197866,50.053978],[20.198024,50.054064],[20.197944,50.054126],[20.197872,50.054087],[20.197855,50.054101],[20.197814,50.054079],[20.197833,50.054064],[20.197787,50.054039]]]}},{"type":"Feature","id":"w337891118","properties":{"type":"yes","residential":true,"residents_est":6,"h3_10":"8a1e2e6f16d7fff","h3_11":"8b1e2e6f16d0fff"},"geometry":{"type":"Polygon","coordinates":[[[20.195804,50.053042],[20.19595,50.053024],[20.195976,50.053115],[20.195936,50.05312],[20.195941,50.053136],[20.195878,50.053144],[20.195874,50.053127],[20.195829,50.053132],[20.195804,50.053042]]]}},{"type":"Feature","id":"w337891121","properties":{"type":"yes","residential":true,"residents_est":7,"h3_10":"8a1e2e6f1797fff","h3_11":"8b1e2e6f1790fff"},"geometry":{"type":"Polygon","coordinates":[[[20.188641,50.055932],[20.188647,50.055839],[20.188784,50.055843],[20.188779,50.055936],[20.18877,50.055936],[20.188769,50.055968],[20.188647,50.055965],[20.18865,50.055933],[20.188641,50.055932]]]}},{"type":"Feature","id":"w337891123","properties":{"type":"yes","residential":true,"residents_est":7,"h3_10":"8a1e2e6f16c7fff","h3_11":"8b1e2e6f16c6fff"},"geometry":{"type":"Polygon","coordinates":[[[20.196455,50.054035],[20.196652,50.054012],[20.196675,50.054095],[20.196598,50.054104],[20.196604,50.054122],[20.196524,50.054131],[20.196519,50.054113],[20.196478,50.054117],[20.196455,50.054035]]]}},{"type":"Feature","id":"w337891136","properties":{"type":"yes","residential":true,"residents_est":7,"h3_10":"8a1e2e6f1637fff","h3_11":"8b1e2e6f1636fff"},"geometry":{"type":"Polygon","coordinates":[[[20.192501,50.056924],[20.192521,50.056835],[20.192689,50.05685],[20.192669,50.05694],[20.192606,50.056934],[20.192601,50.056958],[20.192555,50.056954],[20.19256,50.056929],[20.192501,50.056924]]]}},{"type":"Feature","id":"w337891139","properties":{"type":"yes","residential":true,"residents_est":3,"h3_10":"8a1e2e6f1647fff","h3_11":"8b1e2e6f1641fff"},"geometry":{"type":"Polygon","coordinates":[[[20.200905,50.056541],[20.200908,50.056479],[20.200926,50.056479],[20.200927,50.056464],[20.200954,50.056466],[20.200955,50.05648],[20.201008,50.056481],[20.201005,50.056542],[20.200905,50.056541]]]}},{"type":"Feature","id":"w337891151","properties":{"type":"yes","residential":true,"residents_est":2,"h3_10":"8a1e2e6f1797fff","h3_11":"8b1e2e6f1795fff"},"geometry":{"type":"Polygon","coordinates":[[[20.189265,50.056138],[20.189288,50.056086],[20.189402,50.056108],[20.189379,50.056159],[20.189265,50.056138]]]}},{"type":"Feature","id":"w337891154","properties":{"type":"yes","residential":true,"residents_est":5,"h3_10":"8a1e2e6f16effff","h3_11":"8b1e2e6f16eafff"},"geometry":{"type":"Polygon","coordinates":[[[20.198575,50.054491],[20.198601,50.054413],[20.198747,50.054434],[20.198721,50.054512],[20.198661,50.054503],[20.198655,50.054521],[20.198606,50.054514],[20.198612,50.054496],[20.198575,50.054491]]]}},{"type":"Feature","id":"w337891161","properties":{"type":"yes","residential":true,"residents_est":9,"h3_10":"8a1e2e6f17affff","h3_11":"8b1e2e6f17a9fff"},"geometry":{"type":"Polygon","coordinates":[[[20.191877,50.057188],[20.191935,50.057097],[20.19204,50.057129],[20.192052,50.057111],[20.192145,50.057136],[20.192075,50.057243],[20.191877,50.057188]]]}},{"type":"Feature","id":"w337891164","properties":{"type":"yes","residential":true,"residents_est":3,"h3_10":"8a1e2e6f1637fff","h3_11":"8b1e2e6f1630fff"},"geometry":{"type":"Polygon","coordinates":[[[20.193198,50.056991],[20.193242,50.056906],[20.193314,50.056922],[20.193286,50.056977],[20.193311,50.056982],[20.193285,50.057031],[20.193254,50.057024],[20.193264,50.057006],[20.193198,50.056991]]]}},{"type":"Feature","id":"w337891175","properties":{"type":"detached","residential":true,"residents_est":14,"h3_10":"8a1e2e6f164ffff","h3_11":"8b1e2e6f1648fff"},"geometry":{"type":"Polygon","coordinates":[[[20.201701,50.056117],[20.201704,50.056032],[20.201766,50.056033],[20.201766,50.056015],[20.201816,50.056016],[20.201816,50.056031],[20.201892,50.056032],[20.201889,50.056119],[20.201701,50.056117]]]}},{"type":"Feature","id":"w337891180","properties":{"type":"yes","residential":true,"residents_est":5,"h3_10":"8a1e2e6f16effff","h3_11":"8b1e2e6f16e8fff"},"geometry":{"type":"Polygon","coordinates":[[[20.198933,50.054671],[20.198952,50.054591],[20.19909,50.054605],[20.199071,50.054684],[20.199034,50.05468],[20.199029,50.054698],[20.198985,50.054694],[20.198989,50.054676],[20.198933,50.054671]]]}},{"type":"Feature","id":"w337891181","properties":{"type":"yes","residential":true,"residents_est":6,"h3_10":"8a1e2e6f164ffff","h3_11":"8b1e2e6f1649fff"},"geometry":{"type":"Polygon","coordinates":[[[20.202709,50.056365],[20.202717,50.056278],[20.202783,50.056281],[20.202783,50.056287],[20.20288,50.05629],[20.202872,50.056385],[20.202797,50.056382],[20.202798,50.056369],[20.202709,50.056365]]]}},{"type":"Feature","id":"w337891183","properties":{"type":"yes","residential":true,"residents_est":6,"h3_10":"8a1e2e6f16f7fff","h3_11":"8b1e2e6f16f1fff"},"geometry":{"type":"Polygon","coordinates":[[[20.196561,50.054437],[20.196605,50.054431],[20.196612,50.054421],[20.196637,50.054417],[20.196651,50.054424],[20.196696,50.054418],[20.196721,50.05449],[20.196699,50.054494],[20.196715,50.054538],[20.19662,50.054552],[20.196605,50.054507],[20.196586,50.05451],[20.196561,50.054437]]]}},{"type":"Feature","id":"w337891191","properties":{"type":"yes","residential":true,"residents_est":6,"h3_10":"8a1e2e6f174ffff","h3_11":"8b1e2e6f174efff"},"geometry":{"type":"Polygon","coordinates":[[[20.198523,50.058714],[20.198697,50.058658],[20.19875,50.058726],[20.198697,50.058742],[20.198711,50.05876],[20.198668,50.058774],[20.198652,50.058754],[20.198573,50.058779],[20.198523,50.058714]]]}},{"type":"Feature","id":"w337891206","properties":{"type":"yes","residential":true,"residents_est":5,"h3_10":"8a1e2e6f1637fff","h3_11":"8b1e2e6f1630fff"},"geometry":{"type":"Polygon","coordinates":[[[20.192992,50.057043],[20.193001,50.056952],[20.193054,50.056955],[20.193051,50.056979],[20.193163,50.056984],[20.193157,50.057049],[20.192992,50.057043]]]}},{"type":"Feature","id":"w721539137","properties":{"type":"yes","residential":false,"residents_est":0,"h3_10":"8a1e2e6f176ffff","h3_11":"8b1e2e6f1768fff"},"geometry":{"type":"Polygon","coordinates":[[[20.199082,50.060001],[20.199099,50.059946],[20.199144,50.059952],[20.199127,50.060006],[20.199082,50.060001]]]}},{"type":"Feature","id":"w721539138","properties":{"type":"yes","residential":false,"residents_est":0,"h3_10":"8a1e2e6f176ffff","h3_11":"8b1e2e6f1768fff"},"geometry":{"type":"Polygon","coordinates":[[[20.199146,50.060008],[20.199163,50.059955],[20.1992,50.059959],[20.199183,50.060013],[20.199146,50.060008]]]}},{"type":"Feature","id":"w721539140","properties":{"type":"yes","residential":false,"residents_est":0,"h3_10":"8a1e2e6f1767fff","h3_11":"8b1e2e6f1764fff"},"geometry":{"type":"Polygon","coordinates":[[[20.196894,50.060462],[20.196907,50.060424],[20.196992,50.060436],[20.196979,50.060474],[20.196894,50.060462]]]}},{"type":"Feature","id":"w721539141","properties":{"type":"yes","residential":false,"residents_est":0,"h3_10":"8a1e2e6f1767fff","h3_11":"8b1e2e6f1760fff"},"geometry":{"type":"Polygon","coordinates":[[[20.197157,50.060401],[20.19718,50.06034],[20.197242,50.06035],[20.197218,50.06041],[20.197157,50.060401]]]}},{"type":"Feature","id":"w721633307","properties":{"type":"yes","residential":false,"residents_est":0,"h3_10":"8a1e2e6f16e7fff","h3_11":"8b1e2e6f16e0fff"},"geometry":{"type":"Polygon","coordinates":[[[20.196934,50.055016],[20.197068,50.055003],[20.197075,50.05503],[20.19694,50.055043],[20.196934,50.055016]]]}},{"type":"Feature","id":"w721633308","properties":{"type":"yes","residential":false,"residents_est":0,"h3_10":"8a1e2e6f16e7fff","h3_11":"8b1e2e6f16e4fff"},"geometry":{"type":"Polygon","coordinates":[[[20.196592,50.0554],[20.196605,50.055351],[20.196669,50.055358],[20.196656,50.055406],[20.196592,50.0554]]]}},{"type":"Feature","id":"w721633309","properties":{"type":"yes","residential":true,"residents_est":2,"h3_10":"8a1e2e6f16e7fff","h3_11":"8b1e2e6f16e4fff"},"geometry":{"type":"Polygon","coordinates":[[[20.196767,50.055669],[20.196777,50.055581],[20.196843,50.055584],[20.196831,50.055672],[20.196767,50.055669]]]}},{"type":"Feature","id":"w721633310","properties":{"type":"yes","residential":false,"residents_est":0,"h3_10":"8a1e2e6f160ffff","h3_11":"8b1e2e6f160bfff"},"geometry":{"type":"Polygon","coordinates":[[[20.197578,50.055821],[20.197586,50.055762],[20.197627,50.055764],[20.197619,50.055824],[20.197578,50.055821]]]}},{"type":"Feature","id":"w721633312","properties":{"type":"yes","residential":false,"residents_est":0,"h3_10":"8a1e2e6f160ffff","h3_11":"8b1e2e6f1608fff"},"geometry":{"type":"Polygon","coordinates":[[[20.196927,50.056166],[20.196929,50.056107],[20.196996,50.056109],[20.196993,50.056168],[20.196927,50.056166]]]}},{"type":"Feature","id":"w721633313","properties":{"type":"yes","residential":false,"residents_est":0,"h3_10":"8a1e2e6f160ffff","h3_11":"8b1e2e6f1608fff"},"geometry":{"type":"Polygon","coordinates":[[[20.19666,50.05614],[20.196682,50.056069],[20.19673,50.056075],[20.196708,50.056146],[20.19666,50.05614]]]}},{"type":"Feature","id":"w721633314","properties":{"type":"school","residential":false,"residents_est":0,"h3_10":"8a1e2e6f16affff","h3_11":"8b1e2e6f16adfff"},"geometry":{"type":"Polygon","coordinates":[[[20.194278,50.055231],[20.194623,50.055227],[20.194626,50.05531],[20.194377,50.055313],[20.19438,50.055374],[20.194295,50.055376],[20.194294,50.055343],[20.194282,50.055344],[20.194278,50.055231]]]}},{"type":"Feature","id":"w721633315","properties":{"type":"school","address":"Drożyska 13","residential":false,"residents_est":0,"h3_10":"8a1e2e6f1617fff","h3_11":"8b1e2e6f1613fff"},"geometry":{"type":"Polygon","coordinates":[[[20.193907,50.055493],[20.194207,50.055487],[20.194201,50.055379],[20.194423,50.055374],[20.194433,50.055563],[20.19457,50.055559],[20.194572,50.05559],[20.194439,50.055594],[20.194442,50.055649],[20.194218,50.055654],[20.194215,50.055598],[20.193914,50.055605],[20.193907,50.055493]]]}},{"type":"Feature","id":"w721633317","properties":{"type":"yes","residential":true,"residents_est":2,"h3_10":"8a1e2e6f1617fff","h3_11":"8b1e2e6f1615fff"},"geometry":{"type":"Polygon","coordinates":[[[20.194233,50.05619],[20.194241,50.056112],[20.194293,50.056115],[20.194292,50.05613],[20.194316,50.056131],[20.194309,50.056194],[20.194233,50.05619]]]}},{"type":"Feature","id":"w721633318","properties":{"type":"yes","residential":true,"residents_est":2,"h3_10":"8a1e2e6f1617fff","h3_11":"8b1e2e6f1615fff"},"geometry":{"type":"Polygon","coordinates":[[[20.194309,50.056194],[20.194316,50.056131],[20.19441,50.056135],[20.194404,50.056198],[20.194309,50.056194]]]}},{"type":"Feature","id":"w721633319","properties":{"type":"yes","residential":true,"residents_est":3,"h3_10":"8a1e2e6f1617fff","h3_11":"8b1e2e6f1615fff"},"geometry":{"type":"Polygon","coordinates":[[[20.194404,50.056198],[20.194419,50.056055],[20.194462,50.056057],[20.194447,50.0562],[20.194404,50.056198]]]}},{"type":"Feature","id":"w721633320","properties":{"type":"yes","residential":false,"residents_est":0,"h3_10":"8a1e2e6f1607fff","h3_11":"8b1e2e6f1602fff"},"geometry":{"type":"Polygon","coordinates":[[[20.194487,50.056283],[20.19449,50.05625],[20.194555,50.056253],[20.194552,50.056285],[20.194487,50.056283]]]}},{"type":"Feature","id":"w721633321","properties":{"type":"yes","residential":true,"residents_est":7,"h3_10":"8a1e2e6f1607fff","h3_11":"8b1e2e6f1602fff"},"geometry":{"type":"Polygon","coordinates":[[[20.19466,50.056399],[20.194664,50.056316],[20.194729,50.056317],[20.19473,50.056312],[20.1948,50.056318],[20.194807,50.056313],[20.194808,50.056319],[20.194873,50.05632],[20.194869,50.056403],[20.194726,50.056406],[20.194725,50.0564],[20.19466,50.056399]]]}},{"type":"Feature","id":"w721633322","properties":{"type":"yes","residential":true,"residents_est":4,"h3_10":"8a1e2e6f1607fff","h3_11":"8b1e2e6f1606fff"},"geometry":{"type":"Polygon","coordinates":[[[20.194211,50.056552],[20.194329,50.056549],[20.194334,50.056623],[20.194216,50.056626],[20.194211,50.056552]]]}},{"type":"Feature","id":"w721633323","properties":{"type":"yes","residential":false,"residents_est":0,"h3_10":"8a1e2e6f1637fff","h3_11":"8b1e2e6f1633fff"},"geometry":{"type":"Polygon","coordinates":[[[20.193766,50.056555],[20.193812,50.05648],[20.193876,50.056497],[20.193847,50.056544],[20.193831,50.05654],[20.193813,50.056567],[20.193766,50.056555]]]}},{"type":"Feature","id":"w721633324","properties":{"type":"yes","residential":false,"residents_est":0,"h3_10":"8a1e2e6f1637fff","h3_11":"8b1e2e6f1633fff"},"geometry":{"type":"Polygon","coordinates":[[[20.193657,50.056709],[20.19367,50.056684],[20.193688,50.056686],[20.193683,50.056698],[20.193777,50.056718],[20.193766,50.056738],[20.193657,50.056709]]]}},{"type":"Feature","id":"w721633325","properties":{"type":"yes","residential":false,"residents_est":0,"h3_10":"8a1e2e6f1637fff","h3_11":"8b1e2e6f1636fff"},"geometry":{"type":"Polygon","coordinates":[[[20.192945,50.05703],[20.192953,50.056949],[20.193,50.056951],[20.192992,50.057032],[20.192945,50.05703]]]}},{"type":"Feature","id":"w721633326","properties":{"type":"yes","residential":false,"residents_est":0,"h3_10":"8a1e2e6f1637fff","h3_11":"8b1e2e6f1636fff"},"geometry":{"type":"Polygon","coordinates":[[[20.192791,50.057044],[20.19282,50.057002],[20.192859,50.057006],[20.192852,50.057065],[20.192791,50.057044]]]}},{"type":"Feature","id":"w721633327","properties":{"type":"yes","residential":false,"residents_est":0,"h3_10":"8a1e2e6f1637fff","h3_11":"8b1e2e6f1636fff"},"geometry":{"type":"Polygon","coordinates":[[[20.19282,50.057002],[20.192834,50.056945],[20.192872,50.056949],[20.192859,50.057006],[20.19282,50.057002]]]}},{"type":"Feature","id":"w721633328","properties":{"type":"yes","residential":true,"residents_est":2,"h3_10":"8a1e2e6f1637fff","h3_11":"8b1e2e6f1636fff"},"geometry":{"type":"Polygon","coordinates":[[[20.192726,50.056992],[20.192739,50.056936],[20.192834,50.056945],[20.19282,50.057002],[20.192726,50.056992]]]}},{"type":"Feature","id":"w721633329","properties":{"type":"yes","residential":false,"residents_est":0,"h3_10":"8a1e2e6f1637fff","h3_11":"8b1e2e6f1636fff"},"geometry":{"type":"Polygon","coordinates":[[[20.192719,50.057029],[20.192726,50.056992],[20.19282,50.057002],[20.192791,50.057044],[20.192719,50.057029]]]}},{"type":"Feature","id":"w721633330","properties":{"type":"yes","residential":true,"residents_est":9,"h3_10":"8a1e2e6f178ffff","h3_11":"8b1e2e6f178cfff"},"geometry":{"type":"Polygon","coordinates":[[[20.191441,50.056649],[20.191575,50.056617],[20.191661,50.056769],[20.191527,50.056801],[20.191441,50.056649]]]}},{"type":"Feature","id":"w721633331","properties":{"type":"yes","residential":true,"residents_est":4,"h3_10":"8a1e2e6f178ffff","h3_11":"8b1e2e6f178cfff"},"geometry":{"type":"Polygon","coordinates":[[[20.191548,50.056569],[20.191635,50.056548],[20.191688,50.056644],[20.191602,50.056663],[20.191548,50.056569]]]}},{"type":"Feature","id":"w721633332","properties":{"type":"yes","residential":false,"residents_est":0,"h3_10":"8a1e2e6f1787fff","h3_11":"8b1e2e6f1781fff"},"geometry":{"type":"Polygon","coordinates":[[[20.190948,50.056391],[20.191017,50.05637],[20.191055,50.056422],[20.190986,50.056443],[20.190948,50.056391]]]}},{"type":"Feature","id":"w721633333","properties":{"type":"yes","residential":true,"residents_est":7,"h3_10":"8a1e2e6f16b7fff","h3_11":"8b1e2e6f16b5fff"},"geometry":{"type":"Polygon","coordinates":[[[20.190788,50.054769],[20.190816,50.05469],[20.190985,50.054716],[20.190945,50.054823],[20.190856,50.054809],[20.190867,50.054781],[20.190788,50.054769]]]}},{"type":"Feature","id":"w721633334","properties":{"type":"yes","residential":false,"residents_est":0,"h3_10":"8a1e2e6f179ffff","h3_11":"8b1e2e6f1799fff"},"geometry":{"type":"Polygon","coordinates":[[[20.191081,50.055404],[20.191161,50.05538],[20.191189,50.055417],[20.191109,50.055442],[20.191081,50.055404]]]}},{"type":"Feature","id":"w721633336","properties":{"type":"yes","residential":true,"residents_est":3,"h3_10":"8a1e2e6f16a7fff","h3_11":"8b1e2e6f16a3fff"},"geometry":{"type":"Polygon","coordinates":[[[20.192793,50.054735],[20.192875,50.054709],[20.192936,50.054791],[20.192855,50.054816],[20.192793,50.054735]]]}},{"type":"Feature","id":"w721633337","properties":{"type":"yes","residential":false,"residents_est":0,"h3_10":"8a1e2e6f1687fff","h3_11":"8b1e2e6f1685fff"},"geometry":{"type":"Polygon","coordinates":[[[20.193067,50.054501],[20.193121,50.05449],[20.193155,50.054555],[20.193102,50.054567],[20.193067,50.054501]]]}},{"type":"Feature","id":"w721633376","properties":{"type":"yes","residential":false,"residents_est":0,"h3_10":"8a1e2e6f16c7fff","h3_11":"8b1e2e6f16c2fff"},"geometry":{"type":"Polygon","coordinates":[[[20.197231,50.053724],[20.197292,50.053683],[20.197333,50.053707],[20.197272,50.053749],[20.197231,50.053724]]]}},{"type":"Feature","id":"w721633378","properties":{"type":"yes","residential":false,"residents_est":0,"h3_10":"8a1e2e6f16c7fff","h3_11":"8b1e2e6f16c2fff"},"geometry":{"type":"Polygon","coordinates":[[[20.197312,50.053615],[20.197358,50.053585],[20.197429,50.053631],[20.197383,50.053661],[20.197312,50.053615]]]}},{"type":"Feature","id":"w721633380","properties":{"type":"yes","residential":true,"residents_est":4,"h3_10":"8a1e2e6f16f7fff","h3_11":"8b1e2e6f16f1fff"},"geometry":{"type":"Polygon","coordinates":[[[20.196575,50.054149],[20.196713,50.054137],[20.196725,50.054196],[20.196676,50.0542],[20.19668,50.05422],[20.196644,50.054223],[20.19664,50.054204],[20.196588,50.054209],[20.196575,50.054149]]]}},{"type":"Feature","id":"w721633381","properties":{"type":"yes","residential":false,"residents_est":0,"h3_10":"8a1e2e6f16c7fff","h3_11":"8b1e2e6f16c1fff"},"geometry":{"type":"Polygon","coordinates":[[[20.198262,50.053951],[20.198285,50.053923],[20.198354,50.053947],[20.19833,50.053975],[20.198262,50.053951]]]}},{"type":"Feature","id":"w721633383","properties":{"type":"yes","residential":true,"residents_est":5,"h3_10":"8a1e2e6f16c7fff","h3_11":"8b1e2e6f16c5fff"},"geometry":{"type":"Polygon","coordinates":[[[20.19821,50.054306],[20.198223,50.054277],[20.198215,50.054267],[20.198221,50.054254],[20.198236,50.054249],[20.198246,50.054229],[20.198361,50.054252],[20.198358,50.054258],[20.198407,50.054267],[20.198375,50.054334],[20.19821,50.054306]]]}},{"type":"Feature","id":"w721633384","properties":{"type":"yes","residential":false,"residents_est":0,"h3_10":"8a1e2e6f16effff","h3_11":"8b1e2e6f16eafff"},"geometry":{"type":"Polygon","coordinates":[[[20.198914,50.054232],[20.19893,50.054199],[20.199025,50.054218],[20.199005,50.05426],[20.198947,50.054248],[20.198951,50.05424],[20.198914,50.054232]]]}},{"type":"Feature","id":"w721633386","properties":{"type":"yes","residential":false,"residents_est":0,"h3_10":"8a1e2e6f16effff","h3_11":"8b1e2e6f16eafff"},"geometry":{"type":"Polygon","coordinates":[[[20.198669,50.054302],[20.198681,50.054277],[20.198785,50.054299],[20.198773,50.054323],[20.198669,50.054302]]]}},{"type":"Feature","id":"w721633387","properties":{"type":"yes","residential":false,"residents_est":0,"h3_10":"8a1e2e6f16effff","h3_11":"8b1e2e6f16e8fff"},"geometry":{"type":"Polygon","coordinates":[[[20.199071,50.054684],[20.19909,50.054605],[20.199146,50.05461],[20.199128,50.054689],[20.199071,50.054684]]]}},{"type":"Feature","id":"w721633405","properties":{"type":"yes","residential":false,"residents_est":0,"h3_10":"8a1e2e6f1647fff","h3_11":"8b1e2e6f1646fff"},"geometry":{"type":"Polygon","coordinates":[[[20.199104,50.056498],[20.199146,50.056401],[20.199182,50.056407],[20.19914,50.056504],[20.199104,50.056498]]]}},{"type":"Feature","id":"w721633406","properties":{"type":"yes","residential":true,"residents_est":5,"h3_10":"8a1e2e6f1677fff","h3_11":"8b1e2e6f1673fff"},"geometry":{"type":"Polygon","coordinates":[[[20.198981,50.056475],[20.199012,50.056402],[20.199062,50.05641],[20.199071,50.056387],[20.199146,50.056401],[20.199104,50.056498],[20.198981,50.056475]]]}},{"type":"Feature","id":"w721633407","properties":{"type":"yes","residential":false,"residents_est":0,"h3_10":"8a1e2e6f1647fff","h3_11":"8b1e2e6f1640fff"},"geometry":{"type":"Polygon","coordinates":[[[20.200379,50.056628],[20.200383,50.0566],[20.200479,50.056605],[20.200476,50.056633],[20.200379,50.056628]]]}},{"type":"Feature","id":"w721633409","properties":{"type":"yes","residential":false,"residents_est":0,"h3_10":"8a1e2e6f1647fff","h3_11":"8b1e2e6f1641fff"},"geometry":{"type":"Polygon","coordinates":[[[20.201005,50.056542],[20.201008,50.056481],[20.201059,50.056481],[20.201055,50.056543],[20.201005,50.056542]]]}},{"type":"Feature","id":"w721633410","properties":{"type":"yes","residential":false,"residents_est":0,"h3_10":"8a1e2e6f1647fff","h3_11":"8b1e2e6f1641fff"},"geometry":{"type":"Polygon","coordinates":[[[20.201071,50.056464],[20.201073,50.056407],[20.201127,50.056407],[20.201125,50.056464],[20.201071,50.056464]]]}},{"type":"Feature","id":"w721633411","properties":{"type":"yes","residential":true,"residents_est":3,"h3_10":"8a1e2e6f164ffff","h3_11":"8b1e2e6f164efff"},"geometry":{"type":"Polygon","coordinates":[[[20.201151,50.056296],[20.201188,50.056296],[20.201189,50.056287],[20.201285,50.056292],[20.201287,50.056353],[20.201153,50.056355],[20.201151,50.056296]]]}},{"type":"Feature","id":"w721633412","properties":{"type":"yes","residential":false,"residents_est":0,"h3_10":"8a1e2e6f164ffff","h3_11":"8b1e2e6f1648fff"},"geometry":{"type":"Polygon","coordinates":[[[20.201926,50.056293],[20.201933,50.056261],[20.202008,50.056267],[20.202001,50.056299],[20.201926,50.056293]]]}},{"type":"Feature","id":"w721633413","properties":{"type":"yes","residential":false,"residents_est":0,"h3_10":"8a1e2e6f164ffff","h3_11":"8b1e2e6f164cfff"},"geometry":{"type":"Polygon","coordinates":[[[20.201503,50.056579],[20.201512,50.056523],[20.201555,50.056527],[20.201546,50.056582],[20.201503,50.056579]]]}},{"type":"Feature","id":"w721633415","properties":{"type":"yes","residential":false,"residents_est":0,"h3_10":"8a1e2e6f166ffff","h3_11":"8b1e2e6f166afff"},"geometry":{"type":"Polygon","coordinates":[[[20.201253,50.057046],[20.201254,50.057029],[20.201349,50.05703],[20.201347,50.057089],[20.201297,50.057082],[20.201297,50.057047],[20.201253,50.057046]]]}},{"type":"Feature","id":"w721633416","properties":{"type":"yes","residential":true,"residents_est":3,"h3_10":"8a1e2e6f166ffff","h3_11":"8b1e2e6f166efff"},"geometry":{"type":"Polygon","coordinates":[[[20.200849,50.057244],[20.200912,50.057167],[20.200986,50.057193],[20.200923,50.057269],[20.200849,50.057244]]]}},{"type":"Feature","id":"w721633417","properties":{"type":"yes","residential":true,"residents_est":7,"h3_10":"8a1e2e6f166ffff","h3_11":"8b1e2e6f166efff"},"geometry":{"type":"Polygon","coordinates":[[[20.200747,50.057389],[20.200775,50.057251],[20.200827,50.057258],[20.200836,50.057231],[20.200855,50.057235],[20.200849,50.057244],[20.200867,50.057251],[20.200853,50.057296],[20.200895,50.057301],[20.200888,50.057324],[20.200898,50.057325],[20.200873,50.057403],[20.200747,50.057389]]]}},{"type":"Feature","id":"w721633418","properties":{"type":"yes","residential":false,"residents_est":0,"h3_10":"8a1e2e6f166ffff","h3_11":"8b1e2e6f166efff"},"geometry":{"type":"Polygon","coordinates":[[[20.200675,50.057445],[20.200684,50.057393],[20.200721,50.057396],[20.200712,50.057448],[20.200675,50.057445]]]}},{"type":"Feature","id":"w721633419","properties":{"type":"yes","residential":false,"residents_est":0,"h3_10":"8a1e2e6f166ffff","h3_11":"8b1e2e6f1669fff"},"geometry":{"type":"Polygon","coordinates":[[[20.202297,50.057195],[20.202351,50.057194],[20.202355,50.057283],[20.202301,50.057284],[20.202297,50.057195]]]}},{"type":"Feature","id":"w721633420","properties":{"type":"yes","residential":true,"residents_est":5,"h3_10":"8a1e2e6f166ffff","h3_11":"8b1e2e6f166dfff"},"geometry":{"type":"Polygon","coordinates":[[[20.201613,50.057728],[20.201621,50.05766],[20.201778,50.057668],[20.20177,50.057736],[20.201709,50.057733],[20.201706,50.057755],[20.20166,50.057753],[20.201662,50.05773],[20.201613,50.057728]]]}},{"type":"Feature","id":"w721633430","properties":{"type":"yes","residential":true,"residents_est":2,"h3_10":"8a1e2e6f176ffff","h3_11":"8b1e2e6f176bfff"},"geometry":{"type":"Polygon","coordinates":[[[20.199413,50.05942],[20.199423,50.059382],[20.199569,50.059398],[20.199559,50.059436],[20.199413,50.05942]]]}},{"type":"Feature","id":"w721633431","properties":{"type":"yes","residential":false,"residents_est":0,"h3_10":"8a1e2e6f174ffff","h3_11":"8b1e2e6f1749fff"},"geometry":{"type":"Polygon","coordinates":[[[20.200183,50.058904],[20.200226,50.058896],[20.200253,50.058956],[20.20021,50.058964],[20.200183,50.058904]]]}},{"type":"Feature","id":"w721633432","properties":{"type":"yes","residential":false,"residents_est":0,"h3_10":"8a1e2e6f174ffff","h3_11":"8b1e2e6f1749fff"},"geometry":{"type":"Polygon","coordinates":[[[20.199959,50.058935],[20.200003,50.0589],[20.200052,50.058926],[20.200027,50.058946],[20.200015,50.05894],[20.199997,50.058955],[20.199959,50.058935]]]}},{"type":"Feature","id":"w721633433","properties":{"type":"yes","residential":false,"residents_est":0,"h3_10":"8a1e2e6f174ffff","h3_11":"8b1e2e6f174efff"},"geometry":{"type":"Polygon","coordinates":[[[20.198424,50.058699],[20.198492,50.058679],[20.19852,50.058718],[20.198452,50.058738],[20.198424,50.058699]]]}},{"type":"Feature","id":"w721633434","properties":{"type":"yes","residential":true,"residents_est":3,"h3_10":"8a1e2e6f174ffff","h3_11":"8b1e2e6f174afff"},"geometry":{"type":"Polygon","coordinates":[[[20.199158,50.0586],[20.199274,50.058549],[20.199314,50.058587],[20.199198,50.058638],[20.199158,50.0586]]]}},{"type":"Feature","id":"w721925145","properties":{"type":"yes","residential":true,"residents_est":3,"h3_10":"8a1e2e6f17b7fff","h3_11":"8b1e2e6f17b4fff"},"geometry":{"type":"Polygon","coordinates":[[[20.18809,50.057171],[20.188193,50.057166],[20.188202,50.05725],[20.1881,50.057254],[20.18809,50.057171]]]}},{"type":"Feature","id":"w721925147","properties":{"type":"yes","residential":false,"residents_est":0,"h3_10":"8a1e2e6f1797fff","h3_11":"8b1e2e6f1794fff"},"geometry":{"type":"Polygon","coordinates":[[[20.188318,50.056233],[20.188374,50.05623],[20.188384,50.05631],[20.188327,50.056312],[20.188318,50.056233]]]}},{"type":"Feature","id":"w721925148","properties":{"type":"yes","residential":false,"residents_est":0,"h3_10":"8a1e2e6f1797fff","h3_11":"8b1e2e6f1791fff"},"geometry":{"type":"Polygon","coordinates":[[[20.189281,50.055962],[20.1893,50.055911],[20.189337,50.055917],[20.189317,50.055968],[20.189281,50.055962]]]}},{"type":"Feature","id":"w721925150","properties":{"type":"yes","residential":true,"residents_est":3,"h3_10":"8a1e2e6f1797fff","h3_11":"8b1e2e6f1795fff"},"geometry":{"type":"Polygon","coordinates":[[[20.189188,50.056129],[20.189225,50.056047],[20.189299,50.05606],[20.189262,50.056143],[20.189188,50.056129]]]}},{"type":"Feature","id":"w721925165","properties":{"type":"yes","residential":false,"residents_est":0,"h3_10":"8a1e2e6f1697fff","h3_11":"8b1e2e6f1692fff"},"geometry":{"type":"Polygon","coordinates":[[[20.19075,50.052695],[20.19079,50.052691],[20.190801,50.052742],[20.190761,50.052745],[20.19075,50.052695]]]}},{"type":"Feature","id":"w721925166","properties":{"type":"yes","residential":true,"residents_est":4,"h3_10":"8a1e2e6f169ffff","h3_11":"8b1e2e6f169efff"},"geometry":{"type":"Polygon","coordinates":[[[20.192479,50.052874],[20.192574,50.052789],[20.192652,50.052824],[20.192556,50.05291],[20.192479,50.052874]]]}},{"type":"Feature","id":"w721925168","properties":{"type":"yes","residential":false,"residents_est":0,"h3_10":"8a1e2e6f1697fff","h3_11":"8b1e2e6f1693fff"},"geometry":{"type":"Polygon","coordinates":[[[20.191622,50.052673],[20.191689,50.052671],[20.191694,50.052744],[20.191627,50.052746],[20.191622,50.052673]]]}},{"type":"Feature","id":"w721925170","properties":{"type":"yes","residential":false,"residents_est":0,"h3_10":"8a1e2e6f1697fff","h3_11":"8b1e2e6f1693fff"},"geometry":{"type":"Polygon","coordinates":[[[20.191456,50.052657],[20.191526,50.052656],[20.191528,50.052711],[20.191457,50.052712],[20.191456,50.052657]]]}},{"type":"Feature","id":"w721980532","properties":{"type":"yes","residential":false,"residents_est":0,"h3_10":"8a1e2e6f16dffff","h3_11":"8b1e2e6f16d9fff"},"geometry":{"type":"Polygon","coordinates":[[[20.198635,50.052893],[20.19865,50.052868],[20.198719,50.052886],[20.198704,50.05291],[20.198635,50.052893]]]}},{"type":"Feature","id":"w722140023","properties":{"type":"yes","residential":true,"residents_est":4,"h3_10":"8a1e2e6f1747fff","h3_11":"8b1e2e6f1745fff"},"geometry":{"type":"Polygon","coordinates":[[[20.197958,50.059363],[20.197988,50.059272],[20.198105,50.059288],[20.198074,50.059379],[20.197958,50.059363]]]}},{"type":"Feature","id":"w722145772","properties":{"type":"greenhouse","residential":false,"residents_est":0,"h3_10":"8a1e2e6f16f7fff","h3_11":"8b1e2e6f16f3fff"},"geometry":{"type":"Polygon","coordinates":[[[20.19622,50.053892],[20.196277,50.053883],[20.19632,50.054001],[20.196262,50.054009],[20.19622,50.053892]]]}},{"type":"Feature","id":"w722145773","properties":{"type":"greenhouse","residential":false,"residents_est":0,"h3_10":"8a1e2e6f16f7fff","h3_11":"8b1e2e6f16f3fff"},"geometry":{"type":"Polygon","coordinates":[[[20.196151,50.0539],[20.196207,50.053892],[20.196248,50.05401],[20.196192,50.054018],[20.196151,50.0539]]]}},{"type":"Feature","id":"w722145774","properties":{"type":"greenhouse","residential":false,"residents_est":0,"h3_10":"8a1e2e6f16f7fff","h3_11":"8b1e2e6f16f3fff"},"geometry":{"type":"Polygon","coordinates":[[[20.196077,50.053915],[20.196137,50.053905],[20.196183,50.05402],[20.196122,50.05403],[20.196077,50.053915]]]}},{"type":"Feature","id":"w722145775","properties":{"type":"greenhouse","residential":false,"residents_est":0,"h3_10":"8a1e2e6f16f7fff","h3_11":"8b1e2e6f16f3fff"},"geometry":{"type":"Polygon","coordinates":[[[20.196126,50.054047],[20.196305,50.054025],[20.196313,50.054051],[20.196133,50.054074],[20.196126,50.054047]]]}},{"type":"Feature","id":"w1047643345","properties":{"type":"outbuilding","levels":1.0,"residential":false,"residents_est":0,"h3_10":"8a1e2e6f17affff","h3_11":"8b1e2e6f17a9fff"},"geometry":{"type":"Polygon","coordinates":[[[20.192104,50.057199],[20.192146,50.057135],[20.192219,50.057155],[20.192177,50.057218],[20.192104,50.057199]]]}},{"type":"Feature","id":"w1047643352","properties":{"type":"detached","levels":2.0,"residential":true,"residents_est":13,"h3_10":"8a1e2e6f166ffff","h3_11":"8b1e2e6f166dfff"},"geometry":{"type":"Polygon","coordinates":[[[20.201635,50.057641],[20.201637,50.057537],[20.201796,50.057538],[20.201794,50.057642],[20.201635,50.057641]]]}},{"type":"Feature","id":"w1047643353","properties":{"type":"yes","levels":2.0,"address":"Drożyska 26D","residential":true,"residents_est":5,"h3_10":"8a1e2e6f162ffff","h3_11":"8b1e2e6f162afff"},"geometry":{"type":"Polygon","coordinates":[[[20.195977,50.056984],[20.19598,50.056871],[20.196095,50.056873],[20.196092,50.056986],[20.195977,50.056984]]]}},{"type":"Feature","id":"w1047643358","properties":{"type":"detached","levels":2.0,"residential":true,"residents_est":15,"h3_10":"8a1e2e6f1607fff","h3_11":"8b1e2e6f1600fff"},"geometry":{"type":"Polygon","coordinates":[[[20.195135,50.056423],[20.195137,50.056382],[20.195153,50.056382],[20.195155,50.056346],[20.195139,50.056346],[20.195141,50.05631],[20.195242,50.056312],[20.195242,50.056323],[20.19529,50.056325],[20.195288,50.056367],[20.195341,50.056368],[20.195337,50.056428],[20.195135,50.056423]]]}},{"type":"Feature","id":"w1213847200","properties":{"type":"yes","residential":true,"residents_est":6,"h3_10":"8a1e2e6f1797fff","h3_11":"8b1e2e6f1793fff"},"geometry":{"type":"Polygon","coordinates":[[[20.188694,50.055446],[20.188702,50.055328],[20.188833,50.055332],[20.188825,50.05545],[20.188694,50.055446]]]}},{"type":"Feature","id":"w1213847211","properties":{"type":"yes","residential":true,"residents_est":12,"h3_10":"8a1e2e6f1607fff","h3_11":"8b1e2e6f1604fff"},"geometry":{"type":"Polygon","coordinates":[[[20.194641,50.056875],[20.194648,50.056725],[20.194729,50.056726],[20.19473,50.056708],[20.194838,50.05671],[20.194829,50.056879],[20.194641,50.056875]]]}}]}