{"type":"FeatureCollection","features":[{"type":"Feature","id":"w233371753","properties":{"type":"yes","address":"Stefana Starzyńskiego 14","residential":true,"residents_est":5,"h3_10":"8a1e05b4b767fff","h3_11":"8b1e05b4b762fff"},"geometry":{"type":"Polygon","coordinates":[[[19.865439,50.004821],[19.86544,50.004721],[19.865532,50.004722],[19.865527,50.004772],[19.865593,50.004773],[19.865592,50.004817],[19.865439,50.004821]]]}},{"type":"Feature","id":"w233372544","properties":{"type":"house","address":"Księdza Jakuba Wujka 29","residential":true,"residents_est":12,"h3_10":"8a1e05b4b727fff","h3_11":"8b1e05b4b722fff"},"geometry":{"type":"Polygon","coordinates":[[[19.860658,50.004652],[19.860676,50.004592],[19.860698,50.004595],[19.860707,50.004566],[19.860727,50.004569],[19.860736,50.004539],[19.860804,50.004547],[19.860795,50.004578],[19.860848,50.004585],[19.860828,50.004653],[19.860725,50.00464],[19.860719,50.00466],[19.860658,50.004652]]]}},{"type":"Feature","id":"w233372799","properties":{"type":"yes","residential":true,"residents_est":55,"h3_10":"8a1e05b4b6a7fff","h3_11":"8b1e05b4b6a2fff"},"geometry":{"type":"Polygon","coordinates":[[[19.860112,49.999684],[19.860153,49.99962],[19.860115,49.999588],[19.8602,49.999548],[19.86026,49.999456],[19.860494,49.999519],[19.860517,49.999554],[19.860489,49.999599],[19.860414,49.999579],[19.860407,49.999589],[19.860482,49.99961],[19.860427,49.999695],[19.860337,49.999671],[19.860328,49.99966],[19.860293,49.999676],[19.860262,49.999725],[19.860112,49.999684]]]}},{"type":"Feature","id":"w233372887","properties":{"type":"yes","address":"Jana Chryzostoma Paska 19","residential":true,"residents_est":7,"h3_10":"8a1e05b4b727fff","h3_11":"8b1e05b4b725fff"},"geometry":{"type":"Polygon","coordinates":[[[19.861,50.005479],[19.861003,50.005399],[19.861054,50.0054],[19.861062,50.005394],[19.861142,50.005397],[19.861143,50.00541],[19.861183,50.005411],[19.861181,50.005448],[19.861186,50.005456],[19.861179,50.005508],[19.86105,50.005506],[19.861051,50.00548],[19.861,50.005479]]]}},{"type":"Feature","id":"w233373078","properties":{"type":"yes","address":"Skotnicka 272","name":"Hotel Junior","residential":true,"residents_est":110,"h3_10":"8a1e05b4b6b7fff","h3_11":"8b1e05b4b6b5fff"},"geometry":{"type":"Polygon","coordinates":[[[19.859212,49.999466],[19.859308,49.999313],[19.859439,49.999347],[19.859342,49.999499],[19.859292,49.999486],[19.859279,49.999506],[19.859327,49.999566],[19.85938,49.99958],[19.859408,49.999535],[19.859658,49.9996],[19.85969,49.999588],[19.859699,49.99959],[19.859723,49.99955],[19.859891,49.999594],[19.859786,49.999761],[19.859692,49.999737],[19.859593,49.999896],[19.859554,49.999895],[19.859425,49.999862],[19.859529,49.999694],[19.859339,49.999645],[19.859368,49.999598],[19.859293,49.999578],[19.859263,49.999586],[19.859232,49.999545],[19.859264,49.999535],[19.859244,49.999507],[19.859262,49.999479],[19.859212,49.999466]]]}},{"type":"Feature","id":"w233373165","properties":{"type":"detached","address":"Księdza Jakuba Wujka 19","residential":true,"residents_est":12,"h3_10":"8a1e05b4b72ffff","h3_11":"8b1e05b4b72efff"},"geometry":{"type":"Polygon","coordinates":[[[19.861987,50.004898],[19.862026,50.00481],[19.862182,50.00484],[19.862143,50.004927],[19.861987,50.004898]]]}},{"type":"Feature","id":"w233373207","properties":{"type":"house","address":"Księdza Jakuba Wujka 9","residential":true,"residents_est":7,"h3_10":"8a1e05b4b72ffff","h3_11":"8b1e05b4b72dfff"},"geometry":{"type":"Polygon","coordinates":[[[19.863342,50.005117],[19.863347,50.005049],[19.863477,50.005053],[19.863473,50.00512],[19.863342,50.005117]]]}},{"type":"Feature","id":"w233373365","properties":{"type":"yes","residential":true,"residents_est":6,"h3_10":"8a1e05b4b767fff","h3_11":"8b1e05b4b766fff"},"geometry":{"type":"Polygon","coordinates":[[[19.865412,50.005001],[19.865548,50.005],[19.86555,50.0051],[19.865414,50.005102],[19.865412,50.005001]]]}},{"type":"Feature","id":"w233373562","properties":{"type":"house","address":"Księdza Jakuba Wujka 11","residential":true,"residents_est":10,"h3_10":"8a1e05b4b72ffff","h3_11":"8b1e05b4b72dfff"},"geometry":{"type":"Polygon","coordinates":[[[19.863064,50.005119],[19.863079,50.005021],[19.863218,50.00503],[19.863204,50.00511],[19.863135,50.005105],[19.863132,50.005123],[19.863064,50.005119]]]}},{"type":"Feature","id":"w233373631","properties":{"type":"detached","address":"Księdza Jakuba Wujka 23","residential":true,"residents_est":14,"h3_10":"8a1e05b4b727fff","h3_11":"8b1e05b4b723fff"},"geometry":{"type":"Polygon","coordinates":[[[19.86144,50.004797],[19.861467,50.004737],[19.861497,50.004742],[19.86151,50.004714],[19.861656,50.004741],[19.861618,50.004829],[19.86144,50.004797]]]}},{"type":"Feature","id":"w233373709","properties":{"type":"house","address":"Księdza Jakuba Wujka 33","residential":true,"residents_est":8,"h3_10":"8a1e05b4b737fff","h3_11":"8b1e05b4b735fff"},"geometry":{"type":"Polygon","coordinates":[[[19.85989,50.004568],[19.859967,50.004555],[19.860013,50.004679],[19.859938,50.004691],[19.85989,50.004568]]]}},{"type":"Feature","id":"w233373716","properties":{"type":"yes","residential":false,"residents_est":0,"h3_10":"8a1e05b4b72ffff","h3_11":"8b1e05b4b72efff"},"geometry":{"type":"Polygon","coordinates":[[[19.862004,50.004748],[19.862022,50.004689],[19.862096,50.004698],[19.862075,50.004758],[19.862004,50.004748]]]}},{"type":"Feature","id":"w233373744","properties":{"type":"house","address":"Księdza Jakuba Wujka 13","residential":true,"residents_est":8,"h3_10":"8a1e05b4b72ffff","h3_11":"8b1e05b4b72dfff"},"geometry":{"type":"Polygon","coordinates":[[[19.862753,50.005031],[19.862776,50.00495],[19.862885,50.004965],[19.862873,50.005006],[19.862906,50.00501],[19.8629,50.005031],[19.862868,50.005028],[19.862863,50.005044],[19.862753,50.005031]]]}},{"type":"Feature","id":"w233373800","properties":{"type":"garage","residential":false,"residents_est":0,"h3_10":"8a1e05b4b727fff","h3_11":"8b1e05b4b722fff"},"geometry":{"type":"Polygon","coordinates":[[[19.860589,50.004644],[19.860608,50.004585],[19.860676,50.004594],[19.860658,50.004652],[19.860589,50.004644]]]}},{"type":"Feature","id":"w233373826","properties":{"type":"yes","address":"Harcmistrza Stanisława Orszy-Broniewskiego 9","residential":true,"residents_est":5,"h3_10":"8a1e05b4b767fff","h3_11":"8b1e05b4b766fff"},"geometry":{"type":"Polygon","coordinates":[[[19.865119,50.004927],[19.865251,50.004927],[19.865252,50.005013],[19.865119,50.005013],[19.865119,50.004927]]]}},{"type":"Feature","id":"w233373876","properties":{"type":"yes","residential":false,"residents_est":0,"h3_10":"8a1e05b4b72ffff","h3_11":"8b1e05b4b72efff"},"geometry":{"type":"Polygon","coordinates":[[[19.862042,50.004625],[19.862059,50.004572],[19.862133,50.004581],[19.862116,50.004635],[19.862042,50.004625]]]}},{"type":"Feature","id":"w233374108","properties":{"type":"yes","residential":true,"residents_est":5,"h3_10":"8a1e05b4b727fff","h3_11":"8b1e05b4b721fff"},"geometry":{"type":"Polygon","coordinates":[[[19.861651,50.005271],[19.861655,50.005197],[19.861739,50.005199],[19.861735,50.005273],[19.861651,50.005271]]]}},{"type":"Feature","id":"w233374169","properties":{"type":"yes","residential":true,"residents_est":4,"h3_10":"8a1e05b4b737fff","h3_11":"8b1e05b4b735fff"},"geometry":{"type":"Polygon","coordinates":[[[19.859761,50.004454],[19.859937,50.004419],[19.85996,50.004466],[19.859784,50.004502],[19.859761,50.004454]]]}},{"type":"Feature","id":"w233374191","properties":{"type":"house","address":"Księdza Jakuba Wujka 15","residential":true,"residents_est":9,"h3_10":"8a1e05b4b72ffff","h3_11":"8b1e05b4b72cfff"},"geometry":{"type":"Polygon","coordinates":[[[19.862626,50.005015],[19.862652,50.004934],[19.862776,50.00495],[19.862752,50.005031],[19.862705,50.005026],[19.862701,50.005036],[19.862663,50.005031],[19.862666,50.00502],[19.862626,50.005015]]]}},{"type":"Feature","id":"w233374560","properties":{"type":"yes","residential":false,"residents_est":0,"h3_10":"8a1e05b4b727fff","h3_11":"8b1e05b4b724fff"},"geometry":{"type":"Polygon","coordinates":[[[19.860678,50.005371],[19.86068,50.005294],[19.860734,50.005295],[19.860733,50.005372],[19.860678,50.005371]]]}},{"type":"Feature","id":"w233374649","properties":{"type":"yes","residential":false,"residents_est":0,"h3_10":"8a1e05b4b72ffff","h3_11":"8b1e05b4b72efff"},"geometry":{"type":"Polygon","coordinates":[[[19.862022,50.004689],[19.862042,50.004625],[19.862116,50.004635],[19.862096,50.004698],[19.862022,50.004689]]]}},{"type":"Feature","id":"w233374670","properties":{"type":"detached","address":"Księdza Jakuba Wujka 17","residential":true,"residents_est":13,"h3_10":"8a1e05b4b72ffff","h3_11":"8b1e05b4b72cfff"},"geometry":{"type":"Polygon","coordinates":[[[19.862261,50.004948],[19.8623,50.004862],[19.86245,50.004888],[19.862433,50.00493],[19.862451,50.004934],[19.862433,50.004979],[19.862261,50.004948]]]}},{"type":"Feature","id":"w233374964","properties":{"type":"yes","address":"Jana Chryzostoma Paska 23","residential":true,"residents_est":7,"h3_10":"8a1e05b4b727fff","h3_11":"8b1e05b4b724fff"},"geometry":{"type":"Polygon","coordinates":[[[19.860429,50.00552],[19.860433,50.005428],[19.860592,50.005431],[19.860585,50.005524],[19.86051,50.005522],[19.860509,50.005542],[19.860442,50.005541],[19.860442,50.00552],[19.860429,50.00552]]]}},{"type":"Feature","id":"w233374993","properties":{"type":"commercial","address":"Skotnicka 230","name":"Agencja Ochrony Osób i Mienia \"JUSTUS\"","residential":false,"residents_est":0,"h3_10":"8a1e05b4b667fff","h3_11":"8b1e05b4b664fff"},"geometry":{"type":"Polygon","coordinates":[[[19.867932,50.002702],[19.868318,50.002702],[19.868317,50.00284],[19.867933,50.00284],[19.867932,50.002702]]]}},{"type":"Feature","id":"w233375019","properties":{"type":"yes","residential":false,"residents_est":0,"h3_10":"8a1e05b4b767fff","h3_11":"8b1e05b4b764fff"},"geometry":{"type":"Polygon","coordinates":[[[19.865504,50.005589],[19.865602,50.005588],[19.865606,50.005628],[19.865506,50.005631],[19.865504,50.005589]]]}},{"type":"Feature","id":"w233375195","properties":{"type":"detached","address":"Księdza Jakuba Wujka 21","residential":true,"residents_est":12,"h3_10":"8a1e05b4b72ffff","h3_11":"8b1e05b4b72efff"},"geometry":{"type":"Polygon","coordinates":[[[19.861744,50.004857],[19.861778,50.004774],[19.861935,50.0048],[19.8619,50.004884],[19.861744,50.004857]]]}},{"type":"Feature","id":"w233375301","properties":{"type":"yes","residential":true,"residents_est":7,"h3_10":"8a1e05b4b6a7fff","h3_11":"8b1e05b4b6a6fff"},"geometry":{"type":"Polygon","coordinates":[[[19.859917,49.999835],[19.85997,49.99975],[19.860127,49.999789],[19.860074,49.999876],[19.859917,49.999835]]]}},{"type":"Feature","id":"w233375707","properties":{"type":"yes","address":"Jana Chryzostoma Paska 21","residential":true,"residents_est":7,"h3_10":"8a1e05b4b727fff","h3_11":"8b1e05b4b724fff"},"geometry":{"type":"Polygon","coordinates":[[[19.860758,50.005539],[19.860761,50.005403],[19.860892,50.005404],[19.860887,50.005518],[19.86083,50.005517],[19.860829,50.00554],[19.860758,50.005539]]]}},{"type":"Feature","id":"w233376261","properties":{"type":"detached","address":"Księdza Jakuba Wujka 27","residential":true,"residents_est":14,"h3_10":"8a1e05b4b727fff","h3_11":"8b1e05b4b723fff"},"geometry":{"type":"Polygon","coordinates":[[[19.860918,50.004688],[19.860952,50.004586],[19.861073,50.004603],[19.861063,50.004633],[19.861107,50.004639],[19.861083,50.004711],[19.860918,50.004688]]]}},{"type":"Feature","id":"w233376273","properties":{"type":"yes","address":"Harcmistrza Stanisława Orszy-Broniewskiego 5","residential":true,"residents_est":6,"h3_10":"8a1e05b4b767fff","h3_11":"8b1e05b4b764fff"},"geometry":{"type":"Polygon","coordinates":[[[19.865235,50.00551],[19.865373,50.005494],[19.865404,50.0056],[19.865266,50.005616],[19.865235,50.00551]]]}},{"type":"Feature","id":"w233376323","properties":{"type":"detached","address":"Księdza Jakuba Wujka 25","residential":true,"residents_est":10,"h3_10":"8a1e05b4b727fff","h3_11":"8b1e05b4b723fff"},"geometry":{"type":"Polygon","coordinates":[[[19.861185,50.004749],[19.86121,50.004663],[19.861335,50.004679],[19.86131,50.004764],[19.861185,50.004749]]]}},{"type":"Feature","id":"w233376389","properties":{"type":"yes","residential":false,"residents_est":0,"h3_10":"8a1e05b4b727fff","h3_11":"8b1e05b4b723fff"},"geometry":{"type":"Polygon","coordinates":[[[19.861321,50.004729],[19.861335,50.004679],[19.861324,50.004677],[19.86133,50.004657],[19.861405,50.004666],[19.861384,50.004737],[19.861321,50.004729]]]}},{"type":"Feature","id":"w233377275","properties":{"type":"yes","address":"Stefana Starzyńskiego 12","residential":true,"residents_est":6,"h3_10":"8a1e05b4b767fff","h3_11":"8b1e05b4b763fff"},"geometry":{"type":"Polygon","coordinates":[[[19.865892,50.004777],[19.865902,50.004682],[19.866038,50.004688],[19.866032,50.004781],[19.86598,50.00478],[19.865978,50.004795],[19.865937,50.004794],[19.865939,50.004779],[19.865892,50.004777]]]}},{"type":"Feature","id":"w233377526","properties":{"type":"yes","address":"Jana Chryzostoma Paska 17","residential":true,"residents_est":6,"h3_10":"8a1e05b4b727fff","h3_11":"8b1e05b4b725fff"},"geometry":{"type":"Polygon","coordinates":[[[19.861348,50.005536],[19.86135,50.005472],[19.861399,50.005473],[19.861401,50.005453],[19.861521,50.005454],[19.861515,50.005543],[19.861348,50.005536]]]}},{"type":"Feature","id":"w233377788","properties":{"type":"yes","address":"Harcmistrza Stanisława Orszy-Broniewskiego 7","residential":true,"residents_est":5,"h3_10":"8a1e05b4b767fff","h3_11":"8b1e05b4b766fff"},"geometry":{"type":"Polygon","coordinates":[[[19.865228,50.005264],[19.865288,50.005263],[19.865286,50.005236],[19.865381,50.005234],[19.865385,50.005316],[19.86523,50.005317],[19.865228,50.005264]]]}},{"type":"Feature","id":"w250770917","properties":{"type":"yes","residential":true,"residents_est":34,"h3_10":"8a1e05b4b76ffff","h3_11":"8b1e05b4b76cfff"},"geometry":{"type":"Polygon","coordinates":[[[19.866941,50.005261],[19.86722,50.00517],[19.867229,50.005152],[19.867399,50.005105],[19.867421,50.005111],[19.867466,50.005179],[19.866981,50.005321],[19.866941,50.005261]]]}},{"type":"Feature","id":"w297100718","properties":{"type":"yes","residential":true,"residents_est":5,"h3_10":"8a1e05b4b6f7fff","h3_11":"8b1e05b4b6f4fff"},"geometry":{"type":"Polygon","coordinates":[[[19.863743,49.999639],[19.863797,49.999563],[19.863926,49.999601],[19.863872,49.999677],[19.863743,49.999639]]]}},{"type":"Feature","id":"w334710135","properties":{"type":"yes","name":"Marka Sp. z o.o","residential":true,"residents_est":112,"h3_10":"8a1e05b4b66ffff","h3_11":"8b1e05b4b66efff"},"geometry":{"type":"Polygon","coordinates":[[[19.868757,50.002257],[19.868941,50.002067],[19.869444,50.002271],[19.869259,50.00246],[19.868757,50.002257]]]}},{"type":"Feature","id":"w334710142","properties":{"type":"yes","residential":true,"residents_est":49,"h3_10":"8a1e05b4b66ffff","h3_11":"8b1e05b4b66efff"},"geometry":{"type":"Polygon","coordinates":[[[19.869232,50.00204],[19.86931,50.00196],[19.869827,50.002167],[19.869749,50.002248],[19.869232,50.00204]]]}},{"type":"Feature","id":"w407388315","properties":{"type":"house","residential":true,"residents_est":10,"h3_10":"8a1e05b4b6cffff","h3_11":"8b1e05b4b6cdfff"},"geometry":{"type":"Polygon","coordinates":[[[19.868061,49.998868],[19.868193,49.998865],[19.868197,49.998952],[19.868118,49.998953],[19.868119,49.99897],[19.868067,49.998972],[19.868061,49.998868]]]}},{"type":"Feature","id":"w407388316","properties":{"type":"office","address":"Księdza Franciszka Trockiego 22","residential":false,"residents_est":0,"h3_10":"8a1e05b4b6effff","h3_11":"8b1e05b4b6e8fff"},"geometry":{"type":"Polygon","coordinates":[[[19.867476,49.999442],[19.86748,49.999418],[19.867497,49.9994],[19.867585,49.999362],[19.867611,49.999386],[19.867673,49.99936],[19.867737,49.999431],[19.867485,49.999538],[19.867476,49.999442]]]}},{"type":"Feature","id":"w423864384","properties":{"type":"house","residential":true,"residents_est":18,"h3_10":"8a1e05b4b6cffff","h3_11":"8b1e05b4b6ccfff"},"geometry":{"type":"Polygon","coordinates":[[[19.867488,49.998723],[19.8675,49.998702],[19.867538,49.998701],[19.867554,49.998677],[19.867562,49.998677],[19.867562,49.998667],[19.867631,49.998665],[19.867632,49.998675],[19.867681,49.998674],[19.867684,49.998712],[19.867676,49.998712],[19.867677,49.998731],[19.867685,49.998731],[19.867687,49.998769],[19.867672,49.998769],[19.867674,49.998804],[19.867537,49.998808],[19.867535,49.998773],[19.867518,49.998773],[19.867517,49.99875],[19.867503,49.99875],[19.867488,49.998723]]]}},{"type":"Feature","id":"w423867090","properties":{"type":"roof","residential":false,"residents_est":0,"h3_10":"8a1e05b4b607fff","h3_11":"8b1e05b4b603fff"},"geometry":{"type":"Polygon","coordinates":[[[19.863889,50.000751],[19.86419,50.000749],[19.864192,50.000821],[19.86402,50.000823],[19.864023,50.00097],[19.863952,50.000969],[19.863949,50.000826],[19.86389,50.000827],[19.863889,50.000751]]]}},{"type":"Feature","id":"w423867091","properties":{"type":"yes","residential":false,"residents_est":0,"h3_10":"8a1e05b4b61ffff","h3_11":"8b1e05b4b618fff"},"geometry":{"type":"Polygon","coordinates":[[[19.86378,50.000191],[19.863868,50.000191],[19.863869,50.000384],[19.863782,50.000385],[19.86378,50.000191]]]}},{"type":"Feature","id":"w423867092","properties":{"type":"yes","address":"Skotnicka 242","name":"Orlen","residential":true,"residents_est":28,"h3_10":"8a1e05b4b607fff","h3_11":"8b1e05b4b603fff"},"geometry":{"type":"Polygon","coordinates":[[[19.863792,50.001058],[19.863794,50.000968],[19.86417,50.000971],[19.864168,50.00106],[19.863792,50.001058]]]}},{"type":"Feature","id":"w500773872","properties":{"type":"yes","residential":true,"residents_est":4,"h3_10":"8a1e05b4b667fff","h3_11":"8b1e05b4b661fff"},"geometry":{"type":"Polygon","coordinates":[[[19.869085,50.002536],[19.869181,50.002522],[19.869213,50.002611],[19.869116,50.002625],[19.869085,50.002536]]]}},{"type":"Feature","id":"w574173892","properties":{"type":"hospital","levels":3.0,"address":"Skotnicka 230 A","name":"Szpital Św. Róży","residential":false,"residents_est":0,"h3_10":"8a1e05b4b677fff","h3_11":"8b1e05b4b675fff"},"geometry":{"type":"Polygon","coordinates":[[[19.867065,50.001998],[19.867281,50.001991],[19.867317,50.002464],[19.867101,50.002471],[19.867065,50.001998]]]}},{"type":"Feature","id":"w702673997","properties":{"type":"yes","residential":false,"residents_est":0,"h3_10":"8a1e05b4b737fff","h3_11":"8b1e05b4b735fff"},"geometry":{"type":"Polygon","coordinates":[[[19.859774,50.004721],[19.859821,50.004713],[19.859839,50.004761],[19.859793,50.004768],[19.859774,50.004721]]]}},{"type":"Feature","id":"w702673998","properties":{"type":"yes","residential":true,"residents_est":3,"h3_10":"8a1e05b4b737fff","h3_11":"8b1e05b4b735fff"},"geometry":{"type":"Polygon","coordinates":[[[19.859828,50.004615],[19.859903,50.004602],[19.859938,50.004691],[19.859861,50.004703],[19.859828,50.004615]]]}},{"type":"Feature","id":"w702673999","properties":{"type":"yes","residential":false,"residents_est":0,"h3_10":"8a1e05b4b727fff","h3_11":"8b1e05b4b723fff"},"geometry":{"type":"Polygon","coordinates":[[[19.86124,50.004574],[19.861257,50.004516],[19.861328,50.004524],[19.861311,50.004582],[19.86124,50.004574]]]}},{"type":"Feature","id":"w702674002","properties":{"type":"yes","residential":false,"residents_est":0,"h3_10":"8a1e05b4b727fff","h3_11":"8b1e05b4b726fff"},"geometry":{"type":"Polygon","coordinates":[[[19.860365,50.005266],[19.860368,50.005204],[19.86043,50.005205],[19.860426,50.005268],[19.860365,50.005266]]]}},{"type":"Feature","id":"w702674003","properties":{"type":"yes","residential":true,"residents_est":6,"h3_10":"8a1e05b4b727fff","h3_11":"8b1e05b4b726fff"},"geometry":{"type":"Polygon","coordinates":[[[19.860433,50.005099],[19.860437,50.005017],[19.860594,50.00502],[19.86059,50.005102],[19.860482,50.005106],[19.860481,50.0051],[19.860433,50.005099]]]}},{"type":"Feature","id":"w702674008","properties":{"type":"yes","residential":false,"residents_est":0,"h3_10":"8a1e05b4b767fff","h3_11":"8b1e05b4b764fff"},"geometry":{"type":"Polygon","coordinates":[[[19.865435,50.005483],[19.865439,50.00545],[19.865506,50.005453],[19.865501,50.005486],[19.865435,50.005483]]]}},{"type":"Feature","id":"w702674013","properties":{"type":"yes","residential":false,"residents_est":0,"h3_10":"8a1e05b4b72ffff","h3_11":"8b1e05b4b728fff"},"geometry":{"type":"Polygon","coordinates":[[[19.862529,50.004901],[19.862543,50.004847],[19.862591,50.004854],[19.862579,50.004906],[19.862529,50.004901]]]}},{"type":"Feature","id":"w702790602","properties":{"type":"yes","residential":true,"residents_est":6,"h3_10":"8a1e05b4b6cffff","h3_11":"8b1e05b4b6c8fff"},"geometry":{"type":"Polygon","coordinates":[[[19.867566,49.998478],[19.867686,49.998475],[19.867699,49.998587],[19.867573,49.99859],[19.867566,49.998478]]]}},{"type":"Feature","id":"w702790603","properties":{"type":"yes","residential":true,"residents_est":7,"h3_10":"8a1e05b4b6cffff","h3_11":"8b1e05b4b6c9fff"},"geometry":{"type":"Polygon","coordinates":[[[19.868426,49.998641],[19.868605,49.998633],[19.868607,49.998653],[19.86865,49.998652],[19.868654,49.998718],[19.868595,49.99872],[19.868594,49.998711],[19.868556,49.998712],[19.868557,49.99872],[19.868431,49.99872],[19.868426,49.998641]]]}},{"type":"Feature","id":"w702790604","properties":{"type":"yes","residential":true,"residents_est":6,"h3_10":"8a1e05b4b6effff","h3_11":"8b1e05b4b6ebfff"},"geometry":{"type":"Polygon","coordinates":[[[19.867909,49.999124],[19.868036,49.999121],[19.868044,49.999257],[19.867991,49.999258],[19.867989,49.999226],[19.867916,49.999228],[19.867909,49.999124]]]}},{"type":"Feature","id":"w702790605","properties":{"type":"yes","residential":true,"residents_est":7,"h3_10":"8a1e05b4b6effff","h3_11":"8b1e05b4b6ebfff"},"geometry":{"type":"Polygon","coordinates":[[[19.868036,49.999121],[19.868163,49.999118],[19.868169,49.999222],[19.868096,49.999224],[19.868098,49.999255],[19.868044,49.999257],[19.868036,49.999121]]]}},{"type":"Feature","id":"w705126324","properties":{"type":"yes","residential":false,"residents_est":0,"h3_10":"8a1e05b4b66ffff","h3_11":"8b1e05b4b66cfff"},"geometry":{"type":"Polygon","coordinates":[[[19.869804,50.002698],[19.869856,50.002693],[19.86986,50.002752],[19.869809,50.002755],[19.869804,50.002698]]]}},{"type":"Feature","id":"w705126328","properties":{"type":"commercial","address":"Skotnicka 232","residential":false,"residents_est":0,"h3_10":"8a1e05b4b667fff","h3_11":"8b1e05b4b662fff"},"geometry":{"type":"Polygon","coordinates":[[[19.867552,50.00225],[19.867871,50.002249],[19.867872,50.002273],[19.867958,50.002273],[19.867958,50.002294],[19.868051,50.002403],[19.868027,50.002429],[19.867553,50.002429],[19.867552,50.00225]]]}},{"type":"Feature","id":"w705126329","properties":{"type":"garage","name":"Chyżbet skład","residential":false,"residents_est":0,"h3_10":"8a1e05b4b74ffff","h3_11":"8b1e05b4b74bfff"},"geometry":{"type":"Polygon","coordinates":[[[19.86828,50.003218],[19.868365,50.003217],[19.868377,50.003375],[19.86829,50.003377],[19.86828,50.003218]]]}},{"type":"Feature","id":"w705389293","properties":{"type":"yes","residential":false,"residents_est":0,"h3_10":"8a1e05b4b767fff","h3_11":"8b1e05b4b764fff"},"geometry":{"type":"Polygon","coordinates":[[[19.865591,50.005305],[19.865653,50.005304],[19.865656,50.005334],[19.865593,50.005336],[19.865591,50.005305]]]}},{"type":"Feature","id":"w705389295","properties":{"type":"yes","residential":false,"residents_est":0,"h3_10":"8a1e05b4b767fff","h3_11":"8b1e05b4b762fff"},"geometry":{"type":"Polygon","coordinates":[[[19.865782,50.004773],[19.865784,50.004732],[19.865848,50.004733],[19.865845,50.004775],[19.865782,50.004773]]]}},{"type":"Feature","id":"w705389296","properties":{"type":"yes","residential":true,"residents_est":2,"h3_10":"8a1e05b4b767fff","h3_11":"8b1e05b4b762fff"},"geometry":{"type":"Polygon","coordinates":[[[19.865566,50.004907],[19.86557,50.004848],[19.865662,50.004851],[19.865658,50.004909],[19.865566,50.004907]]]}},{"type":"Feature","id":"w705389297","properties":{"type":"yes","residential":false,"residents_est":0,"h3_10":"8a1e05b4b777fff","h3_11":"8b1e05b4b775fff"},"geometry":{"type":"Polygon","coordinates":[[[19.864651,50.004851],[19.864652,50.004815],[19.864723,50.004815],[19.864722,50.004851],[19.864651,50.004851]]]}},{"type":"Feature","id":"w705389299","properties":{"type":"yes","residential":false,"residents_est":0,"h3_10":"8a1e05b4b777fff","h3_11":"8b1e05b4b774fff"},"geometry":{"type":"Polygon","coordinates":[[[19.864421,50.004846],[19.864422,50.004804],[19.864509,50.004811],[19.864508,50.004847],[19.864421,50.004846]]]}},{"type":"Feature","id":"w705389301","properties":{"type":"yes","residential":true,"residents_est":7,"h3_10":"8a1e05b4b72ffff","h3_11":"8b1e05b4b729fff"},"geometry":{"type":"Polygon","coordinates":[[[19.863155,50.004807],[19.863187,50.004709],[19.863229,50.004715],[19.863234,50.004702],[19.863311,50.004713],[19.863307,50.004726],[19.86335,50.004732],[19.863317,50.004829],[19.863155,50.004807]]]}},{"type":"Feature","id":"w705389302","properties":{"type":"yes","residential":false,"residents_est":0,"h3_10":"8a1e05b4b727fff","h3_11":"8b1e05b4b721fff"},"geometry":{"type":"Polygon","coordinates":[[[19.86152,50.005202],[19.861522,50.005159],[19.861576,50.00516],[19.861574,50.005203],[19.86152,50.005202]]]}},{"type":"Feature","id":"w705389316","properties":{"type":"industrial","address":"Skotnicka 250","name":"Grupa DBK","residential":false,"residents_est":0,"h3_10":"8a1e05b4b617fff","h3_11":"8b1e05b4b616fff"},"geometry":{"type":"Polygon","coordinates":[[[19.8611,50.000584],[19.861148,50.000327],[19.861904,50.000386],[19.861856,50.000642],[19.8611,50.000584]]]}},{"type":"Feature","id":"w705389317","properties":{"type":"yes","residential":false,"residents_est":0,"h3_10":"8a1e05b4b61ffff","h3_11":"8b1e05b4b618fff"},"geometry":{"type":"Polygon","coordinates":[[[19.863782,50.000303],[19.863783,50.000279],[19.863868,50.00028],[19.863868,50.000304],[19.863782,50.000303]]]}},{"type":"Feature","id":"w705389318","properties":{"type":"yes","residential":true,"residents_est":4,"h3_10":"8a1e05b4b61ffff","h3_11":"8b1e05b4b618fff"},"geometry":{"type":"Polygon","coordinates":[[[19.863778,50.000392],[19.863942,50.000391],[19.863943,50.000455],[19.863822,50.000456],[19.863821,50.000438],[19.863779,50.000438],[19.863778,50.000392]]]}},{"type":"Feature","id":"w759381636","properties":{"type":"yes","address":"Skotnicka 240","residential":true,"residents_est":87,"h3_10":"8a1e05b4b61ffff","h3_11":"8b1e05b4b619fff"},"geometry":{"type":"Polygon","coordinates":[[[19.864304,50.00064],[19.864308,50.000343],[19.864549,50.000344],[19.864677,50.000377],[19.864676,50.000424],[19.864655,50.000424],[19.864651,50.000642],[19.864304,50.00064]]]}},{"type":"Feature","id":"w875911979","properties":{"type":"commercial","name":"\"JUSTUS\" - Dział Techniczny","residential":false,"residents_est":0,"h3_10":"8a1e05b4b74ffff","h3_11":"8b1e05b4b74cfff"},"geometry":{"type":"Polygon","coordinates":[[[19.867869,50.003939],[19.867917,50.003929],[19.86791,50.003917],[19.867967,50.003903],[19.867973,50.003915],[19.867997,50.00391],[19.868042,50.003992],[19.867993,50.004003],[19.867999,50.004016],[19.867939,50.004029],[19.867932,50.004016],[19.867912,50.00402],[19.867869,50.003939]]]}},{"type":"Feature","id":"w875911980","properties":{"type":"commercial","address":"Stefana Starzyńskiego 3","name":"\"JUSTUS\" - Dział Techniczny","residential":false,"residents_est":0,"h3_10":"8a1e05b4b74ffff","h3_11":"8b1e05b4b74dfff"},"geometry":{"type":"Polygon","coordinates":[[[19.867997,50.00391],[19.868019,50.003905],[19.868013,50.003893],[19.868071,50.00388],[19.868077,50.003893],[19.868127,50.003883],[19.86817,50.003963],[19.868151,50.003968],[19.868157,50.003981],[19.868097,50.003994],[19.868091,50.003981],[19.868042,50.003992],[19.867997,50.00391]]]}},{"type":"Feature","id":"w1039516864","properties":{"type":"yes","levels":2.0,"address":"Księdza Jakuba Wujka 37","residential":true,"residents_est":7,"h3_10":"8a1e05b4b737fff","h3_11":"8b1e05b4b734fff"},"geometry":{"type":"Polygon","coordinates":[[[19.859199,50.004677],[19.85933,50.004661],[19.859335,50.004678],[19.859385,50.004672],[19.859401,50.004728],[19.859351,50.004734],[19.859358,50.004758],[19.859227,50.004773],[19.859199,50.004677]]]}},{"type":"Feature","id":"w1039516906","properties":{"type":"detached","levels":2.0,"residential":true,"residents_est":8,"h3_10":"8a1e05b4b777fff","h3_11":"8b1e05b4b774fff"},"geometry":{"type":"Polygon","coordinates":[[[19.863971,50.004837],[19.863974,50.00475],[19.864083,50.004751],[19.86408,50.004838],[19.863971,50.004837]]]}},{"type":"Feature","id":"w1211793917","properties":{"type":"yes","address":"Skotnicka 232A","name":"Skotnicka24","residential":false,"residents_est":0,"h3_10":"8a1e05b4b667fff","h3_11":"8b1e05b4b660fff"},"geometry":{"type":"Polygon","coordinates":[[[19.867838,50.00261],[19.867839,50.002502],[19.86816,50.002504],[19.868264,50.002613],[19.867838,50.00261]]]}},{"type":"Feature","id":"w1211793921","properties":{"type":"yes","residential":true,"residents_est":5,"h3_10":"8a1e05b4b79ffff","h3_11":"8b1e05b4b79afff"},"geometry":{"type":"Polygon","coordinates":[[[19.858643,49.999814],[19.858706,49.999719],[19.858815,49.999748],[19.858752,49.999843],[19.858643,49.999814]]]}},{"type":"Feature","id":"w1427680798","properties":{"type":"yes","residential":true,"residents_est":37,"h3_10":"8a1e05b4b677fff","h3_11":"8b1e05b4b671fff"},"geometry":{"type":"Polygon","coordinates":[[[19.867503,50.001879],[19.867594,50.001877],[19.867682,50.001966],[19.867694,50.002148],[19.86752,50.002152],[19.867503,50.001879]]]}},{"type":"Feature","id":"w1427680799","properties":{"type":"construction","address":"Księdza Franciszka Trockiego 22A","residential":false,"residents_est":0,"h3_10":"8a1e05b4b6cffff","h3_11":"8b1e05b4b6ccfff"},"geometry":{"type":"Polygon","coordinates":[[[19.867439,49.998939],[19.867459,49.998939],[19.867457,49.998906],[19.867671,49.998901],[19.86768,49.999051],[19.867468,49.999056],[19.867466,49.999029],[19.867444,49.99903],[19.867439,49.998939]]]}},{"type":"Feature","id":"w1427680801","properties":{"type":"yes","residential":true,"residents_est":6,"h3_10":"8a1e05b4b777fff","h3_11":"8b1e05b4b770fff"},"geometry":{"type":"Polygon","coordinates":[[[19.864702,50.004361],[19.864842,50.004289],[19.864921,50.004353],[19.86478,50.004424],[19.864702,50.004361]]]}},{"type":"Feature","id":"w1427680804","properties":{"type":"construction","residential":false,"residents_est":0,"h3_10":"8a1e05b4b737fff","h3_11":"8b1e05b4b736fff"},"geometry":{"type":"Polygon","coordinates":[[[19.858723,50.004313],[19.858905,50.004283],[19.858931,50.004347],[19.858749,50.004377],[19.858723,50.004313]]]}}]}