{"type":"FeatureCollection","features":[{"type":"Feature","id":"w221339142","properties":{"type":"storage_tank","residential":false,"residents_est":0,"h3_10":"8a1e05b684cffff","h3_11":"8b1e05b684c8fff"},"geometry":{"type":"Polygon","coordinates":[[[19.821935,50.072636],[19.821951,50.072597],[19.821987,50.072563],[19.822038,50.072539],[19.822099,50.072528],[19.822162,50.07253],[19.822221,50.072547],[19.822263,50.072572],[19.822291,50.072604],[19.822302,50.072641],[19.822295,50.072677],[19.822271,50.072711],[19.822231,50.072738],[19.822181,50.072756],[19.822124,50.072763],[19.822067,50.072758],[19.822015,50.072742],[19.821969,50.072714],[19.821942,50.072677],[19.821935,50.072636]]]}},{"type":"Feature","id":"w232081702","properties":{"type":"yes","address":"Szaserów 15","residential":true,"residents_est":8,"h3_10":"8a1e05b6844ffff","h3_11":"8b1e05b68449fff"},"geometry":{"type":"Polygon","coordinates":[[[19.825468,50.075321],[19.825511,50.075277],[19.825496,50.075271],[19.825583,50.075183],[19.825689,50.075226],[19.82566,50.075256],[19.825671,50.075262],[19.825644,50.075289],[19.825633,50.075285],[19.825603,50.075314],[19.825594,50.075311],[19.825551,50.075354],[19.825468,50.075321]]]}},{"type":"Feature","id":"w232083116","properties":{"type":"yes","residential":true,"residents_est":10,"h3_10":"8a1e05b684d7fff","h3_11":"8b1e05b684d3fff"},"geometry":{"type":"Polygon","coordinates":[[[19.81927,50.071901],[19.819581,50.071867],[19.819602,50.071946],[19.819291,50.07198],[19.81927,50.071901]]]}},{"type":"Feature","id":"w232083405","properties":{"type":"yes","residential":true,"residents_est":2,"h3_10":"8a1e05b684d7fff","h3_11":"8b1e05b684d3fff"},"geometry":{"type":"Polygon","coordinates":[[[19.819319,50.07211],[19.819405,50.072102],[19.819417,50.072164],[19.819334,50.072172],[19.819319,50.07211]]]}},{"type":"Feature","id":"w288819804","properties":{"type":"storage_tank","residential":false,"residents_est":0,"h3_10":"8a1e05b684dffff","h3_11":"8b1e05b684d9fff"},"geometry":{"type":"Polygon","coordinates":[[[19.821186,50.07196],[19.821232,50.071906],[19.821324,50.07189],[19.821398,50.071914],[19.821431,50.071963],[19.821409,50.072014],[19.821314,50.072047],[19.821214,50.072019],[19.821186,50.07196]]]}},{"type":"Feature","id":"w288819805","properties":{"type":"storage_tank","residential":false,"residents_est":0,"h3_10":"8a1e05b684cffff","h3_11":"8b1e05b684cafff"},"geometry":{"type":"Polygon","coordinates":[[[19.821254,50.072254],[19.8213,50.0722],[19.821393,50.072183],[19.821466,50.072207],[19.8215,50.072256],[19.821478,50.072307],[19.821382,50.072341],[19.821282,50.072313],[19.821254,50.072254]]]}},{"type":"Feature","id":"w288820493","properties":{"type":"storage_tank","residential":false,"residents_est":0,"h3_10":"8a1e05b684dffff","h3_11":"8b1e05b684dbfff"},"geometry":{"type":"Polygon","coordinates":[[[19.821117,50.071669],[19.821121,50.071644],[19.821135,50.071622],[19.82116,50.071603],[19.821193,50.07159],[19.821231,50.071584],[19.82127,50.071585],[19.821336,50.071611],[19.821357,50.071633],[19.821366,50.071658],[19.821362,50.071683],[19.821346,50.071706],[19.821319,50.071725],[19.821285,50.071738],[19.821246,50.071743],[19.821173,50.07173],[19.821145,50.071713],[19.821126,50.071692],[19.821117,50.071669]]]}}]}