{"type":"FeatureCollection","features":[{"type":"Feature","id":"w132890254","properties":{"type":"yes","residential":true,"residents_est":1,"h3_10":"8a1e2e688917fff","h3_11":"8b1e2e688910fff"},"geometry":{"type":"Polygon","coordinates":[[[20.081533,50.03768],[20.081656,50.037608],[20.081725,50.037658],[20.081602,50.037729],[20.081533,50.03768]]]}},{"type":"Feature","id":"w132890258","properties":{"type":"yes","address":"Łutnia 64","residential":true,"residents_est":2,"h3_10":"8a1e2e688917fff","h3_11":"8b1e2e688914fff"},"geometry":{"type":"Polygon","coordinates":[[[20.081414,50.037899],[20.081635,50.037886],[20.081644,50.037953],[20.081424,50.037966],[20.081414,50.037899]]]}},{"type":"Feature","id":"w132890263","properties":{"type":"yes","residential":true,"residents_est":2,"h3_10":"8a1e2e688937fff","h3_11":"8b1e2e688930fff"},"geometry":{"type":"Polygon","coordinates":[[[20.081148,50.038594],[20.08121,50.038545],[20.081173,50.038525],[20.081272,50.038449],[20.081369,50.038501],[20.081208,50.038626],[20.081148,50.038594]]]}},{"type":"Feature","id":"w328407399","properties":{"type":"yes","address":"Łutnia 64B","residential":true,"residents_est":1,"h3_10":"8a1e2e688917fff","h3_11":"8b1e2e688915fff"},"geometry":{"type":"Polygon","coordinates":[[[20.081725,50.037968],[20.081816,50.03794],[20.081893,50.038043],[20.081802,50.038071],[20.081725,50.037968]]]}},{"type":"Feature","id":"w438165303","properties":{"type":"yes","address":"Łutnia 64A","residential":false,"residents_est":0,"h3_10":"8a1e2e688917fff","h3_11":"8b1e2e688915fff"},"geometry":{"type":"Polygon","coordinates":[[[20.081635,50.037886],[20.081677,50.037883],[20.081686,50.037951],[20.081644,50.037953],[20.081635,50.037886]]]}},{"type":"Feature","id":"w969306426","properties":{"type":"yes","address":"Brzegi 245","residential":true,"residents_est":1,"h3_10":"8a1e2e68886ffff","h3_11":"8b1e2e68886efff"},"geometry":{"type":"Polygon","coordinates":[[[20.091256,50.036393],[20.091258,50.036344],[20.091398,50.036347],[20.091396,50.036396],[20.091256,50.036393]]]}},{"type":"Feature","id":"w1087726099","properties":{"type":"yes","residential":true,"residents_est":1,"h3_10":"8a1e2e688937fff","h3_11":"8b1e2e688933fff"},"geometry":{"type":"Polygon","coordinates":[[[20.08158,50.038205],[20.081686,50.038161],[20.081723,50.038197],[20.081617,50.038241],[20.08158,50.038205]]]}},{"type":"Feature","id":"w1087726100","properties":{"type":"yes","residential":false,"residents_est":0,"h3_10":"8a1e2e688917fff","h3_11":"8b1e2e688915fff"},"geometry":{"type":"Polygon","coordinates":[[[20.081772,50.038121],[20.081829,50.038101],[20.081853,50.038128],[20.081796,50.038148],[20.081772,50.038121]]]}}]}