{"type":"FeatureCollection","features":[{"type":"Feature","id":"zone","properties":{"role":"incident_area","category":"flood","affected_stops":["Bieżanów Pomnik","Bieżanów Szkoła","Duża Góra","Nowy Bieżanów P+R","Ćwiklińskiej"],"affected_lines":["3","9","13","49","69","153","163","195","234","284","669"]},"geometry":{"type":"Polygon","coordinates":[[[20.024579,50.015498],[20.024464,50.015217],[20.024124,50.014899],[20.023758,50.014729],[20.023332,50.014635],[20.022882,50.014625],[20.022446,50.014699],[20.022063,50.014852],[20.021765,50.01507],[20.021626,50.015242],[20.021523,50.015524],[20.021551,50.015814],[20.021709,50.016086],[20.021982,50.016317],[20.022348,50.016487],[20.022774,50.016581],[20.02332,50.016581],[20.024898,50.018446],[20.02442,50.018653],[20.023611,50.018919],[20.019641,50.020116],[20.019443,50.020266],[20.019379,50.020459],[20.019463,50.020648],[20.019675,50.020789],[20.019966,50.020849],[20.020266,50.020814],[20.02417,50.019644],[20.025046,50.019355],[20.026165,50.018897],[20.027085,50.018665],[20.028149,50.018474],[20.028698,50.01844],[20.031786,50.018422],[20.032075,50.018357],[20.032282,50.018213],[20.032356,50.017982],[20.03222,50.017764],[20.031918,50.017632],[20.031435,50.017593],[20.027965,50.017672],[20.026694,50.017895],[20.025746,50.018132],[20.024178,50.01628],[20.024529,50.015882],[20.024579,50.015498]]]}},{"type":"Feature","id":"street","properties":{"role":"passersby_line","street":"Bieżanowska","length_m":900},"geometry":{"type":"LineString","coordinates":[[20.020007,50.020445],[20.020481,50.020307],[20.020669,50.020247],[20.020941,50.02017],[20.021158,50.020105],[20.021769,50.019922],[20.021781,50.019918],[20.022014,50.019845],[20.022285,50.019761],[20.022442,50.019712],[20.022869,50.019578],[20.022985,50.019544],[20.023139,50.019498],[20.023291,50.019454],[20.023407,50.019419],[20.023648,50.019355],[20.023843,50.019296],[20.023898,50.019279],[20.02402,50.019236],[20.024135,50.0192],[20.02425,50.019165],[20.024725,50.019007],[20.024871,50.018951],[20.025353,50.018735],[20.025416,50.018709],[20.025465,50.018689],[20.02561,50.018629],[20.025727,50.018589],[20.025897,50.01853],[20.025924,50.018523],[20.026473,50.01837],[20.026894,50.018279],[20.027307,50.018198],[20.027468,50.018169],[20.027797,50.018117],[20.028031,50.018075],[20.028341,50.018054],[20.028492,50.018046],[20.028658,50.018036],[20.029437,50.018019],[20.029696,50.018015],[20.029768,50.018014],[20.029875,50.018012],[20.030507,50.018003],[20.030921,50.017998],[20.031,50.017997],[20.031064,50.017997],[20.031174,50.017997],[20.031277,50.017998],[20.031435,50.017998],[20.031557,50.018002],[20.03166,50.018009],[20.03173,50.018018]]}},{"type":"Feature","id":"tram_loop","properties":{"role":"tram_loop","stop":"Nowy Bieżanów P+R","tram_lines":["3","9","13","49","69"]},"geometry":{"type":"Point","coordinates":[20.023053,50.015608]}}]}