{"type":"FeatureCollection","features":[{"type":"Feature","id":"zone","properties":{"role":"notice_area","category":"power","fictional":true,"note":"Fictional planned outage used only to demo the official-only (blue) layer."},"geometry":{"type":"Polygon","coordinates":[[[19.968083,50.021392],[19.968713,50.02244],[19.968912,50.022501],[19.969994,50.022518],[19.971092,50.021808],[19.971971,50.02091],[19.973378,50.020971],[19.974203,50.020955],[19.974395,50.0209],[19.974678,50.019925],[19.973491,50.019063],[19.971814,50.018867],[19.970991,50.018859],[19.970632,50.019253],[19.969809,50.019749],[19.968592,50.019571],[19.968247,50.019608],[19.968083,50.021392]]]}}]}