{"type":"FeatureCollection","features":[{"type":"Feature","id":"w231919388","properties":{"type":"yes","address":"Księcia Józefa 75b","residential":true,"residents_est":7,"h3_10":"8a1e2e6b2177fff","h3_11":"8b1e2e6b2176fff"},"geometry":{"type":"Polygon","coordinates":[[[19.896407,50.048318],[19.896435,50.048234],[19.896497,50.048242],[19.896499,50.048234],[19.89652,50.048224],[19.896557,50.048229],[19.89657,50.04824],[19.896567,50.048251],[19.896619,50.048261],[19.896591,50.048342],[19.896407,50.048318]]]}},{"type":"Feature","id":"w231919461","properties":{"type":"yes","address":"Księcia Józefa 87c","residential":true,"residents_est":7,"h3_10":"8a1e2e6b2107fff","h3_11":"8b1e2e6b2104fff"},"geometry":{"type":"Polygon","coordinates":[[[19.893803,50.048169],[19.893817,50.048081],[19.89386,50.048084],[19.893861,50.048072],[19.893954,50.048077],[19.893952,50.04809],[19.894001,50.048093],[19.893985,50.048185],[19.893803,50.048169]]]}},{"type":"Feature","id":"w231919486","properties":{"type":"yes","residential":true,"residents_est":3,"h3_10":"8a1e2e6b211ffff","h3_11":"8b1e2e6b2118fff"},"geometry":{"type":"Polygon","coordinates":[[[19.894287,50.046631],[19.894323,50.046589],[19.894334,50.046593],[19.89434,50.046586],[19.894381,50.0466],[19.894375,50.046607],[19.894409,50.04662],[19.894405,50.046625],[19.894442,50.046636],[19.894414,50.046675],[19.894287,50.046631]]]}},{"type":"Feature","id":"w231919612","properties":{"type":"yes","address":"Wodociągowa 54","residential":true,"residents_est":7,"h3_10":"8a1e2e6b212ffff","h3_11":"8b1e2e6b2128fff"},"geometry":{"type":"Polygon","coordinates":[[[19.895821,50.048377],[19.895831,50.048343],[19.895866,50.048347],[19.895913,50.04833],[19.895941,50.048359],[19.89609,50.048375],[19.896069,50.048445],[19.895888,50.048422],[19.895893,50.048401],[19.895852,50.048396],[19.895856,50.048381],[19.895821,50.048377]]]}},{"type":"Feature","id":"w231919643","properties":{"type":"yes","address":"Księcia Józefa 81","residential":true,"residents_est":7,"h3_10":"8a1e2e6b212ffff","h3_11":"8b1e2e6b212bfff"},"geometry":{"type":"Polygon","coordinates":[[[19.895807,50.048246],[19.895839,50.048147],[19.896005,50.048172],[19.895971,50.048281],[19.895911,50.048281],[19.895918,50.048261],[19.895807,50.048246]]]}},{"type":"Feature","id":"w231919680","properties":{"type":"yes","residential":true,"residents_est":9,"h3_10":"8a1e2e6b211ffff","h3_11":"8b1e2e6b2118fff"},"geometry":{"type":"Polygon","coordinates":[[[19.894542,50.046767],[19.894571,50.046709],[19.894545,50.046704],[19.89459,50.046607],[19.894735,50.046634],[19.894709,50.046689],[19.894693,50.046686],[19.894652,50.046775],[19.894646,50.046774],[19.894635,50.046791],[19.894542,50.046767]]]}},{"type":"Feature","id":"w231919722","properties":{"type":"yes","address":"Wodociągowa 39","residential":true,"residents_est":5,"h3_10":"8a1e2e6b2127fff","h3_11":"8b1e2e6b2125fff"},"geometry":{"type":"Polygon","coordinates":[[[19.894433,50.04928],[19.894457,50.049221],[19.894529,50.049233],[19.894533,50.049225],[19.894633,50.049242],[19.894605,50.049309],[19.894547,50.0493],[19.894542,50.04931],[19.894486,50.049301],[19.894491,50.04929],[19.894433,50.04928]]]}},{"type":"Feature","id":"w231919740","properties":{"type":"yes","residential":true,"residents_est":7,"h3_10":"8a1e2e6b212ffff","h3_11":"8b1e2e6b212bfff"},"geometry":{"type":"Polygon","coordinates":[[[19.895648,50.048271],[19.895714,50.048198],[19.895817,50.048214],[19.895807,50.048246],[19.895918,50.048261],[19.895911,50.048281],[19.895941,50.048285],[19.895943,50.048278],[19.895971,50.048281],[19.895973,50.048274],[19.895994,50.048276],[19.895988,50.048294],[19.896015,50.048298],[19.896009,50.048317],[19.895648,50.048271]]]}},{"type":"Feature","id":"w231919764","properties":{"type":"yes","address":"Księcia Józefa 87b","residential":true,"residents_est":7,"h3_10":"8a1e2e6b2107fff","h3_11":"8b1e2e6b2104fff"},"geometry":{"type":"Polygon","coordinates":[[[19.894094,50.048205],[19.8941,50.048167],[19.89413,50.048168],[19.894139,50.04811],[19.894178,50.048112],[19.89418,50.048103],[19.894187,50.048104],[19.89419,50.048079],[19.894268,50.048082],[19.894267,50.048118],[19.894314,50.048121],[19.894307,50.048181],[19.894183,50.048175],[19.894177,50.04821],[19.894094,50.048205]]]}},{"type":"Feature","id":"w231919792","properties":{"type":"yes","address":"Wodociągowa 43","residential":true,"residents_est":29,"h3_10":"8a1e2e6b2127fff","h3_11":"8b1e2e6b2120fff"},"geometry":{"type":"Polygon","coordinates":[[[19.893622,50.049078],[19.893709,50.049007],[19.893766,50.049037],[19.893858,50.04896],[19.893773,50.048918],[19.893823,50.048875],[19.894004,50.048965],[19.893943,50.049014],[19.893915,50.049],[19.89386,50.049046],[19.893886,50.049059],[19.893846,50.049092],[19.893821,50.049079],[19.893745,50.04914],[19.893622,50.049078]]]}},{"type":"Feature","id":"w231919929","properties":{"type":"yes","address":"Wodociągowa 47","name":"Bona Dea Medycyna Estetyczna","residential":true,"residents_est":10,"h3_10":"8a1e2e6b2127fff","h3_11":"8b1e2e6b2123fff"},"geometry":{"type":"Polygon","coordinates":[[[19.894139,50.048484],[19.89426,50.048418],[19.894413,50.048533],[19.894292,50.048598],[19.894237,50.048558],[19.8942,50.048578],[19.894156,50.048544],[19.894193,50.048524],[19.894139,50.048484]]]}},{"type":"Feature","id":"w231919971","properties":{"type":"yes","residential":false,"residents_est":0,"h3_10":"8a1e2e6b21b7fff","h3_11":"8b1e2e6b21b2fff"},"geometry":{"type":"Polygon","coordinates":[[[19.889666,50.045347],[19.889758,50.045346],[19.889759,50.0454],[19.889667,50.045401],[19.889666,50.045347]]]}},{"type":"Feature","id":"w231920059","properties":{"type":"yes","residential":true,"residents_est":2,"h3_10":"8a1e2e6b219ffff","h3_11":"8b1e2e6b219bfff"},"geometry":{"type":"Polygon","coordinates":[[[19.892423,50.043721],[19.892508,50.04372],[19.892511,50.043781],[19.892426,50.043783],[19.892423,50.043721]]]}},{"type":"Feature","id":"w231920066","properties":{"type":"yes","residential":false,"residents_est":0,"h3_10":"8a1e2e6b20b7fff","h3_11":"8b1e2e6b20b4fff"},"geometry":{"type":"Polygon","coordinates":[[[19.891887,50.043311],[19.89197,50.04331],[19.891972,50.043368],[19.891889,50.043369],[19.891887,50.043311]]]}},{"type":"Feature","id":"w231920067","properties":{"type":"yes","residential":true,"residents_est":2,"h3_10":"8a1e2e6b212ffff","h3_11":"8b1e2e6b212cfff"},"geometry":{"type":"Polygon","coordinates":[[[19.895383,50.049044],[19.895398,50.048986],[19.895488,50.048996],[19.895472,50.049054],[19.895383,50.049044]]]}},{"type":"Feature","id":"w231920074","properties":{"type":"yes","levels":1.0,"address":"Polnych Kwiatów 11","residential":true,"residents_est":2,"h3_10":"8a1e2e6b201ffff","h3_11":"8b1e2e6b201afff"},"geometry":{"type":"Polygon","coordinates":[[[19.896445,50.043867],[19.89658,50.043835],[19.896615,50.043897],[19.896478,50.043928],[19.896445,50.043867]]]}},{"type":"Feature","id":"w231920139","properties":{"type":"yes","residential":true,"residents_est":2,"h3_10":"8a1e2e6b219ffff","h3_11":"8b1e2e6b219dfff"},"geometry":{"type":"Polygon","coordinates":[[[19.892301,50.044305],[19.892365,50.044276],[19.892423,50.044331],[19.892359,50.044359],[19.892301,50.044305]]]}},{"type":"Feature","id":"w231920163","properties":{"type":"yes","residential":true,"residents_est":3,"h3_10":"8a1e2e6b201ffff","h3_11":"8b1e2e6b201afff"},"geometry":{"type":"Polygon","coordinates":[[[19.89658,50.043835],[19.896704,50.043807],[19.89674,50.043868],[19.896615,50.043897],[19.89658,50.043835]]]}},{"type":"Feature","id":"w231920195","properties":{"type":"yes","residential":false,"residents_est":0,"h3_10":"8a1e2e6b2197fff","h3_11":"8b1e2e6b2191fff"},"geometry":{"type":"Polygon","coordinates":[[[19.891048,50.044468],[19.891102,50.044443],[19.89117,50.044503],[19.891116,50.044529],[19.891048,50.044468]]]}},{"type":"Feature","id":"w231920218","properties":{"type":"yes","residential":true,"residents_est":2,"h3_10":"8a1e2e6b201ffff","h3_11":"8b1e2e6b201cfff"},"geometry":{"type":"Polygon","coordinates":[[[19.896563,50.044536],[19.896639,50.044502],[19.896695,50.044556],[19.896619,50.044589],[19.896563,50.044536]]]}},{"type":"Feature","id":"w231920276","properties":{"type":"yes","residential":true,"residents_est":2,"h3_10":"8a1e2e6b208ffff","h3_11":"8b1e2e6b208dfff"},"geometry":{"type":"Polygon","coordinates":[[[19.896266,50.042727],[19.896346,50.042701],[19.896387,50.042754],[19.896306,50.04278],[19.896266,50.042727]]]}},{"type":"Feature","id":"w231920280","properties":{"type":"yes","residential":false,"residents_est":0,"h3_10":"8a1e2e6b21b7fff","h3_11":"8b1e2e6b21b1fff"},"geometry":{"type":"Polygon","coordinates":[[[19.89087,50.045482],[19.890935,50.045463],[19.890978,50.045524],[19.890913,50.045543],[19.89087,50.045482]]]}},{"type":"Feature","id":"w231920296","properties":{"type":"yes","residential":false,"residents_est":0,"h3_10":"8a1e2e6b219ffff","h3_11":"8b1e2e6b219bfff"},"geometry":{"type":"Polygon","coordinates":[[[19.892572,50.043756],[19.892657,50.043753],[19.892661,50.043808],[19.892576,50.043811],[19.892572,50.043756]]]}},{"type":"Feature","id":"w231920350","properties":{"type":"yes","residential":false,"residents_est":0,"h3_10":"8a1e2e6b211ffff","h3_11":"8b1e2e6b211dfff"},"geometry":{"type":"Polygon","coordinates":[[[19.894907,50.04697],[19.894947,50.046911],[19.895014,50.04693],[19.894973,50.046988],[19.894907,50.04697]]]}},{"type":"Feature","id":"w231920407","properties":{"type":"yes","residential":false,"residents_est":0,"h3_10":"8a1e2e6b20b7fff","h3_11":"8b1e2e6b20b1fff"},"geometry":{"type":"Polygon","coordinates":[[[19.893281,50.043189],[19.893282,50.04314],[19.893379,50.04314],[19.893378,50.04319],[19.893281,50.043189]]]}},{"type":"Feature","id":"w231920414","properties":{"type":"ruins","residential":false,"residents_est":0,"h3_10":"8a1e2e6b20affff","h3_11":"8b1e2e6b20a8fff"},"geometry":{"type":"Polygon","coordinates":[[[19.895393,50.0435],[19.895454,50.043466],[19.895512,50.04351],[19.895452,50.043543],[19.895393,50.0435]]]}},{"type":"Feature","id":"w231920419","properties":{"type":"ruins","residential":false,"residents_est":0,"h3_10":"8a1e2e6b210ffff","h3_11":"8b1e2e6b210afff"},"geometry":{"type":"Polygon","coordinates":[[[19.895865,50.046977],[19.89588,50.046902],[19.895965,50.046909],[19.895951,50.046984],[19.895865,50.046977]]]}},{"type":"Feature","id":"w231920421","properties":{"type":"ruins","residential":false,"residents_est":0,"h3_10":"8a1e2e6b202ffff","h3_11":"8b1e2e6b202afff"},"geometry":{"type":"Polygon","coordinates":[[[19.897668,50.045443],[19.897728,50.045371],[19.89785,50.045414],[19.89779,50.045485],[19.897668,50.045443]]]}},{"type":"Feature","id":"w231920427","properties":{"type":"yes","residential":true,"residents_est":3,"h3_10":"8a1e2e6b2177fff","h3_11":"8b1e2e6b2175fff"},"geometry":{"type":"Polygon","coordinates":[[[19.898164,50.048484],[19.898188,50.048421],[19.898298,50.048438],[19.898275,50.048502],[19.898164,50.048484]]]}},{"type":"Feature","id":"w231920496","properties":{"type":"yes","residential":false,"residents_est":0,"h3_10":"8a1e2e6b219ffff","h3_11":"8b1e2e6b219cfff"},"geometry":{"type":"Polygon","coordinates":[[[19.891885,50.044371],[19.891955,50.044337],[19.892007,50.044382],[19.891936,50.044416],[19.891885,50.044371]]]}},{"type":"Feature","id":"w231920505","properties":{"type":"yes","residential":false,"residents_est":0,"h3_10":"8a1e2e6b21a7fff","h3_11":"8b1e2e6b21a6fff"},"geometry":{"type":"Polygon","coordinates":[[[19.891004,50.046479],[19.891014,50.04643],[19.891109,50.046438],[19.891099,50.046487],[19.891004,50.046479]]]}},{"type":"Feature","id":"w231920512","properties":{"type":"yes","address":"Księcia Józefa 32a","residential":true,"residents_est":3,"h3_10":"8a1e2e6b211ffff","h3_11":"8b1e2e6b2118fff"},"geometry":{"type":"Polygon","coordinates":[[[19.894435,50.046683],[19.89446,50.04663],[19.894569,50.046652],[19.894545,50.046704],[19.894435,50.046683]]]}},{"type":"Feature","id":"w231920564","properties":{"type":"yes","residential":false,"residents_est":0,"h3_10":"8a1e2e6b21b7fff","h3_11":"8b1e2e6b21b0fff"},"geometry":{"type":"Polygon","coordinates":[[[19.889685,50.045666],[19.889711,50.045613],[19.889792,50.045629],[19.889767,50.045682],[19.889685,50.045666]]]}},{"type":"Feature","id":"w231920607","properties":{"type":"yes","residential":false,"residents_est":0,"h3_10":"8a1e2e6b2187fff","h3_11":"8b1e2e6b2183fff"},"geometry":{"type":"Polygon","coordinates":[[[19.8919,50.044941],[19.891959,50.044905],[19.892021,50.044947],[19.891962,50.044983],[19.8919,50.044941]]]}},{"type":"Feature","id":"w231920623","properties":{"type":"yes","residential":true,"residents_est":3,"h3_10":"8a1e2e6b2197fff","h3_11":"8b1e2e6b2195fff"},"geometry":{"type":"Polygon","coordinates":[[[19.891015,50.044927],[19.891082,50.044892],[19.89114,50.044938],[19.891072,50.044973],[19.891015,50.044927]]]}},{"type":"Feature","id":"w231920669","properties":{"type":"yes","residential":true,"residents_est":2,"h3_10":"8a1e2e6b2117fff","h3_11":"8b1e2e6b2113fff"},"geometry":{"type":"Polygon","coordinates":[[[19.893223,50.046824],[19.893234,50.046763],[19.893321,50.04677],[19.893309,50.04683],[19.893223,50.046824]]]}},{"type":"Feature","id":"w231920696","properties":{"type":"yes","residential":false,"residents_est":0,"h3_10":"8a1e2e6b21b7fff","h3_11":"8b1e2e6b21b4fff"},"geometry":{"type":"Polygon","coordinates":[[[19.889626,50.045862],[19.88964,50.045804],[19.889725,50.045813],[19.88971,50.045871],[19.889626,50.045862]]]}},{"type":"Feature","id":"w231920717","properties":{"type":"yes","residential":false,"residents_est":0,"h3_10":"8a1e2e6b212ffff","h3_11":"8b1e2e6b2128fff"},"geometry":{"type":"Polygon","coordinates":[[[19.895436,50.048551],[19.895454,50.048498],[19.895521,50.048508],[19.895503,50.04856],[19.895436,50.048551]]]}},{"type":"Feature","id":"w231920723","properties":{"type":"yes","residential":true,"residents_est":3,"h3_10":"8a1e2e6b20b7fff","h3_11":"8b1e2e6b20b1fff"},"geometry":{"type":"Polygon","coordinates":[[[19.893121,50.04287],[19.893129,50.04278],[19.893205,50.042783],[19.893196,50.042873],[19.893121,50.04287]]]}},{"type":"Feature","id":"w231920743","properties":{"type":"yes","residential":false,"residents_est":0,"h3_10":"8a1e2e6b21affff","h3_11":"8b1e2e6b21adfff"},"geometry":{"type":"Polygon","coordinates":[[[19.893448,50.046515],[19.893456,50.046462],[19.893551,50.046468],[19.893542,50.046521],[19.893448,50.046515]]]}},{"type":"Feature","id":"w231920806","properties":{"type":"ruins","residential":false,"residents_est":0,"h3_10":"8a1e2e6b200ffff","h3_11":"8b1e2e6b200cfff"},"geometry":{"type":"Polygon","coordinates":[[[19.898053,50.045131],[19.898108,50.045059],[19.898423,50.045165],[19.898364,50.045236],[19.898053,50.045131]]]}},{"type":"Feature","id":"w231920853","properties":{"type":"yes","residential":true,"residents_est":2,"h3_10":"8a1e2e6b2097fff","h3_11":"8b1e2e6b2096fff"},"geometry":{"type":"Polygon","coordinates":[[[19.891785,50.041803],[19.891788,50.041757],[19.891904,50.041763],[19.891897,50.041808],[19.891785,50.041803]]]}},{"type":"Feature","id":"w231920910","properties":{"type":"ruins","residential":false,"residents_est":0,"h3_10":"8a1e2e6b201ffff","h3_11":"8b1e2e6b2018fff"},"geometry":{"type":"Polygon","coordinates":[[[19.897064,50.044334],[19.897447,50.044235],[19.89751,50.044344],[19.897127,50.04444],[19.897064,50.044334]]]}},{"type":"Feature","id":"w231920914","properties":{"type":"yes","residential":true,"residents_est":28,"h3_10":"8a1e2e6b211ffff","h3_11":"8b1e2e6b2118fff"},"geometry":{"type":"Polygon","coordinates":[[[19.894652,50.046775],[19.894688,50.046697],[19.895101,50.046776],[19.895064,50.046855],[19.894652,50.046775]]]}},{"type":"Feature","id":"w231920918","properties":{"type":"yes","address":"Wodociągowa 52","residential":true,"residents_est":6,"h3_10":"8a1e2e6b212ffff","h3_11":"8b1e2e6b2128fff"},"geometry":{"type":"Polygon","coordinates":[[[19.895666,50.048431],[19.895696,50.048327],[19.895831,50.048343],[19.895801,50.048446],[19.895666,50.048431]]]}},{"type":"Feature","id":"w231920929","properties":{"type":"yes","address":"Księcia Józefa 75","residential":true,"residents_est":7,"h3_10":"8a1e2e6b2177fff","h3_11":"8b1e2e6b2176fff"},"geometry":{"type":"Polygon","coordinates":[[[19.896768,50.048386],[19.896803,50.048287],[19.896959,50.048311],[19.896927,50.048409],[19.896768,50.048386]]]}},{"type":"Feature","id":"w231920937","properties":{"type":"ruins","residential":false,"residents_est":0,"h3_10":"8a1e2e6b202ffff","h3_11":"8b1e2e6b202afff"},"geometry":{"type":"Polygon","coordinates":[[[19.897979,50.045479],[19.898012,50.045438],[19.898138,50.045482],[19.898104,50.045523],[19.897979,50.045479]]]}},{"type":"Feature","id":"w231920951","properties":{"type":"greenhouse","residential":false,"residents_est":0,"h3_10":"8a1e2e6b201ffff","h3_11":"8b1e2e6b201dfff"},"geometry":{"type":"Polygon","coordinates":[[[19.897193,50.044491],[19.897317,50.044457],[19.897502,50.044732],[19.89738,50.044765],[19.897193,50.044491]]]}},{"type":"Feature","id":"w231920969","properties":{"type":"yes","address":"Wodociągowa 50","residential":true,"residents_est":4,"h3_10":"8a1e2e6b212ffff","h3_11":"8b1e2e6b2128fff"},"geometry":{"type":"Polygon","coordinates":[[[19.895496,50.048581],[19.895521,50.048508],[19.895641,50.048525],[19.895616,50.048599],[19.895496,50.048581]]]}},{"type":"Feature","id":"w231920971","properties":{"type":"yes","residential":false,"residents_est":0,"h3_10":"8a1e2e6b201ffff","h3_11":"8b1e2e6b201dfff"},"geometry":{"type":"Polygon","coordinates":[[[19.897113,50.044458],[19.89718,50.04444],[19.89721,50.044486],[19.897145,50.044504],[19.897113,50.044458]]]}},{"type":"Feature","id":"w231921018","properties":{"type":"ruins","residential":false,"residents_est":0,"h3_10":"8a1e2e6b2017fff","h3_11":"8b1e2e6b2011fff"},"geometry":{"type":"Polygon","coordinates":[[[19.895971,50.044416],[19.896062,50.044394],[19.896225,50.044669],[19.896133,50.04469],[19.895971,50.044416]]]}},{"type":"Feature","id":"w231921155","properties":{"type":"ruins","address":"Polnych Kwiatów 5","residential":false,"residents_est":0,"h3_10":"8a1e2e6b202ffff","h3_11":"8b1e2e6b202afff"},"geometry":{"type":"Polygon","coordinates":[[[19.89808,50.045527],[19.898087,50.045518],[19.898104,50.045523],[19.898138,50.045482],[19.898346,50.045553],[19.898304,50.045605],[19.89808,50.045527]]]}},{"type":"Feature","id":"w231921157","properties":{"type":"ruins","residential":false,"residents_est":0,"h3_10":"8a1e2e6b2017fff","h3_11":"8b1e2e6b2011fff"},"geometry":{"type":"Polygon","coordinates":[[[19.895944,50.04437],[19.896168,50.044311],[19.896249,50.044451],[19.896117,50.044486],[19.896062,50.044394],[19.895971,50.044416],[19.895944,50.04437]]]}},{"type":"Feature","id":"w231921196","properties":{"type":"yes","address":"Wodociągowa 56","residential":true,"residents_est":4,"h3_10":"8a1e2e6b212ffff","h3_11":"8b1e2e6b2129fff"},"geometry":{"type":"Polygon","coordinates":[[[19.896256,50.048474],[19.89628,50.048408],[19.896387,50.048425],[19.896356,50.048517],[19.896282,50.048506],[19.896291,50.048479],[19.896256,50.048474]]]}},{"type":"Feature","id":"w231921231","properties":{"type":"ruins","residential":false,"residents_est":0,"h3_10":"8a1e2e6b200ffff","h3_11":"8b1e2e6b200cfff"},"geometry":{"type":"Polygon","coordinates":[[[19.897968,50.045143],[19.898048,50.045038],[19.898108,50.045059],[19.898028,50.045163],[19.897968,50.045143]]]}},{"type":"Feature","id":"w231921238","properties":{"type":"ruins","address":"Księcia Józefa 32","residential":false,"residents_est":0,"h3_10":"8a1e2e6b210ffff","h3_11":"8b1e2e6b210afff"},"geometry":{"type":"Polygon","coordinates":[[[19.895609,50.04697],[19.89563,50.04686],[19.895884,50.046881],[19.895863,50.04699],[19.895609,50.04697]]]}},{"type":"Feature","id":"w231921248","properties":{"type":"yes","address":"Księcia Józefa 91","residential":true,"residents_est":3,"h3_10":"8a1e2e6b2137fff","h3_11":"8b1e2e6b2132fff"},"geometry":{"type":"Polygon","coordinates":[[[19.892015,50.047967],[19.89203,50.047911],[19.892127,50.047922],[19.892122,50.04794],[19.892152,50.047944],[19.892142,50.047982],[19.892015,50.047967]]]}},{"type":"Feature","id":"w231921289","properties":{"type":"yes","address":"Polnych Kwiatów 14","residential":true,"residents_est":4,"h3_10":"8a1e2e6b2097fff","h3_11":"8b1e2e6b2094fff"},"geometry":{"type":"Polygon","coordinates":[[[19.89228,50.042357],[19.892285,50.042311],[19.892485,50.04232],[19.892481,50.042367],[19.89228,50.042357]]]}},{"type":"Feature","id":"w231921313","properties":{"type":"yes","residential":true,"residents_est":3,"h3_10":"8a1e2e6b201ffff","h3_11":"8b1e2e6b201cfff"},"geometry":{"type":"Polygon","coordinates":[[[19.897012,50.044347],[19.897064,50.044334],[19.897127,50.04444],[19.897077,50.044452],[19.897012,50.044347]]]}},{"type":"Feature","id":"w231921359","properties":{"type":"service","residential":false,"residents_est":0,"h3_10":"8a1e2e6b2107fff","h3_11":"8b1e2e6b2105fff"},"geometry":{"type":"Polygon","coordinates":[[[19.894474,50.048109],[19.894481,50.048035],[19.894542,50.048038],[19.894539,50.048078],[19.89455,50.048078],[19.894546,50.048112],[19.894474,50.048109]]]}},{"type":"Feature","id":"w231921401","properties":{"type":"yes","address":"Księcia Józefa 79","residential":true,"residents_est":6,"h3_10":"8a1e2e6b212ffff","h3_11":"8b1e2e6b212bfff"},"geometry":{"type":"Polygon","coordinates":[[[19.895973,50.048274],[19.896004,50.048176],[19.896166,50.048197],[19.89614,50.04828],[19.896035,50.048268],[19.896031,50.04828],[19.895973,50.048274]]]}},{"type":"Feature","id":"w231921640","properties":{"type":"yes","address":"Księcia Józefa 89a","residential":true,"residents_est":10,"h3_10":"8a1e2e6b2137fff","h3_11":"8b1e2e6b2135fff"},"geometry":{"type":"Polygon","coordinates":[[[19.892636,50.048429],[19.892715,50.048383],[19.892779,50.048372],[19.892842,50.048385],[19.892921,50.04844],[19.892807,50.048506],[19.892791,50.048506],[19.892787,50.048498],[19.892761,50.048497],[19.892746,50.048506],[19.892636,50.048429]]]}},{"type":"Feature","id":"w231921682","properties":{"type":"yes","residential":true,"residents_est":3,"h3_10":"8a1e2e6b208ffff","h3_11":"8b1e2e6b2088fff"},"geometry":{"type":"Polygon","coordinates":[[[19.896043,50.04215],[19.896108,50.042134],[19.896173,50.042263],[19.896136,50.042273],[19.896043,50.04215]]]}},{"type":"Feature","id":"w231921701","properties":{"type":"yes","residential":true,"residents_est":5,"h3_10":"8a1e2e6b2137fff","h3_11":"8b1e2e6b2132fff"},"geometry":{"type":"Polygon","coordinates":[[[19.892168,50.048017],[19.892191,50.047922],[19.892317,50.047934],[19.892312,50.047955],[19.892344,50.047958],[19.892337,50.047988],[19.892305,50.047985],[19.892294,50.048029],[19.892168,50.048017]]]}},{"type":"Feature","id":"w231921738","properties":{"type":"yes","address":"Polnych Kwiatów 19","residential":true,"residents_est":3,"h3_10":"8a1e2e6b209ffff","h3_11":"8b1e2e6b209cfff"},"geometry":{"type":"Polygon","coordinates":[[[19.894195,50.042056],[19.894245,50.042036],[19.894339,50.042124],[19.894265,50.042156],[19.894202,50.042097],[19.894227,50.042086],[19.894195,50.042056]]]}},{"type":"Feature","id":"w231921749","properties":{"type":"ruins","address":"Polnych Kwiatów 17","residential":false,"residents_est":0,"h3_10":"8a1e2e6b2087fff","h3_11":"8b1e2e6b2081fff"},"geometry":{"type":"Polygon","coordinates":[[[19.894532,50.042582],[19.894661,50.042515],[19.894732,50.042573],[19.894696,50.042593],[19.89472,50.042614],[19.894661,50.042644],[19.894638,50.042624],[19.8946,50.042641],[19.894532,50.042582]]]}},{"type":"Feature","id":"w231921779","properties":{"type":"yes","address":"Polnych Kwiatów 9","residential":true,"residents_est":4,"h3_10":"8a1e2e6b201ffff","h3_11":"8b1e2e6b2018fff"},"geometry":{"type":"Polygon","coordinates":[[[19.896904,50.044182],[19.897054,50.044146],[19.89708,50.044192],[19.897061,50.044196],[19.897071,50.044215],[19.89694,50.044246],[19.896904,50.044182]]]}},{"type":"Feature","id":"w231921794","properties":{"type":"yes","address":"Wodociągowa 37b","residential":true,"residents_est":3,"h3_10":"8a1e2e6b2127fff","h3_11":"8b1e2e6b2125fff"},"geometry":{"type":"Polygon","coordinates":[[[19.894337,50.049416],[19.894358,50.049365],[19.89449,50.049388],[19.894469,50.049439],[19.894337,50.049416]]]}},{"type":"Feature","id":"w231921894","properties":{"type":"yes","address":"Księcia Józefa 89","residential":true,"residents_est":6,"h3_10":"8a1e2e6b2107fff","h3_11":"8b1e2e6b2106fff"},"geometry":{"type":"Polygon","coordinates":[[[19.893506,50.048006],[19.893518,50.04792],[19.893682,50.047928],[19.89367,50.048015],[19.893636,50.048013],[19.893632,50.048033],[19.893552,50.048029],[19.893553,50.048009],[19.893506,50.048006]]]}},{"type":"Feature","id":"w231921907","properties":{"type":"yes","address":"Księcia Józefa 71","residential":true,"residents_est":10,"h3_10":"8a1e2e6b2177fff","h3_11":"8b1e2e6b2175fff"},"geometry":{"type":"Polygon","coordinates":[[[19.898119,50.048554],[19.898145,50.048482],[19.898372,50.048515],[19.898333,50.048633],[19.898161,50.048606],[19.898176,50.048563],[19.898119,50.048554]]]}},{"type":"Feature","id":"w231921960","properties":{"type":"yes","residential":false,"residents_est":0,"h3_10":"8a1e2e6b2177fff","h3_11":"8b1e2e6b2175fff"},"geometry":{"type":"Polygon","coordinates":[[[19.897885,50.04846],[19.897907,50.048387],[19.897917,50.048389],[19.897914,50.0484],[19.897963,50.048406],[19.897966,50.048395],[19.89798,50.048396],[19.897959,50.048469],[19.897885,50.04846]]]}},{"type":"Feature","id":"w231922117","properties":{"type":"yes","address":"Księcia Józefa 77","residential":true,"residents_est":7,"h3_10":"8a1e2e6b212ffff","h3_11":"8b1e2e6b212bfff"},"geometry":{"type":"Polygon","coordinates":[[[19.896255,50.048343],[19.89627,50.048298],[19.896289,50.0483],[19.8963,50.048268],[19.896281,50.048265],[19.8963,50.048215],[19.896435,50.048234],[19.896393,50.048363],[19.896255,50.048343]]]}},{"type":"Feature","id":"w231922124","properties":{"type":"yes","address":"Księcia Józefa 75a","residential":true,"residents_est":8,"h3_10":"8a1e2e6b2177fff","h3_11":"8b1e2e6b2176fff"},"geometry":{"type":"Polygon","coordinates":[[[19.896588,50.048354],[19.896619,50.048261],[19.896659,50.048267],[19.896667,50.048244],[19.896772,50.048258],[19.896764,50.048281],[19.896803,50.048287],[19.896771,50.048379],[19.896588,50.048354]]]}},{"type":"Feature","id":"w430874642","properties":{"type":"yes","residential":true,"residents_est":4,"h3_10":"8a1e2e6b2127fff","h3_11":"8b1e2e6b2123fff"},"geometry":{"type":"Polygon","coordinates":[[[19.894503,50.048652],[19.894598,50.048606],[19.89467,50.048665],[19.894576,50.048712],[19.894523,50.048677],[19.894529,50.048674],[19.894503,50.048652]]]}},{"type":"Feature","id":"w481303741","properties":{"type":"yes","residential":false,"residents_est":0,"h3_10":"8a1e2e6b208ffff","h3_11":"8b1e2e6b2088fff"},"geometry":{"type":"Polygon","coordinates":[[[19.896218,50.042331],[19.896271,50.042313],[19.896311,50.042362],[19.896258,50.04238],[19.896218,50.042331]]]}},{"type":"Feature","id":"w481303742","properties":{"type":"yes","residential":false,"residents_est":0,"h3_10":"8a1e2e6b208ffff","h3_11":"8b1e2e6b208bfff"},"geometry":{"type":"Polygon","coordinates":[[[19.895994,50.042021],[19.896059,50.042011],[19.896081,50.04207],[19.896016,50.04208],[19.895994,50.042021]]]}},{"type":"Feature","id":"w481303743","properties":{"type":"yes","residential":false,"residents_est":0,"h3_10":"8a1e2e6b208ffff","h3_11":"8b1e2e6b208afff"},"geometry":{"type":"Polygon","coordinates":[[[19.895892,50.041906],[19.895991,50.041902],[19.895995,50.041939],[19.895895,50.041943],[19.895892,50.041906]]]}},{"type":"Feature","id":"w706571761","properties":{"type":"semidetached_house","residential":true,"residents_est":16,"h3_10":"8a1e2e6b2167fff","h3_11":"8b1e2e6b2162fff"},"geometry":{"type":"Polygon","coordinates":[[[19.898795,50.048676],[19.898818,50.048609],[19.898941,50.048627],[19.898953,50.048595],[19.89904,50.048609],[19.898993,50.048733],[19.898906,50.04872],[19.898914,50.048692],[19.898795,50.048676]]]}},{"type":"Feature","id":"w706571762","properties":{"type":"yes","residential":false,"residents_est":0,"h3_10":"8a1e2e6b212ffff","h3_11":"8b1e2e6b212bfff"},"geometry":{"type":"Polygon","coordinates":[[[19.896056,50.048322],[19.896067,50.048287],[19.896124,50.048295],[19.896113,50.048329],[19.896056,50.048322]]]}},{"type":"Feature","id":"w706571763","properties":{"type":"yes","residential":false,"residents_est":0,"h3_10":"8a1e2e6b212ffff","h3_11":"8b1e2e6b2128fff"},"geometry":{"type":"Polygon","coordinates":[[[19.895706,50.048602],[19.895718,50.048568],[19.895794,50.048578],[19.895783,50.048612],[19.895706,50.048602]]]}},{"type":"Feature","id":"w706571765","properties":{"type":"yes","residential":false,"residents_est":0,"h3_10":"8a1e2e6b2127fff","h3_11":"8b1e2e6b2126fff"},"geometry":{"type":"Polygon","coordinates":[[[19.89346,50.048899],[19.893473,50.048889],[19.893524,50.048891],[19.893536,50.048898],[19.893542,50.048919],[19.893558,50.048929],[19.893534,50.048947],[19.893512,50.048938],[19.893482,50.048937],[19.893462,50.048921],[19.893465,50.048901],[19.89346,50.048899]]]}},{"type":"Feature","id":"w706571778","properties":{"type":"yes","residential":false,"residents_est":0,"h3_10":"8a1e2e6b211ffff","h3_11":"8b1e2e6b211dfff"},"geometry":{"type":"Polygon","coordinates":[[[19.894953,50.046903],[19.894968,50.046869],[19.895048,50.046882],[19.895032,50.046916],[19.894953,50.046903]]]}},{"type":"Feature","id":"w878939287","properties":{"type":"yes","residential":true,"residents_est":6,"h3_10":"8a1e2e6b2087fff","h3_11":"8b1e2e6b2081fff"},"geometry":{"type":"Polygon","coordinates":[[[19.894978,50.042587],[19.895122,50.042571],[19.895149,50.042667],[19.895004,50.042682],[19.894978,50.042587]]]}},{"type":"Feature","id":"w970400284","properties":{"type":"retail","address":"Księcia Józefa 20","name":"ATUT","residential":false,"residents_est":0,"h3_10":"8a1e2e6b214ffff","h3_11":"8b1e2e6b214efff"},"geometry":{"type":"Polygon","coordinates":[[[19.899499,50.047273],[19.89959,50.047032],[19.899906,50.047081],[19.899893,50.047117],[19.899947,50.047126],[19.89996,50.047092],[19.900271,50.04714],[19.900258,50.047175],[19.900335,50.047187],[19.900349,50.047151],[19.900666,50.047199],[19.900653,50.047235],[19.900703,50.047242],[19.900739,50.047144],[19.901033,50.047189],[19.900917,50.047487],[19.900861,50.047479],[19.90084,50.047536],[19.900891,50.047544],[19.900782,50.047835],[19.900727,50.047827],[19.90071,50.047874],[19.900755,50.047881],[19.900647,50.048167],[19.900327,50.048117],[19.900434,50.047834],[19.900488,50.047842],[19.900507,50.047792],[19.900449,50.047784],[19.900558,50.047495],[19.900664,50.047512],[19.900687,50.04745],[19.900631,50.047442],[19.900642,50.047413],[19.900586,50.047405],[19.900573,50.04744],[19.90026,50.047391],[19.900272,50.047359],[19.900195,50.047347],[19.900184,50.047377],[19.899867,50.047328],[19.89988,50.047294],[19.89983,50.047286],[19.899817,50.047322],[19.899499,50.047273]]]}},{"type":"Feature","id":"w1039863675","properties":{"type":"detached","levels":2.0,"residential":true,"residents_est":5,"h3_10":"8a1e2e6b2137fff","h3_11":"8b1e2e6b2131fff"},"geometry":{"type":"Polygon","coordinates":[[[19.893445,50.048038],[19.893453,50.047928],[19.893511,50.047931],[19.8935,50.048041],[19.893445,50.048038]]]}},{"type":"Feature","id":"w1149356562","properties":{"type":"yes","address":"Księcia Józefa 20A","name":"McDonald's","residential":false,"residents_est":0,"h3_10":"8a1e2e6b2147fff","h3_11":"8b1e2e6b2140fff"},"geometry":{"type":"Polygon","coordinates":[[[19.899471,50.047925],[19.899524,50.047778],[19.899926,50.047839],[19.899873,50.047985],[19.899471,50.047925]]]}},{"type":"Feature","id":"w1182614589","properties":{"type":"service","residential":false,"residents_est":0,"h3_10":"8a1e2e6b2147fff","h3_11":"8b1e2e6b2141fff"},"geometry":{"type":"Polygon","coordinates":[[[19.900125,50.048007],[19.900156,50.047927],[19.900195,50.047934],[19.900165,50.048013],[19.900125,50.048007]]]}},{"type":"Feature","id":"w1364548719","properties":{"type":"yes","residential":false,"residents_est":0,"h3_10":"8a1e2e6b2147fff","h3_11":"8b1e2e6b2142fff"},"geometry":{"type":"Polygon","coordinates":[[[19.899241,50.047368],[19.899263,50.047311],[19.899299,50.047317],[19.899277,50.047374],[19.899241,50.047368]]]}},{"type":"Feature","id":"w1364548720","properties":{"type":"yes","name":"Zielony Badylek","residential":true,"residents_est":3,"h3_10":"8a1e2e6b2147fff","h3_11":"8b1e2e6b2142fff"},"geometry":{"type":"Polygon","coordinates":[[[19.899187,50.047487],[19.899226,50.047382],[19.899286,50.047391],[19.899247,50.047497],[19.899187,50.047487]]]}},{"type":"Feature","id":"w1364548721","properties":{"type":"yes","name":"Bacówka - towary tradycyjne","residential":true,"residents_est":3,"h3_10":"8a1e2e6b2147fff","h3_11":"8b1e2e6b2142fff"},"geometry":{"type":"Polygon","coordinates":[[[19.899132,50.047628],[19.899177,50.047497],[19.899239,50.047505],[19.899194,50.047637],[19.899132,50.047628]]]}}]}