{"type":"FeatureCollection","features":[{"type":"Feature","id":"w229072657","properties":{"type":"yes","residential":true,"residents_est":18,"h3_10":"8a1e2e68eb17fff","h3_11":"8b1e2e68eb13fff"},"geometry":{"type":"Polygon","coordinates":[[[20.05932,50.034636],[20.059655,50.034634],[20.059657,50.034749],[20.059322,50.034752],[20.05932,50.034636]]]}},{"type":"Feature","id":"w229072658","properties":{"type":"yes","address":"Feliksa Wrobela 2a","residential":true,"residents_est":19,"h3_10":"8a1e2e68eba7fff","h3_11":"8b1e2e68eba4fff"},"geometry":{"type":"Polygon","coordinates":[[[20.057259,50.034469],[20.057347,50.034434],[20.057603,50.034703],[20.057623,50.034695],[20.057675,50.034752],[20.057641,50.034765],[20.057649,50.034774],[20.057611,50.03479],[20.057602,50.03478],[20.057567,50.034794],[20.057259,50.034469]]]}},{"type":"Feature","id":"w229072662","properties":{"type":"yes","address":"Feliksa Wrobela 2","residential":true,"residents_est":81,"h3_10":"8a1e2e68eba7fff","h3_11":"8b1e2e68eba0fff"},"geometry":{"type":"Polygon","coordinates":[[[20.057014,50.03397],[20.058007,50.033849],[20.058054,50.034011],[20.057143,50.034122],[20.057171,50.034217],[20.057089,50.034227],[20.057014,50.03397]]]}},{"type":"Feature","id":"w229072663","properties":{"type":"yes","address":"Feliksa Wrobela 4a","residential":true,"residents_est":73,"h3_10":"8a1e2e68eb17fff","h3_11":"8b1e2e68eb15fff"},"geometry":{"type":"Polygon","coordinates":[[[20.059314,50.035075],[20.059662,50.035073],[20.05967,50.035522],[20.059321,50.035524],[20.059314,50.035075]]]}},{"type":"Feature","id":"w229072664","properties":{"type":"yes","residential":true,"residents_est":5,"h3_10":"8a1e2e68eb07fff","h3_11":"8b1e2e68eb02fff"},"geometry":{"type":"Polygon","coordinates":[[[20.059891,50.035255],[20.060093,50.035254],[20.060095,50.035365],[20.059893,50.035366],[20.059891,50.035255]]]}},{"type":"Feature","id":"w229072667","properties":{"type":"yes","address":"Feliksa Wrobela 6","residential":true,"residents_est":226,"h3_10":"8a1e2e68eb37fff","h3_11":"8b1e2e68eb35fff"},"geometry":{"type":"Polygon","coordinates":[[[20.058433,50.036062],[20.058612,50.035987],[20.058579,50.035955],[20.058651,50.035924],[20.058681,50.035955],[20.058941,50.035845],[20.059598,50.036484],[20.059033,50.036723],[20.058914,50.036607],[20.058881,50.036621],[20.05882,50.036561],[20.058908,50.036524],[20.058433,50.036062]]]}},{"type":"Feature","id":"w229685894","properties":{"type":"yes","address":"Nad Drwiną 20","residential":true,"residents_est":7,"h3_10":"8a1e2e68eaa7fff","h3_11":"8b1e2e68eaa4fff"},"geometry":{"type":"Polygon","coordinates":[[[20.059401,50.032225],[20.059393,50.032022],[20.059619,50.032016],[20.05944,50.032232],[20.059401,50.032225]]]}},{"type":"Feature","id":"w229685895","properties":{"type":"yes","address":"Nad Drwiną 16","residential":true,"residents_est":44,"h3_10":"8a1e2e68eb9ffff","h3_11":"8b1e2e68eb9dfff"},"geometry":{"type":"Polygon","coordinates":[[[20.058476,50.032042],[20.05865,50.032037],[20.058661,50.032167],[20.058686,50.032166],[20.05869,50.032202],[20.058665,50.032203],[20.058681,50.032392],[20.058706,50.032391],[20.058709,50.032428],[20.058684,50.032429],[20.058696,50.032559],[20.05852,50.032566],[20.058509,50.032435],[20.058484,50.032435],[20.058483,50.032399],[20.058506,50.032398],[20.058476,50.032042]]]}},{"type":"Feature","id":"w229685897","properties":{"type":"yes","residential":true,"residents_est":1,"h3_10":"8a1e2e68eb9ffff","h3_11":"8b1e2e68eb9efff"},"geometry":{"type":"Polygon","coordinates":[[[20.057793,50.03207],[20.057962,50.032063],[20.057966,50.032108],[20.057797,50.032114],[20.057793,50.03207]]]}},{"type":"Feature","id":"w229685900","properties":{"type":"service","residential":false,"residents_est":0,"h3_10":"8a1e2e68eb87fff","h3_11":"8b1e2e68eb82fff"},"geometry":{"type":"Polygon","coordinates":[[[20.057454,50.032613],[20.057524,50.032609],[20.057531,50.032652],[20.05746,50.032656],[20.057454,50.032613]]]}},{"type":"Feature","id":"w229685903","properties":{"type":"yes","residential":false,"residents_est":0,"h3_10":"8a1e2e68eb87fff","h3_11":"8b1e2e68eb83fff"},"geometry":{"type":"Polygon","coordinates":[[[20.057994,50.032616],[20.058081,50.032612],[20.058084,50.032634],[20.057997,50.032638],[20.057994,50.032616]]]}},{"type":"Feature","id":"w229685905","properties":{"type":"yes","residential":false,"residents_est":0,"h3_10":"8a1e2e68eb87fff","h3_11":"8b1e2e68eb83fff"},"geometry":{"type":"Polygon","coordinates":[[[20.058109,50.032605],[20.058227,50.032596],[20.058232,50.032623],[20.058114,50.032632],[20.058109,50.032605]]]}},{"type":"Feature","id":"w229685910","properties":{"type":"yes","residential":true,"residents_est":111,"h3_10":"8a1e2e68eb9ffff","h3_11":"8b1e2e68eb9afff"},"geometry":{"type":"Polygon","coordinates":[[[20.057109,50.031572],[20.057866,50.031544],[20.057862,50.03151],[20.058175,50.031501],[20.058177,50.031533],[20.058296,50.031528],[20.058312,50.031721],[20.057127,50.031764],[20.057109,50.031572]]]}},{"type":"Feature","id":"w229685911","properties":{"type":"yes","residential":true,"residents_est":39,"h3_10":"8a1e2e68eb9ffff","h3_11":"8b1e2e68eb9cfff"},"geometry":{"type":"Polygon","coordinates":[[[20.057999,50.032055],[20.058252,50.032047],[20.058278,50.032369],[20.058258,50.03237],[20.058271,50.032421],[20.058198,50.032429],[20.058185,50.032368],[20.058034,50.032377],[20.057999,50.032055]]]}},{"type":"Feature","id":"w337751289","properties":{"type":"industrial","residential":false,"residents_est":0,"h3_10":"8a1e2e68ea17fff","h3_11":"8b1e2e68ea10fff"},"geometry":{"type":"Polygon","coordinates":[[[20.061111,50.032472],[20.061194,50.032297],[20.061234,50.032305],[20.061246,50.032279],[20.06131,50.032292],[20.061294,50.032325],[20.061402,50.032347],[20.061399,50.032354],[20.061471,50.032369],[20.061491,50.032327],[20.062103,50.03245],[20.061997,50.03267],[20.061391,50.032552],[20.061383,50.03255],[20.061398,50.032521],[20.061326,50.032506],[20.061322,50.032514],[20.061111,50.032472]]]}},{"type":"Feature","id":"w337751336","properties":{"type":"yes","residential":true,"residents_est":50,"h3_10":"8a1e2e68ea1ffff","h3_11":"8b1e2e68ea1efff"},"geometry":{"type":"Polygon","coordinates":[[[20.062105,50.03198],[20.062552,50.031972],[20.062562,50.032213],[20.062114,50.03222],[20.062105,50.03198]]]}},{"type":"Feature","id":"w337751388","properties":{"type":"yes","residential":true,"residents_est":4,"h3_10":"8a1e2e68ea0ffff","h3_11":"8b1e2e68ea0afff"},"geometry":{"type":"Polygon","coordinates":[[[20.064425,50.032219],[20.064658,50.032212],[20.064663,50.032277],[20.064431,50.032284],[20.064425,50.032219]]]}},{"type":"Feature","id":"w337751430","properties":{"type":"yes","residential":true,"residents_est":36,"h3_10":"8a1e2e68eaaffff","h3_11":"8b1e2e68eaadfff"},"geometry":{"type":"Polygon","coordinates":[[[20.062248,50.031512],[20.062534,50.031506],[20.062548,50.031777],[20.062263,50.031783],[20.062248,50.031512]]]}},{"type":"Feature","id":"w337767755","properties":{"type":"yes","residential":true,"residents_est":33,"h3_10":"8a1e2e68eb4ffff","h3_11":"8b1e2e68eb4efff"},"geometry":{"type":"Polygon","coordinates":[[[20.065946,50.035342],[20.06627,50.035333],[20.066264,50.035236],[20.066367,50.035233],[20.066386,50.035619],[20.066308,50.035621],[20.066296,50.035445],[20.065955,50.035454],[20.065946,50.035342]]]}},{"type":"Feature","id":"w337767768","properties":{"type":"yes","residential":true,"residents_est":26,"h3_10":"8a1e2e68eb5ffff","h3_11":"8b1e2e68eb5dfff"},"geometry":{"type":"Polygon","coordinates":[[[20.065867,50.034921],[20.066372,50.034903],[20.066381,50.035015],[20.065877,50.035033],[20.065867,50.034921]]]}},{"type":"Feature","id":"w337767773","properties":{"type":"yes","residential":true,"residents_est":4,"h3_10":"8a1e2e68eb5ffff","h3_11":"8b1e2e68eb5cfff"},"geometry":{"type":"Polygon","coordinates":[[[20.065699,50.034862],[20.065765,50.034862],[20.065766,50.035107],[20.0657,50.035107],[20.065699,50.034862]]]}},{"type":"Feature","id":"w337767777","properties":{"type":"yes","residential":true,"residents_est":4,"h3_10":"8a1e2e68eb47fff","h3_11":"8b1e2e68eb40fff"},"geometry":{"type":"Polygon","coordinates":[[[20.065666,50.03558],[20.065766,50.035578],[20.065776,50.035742],[20.065675,50.035744],[20.065666,50.03558]]]}},{"type":"Feature","id":"w337767781","properties":{"type":"yes","residential":true,"residents_est":2,"h3_10":"8a1e2e68eb5ffff","h3_11":"8b1e2e68eb5afff"},"geometry":{"type":"Polygon","coordinates":[[[20.065559,50.034238],[20.065758,50.034233],[20.065761,50.034277],[20.065562,50.034282],[20.065559,50.034238]]]}},{"type":"Feature","id":"w337767791","properties":{"type":"yes","residential":true,"residents_est":4,"h3_10":"8a1e2e68eb5ffff","h3_11":"8b1e2e68eb58fff"},"geometry":{"type":"Polygon","coordinates":[[[20.065883,50.034674],[20.066047,50.034667],[20.066058,50.034777],[20.065895,50.034784],[20.065883,50.034674]]]}},{"type":"Feature","id":"w337813979","properties":{"type":"yes","residential":true,"residents_est":6,"h3_10":"8a1e2e68eb97fff","h3_11":"8b1e2e68eb90fff"},"geometry":{"type":"Polygon","coordinates":[[[20.05617,50.032198],[20.056428,50.032189],[20.056436,50.032284],[20.056178,50.032293],[20.05617,50.032198]]]}},{"type":"Feature","id":"w337814139","properties":{"type":"yes","residential":true,"residents_est":5,"h3_10":"8a1e2e68eb17fff","h3_11":"8b1e2e68eb11fff"},"geometry":{"type":"Polygon","coordinates":[[[20.059534,50.034935],[20.059704,50.034934],[20.059706,50.035054],[20.059662,50.035054],[20.059662,50.035064],[20.059535,50.035064],[20.059534,50.034935]]]}},{"type":"Feature","id":"w449715641","properties":{"type":"yes","residential":true,"residents_est":2,"h3_10":"8a1e2e68eb07fff","h3_11":"8b1e2e68eb02fff"},"geometry":{"type":"Polygon","coordinates":[[[20.05986,50.035098],[20.059938,50.035095],[20.059943,50.035182],[20.059866,50.035184],[20.05986,50.035098]]]}},{"type":"Feature","id":"w449715642","properties":{"type":"yes","residential":true,"residents_est":34,"h3_10":"8a1e2e68eb17fff","h3_11":"8b1e2e68eb11fff"},"geometry":{"type":"Polygon","coordinates":[[[20.059852,50.03458],[20.060072,50.034573],[20.060099,50.034903],[20.059879,50.03491],[20.059852,50.03458]]]}},{"type":"Feature","id":"w504237723","properties":{"type":"yes","residential":true,"residents_est":34,"h3_10":"8a1e2e68ebb7fff","h3_11":"8b1e2e68ebb3fff"},"geometry":{"type":"Polygon","coordinates":[[[20.056157,50.033192],[20.056702,50.033095],[20.056756,50.03322],[20.056211,50.033317],[20.056157,50.033192]]]}},{"type":"Feature","id":"w517004832","properties":{"type":"industrial","residential":false,"residents_est":0,"h3_10":"8a1e2e68ea37fff","h3_11":"8b1e2e68ea32fff"},"geometry":{"type":"Polygon","coordinates":[[[20.060203,50.033214],[20.060227,50.033014],[20.060989,50.033052],[20.060965,50.03325],[20.060203,50.033214]]]}},{"type":"Feature","id":"w709898911","properties":{"type":"industrial","residential":false,"residents_est":0,"h3_10":"8a1e2e68eb87fff","h3_11":"8b1e2e68eb81fff"},"geometry":{"type":"Polygon","coordinates":[[[20.058747,50.033037],[20.058923,50.033035],[20.058925,50.033116],[20.05875,50.033118],[20.058747,50.033037]]]}},{"type":"Feature","id":"w709898918","properties":{"type":"service","residential":false,"residents_est":0,"h3_10":"8a1e2e68eb37fff","h3_11":"8b1e2e68eb36fff"},"geometry":{"type":"Polygon","coordinates":[[[20.058336,50.03591],[20.058368,50.035896],[20.058433,50.035959],[20.058401,50.035973],[20.058336,50.03591]]]}},{"type":"Feature","id":"w709927157","properties":{"type":"yes","residential":false,"residents_est":0,"h3_10":"8a1e2e68eb47fff","h3_11":"8b1e2e68eb40fff"},"geometry":{"type":"Polygon","coordinates":[[[20.065348,50.035727],[20.065538,50.035721],[20.065539,50.035743],[20.065349,50.035748],[20.065348,50.035727]]]}},{"type":"Feature","id":"w709927158","properties":{"type":"yes","residential":false,"residents_est":0,"h3_10":"8a1e2e68eb47fff","h3_11":"8b1e2e68eb43fff"},"geometry":{"type":"Polygon","coordinates":[[[20.065641,50.035431],[20.065762,50.035427],[20.065764,50.035456],[20.065644,50.03546],[20.065641,50.035431]]]}},{"type":"Feature","id":"w1095545418","properties":{"type":"outbuilding","levels":1.0,"residential":false,"residents_est":0,"h3_10":"8a1e2e68eb17fff","h3_11":"8b1e2e68eb13fff"},"geometry":{"type":"Polygon","coordinates":[[[20.059129,50.034372],[20.059301,50.03437],[20.059312,50.034753],[20.05914,50.034755],[20.059129,50.034372]]]}},{"type":"Feature","id":"w1095545435","properties":{"type":"warehouse","levels":1.0,"residential":false,"residents_est":0,"h3_10":"8a1e2e68ea17fff","h3_11":"8b1e2e68ea14fff"},"geometry":{"type":"Polygon","coordinates":[[[20.061224,50.032722],[20.06125,50.032668],[20.06161,50.032739],[20.061585,50.032793],[20.061224,50.032722]]]}},{"type":"Feature","id":"w1184859702","properties":{"type":"yes","residential":true,"residents_est":122,"h3_10":"8a1e2e68ea17fff","h3_11":"8b1e2e68ea11fff"},"geometry":{"type":"Polygon","coordinates":[[[20.062225,50.032218],[20.062562,50.032213],[20.062594,50.032989],[20.062258,50.032996],[20.062225,50.032218]]]}},{"type":"Feature","id":"w1184859705","properties":{"type":"yes","residential":true,"residents_est":4,"h3_10":"8a1e2e68ea17fff","h3_11":"8b1e2e68ea13fff"},"geometry":{"type":"Polygon","coordinates":[[[20.061575,50.032145],[20.061627,50.032054],[20.061797,50.032094],[20.061745,50.032185],[20.061575,50.032145]]]}},{"type":"Feature","id":"w1248109263","properties":{"type":"yes","address":"Tadeusza Śliwiaka 64","name":"Shell","residential":false,"residents_est":0,"h3_10":"8a1e2e68eb27fff","h3_11":"8b1e2e68eb21fff"},"geometry":{"type":"Polygon","coordinates":[[[20.060553,50.036771],[20.060919,50.03674],[20.060946,50.036872],[20.06058,50.036903],[20.060553,50.036771]]]}},{"type":"Feature","id":"w1316684467","properties":{"type":"roof","residential":false,"residents_est":0,"h3_10":"8a1e2e68eaa7fff","h3_11":"8b1e2e68eaa4fff"},"geometry":{"type":"Polygon","coordinates":[[[20.059481,50.032187],[20.059619,50.032016],[20.059747,50.032066],[20.059613,50.03223],[20.059481,50.032187]]]}},{"type":"Feature","id":"w1316684468","properties":{"type":"roof","residential":false,"residents_est":0,"h3_10":"8a1e2e68eb8ffff","h3_11":"8b1e2e68eb8afff"},"geometry":{"type":"Polygon","coordinates":[[[20.059273,50.032047],[20.059391,50.032044],[20.059401,50.032225],[20.05928,50.032227],[20.059273,50.032047]]]}},{"type":"Feature","id":"w1319834638","properties":{"type":"yes","residential":true,"residents_est":2,"h3_10":"8a1e2e68ebb7fff","h3_11":"8b1e2e68ebb3fff"},"geometry":{"type":"Polygon","coordinates":[[[20.056525,50.032939],[20.056695,50.032933],[20.056701,50.033003],[20.056531,50.033009],[20.056528,50.032983],[20.056611,50.03298],[20.056609,50.032959],[20.056527,50.032961],[20.056525,50.032939]]]}},{"type":"Feature","id":"w1320035048","properties":{"type":"roof","residential":false,"residents_est":0,"h3_10":"8a1e2e68eba7fff","h3_11":"8b1e2e68eba6fff"},"geometry":{"type":"Polygon","coordinates":[[[20.056564,50.034212],[20.056635,50.034186],[20.05668,50.034238],[20.056609,50.034263],[20.056564,50.034212]]]}},{"type":"Feature","id":"w1320037768","properties":{"type":"industrial","residential":false,"residents_est":0,"h3_10":"8a1e2e68eb8ffff","h3_11":"8b1e2e68eb8cfff"},"geometry":{"type":"Polygon","coordinates":[[[20.059451,50.033186],[20.059468,50.033028],[20.060002,50.033051],[20.059986,50.033209],[20.059451,50.033186]]]}},{"type":"Feature","id":"w1320037769","properties":{"type":"yes","residential":true,"residents_est":2,"h3_10":"8a1e2e68ea37fff","h3_11":"8b1e2e68ea32fff"},"geometry":{"type":"Polygon","coordinates":[[[20.060686,50.033285],[20.060692,50.033236],[20.060878,50.033245],[20.060872,50.033293],[20.060686,50.033285]]]}},{"type":"Feature","id":"w1320037770","properties":{"type":"industrial","residential":false,"residents_est":0,"h3_10":"8a1e2e68eb8ffff","h3_11":"8b1e2e68eb8dfff"},"geometry":{"type":"Polygon","coordinates":[[[20.060024,50.033244],[20.060028,50.033206],[20.06025,50.033216],[20.060246,50.033254],[20.060024,50.033244]]]}},{"type":"Feature","id":"w1320037772","properties":{"type":"roof","residential":false,"residents_est":0,"h3_10":"8a1e2e68eb8ffff","h3_11":"8b1e2e68eb8dfff"},"geometry":{"type":"Polygon","coordinates":[[[20.059928,50.033247],[20.059931,50.033207],[20.05998,50.033209],[20.059976,50.033248],[20.059928,50.033247]]]}},{"type":"Feature","id":"w1320037777","properties":{"type":"industrial","residential":false,"residents_est":0,"h3_10":"8a1e2e68ea17fff","h3_11":"8b1e2e68ea15fff"},"geometry":{"type":"Polygon","coordinates":[[[20.061639,50.032659],[20.061659,50.03262],[20.061736,50.032636],[20.061716,50.032675],[20.061639,50.032659]]]}},{"type":"Feature","id":"w1320037778","properties":{"type":"industrial","residential":false,"residents_est":0,"h3_10":"8a1e2e68ea17fff","h3_11":"8b1e2e68ea15fff"},"geometry":{"type":"Polygon","coordinates":[[[20.061496,50.032648],[20.061529,50.032577],[20.061609,50.032593],[20.061575,50.032663],[20.061496,50.032648]]]}},{"type":"Feature","id":"w1320037781","properties":{"type":"industrial","residential":false,"residents_est":0,"h3_10":"8a1e2e68ea07fff","h3_11":"8b1e2e68ea06fff"},"geometry":{"type":"Polygon","coordinates":[[[20.062145,50.032998],[20.062594,50.032989],[20.0626,50.033119],[20.062151,50.033127],[20.062145,50.032998]]]}},{"type":"Feature","id":"w1320037782","properties":{"type":"roof","residential":false,"residents_est":0,"h3_10":"8a1e2e68ea07fff","h3_11":"8b1e2e68ea06fff"},"geometry":{"type":"Polygon","coordinates":[[[20.062009,50.033071],[20.062148,50.033067],[20.062152,50.033118],[20.062012,50.033122],[20.062009,50.033071]]]}},{"type":"Feature","id":"w1320037788","properties":{"type":"roof","residential":false,"residents_est":0,"h3_10":"8a1e2e68eaaffff","h3_11":"8b1e2e68eaadfff"},"geometry":{"type":"Polygon","coordinates":[[[20.062242,50.031427],[20.062521,50.031315],[20.062534,50.031506],[20.062248,50.031512],[20.062242,50.031427]]]}},{"type":"Feature","id":"w1320339055","properties":{"type":"roof","residential":false,"residents_est":0,"h3_10":"8a1e2e68ea1ffff","h3_11":"8b1e2e68ea1efff"},"geometry":{"type":"Polygon","coordinates":[[[20.062263,50.031783],[20.062548,50.031777],[20.062552,50.031859],[20.062267,50.031864],[20.062263,50.031783]]]}},{"type":"Feature","id":"w1320401131","properties":{"type":"industrial","residential":false,"residents_est":0,"h3_10":"8a1e2e68eb87fff","h3_11":"8b1e2e68eb81fff"},"geometry":{"type":"Polygon","coordinates":[[[20.058939,50.033004],[20.05905,50.033001],[20.059057,50.033136],[20.058945,50.033139],[20.058939,50.033004]]]}},{"type":"Feature","id":"w1320401132","properties":{"type":"industrial","residential":false,"residents_est":0,"h3_10":"8a1e2e68eb87fff","h3_11":"8b1e2e68eb81fff"},"geometry":{"type":"Polygon","coordinates":[[[20.058688,50.033118],[20.05885,50.033117],[20.058852,50.033169],[20.058689,50.033171],[20.058688,50.033118]]]}},{"type":"Feature","id":"w1475363571","properties":{"type":"yes","name":"Shell","residential":false,"residents_est":0,"h3_10":"8a1e2e68eb27fff","h3_11":"8b1e2e68eb21fff"},"geometry":{"type":"Polygon","coordinates":[[[20.06071,50.036557],[20.060736,50.036555],[20.060732,50.036535],[20.060867,50.036524],[20.060881,50.036589],[20.06072,50.036604],[20.06071,50.036557]]]}},{"type":"Feature","id":"w1545064214","properties":{"type":"yes","residential":true,"residents_est":5,"h3_10":"8a1e2e68eb17fff","h3_11":"8b1e2e68eb10fff"},"geometry":{"type":"Polygon","coordinates":[[[20.059261,50.034963],[20.059269,50.034938],[20.059436,50.034936],[20.059443,50.035065],[20.059263,50.035065],[20.059261,50.034963]]]}}]}