{"type":"FeatureCollection","features":[{"type":"Feature","id":"w233371389","properties":{"type":"yes","address":"Norymberska 10","residential":true,"residents_est":11,"h3_10":"8a1e2e6948d7fff","h3_11":"8b1e2e6948d2fff"},"geometry":{"type":"Polygon","coordinates":[[[19.91201,50.031462],[19.912034,50.031404],[19.912092,50.031406],[19.912095,50.031367],[19.912117,50.031368],[19.912121,50.031281],[19.912102,50.031281],[19.912106,50.031237],[19.912128,50.031238],[19.912132,50.031191],[19.912306,50.031197],[19.912285,50.031472],[19.91201,50.031462]]]}},{"type":"Feature","id":"w233371394","properties":{"type":"yes","address":"Norymberska 10a","residential":true,"residents_est":23,"h3_10":"8a1e2e6948d7fff","h3_11":"8b1e2e6948d3fff"},"geometry":{"type":"Polygon","coordinates":[[[19.912503,50.031479],[19.912524,50.031204],[19.9127,50.03121],[19.912696,50.031257],[19.912718,50.031257],[19.912714,50.031301],[19.912693,50.0313],[19.912688,50.031367],[19.91292,50.031372],[19.912926,50.031309],[19.912903,50.031308],[19.912907,50.031264],[19.912929,50.031264],[19.912933,50.031217],[19.913108,50.031223],[19.913086,50.031498],[19.912912,50.031493],[19.912913,50.031464],[19.912681,50.03146],[19.912678,50.031484],[19.912503,50.031479]]]}},{"type":"Feature","id":"w233371396","properties":{"type":"yes","address":"Norymberska 10b","residential":true,"residents_est":23,"h3_10":"8a1e2e6948dffff","h3_11":"8b1e2e6948defff"},"geometry":{"type":"Polygon","coordinates":[[[19.913305,50.031505],[19.913326,50.03123],[19.913501,50.031236],[19.913497,50.031283],[19.913519,50.031284],[19.913516,50.031328],[19.913494,50.031327],[19.913488,50.031393],[19.913722,50.031398],[19.913727,50.031334],[19.913705,50.031333],[19.913709,50.031289],[19.913731,50.03129],[19.913735,50.031245],[19.913909,50.03125],[19.913888,50.031524],[19.913713,50.031518],[19.913715,50.031492],[19.913482,50.031487],[19.913479,50.031511],[19.913305,50.031505]]]}},{"type":"Feature","id":"w233371397","properties":{"type":"apartments","levels":5.0,"address":"Norymberska 10c","residential":true,"residents_est":133,"h3_10":"8a1e2e6948dffff","h3_11":"8b1e2e6948d9fff"},"geometry":{"type":"Polygon","coordinates":[[[19.914218,50.031545],[19.914235,50.03148],[19.914327,50.031482],[19.914396,50.031267],[19.914609,50.031274],[19.914609,50.031266],[19.914835,50.031274],[19.914834,50.031282],[19.914914,50.031284],[19.914915,50.031276],[19.915061,50.031281],[19.91506,50.031289],[19.915108,50.03129],[19.915321,50.031383],[19.915003,50.031373],[19.915002,50.031385],[19.914953,50.031383],[19.914953,50.031371],[19.914701,50.031363],[19.914701,50.031375],[19.91465,50.031373],[19.91465,50.031362],[19.914547,50.031357],[19.914506,50.031498],[19.9146,50.031502],[19.9146,50.031492],[19.91473,50.031496],[19.914729,50.031506],[19.914902,50.031511],[19.914904,50.031501],[19.915033,50.031505],[19.915032,50.031516],[19.915203,50.031523],[19.915205,50.031511],[19.915334,50.031515],[19.915333,50.031526],[19.915506,50.031532],[19.915508,50.031521],[19.915637,50.031526],[19.915636,50.031536],[19.915681,50.031537],[19.915969,50.031658],[19.91567,50.031649],[19.915669,50.031655],[19.914548,50.031618],[19.914548,50.031613],[19.914475,50.03161],[19.914488,50.031556],[19.914218,50.031545]]]}},{"type":"Feature","id":"w233371449","properties":{"type":"residential","levels":4.0,"address":"Pychowicka 18","residential":true,"residents_est":41,"h3_10":"8a1e2e6948cffff","h3_11":"8b1e2e6948c9fff"},"geometry":{"type":"Polygon","coordinates":[[[19.916193,50.032281],[19.916212,50.032221],[19.916284,50.03223],[19.916379,50.031921],[19.916645,50.031968],[19.916532,50.032335],[19.916425,50.032321],[19.916428,50.032311],[19.916372,50.032303],[19.916368,50.032314],[19.916262,50.0323],[19.916267,50.032289],[19.916193,50.032281]]]}},{"type":"Feature","id":"w233371450","properties":{"type":"residential","levels":4.0,"address":"Pychowicka 18","residential":true,"residents_est":46,"h3_10":"8a1e2e6948cffff","h3_11":"8b1e2e6948c8fff"},"geometry":{"type":"Polygon","coordinates":[[[19.915364,50.032186],[19.915493,50.031763],[19.915759,50.031811],[19.915655,50.032151],[19.915726,50.03216],[19.915708,50.032219],[19.915637,50.03221],[19.915634,50.032221],[19.915528,50.032207],[19.91553,50.032197],[19.915473,50.032189],[19.91547,50.0322],[19.915364,50.032186]]]}},{"type":"Feature","id":"w233371451","properties":{"type":"residential","levels":4.0,"address":"Pychowicka 18","residential":true,"residents_est":45,"h3_10":"8a1e2e6948cffff","h3_11":"8b1e2e6948c8fff"},"geometry":{"type":"Polygon","coordinates":[[[19.915746,50.032224],[19.915764,50.032165],[19.915834,50.032173],[19.915935,50.031843],[19.916202,50.031889],[19.916105,50.032208],[19.916175,50.032217],[19.916157,50.032276],[19.916086,50.032268],[19.916083,50.032278],[19.915978,50.032264],[19.915981,50.032254],[19.915923,50.032246],[19.915919,50.032257],[19.915813,50.032243],[19.915816,50.032233],[19.915746,50.032224]]]}},{"type":"Feature","id":"w233371453","properties":{"type":"residential","levels":3.0,"address":"Pychowicka 18c","residential":true,"residents_est":24,"h3_10":"8a1e2e6948cffff","h3_11":"8b1e2e6948cefff"},"geometry":{"type":"Polygon","coordinates":[[[19.914912,50.032116],[19.914934,50.032115],[19.91502,50.031827],[19.915014,50.031822],[19.915022,50.031823],[19.915029,50.0318],[19.915022,50.031798],[19.91503,50.031797],[19.915041,50.031759],[19.915035,50.031754],[19.915127,50.031765],[19.915132,50.031759],[19.91513,50.031766],[19.915272,50.031784],[19.915251,50.031852],[19.915259,50.031853],[19.91525,50.031855],[19.915164,50.032143],[19.915173,50.032148],[19.915104,50.03214],[19.915107,50.032131],[19.915059,50.032125],[19.915064,50.032108],[19.915046,50.032105],[19.915041,50.032123],[19.914994,50.032117],[19.914992,50.032126],[19.914912,50.032116]]]}},{"type":"Feature","id":"w233371454","properties":{"type":"residential","levels":3.0,"address":"Pychowicka 18d","residential":true,"residents_est":21,"h3_10":"8a1e2e6948dffff","h3_11":"8b1e2e6948ddfff"},"geometry":{"type":"Polygon","coordinates":[[[19.914515,50.032066],[19.914537,50.032065],[19.914607,50.031831],[19.914599,50.03183],[19.914608,50.031827],[19.914628,50.031759],[19.914858,50.031788],[19.914837,50.031855],[19.914845,50.031857],[19.914836,50.031859],[19.914767,50.032093],[19.914788,50.032096],[19.914787,50.0321],[19.914707,50.03209],[19.91471,50.032081],[19.914663,50.032075],[19.914668,50.032058],[19.91465,50.032056],[19.914645,50.032073],[19.914598,50.032067],[19.914595,50.032076],[19.914515,50.032066]]]}},{"type":"Feature","id":"w233371455","properties":{"type":"residential","levels":3.0,"address":"Pychowicka 18e","residential":true,"residents_est":24,"h3_10":"8a1e2e6948dffff","h3_11":"8b1e2e6948dcfff"},"geometry":{"type":"Polygon","coordinates":[[[19.913984,50.032026],[19.914006,50.032023],[19.914032,50.03173],[19.914023,50.03173],[19.914033,50.031726],[19.914039,50.031658],[19.91427,50.031666],[19.914264,50.031734],[19.914272,50.031738],[19.914264,50.031738],[19.91424,50.032031],[19.914249,50.032035],[19.914181,50.032033],[19.914181,50.032023],[19.914135,50.032021],[19.914136,50.032005],[19.914115,50.032004],[19.914113,50.03202],[19.914067,50.032019],[19.914066,50.032029],[19.913984,50.032026]]]}},{"type":"Feature","id":"w233371456","properties":{"type":"residential","levels":3.0,"address":"Pychowicka 18f","residential":true,"residents_est":24,"h3_10":"8a1e2e6948dffff","h3_11":"8b1e2e6948dcfff"},"geometry":{"type":"Polygon","coordinates":[[[19.913592,50.032012],[19.913603,50.032008],[19.913628,50.031716],[19.91362,50.031716],[19.913629,50.031712],[19.913635,50.031644],[19.913866,50.031652],[19.913861,50.03172],[19.913869,50.03172],[19.913861,50.031724],[19.913836,50.032016],[19.913858,50.032017],[19.913857,50.032021],[19.913777,50.032018],[19.913777,50.032009],[19.913731,50.032007],[19.913732,50.03199],[19.91371,50.03199],[19.913709,50.032006],[19.913662,50.032004],[19.913661,50.032014],[19.913592,50.032012]]]}},{"type":"Feature","id":"w233371457","properties":{"type":"residential","levels":3.0,"address":"Pychowicka 18g","residential":true,"residents_est":24,"h3_10":"8a1e2e6948d7fff","h3_11":"8b1e2e6948d1fff"},"geometry":{"type":"Polygon","coordinates":[[[19.913177,50.031987],[19.9132,50.031985],[19.913225,50.031702],[19.913216,50.031698],[19.913225,50.031698],[19.913231,50.03163],[19.913462,50.031638],[19.913456,50.031706],[19.913465,50.03171],[19.913456,50.03171],[19.913431,50.032003],[19.913441,50.032007],[19.913373,50.032004],[19.913374,50.031994],[19.913325,50.031992],[19.913327,50.031976],[19.913309,50.031975],[19.913307,50.031992],[19.913177,50.031987]]]}},{"type":"Feature","id":"w233371458","properties":{"type":"residential","levels":3.0,"address":"Pychowicka 18h","residential":true,"residents_est":20,"h3_10":"8a1e2e6948d7fff","h3_11":"8b1e2e6948d1fff"},"geometry":{"type":"Polygon","coordinates":[[[19.912777,50.031919],[19.912801,50.031916],[19.912821,50.031688],[19.912811,50.031684],[19.912821,50.031684],[19.912827,50.031616],[19.913058,50.031624],[19.913052,50.031692],[19.913061,50.031696],[19.913051,50.031696],[19.913031,50.031934],[19.913054,50.031939],[19.912973,50.031935],[19.912974,50.031926],[19.912925,50.031924],[19.912927,50.031908],[19.912908,50.031907],[19.912907,50.031923],[19.912777,50.031919]]]}},{"type":"Feature","id":"w233371502","properties":{"type":"yes","address":"Kamieniarska 31","residential":true,"residents_est":10,"h3_10":"8a1e2e6948dffff","h3_11":"8b1e2e6948dbfff"},"geometry":{"type":"Polygon","coordinates":[[[19.914114,50.031126],[19.914117,50.031067],[19.914165,50.031069],[19.914167,50.031048],[19.914287,50.031054],[19.914284,50.031075],[19.914312,50.031076],[19.914315,50.031055],[19.914579,50.031073],[19.91458,50.031064],[19.914724,50.031071],[19.914721,50.0311],[19.914811,50.031104],[19.914804,50.031162],[19.914714,50.031158],[19.914712,50.031168],[19.914643,50.031165],[19.914645,50.031152],[19.914578,50.031148],[19.914577,50.031162],[19.914511,50.031159],[19.914514,50.031134],[19.914422,50.031128],[19.91442,50.03114],[19.914315,50.031135],[19.914313,50.031146],[19.914229,50.031141],[19.91423,50.031131],[19.914114,50.031126]]]}},{"type":"Feature","id":"w233371508","properties":{"type":"yes","address":"Kamieniarska 37","residential":true,"residents_est":3,"h3_10":"8a1e2e6948dffff","h3_11":"8b1e2e6948dafff"},"geometry":{"type":"Polygon","coordinates":[[[19.914001,50.030994],[19.91401,50.030903],[19.914125,50.030906],[19.914123,50.030915],[19.914299,50.030921],[19.914289,50.031006],[19.914001,50.030994]]]}},{"type":"Feature","id":"w233371509","properties":{"type":"yes","residential":false,"residents_est":0,"h3_10":"8a1e2e6948dffff","h3_11":"8b1e2e6948dafff"},"geometry":{"type":"Polygon","coordinates":[[[19.913546,50.030923],[19.913556,50.030865],[19.913641,50.03087],[19.91363,50.030929],[19.913546,50.030923]]]}},{"type":"Feature","id":"w233371511","properties":{"type":"yes","address":"Kamieniarska 37c","residential":true,"residents_est":1,"h3_10":"8a1e2e6948dffff","h3_11":"8b1e2e6948dafff"},"geometry":{"type":"Polygon","coordinates":[[[19.913758,50.030939],[19.913774,50.030851],[19.913898,50.03086],[19.913882,50.030948],[19.913758,50.030939]]]}},{"type":"Feature","id":"w233371540","properties":{"type":"yes","address":"Świętego Jacka 61","residential":true,"residents_est":1,"h3_10":"8a1e2e694877fff","h3_11":"8b1e2e694873fff"},"geometry":{"type":"Polygon","coordinates":[[[19.915035,50.03504],[19.915069,50.035004],[19.915081,50.035009],[19.9151,50.034989],[19.91507,50.034978],[19.9151,50.034946],[19.915254,50.035001],[19.915202,50.035056],[19.915147,50.035034],[19.915128,50.035055],[19.915087,50.035039],[19.915072,50.035054],[19.915035,50.03504]]]}},{"type":"Feature","id":"w233371560","properties":{"type":"yes","residential":true,"residents_est":14,"h3_10":"8a1e2e69486ffff","h3_11":"8b1e2e694869fff"},"geometry":{"type":"Polygon","coordinates":[[[19.91831,50.035948],[19.918426,50.03586],[19.918458,50.035839],[19.918466,50.035844],[19.918521,50.035804],[19.918512,50.035799],[19.918628,50.035711],[19.91866,50.03569],[19.918669,50.035695],[19.918723,50.035655],[19.918714,50.035651],[19.918742,50.035627],[19.918862,50.035541],[19.918908,50.035567],[19.918917,50.03556],[19.918952,50.035579],[19.918943,50.035586],[19.918968,50.0356],[19.918819,50.03571],[19.918792,50.035694],[19.918738,50.035734],[19.918765,50.035749],[19.918616,50.035858],[19.91859,50.035843],[19.918536,50.035882],[19.918562,50.035898],[19.918415,50.036005],[19.91839,50.035991],[19.91838,50.036],[19.918346,50.035981],[19.918356,50.035974],[19.91831,50.035948]]]}},{"type":"Feature","id":"w233371703","properties":{"type":"yes","residential":true,"residents_est":1,"h3_10":"8a1e2e6948c7fff","h3_11":"8b1e2e6948c1fff"},"geometry":{"type":"Polygon","coordinates":[[[19.91448,50.032476],[19.914535,50.032449],[19.914536,50.032456],[19.914646,50.032457],[19.914644,50.032517],[19.914484,50.032519],[19.91448,50.032476]]]}},{"type":"Feature","id":"w233371919","properties":{"type":"yes","address":"Pychowicka 20","residential":true,"residents_est":2,"h3_10":"8a1e2e6948d7fff","h3_11":"8b1e2e6948d6fff"},"geometry":{"type":"Polygon","coordinates":[[[19.911938,50.031905],[19.911946,50.031831],[19.912102,50.031838],[19.912105,50.031813],[19.912142,50.031815],[19.912139,50.031839],[19.91219,50.031842],[19.912189,50.031852],[19.912245,50.031856],[19.912237,50.031921],[19.911938,50.031905]]]}},{"type":"Feature","id":"w233372520","properties":{"type":"yes","residential":true,"residents_est":2,"h3_10":"8a1e2e6948dffff","h3_11":"8b1e2e6948dafff"},"geometry":{"type":"Polygon","coordinates":[[[19.913682,50.031114],[19.913692,50.031025],[19.913782,50.031029],[19.913781,50.031038],[19.913816,50.03104],[19.913817,50.031031],[19.913883,50.031034],[19.913871,50.031125],[19.913816,50.031121],[19.913814,50.031133],[19.913736,50.031129],[19.913737,50.031117],[19.913682,50.031114]]]}},{"type":"Feature","id":"w233372858","properties":{"type":"yes","residential":true,"residents_est":2,"h3_10":"8a1e2e6948dffff","h3_11":"8b1e2e6948dafff"},"geometry":{"type":"Polygon","coordinates":[[[19.913871,50.031125],[19.913883,50.031034],[19.91395,50.031037],[19.913948,50.031049],[19.91401,50.031052],[19.914012,50.03104],[19.914074,50.031044],[19.914072,50.031065],[19.914117,50.031067],[19.914114,50.031126],[19.914068,50.031124],[19.914066,50.031132],[19.914012,50.03113],[19.91401,50.031143],[19.913928,50.031139],[19.913929,50.031128],[19.913871,50.031125]]]}},{"type":"Feature","id":"w233372997","properties":{"type":"yes","residential":true,"residents_est":34,"h3_10":"8a1e2e6949b7fff","h3_11":"8b1e2e6949b5fff"},"geometry":{"type":"Polygon","coordinates":[[[19.905196,50.036017],[19.905226,50.035948],[19.905285,50.035959],[19.905397,50.035702],[19.905203,50.035666],[19.905254,50.035548],[19.905448,50.035582],[19.905453,50.035571],[19.905683,50.035612],[19.905678,50.035623],[19.905881,50.035658],[19.905831,50.035776],[19.905635,50.035741],[19.905522,50.036002],[19.905579,50.036012],[19.905549,50.036081],[19.905444,50.036062],[19.905434,50.036085],[19.905291,50.036059],[19.905301,50.036036],[19.905196,50.036017]]]}},{"type":"Feature","id":"w233373434","properties":{"type":"yes","residential":false,"residents_est":0,"h3_10":"8a1e2e694877fff","h3_11":"8b1e2e694873fff"},"geometry":{"type":"Polygon","coordinates":[[[19.91508,50.035161],[19.915114,50.035111],[19.915199,50.035136],[19.915165,50.035185],[19.91508,50.035161]]]}},{"type":"Feature","id":"w233373453","properties":{"type":"yes","residential":true,"residents_est":7,"h3_10":"8a1e2e694997fff","h3_11":"8b1e2e694990fff"},"geometry":{"type":"Polygon","coordinates":[[[19.905047,50.034226],[19.90521,50.034186],[19.905333,50.03439],[19.905168,50.03443],[19.905047,50.034226]]]}},{"type":"Feature","id":"w233374181","properties":{"type":"yes","residential":true,"residents_est":2,"h3_10":"8a1e2e694987fff","h3_11":"8b1e2e694980fff"},"geometry":{"type":"Polygon","coordinates":[[[19.90622,50.035168],[19.906261,50.03508],[19.906453,50.035115],[19.906412,50.035204],[19.90622,50.035168]]]}},{"type":"Feature","id":"w233374264","properties":{"type":"yes","residential":false,"residents_est":0,"h3_10":"8a1e2e6948dffff","h3_11":"8b1e2e6948dafff"},"geometry":{"type":"Polygon","coordinates":[[[19.91394,50.030991],[19.913949,50.03092],[19.914008,50.030922],[19.914001,50.030994],[19.91394,50.030991]]]}},{"type":"Feature","id":"w233374565","properties":{"type":"yes","residential":true,"residents_est":1,"h3_10":"8a1e2e694997fff","h3_11":"8b1e2e694994fff"},"geometry":{"type":"Polygon","coordinates":[[[19.904588,50.034451],[19.904715,50.034416],[19.904754,50.034475],[19.904626,50.034509],[19.904588,50.034451]]]}},{"type":"Feature","id":"w233374582","properties":{"type":"yes","residential":true,"residents_est":15,"h3_10":"8a1e2e6949b7fff","h3_11":"8b1e2e6949b1fff"},"geometry":{"type":"Polygon","coordinates":[[[19.905506,50.035367],[19.905621,50.035103],[19.905893,50.035153],[19.905776,50.035417],[19.905506,50.035367]]]}},{"type":"Feature","id":"w233374637","properties":{"type":"outbuilding","levels":1.0,"residential":false,"residents_est":0,"h3_10":"8a1e2e694987fff","h3_11":"8b1e2e694982fff"},"geometry":{"type":"Polygon","coordinates":[[[19.905872,50.034323],[19.906116,50.03427],[19.906362,50.034744],[19.906118,50.034797],[19.905872,50.034323]]]}},{"type":"Feature","id":"w233374699","properties":{"type":"yes","residential":true,"residents_est":13,"h3_10":"8a1e2e6949b7fff","h3_11":"8b1e2e6949b3fff"},"geometry":{"type":"Polygon","coordinates":[[[19.905134,50.035303],[19.9053,50.034925],[19.905466,50.034955],[19.905303,50.035333],[19.905134,50.035303]]]}},{"type":"Feature","id":"w233375220","properties":{"type":"yes","residential":true,"residents_est":7,"h3_10":"8a1e2e694997fff","h3_11":"8b1e2e694991fff"},"geometry":{"type":"Polygon","coordinates":[[[19.905418,50.034134],[19.905583,50.034094],[19.905705,50.034297],[19.905539,50.034339],[19.905418,50.034134]]]}},{"type":"Feature","id":"w233375663","properties":{"type":"yes","address":"Kamieniarska 37a","residential":true,"residents_est":1,"h3_10":"8a1e2e6948dffff","h3_11":"8b1e2e6948dafff"},"geometry":{"type":"Polygon","coordinates":[[[19.91363,50.030929],[19.913646,50.030842],[19.913774,50.030851],[19.913758,50.030939],[19.91363,50.030929]]]}},{"type":"Feature","id":"w233375886","properties":{"type":"yes","residential":true,"residents_est":1,"h3_10":"8a1e2e6948dffff","h3_11":"8b1e2e6948dafff"},"geometry":{"type":"Polygon","coordinates":[[[19.913574,50.03108],[19.91358,50.031021],[19.913692,50.031025],[19.913684,50.031091],[19.913656,50.031089],[19.913657,50.031083],[19.913574,50.03108]]]}},{"type":"Feature","id":"w233377825","properties":{"type":"yes","address":"Tyniecka 45","residential":true,"residents_est":2,"h3_10":"8a1e2e6949a7fff","h3_11":"8b1e2e6949a0fff"},"geometry":{"type":"Polygon","coordinates":[[[19.90589,50.036249],[19.90592,50.036179],[19.905898,50.036175],[19.905907,50.036148],[19.905931,50.036153],[19.905955,50.036097],[19.906077,50.03612],[19.906014,50.036272],[19.90589,50.036249]]]}},{"type":"Feature","id":"w297695313","properties":{"type":"yes","residential":true,"residents_est":1,"h3_10":"8a1e2e6948c7fff","h3_11":"8b1e2e6948c1fff"},"geometry":{"type":"Polygon","coordinates":[[[19.914361,50.03244],[19.91437,50.032323],[19.914453,50.032325],[19.914444,50.032443],[19.914361,50.03244]]]}},{"type":"Feature","id":"w297695315","properties":{"type":"yes","residential":false,"residents_est":0,"h3_10":"8a1e2e6948c7fff","h3_11":"8b1e2e6948c5fff"},"geometry":{"type":"Polygon","coordinates":[[[19.914529,50.032955],[19.914532,50.032866],[19.914573,50.032867],[19.914572,50.032884],[19.914592,50.032884],[19.91459,50.032939],[19.914559,50.032939],[19.914558,50.032955],[19.914529,50.032955]]]}},{"type":"Feature","id":"w297695316","properties":{"type":"yes","residential":true,"residents_est":1,"h3_10":"8a1e2e6948c7fff","h3_11":"8b1e2e6948c1fff"},"geometry":{"type":"Polygon","coordinates":[[[19.914644,50.032505],[19.914648,50.032391],[19.914744,50.032392],[19.914741,50.032506],[19.914644,50.032505]]]}},{"type":"Feature","id":"w297695317","properties":{"type":"yes","residential":true,"residents_est":1,"h3_10":"8a1e2e6948c7fff","h3_11":"8b1e2e6948c5fff"},"geometry":{"type":"Polygon","coordinates":[[[19.914372,50.032733],[19.91441,50.032654],[19.914443,50.032663],[19.914521,50.03267],[19.914521,50.032701],[19.914492,50.032716],[19.914459,50.032712],[19.914372,50.032733]]]}},{"type":"Feature","id":"w429870696","properties":{"type":"residential","levels":3.0,"address":"Pychowicka 18j","residential":true,"residents_est":29,"h3_10":"8a1e2e6948d7fff","h3_11":"8b1e2e6948d0fff"},"geometry":{"type":"Polygon","coordinates":[[[19.912,50.031692],[19.912032,50.031576],[19.912357,50.031589],[19.912356,50.0316],[19.912654,50.031611],[19.912652,50.031629],[19.912659,50.031635],[19.912652,50.031634],[19.912648,50.03168],[19.912657,50.03168],[19.912656,50.031685],[19.912648,50.031685],[19.912644,50.03172],[19.912626,50.03172],[19.912624,50.031751],[19.912642,50.031752],[19.912632,50.031865],[19.91265,50.031864],[19.912649,50.031868],[19.912571,50.031866],[19.912572,50.031856],[19.912524,50.031854],[19.912526,50.031837],[19.912508,50.031837],[19.912506,50.031854],[19.912398,50.031849],[19.912408,50.031728],[19.912398,50.031726],[19.912409,50.031726],[19.912411,50.031711],[19.912399,50.031708],[19.912409,50.031709],[19.912411,50.031697],[19.912118,50.031686],[19.912116,50.031696],[19.912,50.031692]]]}},{"type":"Feature","id":"w507224493","properties":{"type":"yes","residential":true,"residents_est":1,"h3_10":"8a1e2e6948dffff","h3_11":"8b1e2e6948dafff"},"geometry":{"type":"Polygon","coordinates":[[[19.913949,50.03092],[19.913958,50.03084],[19.914076,50.030845],[19.914071,50.030905],[19.91401,50.030903],[19.914008,50.030922],[19.913949,50.03092]]]}},{"type":"Feature","id":"w533120178","properties":{"type":"yes","residential":true,"residents_est":2,"h3_10":"8a1e2e69486ffff","h3_11":"8b1e2e69486bfff"},"geometry":{"type":"Polygon","coordinates":[[[19.917986,50.035281],[19.918094,50.035252],[19.918105,50.035269],[19.918216,50.03524],[19.918262,50.035311],[19.918195,50.035328],[19.918205,50.035344],[19.918135,50.035362],[19.918123,50.035343],[19.918037,50.035365],[19.918031,50.035354],[19.918012,50.035359],[19.917986,50.035317],[19.918005,50.035312],[19.917986,50.035281]]]}},{"type":"Feature","id":"w563933252","properties":{"type":"yes","residential":true,"residents_est":7,"h3_10":"8a1e2e6949a7fff","h3_11":"8b1e2e6949a0fff"},"geometry":{"type":"Polygon","coordinates":[[[19.906335,50.035807],[19.906439,50.035805],[19.906457,50.036144],[19.906353,50.036146],[19.906335,50.035807]]]}},{"type":"Feature","id":"w703040906","properties":{"type":"yes","residential":true,"residents_est":15,"h3_10":"8a1e2e6949b7fff","h3_11":"8b1e2e6949b4fff"},"geometry":{"type":"Polygon","coordinates":[[[19.90425,50.035819],[19.904307,50.035692],[19.904524,50.035732],[19.904528,50.035722],[19.904584,50.035732],[19.90458,50.035743],[19.904872,50.035797],[19.904848,50.035849],[19.904866,50.035852],[19.904832,50.035927],[19.904743,50.03591],[19.904747,50.0359],[19.904724,50.035895],[19.904719,50.035906],[19.90465,50.035893],[19.904646,50.0359],[19.904532,50.035879],[19.904535,50.035871],[19.90425,50.035819]]]}},{"type":"Feature","id":"w875912035","properties":{"type":"yes","residential":false,"residents_est":0,"h3_10":"8a1e2e69484ffff","h3_11":"8b1e2e69484dfff"},"geometry":{"type":"Polygon","coordinates":[[[19.918595,50.035196],[19.918646,50.035145],[19.918692,50.035165],[19.918684,50.035173],[19.918706,50.035182],[19.91869,50.035198],[19.918668,50.035189],[19.918641,50.035216],[19.918595,50.035196]]]}},{"type":"Feature","id":"w971385282","properties":{"type":"yes","levels":3.0,"address":"Wyłom 20","residential":true,"residents_est":6,"h3_10":"8a1e2e694957fff","h3_11":"8b1e2e694956fff"},"geometry":{"type":"Polygon","coordinates":[[[19.911875,50.03707],[19.911881,50.037052],[19.911969,50.037001],[19.912018,50.036932],[19.912115,50.036849],[19.912137,50.036858],[19.912108,50.036884],[19.912094,50.037009],[19.912235,50.03717],[19.912229,50.037186],[19.912177,50.037175],[19.912126,50.037157],[19.912029,50.037108],[19.911978,50.037094],[19.911905,50.037092],[19.911881,50.03708],[19.911875,50.03707]]]}},{"type":"Feature","id":"w1039863659","properties":{"type":"outbuilding","levels":1.0,"residential":false,"residents_est":0,"h3_10":"8a1e2e69486ffff","h3_11":"8b1e2e69486afff"},"geometry":{"type":"Polygon","coordinates":[[[19.917518,50.035396],[19.917583,50.035369],[19.917659,50.035446],[19.917593,50.035472],[19.917518,50.035396]]]}},{"type":"Feature","id":"w1237521310","properties":{"type":"public","levels":3.0,"address":"Wyłom 22","residential":false,"residents_est":0,"h3_10":"8a1e2e69480ffff","h3_11":"8b1e2e69480cfff"},"geometry":{"type":"Polygon","coordinates":[[[19.912867,50.035052],[19.912874,50.03504],[19.912895,50.035031],[19.912931,50.035033],[19.912948,50.035027],[19.913026,50.034972],[19.913061,50.034955],[19.913094,50.03496],[19.913111,50.034973],[19.913117,50.034991],[19.913161,50.035019],[19.913162,50.03504],[19.913088,50.035084],[19.913042,50.03512],[19.913007,50.035113],[19.912988,50.035094],[19.91293,50.0351],[19.91287,50.035062],[19.912867,50.035052]]]}},{"type":"Feature","id":"w1409588830","properties":{"type":"yes","residential":true,"residents_est":1,"h3_10":"8a1e2e6948e7fff","h3_11":"8b1e2e6948e3fff"},"geometry":{"type":"Polygon","coordinates":[[[19.913863,50.033443],[19.913929,50.033366],[19.914005,50.033394],[19.91394,50.03347],[19.913863,50.033443]]]}},{"type":"Feature","id":"w1409588831","properties":{"type":"yes","residential":false,"residents_est":0,"h3_10":"8a1e2e6948e7fff","h3_11":"8b1e2e6948e1fff"},"geometry":{"type":"Polygon","coordinates":[[[19.914059,50.033445],[19.914096,50.033402],[19.914161,50.033425],[19.914123,50.033468],[19.914059,50.033445]]]}},{"type":"Feature","id":"w1409588832","properties":{"type":"yes","residential":true,"residents_est":1,"h3_10":"8a1e2e6948e7fff","h3_11":"8b1e2e6948e1fff"},"geometry":{"type":"Polygon","coordinates":[[[19.914046,50.033659],[19.914122,50.033568],[19.914196,50.033594],[19.914125,50.033686],[19.914046,50.033659]]]}},{"type":"Feature","id":"w1409919595","properties":{"type":"retail","address":"Norymberska 26","residential":false,"residents_est":0,"h3_10":"8a1e2e69499ffff","h3_11":"8b1e2e69499afff"},"geometry":{"type":"Polygon","coordinates":[[[19.90647,50.033705],[19.906536,50.03366],[19.906544,50.033665],[19.906528,50.033675],[19.906615,50.033729],[19.906629,50.033719],[19.906636,50.033723],[19.906572,50.033767],[19.90647,50.033705]]]}}]}