{"type":"FeatureCollection","features":[{"type":"Feature","id":"w233372538","properties":{"type":"yes","address":"Kozienicka 107","residential":true,"residents_est":8,"h3_10":"8a1e05b4b517fff","h3_11":"8b1e05b4b512fff"},"geometry":{"type":"Polygon","coordinates":[[[19.847064,50.005556],[19.847133,50.005554],[19.847124,50.005531],[19.847123,50.005497],[19.847131,50.005487],[19.84713,50.00545],[19.847261,50.005448],[19.847264,50.005523],[19.847276,50.005523],[19.847291,50.005533],[19.847293,50.00557],[19.847268,50.005571],[19.847269,50.005598],[19.847066,50.005603],[19.847064,50.005556]]]}},{"type":"Feature","id":"w233373161","properties":{"type":"yes","address":"Księdza Jakuba Wujka 43","residential":true,"residents_est":4,"h3_10":"8a1e05b4b46ffff","h3_11":"8b1e05b4b469fff"},"geometry":{"type":"Polygon","coordinates":[[[19.858279,50.004901],[19.858279,50.004817],[19.858436,50.004817],[19.858436,50.004901],[19.858279,50.004901]]]}},{"type":"Feature","id":"w233373520","properties":{"type":"yes","address":"Stefana Starzyńskiego 60","residential":true,"residents_est":4,"h3_10":"8a1e05b4b46ffff","h3_11":"8b1e05b4b46dfff"},"geometry":{"type":"Polygon","coordinates":[[[19.858004,50.004926],[19.858005,50.004817],[19.858117,50.004817],[19.858115,50.004926],[19.858004,50.004926]]]}},{"type":"Feature","id":"w233373553","properties":{"type":"yes","address":"Księdza Jakuba Wujka 45","residential":true,"residents_est":5,"h3_10":"8a1e05b4b46ffff","h3_11":"8b1e05b4b46dfff"},"geometry":{"type":"Polygon","coordinates":[[[19.858287,50.005046],[19.858441,50.005041],[19.858448,50.005132],[19.858377,50.005134],[19.858378,50.005154],[19.858309,50.005157],[19.858308,50.005136],[19.858292,50.005137],[19.858287,50.005046]]]}},{"type":"Feature","id":"w233374809","properties":{"type":"yes","residential":true,"residents_est":2,"h3_10":"8a1e05b4b46ffff","h3_11":"8b1e05b4b469fff"},"geometry":{"type":"Polygon","coordinates":[[[19.858652,50.00464],[19.85874,50.004626],[19.858762,50.004683],[19.858672,50.004697],[19.858652,50.00464]]]}},{"type":"Feature","id":"w233374874","properties":{"type":"yes","residential":false,"residents_est":0,"h3_10":"8a1e05b4b517fff","h3_11":"8b1e05b4b516fff"},"geometry":{"type":"Polygon","coordinates":[[[19.846521,50.005834],[19.84663,50.00583],[19.846634,50.005876],[19.846524,50.005879],[19.846521,50.005834]]]}},{"type":"Feature","id":"w233374912","properties":{"type":"yes","residential":true,"residents_est":4,"h3_10":"8a1e05b4b46ffff","h3_11":"8b1e05b4b46dfff"},"geometry":{"type":"Polygon","coordinates":[[[19.858005,50.005139],[19.85801,50.005023],[19.858055,50.005024],[19.858054,50.005044],[19.858122,50.005046],[19.858117,50.005142],[19.858005,50.005139]]]}},{"type":"Feature","id":"w233375254","properties":{"type":"yes","residential":true,"residents_est":2,"h3_10":"8a1e05b4b517fff","h3_11":"8b1e05b4b510fff"},"geometry":{"type":"Polygon","coordinates":[[[19.847496,50.005548],[19.847596,50.005545],[19.847599,50.0056],[19.8475,50.005603],[19.847496,50.005548]]]}},{"type":"Feature","id":"w233375578","properties":{"type":"yes","address":"Księdza Jakuba Wujka 41","residential":true,"residents_est":3,"h3_10":"8a1e05b4b46ffff","h3_11":"8b1e05b4b469fff"},"geometry":{"type":"Polygon","coordinates":[[[19.858604,50.004829],[19.85873,50.004808],[19.858758,50.004881],[19.858632,50.004902],[19.858604,50.004829]]]}},{"type":"Feature","id":"w233375875","properties":{"type":"yes","residential":true,"residents_est":3,"h3_10":"8a1e05b4b46ffff","h3_11":"8b1e05b4b469fff"},"geometry":{"type":"Polygon","coordinates":[[[19.858701,50.004766],[19.858791,50.004752],[19.858823,50.004837],[19.858746,50.004849],[19.85873,50.004808],[19.858718,50.00481],[19.858701,50.004766]]]}},{"type":"Feature","id":"w233375993","properties":{"type":"yes","address":"Kozienicka 105a","residential":true,"residents_est":3,"h3_10":"8a1e05b4b517fff","h3_11":"8b1e05b4b516fff"},"geometry":{"type":"Polygon","coordinates":[[[19.846629,50.005809],[19.846722,50.005806],[19.846728,50.00589],[19.846635,50.005893],[19.846629,50.005809]]]}},{"type":"Feature","id":"w233377111","properties":{"type":"yes","residential":true,"residents_est":2,"h3_10":"8a1e05b4b46ffff","h3_11":"8b1e05b4b469fff"},"geometry":{"type":"Polygon","coordinates":[[[19.85852,50.004701],[19.858576,50.004693],[19.858582,50.004714],[19.85865,50.004705],[19.858663,50.00474],[19.858538,50.004757],[19.85852,50.004701]]]}},{"type":"Feature","id":"w673463076","properties":{"type":"house","residential":true,"residents_est":13,"h3_10":"8a1e05b4b537fff","h3_11":"8b1e05b4b530fff"},"geometry":{"type":"Polygon","coordinates":[[[19.847028,50.006634],[19.847154,50.006608],[19.847173,50.006646],[19.847194,50.006642],[19.847234,50.006723],[19.847084,50.006755],[19.847028,50.006634]]]}},{"type":"Feature","id":"w673463077","properties":{"type":"house","residential":true,"residents_est":12,"h3_10":"8a1e05b4b537fff","h3_11":"8b1e05b4b530fff"},"geometry":{"type":"Polygon","coordinates":[[[19.847128,50.006831],[19.847255,50.006804],[19.847274,50.006843],[19.847294,50.006839],[19.847335,50.00692],[19.847185,50.006951],[19.847128,50.006831]]]}},{"type":"Feature","id":"w673463078","properties":{"type":"house","residential":true,"residents_est":13,"h3_10":"8a1e05b4b537fff","h3_11":"8b1e05b4b535fff"},"geometry":{"type":"Polygon","coordinates":[[[19.847252,50.007074],[19.847378,50.007047],[19.847398,50.007085],[19.847418,50.007081],[19.847459,50.007163],[19.847309,50.007195],[19.847252,50.007074]]]}},{"type":"Feature","id":"w673463079","properties":{"type":"house","residential":true,"residents_est":12,"h3_10":"8a1e05b4b537fff","h3_11":"8b1e05b4b535fff"},"geometry":{"type":"Polygon","coordinates":[[[19.847353,50.00727],[19.847479,50.007243],[19.847499,50.007282],[19.847519,50.007278],[19.84756,50.007359],[19.84741,50.007391],[19.847353,50.00727]]]}},{"type":"Feature","id":"w673463080","properties":{"type":"house","residential":true,"residents_est":12,"h3_10":"8a1e05b4b527fff","h3_11":"8b1e05b4b526fff"},"geometry":{"type":"Polygon","coordinates":[[[19.847454,50.007466],[19.84758,50.00744],[19.8476,50.007478],[19.847619,50.007474],[19.84766,50.007555],[19.84751,50.007587],[19.847454,50.007466]]]}},{"type":"Feature","id":"w702673815","properties":{"type":"yes","address":"Stefana Starzyńskiego 71b","residential":true,"residents_est":2,"h3_10":"8a1e05b4b467fff","h3_11":"8b1e05b4b465fff"},"geometry":{"type":"Polygon","coordinates":[[[19.856306,50.0055],[19.856317,50.005427],[19.856416,50.005433],[19.856404,50.005507],[19.856306,50.0055]]]}},{"type":"Feature","id":"w702673992","properties":{"type":"yes","address":"Stefana Starzyńskiego 71c","residential":true,"residents_est":2,"h3_10":"8a1e05b4b467fff","h3_11":"8b1e05b4b465fff"},"geometry":{"type":"Polygon","coordinates":[[[19.856206,50.005494],[19.856217,50.005421],[19.856317,50.005427],[19.856306,50.0055],[19.856206,50.005494]]]}},{"type":"Feature","id":"w702673993","properties":{"type":"yes","address":"Kozienicka 58","residential":true,"residents_est":5,"h3_10":"8a1e05b4b54ffff","h3_11":"8b1e05b4b549fff"},"geometry":{"type":"Polygon","coordinates":[[[19.856148,50.006273],[19.856157,50.006264],[19.856152,50.006244],[19.856356,50.006219],[19.856373,50.006295],[19.856321,50.0063],[19.856322,50.006306],[19.85617,50.00632],[19.856165,50.006299],[19.856153,50.006293],[19.856148,50.006273]]]}},{"type":"Feature","id":"w702673996","properties":{"type":"yes","address":"Stefana Starzyńskiego 60A","residential":true,"residents_est":4,"h3_10":"8a1e05b4b46ffff","h3_11":"8b1e05b4b468fff"},"geometry":{"type":"Polygon","coordinates":[[[19.857714,50.004807],[19.857715,50.004794],[19.857727,50.004786],[19.857728,50.004766],[19.857899,50.00477],[19.857897,50.004842],[19.857726,50.004843],[19.857727,50.004815],[19.857714,50.004807]]]}},{"type":"Feature","id":"w705136245","properties":{"type":"house","residential":true,"residents_est":12,"h3_10":"8a1e05b4b507fff","h3_11":"8b1e05b4b506fff"},"geometry":{"type":"Polygon","coordinates":[[[19.847846,50.00652],[19.847972,50.006493],[19.847992,50.006531],[19.848012,50.006527],[19.848053,50.006609],[19.847903,50.00664],[19.847846,50.00652]]]}},{"type":"Feature","id":"w705136246","properties":{"type":"house","residential":true,"residents_est":12,"h3_10":"8a1e05b4b537fff","h3_11":"8b1e05b4b533fff"},"geometry":{"type":"Polygon","coordinates":[[[19.84748,50.006611],[19.847607,50.006585],[19.847626,50.006623],[19.847646,50.006619],[19.847687,50.006701],[19.847537,50.006732],[19.84748,50.006611]]]}},{"type":"Feature","id":"w705136247","properties":{"type":"house","residential":true,"residents_est":12,"h3_10":"8a1e05b4b537fff","h3_11":"8b1e05b4b531fff"},"geometry":{"type":"Polygon","coordinates":[[[19.847524,50.006782],[19.84765,50.006756],[19.84767,50.006794],[19.847689,50.00679],[19.847731,50.006872],[19.84758,50.006903],[19.847524,50.006782]]]}},{"type":"Feature","id":"w705235028","properties":{"type":"yes","residential":false,"residents_est":0,"h3_10":"8a1e05b4b5a7fff","h3_11":"8b1e05b4b5a4fff"},"geometry":{"type":"Polygon","coordinates":[[[19.845883,50.005485],[19.845884,50.00545],[19.845974,50.00545],[19.845973,50.005485],[19.845883,50.005485]]]}},{"type":"Feature","id":"w705389305","properties":{"type":"yes","residential":false,"residents_est":0,"h3_10":"8a1e05b4b46ffff","h3_11":"8b1e05b4b468fff"},"geometry":{"type":"Polygon","coordinates":[[[19.85801,50.004816],[19.858011,50.004793],[19.858115,50.004793],[19.858117,50.004817],[19.85801,50.004816]]]}},{"type":"Feature","id":"w759377385","properties":{"type":"yes","residential":true,"residents_est":3,"h3_10":"8a1e05b4b467fff","h3_11":"8b1e05b4b465fff"},"geometry":{"type":"Polygon","coordinates":[[[19.856364,50.005274],[19.856377,50.005192],[19.856474,50.005199],[19.856455,50.005312],[19.856408,50.005309],[19.856413,50.005278],[19.856364,50.005274]]]}},{"type":"Feature","id":"w759377386","properties":{"type":"yes","residential":true,"residents_est":3,"h3_10":"8a1e05b4b467fff","h3_11":"8b1e05b4b465fff"},"geometry":{"type":"Polygon","coordinates":[[[19.856261,50.005299],[19.85628,50.005186],[19.856377,50.005192],[19.856364,50.005274],[19.856314,50.005272],[19.856309,50.005302],[19.856261,50.005299]]]}},{"type":"Feature","id":"w1184197254","properties":{"type":"yes","residential":true,"residents_est":8,"h3_10":"8a1e05b4b5b7fff","h3_11":"8b1e05b4b5b6fff"},"geometry":{"type":"Polygon","coordinates":[[[19.843768,50.004432],[19.843817,50.004376],[19.84379,50.004367],[19.843819,50.004334],[19.843851,50.004346],[19.843882,50.004311],[19.84401,50.004357],[19.843985,50.004386],[19.843998,50.004391],[19.843961,50.004433],[19.843952,50.00443],[19.843907,50.004482],[19.843768,50.004432]]]}},{"type":"Feature","id":"w1277850936","properties":{"type":"detached","address":"Stefana Starzyńskiego 59B","residential":true,"residents_est":12,"h3_10":"8a1e05b4b447fff","h3_11":"8b1e05b4b441fff"},"geometry":{"type":"Polygon","coordinates":[[[19.856837,50.004045],[19.856838,50.004013],[19.856846,50.004013],[19.856851,50.003959],[19.857066,50.003966],[19.857057,50.004052],[19.856837,50.004045]]]}},{"type":"Feature","id":"w1341788664","properties":{"type":"detached","address":"Kozienicka 81","residential":true,"residents_est":13,"h3_10":"8a1e05b4b54ffff","h3_11":"8b1e05b4b54bfff"},"geometry":{"type":"Polygon","coordinates":[[[19.856192,50.005764],[19.856218,50.005635],[19.856373,50.005648],[19.856347,50.005777],[19.856192,50.005764]]]}}]}