{"type":"FeatureCollection","features":[{"type":"Feature","id":"w232081282","properties":{"type":"yes","address":"Pylna 64","residential":true,"residents_est":2,"h3_10":"8a1e05b69587fff","h3_11":"8b1e05b69586fff"},"geometry":{"type":"Polygon","coordinates":[[[19.846907,50.075994],[19.847098,50.075967],[19.84712,50.076033],[19.847039,50.076044],[19.847046,50.076065],[19.846981,50.076074],[19.846974,50.076054],[19.846947,50.076058],[19.846936,50.076029],[19.84692,50.076031],[19.846907,50.075994]]]}},{"type":"Feature","id":"w232081298","properties":{"type":"yes","address":"Malownicza 2","residential":true,"residents_est":3,"h3_10":"8a1e05b6948ffff","h3_11":"8b1e05b6948afff"},"geometry":{"type":"Polygon","coordinates":[[[19.851457,50.072509],[19.851511,50.072498],[19.851504,50.072484],[19.851579,50.072469],[19.851585,50.072482],[19.851627,50.072473],[19.851661,50.072541],[19.851577,50.072558],[19.851607,50.072619],[19.851521,50.072637],[19.851457,50.072509]]]}},{"type":"Feature","id":"w232081325","properties":{"type":"yes","address":"Pod Stokiem 19","residential":true,"residents_est":3,"h3_10":"8a1e05b694dffff","h3_11":"8b1e05b694defff"},"geometry":{"type":"Polygon","coordinates":[[[19.85458,50.072021],[19.854703,50.071995],[19.854725,50.072038],[19.854741,50.072042],[19.854765,50.07209],[19.854757,50.0721],[19.854779,50.072143],[19.854656,50.072169],[19.85458,50.072021]]]}},{"type":"Feature","id":"w232081386","properties":{"type":"yes","address":"Pod Stokiem 21","residential":true,"residents_est":2,"h3_10":"8a1e05b694d7fff","h3_11":"8b1e05b694d3fff"},"geometry":{"type":"Polygon","coordinates":[[[19.853655,50.072229],[19.853781,50.072202],[19.853822,50.072284],[19.853698,50.072311],[19.853655,50.072229]]]}},{"type":"Feature","id":"w232081424","properties":{"type":"yes","residential":true,"residents_est":2,"h3_10":"8a1e05b694effff","h3_11":"8b1e05b694eafff"},"geometry":{"type":"Polygon","coordinates":[[[19.856006,50.073725],[19.85615,50.0737],[19.856163,50.073731],[19.856127,50.073738],[19.856145,50.07378],[19.856182,50.073774],[19.8562,50.073817],[19.856055,50.07384],[19.856006,50.073725]]]}},{"type":"Feature","id":"w232081442","properties":{"type":"yes","address":"Pod Stokiem 37","residential":true,"residents_est":3,"h3_10":"8a1e05b694d7fff","h3_11":"8b1e05b694d6fff"},"geometry":{"type":"Polygon","coordinates":[[[19.852616,50.072381],[19.852665,50.072371],[19.852656,50.072353],[19.852725,50.072338],[19.852734,50.072356],[19.852815,50.07234],[19.852858,50.072428],[19.852772,50.072446],[19.852766,50.072434],[19.852654,50.072457],[19.852616,50.072381]]]}},{"type":"Feature","id":"w232081574","properties":{"type":"yes","address":"Józefa Becka 57","residential":true,"residents_est":2,"h3_10":"8a1e05b69427fff","h3_11":"8b1e05b69424fff"},"geometry":{"type":"Polygon","coordinates":[[[19.851982,50.077421],[19.852131,50.077391],[19.852141,50.077411],[19.852184,50.077402],[19.852207,50.077447],[19.852163,50.077455],[19.852175,50.077479],[19.852121,50.07749],[19.852129,50.077505],[19.85209,50.077513],[19.85208,50.077497],[19.852024,50.077509],[19.851982,50.077421]]]}},{"type":"Feature","id":"w232081596","properties":{"type":"yes","address":"Pod Stokiem 47","residential":true,"residents_est":2,"h3_10":"8a1e05b6948ffff","h3_11":"8b1e05b6948bfff"},"geometry":{"type":"Polygon","coordinates":[[[19.851828,50.072482],[19.851975,50.072452],[19.851986,50.072475],[19.852037,50.072465],[19.852062,50.072517],[19.852008,50.072527],[19.852003,50.072516],[19.851966,50.072523],[19.851982,50.072557],[19.851889,50.072576],[19.851872,50.072542],[19.851858,50.072544],[19.851828,50.072482]]]}},{"type":"Feature","id":"w232081701","properties":{"type":"yes","address":"Pylna 52","residential":true,"residents_est":2,"h3_10":"8a1e05b6958ffff","h3_11":"8b1e05b6958dfff"},"geometry":{"type":"Polygon","coordinates":[[[19.849643,50.075752],[19.849661,50.075751],[19.84966,50.075743],[19.849681,50.075741],[19.849674,50.075696],[19.849756,50.07569],[19.849757,50.0757],[19.849827,50.075695],[19.84984,50.075776],[19.849698,50.075786],[19.8497,50.075798],[19.849652,50.075801],[19.849643,50.075752]]]}},{"type":"Feature","id":"w232081766","properties":{"type":"residential","residential":true,"residents_est":8,"h3_10":"8a1e05b6941ffff","h3_11":"8b1e05b6941efff"},"geometry":{"type":"Polygon","coordinates":[[[19.85214,50.074619],[19.852202,50.074607],[19.852217,50.07464],[19.852298,50.074624],[19.852328,50.074675],[19.852336,50.074703],[19.852296,50.074711],[19.852284,50.074687],[19.852223,50.074698],[19.852239,50.074733],[19.852186,50.074743],[19.852168,50.074704],[19.852178,50.074702],[19.85214,50.074619]]]}},{"type":"Feature","id":"w232081782","properties":{"type":"yes","address":"Pylna 11","residential":true,"residents_est":3,"h3_10":"8a1e05b694effff","h3_11":"8b1e05b694eafff"},"geometry":{"type":"Polygon","coordinates":[[[19.856329,50.073521],[19.85648,50.073493],[19.856472,50.073474],[19.856597,50.07346],[19.856606,50.073486],[19.856483,50.0735],[19.85651,50.073562],[19.856516,50.073561],[19.856527,50.073586],[19.856369,50.073612],[19.856329,50.073521]]]}},{"type":"Feature","id":"w232082024","properties":{"type":"yes","address":"Malownicza 6","residential":true,"residents_est":3,"h3_10":"8a1e05b6949ffff","h3_11":"8b1e05b69499fff"},"geometry":{"type":"Polygon","coordinates":[[[19.851211,50.072041],[19.851262,50.072031],[19.851254,50.072014],[19.851267,50.072011],[19.851275,50.071998],[19.851298,50.071994],[19.851312,50.072002],[19.851328,50.071999],[19.851336,50.072016],[19.851386,50.072005],[19.85142,50.072077],[19.851371,50.072086],[19.851379,50.072101],[19.85133,50.072111],[19.851345,50.07214],[19.851253,50.07216],[19.85122,50.072091],[19.851234,50.072087],[19.851211,50.072041]]]}},{"type":"Feature","id":"w232082032","properties":{"type":"yes","address":"Pod Stokiem 11a","residential":true,"residents_est":3,"h3_10":"8a1e05b694dffff","h3_11":"8b1e05b694dafff"},"geometry":{"type":"Polygon","coordinates":[[[19.855069,50.071728],[19.855144,50.071711],[19.855141,50.071705],[19.855191,50.071694],[19.855194,50.071701],[19.855245,50.071689],[19.855268,50.071734],[19.855249,50.071738],[19.855264,50.071767],[19.85523,50.071774],[19.855273,50.071852],[19.855184,50.071871],[19.855156,50.071821],[19.855127,50.071834],[19.855114,50.07183],[19.855108,50.07182],[19.855114,50.071812],[19.855069,50.071728]]]}},{"type":"Feature","id":"w232082278","properties":{"type":"yes","residential":true,"residents_est":1,"h3_10":"8a1e05b694cffff","h3_11":"8b1e05b694cdfff"},"geometry":{"type":"Polygon","coordinates":[[[19.856931,50.073455],[19.856964,50.073371],[19.857048,50.073384],[19.857015,50.073469],[19.856931,50.073455]]]}},{"type":"Feature","id":"w232082329","properties":{"type":"greenhouse","residential":false,"residents_est":0,"h3_10":"8a1e05b695affff","h3_11":"8b1e05b695aafff"},"geometry":{"type":"Polygon","coordinates":[[[19.848612,50.07609],[19.848656,50.076086],[19.848683,50.076224],[19.848639,50.076228],[19.848612,50.07609]]]}},{"type":"Feature","id":"w232082378","properties":{"type":"yes","residential":true,"residents_est":1,"h3_10":"8a1e05b695a7fff","h3_11":"8b1e05b695a2fff"},"geometry":{"type":"Polygon","coordinates":[[[19.846962,50.076365],[19.847062,50.076354],[19.847085,50.076432],[19.846984,50.076445],[19.846962,50.076365]]]}},{"type":"Feature","id":"w232082392","properties":{"type":"detached","address":"Józefa Becka 49a","residential":true,"residents_est":4,"h3_10":"8a1e05b6944ffff","h3_11":"8b1e05b6944bfff"},"geometry":{"type":"Polygon","coordinates":[[[19.859595,50.075237],[19.859702,50.075211],[19.859766,50.075325],[19.85966,50.075349],[19.859595,50.075237]]]}},{"type":"Feature","id":"w232082424","properties":{"type":"yes","address":"Pylna 22","residential":true,"residents_est":1,"h3_10":"8a1e05b69457fff","h3_11":"8b1e05b69452fff"},"geometry":{"type":"Polygon","coordinates":[[[19.855981,50.074678],[19.856125,50.07466],[19.856148,50.074736],[19.856003,50.074755],[19.855981,50.074678]]]}},{"type":"Feature","id":"w232082491","properties":{"type":"yes","residential":true,"residents_est":1,"h3_10":"8a1e05b694d7fff","h3_11":"8b1e05b694d3fff"},"geometry":{"type":"Polygon","coordinates":[[[19.853949,50.072074],[19.85404,50.072061],[19.854071,50.072154],[19.85398,50.072167],[19.853949,50.072074]]]}},{"type":"Feature","id":"w232082494","properties":{"type":"yes","address":"Pylna 54","residential":true,"residents_est":1,"h3_10":"8a1e05b6958ffff","h3_11":"8b1e05b6958cfff"},"geometry":{"type":"Polygon","coordinates":[[[19.849239,50.075665],[19.849377,50.075663],[19.849379,50.075708],[19.849241,50.075711],[19.849239,50.075665]]]}},{"type":"Feature","id":"w232082497","properties":{"type":"yes","address":"Józefa Becka 49","residential":true,"residents_est":1,"h3_10":"8a1e05b6944ffff","h3_11":"8b1e05b6944bfff"},"geometry":{"type":"Polygon","coordinates":[[[19.859734,50.075239],[19.85985,50.075216],[19.859893,50.075304],[19.859778,50.075328],[19.859734,50.075239]]]}},{"type":"Feature","id":"w232082567","properties":{"type":"yes","address":"Pylna 56","residential":true,"residents_est":1,"h3_10":"8a1e05b69587fff","h3_11":"8b1e05b69581fff"},"geometry":{"type":"Polygon","coordinates":[[[19.848654,50.075886],[19.848723,50.075881],[19.848739,50.07596],[19.848671,50.075965],[19.848654,50.075886]]]}},{"type":"Feature","id":"w232082595","properties":{"type":"yes","residential":false,"residents_est":0,"h3_10":"8a1e05b69587fff","h3_11":"8b1e05b69581fff"},"geometry":{"type":"Polygon","coordinates":[[[19.848499,50.075914],[19.848564,50.075908],[19.848576,50.075963],[19.848511,50.075968],[19.848499,50.075914]]]}},{"type":"Feature","id":"w232082646","properties":{"type":"greenhouse","residential":false,"residents_est":0,"h3_10":"8a1e05b694d7fff","h3_11":"8b1e05b694d3fff"},"geometry":{"type":"Polygon","coordinates":[[[19.854106,50.072147],[19.854436,50.072101],[19.854463,50.072184],[19.854134,50.072229],[19.854106,50.072147]]]}},{"type":"Feature","id":"w232082727","properties":{"type":"yes","residential":false,"residents_est":0,"h3_10":"8a1e05b69587fff","h3_11":"8b1e05b69581fff"},"geometry":{"type":"Polygon","coordinates":[[[19.848564,50.075908],[19.848636,50.075902],[19.848647,50.075956],[19.848576,50.075963],[19.848564,50.075908]]]}},{"type":"Feature","id":"w232082973","properties":{"type":"yes","address":"Pylna 13","residential":true,"residents_est":2,"h3_10":"8a1e05b694effff","h3_11":"8b1e05b694e8fff"},"geometry":{"type":"Polygon","coordinates":[[[19.856193,50.074026],[19.856328,50.074004],[19.856365,50.074099],[19.856231,50.074121],[19.856193,50.074026]]]}},{"type":"Feature","id":"w232083012","properties":{"type":"yes","address":"Józefa Becka 51","residential":false,"residents_est":0,"h3_10":"8a1e05b69447fff","h3_11":"8b1e05b69445fff"},"geometry":{"type":"Polygon","coordinates":[[[19.858253,50.076072],[19.858314,50.076059],[19.85835,50.07613],[19.858289,50.076143],[19.858253,50.076072]]]}},{"type":"Feature","id":"w232083158","properties":{"type":"yes","address":"Pylna 36","residential":true,"residents_est":1,"h3_10":"8a1e05b6941ffff","h3_11":"8b1e05b6941dfff"},"geometry":{"type":"Polygon","coordinates":[[[19.853367,50.075205],[19.853438,50.075192],[19.853471,50.075265],[19.8534,50.075278],[19.853367,50.075205]]]}},{"type":"Feature","id":"w232083205","properties":{"type":"yes","residential":false,"residents_est":0,"h3_10":"8a1e05b694effff","h3_11":"8b1e05b694eafff"},"geometry":{"type":"Polygon","coordinates":[[[19.856204,50.073654],[19.856285,50.07364],[19.856306,50.073691],[19.856225,50.073705],[19.856204,50.073654]]]}},{"type":"Feature","id":"w232083383","properties":{"type":"yes","address":"Pod Stokiem 5","residential":true,"residents_est":2,"h3_10":"8a1e05b694dffff","h3_11":"8b1e05b694dbfff"},"geometry":{"type":"Polygon","coordinates":[[[19.855659,50.071884],[19.855717,50.071873],[19.855724,50.071888],[19.855772,50.07188],[19.855767,50.071866],[19.855805,50.071859],[19.85581,50.071874],[19.855816,50.071873],[19.855839,50.071932],[19.85569,50.071962],[19.855659,50.071884]]]}},{"type":"Feature","id":"w232083402","properties":{"type":"yes","residential":false,"residents_est":0,"h3_10":"8a1e05b6940ffff","h3_11":"8b1e05b6940efff"},"geometry":{"type":"Polygon","coordinates":[[[19.8534,50.075392],[19.853441,50.075384],[19.853489,50.075488],[19.853448,50.075496],[19.8534,50.075392]]]}},{"type":"Feature","id":"w232083652","properties":{"type":"yes","address":"Pylna 66","residential":true,"residents_est":1,"h3_10":"8a1e05b695b7fff","h3_11":"8b1e05b695b0fff"},"geometry":{"type":"Polygon","coordinates":[[[19.846075,50.076107],[19.846181,50.07609],[19.846205,50.076154],[19.846099,50.07617],[19.846075,50.076107]]]}},{"type":"Feature","id":"w232083657","properties":{"type":"yes","residential":false,"residents_est":0,"h3_10":"8a1e05b6944ffff","h3_11":"8b1e05b6944bfff"},"geometry":{"type":"Polygon","coordinates":[[[19.859603,50.074971],[19.859698,50.074964],[19.859707,50.075012],[19.859612,50.075019],[19.859603,50.074971]]]}},{"type":"Feature","id":"w232083678","properties":{"type":"yes","residential":true,"residents_est":1,"h3_10":"8a1e05b6946ffff","h3_11":"8b1e05b6946afff"},"geometry":{"type":"Polygon","coordinates":[[[19.858289,50.076143],[19.858384,50.076123],[19.858411,50.076178],[19.858316,50.076198],[19.858289,50.076143]]]}},{"type":"Feature","id":"w232083847","properties":{"type":"yes","residential":true,"residents_est":1,"h3_10":"8a1e05b695affff","h3_11":"8b1e05b695aafff"},"geometry":{"type":"Polygon","coordinates":[[[19.848671,50.075965],[19.848845,50.075951],[19.848852,50.075991],[19.84868,50.076004],[19.848671,50.075965]]]}},{"type":"Feature","id":"w232083862","properties":{"type":"yes","address":"Malownicza 4","residential":true,"residents_est":3,"h3_10":"8a1e05b6949ffff","h3_11":"8b1e05b69499fff"},"geometry":{"type":"Polygon","coordinates":[[[19.851316,50.072257],[19.851378,50.072245],[19.851383,50.072254],[19.851429,50.072244],[19.851425,50.072235],[19.851487,50.072223],[19.851523,50.072298],[19.851536,50.072296],[19.851562,50.07235],[19.85138,50.072387],[19.851316,50.072257]]]}},{"type":"Feature","id":"w232083925","properties":{"type":"yes","address":"Józefa Becka 55","residential":true,"residents_est":1,"h3_10":"8a1e05b6942ffff","h3_11":"8b1e05b6942cfff"},"geometry":{"type":"Polygon","coordinates":[[[19.853968,50.077016],[19.854083,50.076989],[19.854113,50.077046],[19.854036,50.077064],[19.854043,50.077076],[19.854007,50.077084],[19.853968,50.077016]]]}},{"type":"Feature","id":"w232084117","properties":{"type":"yes","address":"Pod Stokiem 17","residential":true,"residents_est":2,"h3_10":"8a1e05b694dffff","h3_11":"8b1e05b694defff"},"geometry":{"type":"Polygon","coordinates":[[[19.854907,50.072068],[19.854989,50.072055],[19.854973,50.072015],[19.855064,50.072],[19.855102,50.072099],[19.85493,50.072126],[19.854907,50.072068]]]}},{"type":"Feature","id":"w232084350","properties":{"type":"yes","residential":true,"residents_est":2,"h3_10":"8a1e05b69587fff","h3_11":"8b1e05b69584fff"},"geometry":{"type":"Polygon","coordinates":[[[19.84693,50.076217],[19.846976,50.076212],[19.846973,50.0762],[19.847116,50.076184],[19.847134,50.076249],[19.846945,50.076271],[19.84693,50.076217]]]}},{"type":"Feature","id":"w232084379","properties":{"type":"yes","address":"Józefa Becka 49b","residential":true,"residents_est":2,"h3_10":"8a1e05b6944ffff","h3_11":"8b1e05b69448fff"},"geometry":{"type":"Polygon","coordinates":[[[19.859383,50.075274],[19.859489,50.075249],[19.859528,50.075317],[19.859468,50.075331],[19.859494,50.075376],[19.859453,50.075399],[19.859383,50.075274]]]}},{"type":"Feature","id":"w232084401","properties":{"type":"yes","residential":false,"residents_est":0,"h3_10":"8a1e05b6940ffff","h3_11":"8b1e05b6940efff"},"geometry":{"type":"Polygon","coordinates":[[[19.853456,50.075323],[19.853522,50.07531],[19.853546,50.075358],[19.853479,50.075372],[19.853456,50.075323]]]}},{"type":"Feature","id":"w232084427","properties":{"type":"yes","address":"Pod Stokiem 3","residential":true,"residents_est":2,"h3_10":"8a1e05b694dffff","h3_11":"8b1e05b694dbfff"},"geometry":{"type":"Polygon","coordinates":[[[19.855904,50.071872],[19.855957,50.071862],[19.855943,50.071829],[19.856089,50.071804],[19.856126,50.071887],[19.855926,50.071922],[19.855904,50.071872]]]}},{"type":"Feature","id":"w232084442","properties":{"type":"yes","residential":true,"residents_est":1,"h3_10":"8a1e05b6958ffff","h3_11":"8b1e05b6958dfff"},"geometry":{"type":"Polygon","coordinates":[[[19.849586,50.075855],[19.849685,50.07585],[19.849692,50.075898],[19.849712,50.075896],[19.849716,50.075922],[19.849597,50.075929],[19.849586,50.075855]]]}},{"type":"Feature","id":"w232084550","properties":{"type":"yes","residential":true,"residents_est":1,"h3_10":"8a1e05b695affff","h3_11":"8b1e05b695aafff"},"geometry":{"type":"Polygon","coordinates":[[[19.848374,50.076129],[19.848489,50.076122],[19.848495,50.076162],[19.848447,50.076165],[19.84845,50.07619],[19.848382,50.076194],[19.848374,50.076129]]]}},{"type":"Feature","id":"w232084703","properties":{"type":"yes","address":"Pylna 58","residential":true,"residents_est":2,"h3_10":"8a1e05b69587fff","h3_11":"8b1e05b69581fff"},"geometry":{"type":"Polygon","coordinates":[[[19.848316,50.075818],[19.848494,50.075795],[19.84852,50.075877],[19.848447,50.075886],[19.848453,50.075903],[19.848388,50.075911],[19.848383,50.075896],[19.848341,50.075901],[19.848316,50.075818]]]}},{"type":"Feature","id":"w232084759","properties":{"type":"yes","address":"Pylna 33","residential":true,"residents_est":1,"h3_10":"8a1e05b6941ffff","h3_11":"8b1e05b6941efff"},"geometry":{"type":"Polygon","coordinates":[[[19.852202,50.074774],[19.852292,50.074758],[19.852298,50.074774],[19.852342,50.074766],[19.852369,50.074829],[19.852325,50.074837],[19.85232,50.074824],[19.85223,50.07484],[19.852202,50.074774]]]}},{"type":"Feature","id":"w232084832","properties":{"type":"yes","address":"Pylna 62","residential":true,"residents_est":2,"h3_10":"8a1e05b69587fff","h3_11":"8b1e05b69580fff"},"geometry":{"type":"Polygon","coordinates":[[[19.847478,50.075919],[19.847666,50.0759],[19.847687,50.075991],[19.847665,50.075993],[19.847671,50.076018],[19.847612,50.076024],[19.847601,50.075978],[19.8475,50.075988],[19.847478,50.075919]]]}},{"type":"Feature","id":"w232084839","properties":{"type":"yes","address":"Józefa Becka 49c","residential":true,"residents_est":2,"h3_10":"8a1e05b6944ffff","h3_11":"8b1e05b69448fff"},"geometry":{"type":"Polygon","coordinates":[[[19.859194,50.075395],[19.859244,50.075384],[19.859236,50.07537],[19.859326,50.07535],[19.859379,50.075451],[19.859295,50.075469],[19.859304,50.075486],[19.859247,50.075497],[19.859194,50.075395]]]}},{"type":"Feature","id":"w232084881","properties":{"type":"yes","address":"Pod Stokiem 15a","residential":true,"residents_est":1,"h3_10":"8a1e05b694dffff","h3_11":"8b1e05b694d8fff"},"geometry":{"type":"Polygon","coordinates":[[[19.855201,50.07199],[19.855308,50.071972],[19.855343,50.072055],[19.855236,50.072073],[19.855224,50.072046],[19.85521,50.072042],[19.855205,50.072032],[19.855216,50.072025],[19.855201,50.07199]]]}},{"type":"Feature","id":"w232084892","properties":{"type":"yes","residential":true,"residents_est":2,"h3_10":"8a1e05b6958ffff","h3_11":"8b1e05b6958dfff"},"geometry":{"type":"Polygon","coordinates":[[[19.849604,50.075929],[19.849744,50.075922],[19.849754,50.07601],[19.849673,50.076014],[19.849678,50.076053],[19.849619,50.076055],[19.849604,50.075929]]]}},{"type":"Feature","id":"w232085052","properties":{"type":"yes","address":"Pod Stokiem 35","residential":true,"residents_est":2,"h3_10":"8a1e05b694d7fff","h3_11":"8b1e05b694d6fff"},"geometry":{"type":"Polygon","coordinates":[[[19.852815,50.07234],[19.852995,50.072302],[19.853033,50.072378],[19.852935,50.072398],[19.852941,50.072411],[19.852859,50.072428],[19.852815,50.07234]]]}},{"type":"Feature","id":"w232085055","properties":{"type":"yes","address":"Pod Stokiem 45","residential":true,"residents_est":4,"h3_10":"8a1e05b6948ffff","h3_11":"8b1e05b6948bfff"},"geometry":{"type":"Polygon","coordinates":[[[19.85212,50.072392],[19.85234,50.072347],[19.852369,50.072403],[19.852379,50.072401],[19.852391,50.072423],[19.852381,50.072426],[19.852398,50.072459],[19.852307,50.072477],[19.852311,50.072487],[19.852273,50.072496],[19.852267,50.072485],[19.852176,50.072505],[19.852159,50.072471],[19.852148,50.072473],[19.852138,50.072451],[19.852148,50.072449],[19.85212,50.072392]]]}},{"type":"Feature","id":"w232085204","properties":{"type":"yes","residential":true,"residents_est":1,"h3_10":"8a1e05b694d7fff","h3_11":"8b1e05b694d2fff"},"geometry":{"type":"Polygon","coordinates":[[[19.853589,50.072155],[19.853677,50.072137],[19.853718,50.072214],[19.853654,50.072228],[19.853659,50.072238],[19.853633,50.072238],[19.853589,50.072155]]]}},{"type":"Feature","id":"w232085244","properties":{"type":"yes","residential":true,"residents_est":1,"h3_10":"8a1e05b694d7fff","h3_11":"8b1e05b694d2fff"},"geometry":{"type":"Polygon","coordinates":[[[19.853542,50.072071],[19.853632,50.072051],[19.853677,50.072137],[19.853615,50.072149],[19.85359,50.072101],[19.853554,50.072109],[19.853542,50.072071]]]}},{"type":"Feature","id":"w391806457","properties":{"type":"house","address":"Pylna 35","residential":true,"residents_est":4,"h3_10":"8a1e05b6941ffff","h3_11":"8b1e05b6941efff"},"geometry":{"type":"Polygon","coordinates":[[[19.852053,50.07491],[19.852074,50.074906],[19.852059,50.074869],[19.852186,50.074847],[19.8522,50.074879],[19.852187,50.074881],[19.852198,50.074908],[19.852212,50.074906],[19.852231,50.074951],[19.85217,50.074961],[19.852166,50.074952],[19.852125,50.074958],[19.852119,50.074942],[19.852071,50.074951],[19.852053,50.07491]]]}},{"type":"Feature","id":"w391806458","properties":{"type":"house","address":"Pylna 37","residential":true,"residents_est":4,"h3_10":"8a1e05b6941ffff","h3_11":"8b1e05b6941efff"},"geometry":{"type":"Polygon","coordinates":[[[19.851973,50.074727],[19.852021,50.074718],[19.852014,50.074703],[19.852055,50.074696],[19.85205,50.074685],[19.85211,50.074674],[19.85213,50.074719],[19.852117,50.074722],[19.852129,50.074749],[19.852141,50.074746],[19.852155,50.074778],[19.852028,50.074801],[19.852012,50.074764],[19.85199,50.074768],[19.851973,50.074727]]]}},{"type":"Feature","id":"w391806459","properties":{"type":"residential","address":"Pylna 47","residential":true,"residents_est":11,"h3_10":"8a1e05b69417fff","h3_11":"8b1e05b69416fff"},"geometry":{"type":"Polygon","coordinates":[[[19.850603,50.07503],[19.850698,50.075017],[19.850706,50.07504],[19.850757,50.075032],[19.850799,50.075151],[19.850789,50.075152],[19.850785,50.07514],[19.850648,50.07516],[19.850603,50.07503]]]}},{"type":"Feature","id":"w391806460","properties":{"type":"yes","residential":true,"residents_est":4,"h3_10":"8a1e05b6942ffff","h3_11":"8b1e05b6942efff"},"geometry":{"type":"Polygon","coordinates":[[[19.852966,50.076489],[19.853101,50.076459],[19.853113,50.076481],[19.853158,50.076471],[19.853218,50.076583],[19.853038,50.076623],[19.852966,50.076489]]]}},{"type":"Feature","id":"w391806461","properties":{"type":"yes","address":"Pylna 28","residential":true,"residents_est":4,"h3_10":"8a1e05b6940ffff","h3_11":"8b1e05b6940bfff"},"geometry":{"type":"Polygon","coordinates":[[[19.854445,50.075007],[19.85462,50.074979],[19.854689,50.075146],[19.854519,50.075176],[19.854445,50.075007]]]}},{"type":"Feature","id":"w430882090","properties":{"type":"yes","address":"Józefa Becka 53","residential":true,"residents_est":1,"h3_10":"8a1e05b69447fff","h3_11":"8b1e05b69444fff"},"geometry":{"type":"Polygon","coordinates":[[[19.85696,50.076214],[19.857035,50.076197],[19.857076,50.076269],[19.857001,50.076286],[19.85696,50.076214]]]}},{"type":"Feature","id":"w430882091","properties":{"type":"yes","residential":true,"residents_est":3,"h3_10":"8a1e05b69427fff","h3_11":"8b1e05b69422fff"},"geometry":{"type":"Polygon","coordinates":[[[19.851948,50.076578],[19.852082,50.076552],[19.85214,50.076678],[19.852005,50.076704],[19.851948,50.076578]]]}},{"type":"Feature","id":"w430882092","properties":{"type":"yes","residential":false,"residents_est":0,"h3_10":"8a1e05b6951ffff","h3_11":"8b1e05b6951bfff"},"geometry":{"type":"Polygon","coordinates":[[[19.851138,50.077002],[19.851186,50.076993],[19.851206,50.077036],[19.851158,50.077045],[19.851138,50.077002]]]}},{"type":"Feature","id":"w430882093","properties":{"type":"residential","address":"Pylna 25A","residential":true,"residents_est":9,"h3_10":"8a1e05b6941ffff","h3_11":"8b1e05b6941bfff"},"geometry":{"type":"Polygon","coordinates":[[[19.853072,50.074501],[19.853221,50.074473],[19.853267,50.074577],[19.853118,50.074605],[19.853072,50.074501]]]}},{"type":"Feature","id":"w430882095","properties":{"type":"yes","residential":true,"residents_est":1,"h3_10":"8a1e05b6942ffff","h3_11":"8b1e05b6942cfff"},"geometry":{"type":"Polygon","coordinates":[[[19.853463,50.076907],[19.853541,50.07689],[19.8536,50.077],[19.853522,50.077017],[19.853463,50.076907]]]}},{"type":"Feature","id":"w430882096","properties":{"type":"residential","address":"Pylna 41","residential":true,"residents_est":11,"h3_10":"8a1e05b69417fff","h3_11":"8b1e05b69410fff"},"geometry":{"type":"Polygon","coordinates":[[[19.851377,50.074947],[19.851536,50.074924],[19.851577,50.075044],[19.851419,50.075067],[19.851377,50.074947]]]}},{"type":"Feature","id":"w430882097","properties":{"type":"yes","residential":true,"residents_est":2,"h3_10":"8a1e05b69457fff","h3_11":"8b1e05b69452fff"},"geometry":{"type":"Polygon","coordinates":[[[19.8556,50.074731],[19.855752,50.074709],[19.855779,50.074784],[19.855627,50.074806],[19.8556,50.074731]]]}},{"type":"Feature","id":"w495972324","properties":{"type":"yes","address":"Pod Stokiem 23a","residential":true,"residents_est":2,"h3_10":"8a1e05b694d7fff","h3_11":"8b1e05b694d2fff"},"geometry":{"type":"Polygon","coordinates":[[[19.853203,50.072254],[19.853346,50.072223],[19.853395,50.072316],[19.853251,50.072347],[19.853203,50.072254]]]}},{"type":"Feature","id":"w666884881","properties":{"type":"house","address":"Pod Stokiem 7","residential":true,"residents_est":5,"h3_10":"8a1e05b694dffff","h3_11":"8b1e05b694dbfff"},"geometry":{"type":"Polygon","coordinates":[[[19.855539,50.071685],[19.855596,50.071675],[19.855573,50.071621],[19.855688,50.071601],[19.8557,50.07163],[19.85573,50.071625],[19.855754,50.071692],[19.855557,50.071727],[19.855539,50.071685]]]}},{"type":"Feature","id":"w717891263","properties":{"type":"yes","address":"Marynarska 57a","residential":true,"residents_est":2,"h3_10":"8a1e05b694cffff","h3_11":"8b1e05b694c9fff"},"geometry":{"type":"Polygon","coordinates":[[[19.857832,50.072903],[19.85793,50.072875],[19.857948,50.072901],[19.857974,50.072893],[19.85802,50.072945],[19.857894,50.072981],[19.857832,50.072903]]]}},{"type":"Feature","id":"w717891264","properties":{"type":"yes","address":"Pylna 14k","residential":true,"residents_est":3,"h3_10":"8a1e05b694cffff","h3_11":"8b1e05b694c9fff"},"geometry":{"type":"Polygon","coordinates":[[[19.857369,50.072975],[19.857505,50.072935],[19.857514,50.072948],[19.857617,50.072918],[19.857657,50.072974],[19.857578,50.072997],[19.857582,50.073003],[19.857422,50.073051],[19.857369,50.072975]]]}},{"type":"Feature","id":"w717891269","properties":{"type":"yes","address":"Pylna 14f","residential":true,"residents_est":2,"h3_10":"8a1e05b694cffff","h3_11":"8b1e05b694cbfff"},"geometry":{"type":"Polygon","coordinates":[[[19.85706,50.072462],[19.857152,50.07243],[19.857232,50.072526],[19.85714,50.072558],[19.857116,50.072529],[19.857092,50.072538],[19.857076,50.072518],[19.857125,50.072501],[19.857108,50.072482],[19.857084,50.07249],[19.85706,50.072462]]]}},{"type":"Feature","id":"w717891270","properties":{"type":"yes","address":"Pylna 14g","residential":true,"residents_est":2,"h3_10":"8a1e05b694cffff","h3_11":"8b1e05b694cbfff"},"geometry":{"type":"Polygon","coordinates":[[[19.856968,50.072494],[19.85706,50.072462],[19.857084,50.07249],[19.857108,50.072482],[19.857124,50.072501],[19.857075,50.072518],[19.857092,50.072538],[19.857116,50.07253],[19.85714,50.072558],[19.857048,50.072589],[19.856968,50.072494]]]}},{"type":"Feature","id":"w717891278","properties":{"type":"yes","residential":false,"residents_est":0,"h3_10":"8a1e05b694dffff","h3_11":"8b1e05b694d8fff"},"geometry":{"type":"Polygon","coordinates":[[[19.855604,50.072016],[19.855668,50.072001],[19.855696,50.072052],[19.855633,50.072067],[19.855604,50.072016]]]}},{"type":"Feature","id":"w717891279","properties":{"type":"yes","address":"Pod Stokiem 15","residential":true,"residents_est":2,"h3_10":"8a1e05b694dffff","h3_11":"8b1e05b694d8fff"},"geometry":{"type":"Polygon","coordinates":[[[19.855307,50.071967],[19.855426,50.071947],[19.855461,50.072034],[19.855415,50.072042],[19.85542,50.072057],[19.855394,50.072061],[19.855388,50.072047],[19.855343,50.072055],[19.855307,50.071967]]]}},{"type":"Feature","id":"w717891280","properties":{"type":"yes","address":"Pod Stokiem 23","residential":true,"residents_est":2,"h3_10":"8a1e05b694d7fff","h3_11":"8b1e05b694d2fff"},"geometry":{"type":"Polygon","coordinates":[[[19.853346,50.072223],[19.853489,50.072192],[19.853538,50.072285],[19.853395,50.072316],[19.853346,50.072223]]]}},{"type":"Feature","id":"w718297300","properties":{"type":"farm_auxiliary","residential":false,"residents_est":0,"h3_10":"8a1e05b6959ffff","h3_11":"8b1e05b69598fff"},"geometry":{"type":"Polygon","coordinates":[[[19.848285,50.074509],[19.848365,50.074503],[19.848416,50.074766],[19.848336,50.074773],[19.848285,50.074509]]]}},{"type":"Feature","id":"w718297301","properties":{"type":"greenhouse","residential":false,"residents_est":0,"h3_10":"8a1e05b6959ffff","h3_11":"8b1e05b69598fff"},"geometry":{"type":"Polygon","coordinates":[[[19.848184,50.074519],[19.848263,50.074512],[19.848314,50.074777],[19.848235,50.074783],[19.848184,50.074519]]]}},{"type":"Feature","id":"w718297302","properties":{"type":"farm_auxiliary","residential":false,"residents_est":0,"h3_10":"8a1e05b6959ffff","h3_11":"8b1e05b69598fff"},"geometry":{"type":"Polygon","coordinates":[[[19.848083,50.074528],[19.848165,50.074521],[19.848213,50.074786],[19.848131,50.074792],[19.848083,50.074528]]]}},{"type":"Feature","id":"w718297303","properties":{"type":"greenhouse","residential":false,"residents_est":0,"h3_10":"8a1e05b6959ffff","h3_11":"8b1e05b6959dfff"},"geometry":{"type":"Polygon","coordinates":[[[19.848342,50.074795],[19.848419,50.07479],[19.848467,50.075062],[19.848389,50.075067],[19.848342,50.074795]]]}},{"type":"Feature","id":"w718297305","properties":{"type":"greenhouse","residential":false,"residents_est":0,"h3_10":"8a1e05b6959ffff","h3_11":"8b1e05b6959dfff"},"geometry":{"type":"Polygon","coordinates":[[[19.848137,50.074812],[19.848214,50.074806],[19.848265,50.075075],[19.848188,50.075081],[19.848137,50.074812]]]}},{"type":"Feature","id":"w718297308","properties":{"type":"greenhouse","residential":false,"residents_est":0,"h3_10":"8a1e05b6958ffff","h3_11":"8b1e05b6958efff"},"geometry":{"type":"Polygon","coordinates":[[[19.848436,50.0753],[19.848512,50.075294],[19.848557,50.075561],[19.848481,50.075566],[19.848436,50.0753]]]}},{"type":"Feature","id":"w718297309","properties":{"type":"greenhouse","residential":false,"residents_est":0,"h3_10":"8a1e05b69587fff","h3_11":"8b1e05b69583fff"},"geometry":{"type":"Polygon","coordinates":[[[19.848331,50.075314],[19.848412,50.075308],[19.848456,50.075567],[19.848374,50.075573],[19.848331,50.075314]]]}},{"type":"Feature","id":"w718297310","properties":{"type":"greenhouse","residential":false,"residents_est":0,"h3_10":"8a1e05b695affff","h3_11":"8b1e05b695aafff"},"geometry":{"type":"Polygon","coordinates":[[[19.848636,50.076242],[19.848685,50.07624],[19.848713,50.076481],[19.848664,50.076484],[19.848636,50.076242]]]}},{"type":"Feature","id":"w718297311","properties":{"type":"greenhouse","residential":false,"residents_est":0,"h3_10":"8a1e05b695affff","h3_11":"8b1e05b695aafff"},"geometry":{"type":"Polygon","coordinates":[[[19.848508,50.076204],[19.848598,50.076197],[19.848646,50.076476],[19.848555,50.076482],[19.848508,50.076204]]]}},{"type":"Feature","id":"w718297312","properties":{"type":"greenhouse","residential":false,"residents_est":0,"h3_10":"8a1e05b695affff","h3_11":"8b1e05b695aefff"},"geometry":{"type":"Polygon","coordinates":[[[19.848395,50.076211],[19.848484,50.076205],[19.848526,50.076487],[19.848437,50.076492],[19.848395,50.076211]]]}},{"type":"Feature","id":"w894256220","properties":{"type":"farm_auxiliary","levels":1.0,"residential":false,"residents_est":0,"h3_10":"8a1e05b69587fff","h3_11":"8b1e05b69582fff"},"geometry":{"type":"Polygon","coordinates":[[[19.847154,50.075538],[19.847229,50.07553],[19.847248,50.075603],[19.847173,50.075611],[19.847154,50.075538]]]}},{"type":"Feature","id":"w894256244","properties":{"type":"farm_auxiliary","levels":1.0,"residential":false,"residents_est":0,"h3_10":"8a1e05b6950ffff","h3_11":"8b1e05b6950bfff"},"geometry":{"type":"Polygon","coordinates":[[[19.852243,50.07749],[19.852323,50.077474],[19.852342,50.077512],[19.85226,50.077528],[19.852243,50.07749]]]}},{"type":"Feature","id":"w894256268","properties":{"type":"farm_auxiliary","levels":1.0,"residential":false,"residents_est":0,"h3_10":"8a1e05b69587fff","h3_11":"8b1e05b69585fff"},"geometry":{"type":"Polygon","coordinates":[[[19.84767,50.076146],[19.847725,50.07614],[19.847742,50.076211],[19.847688,50.076217],[19.84767,50.076146]]]}},{"type":"Feature","id":"w923321831","properties":{"type":"yes","address":"Pylna 11B","residential":true,"residents_est":3,"h3_10":"8a1e05b694effff","h3_11":"8b1e05b694eefff"},"geometry":{"type":"Polygon","coordinates":[[[19.855487,50.073851],[19.855705,50.073809],[19.855726,50.073855],[19.855801,50.073841],[19.855829,50.0739],[19.855743,50.073916],[19.855729,50.073886],[19.855522,50.073926],[19.855487,50.073851]]]}},{"type":"Feature","id":"w923321832","properties":{"type":"yes","residential":true,"residents_est":1,"h3_10":"8a1e05b694cffff","h3_11":"8b1e05b694cbfff"},"geometry":{"type":"Polygon","coordinates":[[[19.857186,50.072628],[19.857279,50.072598],[19.857348,50.07269],[19.857255,50.072719],[19.857186,50.072628]]]}},{"type":"Feature","id":"w923321833","properties":{"type":"yes","residential":true,"residents_est":1,"h3_10":"8a1e05b694cffff","h3_11":"8b1e05b694cbfff"},"geometry":{"type":"Polygon","coordinates":[[[19.857092,50.072657],[19.857186,50.072628],[19.857255,50.072719],[19.857162,50.072749],[19.857092,50.072657]]]}},{"type":"Feature","id":"w923321834","properties":{"type":"yes","address":"Marynarska 59a","residential":true,"residents_est":1,"h3_10":"8a1e05b694cffff","h3_11":"8b1e05b694c9fff"},"geometry":{"type":"Polygon","coordinates":[[[19.857532,50.0731],[19.85764,50.073069],[19.857696,50.073147],[19.857647,50.073162],[19.857639,50.07315],[19.85758,50.073167],[19.857532,50.0731]]]}},{"type":"Feature","id":"w923321835","properties":{"type":"yes","address":"Marynarska 59","residential":true,"residents_est":1,"h3_10":"8a1e05b694cffff","h3_11":"8b1e05b694c9fff"},"geometry":{"type":"Polygon","coordinates":[[[19.85764,50.073069],[19.857748,50.073037],[19.857795,50.073104],[19.857736,50.073122],[19.857744,50.073133],[19.857696,50.073147],[19.85764,50.073069]]]}},{"type":"Feature","id":"w990497548","properties":{"type":"house","address":"Pylna 21B","residential":true,"residents_est":5,"h3_10":"8a1e05b694e7fff","h3_11":"8b1e05b694e6fff"},"geometry":{"type":"Polygon","coordinates":[[[19.853715,50.074189],[19.853862,50.074163],[19.853909,50.074267],[19.853759,50.074294],[19.853715,50.074189]]]}},{"type":"Feature","id":"w990497549","properties":{"type":"house","address":"Pylna 21C","residential":true,"residents_est":5,"h3_10":"8a1e05b694f7fff","h3_11":"8b1e05b694f5fff"},"geometry":{"type":"Polygon","coordinates":[[[19.853593,50.073917],[19.853743,50.07389],[19.853787,50.073995],[19.853639,50.074021],[19.853593,50.073917]]]}},{"type":"Feature","id":"w990497551","properties":{"type":"residential","address":"Pylna 25B","residential":true,"residents_est":5,"h3_10":"8a1e05b6941ffff","h3_11":"8b1e05b6941bfff"},"geometry":{"type":"Polygon","coordinates":[[[19.853028,50.074256],[19.85312,50.074239],[19.853162,50.074334],[19.853071,50.074351],[19.853028,50.074256]]]}},{"type":"Feature","id":"w990497552","properties":{"type":"house","address":"Pylna 25D","residential":true,"residents_est":5,"h3_10":"8a1e05b694f7fff","h3_11":"8b1e05b694f4fff"},"geometry":{"type":"Polygon","coordinates":[[[19.852847,50.074047],[19.853028,50.074014],[19.853071,50.074109],[19.852889,50.074143],[19.852847,50.074047]]]}},{"type":"Feature","id":"w990497553","properties":{"type":"house","address":"Stefanii Wojtulanis 13","residential":true,"residents_est":2,"h3_10":"8a1e05b694affff","h3_11":"8b1e05b694acfff"},"geometry":{"type":"Polygon","coordinates":[[[19.851119,50.074315],[19.851225,50.074297],[19.85123,50.074308],[19.851255,50.074303],[19.851268,50.074336],[19.851243,50.07434],[19.85125,50.074357],[19.851144,50.074375],[19.851119,50.074315]]]}},{"type":"Feature","id":"w990497555","properties":{"type":"residential","address":"Pylna 45","residential":true,"residents_est":11,"h3_10":"8a1e05b69417fff","h3_11":"8b1e05b69410fff"},"geometry":{"type":"Polygon","coordinates":[[[19.850852,50.075013],[19.85086,50.075012],[19.850862,50.075018],[19.850999,50.074999],[19.850997,50.074993],[19.851004,50.074992],[19.85103,50.07507],[19.851014,50.075073],[19.85102,50.075092],[19.851037,50.07509],[19.851047,50.075119],[19.850895,50.07514],[19.850852,50.075013]]]}},{"type":"Feature","id":"w990497556","properties":{"type":"house","residential":true,"residents_est":4,"h3_10":"8a1e05b69437fff","h3_11":"8b1e05b69435fff"},"geometry":{"type":"Polygon","coordinates":[[[19.851061,50.076553],[19.851208,50.076525],[19.851255,50.076623],[19.851108,50.076652],[19.851061,50.076553]]]}},{"type":"Feature","id":"w990497557","properties":{"type":"house","residential":true,"residents_est":5,"h3_10":"8a1e05b6942ffff","h3_11":"8b1e05b69428fff"},"geometry":{"type":"Polygon","coordinates":[[[19.853979,50.076475],[19.854089,50.07645],[19.854161,50.076583],[19.854051,50.076608],[19.853979,50.076475]]]}},{"type":"Feature","id":"w990497558","properties":{"type":"house","residential":true,"residents_est":4,"h3_10":"8a1e05b6942ffff","h3_11":"8b1e05b6942afff"},"geometry":{"type":"Polygon","coordinates":[[[19.853742,50.076028],[19.853879,50.075999],[19.853928,50.076096],[19.85385,50.076112],[19.85384,50.076091],[19.853781,50.076104],[19.853742,50.076028]]]}},{"type":"Feature","id":"w990497559","properties":{"type":"yes","residential":true,"residents_est":2,"h3_10":"8a1e05b6942ffff","h3_11":"8b1e05b6942dfff"},"geometry":{"type":"Polygon","coordinates":[[[19.854412,50.076773],[19.854569,50.076739],[19.854611,50.076819],[19.854454,50.076853],[19.854412,50.076773]]]}},{"type":"Feature","id":"w990497562","properties":{"type":"yes","address":"Józefa Becka 53B","residential":true,"residents_est":4,"h3_10":"8a1e05b69477fff","h3_11":"8b1e05b69470fff"},"geometry":{"type":"Polygon","coordinates":[[[19.855917,50.076114],[19.85606,50.076087],[19.856135,50.076253],[19.855993,50.07628],[19.855917,50.076114]]]}},{"type":"Feature","id":"w1013464888","properties":{"type":"house","residential":true,"residents_est":6,"h3_10":"8a1e05b69407fff","h3_11":"8b1e05b69402fff"},"geometry":{"type":"Polygon","coordinates":[[[19.852245,50.075418],[19.852294,50.07541],[19.852287,50.075391],[19.852349,50.07538],[19.852357,50.075401],[19.852385,50.075396],[19.852447,50.075541],[19.852401,50.075549],[19.852396,50.075539],[19.852307,50.075554],[19.852312,50.075566],[19.8523,50.075569],[19.852295,50.075556],[19.852302,50.075552],[19.852245,50.075418]]]}},{"type":"Feature","id":"w1122085717","properties":{"type":"residential","address":"Pylna 19","residential":true,"residents_est":8,"h3_10":"8a1e05b694e7fff","h3_11":"8b1e05b694e0fff"},"geometry":{"type":"Polygon","coordinates":[[[19.8545,50.074524],[19.854634,50.074501],[19.854675,50.074599],[19.854541,50.074622],[19.8545,50.074524]]]}},{"type":"Feature","id":"w1122085718","properties":{"type":"residential","address":"Pylna 19A","residential":true,"residents_est":8,"h3_10":"8a1e05b694e7fff","h3_11":"8b1e05b694e0fff"},"geometry":{"type":"Polygon","coordinates":[[[19.854399,50.074284],[19.854533,50.074261],[19.854575,50.07436],[19.85444,50.074383],[19.854399,50.074284]]]}},{"type":"Feature","id":"w1122085719","properties":{"type":"residential","address":"Pylna 19B","residential":true,"residents_est":8,"h3_10":"8a1e05b694e7fff","h3_11":"8b1e05b694e2fff"},"geometry":{"type":"Polygon","coordinates":[[[19.854299,50.074045],[19.854433,50.074022],[19.854474,50.07412],[19.85434,50.074143],[19.854299,50.074045]]]}},{"type":"Feature","id":"w1122085720","properties":{"type":"residential","address":"Pylna 19C","residential":true,"residents_est":8,"h3_10":"8a1e05b694e7fff","h3_11":"8b1e05b694e2fff"},"geometry":{"type":"Polygon","coordinates":[[[19.854198,50.073805],[19.854331,50.073782],[19.854374,50.073881],[19.854239,50.073906],[19.854198,50.073805]]]}},{"type":"Feature","id":"w1122085721","properties":{"type":"yes","residential":true,"residents_est":4,"h3_10":"8a1e05b69407fff","h3_11":"8b1e05b69405fff"},"geometry":{"type":"Polygon","coordinates":[[[19.852858,50.076282],[19.853037,50.076242],[19.853109,50.076376],[19.852929,50.076416],[19.852858,50.076282]]]}},{"type":"Feature","id":"w1122085722","properties":{"type":"yes","residential":true,"residents_est":2,"h3_10":"8a1e05b6940ffff","h3_11":"8b1e05b6940cfff"},"geometry":{"type":"Polygon","coordinates":[[[19.854223,50.075858],[19.854312,50.07584],[19.854393,50.076],[19.854304,50.076018],[19.854223,50.075858]]]}},{"type":"Feature","id":"w1122085724","properties":{"type":"yes","residential":true,"residents_est":3,"h3_10":"8a1e05b69427fff","h3_11":"8b1e05b69420fff"},"geometry":{"type":"Polygon","coordinates":[[[19.852181,50.077007],[19.852273,50.076988],[19.852387,50.077214],[19.852295,50.077233],[19.852181,50.077007]]]}},{"type":"Feature","id":"w1122085726","properties":{"type":"detached","residential":true,"residents_est":5,"h3_10":"8a1e05b6951ffff","h3_11":"8b1e05b69519fff"},"geometry":{"type":"Polygon","coordinates":[[[19.851393,50.077272],[19.851566,50.077242],[19.851605,50.077335],[19.851433,50.077366],[19.851393,50.077272]]]}},{"type":"Feature","id":"w1122085729","properties":{"type":"house","levels":3.0,"address":"Podłużna 38D","residential":true,"residents_est":5,"h3_10":"8a1e05b69497fff","h3_11":"8b1e05b69493fff"},"geometry":{"type":"Polygon","coordinates":[[[19.848971,50.072307],[19.84908,50.072299],[19.849089,50.072346],[19.849107,50.072345],[19.849117,50.072396],[19.84901,50.072405],[19.849001,50.072357],[19.848981,50.072359],[19.848971,50.072307]]]}},{"type":"Feature","id":"w1122085730","properties":{"type":"house","levels":3.0,"address":"Podłużna 38E","residential":true,"residents_est":5,"h3_10":"8a1e05b69497fff","h3_11":"8b1e05b69493fff"},"geometry":{"type":"Polygon","coordinates":[[[19.849107,50.072345],[19.849125,50.072343],[19.849117,50.072296],[19.849226,50.072288],[19.849236,50.072339],[19.849215,50.072341],[19.849223,50.072388],[19.849117,50.072396],[19.849107,50.072345]]]}},{"type":"Feature","id":"w1122085731","properties":{"type":"house","levels":3.0,"address":"Podłużna 38B","residential":true,"residents_est":5,"h3_10":"8a1e05b69497fff","h3_11":"8b1e05b69490fff"},"geometry":{"type":"Polygon","coordinates":[[[19.848594,50.072336],[19.848703,50.072328],[19.848712,50.072375],[19.84873,50.072374],[19.848739,50.072426],[19.848633,50.072434],[19.848624,50.072387],[19.848603,50.072388],[19.848594,50.072336]]]}},{"type":"Feature","id":"w1122085732","properties":{"type":"house","levels":3.0,"address":"Podłużna 38C","residential":true,"residents_est":5,"h3_10":"8a1e05b69497fff","h3_11":"8b1e05b69490fff"},"geometry":{"type":"Polygon","coordinates":[[[19.84873,50.072374],[19.848748,50.072372],[19.84874,50.072325],[19.848849,50.072317],[19.848859,50.072368],[19.848838,50.07237],[19.848846,50.072417],[19.848739,50.072426],[19.84873,50.072374]]]}},{"type":"Feature","id":"w1122085733","properties":{"type":"house","levels":3.0,"address":"Podłużna 38","residential":true,"residents_est":5,"h3_10":"8a1e05b69497fff","h3_11":"8b1e05b69496fff"},"geometry":{"type":"Polygon","coordinates":[[[19.848216,50.072365],[19.848326,50.072357],[19.848334,50.072404],[19.848353,50.072403],[19.848362,50.072455],[19.848256,50.072463],[19.848247,50.072415],[19.848226,50.072417],[19.848216,50.072365]]]}},{"type":"Feature","id":"w1122085734","properties":{"type":"house","levels":3.0,"address":"Podłużna 38A","residential":true,"residents_est":5,"h3_10":"8a1e05b69497fff","h3_11":"8b1e05b69490fff"},"geometry":{"type":"Polygon","coordinates":[[[19.848353,50.072403],[19.848371,50.072401],[19.848362,50.072354],[19.848471,50.072345],[19.848482,50.072397],[19.848461,50.072399],[19.848469,50.072447],[19.848362,50.072455],[19.848353,50.072403]]]}},{"type":"Feature","id":"w1122085735","properties":{"type":"house","levels":3.0,"address":"Podłużna 36","residential":true,"residents_est":5,"h3_10":"8a1e05b69497fff","h3_11":"8b1e05b69492fff"},"geometry":{"type":"Polygon","coordinates":[[[19.848134,50.072147],[19.848154,50.072145],[19.848145,50.072098],[19.848252,50.072089],[19.848261,50.072141],[19.848243,50.072143],[19.848252,50.07219],[19.848143,50.072198],[19.848134,50.072147]]]}},{"type":"Feature","id":"w1122085736","properties":{"type":"house","levels":3.0,"address":"Podłużna 36A","residential":true,"residents_est":5,"h3_10":"8a1e05b69497fff","h3_11":"8b1e05b69492fff"},"geometry":{"type":"Polygon","coordinates":[[[19.848252,50.072089],[19.848359,50.072081],[19.848368,50.072128],[19.848389,50.072127],[19.848398,50.072179],[19.848288,50.072187],[19.84828,50.07214],[19.848261,50.072141],[19.848252,50.072089]]]}},{"type":"Feature","id":"w1122085737","properties":{"type":"house","levels":3.0,"address":"Podłużna 36C","residential":true,"residents_est":5,"h3_10":"8a1e05b69497fff","h3_11":"8b1e05b69493fff"},"geometry":{"type":"Polygon","coordinates":[[[19.848629,50.07206],[19.848736,50.072052],[19.848745,50.0721],[19.848765,50.072098],[19.848775,50.07215],[19.848667,50.072158],[19.848657,50.072111],[19.848638,50.072112],[19.848629,50.07206]]]}},{"type":"Feature","id":"w1122085738","properties":{"type":"house","levels":3.0,"address":"Podłużna 36B","residential":true,"residents_est":5,"h3_10":"8a1e05b69497fff","h3_11":"8b1e05b69492fff"},"geometry":{"type":"Polygon","coordinates":[[[19.84851,50.072118],[19.848531,50.072116],[19.848522,50.072069],[19.848629,50.07206],[19.848638,50.072112],[19.848621,50.072114],[19.848629,50.072161],[19.84852,50.072169],[19.84851,50.072118]]]}},{"type":"Feature","id":"w1122085739","properties":{"type":"house","levels":3.0,"address":"Podłużna 36E","residential":true,"residents_est":5,"h3_10":"8a1e05b69497fff","h3_11":"8b1e05b69493fff"},"geometry":{"type":"Polygon","coordinates":[[[19.849006,50.072031],[19.849113,50.072023],[19.849122,50.07207],[19.849143,50.072069],[19.849152,50.072121],[19.849043,50.072129],[19.849034,50.072082],[19.849016,50.072083],[19.849006,50.072031]]]}},{"type":"Feature","id":"w1122085740","properties":{"type":"house","levels":3.0,"address":"Podłużna 36D","residential":true,"residents_est":5,"h3_10":"8a1e05b69497fff","h3_11":"8b1e05b69493fff"},"geometry":{"type":"Polygon","coordinates":[[[19.848888,50.072089],[19.848908,50.072087],[19.8489,50.072039],[19.849006,50.072031],[19.849016,50.072083],[19.848997,50.072085],[19.849006,50.072132],[19.848898,50.07214],[19.848888,50.072089]]]}},{"type":"Feature","id":"w1122085741","properties":{"type":"house","levels":3.0,"address":"Podłużna 40A","residential":true,"residents_est":5,"h3_10":"8a1e05b69497fff","h3_11":"8b1e05b69490fff"},"geometry":{"type":"Polygon","coordinates":[[[19.848418,50.072524],[19.848525,50.072516],[19.848534,50.072563],[19.848554,50.072562],[19.848564,50.072614],[19.848455,50.072622],[19.848446,50.072575],[19.848428,50.072576],[19.848418,50.072524]]]}},{"type":"Feature","id":"w1122085742","properties":{"type":"house","levels":3.0,"address":"Podłużna 40","residential":true,"residents_est":5,"h3_10":"8a1e05b69497fff","h3_11":"8b1e05b69490fff"},"geometry":{"type":"Polygon","coordinates":[[[19.8483,50.072582],[19.84832,50.07258],[19.848312,50.072532],[19.848418,50.072524],[19.848428,50.072576],[19.84841,50.072578],[19.848418,50.072625],[19.848309,50.072633],[19.8483,50.072582]]]}},{"type":"Feature","id":"w1122085743","properties":{"type":"house","levels":3.0,"address":"Podłużna 40C","residential":true,"residents_est":5,"h3_10":"8a1e05b69497fff","h3_11":"8b1e05b69490fff"},"geometry":{"type":"Polygon","coordinates":[[[19.848795,50.072495],[19.848901,50.072487],[19.848911,50.072534],[19.848932,50.072533],[19.848941,50.072584],[19.848833,50.072593],[19.848823,50.072546],[19.848805,50.072547],[19.848795,50.072495]]]}},{"type":"Feature","id":"w1122085744","properties":{"type":"house","levels":3.0,"address":"Podłużna 40B","residential":true,"residents_est":5,"h3_10":"8a1e05b69497fff","h3_11":"8b1e05b69490fff"},"geometry":{"type":"Polygon","coordinates":[[[19.848676,50.072553],[19.848697,50.072551],[19.848688,50.072504],[19.848795,50.072495],[19.848805,50.072547],[19.848787,50.072548],[19.848795,50.072596],[19.848687,50.072604],[19.848676,50.072553]]]}},{"type":"Feature","id":"w1122085745","properties":{"type":"house","levels":3.0,"address":"Podłużna 40E","residential":true,"residents_est":4,"h3_10":"8a1e05b69497fff","h3_11":"8b1e05b69491fff"},"geometry":{"type":"Polygon","coordinates":[[[19.849172,50.072466],[19.849279,50.072458],[19.849288,50.072505],[19.849308,50.072504],[19.849318,50.072555],[19.849209,50.072564],[19.8492,50.072517],[19.849182,50.072518],[19.849172,50.072466]]]}},{"type":"Feature","id":"w1122085746","properties":{"type":"house","levels":3.0,"address":"Podłużna 40D","residential":true,"residents_est":5,"h3_10":"8a1e05b69497fff","h3_11":"8b1e05b69491fff"},"geometry":{"type":"Polygon","coordinates":[[[19.849053,50.072523],[19.849074,50.072522],[19.849065,50.072474],[19.849172,50.072466],[19.849182,50.072518],[19.849164,50.072519],[19.849172,50.072567],[19.849063,50.072575],[19.849053,50.072523]]]}},{"type":"Feature","id":"w1167077301","properties":{"type":"construction","residential":false,"residents_est":0,"h3_10":"8a1e05b694d7fff","h3_11":"8b1e05b694d2fff"},"geometry":{"type":"Polygon","coordinates":[[[19.853058,50.071967],[19.853207,50.071934],[19.853262,50.072038],[19.853213,50.072049],[19.853203,50.072031],[19.853159,50.07204],[19.853168,50.072057],[19.853113,50.072069],[19.853058,50.071967]]]}},{"type":"Feature","id":"w1167077302","properties":{"type":"construction","residential":false,"residents_est":0,"h3_10":"8a1e05b694d7fff","h3_11":"8b1e05b694d2fff"},"geometry":{"type":"Polygon","coordinates":[[[19.853207,50.071934],[19.853355,50.071903],[19.853409,50.072008],[19.853359,50.072019],[19.853349,50.072],[19.853306,50.072009],[19.853314,50.072026],[19.853262,50.072038],[19.853207,50.071934]]]}},{"type":"Feature","id":"w1217262995","properties":{"type":"house","address":"Pylna 49B","residential":true,"residents_est":4,"h3_10":"8a1e05b694a7fff","h3_11":"8b1e05b694a5fff"},"geometry":{"type":"Polygon","coordinates":[[[19.850282,50.074717],[19.850436,50.074694],[19.850466,50.07478],[19.850312,50.074803],[19.850282,50.074717]]]}},{"type":"Feature","id":"w1217262996","properties":{"type":"house","address":"Stefanii Wojtulanis 9C","residential":true,"residents_est":4,"h3_10":"8a1e05b69417fff","h3_11":"8b1e05b69412fff"},"geometry":{"type":"Polygon","coordinates":[[[19.851002,50.074813],[19.851165,50.074789],[19.851191,50.074862],[19.851027,50.074886],[19.851002,50.074813]]]}},{"type":"Feature","id":"w1217262997","properties":{"type":"construction","address":"Stefanii Wojtulanis 9A","residential":false,"residents_est":0,"h3_10":"8a1e05b69417fff","h3_11":"8b1e05b69412fff"},"geometry":{"type":"Polygon","coordinates":[[[19.850528,50.074663],[19.850654,50.074645],[19.850662,50.074669],[19.850706,50.074663],[19.850729,50.074732],[19.850642,50.074745],[19.850638,50.074735],[19.850557,50.074747],[19.850528,50.074663]]]}},{"type":"Feature","id":"w1217262998","properties":{"type":"house","address":"Stefanii Wojtulanis 11","residential":true,"residents_est":3,"h3_10":"8a1e05b694affff","h3_11":"8b1e05b694acfff"},"geometry":{"type":"Polygon","coordinates":[[[19.850816,50.074365],[19.850954,50.074345],[19.85098,50.074418],[19.850841,50.074438],[19.850816,50.074365]]]}},{"type":"Feature","id":"w1217262999","properties":{"type":"construction","address":"Stefanii Wojtulanis 9","residential":false,"residents_est":0,"h3_10":"8a1e05b694a7fff","h3_11":"8b1e05b694a1fff"},"geometry":{"type":"Polygon","coordinates":[[[19.850449,50.074438],[19.850498,50.074431],[19.850495,50.074424],[19.850625,50.074405],[19.850638,50.074442],[19.850604,50.074447],[19.850608,50.074459],[19.850621,50.074457],[19.850642,50.074517],[19.850503,50.074537],[19.850478,50.074465],[19.850459,50.074468],[19.850449,50.074438]]]}},{"type":"Feature","id":"w1219367336","properties":{"type":"construction","residential":false,"residents_est":0,"h3_10":"8a1e05b69407fff","h3_11":"8b1e05b69400fff"},"geometry":{"type":"Polygon","coordinates":[[[19.852607,50.075528],[19.852693,50.075513],[19.85278,50.07573],[19.852694,50.075745],[19.852607,50.075528]]]}},{"type":"Feature","id":"w1219367340","properties":{"type":"residential","address":"Pylna 43","residential":true,"residents_est":7,"h3_10":"8a1e05b69417fff","h3_11":"8b1e05b69410fff"},"geometry":{"type":"Polygon","coordinates":[[[19.851131,50.075022],[19.851179,50.075015],[19.851174,50.074998],[19.851275,50.074984],[19.851307,50.07508],[19.851206,50.075095],[19.851198,50.075072],[19.85115,50.075079],[19.851131,50.075022]]]}},{"type":"Feature","id":"w1219367341","properties":{"type":"yes","residential":true,"residents_est":2,"h3_10":"8a1e05b69587fff","h3_11":"8b1e05b69581fff"},"geometry":{"type":"Polygon","coordinates":[[[19.848133,50.075852],[19.848188,50.075848],[19.848184,50.075829],[19.84825,50.075824],[19.848267,50.075923],[19.848147,50.075932],[19.848133,50.075852]]]}},{"type":"Feature","id":"w1219367342","properties":{"type":"yes","residential":true,"residents_est":2,"h3_10":"8a1e05b69587fff","h3_11":"8b1e05b69585fff"},"geometry":{"type":"Polygon","coordinates":[[[19.84818,50.076068],[19.848235,50.076064],[19.848232,50.076045],[19.848297,50.07604],[19.848315,50.076139],[19.848195,50.076148],[19.84818,50.076068]]]}},{"type":"Feature","id":"w1219367343","properties":{"type":"yes","residential":true,"residents_est":2,"h3_10":"8a1e05b69587fff","h3_11":"8b1e05b69585fff"},"geometry":{"type":"Polygon","coordinates":[[[19.848199,50.076259],[19.848298,50.07625],[19.84831,50.076308],[19.848349,50.076305],[19.84837,50.076406],[19.848305,50.076412],[19.848301,50.076393],[19.848251,50.076397],[19.848234,50.076315],[19.848211,50.076317],[19.848199,50.076259]]]}},{"type":"Feature","id":"w1272468969","properties":{"type":"detached","residential":true,"residents_est":4,"h3_10":"8a1e05b6944ffff","h3_11":"8b1e05b6944efff"},"geometry":{"type":"Polygon","coordinates":[[[19.858517,50.075277],[19.858656,50.075248],[19.858697,50.075325],[19.858676,50.07533],[19.858689,50.075355],[19.858586,50.075377],[19.858574,50.075355],[19.858559,50.075358],[19.858517,50.075277]]]}},{"type":"Feature","id":"w1326332374","properties":{"type":"construction","address":"Pylna 38A","residential":false,"residents_est":0,"h3_10":"8a1e05b69407fff","h3_11":"8b1e05b69403fff"},"geometry":{"type":"Polygon","coordinates":[[[19.853145,50.075343],[19.853279,50.075319],[19.853317,50.075405],[19.853182,50.075429],[19.853168,50.075397],[19.853181,50.075395],[19.853171,50.075373],[19.853159,50.075375],[19.853145,50.075343]]]}},{"type":"Feature","id":"w1326332377","properties":{"type":"residential","address":"Pylna 34","residential":false,"residents_est":0,"h3_10":"8a1e05b6940ffff","h3_11":"8b1e05b6940efff"},"geometry":{"type":"Polygon","coordinates":[[[19.853542,50.075326],[19.853612,50.075314],[19.853631,50.075357],[19.853561,50.075369],[19.853542,50.075326]]]}},{"type":"Feature","id":"w1326332378","properties":{"type":"detached","address":"Pylna 38","residential":true,"residents_est":4,"h3_10":"8a1e05b6941ffff","h3_11":"8b1e05b6941dfff"},"geometry":{"type":"Polygon","coordinates":[[[19.853053,50.075139],[19.853193,50.075114],[19.853233,50.075204],[19.853092,50.075229],[19.853076,50.075193],[19.853088,50.075191],[19.85308,50.075173],[19.853069,50.075175],[19.853053,50.075139]]]}},{"type":"Feature","id":"w1326332379","properties":{"type":"residential","address":"Pylna 25C","residential":true,"residents_est":5,"h3_10":"8a1e05b6941ffff","h3_11":"8b1e05b6941bfff"},"geometry":{"type":"Polygon","coordinates":[[[19.852937,50.074273],[19.853028,50.074256],[19.853071,50.074351],[19.852979,50.074368],[19.852937,50.074273]]]}},{"type":"Feature","id":"w1326332380","properties":{"type":"residential","address":"Pylna 23D","residential":true,"residents_est":10,"h3_10":"8a1e05b694f7fff","h3_11":"8b1e05b694f5fff"},"geometry":{"type":"Polygon","coordinates":[[[19.853249,50.074006],[19.853417,50.073975],[19.853461,50.074073],[19.853293,50.074104],[19.853249,50.074006]]]}},{"type":"Feature","id":"w1326332381","properties":{"type":"residential","address":"Pylna 23C","residential":true,"residents_est":9,"h3_10":"8a1e05b6941ffff","h3_11":"8b1e05b6941bfff"},"geometry":{"type":"Polygon","coordinates":[[[19.853351,50.074221],[19.853504,50.074193],[19.853547,50.074291],[19.853395,50.074319],[19.853351,50.074221]]]}},{"type":"Feature","id":"w1326332382","properties":{"type":"residential","address":"Pylna 23","residential":true,"residents_est":7,"h3_10":"8a1e05b6941ffff","h3_11":"8b1e05b69419fff"},"geometry":{"type":"Polygon","coordinates":[[[19.853562,50.074708],[19.853581,50.074704],[19.853571,50.074683],[19.853709,50.074657],[19.853719,50.074679],[19.853734,50.074676],[19.853747,50.074706],[19.853732,50.074708],[19.853742,50.07473],[19.853585,50.074759],[19.853562,50.074708]]]}},{"type":"Feature","id":"w1326332383","properties":{"type":"residential","address":"Pylna 23A","residential":true,"residents_est":7,"h3_10":"8a1e05b6941ffff","h3_11":"8b1e05b69419fff"},"geometry":{"type":"Polygon","coordinates":[[[19.85352,50.074613],[19.853677,50.074584],[19.853687,50.074606],[19.853701,50.074603],[19.853715,50.074633],[19.8537,50.074636],[19.853709,50.074657],[19.853571,50.074683],[19.853562,50.074662],[19.853543,50.074665],[19.85352,50.074613]]]}},{"type":"Feature","id":"w1326332384","properties":{"type":"residential","address":"Pylna 23B","residential":true,"residents_est":10,"h3_10":"8a1e05b6941ffff","h3_11":"8b1e05b6941bfff"},"geometry":{"type":"Polygon","coordinates":[[[19.853442,50.074438],[19.85361,50.074407],[19.853653,50.074505],[19.853485,50.074536],[19.853442,50.074438]]]}},{"type":"Feature","id":"w1326332385","properties":{"type":"construction","address":"Stefanii Wojtulanis 12","residential":false,"residents_est":0,"h3_10":"8a1e05b694a7fff","h3_11":"8b1e05b694a3fff"},"geometry":{"type":"Polygon","coordinates":[[[19.850206,50.074095],[19.850263,50.074087],[19.850258,50.074074],[19.850357,50.074059],[19.850374,50.074106],[19.850396,50.074103],[19.85042,50.074166],[19.850304,50.074184],[19.850301,50.074176],[19.850239,50.074185],[19.850206,50.074095]]]}},{"type":"Feature","id":"w1326332386","properties":{"type":"residential","address":"Stefanii Wojtulanis 14","residential":true,"residents_est":6,"h3_10":"8a1e05b694affff","h3_11":"8b1e05b694aefff"},"geometry":{"type":"Polygon","coordinates":[[[19.850489,50.074071],[19.850581,50.074056],[19.850619,50.074157],[19.850613,50.074152],[19.850527,50.074171],[19.850489,50.074071]]]}},{"type":"Feature","id":"w1326332387","properties":{"type":"residential","address":"Stefanii Wojtulanis 16","residential":true,"residents_est":5,"h3_10":"8a1e05b694affff","h3_11":"8b1e05b694aefff"},"geometry":{"type":"Polygon","coordinates":[[[19.850581,50.074056],[19.850672,50.074042],[19.85071,50.074142],[19.85062,50.074151],[19.850619,50.074157],[19.850581,50.074056]]]}},{"type":"Feature","id":"w1326332388","properties":{"type":"construction","address":"Stefanii Wojtulanis 6","residential":false,"residents_est":0,"h3_10":"8a1e05b694a7fff","h3_11":"8b1e05b694a0fff"},"geometry":{"type":"Polygon","coordinates":[[[19.849354,50.074187],[19.849575,50.074153],[19.849603,50.074227],[19.849525,50.07424],[19.849533,50.074261],[19.849523,50.074262],[19.849519,50.074253],[19.849398,50.074272],[19.849402,50.074281],[19.84939,50.074283],[19.849354,50.074187]]]}},{"type":"Feature","id":"w1352748610","properties":{"type":"yes","residential":true,"residents_est":9,"h3_10":"8a1e05b6941ffff","h3_11":"8b1e05b69418fff"},"geometry":{"type":"Polygon","coordinates":[[[19.85279,50.074734],[19.85284,50.074724],[19.852827,50.074698],[19.852908,50.074681],[19.852893,50.074654],[19.852948,50.074642],[19.852971,50.074688],[19.853005,50.074681],[19.853078,50.074823],[19.852965,50.074847],[19.852944,50.074806],[19.852838,50.074828],[19.85279,50.074734]]]}},{"type":"Feature","id":"w1549288385","properties":{"type":"yes","address":"Pylna 26D","residential":true,"residents_est":3,"h3_10":"8a1e05b69457fff","h3_11":"8b1e05b69456fff"},"geometry":{"type":"Polygon","coordinates":[[[19.855289,50.07512],[19.855336,50.075113],[19.855326,50.075086],[19.855476,50.075064],[19.855521,50.075188],[19.855376,50.07521],[19.855368,50.075187],[19.855316,50.075195],[19.855289,50.07512]]]}},{"type":"Feature","id":"w1549288386","properties":{"type":"yes","address":"Pylna 26C","residential":true,"residents_est":4,"h3_10":"8a1e05b6940ffff","h3_11":"8b1e05b69409fff"},"geometry":{"type":"Polygon","coordinates":[[[19.855382,50.075359],[19.85543,50.075351],[19.85542,50.075325],[19.85557,50.075302],[19.855615,50.075426],[19.85547,50.075448],[19.855462,50.075426],[19.85541,50.075433],[19.855382,50.075359]]]}},{"type":"Feature","id":"w1549288387","properties":{"type":"yes","residential":true,"residents_est":3,"h3_10":"8a1e05b6940ffff","h3_11":"8b1e05b69409fff"},"geometry":{"type":"Polygon","coordinates":[[[19.85497,50.075379],[19.855114,50.075357],[19.855123,50.07538],[19.855175,50.075372],[19.855203,50.075446],[19.855155,50.075454],[19.855165,50.07548],[19.855016,50.075503],[19.85497,50.075379]]]}},{"type":"Feature","id":"w1549288388","properties":{"type":"yes","residential":true,"residents_est":3,"h3_10":"8a1e05b6940ffff","h3_11":"8b1e05b6940bfff"},"geometry":{"type":"Polygon","coordinates":[[[19.854865,50.075131],[19.85501,50.075108],[19.855018,50.075131],[19.855071,50.075123],[19.855098,50.075198],[19.855051,50.075205],[19.855061,50.075232],[19.854911,50.075255],[19.854865,50.075131]]]}},{"type":"Feature","id":"w1549288389","properties":{"type":"yes","residential":true,"residents_est":3,"h3_10":"8a1e05b6940ffff","h3_11":"8b1e05b6940bfff"},"geometry":{"type":"Polygon","coordinates":[[[19.854755,50.074878],[19.8549,50.074856],[19.854909,50.074879],[19.854961,50.074871],[19.854989,50.074946],[19.854941,50.074953],[19.854951,50.07498],[19.854802,50.075003],[19.854755,50.074878]]]}}]}