{"type":"FeatureCollection","features":[{"type":"Feature","id":"w337950126","properties":{"type":"yes","residential":true,"residents_est":5,"h3_10":"8a1e2e61b977fff","h3_11":"8b1e2e61b974fff"},"geometry":{"type":"Polygon","coordinates":[[[20.156538,50.111103],[20.156642,50.111056],[20.156711,50.111119],[20.156759,50.111097],[20.156844,50.111175],[20.156695,50.111242],[20.156606,50.111164],[20.156617,50.111158],[20.156587,50.111131],[20.156576,50.111137],[20.156538,50.111103]]]}},{"type":"Feature","id":"w337950220","properties":{"type":"yes","residential":true,"residents_est":4,"h3_10":"8a1e2e61b92ffff","h3_11":"8b1e2e61b929fff"},"geometry":{"type":"Polygon","coordinates":[[[20.155969,50.110956],[20.155994,50.110945],[20.155987,50.110937],[20.156146,50.11087],[20.156198,50.11092],[20.156145,50.11094],[20.156162,50.110958],[20.156142,50.110966],[20.156162,50.110988],[20.156045,50.111034],[20.155969,50.110956]]]}},{"type":"Feature","id":"w337950229","properties":{"type":"yes","residential":true,"residents_est":42,"h3_10":"8a1e2e61b997fff","h3_11":"8b1e2e61b993fff"},"geometry":{"type":"Polygon","coordinates":[[[20.149864,50.106968],[20.150332,50.106888],[20.15019,50.106655],[20.150368,50.10661],[20.150418,50.106698],[20.150383,50.106706],[20.150409,50.106746],[20.150384,50.106752],[20.150449,50.106868],[20.150499,50.106992],[20.149914,50.107091],[20.149864,50.106968]]]}},{"type":"Feature","id":"w337950235","properties":{"type":"yes","residential":true,"residents_est":3,"h3_10":"8a1e2e61b92ffff","h3_11":"8b1e2e61b92dfff"},"geometry":{"type":"Polygon","coordinates":[[[20.155825,50.111393],[20.155984,50.111312],[20.156064,50.111374],[20.155906,50.111458],[20.155825,50.111393]]]}},{"type":"Feature","id":"w337950257","properties":{"type":"yes","residential":true,"residents_est":20,"h3_10":"8a1e2e61b927fff","h3_11":"8b1e2e61b923fff"},"geometry":{"type":"Polygon","coordinates":[[[20.15391,50.110905],[20.154016,50.110868],[20.154041,50.110896],[20.154066,50.110888],[20.154087,50.110916],[20.154132,50.1109],[20.153999,50.110748],[20.154144,50.110698],[20.154314,50.110897],[20.154129,50.110963],[20.154118,50.110952],[20.15399,50.110998],[20.15391,50.110905]]]}},{"type":"Feature","id":"w337950374","properties":{"type":"yes","residential":true,"residents_est":3,"h3_10":"8a1e2e61b907fff","h3_11":"8b1e2e61b902fff"},"geometry":{"type":"Polygon","coordinates":[[[20.153489,50.110067],[20.153534,50.110056],[20.153524,50.110037],[20.153584,50.110024],[20.153577,50.11001],[20.153632,50.109989],[20.153664,50.109999],[20.153673,50.110016],[20.153665,50.110026],[20.153699,50.11009],[20.153568,50.110119],[20.153564,50.110112],[20.153519,50.110121],[20.153489,50.110067]]]}},{"type":"Feature","id":"w337950443","properties":{"type":"yes","residential":true,"residents_est":2,"h3_10":"8a1e2e61b90ffff","h3_11":"8b1e2e61b90efff"},"geometry":{"type":"Polygon","coordinates":[[[20.155011,50.110077],[20.15515,50.11003],[20.155193,50.110085],[20.155055,50.110131],[20.155011,50.110077]]]}},{"type":"Feature","id":"w337950574","properties":{"type":"yes","residential":true,"residents_est":5,"h3_10":"8a1e2e61b977fff","h3_11":"8b1e2e61b976fff"},"geometry":{"type":"Polygon","coordinates":[[[20.15654,50.110814],[20.156687,50.110761],[20.15681,50.110904],[20.156664,50.110959],[20.15654,50.110814]]]}},{"type":"Feature","id":"w337950591","properties":{"type":"yes","residential":true,"residents_est":12,"h3_10":"8a1e2e61b937fff","h3_11":"8b1e2e61b931fff"},"geometry":{"type":"Polygon","coordinates":[[[20.152949,50.110897],[20.153072,50.110825],[20.153275,50.110969],[20.15315,50.11104],[20.152949,50.110897]]]}},{"type":"Feature","id":"w337950607","properties":{"type":"yes","residential":true,"residents_est":2,"h3_10":"8a1e2e61b92ffff","h3_11":"8b1e2e61b92efff"},"geometry":{"type":"Polygon","coordinates":[[[20.154735,50.111254],[20.154847,50.111217],[20.154911,50.111299],[20.154798,50.111335],[20.154735,50.111254]]]}},{"type":"Feature","id":"w337950823","properties":{"type":"yes","residential":true,"residents_est":2,"h3_10":"8a1e2e61b90ffff","h3_11":"8b1e2e61b90efff"},"geometry":{"type":"Polygon","coordinates":[[[20.154928,50.10984],[20.155035,50.109808],[20.155109,50.109909],[20.155002,50.109941],[20.154928,50.10984]]]}},{"type":"Feature","id":"w337950877","properties":{"type":"yes","residential":false,"residents_est":0,"h3_10":"8a1e2e61b917fff","h3_11":"8b1e2e61b911fff"},"geometry":{"type":"Polygon","coordinates":[[[20.153319,50.109416],[20.153387,50.109402],[20.153403,50.109435],[20.153336,50.109448],[20.153319,50.109416]]]}},{"type":"Feature","id":"w337950933","properties":{"type":"yes","residential":true,"residents_est":1,"h3_10":"8a1e2e61b92ffff","h3_11":"8b1e2e61b92afff"},"geometry":{"type":"Polygon","coordinates":[[[20.15518,50.110649],[20.155302,50.110596],[20.155343,50.110637],[20.155222,50.110689],[20.15518,50.110649]]]}},{"type":"Feature","id":"w337950945","properties":{"type":"yes","residential":true,"residents_est":1,"h3_10":"8a1e2e61b90ffff","h3_11":"8b1e2e61b90efff"},"geometry":{"type":"Polygon","coordinates":[[[20.155309,50.110028],[20.155398,50.109995],[20.155449,50.110051],[20.155359,50.110084],[20.155309,50.110028]]]}},{"type":"Feature","id":"w337950955","properties":{"type":"yes","residential":true,"residents_est":4,"h3_10":"8a1e2e61b977fff","h3_11":"8b1e2e61b976fff"},"geometry":{"type":"Polygon","coordinates":[[[20.156514,50.110515],[20.156633,50.110466],[20.156752,50.11059],[20.156632,50.110637],[20.156514,50.110515]]]}},{"type":"Feature","id":"w337950993","properties":{"type":"yes","residential":true,"residents_est":2,"h3_10":"8a1e2e61b927fff","h3_11":"8b1e2e61b923fff"},"geometry":{"type":"Polygon","coordinates":[[[20.154388,50.111208],[20.154596,50.111156],[20.154629,50.111211],[20.154421,50.111264],[20.154388,50.111208]]]}},{"type":"Feature","id":"w337951059","properties":{"type":"yes","residential":true,"residents_est":2,"h3_10":"8a1e2e61b927fff","h3_11":"8b1e2e61b921fff"},"geometry":{"type":"Polygon","coordinates":[[[20.154601,50.111436],[20.154748,50.111384],[20.154803,50.111447],[20.154655,50.111499],[20.154601,50.111436]]]}},{"type":"Feature","id":"w337951184","properties":{"type":"yes","residential":true,"residents_est":2,"h3_10":"8a1e2e61b92ffff","h3_11":"8b1e2e61b929fff"},"geometry":{"type":"Polygon","coordinates":[[[20.156292,50.110937],[20.156414,50.110891],[20.156486,50.110969],[20.156364,50.111016],[20.156292,50.110937]]]}},{"type":"Feature","id":"w337951305","properties":{"type":"yes","residential":true,"residents_est":1,"h3_10":"8a1e2e61b92ffff","h3_11":"8b1e2e61b92bfff"},"geometry":{"type":"Polygon","coordinates":[[[20.155609,50.110814],[20.155682,50.110777],[20.155748,50.110835],[20.155676,50.110872],[20.155609,50.110814]]]}},{"type":"Feature","id":"w337951506","properties":{"type":"yes","residential":true,"residents_est":1,"h3_10":"8a1e2e61b90ffff","h3_11":"8b1e2e61b90efff"},"geometry":{"type":"Polygon","coordinates":[[[20.155461,50.110011],[20.155543,50.109982],[20.155588,50.110035],[20.155506,50.110064],[20.155461,50.110011]]]}},{"type":"Feature","id":"w337951508","properties":{"type":"yes","residential":true,"residents_est":2,"h3_10":"8a1e2e61b92ffff","h3_11":"8b1e2e61b929fff"},"geometry":{"type":"Polygon","coordinates":[[[20.156308,50.111106],[20.156449,50.111041],[20.156495,50.111083],[20.156354,50.111147],[20.156308,50.111106]]]}},{"type":"Feature","id":"w337951534","properties":{"type":"yes","residential":true,"residents_est":4,"h3_10":"8a1e2e61b937fff","h3_11":"8b1e2e61b931fff"},"geometry":{"type":"Polygon","coordinates":[[[20.152844,50.110703],[20.153051,50.110622],[20.153125,50.110698],[20.152917,50.11078],[20.152844,50.110703]]]}},{"type":"Feature","id":"w337951542","properties":{"type":"yes","residential":true,"residents_est":5,"h3_10":"8a1e2e61b927fff","h3_11":"8b1e2e61b921fff"},"geometry":{"type":"Polygon","coordinates":[[[20.154314,50.111378],[20.154439,50.111336],[20.154585,50.111505],[20.15446,50.111548],[20.154314,50.111378]]]}},{"type":"Feature","id":"w337951547","properties":{"type":"yes","residential":true,"residents_est":2,"h3_10":"8a1e2e61b92ffff","h3_11":"8b1e2e61b929fff"},"geometry":{"type":"Polygon","coordinates":[[[20.155962,50.11108],[20.156064,50.111033],[20.156146,50.111106],[20.156044,50.111153],[20.155962,50.11108]]]}},{"type":"Feature","id":"w337951593","properties":{"type":"yes","residential":true,"residents_est":4,"h3_10":"8a1e2e61b907fff","h3_11":"8b1e2e61b905fff"},"geometry":{"type":"Polygon","coordinates":[[[20.154436,50.110759],[20.154552,50.110708],[20.154686,50.110831],[20.154569,50.110883],[20.154436,50.110759]]]}},{"type":"Feature","id":"w337951677","properties":{"type":"yes","residential":true,"residents_est":3,"h3_10":"8a1e2e61b92ffff","h3_11":"8b1e2e61b928fff"},"geometry":{"type":"Polygon","coordinates":[[[20.155193,50.111143],[20.155332,50.111077],[20.155399,50.111136],[20.155319,50.111174],[20.155361,50.11121],[20.155303,50.111237],[20.155193,50.111143]]]}},{"type":"Feature","id":"w337951733","properties":{"type":"yes","residential":true,"residents_est":15,"h3_10":"8a1e2e61b997fff","h3_11":"8b1e2e61b992fff"},"geometry":{"type":"Polygon","coordinates":[[[20.14971,50.106533],[20.149966,50.106493],[20.149994,50.106574],[20.149852,50.106597],[20.149917,50.106772],[20.149809,50.106789],[20.14971,50.106533]]]}},{"type":"Feature","id":"w337951781","properties":{"type":"yes","residential":true,"residents_est":2,"h3_10":"8a1e2e61b90ffff","h3_11":"8b1e2e61b90cfff"},"geometry":{"type":"Polygon","coordinates":[[[20.155416,50.110255],[20.155524,50.110218],[20.155546,50.110246],[20.155507,50.110259],[20.155552,50.110315],[20.155485,50.110337],[20.155416,50.110255]]]}},{"type":"Feature","id":"w337951846","properties":{"type":"yes","residential":true,"residents_est":4,"h3_10":"8a1e2e61b927fff","h3_11":"8b1e2e61b922fff"},"geometry":{"type":"Polygon","coordinates":[[[20.153321,50.111005],[20.153536,50.110881],[20.15362,50.110941],[20.153404,50.111065],[20.153321,50.111005]]]}},{"type":"Feature","id":"w337951862","properties":{"type":"yes","residential":true,"residents_est":4,"h3_10":"8a1e2e61b907fff","h3_11":"8b1e2e61b901fff"},"geometry":{"type":"Polygon","coordinates":[[[20.155034,50.110377],[20.155293,50.1103],[20.15533,50.110352],[20.155288,50.110365],[20.155309,50.110395],[20.155094,50.110459],[20.155034,50.110377]]]}},{"type":"Feature","id":"w337951888","properties":{"type":"yes","residential":true,"residents_est":3,"h3_10":"8a1e2e61b91ffff","h3_11":"8b1e2e61b91dfff"},"geometry":{"type":"Polygon","coordinates":[[[20.154604,50.109577],[20.15473,50.109541],[20.154808,50.109655],[20.154682,50.10969],[20.154604,50.109577]]]}},{"type":"Feature","id":"w337951906","properties":{"type":"yes","residential":true,"residents_est":2,"h3_10":"8a1e2e61b92ffff","h3_11":"8b1e2e61b92afff"},"geometry":{"type":"Polygon","coordinates":[[[20.15527,50.110748],[20.15536,50.110703],[20.155461,50.110789],[20.15537,50.110833],[20.15527,50.110748]]]}},{"type":"Feature","id":"w337952046","properties":{"type":"yes","residential":true,"residents_est":2,"h3_10":"8a1e2e61b92ffff","h3_11":"8b1e2e61b928fff"},"geometry":{"type":"Polygon","coordinates":[[[20.155643,50.110953],[20.15575,50.110892],[20.155835,50.110954],[20.155799,50.110974],[20.155813,50.110985],[20.155786,50.110999],[20.155772,50.11099],[20.155728,50.111014],[20.155643,50.110953]]]}},{"type":"Feature","id":"w337952048","properties":{"type":"yes","residential":true,"residents_est":3,"h3_10":"8a1e2e61b907fff","h3_11":"8b1e2e61b901fff"},"geometry":{"type":"Polygon","coordinates":[[[20.154827,50.11023],[20.154953,50.110188],[20.154986,50.11023],[20.155012,50.110221],[20.155033,50.110246],[20.155006,50.110255],[20.15503,50.110284],[20.154906,50.110325],[20.154827,50.11023]]]}},{"type":"Feature","id":"w337952094","properties":{"type":"yes","residential":true,"residents_est":2,"h3_10":"8a1e2e61b907fff","h3_11":"8b1e2e61b906fff"},"geometry":{"type":"Polygon","coordinates":[[[20.153681,50.110482],[20.153721,50.110468],[20.153713,50.110458],[20.153797,50.11043],[20.153864,50.11051],[20.153779,50.110538],[20.15377,50.110529],[20.153731,50.110542],[20.153681,50.110482]]]}},{"type":"Feature","id":"w337952167","properties":{"type":"yes","residential":true,"residents_est":3,"h3_10":"8a1e2e61b937fff","h3_11":"8b1e2e61b931fff"},"geometry":{"type":"Polygon","coordinates":[[[20.153189,50.110726],[20.153306,50.110663],[20.153418,50.110748],[20.153307,50.110815],[20.15325,50.110772],[20.153233,50.110781],[20.153212,50.110766],[20.153229,50.110757],[20.153189,50.110726]]]}},{"type":"Feature","id":"w337952180","properties":{"type":"yes","residential":true,"residents_est":14,"h3_10":"8a1e2e61b92ffff","h3_11":"8b1e2e61b92dfff"},"geometry":{"type":"Polygon","coordinates":[[[20.156104,50.111546],[20.15622,50.111476],[20.156186,50.111453],[20.156253,50.111412],[20.15629,50.111435],[20.156335,50.111409],[20.156449,50.111488],[20.15622,50.111626],[20.156104,50.111546]]]}},{"type":"Feature","id":"w337952184","properties":{"type":"yes","residential":true,"residents_est":6,"h3_10":"8a1e2e61b927fff","h3_11":"8b1e2e61b923fff"},"geometry":{"type":"Polygon","coordinates":[[[20.154185,50.111181],[20.154669,50.111061],[20.154699,50.111115],[20.154218,50.111237],[20.154185,50.111181]]]}},{"type":"Feature","id":"w720225836","properties":{"type":"yes","residential":false,"residents_est":0,"h3_10":"8a1e2e61b91ffff","h3_11":"8b1e2e61b91dfff"},"geometry":{"type":"Polygon","coordinates":[[[20.154608,50.109643],[20.15464,50.109634],[20.154682,50.10969],[20.15465,50.1097],[20.154608,50.109643]]]}},{"type":"Feature","id":"w720225845","properties":{"type":"yes","residential":true,"residents_est":1,"h3_10":"8a1e2e61b92ffff","h3_11":"8b1e2e61b92dfff"},"geometry":{"type":"Polygon","coordinates":[[[20.155906,50.111458],[20.156008,50.111405],[20.156023,50.111417],[20.155982,50.111438],[20.156017,50.111466],[20.155983,50.111484],[20.156003,50.1115],[20.155976,50.111514],[20.155906,50.111458]]]}},{"type":"Feature","id":"w720225850","properties":{"type":"yes","residential":false,"residents_est":0,"h3_10":"8a1e2e61b927fff","h3_11":"8b1e2e61b923fff"},"geometry":{"type":"Polygon","coordinates":[[[20.154054,50.110975],[20.154101,50.110959],[20.154186,50.111027],[20.154148,50.111048],[20.154054,50.110975]]]}},{"type":"Feature","id":"w720225851","properties":{"type":"yes","residential":true,"residents_est":4,"h3_10":"8a1e2e61b927fff","h3_11":"8b1e2e61b922fff"},"geometry":{"type":"Polygon","coordinates":[[[20.153394,50.111233],[20.153478,50.11119],[20.153462,50.111177],[20.15356,50.111127],[20.153589,50.11115],[20.153609,50.111154],[20.153621,50.111164],[20.153621,50.111176],[20.153651,50.111199],[20.153555,50.111249],[20.153545,50.111241],[20.153461,50.111287],[20.153394,50.111233]]]}},{"type":"Feature","id":"w720225852","properties":{"type":"yes","residential":false,"residents_est":0,"h3_10":"8a1e2e61b927fff","h3_11":"8b1e2e61b922fff"},"geometry":{"type":"Polygon","coordinates":[[[20.153318,50.111036],[20.153343,50.111022],[20.153404,50.111065],[20.153379,50.11108],[20.153318,50.111036]]]}},{"type":"Feature","id":"w720225853","properties":{"type":"yes","residential":true,"residents_est":1,"h3_10":"8a1e2e61b937fff","h3_11":"8b1e2e61b931fff"},"geometry":{"type":"Polygon","coordinates":[[[20.15315,50.110696],[20.153267,50.110633],[20.153306,50.110663],[20.153189,50.110726],[20.15315,50.110696]]]}},{"type":"Feature","id":"w720225854","properties":{"type":"yes","residential":false,"residents_est":0,"h3_10":"8a1e2e61b907fff","h3_11":"8b1e2e61b904fff"},"geometry":{"type":"Polygon","coordinates":[[[20.153882,50.110533],[20.15392,50.11052],[20.153954,50.110561],[20.153915,50.110575],[20.153882,50.110533]]]}},{"type":"Feature","id":"w720225855","properties":{"type":"yes","residential":true,"residents_est":3,"h3_10":"8a1e2e61b917fff","h3_11":"8b1e2e61b911fff"},"geometry":{"type":"Polygon","coordinates":[[[20.153214,50.109727],[20.153311,50.109707],[20.153321,50.109726],[20.153361,50.109718],[20.153398,50.109793],[20.153385,50.109796],[20.153402,50.109831],[20.153295,50.109853],[20.153265,50.109792],[20.153248,50.109795],[20.153214,50.109727]]]}},{"type":"Feature","id":"w720225857","properties":{"type":"yes","residential":true,"residents_est":1,"h3_10":"8a1e2e61b92ffff","h3_11":"8b1e2e61b92afff"},"geometry":{"type":"Polygon","coordinates":[[[20.15537,50.110833],[20.155461,50.110789],[20.155504,50.110825],[20.155412,50.11087],[20.15537,50.110833]]]}},{"type":"Feature","id":"w720225858","properties":{"type":"yes","residential":true,"residents_est":2,"h3_10":"8a1e2e61b92ffff","h3_11":"8b1e2e61b92bfff"},"geometry":{"type":"Polygon","coordinates":[[[20.15575,50.110892],[20.155836,50.110844],[20.15592,50.110905],[20.155835,50.110954],[20.15575,50.110892]]]}},{"type":"Feature","id":"w720225859","properties":{"type":"yes","residential":false,"residents_est":0,"h3_10":"8a1e2e61b92ffff","h3_11":"8b1e2e61b92bfff"},"geometry":{"type":"Polygon","coordinates":[[[20.155877,50.110804],[20.155943,50.110765],[20.155985,50.110795],[20.155921,50.110835],[20.155877,50.110804]]]}},{"type":"Feature","id":"w720225860","properties":{"type":"yes","residential":true,"residents_est":2,"h3_10":"8a1e2e61b977fff","h3_11":"8b1e2e61b976fff"},"geometry":{"type":"Polygon","coordinates":[[[20.156885,50.110671],[20.157015,50.110624],[20.157072,50.110687],[20.156942,50.110735],[20.156885,50.110671]]]}},{"type":"Feature","id":"w720225862","properties":{"type":"yes","residential":false,"residents_est":0,"h3_10":"8a1e2e61b977fff","h3_11":"8b1e2e61b974fff"},"geometry":{"type":"Polygon","coordinates":[[[20.156955,50.111013],[20.157009,50.110991],[20.157071,50.111053],[20.157017,50.111075],[20.156955,50.111013]]]}},{"type":"Feature","id":"w720225863","properties":{"type":"yes","residential":false,"residents_est":0,"h3_10":"8a1e2e61b977fff","h3_11":"8b1e2e61b975fff"},"geometry":{"type":"Polygon","coordinates":[[[20.157495,50.110999],[20.157573,50.110967],[20.1576,50.110993],[20.157521,50.111026],[20.157495,50.110999]]]}},{"type":"Feature","id":"w720225864","properties":{"type":"yes","residential":false,"residents_est":0,"h3_10":"8a1e2e61b977fff","h3_11":"8b1e2e61b975fff"},"geometry":{"type":"Polygon","coordinates":[[[20.15767,50.110925],[20.157711,50.110908],[20.157756,50.110953],[20.157714,50.11097],[20.15767,50.110925]]]}},{"type":"Feature","id":"w720225865","properties":{"type":"yes","residential":false,"residents_est":0,"h3_10":"8a1e2e61b977fff","h3_11":"8b1e2e61b975fff"},"geometry":{"type":"Polygon","coordinates":[[[20.157645,50.111149],[20.157695,50.111129],[20.157733,50.111167],[20.157683,50.111188],[20.157645,50.111149]]]}},{"type":"Feature","id":"w720225867","properties":{"type":"yes","residential":true,"residents_est":1,"h3_10":"8a1e2e61b977fff","h3_11":"8b1e2e61b975fff"},"geometry":{"type":"Polygon","coordinates":[[[20.157686,50.11107],[20.15779,50.111028],[20.157833,50.111072],[20.157799,50.111086],[20.157807,50.111095],[20.157769,50.111111],[20.15776,50.111102],[20.157729,50.111114],[20.157686,50.11107]]]}},{"type":"Feature","id":"w720225868","properties":{"type":"yes","residential":true,"residents_est":13,"h3_10":"8a1e2e61b92ffff","h3_11":"8b1e2e61b92bfff"},"geometry":{"type":"Polygon","coordinates":[[[20.156134,50.110658],[20.156267,50.110592],[20.156458,50.110757],[20.156328,50.110825],[20.156134,50.110658]]]}},{"type":"Feature","id":"w720225875","properties":{"type":"greenhouse","residential":false,"residents_est":0,"h3_10":"8a1e2e61b977fff","h3_11":"8b1e2e61b972fff"},"geometry":{"type":"Polygon","coordinates":[[[20.157087,50.110322],[20.157126,50.110311],[20.157209,50.110425],[20.15717,50.110437],[20.157087,50.110322]]]}},{"type":"Feature","id":"w720305116","properties":{"type":"greenhouse","residential":false,"residents_est":0,"h3_10":"8a1e2e61b997fff","h3_11":"8b1e2e61b996fff"},"geometry":{"type":"Polygon","coordinates":[[[20.149447,50.107039],[20.14965,50.106937],[20.1497,50.106978],[20.149497,50.10708],[20.149447,50.107039]]]}},{"type":"Feature","id":"w1047828533","properties":{"type":"detached","levels":2.0,"residential":true,"residents_est":5,"h3_10":"8a1e2e61b91ffff","h3_11":"8b1e2e61b91cfff"},"geometry":{"type":"Polygon","coordinates":[[[20.153689,50.109701],[20.153788,50.109674],[20.153791,50.109679],[20.153871,50.109662],[20.153903,50.109723],[20.153722,50.109762],[20.153689,50.109701]]]}},{"type":"Feature","id":"w1364773995","properties":{"type":"yes","residential":true,"residents_est":1,"h3_10":"8a1e2e61b977fff","h3_11":"8b1e2e61b974fff"},"geometry":{"type":"Polygon","coordinates":[[[20.157279,50.111122],[20.157389,50.11108],[20.157441,50.111135],[20.15733,50.111177],[20.157279,50.111122]]]}},{"type":"Feature","id":"w1364773996","properties":{"type":"yes","residential":true,"residents_est":3,"h3_10":"8a1e2e61b977fff","h3_11":"8b1e2e61b975fff"},"geometry":{"type":"Polygon","coordinates":[[[20.157956,50.110989],[20.158109,50.110931],[20.158179,50.111008],[20.158026,50.111065],[20.157956,50.110989]]]}},{"type":"Feature","id":"w1364773997","properties":{"type":"yes","residential":true,"residents_est":3,"h3_10":"8a1e2e61b977fff","h3_11":"8b1e2e61b971fff"},"geometry":{"type":"Polygon","coordinates":[[[20.157836,50.110863],[20.157989,50.110806],[20.158058,50.110882],[20.157906,50.11094],[20.157836,50.110863]]]}},{"type":"Feature","id":"w1364774001","properties":{"type":"yes","residential":true,"residents_est":3,"h3_10":"8a1e2e61b967fff","h3_11":"8b1e2e61b966fff"},"geometry":{"type":"Polygon","coordinates":[[[20.157849,50.111607],[20.157995,50.111546],[20.158074,50.111626],[20.157928,50.111686],[20.157849,50.111607]]]}}]}