{"type":"FeatureCollection","features":[{"type":"Feature","id":"w54401147","properties":{"type":"church","name":"Kościół pw. Świętego Józefa Oblubieńca Najświętszej Maryi Panny","residential":false,"residents_est":0,"h3_10":"8a1e2e6a3b77fff","h3_11":"8b1e2e6a3b73fff"},"geometry":{"type":"Polygon","coordinates":[[[20.012893,50.089267],[20.012942,50.089247],[20.012919,50.089225],[20.013024,50.089182],[20.013,50.089157],[20.013076,50.089126],[20.013099,50.089148],[20.013205,50.089104],[20.013223,50.089122],[20.013369,50.089061],[20.013564,50.089255],[20.01342,50.089314],[20.013502,50.089406],[20.013336,50.089475],[20.013259,50.089411],[20.013112,50.089473],[20.013092,50.08945],[20.013081,50.089454],[20.012893,50.089267]]]}},{"type":"Feature","id":"w54541544","properties":{"type":"apartments","levels":5.0,"address":"Osiedle Józefa Strusia 14","residential":true,"residents_est":118,"h3_10":"8a1e2e6a3baffff","h3_11":"8b1e2e6a3ba8fff"},"geometry":{"type":"Polygon","coordinates":[[[20.007757,50.087492],[20.008817,50.087486],[20.008816,50.087469],[20.009239,50.087466],[20.009241,50.087563],[20.008818,50.087566],[20.008818,50.087584],[20.007759,50.08759],[20.007757,50.087492]]]}},{"type":"Feature","id":"w54541570","properties":{"type":"school","levels":4.0,"address":"Osiedle Józefa Strusia 19","residential":false,"residents_est":0,"h3_10":"8a1e2e6a3b27fff","h3_11":"8b1e2e6a3b23fff"},"geometry":{"type":"Polygon","coordinates":[[[20.008852,50.090156],[20.009069,50.090001],[20.009197,50.090075],[20.009175,50.09009],[20.009334,50.09018],[20.009759,50.089871],[20.0099,50.089953],[20.009791,50.090028],[20.009812,50.09004],[20.009807,50.090044],[20.009768,50.090071],[20.009748,50.090059],[20.009251,50.090416],[20.00911,50.090336],[20.009243,50.090243],[20.009087,50.090151],[20.00898,50.09023],[20.008852,50.090156]]]}},{"type":"Feature","id":"w54541591","properties":{"type":"apartments","levels":5.0,"address":"Osiedle Józefa Strusia 9","residential":true,"residents_est":118,"h3_10":"8a1e2e6a3a27fff","h3_11":"8b1e2e6a3a26fff"},"geometry":{"type":"Polygon","coordinates":[[[20.010036,50.087855],[20.011095,50.087849],[20.011095,50.087832],[20.011518,50.08783],[20.011519,50.087927],[20.011096,50.087929],[20.011097,50.087947],[20.010037,50.087953],[20.010036,50.087855]]]}},{"type":"Feature","id":"w54541599","properties":{"type":"apartments","levels":11.0,"address":"Osiedle Józefa Strusia 7","residential":true,"residents_est":436,"h3_10":"8a1e2e6a3b0ffff","h3_11":"8b1e2e6a3b0afff"},"geometry":{"type":"Polygon","coordinates":[[[20.010213,50.088383],[20.010234,50.088356],[20.01026,50.088364],[20.010323,50.088281],[20.012015,50.088808],[20.011953,50.088889],[20.011975,50.088896],[20.011954,50.088924],[20.011831,50.088885],[20.011816,50.088905],[20.011754,50.088885],[20.011767,50.088867],[20.011623,50.088822],[20.011609,50.088839],[20.011553,50.088821],[20.011565,50.088805],[20.011426,50.088762],[20.011413,50.08878],[20.011347,50.08876],[20.011361,50.088742],[20.01122,50.088698],[20.011208,50.088715],[20.011138,50.088693],[20.011151,50.088676],[20.011014,50.088634],[20.011002,50.08865],[20.01094,50.088631],[20.010953,50.088613],[20.010801,50.088566],[20.010787,50.088584],[20.010734,50.088568],[20.010749,50.088549],[20.010597,50.088501],[20.010584,50.088518],[20.010547,50.088507],[20.010531,50.088502],[20.010544,50.088484],[20.0104,50.08844],[20.010386,50.08846],[20.01032,50.088439],[20.010334,50.088421],[20.010213,50.088383]]]}},{"type":"Feature","id":"w54541621","properties":{"type":"apartments","levels":5.0,"address":"Osiedle Józefa Strusia 16","residential":true,"residents_est":117,"h3_10":"8a1e2e6a3b17fff","h3_11":"8b1e2e6a3b13fff"},"geometry":{"type":"Polygon","coordinates":[[[20.00803,50.088186],[20.00909,50.08818],[20.009089,50.088162],[20.009512,50.08816],[20.009514,50.088257],[20.009091,50.088259],[20.009091,50.088277],[20.008032,50.088283],[20.00803,50.088186]]]}},{"type":"Feature","id":"w54541629","properties":{"type":"apartments","levels":5.0,"address":"Osiedle Józefa Strusia 15","residential":true,"residents_est":118,"h3_10":"8a1e2e6a3baffff","h3_11":"8b1e2e6a3badfff"},"geometry":{"type":"Polygon","coordinates":[[[20.007887,50.087849],[20.008951,50.087833],[20.008951,50.087816],[20.009373,50.08781],[20.009377,50.087907],[20.008954,50.087913],[20.008955,50.087931],[20.007893,50.087947],[20.007887,50.087849]]]}},{"type":"Feature","id":"w54541644","properties":{"type":"apartments","levels":5.0,"address":"Osiedle Józefa Strusia 3","residential":true,"residents_est":117,"h3_10":"8a1e2e6a3a07fff","h3_11":"8b1e2e6a3a05fff"},"geometry":{"type":"Polygon","coordinates":[[[20.011905,50.087176],[20.012965,50.08717],[20.012965,50.087152],[20.013388,50.08715],[20.013389,50.087246],[20.012966,50.087249],[20.012966,50.087267],[20.011907,50.087273],[20.011905,50.087176]]]}},{"type":"Feature","id":"w54541650","properties":{"type":"apartments","levels":5.0,"address":"Osiedle Józefa Strusia 4","residential":true,"residents_est":117,"h3_10":"8a1e2e6a3a2ffff","h3_11":"8b1e2e6a3a2efff"},"geometry":{"type":"Polygon","coordinates":[[[20.01205,50.087526],[20.01311,50.08752],[20.013109,50.087502],[20.013533,50.0875],[20.013534,50.087597],[20.013111,50.087599],[20.013111,50.087617],[20.012052,50.087623],[20.01205,50.087526]]]}},{"type":"Feature","id":"w54541654","properties":{"type":"apartments","levels":11.0,"address":"Osiedle Józefa Strusia 6","residential":true,"residents_est":419,"h3_10":"8a1e2e6a3b57fff","h3_11":"8b1e2e6a3b53fff"},"geometry":{"type":"Polygon","coordinates":[[[20.012226,50.088049],[20.012244,50.088024],[20.012268,50.088031],[20.01233,50.087949],[20.014023,50.088469],[20.013961,50.088551],[20.013987,50.088559],[20.013968,50.088583],[20.013836,50.088543],[20.013823,50.08856],[20.013772,50.088545],[20.013785,50.088527],[20.013636,50.088481],[20.013622,50.088499],[20.013569,50.088482],[20.013582,50.088465],[20.013438,50.08842],[20.013424,50.088438],[20.013371,50.088422],[20.013384,50.088404],[20.013226,50.088355],[20.013213,50.088373],[20.01316,50.088357],[20.013173,50.088339],[20.013008,50.088289],[20.012995,50.088306],[20.01296,50.088296],[20.012942,50.08829],[20.012956,50.088273],[20.012806,50.088227],[20.012793,50.088244],[20.012757,50.088234],[20.012737,50.088227],[20.01275,50.088209],[20.0126,50.088163],[20.012587,50.088181],[20.012556,50.088172],[20.012538,50.088166],[20.012552,50.088149],[20.01241,50.088105],[20.012397,50.088123],[20.012329,50.088102],[20.012342,50.088084],[20.012226,50.088049]]]}},{"type":"Feature","id":"w54541673","properties":{"type":"apartments","levels":5.0,"address":"Osiedle Na Lotnisku 9","residential":true,"residents_est":96,"h3_10":"8a1e2e6a3a57fff","h3_11":"8b1e2e6a3a54fff"},"geometry":{"type":"Polygon","coordinates":[[[20.015304,50.086224],[20.015404,50.086216],[20.015403,50.086206],[20.015507,50.086199],[20.015595,50.086781],[20.015495,50.086787],[20.015494,50.086778],[20.015391,50.086784],[20.015304,50.086224]]]}},{"type":"Feature","id":"w54541680","properties":{"type":"industrial","address":"Osiedle Na Lotnisku 13","residential":false,"residents_est":0,"h3_10":"8a1e2e6a3a77fff","h3_11":"8b1e2e6a3a70fff"},"geometry":{"type":"Polygon","coordinates":[[[20.015011,50.087198],[20.01525,50.087155],[20.015484,50.087694],[20.015245,50.087737],[20.015011,50.087198]]]}},{"type":"Feature","id":"w54541687","properties":{"type":"retail","levels":1.0,"address":"Osiedle Na Lotnisku 12","residential":false,"residents_est":0,"h3_10":"8a1e2e6a3a77fff","h3_11":"8b1e2e6a3a72fff"},"geometry":{"type":"Polygon","coordinates":[[[20.014263,50.086891],[20.014758,50.086809],[20.014841,50.08702],[20.014345,50.087103],[20.014263,50.086891]]]}},{"type":"Feature","id":"w54541694","properties":{"type":"retail","levels":2.0,"address":"Osiedle Na Lotnisku 11","residential":false,"residents_est":0,"h3_10":"8a1e2e6a3a0ffff","h3_11":"8b1e2e6a3a09fff"},"geometry":{"type":"Polygon","coordinates":[[[20.01407,50.08641],[20.014327,50.086367],[20.014434,50.086633],[20.01449,50.086624],[20.014552,50.086778],[20.01424,50.086829],[20.01407,50.08641]]]}},{"type":"Feature","id":"w54541712","properties":{"type":"apartments","levels":5.0,"address":"Osiedle Józefa Strusia 2","residential":true,"residents_est":118,"h3_10":"8a1e2e6a3a07fff","h3_11":"8b1e2e6a3a01fff"},"geometry":{"type":"Polygon","coordinates":[[[20.011768,50.086825],[20.012827,50.086819],[20.012827,50.086802],[20.01325,50.0868],[20.013251,50.086896],[20.012829,50.086899],[20.012829,50.086917],[20.011769,50.086923],[20.011768,50.086825]]]}},{"type":"Feature","id":"w54541732","properties":{"type":"apartments","levels":5.0,"address":"Osiedle Na Lotnisku 17","residential":true,"residents_est":118,"h3_10":"8a1e2e6a3a67fff","h3_11":"8b1e2e6a3a62fff"},"geometry":{"type":"Polygon","coordinates":[[[20.015721,50.087376],[20.017116,50.087347],[20.017119,50.087451],[20.015726,50.087479],[20.015721,50.087376]]]}},{"type":"Feature","id":"w54541747","properties":{"type":"apartments","levels":5.0,"address":"Osiedle Na Lotnisku 16","residential":true,"residents_est":120,"h3_10":"8a1e2e6a3a67fff","h3_11":"8b1e2e6a3a60fff"},"geometry":{"type":"Polygon","coordinates":[[[20.015869,50.087743],[20.017268,50.087713],[20.017273,50.087818],[20.015875,50.087848],[20.015869,50.087743]]]}},{"type":"Feature","id":"w54541755","properties":{"type":"apartments","levels":5.0,"address":"Osiedle Na Lotnisku 6","residential":true,"residents_est":98,"h3_10":"8a1e2e6a3a5ffff","h3_11":"8b1e2e6a3a5cfff"},"geometry":{"type":"Polygon","coordinates":[[[20.016927,50.085953],[20.017026,50.085946],[20.017025,50.085934],[20.017133,50.085926],[20.017143,50.085981],[20.017127,50.085983],[20.017131,50.086002],[20.017146,50.086001],[20.01718,50.086209],[20.017166,50.08621],[20.017167,50.086219],[20.017169,50.08623],[20.017184,50.086229],[20.017219,50.08644],[20.017204,50.086441],[20.017207,50.086461],[20.017222,50.08646],[20.017231,50.086516],[20.017122,50.086523],[20.01712,50.086511],[20.01702,50.086517],[20.016994,50.08636],[20.01701,50.086359],[20.017006,50.086339],[20.016991,50.08634],[20.016956,50.086129],[20.016971,50.086129],[20.016969,50.086109],[20.016953,50.08611],[20.016927,50.085953]]]}},{"type":"Feature","id":"w54541766","properties":{"type":"apartments","levels":5.0,"address":"Osiedle Na Lotnisku 7","residential":true,"residents_est":97,"h3_10":"8a1e2e6a3a47fff","h3_11":"8b1e2e6a3a42fff"},"geometry":{"type":"Polygon","coordinates":[[[20.016391,50.086042],[20.016492,50.086035],[20.01649,50.086023],[20.016594,50.086016],[20.016684,50.086603],[20.016579,50.08661],[20.016577,50.086597],[20.016478,50.086604],[20.016391,50.086042]]]}},{"type":"Feature","id":"w54541778","properties":{"type":"apartments","levels":5.0,"address":"Osiedle Na Lotnisku 8","residential":true,"residents_est":97,"h3_10":"8a1e2e6a3a57fff","h3_11":"8b1e2e6a3a55fff"},"geometry":{"type":"Polygon","coordinates":[[[20.015844,50.086134],[20.015944,50.086128],[20.015942,50.086115],[20.016047,50.086109],[20.016139,50.086694],[20.016034,50.086701],[20.016032,50.086689],[20.015932,50.086695],[20.015844,50.086134]]]}},{"type":"Feature","id":"w54541801","properties":{"type":"apartments","levels":11.0,"address":"Osiedle Na Lotnisku 21","residential":true,"residents_est":161,"h3_10":"8a1e2e6a3a6ffff","h3_11":"8b1e2e6a3a6cfff"},"geometry":{"type":"Polygon","coordinates":[[[20.017542,50.087748],[20.018251,50.087625],[20.018296,50.087738],[20.018227,50.08775],[20.018235,50.08777],[20.018172,50.087781],[20.018163,50.087761],[20.017994,50.08779],[20.018001,50.087811],[20.01797,50.087817],[20.017935,50.087823],[20.017926,50.087802],[20.017755,50.087831],[20.017762,50.087853],[20.017699,50.087863],[20.017691,50.087842],[20.017588,50.08786],[20.017542,50.087748]]]}},{"type":"Feature","id":"w54541807","properties":{"type":"apartments","levels":11.0,"address":"Osiedle Na Lotnisku 20","residential":true,"residents_est":159,"h3_10":"8a1e2e6a3a6ffff","h3_11":"8b1e2e6a3a6afff"},"geometry":{"type":"Polygon","coordinates":[[[20.01735,50.087286],[20.018058,50.087162],[20.018104,50.087273],[20.018031,50.087285],[20.018039,50.087308],[20.017975,50.087319],[20.017964,50.087297],[20.0178,50.087325],[20.01781,50.087348],[20.01774,50.08736],[20.01773,50.087337],[20.017563,50.087367],[20.017571,50.087389],[20.017505,50.0874],[20.017495,50.087378],[20.017395,50.087395],[20.01735,50.087286]]]}},{"type":"Feature","id":"w54541811","properties":{"type":"apartments","levels":11.0,"address":"Osiedle Na Lotnisku 19","residential":true,"residents_est":159,"h3_10":"8a1e2e6a3a47fff","h3_11":"8b1e2e6a3a41fff"},"geometry":{"type":"Polygon","coordinates":[[[20.017157,50.086823],[20.017872,50.086698],[20.017921,50.086814],[20.017205,50.086938],[20.017157,50.086823]]]}},{"type":"Feature","id":"w54541818","properties":{"type":"apartments","levels":5.0,"address":"Osiedle Na Lotnisku 18","residential":true,"residents_est":120,"h3_10":"8a1e2e6a3a77fff","h3_11":"8b1e2e6a3a71fff"},"geometry":{"type":"Polygon","coordinates":[[[20.015576,50.087005],[20.016974,50.086976],[20.01698,50.087081],[20.015581,50.08711],[20.015576,50.087005]]]}},{"type":"Feature","id":"w54541921","properties":{"type":"retail","levels":1.0,"residential":false,"residents_est":0,"h3_10":"8a1e2e6a3b47fff","h3_11":"8b1e2e6a3b40fff"},"geometry":{"type":"Polygon","coordinates":[[[20.014112,50.089246],[20.0144,50.089127],[20.014421,50.089148],[20.014564,50.089089],[20.014586,50.089112],[20.014728,50.089053],[20.015176,50.0895],[20.014962,50.089589],[20.014949,50.089578],[20.014673,50.089691],[20.014685,50.089703],[20.014678,50.089706],[20.014554,50.089581],[20.014974,50.089407],[20.014928,50.089361],[20.014857,50.08939],[20.014633,50.089165],[20.014354,50.08928],[20.014419,50.089344],[20.014595,50.089271],[20.01469,50.089366],[20.014436,50.089472],[20.014322,50.089358],[20.014253,50.089387],[20.014112,50.089246]]]}},{"type":"Feature","id":"w54565097","properties":{"type":"residential","levels":5.0,"address":"Osiedle Dywizjonu 303 44","residential":true,"residents_est":96,"h3_10":"8a1e2e6a3a87fff","h3_11":"8b1e2e6a3a83fff"},"geometry":{"type":"Polygon","coordinates":[[[20.009084,50.083445],[20.009214,50.083417],[20.009241,50.083467],[20.009267,50.083462],[20.009282,50.083488],[20.009255,50.083494],[20.009312,50.083599],[20.009341,50.083592],[20.009354,50.083616],[20.009325,50.083623],[20.009352,50.083674],[20.009323,50.083681],[20.009353,50.083735],[20.009381,50.083729],[20.009395,50.083755],[20.009367,50.083761],[20.009421,50.08386],[20.009449,50.083854],[20.009464,50.083882],[20.009436,50.083888],[20.009463,50.083938],[20.00943,50.083947],[20.009458,50.083999],[20.009486,50.083993],[20.009501,50.084021],[20.009473,50.084027],[20.009527,50.084128],[20.009557,50.084121],[20.009571,50.084148],[20.009541,50.084154],[20.009567,50.084204],[20.009441,50.084232],[20.009302,50.083977],[20.00933,50.08397],[20.009193,50.083712],[20.009225,50.083704],[20.009084,50.083445]]]}},{"type":"Feature","id":"w54565124","properties":{"type":"residential","levels":11.0,"address":"Osiedle Dywizjonu 303 40","residential":true,"residents_est":85,"h3_10":"8a1e2e6a3a8ffff","h3_11":"8b1e2e6a3a8bfff"},"geometry":{"type":"Polygon","coordinates":[[[20.011404,50.083549],[20.011482,50.083532],[20.011489,50.083544],[20.011591,50.083522],[20.011612,50.083561],[20.011599,50.083564],[20.01163,50.083622],[20.011696,50.083608],[20.011723,50.083659],[20.011673,50.08367],[20.011683,50.083688],[20.011698,50.083685],[20.011726,50.083739],[20.011607,50.083765],[20.011615,50.083779],[20.011552,50.083793],[20.011466,50.083631],[20.01145,50.083635],[20.011404,50.083549]]]}},{"type":"Feature","id":"w54565128","properties":{"type":"residential","levels":11.0,"address":"Osiedle Dywizjonu 303 39","residential":true,"residents_est":85,"h3_10":"8a1e2e6a3a8ffff","h3_11":"8b1e2e6a3a89fff"},"geometry":{"type":"Polygon","coordinates":[[[20.011935,50.083946],[20.012013,50.083929],[20.01202,50.083942],[20.012122,50.083919],[20.012143,50.083959],[20.01213,50.083962],[20.012161,50.08402],[20.012227,50.084005],[20.012254,50.084056],[20.012204,50.084067],[20.012214,50.084085],[20.012229,50.084082],[20.012258,50.084136],[20.012138,50.084162],[20.012146,50.084176],[20.012083,50.08419],[20.011997,50.084029],[20.011981,50.084032],[20.011935,50.083946]]]}},{"type":"Feature","id":"w54565135","properties":{"type":"residential","levels":11.0,"address":"Osiedle Dywizjonu 303 37","residential":true,"residents_est":93,"h3_10":"8a1e2e6a3aaffff","h3_11":"8b1e2e6a3aabfff"},"geometry":{"type":"Polygon","coordinates":[[[20.010924,50.084348],[20.011191,50.084286],[20.011186,50.084276],[20.011313,50.084246],[20.011346,50.084301],[20.011325,50.084305],[20.011359,50.084376],[20.011295,50.08439],[20.011287,50.08438],[20.011243,50.08439],[20.011262,50.084422],[20.011146,50.084447],[20.011135,50.084426],[20.011094,50.084433],[20.011102,50.084447],[20.011013,50.084466],[20.010974,50.084387],[20.01095,50.084391],[20.010924,50.084348]]]}},{"type":"Feature","id":"w54565136","properties":{"type":"residential","levels":11.0,"address":"Osiedle Dywizjonu 303 36","residential":true,"residents_est":88,"h3_10":"8a1e2e6a3aaffff","h3_11":"8b1e2e6a3aaafff"},"geometry":{"type":"Polygon","coordinates":[[[20.010348,50.084616],[20.010599,50.08456],[20.010593,50.08455],[20.010727,50.08452],[20.010755,50.08457],[20.010735,50.084575],[20.01077,50.08464],[20.010709,50.084654],[20.010704,50.084645],[20.010653,50.084657],[20.010676,50.084699],[20.010557,50.084725],[20.01054,50.084693],[20.010512,50.0847],[20.010517,50.084709],[20.010433,50.084728],[20.010392,50.084651],[20.01037,50.084656],[20.010348,50.084616]]]}},{"type":"Feature","id":"w54565145","properties":{"type":"yes","address":"Osiedle Kościuszkowskie 5","residential":true,"residents_est":65,"h3_10":"8a1e2e6a3af7fff","h3_11":"8b1e2e6a3af1fff"},"geometry":{"type":"Polygon","coordinates":[[[20.013077,50.084493],[20.013723,50.084339],[20.013949,50.084766],[20.013311,50.084917],[20.01325,50.084809],[20.013722,50.084696],[20.013614,50.084491],[20.013138,50.084601],[20.013077,50.084493]]]}},{"type":"Feature","id":"w54565150","properties":{"type":"kindergarten","levels":2.0,"address":"Osiedle Kościuszkowskie 8","name":"Samorządowe Przedszkole Nr 143","residential":false,"residents_est":0,"h3_10":"8a1e2e6a3adffff","h3_11":"8b1e2e6a3adcfff"},"geometry":{"type":"Polygon","coordinates":[[[20.014203,50.083533],[20.01468,50.083425],[20.014738,50.083532],[20.014261,50.083638],[20.014203,50.083533]]]}},{"type":"Feature","id":"w54565153","properties":{"type":"apartments","levels":5.0,"address":"Osiedle Dywizjonu 303 42","residential":true,"residents_est":93,"h3_10":"8a1e2e6a3a9ffff","h3_11":"8b1e2e6a3a9dfff"},"geometry":{"type":"Polygon","coordinates":[[[20.009762,50.083449],[20.010355,50.083317],[20.010366,50.083337],[20.010971,50.083205],[20.011013,50.083285],[20.010933,50.083303],[20.010942,50.083321],[20.010905,50.083329],[20.010896,50.083311],[20.010734,50.083348],[20.010741,50.083364],[20.010706,50.083372],[20.010697,50.083356],[20.010538,50.083391],[20.010546,50.083408],[20.010508,50.083417],[20.010499,50.0834],[20.010417,50.083419],[20.010406,50.083399],[20.01032,50.083418],[20.01033,50.083438],[20.010292,50.083447],[20.01028,50.083427],[20.010122,50.083462],[20.010131,50.08348],[20.010092,50.083489],[20.010082,50.08347],[20.009926,50.083505],[20.009933,50.083522],[20.009896,50.08353],[20.009888,50.083513],[20.009807,50.083531],[20.009762,50.083449]]]}},{"type":"Feature","id":"w54565154","properties":{"type":"residential","levels":11.0,"address":"Osiedle Dywizjonu 303 43","residential":true,"residents_est":230,"h3_10":"8a1e2e6a3a8ffff","h3_11":"8b1e2e6a3a8efff"},"geometry":{"type":"Polygon","coordinates":[[[20.009894,50.083798],[20.010348,50.083695],[20.010356,50.08371],[20.010954,50.083577],[20.011006,50.083675],[20.010931,50.083692],[20.010948,50.083723],[20.010905,50.083734],[20.010887,50.083702],[20.010736,50.083736],[20.010752,50.083768],[20.010704,50.08378],[20.010687,50.083747],[20.010537,50.083781],[20.010554,50.083814],[20.010509,50.083825],[20.01049,50.083792],[20.010408,50.08381],[20.010401,50.083799],[20.010328,50.083815],[20.010344,50.083846],[20.010298,50.083857],[20.010282,50.083825],[20.010084,50.083869],[20.010096,50.083893],[20.009962,50.083922],[20.009894,50.083798]]]}},{"type":"Feature","id":"w54565157","properties":{"type":"apartments","levels":11.0,"address":"Osiedle Kościuszkowskie 10","residential":true,"residents_est":221,"h3_10":"8a1e2e6a3adffff","h3_11":"8b1e2e6a3adbfff"},"geometry":{"type":"Polygon","coordinates":[[[20.014305,50.082725],[20.015437,50.082482],[20.015484,50.082573],[20.015417,50.082588],[20.015427,50.08261],[20.015386,50.082619],[20.015389,50.082626],[20.015357,50.082633],[20.01534,50.0826],[20.015172,50.082636],[20.015186,50.082662],[20.015145,50.082671],[20.015149,50.082678],[20.015113,50.082686],[20.015095,50.082652],[20.014956,50.082682],[20.01497,50.082709],[20.014929,50.082718],[20.014933,50.082726],[20.014892,50.082734],[20.014874,50.0827],[20.014734,50.082729],[20.014748,50.082757],[20.014708,50.082766],[20.014711,50.082773],[20.014672,50.082781],[20.014654,50.082747],[20.014492,50.082782],[20.014505,50.082809],[20.014462,50.082819],[20.014466,50.082826],[20.014436,50.082833],[20.014421,50.082804],[20.014353,50.082818],[20.014305,50.082725]]]}},{"type":"Feature","id":"w54565160","properties":{"type":"apartments","levels":11.0,"address":"Osiedle Kościuszkowskie 9","residential":true,"residents_est":218,"h3_10":"8a1e2e6a3adffff","h3_11":"8b1e2e6a3ad9fff"},"geometry":{"type":"Polygon","coordinates":[[[20.014873,50.083178],[20.016001,50.082932],[20.01605,50.083023],[20.015979,50.08304],[20.015991,50.08306],[20.01595,50.083069],[20.015953,50.083077],[20.015923,50.083084],[20.015905,50.083048],[20.015737,50.083085],[20.015751,50.083112],[20.015711,50.083121],[20.015715,50.083129],[20.015677,50.083137],[20.01566,50.083102],[20.015523,50.083132],[20.015536,50.083159],[20.015495,50.083168],[20.015499,50.083176],[20.015461,50.083184],[20.015443,50.083149],[20.015305,50.083179],[20.015318,50.083206],[20.015276,50.083215],[20.015281,50.083223],[20.015246,50.083231],[20.015227,50.083196],[20.01506,50.083232],[20.015074,50.083259],[20.015033,50.083268],[20.015036,50.083276],[20.015008,50.083282],[20.014992,50.083253],[20.01492,50.083269],[20.014873,50.083178]]]}},{"type":"Feature","id":"w54565161","properties":{"type":"apartments","levels":11.0,"address":"Osiedle Kościuszkowskie 6","residential":true,"residents_est":592,"h3_10":"8a1e2e6a3ac7fff","h3_11":"8b1e2e6a3ac2fff"},"geometry":{"type":"Polygon","coordinates":[[[20.012914,50.084204],[20.016452,50.083416],[20.016497,50.083499],[20.012959,50.084288],[20.012914,50.084204]]]}},{"type":"Feature","id":"w54565168","properties":{"type":"residential","levels":5.0,"address":"Osiedle Dywizjonu 303 45","residential":true,"residents_est":78,"h3_10":"8a1e2e6a3a9ffff","h3_11":"8b1e2e6a3a98fff"},"geometry":{"type":"Polygon","coordinates":[[[20.009268,50.082993],[20.009666,50.082906],[20.009675,50.082923],[20.010272,50.082793],[20.010316,50.082874],[20.01024,50.082891],[20.010251,50.082912],[20.01023,50.082917],[20.010211,50.082921],[20.0102,50.0829],[20.01004,50.082935],[20.010052,50.082956],[20.010012,50.082964],[20.010001,50.082943],[20.009842,50.082978],[20.009853,50.082999],[20.009813,50.083008],[20.009802,50.082987],[20.009718,50.083005],[20.009708,50.082987],[20.009629,50.083004],[20.009641,50.083026],[20.009601,50.083035],[20.009589,50.083013],[20.009432,50.083047],[20.009444,50.083069],[20.009404,50.083078],[20.009393,50.083056],[20.009311,50.083074],[20.009268,50.082993]]]}},{"type":"Feature","id":"w54566456","properties":{"type":"retail","levels":1.0,"address":"Osiedle Józefa Strusia 12","residential":false,"residents_est":0,"h3_10":"8a1e2e6a3a37fff","h3_11":"8b1e2e6a3a33fff"},"geometry":{"type":"Polygon","coordinates":[[[20.010063,50.086808],[20.010641,50.086711],[20.010683,50.086816],[20.010105,50.086913],[20.010063,50.086808]]]}},{"type":"Feature","id":"w54566457","properties":{"type":"commercial","levels":1.0,"address":"Osiedle Józefa Strusia 13","residential":false,"residents_est":0,"h3_10":"8a1e2e6a3baffff","h3_11":"8b1e2e6a3baafff"},"geometry":{"type":"Polygon","coordinates":[[[20.007836,50.087162],[20.008665,50.087027],[20.00871,50.087142],[20.007881,50.087276],[20.007836,50.087162]]]}},{"type":"Feature","id":"w54566458","properties":{"type":"yes","residential":true,"residents_est":17,"h3_10":"8a1e2e6a3b97fff","h3_11":"8b1e2e6a3b93fff"},"geometry":{"type":"Polygon","coordinates":[[[20.005768,50.085589],[20.006225,50.085577],[20.006232,50.0857],[20.006178,50.085701],[20.006177,50.085683],[20.00613,50.085684],[20.006131,50.085702],[20.006027,50.085704],[20.006026,50.085686],[20.005929,50.085688],[20.00593,50.085706],[20.005775,50.08571],[20.005768,50.085589]]]}},{"type":"Feature","id":"w54566461","properties":{"type":"residential","levels":11.0,"address":"Osiedle Dywizjonu 303 26","residential":true,"residents_est":93,"h3_10":"8a1e2e6a3b9ffff","h3_11":"8b1e2e6a3b9bfff"},"geometry":{"type":"Polygon","coordinates":[[[20.007429,50.085397],[20.007686,50.085337],[20.00768,50.085327],[20.007806,50.085298],[20.007836,50.08535],[20.007819,50.085354],[20.007856,50.085422],[20.00779,50.085437],[20.007784,50.085428],[20.007735,50.085439],[20.007759,50.085484],[20.00764,50.085511],[20.007621,50.085477],[20.007594,50.085483],[20.007601,50.085496],[20.007517,50.085515],[20.007472,50.085435],[20.007453,50.085439],[20.007429,50.085397]]]}},{"type":"Feature","id":"w54566463","properties":{"type":"residential","levels":11.0,"address":"Osiedle Dywizjonu 303 23","residential":true,"residents_est":92,"h3_10":"8a1e2e6a3b9ffff","h3_11":"8b1e2e6a3b98fff"},"geometry":{"type":"Polygon","coordinates":[[[20.006769,50.085814],[20.007025,50.085756],[20.00702,50.085746],[20.007147,50.085718],[20.007176,50.085772],[20.00716,50.085776],[20.007197,50.085844],[20.007127,50.085859],[20.007121,50.085847],[20.007074,50.085858],[20.007099,50.085902],[20.006982,50.085929],[20.006962,50.085893],[20.006933,50.0859],[20.006941,50.085914],[20.006861,50.085932],[20.006817,50.085853],[20.006794,50.085858],[20.006769,50.085814]]]}},{"type":"Feature","id":"w54566473","properties":{"type":"school","levels":1.0,"address":"Osiedle Dywizjonu 303 35a","residential":false,"residents_est":0,"h3_10":"8a1e2e6a3aaffff","h3_11":"8b1e2e6a3aa8fff"},"geometry":{"type":"Polygon","coordinates":[[[20.010666,50.084934],[20.011269,50.084799],[20.011315,50.084887],[20.010853,50.084993],[20.010982,50.085227],[20.011234,50.08517],[20.01128,50.085253],[20.010895,50.085337],[20.010897,50.085341],[20.01089,50.085343],[20.010666,50.084934]]]}},{"type":"Feature","id":"w54566476","properties":{"type":"retail","levels":1.0,"address":"Osiedle Józefa Strusia 1","residential":false,"residents_est":0,"h3_10":"8a1e2e6a3a07fff","h3_11":"8b1e2e6a3a03fff"},"geometry":{"type":"Polygon","coordinates":[[[20.011999,50.086481],[20.012573,50.086385],[20.012617,50.086493],[20.012043,50.086589],[20.011999,50.086481]]]}},{"type":"Feature","id":"w54566487","properties":{"type":"residential","levels":11.0,"address":"Osiedle Dywizjonu 303 30","residential":true,"residents_est":92,"h3_10":"8a1e2e6a3aaffff","h3_11":"8b1e2e6a3aaefff"},"geometry":{"type":"Polygon","coordinates":[[[20.009625,50.08505],[20.009875,50.084992],[20.009868,50.08498],[20.010002,50.084949],[20.010031,50.085003],[20.010013,50.085008],[20.010049,50.085075],[20.009983,50.085091],[20.009975,50.08508],[20.009928,50.085092],[20.009952,50.085136],[20.009836,50.085164],[20.009815,50.08513],[20.009788,50.085136],[20.009793,50.085147],[20.009711,50.085166],[20.009667,50.08509],[20.009648,50.085094],[20.009625,50.08505]]]}},{"type":"Feature","id":"w54566488","properties":{"type":"residential","levels":11.0,"address":"Osiedle Dywizjonu 303 28","residential":true,"residents_est":88,"h3_10":"8a1e2e6a3aa7fff","h3_11":"8b1e2e6a3aa0fff"},"geometry":{"type":"Polygon","coordinates":[[[20.008945,50.085248],[20.009197,50.08519],[20.009191,50.085181],[20.009319,50.085152],[20.009347,50.085205],[20.009327,50.085209],[20.00936,50.085274],[20.009297,50.085288],[20.00929,50.085279],[20.009239,50.08529],[20.00926,50.085335],[20.009149,50.085359],[20.00913,50.085328],[20.009103,50.085334],[20.009108,50.085344],[20.009025,50.085363],[20.008982,50.085287],[20.008965,50.08529],[20.008945,50.085248]]]}},{"type":"Feature","id":"w54566489","properties":{"type":"residential","levels":11.0,"address":"Osiedle Dywizjonu 303 27","residential":true,"residents_est":88,"h3_10":"8a1e2e6a3aa7fff","h3_11":"8b1e2e6a3aa6fff"},"geometry":{"type":"Polygon","coordinates":[[[20.008186,50.08531],[20.008435,50.085254],[20.00843,50.085245],[20.008558,50.085216],[20.008588,50.085267],[20.008572,50.085272],[20.008607,50.085335],[20.00854,50.08535],[20.008533,50.085341],[20.008488,50.085351],[20.008509,50.085393],[20.008394,50.08542],[20.008376,50.08539],[20.008347,50.085397],[20.008352,50.085408],[20.008272,50.085427],[20.008227,50.085349],[20.00821,50.085353],[20.008186,50.08531]]]}},{"type":"Feature","id":"w65709541","properties":{"type":"kindergarten","levels":2.0,"address":"Osiedle Na Lotnisku 15","residential":false,"residents_est":0,"h3_10":"8a1e2e6a3b5ffff","h3_11":"8b1e2e6a3b59fff"},"geometry":{"type":"Polygon","coordinates":[[[20.015027,50.088158],[20.015259,50.08812],[20.015237,50.088065],[20.015459,50.088029],[20.015502,50.088137],[20.015288,50.088172],[20.015308,50.088222],[20.015068,50.088262],[20.015027,50.088158]]]}},{"type":"Feature","id":"w65713068","properties":{"type":"kindergarten","levels":2.0,"address":"Osiedle Józefa Strusia 8","residential":false,"residents_est":0,"h3_10":"8a1e2e6a3a27fff","h3_11":"8b1e2e6a3a24fff"},"geometry":{"type":"Polygon","coordinates":[[[20.011209,50.088353],[20.011284,50.088254],[20.011498,50.088323],[20.011538,50.088279],[20.011742,50.088346],[20.011664,50.088441],[20.011466,50.088378],[20.011428,50.088425],[20.011209,50.088353]]]}},{"type":"Feature","id":"w82988960","properties":{"type":"garages","residential":false,"residents_est":0,"h3_10":"8a1e2e6a3b67fff","h3_11":"8b1e2e6a3b62fff"},"geometry":{"type":"Polygon","coordinates":[[[20.013823,50.090135],[20.013837,50.090134],[20.013831,50.090094],[20.013844,50.090095],[20.013853,50.090055],[20.013866,50.090057],[20.013892,50.090022],[20.013902,50.090026],[20.013942,50.089995],[20.01395,50.09],[20.014001,50.089979],[20.014006,50.089985],[20.014071,50.089971],[20.014073,50.089979],[20.014128,50.089976],[20.014128,50.089984],[20.014189,50.089988],[20.014184,50.089995],[20.014238,50.090014],[20.014231,50.090019],[20.014281,50.090044],[20.014271,50.090049],[20.014301,50.090085],[20.014207,50.090105],[20.014164,50.090063],[20.014133,50.090049],[20.014072,50.090041],[20.014033,50.090042],[20.014004,50.09005],[20.013955,50.09008],[20.013931,50.090125],[20.013934,50.090151],[20.013969,50.090192],[20.014028,50.090218],[20.014071,50.090222],[20.014146,50.09021],[20.014172,50.090196],[20.014208,50.09016],[20.014301,50.090162],[20.014292,50.090203],[20.014281,50.090201],[20.014256,50.090239],[20.014245,50.090235],[20.014207,50.090265],[20.014198,50.090259],[20.014146,50.090281],[20.01414,50.090273],[20.014084,50.090289],[20.014082,50.090282],[20.01402,50.090285],[20.014022,50.090277],[20.013962,50.09027],[20.013966,50.090263],[20.013907,50.090247],[20.013913,50.090239],[20.013861,50.090214],[20.013873,50.090208],[20.013837,50.090177],[20.013851,50.090173],[20.013823,50.090135]]]}},{"type":"Feature","id":"w82988961","properties":{"type":"apartments","levels":5.0,"address":"Osiedle Józefa Strusia 11","residential":true,"residents_est":118,"h3_10":"8a1e2e6a3a37fff","h3_11":"8b1e2e6a3a31fff"},"geometry":{"type":"Polygon","coordinates":[[[20.009762,50.087153],[20.010821,50.087148],[20.010821,50.08713],[20.011244,50.087128],[20.011245,50.087225],[20.010822,50.087227],[20.010823,50.087245],[20.009763,50.087251],[20.009762,50.087153]]]}},{"type":"Feature","id":"w82988965","properties":{"type":"apartments","levels":5.0,"address":"Osiedle Józefa Strusia 10","residential":true,"residents_est":118,"h3_10":"8a1e2e6a3a37fff","h3_11":"8b1e2e6a3a35fff"},"geometry":{"type":"Polygon","coordinates":[[[20.009902,50.087506],[20.010961,50.0875],[20.010961,50.087483],[20.011384,50.08748],[20.011385,50.087577],[20.010962,50.087579],[20.010962,50.087598],[20.009903,50.087604],[20.009902,50.087506]]]}},{"type":"Feature","id":"w83005411","properties":{"type":"garage","residential":false,"residents_est":0,"h3_10":"8a1e2e6a3b8ffff","h3_11":"8b1e2e6a3b8efff"},"geometry":{"type":"Polygon","coordinates":[[[20.007645,50.086493],[20.008142,50.086411],[20.008166,50.086472],[20.007669,50.086553],[20.007645,50.086493]]]}},{"type":"Feature","id":"w83005413","properties":{"type":"yes","residential":true,"residents_est":3,"h3_10":"8a1e2e6a3a1ffff","h3_11":"8b1e2e6a3a19fff"},"geometry":{"type":"Polygon","coordinates":[[[20.012792,50.085555],[20.013002,50.085523],[20.013037,50.085615],[20.012828,50.085648],[20.012792,50.085555]]]}},{"type":"Feature","id":"w83005417","properties":{"type":"retail","residential":false,"residents_est":0,"h3_10":"8a1e2e6a3a1ffff","h3_11":"8b1e2e6a3a1efff"},"geometry":{"type":"Polygon","coordinates":[[[20.01127,50.085916],[20.01206,50.085787],[20.01209,50.085863],[20.0113,50.085992],[20.01127,50.085916]]]}},{"type":"Feature","id":"w83005418","properties":{"type":"garage","residential":false,"residents_est":0,"h3_10":"8a1e2e6a3a17fff","h3_11":"8b1e2e6a3a16fff"},"geometry":{"type":"Polygon","coordinates":[[[20.009441,50.086166],[20.009811,50.086106],[20.009837,50.08617],[20.009467,50.086231],[20.009441,50.086166]]]}},{"type":"Feature","id":"w83005419","properties":{"type":"garage","residential":false,"residents_est":0,"h3_10":"8a1e2e6a3a1ffff","h3_11":"8b1e2e6a3a1efff"},"geometry":{"type":"Polygon","coordinates":[[[20.011039,50.085884],[20.012341,50.085671],[20.012367,50.085737],[20.011065,50.08595],[20.011039,50.085884]]]}},{"type":"Feature","id":"w83005420","properties":{"type":"garage","residential":false,"residents_est":0,"h3_10":"8a1e2e6a3a17fff","h3_11":"8b1e2e6a3a12fff"},"geometry":{"type":"Polygon","coordinates":[[[20.009689,50.085954],[20.010661,50.085791],[20.010686,50.085854],[20.009715,50.086016],[20.009689,50.085954]]]}},{"type":"Feature","id":"w83005422","properties":{"type":"yes","residential":true,"residents_est":3,"h3_10":"8a1e2e6a3a1ffff","h3_11":"8b1e2e6a3a18fff"},"geometry":{"type":"Polygon","coordinates":[[[20.012475,50.085581],[20.012646,50.085554],[20.012689,50.085666],[20.012518,50.085693],[20.012475,50.085581]]]}},{"type":"Feature","id":"w83005423","properties":{"type":"garage","residential":false,"residents_est":0,"h3_10":"8a1e2e6a3b87fff","h3_11":"8b1e2e6a3b83fff"},"geometry":{"type":"Polygon","coordinates":[[[20.007135,50.086419],[20.007664,50.086322],[20.007692,50.086387],[20.007164,50.086483],[20.007135,50.086419]]]}},{"type":"Feature","id":"w83005424","properties":{"type":"garage","residential":false,"residents_est":0,"h3_10":"8a1e2e6a3b87fff","h3_11":"8b1e2e6a3b86fff"},"geometry":{"type":"Polygon","coordinates":[[[20.006374,50.086719],[20.006827,50.086645],[20.006852,50.086707],[20.006399,50.086781],[20.006374,50.086719]]]}},{"type":"Feature","id":"w83005436","properties":{"type":"garage","residential":false,"residents_est":0,"h3_10":"8a1e2e6a3b8ffff","h3_11":"8b1e2e6a3b8bfff"},"geometry":{"type":"Polygon","coordinates":[[[20.009108,50.086051],[20.009689,50.085954],[20.009715,50.086016],[20.009133,50.086113],[20.009108,50.086051]]]}},{"type":"Feature","id":"w83005438","properties":{"type":"yes","residential":true,"residents_est":3,"h3_10":"8a1e2e6a3ae7fff","h3_11":"8b1e2e6a3ae0fff"},"geometry":{"type":"Polygon","coordinates":[[[20.014027,50.085538],[20.014398,50.085476],[20.014417,50.085522],[20.014045,50.085583],[20.014027,50.085538]]]}},{"type":"Feature","id":"w83005439","properties":{"type":"garage","residential":false,"residents_est":0,"h3_10":"8a1e2e6a3b8ffff","h3_11":"8b1e2e6a3b8efff"},"geometry":{"type":"Polygon","coordinates":[[[20.007873,50.086277],[20.008565,50.086142],[20.008594,50.086205],[20.007903,50.086339],[20.007873,50.086277]]]}},{"type":"Feature","id":"w83005443","properties":{"type":"garage","residential":false,"residents_est":0,"h3_10":"8a1e2e6a3b8ffff","h3_11":"8b1e2e6a3b88fff"},"geometry":{"type":"Polygon","coordinates":[[[20.008136,50.086394],[20.008626,50.086314],[20.00865,50.086374],[20.00816,50.086455],[20.008136,50.086394]]]}},{"type":"Feature","id":"w83005444","properties":{"type":"office","levels":2.0,"address":"Osiedle Kościuszkowskie 4","residential":false,"residents_est":0,"h3_10":"8a1e2e6a3ae7fff","h3_11":"8b1e2e6a3ae4fff"},"geometry":{"type":"Polygon","coordinates":[[[20.013538,50.08561],[20.013808,50.085565],[20.013829,50.085617],[20.013559,50.085663],[20.013538,50.08561]]]}},{"type":"Feature","id":"w83005446","properties":{"type":"garage","residential":false,"residents_est":0,"h3_10":"8a1e2e6a3a17fff","h3_11":"8b1e2e6a3a10fff"},"geometry":{"type":"Polygon","coordinates":[[[20.009805,50.086091],[20.01096,50.085902],[20.010983,50.085959],[20.009828,50.086148],[20.009805,50.086091]]]}},{"type":"Feature","id":"w83005451","properties":{"type":"garage","residential":false,"residents_est":0,"h3_10":"8a1e2e6a3b87fff","h3_11":"8b1e2e6a3b80fff"},"geometry":{"type":"Polygon","coordinates":[[[20.006827,50.086645],[20.007237,50.086578],[20.007261,50.086639],[20.006852,50.086707],[20.006827,50.086645]]]}},{"type":"Feature","id":"w83005453","properties":{"type":"garage","residential":false,"residents_est":0,"h3_10":"8a1e2e6a3b87fff","h3_11":"8b1e2e6a3b83fff"},"geometry":{"type":"Polygon","coordinates":[[[20.007237,50.086578],[20.007652,50.08651],[20.007676,50.086572],[20.007261,50.086639],[20.007237,50.086578]]]}},{"type":"Feature","id":"w83005457","properties":{"type":"garage","residential":false,"residents_est":0,"h3_10":"8a1e2e6a3a1ffff","h3_11":"8b1e2e6a3a1efff"},"geometry":{"type":"Polygon","coordinates":[[[20.010945,50.085734],[20.011739,50.085604],[20.011765,50.085669],[20.010971,50.085799],[20.010945,50.085734]]]}},{"type":"Feature","id":"w83005459","properties":{"type":"garage","residential":false,"residents_est":0,"h3_10":"8a1e2e6a3b8ffff","h3_11":"8b1e2e6a3b8bfff"},"geometry":{"type":"Polygon","coordinates":[[[20.009072,50.086226],[20.009441,50.086166],[20.009467,50.086231],[20.009098,50.086291],[20.009072,50.086226]]]}},{"type":"Feature","id":"w83005464","properties":{"type":"yes","residential":true,"residents_est":19,"h3_10":"8a1e2e6a3ae7fff","h3_11":"8b1e2e6a3ae0fff"},"geometry":{"type":"Polygon","coordinates":[[[20.013535,50.085473],[20.014358,50.085335],[20.014386,50.085403],[20.013562,50.085541],[20.013535,50.085473]]]}},{"type":"Feature","id":"w83005467","properties":{"type":"garage","residential":false,"residents_est":0,"h3_10":"8a1e2e6a3b8ffff","h3_11":"8b1e2e6a3b8bfff"},"geometry":{"type":"Polygon","coordinates":[[[20.008628,50.08613],[20.008788,50.086099],[20.008818,50.086163],[20.008658,50.086194],[20.008628,50.08613]]]}},{"type":"Feature","id":"w83005469","properties":{"type":"garage","residential":false,"residents_est":0,"h3_10":"8a1e2e6a3b87fff","h3_11":"8b1e2e6a3b82fff"},"geometry":{"type":"Polygon","coordinates":[[[20.006458,50.086547],[20.007107,50.086429],[20.007135,50.086491],[20.006486,50.08661],[20.006458,50.086547]]]}},{"type":"Feature","id":"w83005470","properties":{"type":"garage","residential":false,"residents_est":0,"h3_10":"8a1e2e6a3b8ffff","h3_11":"8b1e2e6a3b88fff"},"geometry":{"type":"Polygon","coordinates":[[[20.008702,50.086287],[20.009072,50.086226],[20.009098,50.086291],[20.008728,50.086352],[20.008702,50.086287]]]}},{"type":"Feature","id":"w83008334","properties":{"type":"garages","address":"Osiedle Józefa Strusia 9a","residential":false,"residents_est":0,"h3_10":"8a1e2e6a3b1ffff","h3_11":"8b1e2e6a3b1bfff"},"geometry":{"type":"Polygon","coordinates":[[[20.009863,50.087687],[20.009958,50.087671],[20.010036,50.087865],[20.010037,50.08791],[20.009953,50.087908],[20.009863,50.087687]]]}},{"type":"Feature","id":"w83008338","properties":{"type":"industrial","residential":false,"residents_est":0,"h3_10":"8a1e2e6a3b1ffff","h3_11":"8b1e2e6a3b1dfff"},"geometry":{"type":"Polygon","coordinates":[[[20.010099,50.088576],[20.010137,50.088524],[20.010271,50.088565],[20.010233,50.088617],[20.010099,50.088576]]]}},{"type":"Feature","id":"w83008339","properties":{"type":"retail","levels":1.0,"address":"Osiedle Na Lotnisku 5","name":"Słoneczna","residential":false,"residents_est":0,"h3_10":"8a1e2e6a3a5ffff","h3_11":"8b1e2e6a3a5dfff"},"geometry":{"type":"Polygon","coordinates":[[[20.017443,50.085955],[20.017559,50.085936],[20.01761,50.086068],[20.017495,50.086087],[20.017443,50.085955]]]}},{"type":"Feature","id":"w83008340","properties":{"type":"retail","levels":3.0,"address":"Osiedle Na Lotnisku 10a","residential":false,"residents_est":0,"h3_10":"8a1e2e6a3a57fff","h3_11":"8b1e2e6a3a56fff"},"geometry":{"type":"Polygon","coordinates":[[[20.014618,50.086055],[20.014929,50.086003],[20.014974,50.086115],[20.014663,50.086166],[20.014618,50.086055]]]}},{"type":"Feature","id":"w83008344","properties":{"type":"yes","residential":false,"residents_est":0,"h3_10":"8a1e2e6a3b1ffff","h3_11":"8b1e2e6a3b1afff"},"geometry":{"type":"Polygon","coordinates":[[[20.009419,50.087646],[20.009474,50.087641],[20.009479,50.087681],[20.009422,50.08768],[20.009419,50.087646]]]}},{"type":"Feature","id":"w83008347","properties":{"type":"retail","levels":1.0,"residential":false,"residents_est":0,"h3_10":"8a1e2e6a3a0ffff","h3_11":"8b1e2e6a3a08fff"},"geometry":{"type":"Polygon","coordinates":[[[20.01332,50.086301],[20.013433,50.086281],[20.013465,50.086357],[20.013352,50.086376],[20.01332,50.086301]]]}},{"type":"Feature","id":"w83008348","properties":{"type":"garages","address":"Osiedle Józefa Strusia 4a","residential":false,"residents_est":0,"h3_10":"8a1e2e6a3a27fff","h3_11":"8b1e2e6a3a23fff"},"geometry":{"type":"Polygon","coordinates":[[[20.011872,50.087358],[20.011972,50.087341],[20.012051,50.087538],[20.012051,50.087578],[20.011959,50.087575],[20.011872,50.087358]]]}},{"type":"Feature","id":"w83008349","properties":{"type":"yes","address":"Osiedle Józefa Strusia 11B","residential":true,"residents_est":11,"h3_10":"8a1e2e6a3a37fff","h3_11":"8b1e2e6a3a31fff"},"geometry":{"type":"Polygon","coordinates":[[[20.010661,50.086967],[20.011108,50.086893],[20.011136,50.086964],[20.010689,50.087037],[20.010661,50.086967]]]}},{"type":"Feature","id":"w83008354","properties":{"type":"garages","address":"Osiedle Józefa Strusia 3a","residential":false,"residents_est":0,"h3_10":"8a1e2e6a3a07fff","h3_11":"8b1e2e6a3a04fff"},"geometry":{"type":"Polygon","coordinates":[[[20.011734,50.087012],[20.011829,50.086996],[20.011906,50.087184],[20.011906,50.08723],[20.011822,50.087228],[20.011734,50.087012]]]}},{"type":"Feature","id":"w83008357","properties":{"type":"garages","address":"Osiedle Józefa Strusia 10a","residential":false,"residents_est":0,"h3_10":"8a1e2e6a3a37fff","h3_11":"8b1e2e6a3a34fff"},"geometry":{"type":"Polygon","coordinates":[[[20.00974,50.087336],[20.009832,50.087323],[20.009902,50.087525],[20.009902,50.087558],[20.009816,50.087555],[20.00974,50.087336]]]}},{"type":"Feature","id":"w83008360","properties":{"type":"garages","residential":false,"residents_est":0,"h3_10":"8a1e2e6a3a0ffff","h3_11":"8b1e2e6a3a0efff"},"geometry":{"type":"Polygon","coordinates":[[[20.012684,50.086645],[20.013093,50.086579],[20.013114,50.086634],[20.012706,50.086699],[20.012684,50.086645]]]}},{"type":"Feature","id":"w83008362","properties":{"type":"retail","levels":1.0,"address":"Osiedle Na Lotnisku 10","residential":false,"residents_est":0,"h3_10":"8a1e2e6a3a0ffff","h3_11":"8b1e2e6a3a0bfff"},"geometry":{"type":"Polygon","coordinates":[[[20.014244,50.086108],[20.014535,50.08606],[20.014583,50.086179],[20.014292,50.086227],[20.014244,50.086108]]]}},{"type":"Feature","id":"w83008363","properties":{"type":"retail","residential":false,"residents_est":0,"h3_10":"8a1e2e6a3a07fff","h3_11":"8b1e2e6a3a04fff"},"geometry":{"type":"Polygon","coordinates":[[[20.011367,50.087004],[20.011429,50.086993],[20.011446,50.087033],[20.011384,50.087044],[20.011367,50.087004]]]}},{"type":"Feature","id":"w83008372","properties":{"type":"yes","levels":3.0,"residential":true,"residents_est":9,"h3_10":"8a1e2e6a3a07fff","h3_11":"8b1e2e6a3a02fff"},"geometry":{"type":"Polygon","coordinates":[[[20.01157,50.086578],[20.011604,50.086539],[20.011634,50.08655],[20.011646,50.086548],[20.011659,50.086533],[20.011683,50.086542],[20.011783,50.086525],[20.011796,50.08651],[20.011819,50.086519],[20.011834,50.086516],[20.011848,50.0865],[20.011907,50.086521],[20.011943,50.086608],[20.011606,50.086665],[20.01157,50.086578]]]}},{"type":"Feature","id":"w83008376","properties":{"type":"retail","address":"Osiedle Dywizjonu 303 21A","residential":false,"residents_est":0,"h3_10":"8a1e2e6a3bb7fff","h3_11":"8b1e2e6a3bb6fff"},"geometry":{"type":"Polygon","coordinates":[[[20.004314,50.087258],[20.004339,50.087142],[20.004412,50.087148],[20.004432,50.087144],[20.004428,50.087134],[20.00468,50.087086],[20.004732,50.087198],[20.004386,50.087265],[20.004314,50.087258]]]}},{"type":"Feature","id":"w83008379","properties":{"type":"commercial","address":"Osiedle Dywizjonu 303 21B","name":"KFC","residential":false,"residents_est":0,"h3_10":"8a1e2e6a3bb7fff","h3_11":"8b1e2e6a3bb0fff"},"geometry":{"type":"Polygon","coordinates":[[[20.005003,50.087049],[20.00517,50.087017],[20.005254,50.087202],[20.005087,50.087233],[20.005055,50.087163],[20.005042,50.087165],[20.005024,50.087125],[20.005036,50.087122],[20.005003,50.087049]]]}},{"type":"Feature","id":"w83058798","properties":{"type":"service","residential":false,"residents_est":0,"h3_10":"8a1e2e6a3b17fff","h3_11":"8b1e2e6a3b13fff"},"geometry":{"type":"Polygon","coordinates":[[[20.008097,50.088379],[20.008167,50.088378],[20.008167,50.088422],[20.008097,50.088423],[20.008097,50.088379]]]}},{"type":"Feature","id":"w83058809","properties":{"type":"garages","address":"Osiedle Józefa Strusia 15a","residential":false,"residents_est":0,"h3_10":"8a1e2e6a3baffff","h3_11":"8b1e2e6a3bacfff"},"geometry":{"type":"Polygon","coordinates":[[[20.007714,50.087684],[20.007813,50.087669],[20.007887,50.087849],[20.00789,50.087902],[20.007803,50.087905],[20.007714,50.087684]]]}},{"type":"Feature","id":"w83058821","properties":{"type":"garages","address":"Osiedle Józefa Strusia 16a","residential":false,"residents_est":0,"h3_10":"8a1e2e6a3b17fff","h3_11":"8b1e2e6a3b12fff"},"geometry":{"type":"Polygon","coordinates":[[[20.00785,50.088021],[20.007949,50.088005],[20.00803,50.088204],[20.008031,50.088242],[20.007939,50.088243],[20.00785,50.088021]]]}},{"type":"Feature","id":"w83075378","properties":{"type":"retail","levels":1.0,"residential":false,"residents_est":0,"h3_10":"8a1e2e6a3a57fff","h3_11":"8b1e2e6a3a56fff"},"geometry":{"type":"Polygon","coordinates":[[[20.014782,50.086284],[20.014908,50.086264],[20.014926,50.08631],[20.0148,50.086331],[20.014782,50.086284]]]}},{"type":"Feature","id":"w83075382","properties":{"type":"retail","address":"Osiedle Na Lotnisku 12a","residential":false,"residents_est":0,"h3_10":"8a1e2e6a3a77fff","h3_11":"8b1e2e6a3a76fff"},"geometry":{"type":"Polygon","coordinates":[[[20.014327,50.087181],[20.014442,50.087163],[20.01448,50.087259],[20.014365,50.087278],[20.014327,50.087181]]]}},{"type":"Feature","id":"w83334033","properties":{"type":"yes","residential":true,"residents_est":0,"h3_10":"8a1e2e6a3b8ffff","h3_11":"8b1e2e6a3b88fff"},"geometry":{"type":"Polygon","coordinates":[[[20.008988,50.086309],[20.009065,50.086297],[20.009092,50.086363],[20.009015,50.086376],[20.008988,50.086309]]]}},{"type":"Feature","id":"w83334038","properties":{"type":"yes","residential":true,"residents_est":5,"h3_10":"8a1e2e6a3af7fff","h3_11":"8b1e2e6a3af1fff"},"geometry":{"type":"Polygon","coordinates":[[[20.013159,50.084651],[20.013411,50.084595],[20.013466,50.084704],[20.013221,50.084758],[20.013159,50.084651]]]}},{"type":"Feature","id":"w83334070","properties":{"type":"yes","address":"Osiedle Dywizjonu 303 67","residential":true,"residents_est":20,"h3_10":"8a1e2e6a3a9ffff","h3_11":"8b1e2e6a3a9efff"},"geometry":{"type":"Polygon","coordinates":[[[20.008431,50.08318],[20.008835,50.083087],[20.008858,50.083092],[20.008902,50.083171],[20.008706,50.083217],[20.00874,50.083277],[20.008618,50.083305],[20.008635,50.083337],[20.008534,50.083361],[20.008431,50.08318]]]}},{"type":"Feature","id":"w83334071","properties":{"type":"yes","residential":false,"residents_est":0,"h3_10":"8a1e2e6a3b97fff","h3_11":"8b1e2e6a3b92fff"},"geometry":{"type":"Polygon","coordinates":[[[20.005236,50.085743],[20.005343,50.085741],[20.005344,50.08578],[20.005238,50.085782],[20.005236,50.085743]]]}},{"type":"Feature","id":"w83334077","properties":{"type":"retail","residential":false,"residents_est":0,"h3_10":"8a1e2e6a3a87fff","h3_11":"8b1e2e6a3a85fff"},"geometry":{"type":"Polygon","coordinates":[[[20.009512,50.084615],[20.009671,50.084579],[20.009784,50.084787],[20.009713,50.084803],[20.009716,50.084809],[20.009678,50.084817],[20.009674,50.08481],[20.009628,50.084821],[20.009512,50.084615]]]}},{"type":"Feature","id":"w83334103","properties":{"type":"yes","address":"Osiedle Dywizjonu 303 34","residential":true,"residents_est":11,"h3_10":"8a1e2e6a3af7fff","h3_11":"8b1e2e6a3af4fff"},"geometry":{"type":"Polygon","coordinates":[[[20.012113,50.084704],[20.012251,50.084673],[20.012367,50.084889],[20.012229,50.08492],[20.012113,50.084704]]]}},{"type":"Feature","id":"w83334135","properties":{"type":"yes","address":"Osiedle Dywizjonu 303 22","residential":true,"residents_est":5,"h3_10":"8a1e2e6a3b97fff","h3_11":"8b1e2e6a3b91fff"},"geometry":{"type":"Polygon","coordinates":[[[20.006198,50.085948],[20.006213,50.085857],[20.006563,50.085881],[20.006549,50.085971],[20.006461,50.085966],[20.006463,50.085953],[20.006294,50.085942],[20.006292,50.085954],[20.006198,50.085948]]]}},{"type":"Feature","id":"w83334148","properties":{"type":"retail","residential":false,"residents_est":0,"h3_10":"8a1e2e6a3b8ffff","h3_11":"8b1e2e6a3b89fff"},"geometry":{"type":"Polygon","coordinates":[[[20.00909,50.086292],[20.00924,50.086268],[20.009262,50.086323],[20.009112,50.086348],[20.00909,50.086292]]]}},{"type":"Feature","id":"w83334159","properties":{"type":"yes","residential":true,"residents_est":1,"h3_10":"8a1e2e6a3b97fff","h3_11":"8b1e2e6a3b92fff"},"geometry":{"type":"Polygon","coordinates":[[[20.004805,50.085639],[20.004894,50.085637],[20.004897,50.085724],[20.004809,50.085726],[20.004805,50.085639]]]}},{"type":"Feature","id":"w83334169","properties":{"type":"yes","residential":true,"residents_est":3,"h3_10":"8a1e2e6a3b8ffff","h3_11":"8b1e2e6a3b89fff"},"geometry":{"type":"Polygon","coordinates":[[[20.009272,50.086263],[20.009565,50.086215],[20.009588,50.086274],[20.009296,50.086322],[20.009272,50.086263]]]}},{"type":"Feature","id":"w83334176","properties":{"type":"yes","residential":true,"residents_est":2,"h3_10":"8a1e2e6a3b97fff","h3_11":"8b1e2e6a3b92fff"},"geometry":{"type":"Polygon","coordinates":[[[20.005078,50.085483],[20.00519,50.085481],[20.005194,50.085563],[20.005082,50.085565],[20.005078,50.085483]]]}},{"type":"Feature","id":"w83334191","properties":{"type":"yes","residential":true,"residents_est":1,"h3_10":"8a1e2e6a3a17fff","h3_11":"8b1e2e6a3a16fff"},"geometry":{"type":"Polygon","coordinates":[[[20.009591,50.086211],[20.009704,50.086192],[20.009726,50.086247],[20.009613,50.086266],[20.009591,50.086211]]]}},{"type":"Feature","id":"w83334202","properties":{"type":"yes","address":"Osiedle Dywizjonu 303 77","residential":true,"residents_est":1,"h3_10":"8a1e2e6a3a87fff","h3_11":"8b1e2e6a3a85fff"},"geometry":{"type":"Polygon","coordinates":[[[20.009406,50.084511],[20.009515,50.084483],[20.009546,50.084534],[20.009437,50.084562],[20.009406,50.084511]]]}},{"type":"Feature","id":"w83334216","properties":{"type":"yes","residential":true,"residents_est":2,"h3_10":"8a1e2e6a3a17fff","h3_11":"8b1e2e6a3a16fff"},"geometry":{"type":"Polygon","coordinates":[[[20.009731,50.086202],[20.009963,50.086163],[20.009984,50.086214],[20.009752,50.086253],[20.009731,50.086202]]]}},{"type":"Feature","id":"w83334228","properties":{"type":"retail","residential":false,"residents_est":0,"h3_10":"8a1e2e6a3a17fff","h3_11":"8b1e2e6a3a10fff"},"geometry":{"type":"Polygon","coordinates":[[[20.010541,50.086052],[20.010946,50.085983],[20.010972,50.086047],[20.010567,50.086115],[20.010541,50.086052]]]}},{"type":"Feature","id":"w83334231","properties":{"type":"school","address":"Osiedle Dywizjonu 303 35","residential":false,"residents_est":0,"h3_10":"8a1e2e6a3aaffff","h3_11":"8b1e2e6a3aa9fff"},"geometry":{"type":"Polygon","coordinates":[[[20.011589,50.084755],[20.011737,50.084723],[20.011898,50.08503],[20.011751,50.085063],[20.011589,50.084755]]]}},{"type":"Feature","id":"w83334234","properties":{"type":"retail","residential":false,"residents_est":0,"h3_10":"8a1e2e6a3b8ffff","h3_11":"8b1e2e6a3b88fff"},"geometry":{"type":"Polygon","coordinates":[[[20.008525,50.086395],[20.008601,50.086382],[20.00862,50.08643],[20.008543,50.086442],[20.008525,50.086395]]]}},{"type":"Feature","id":"w83334250","properties":{"type":"yes","residential":true,"residents_est":26,"h3_10":"8a1e2e6a3af7fff","h3_11":"8b1e2e6a3af6fff"},"geometry":{"type":"Polygon","coordinates":[[[20.011485,50.08454],[20.011585,50.084517],[20.01156,50.084473],[20.011684,50.084444],[20.011668,50.084416],[20.011764,50.084394],[20.01174,50.084352],[20.011901,50.084315],[20.012021,50.084531],[20.011872,50.084565],[20.011858,50.084539],[20.011527,50.084616],[20.011485,50.08454]]]}},{"type":"Feature","id":"w83334257","properties":{"type":"yes","residential":true,"residents_est":5,"h3_10":"8a1e2e6a3a17fff","h3_11":"8b1e2e6a3a10fff"},"geometry":{"type":"Polygon","coordinates":[[[20.010008,50.086142],[20.010504,50.086061],[20.010527,50.086119],[20.010031,50.0862],[20.010008,50.086142]]]}},{"type":"Feature","id":"w83334260","properties":{"type":"retail","residential":false,"residents_est":0,"h3_10":"8a1e2e6a3b8ffff","h3_11":"8b1e2e6a3b88fff"},"geometry":{"type":"Polygon","coordinates":[[[20.008728,50.086352],[20.008954,50.086315],[20.008981,50.086382],[20.008755,50.086419],[20.008728,50.086352]]]}},{"type":"Feature","id":"w83334277","properties":{"type":"yes","address":"Osiedle Dywizjonu 303 22B","residential":true,"residents_est":19,"h3_10":"8a1e2e6a3b97fff","h3_11":"8b1e2e6a3b91fff"},"geometry":{"type":"Polygon","coordinates":[[[20.005945,50.086448],[20.006005,50.086056],[20.006088,50.086061],[20.006097,50.086006],[20.006151,50.086009],[20.006083,50.086456],[20.005945,50.086448]]]}},{"type":"Feature","id":"w83334295","properties":{"type":"yes","address":"Osiedle Dywizjonu 303 22A","residential":true,"residents_est":15,"h3_10":"8a1e2e6a3b97fff","h3_11":"8b1e2e6a3b96fff"},"geometry":{"type":"Polygon","coordinates":[[[20.004762,50.085908],[20.005188,50.085898],[20.005194,50.086008],[20.004768,50.086017],[20.004762,50.085908]]]}},{"type":"Feature","id":"w163340966","properties":{"type":"retail","residential":false,"residents_est":0,"h3_10":"8a1e2e6a3a0ffff","h3_11":"8b1e2e6a3a0afff"},"geometry":{"type":"Polygon","coordinates":[[[20.013104,50.086242],[20.013204,50.086226],[20.013218,50.086261],[20.013118,50.086277],[20.013104,50.086242]]]}},{"type":"Feature","id":"w163340970","properties":{"type":"apartments","levels":11.0,"address":"Osiedle Józefa Strusia 18","residential":true,"residents_est":428,"h3_10":"8a1e2e6a3b07fff","h3_11":"8b1e2e6a3b02fff"},"geometry":{"type":"Polygon","coordinates":[[[20.008207,50.088716],[20.008227,50.08869],[20.008249,50.088697],[20.008315,50.088612],[20.010005,50.089132],[20.009946,50.089217],[20.009972,50.089225],[20.009953,50.08925],[20.009827,50.089211],[20.009816,50.089225],[20.00976,50.089208],[20.00977,50.089194],[20.009621,50.089149],[20.009612,50.089161],[20.009555,50.089144],[20.009564,50.089132],[20.00942,50.089087],[20.009411,50.0891],[20.009353,50.089083],[20.009363,50.089069],[20.009211,50.089023],[20.009201,50.089037],[20.009146,50.08902],[20.009155,50.089006],[20.009004,50.08896],[20.008993,50.088973],[20.008937,50.088956],[20.008947,50.088942],[20.008794,50.088896],[20.008783,50.088909],[20.008727,50.088893],[20.008737,50.088878],[20.008594,50.088835],[20.008583,50.088849],[20.008522,50.08883],[20.008533,50.088816],[20.008387,50.088771],[20.008376,50.088786],[20.00832,50.088769],[20.00833,50.088754],[20.008207,50.088716]]]}},{"type":"Feature","id":"w184611439","properties":{"type":"office","address":"Osiedle Kościuszkowskie 1","residential":false,"residents_est":0,"h3_10":"8a1e2e6a3aeffff","h3_11":"8b1e2e6a3aebfff"},"geometry":{"type":"Polygon","coordinates":[[[20.015326,50.084577],[20.016441,50.084394],[20.016496,50.08453],[20.01538,50.084713],[20.015326,50.084577]]]}},{"type":"Feature","id":"w184611444","properties":{"type":"kindergarten","levels":2.0,"address":"Osiedle Kalinowe 11","name":"Samorządowe przedszkole nr 97 imienia Jana Brzechwy","residential":false,"residents_est":0,"h3_10":"8a1e2e6a3b67fff","h3_11":"8b1e2e6a3b65fff"},"geometry":{"type":"Polygon","coordinates":[[[20.014227,50.090894],[20.014348,50.090807],[20.014517,50.090903],[20.014454,50.090948],[20.014638,50.091054],[20.014527,50.091133],[20.014343,50.091028],[20.014395,50.09099],[20.014227,50.090894]]]}},{"type":"Feature","id":"w184611462","properties":{"type":"garages","address":"Osiedle Na Lotnisku 16a","residential":false,"residents_est":0,"h3_10":"8a1e2e6a3a67fff","h3_11":"8b1e2e6a3a66fff"},"geometry":{"type":"Polygon","coordinates":[[[20.015687,50.087596],[20.015774,50.087582],[20.015848,50.087766],[20.01587,50.087765],[20.015874,50.087829],[20.015782,50.08783],[20.015687,50.087596]]]}},{"type":"Feature","id":"w184611467","properties":{"type":"garages","address":"Osiedle Na Lotnisku 17a","residential":false,"residents_est":0,"h3_10":"8a1e2e6a3a77fff","h3_11":"8b1e2e6a3a71fff"},"geometry":{"type":"Polygon","coordinates":[[[20.015574,50.087302],[20.015664,50.087287],[20.015701,50.08739],[20.015722,50.087391],[20.015726,50.087461],[20.015632,50.087462],[20.015574,50.087302]]]}},{"type":"Feature","id":"w184611469","properties":{"type":"school","levels":3.0,"address":"Osiedle Kalinowe 18","residential":false,"residents_est":0,"h3_10":"8a1e2e6a3b2ffff","h3_11":"8b1e2e6a3b2dfff"},"geometry":{"type":"Polygon","coordinates":[[[20.011025,50.090435],[20.011235,50.090285],[20.011357,50.090355],[20.011333,50.090372],[20.011494,50.090464],[20.011923,50.090154],[20.012067,50.090237],[20.011963,50.090312],[20.011978,50.090321],[20.011933,50.090353],[20.011911,50.090341],[20.011418,50.090697],[20.01128,50.090617],[20.011413,50.090522],[20.011255,50.090431],[20.011149,50.090506],[20.011025,50.090435]]]}},{"type":"Feature","id":"w184611470","properties":{"type":"garages","address":"Osiedle Na Lotnisku 18a","residential":false,"residents_est":0,"h3_10":"8a1e2e6a3a77fff","h3_11":"8b1e2e6a3a73fff"},"geometry":{"type":"Polygon","coordinates":[[[20.015411,50.086906],[20.015503,50.08689],[20.015556,50.087021],[20.015576,50.087022],[20.01558,50.087089],[20.015485,50.087087],[20.015411,50.086906]]]}},{"type":"Feature","id":"w184611472","properties":{"type":"service","address":"Osiedle Na Lotnisku 19a","residential":false,"residents_est":0,"h3_10":"8a1e2e6a3a47fff","h3_11":"8b1e2e6a3a41fff"},"geometry":{"type":"Polygon","coordinates":[[[20.017371,50.087026],[20.017456,50.087011],[20.017463,50.087026],[20.017763,50.086974],[20.017799,50.087058],[20.017412,50.087124],[20.017371,50.087026]]]}},{"type":"Feature","id":"w184611473","properties":{"type":"yes","address":"Osiedle Kościuszkowskie 1A","residential":true,"residents_est":24,"h3_10":"8a1e2e6a3aeffff","h3_11":"8b1e2e6a3aebfff"},"geometry":{"type":"Polygon","coordinates":[[[20.016237,50.084572],[20.01644,50.084539],[20.016574,50.084875],[20.016371,50.084908],[20.016237,50.084572]]]}},{"type":"Feature","id":"w184611474","properties":{"type":"yes","address":"Osiedle Kościuszkowskie 1B","residential":true,"residents_est":23,"h3_10":"8a1e2e6a3aeffff","h3_11":"8b1e2e6a3aebfff"},"geometry":{"type":"Polygon","coordinates":[[[20.015728,50.084656],[20.015931,50.084623],[20.016065,50.084958],[20.015863,50.084992],[20.015728,50.084656]]]}},{"type":"Feature","id":"w184611476","properties":{"type":"apartments","levels":5.0,"address":"Osiedle Kalinowe 2","residential":true,"residents_est":83,"h3_10":"8a1e2e6a3b6ffff","h3_11":"8b1e2e6a3b6dfff"},"geometry":{"type":"Polygon","coordinates":[[[20.015777,50.090301],[20.015973,50.090294],[20.016019,50.090812],[20.015822,50.090819],[20.015777,50.090301]]]}},{"type":"Feature","id":"w184611491","properties":{"type":"yes","levels":5.0,"address":"Osiedle Dywizjonu 303 25","residential":true,"residents_est":62,"h3_10":"8a1e2e6a3b9ffff","h3_11":"8b1e2e6a3b99fff"},"geometry":{"type":"Polygon","coordinates":[[[20.007563,50.08583],[20.007578,50.085827],[20.007568,50.085806],[20.007654,50.085789],[20.007644,50.085768],[20.008551,50.085594],[20.008561,50.085615],[20.008644,50.085599],[20.008654,50.08562],[20.008672,50.085616],[20.008712,50.085702],[20.008694,50.085706],[20.008706,50.085732],[20.008635,50.085746],[20.008647,50.085773],[20.008599,50.085782],[20.00857,50.085718],[20.008378,50.085755],[20.008387,50.085774],[20.008342,50.085783],[20.008333,50.085764],[20.008179,50.085794],[20.008188,50.085813],[20.008143,50.085821],[20.008134,50.085802],[20.007971,50.085833],[20.00798,50.085853],[20.007935,50.085861],[20.007926,50.085842],[20.007745,50.085877],[20.007773,50.085937],[20.007726,50.085946],[20.007715,50.085923],[20.00763,50.085939],[20.007618,50.085913],[20.007603,50.085916],[20.007563,50.08583]]]}},{"type":"Feature","id":"w184611500","properties":{"type":"apartments","levels":5.0,"address":"Osiedle Kalinowe 3","residential":true,"residents_est":83,"h3_10":"8a1e2e6a3b6ffff","h3_11":"8b1e2e6a3b6efff"},"geometry":{"type":"Polygon","coordinates":[[[20.015278,50.089804],[20.015475,50.089796],[20.015528,50.090314],[20.015331,50.090322],[20.015278,50.089804]]]}},{"type":"Feature","id":"w184611501","properties":{"type":"yes","address":"Osiedle Kościuszkowskie 3","residential":true,"residents_est":3,"h3_10":"8a1e2e6a3aeffff","h3_11":"8b1e2e6a3aeafff"},"geometry":{"type":"Polygon","coordinates":[[[20.015033,50.084605],[20.015223,50.084573],[20.015263,50.084675],[20.015073,50.084706],[20.015033,50.084605]]]}},{"type":"Feature","id":"w184611513","properties":{"type":"apartments","levels":5.0,"address":"Osiedle Kalinowe 7","residential":true,"residents_est":83,"h3_10":"8a1e2e6a3b67fff","h3_11":"8b1e2e6a3b63fff"},"geometry":{"type":"Polygon","coordinates":[[[20.014667,50.089967],[20.014863,50.089959],[20.014917,50.090476],[20.01472,50.090485],[20.014667,50.089967]]]}},{"type":"Feature","id":"w184611515","properties":{"type":"school","levels":4.0,"address":"Osiedle Wysokie 7","residential":false,"residents_est":0,"h3_10":"8a1e2e6a3b4ffff","h3_11":"8b1e2e6a3b4dfff"},"geometry":{"type":"Polygon","coordinates":[[[20.016158,50.089424],[20.01632,50.08941],[20.016325,50.08943],[20.016536,50.089411],[20.016443,50.089],[20.016627,50.088986],[20.016646,50.089087],[20.016675,50.089084],[20.016682,50.089122],[20.016654,50.089125],[20.016758,50.089598],[20.016582,50.089615],[20.016554,50.089489],[20.016341,50.089508],[20.016362,50.089608],[20.016195,50.089624],[20.016158,50.089424]]]}},{"type":"Feature","id":"w184611534","properties":{"type":"garages","levels":1.0,"residential":false,"residents_est":0,"h3_10":"8a1e2e6a3b27fff","h3_11":"8b1e2e6a3b22fff"},"geometry":{"type":"Polygon","coordinates":[[[20.00898,50.09023],[20.009087,50.090151],[20.009146,50.090186],[20.009038,50.090263],[20.00898,50.09023]]]}},{"type":"Feature","id":"w184611543","properties":{"type":"service","residential":false,"residents_est":0,"h3_10":"8a1e2e6a3aeffff","h3_11":"8b1e2e6a3aeefff"},"geometry":{"type":"Polygon","coordinates":[[[20.015164,50.084952],[20.015285,50.084932],[20.015345,50.085082],[20.015224,50.085102],[20.015164,50.084952]]]}},{"type":"Feature","id":"w184611548","properties":{"type":"service","residential":false,"residents_est":0,"h3_10":"8a1e2e6a3aeffff","h3_11":"8b1e2e6a3aeefff"},"geometry":{"type":"Polygon","coordinates":[[[20.015105,50.084883],[20.015256,50.084858],[20.015285,50.084932],[20.015134,50.084957],[20.015105,50.084883]]]}},{"type":"Feature","id":"w184611549","properties":{"type":"service","residential":false,"residents_est":0,"h3_10":"8a1e2e6a3aeffff","h3_11":"8b1e2e6a3aeefff"},"geometry":{"type":"Polygon","coordinates":[[[20.015041,50.085132],[20.015345,50.085082],[20.015379,50.085165],[20.015074,50.085215],[20.015041,50.085132]]]}},{"type":"Feature","id":"w184611570","properties":{"type":"school","levels":3.0,"address":"Osiedle Kościuszkowskie 7","name":"Publiczna Szkoła Sióstr Salezjanek im. bł Laury Vicua","residential":false,"residents_est":0,"h3_10":"8a1e2e6a3ad7fff","h3_11":"8b1e2e6a3ad1fff"},"geometry":{"type":"Polygon","coordinates":[[[20.012953,50.083812],[20.013428,50.083706],[20.013388,50.08363],[20.013291,50.083651],[20.013206,50.083492],[20.013223,50.083488],[20.013198,50.08344],[20.013404,50.08339],[20.013517,50.0836],[20.013476,50.083609],[20.013517,50.083684],[20.013715,50.083641],[20.013773,50.083749],[20.013011,50.083919],[20.012953,50.083812]]]}},{"type":"Feature","id":"w217868352","properties":{"type":"shed","residential":false,"residents_est":0,"h3_10":"8a1e2e6a3b2ffff","h3_11":"8b1e2e6a3b2dfff"},"geometry":{"type":"Polygon","coordinates":[[[20.011321,50.090325],[20.011367,50.090292],[20.011404,50.090314],[20.011358,50.090347],[20.011321,50.090325]]]}},{"type":"Feature","id":"w227349171","properties":{"type":"yes","address":"Aleja Generała Władysława Andersa 8","name":"Media Expert","residential":true,"residents_est":55,"h3_10":"8a1e2e6a3bb7fff","h3_11":"8b1e2e6a3bb3fff"},"geometry":{"type":"Polygon","coordinates":[[[20.005449,50.086878],[20.005762,50.086789],[20.005774,50.086806],[20.006004,50.08674],[20.006121,50.086907],[20.006048,50.086929],[20.00611,50.087019],[20.005639,50.087156],[20.005568,50.087053],[20.00556,50.087055],[20.005547,50.087036],[20.005556,50.087033],[20.005449,50.086878]]]}},{"type":"Feature","id":"w233112102","properties":{"type":"retail","name":"Piekarnia Chmura","residential":false,"residents_est":0,"h3_10":"8a1e2e6a3b1ffff","h3_11":"8b1e2e6a3b1dfff"},"geometry":{"type":"Polygon","coordinates":[[[20.010017,50.088552],[20.01006,50.088493],[20.010136,50.088517],[20.010094,50.088575],[20.010017,50.088552]]]}},{"type":"Feature","id":"w287781017","properties":{"type":"retail","levels":1.0,"address":"Osiedle Józefa Strusia 23","name":"Biedronka","residential":false,"residents_est":0,"h3_10":"8a1e2e6a3ba7fff","h3_11":"8b1e2e6a3ba0fff"},"geometry":{"type":"Polygon","coordinates":[[[20.006131,50.087702],[20.006762,50.087523],[20.006903,50.08773],[20.006591,50.087818],[20.00662,50.087861],[20.006301,50.087951],[20.006131,50.087702]]]}},{"type":"Feature","id":"w331275853","properties":{"type":"apartments","levels":3.0,"residential":true,"residents_est":12,"h3_10":"8a1e2e6a3a0ffff","h3_11":"8b1e2e6a3a0bfff"},"geometry":{"type":"Polygon","coordinates":[[[20.013962,50.086161],[20.014182,50.086127],[20.014222,50.086235],[20.014002,50.086268],[20.013962,50.086161]]]}},{"type":"Feature","id":"w340066704","properties":{"type":"residential","levels":1.0,"residential":true,"residents_est":24,"h3_10":"8a1e2e6a3b47fff","h3_11":"8b1e2e6a3b44fff"},"geometry":{"type":"Polygon","coordinates":[[[20.013344,50.089473],[20.013502,50.089406],[20.013669,50.089569],[20.013976,50.089434],[20.01419,50.089645],[20.014181,50.089649],[20.014189,50.089657],[20.014216,50.089646],[20.014239,50.089669],[20.014216,50.089678],[20.014207,50.089671],[20.014038,50.089742],[20.013993,50.089697],[20.014014,50.089688],[20.013918,50.089594],[20.013863,50.089617],[20.013879,50.089632],[20.013837,50.08965],[20.013822,50.089634],[20.013756,50.089662],[20.013849,50.089754],[20.013707,50.089813],[20.013407,50.089519],[20.013395,50.089525],[20.013344,50.089473]]]}},{"type":"Feature","id":"w453609842","properties":{"type":"retail","residential":false,"residents_est":0,"h3_10":"8a1e2e6a3baffff","h3_11":"8b1e2e6a3babfff"},"geometry":{"type":"Polygon","coordinates":[[[20.008665,50.087027],[20.00872,50.087018],[20.008762,50.087125],[20.008707,50.087134],[20.008665,50.087027]]]}},{"type":"Feature","id":"w453609843","properties":{"type":"garage","residential":false,"residents_est":0,"h3_10":"8a1e2e6a3ba7fff","h3_11":"8b1e2e6a3ba6fff"},"geometry":{"type":"Polygon","coordinates":[[[20.005852,50.088075],[20.005888,50.088064],[20.005922,50.088111],[20.005886,50.088122],[20.005852,50.088075]]]}},{"type":"Feature","id":"w454586866","properties":{"type":"yes","residential":false,"residents_est":0,"h3_10":"8a1e2e6a3af7fff","h3_11":"8b1e2e6a3af5fff"},"geometry":{"type":"Polygon","coordinates":[[[20.01273,50.084802],[20.012787,50.08479],[20.012811,50.084835],[20.012754,50.084848],[20.01273,50.084802]]]}},{"type":"Feature","id":"w454586867","properties":{"type":"retail","residential":false,"residents_est":0,"h3_10":"8a1e2e6a3af7fff","h3_11":"8b1e2e6a3af0fff"},"geometry":{"type":"Polygon","coordinates":[[[20.012627,50.084602],[20.012683,50.08459],[20.012725,50.084672],[20.012706,50.084691],[20.012668,50.084685],[20.012627,50.084602]]]}},{"type":"Feature","id":"w454590382","properties":{"type":"yes","residential":false,"residents_est":0,"h3_10":"8a1e2e6a3a1ffff","h3_11":"8b1e2e6a3a19fff"},"geometry":{"type":"Polygon","coordinates":[[[20.012753,50.085601],[20.012806,50.085592],[20.012828,50.085648],[20.012774,50.085657],[20.012753,50.085601]]]}},{"type":"Feature","id":"w454759872","properties":{"type":"retail","residential":false,"residents_est":0,"h3_10":"8a1e2e6a3a1ffff","h3_11":"8b1e2e6a3a18fff"},"geometry":{"type":"Polygon","coordinates":[[[20.012243,50.085778],[20.01231,50.085767],[20.012328,50.085809],[20.01226,50.08582],[20.012243,50.085778]]]}},{"type":"Feature","id":"w454759873","properties":{"type":"retail","residential":false,"residents_est":0,"h3_10":"8a1e2e6a3a17fff","h3_11":"8b1e2e6a3a11fff"},"geometry":{"type":"Polygon","coordinates":[[[20.011065,50.08595],[20.011229,50.085923],[20.011259,50.085997],[20.011095,50.086024],[20.011065,50.08595]]]}},{"type":"Feature","id":"w454759874","properties":{"type":"retail","levels":1.0,"residential":false,"residents_est":0,"h3_10":"8a1e2e6a3a1ffff","h3_11":"8b1e2e6a3a18fff"},"geometry":{"type":"Polygon","coordinates":[[[20.01206,50.085787],[20.012177,50.085768],[20.012209,50.085848],[20.012092,50.085867],[20.01206,50.085787]]]}},{"type":"Feature","id":"w454762643","properties":{"type":"service","residential":false,"residents_est":0,"h3_10":"8a1e2e6a3aa7fff","h3_11":"8b1e2e6a3aa4fff"},"geometry":{"type":"Polygon","coordinates":[[[20.008684,50.08585],[20.008803,50.085828],[20.008814,50.085853],[20.008695,50.085876],[20.008684,50.08585]]]}},{"type":"Feature","id":"w454857739","properties":{"type":"yes","address":"Osiedle Dywizjonu 303 75","residential":true,"residents_est":1,"h3_10":"8a1e2e6a3a87fff","h3_11":"8b1e2e6a3a85fff"},"geometry":{"type":"Polygon","coordinates":[[[20.009495,50.084747],[20.009574,50.08473],[20.009612,50.084795],[20.009533,50.084814],[20.009495,50.084747]]]}},{"type":"Feature","id":"w454857740","properties":{"type":"yes","residential":true,"residents_est":1,"h3_10":"8a1e2e6a3aa7fff","h3_11":"8b1e2e6a3aa3fff"},"geometry":{"type":"Polygon","coordinates":[[[20.009026,50.084873],[20.009099,50.084857],[20.009142,50.084933],[20.009069,50.08495],[20.009026,50.084873]]]}},{"type":"Feature","id":"w454857741","properties":{"type":"yes","residential":true,"residents_est":2,"h3_10":"8a1e2e6a3aa7fff","h3_11":"8b1e2e6a3aa3fff"},"geometry":{"type":"Polygon","coordinates":[[[20.009089,50.084821],[20.009161,50.084805],[20.009219,50.084905],[20.009148,50.084921],[20.009153,50.08493],[20.009142,50.084933],[20.009099,50.084857],[20.009107,50.084855],[20.009089,50.084821]]]}},{"type":"Feature","id":"w454857742","properties":{"type":"yes","address":"Osiedle Dywizjonu 303 73","residential":true,"residents_est":1,"h3_10":"8a1e2e6a3aa7fff","h3_11":"8b1e2e6a3aa3fff"},"geometry":{"type":"Polygon","coordinates":[[[20.009325,50.084768],[20.009406,50.08475],[20.009454,50.084832],[20.009446,50.084834],[20.009451,50.084844],[20.009378,50.084861],[20.009325,50.084768]]]}},{"type":"Feature","id":"w454859374","properties":{"type":"yes","residential":true,"residents_est":15,"h3_10":"8a1e2e6a3b97fff","h3_11":"8b1e2e6a3b93fff"},"geometry":{"type":"Polygon","coordinates":[[[20.005845,50.085453],[20.006185,50.085445],[20.006192,50.085577],[20.005852,50.085589],[20.005845,50.085453]]]}},{"type":"Feature","id":"w454859375","properties":{"type":"yes","residential":false,"residents_est":0,"h3_10":"8a1e2e6a3b97fff","h3_11":"8b1e2e6a3b96fff"},"geometry":{"type":"Polygon","coordinates":[[[20.004863,50.086036],[20.004954,50.086034],[20.004956,50.086072],[20.004864,50.086075],[20.004863,50.086036]]]}},{"type":"Feature","id":"w488087375","properties":{"type":"retail","levels":1.0,"address":"Osiedle Na Lotnisku 2","name":"Aldi","residential":false,"residents_est":0,"h3_10":"8a1e2e6a3a4ffff","h3_11":"8b1e2e6a3a4dfff"},"geometry":{"type":"Polygon","coordinates":[[[20.018597,50.087137],[20.018713,50.087117],[20.018638,50.086942],[20.019223,50.086839],[20.019213,50.086817],[20.019472,50.086772],[20.019579,50.087025],[20.018622,50.087194],[20.018597,50.087137]]]}},{"type":"Feature","id":"w488087377","properties":{"type":"retail","levels":2.0,"address":"Osiedle Na Lotnisku 3","name":"Park Handlowy Na Lotnisku","residential":false,"residents_est":0,"h3_10":"8a1e2e6a3a4ffff","h3_11":"8b1e2e6a3a48fff"},"geometry":{"type":"Polygon","coordinates":[[[20.01819,50.086436],[20.019287,50.086244],[20.019388,50.086485],[20.018842,50.086581],[20.018835,50.086565],[20.018776,50.086575],[20.018782,50.086591],[20.018292,50.086677],[20.01819,50.086436]]]}},{"type":"Feature","id":"w705917411","properties":{"type":"yes","residential":false,"residents_est":0,"h3_10":"8a1e2e6a3af7fff","h3_11":"8b1e2e6a3af5fff"},"geometry":{"type":"Polygon","coordinates":[[[20.012754,50.084848],[20.012811,50.084835],[20.012832,50.084877],[20.012775,50.084889],[20.012754,50.084848]]]}},{"type":"Feature","id":"w705917415","properties":{"type":"commercial","residential":false,"residents_est":0,"h3_10":"8a1e2e6a3a87fff","h3_11":"8b1e2e6a3a85fff"},"geometry":{"type":"Polygon","coordinates":[[[20.009515,50.084483],[20.009651,50.084449],[20.009678,50.0845],[20.009546,50.084534],[20.009515,50.084483]]]}},{"type":"Feature","id":"w705917416","properties":{"type":"yes","residential":true,"residents_est":1,"h3_10":"8a1e2e6a3a87fff","h3_11":"8b1e2e6a3a84fff"},"geometry":{"type":"Polygon","coordinates":[[[20.009291,50.084539],[20.009406,50.084511],[20.009437,50.084562],[20.009318,50.084592],[20.009291,50.084539]]]}},{"type":"Feature","id":"w705917417","properties":{"type":"yes","residential":true,"residents_est":2,"h3_10":"8a1e2e6a3aa7fff","h3_11":"8b1e2e6a3aa3fff"},"geometry":{"type":"Polygon","coordinates":[[[20.009161,50.084805],[20.009244,50.084787],[20.009297,50.084887],[20.009219,50.084905],[20.009161,50.084805]]]}},{"type":"Feature","id":"w705917418","properties":{"type":"yes","residential":true,"residents_est":1,"h3_10":"8a1e2e6a3aa7fff","h3_11":"8b1e2e6a3aa3fff"},"geometry":{"type":"Polygon","coordinates":[[[20.009244,50.084787],[20.009325,50.084768],[20.009378,50.084861],[20.009297,50.08488],[20.009244,50.084787]]]}},{"type":"Feature","id":"w705917419","properties":{"type":"yes","residential":true,"residents_est":1,"h3_10":"8a1e2e6a3aa7fff","h3_11":"8b1e2e6a3aa2fff"},"geometry":{"type":"Polygon","coordinates":[[[20.008941,50.084892],[20.009026,50.084873],[20.009069,50.08495],[20.008984,50.084969],[20.008941,50.084892]]]}},{"type":"Feature","id":"w705917420","properties":{"type":"yes","residential":true,"residents_est":1,"h3_10":"8a1e2e6a3aa7fff","h3_11":"8b1e2e6a3aa3fff"},"geometry":{"type":"Polygon","coordinates":[[[20.009415,50.084764],[20.009495,50.084747],[20.009533,50.084814],[20.009454,50.084832],[20.009415,50.084764]]]}},{"type":"Feature","id":"w705917429","properties":{"type":"yes","residential":true,"residents_est":1,"h3_10":"8a1e2e6a3b97fff","h3_11":"8b1e2e6a3b91fff"},"geometry":{"type":"Polygon","coordinates":[[[20.005995,50.085992],[20.006,50.085961],[20.006016,50.085962],[20.00602,50.085931],[20.006106,50.085936],[20.006101,50.085966],[20.006091,50.085966],[20.006086,50.085997],[20.005995,50.085992]]]}},{"type":"Feature","id":"w705917430","properties":{"type":"yes","residential":false,"residents_est":0,"h3_10":"8a1e2e6a3b97fff","h3_11":"8b1e2e6a3b91fff"},"geometry":{"type":"Polygon","coordinates":[[[20.005886,50.086032],[20.005907,50.08601],[20.005974,50.086036],[20.005953,50.086058],[20.005886,50.086032]]]}},{"type":"Feature","id":"w705917436","properties":{"type":"yes","residential":false,"residents_est":0,"h3_10":"8a1e2e6a3a9ffff","h3_11":"8b1e2e6a3a9efff"},"geometry":{"type":"Polygon","coordinates":[[[20.008796,50.083215],[20.008863,50.0832],[20.008886,50.083241],[20.008819,50.083256],[20.008796,50.083215]]]}},{"type":"Feature","id":"w705939768","properties":{"type":"yes","residential":true,"residents_est":2,"h3_10":"8a1e2e6a3a4ffff","h3_11":"8b1e2e6a3a4bfff"},"geometry":{"type":"Polygon","coordinates":[[[20.018641,50.086136],[20.018726,50.086121],[20.018787,50.086257],[20.018701,50.086272],[20.018641,50.086136]]]}},{"type":"Feature","id":"w705939770","properties":{"type":"service","residential":false,"residents_est":0,"h3_10":"8a1e2e6a3a47fff","h3_11":"8b1e2e6a3a41fff"},"geometry":{"type":"Polygon","coordinates":[[[20.017756,50.086959],[20.017838,50.086945],[20.017858,50.086993],[20.017778,50.087007],[20.017756,50.086959]]]}},{"type":"Feature","id":"w705939772","properties":{"type":"service","residential":false,"residents_est":0,"h3_10":"8a1e2e6a3a77fff","h3_11":"8b1e2e6a3a71fff"},"geometry":{"type":"Polygon","coordinates":[[[20.015567,50.087212],[20.015646,50.087199],[20.015667,50.087252],[20.015588,50.087265],[20.015567,50.087212]]]}},{"type":"Feature","id":"w705939774","properties":{"type":"yes","residential":false,"residents_est":0,"h3_10":"8a1e2e6a3a57fff","h3_11":"8b1e2e6a3a50fff"},"geometry":{"type":"Polygon","coordinates":[[[20.015624,50.086203],[20.015702,50.086197],[20.015709,50.086241],[20.015632,50.086246],[20.015624,50.086203]]]}},{"type":"Feature","id":"w705939775","properties":{"type":"yes","residential":false,"residents_est":0,"h3_10":"8a1e2e6a3a5ffff","h3_11":"8b1e2e6a3a5cfff"},"geometry":{"type":"Polygon","coordinates":[[[20.016753,50.086015],[20.016797,50.086012],[20.016803,50.086058],[20.016759,50.08606],[20.016753,50.086015]]]}},{"type":"Feature","id":"w707482922","properties":{"type":"yes","residential":false,"residents_est":0,"h3_10":"8a1e2e6a3af7fff","h3_11":"8b1e2e6a3af1fff"},"geometry":{"type":"Polygon","coordinates":[[[20.013144,50.084624],[20.013281,50.084594],[20.013295,50.08462],[20.013159,50.084651],[20.013144,50.084624]]]}},{"type":"Feature","id":"w888480417","properties":{"type":"apartments","levels":11.0,"address":"Osiedle Na Lotnisku 1","residential":true,"residents_est":735,"h3_10":"8a1e2e6a3a6ffff","h3_11":"8b1e2e6a3a69fff"},"geometry":{"type":"Polygon","coordinates":[[[20.018601,50.08738],[20.018808,50.087344],[20.018766,50.087254],[20.019628,50.087106],[20.019789,50.087487],[20.018721,50.087661],[20.018601,50.08738]]]}},{"type":"Feature","id":"w889157662","properties":{"type":"yes","residential":false,"residents_est":0,"h3_10":"8a1e2e6a3a57fff","h3_11":"8b1e2e6a3a51fff"},"geometry":{"type":"Polygon","coordinates":[[[20.016208,50.086118],[20.016256,50.086115],[20.016259,50.086171],[20.016211,50.086172],[20.016208,50.086118]]]}},{"type":"Feature","id":"w975298681","properties":{"type":"roof","residential":false,"residents_est":0,"h3_10":"8a1e2e6a3bb7fff","h3_11":"8b1e2e6a3bb6fff"},"geometry":{"type":"Polygon","coordinates":[[[20.00436,50.087329],[20.004524,50.087297],[20.004499,50.087242],[20.004624,50.087218],[20.004651,50.087273],[20.004814,50.087241],[20.004845,50.087306],[20.004391,50.087395],[20.00436,50.087329]]]}},{"type":"Feature","id":"w1076868381","properties":{"type":"yes","residential":false,"residents_est":0,"h3_10":"8a1e2e6a3a77fff","h3_11":"8b1e2e6a3a75fff"},"geometry":{"type":"Polygon","coordinates":[[[20.015598,50.087467],[20.015654,50.087465],[20.015657,50.087507],[20.015601,50.087508],[20.015598,50.087467]]]}},{"type":"Feature","id":"w1084002046","properties":{"type":"tent","residential":false,"residents_est":0,"h3_10":"8a1e2e6a3b77fff","h3_11":"8b1e2e6a3b70fff"},"geometry":{"type":"Polygon","coordinates":[[[20.012581,50.089705],[20.01284,50.089608],[20.013143,50.089942],[20.012884,50.090038],[20.012581,50.089705]]]}},{"type":"Feature","id":"w1084002047","properties":{"type":"outbuilding","levels":1.0,"residential":false,"residents_est":0,"h3_10":"8a1e2e6a3b77fff","h3_11":"8b1e2e6a3b76fff"},"geometry":{"type":"Polygon","coordinates":[[[20.011858,50.089801],[20.011917,50.089778],[20.012042,50.089911],[20.011982,50.089934],[20.011858,50.089801]]]}},{"type":"Feature","id":"w1210549691","properties":{"type":"service","residential":false,"residents_est":0,"h3_10":"8a1e2e6a3a27fff","h3_11":"8b1e2e6a3a23fff"},"geometry":{"type":"Polygon","coordinates":[[[20.01205,50.087761],[20.012051,50.087693],[20.012153,50.087694],[20.012151,50.087762],[20.01205,50.087761]]]}},{"type":"Feature","id":"w1210549692","properties":{"type":"service","residential":false,"residents_est":0,"h3_10":"8a1e2e6a3b1ffff","h3_11":"8b1e2e6a3b1bfff"},"geometry":{"type":"Polygon","coordinates":[[[20.010099,50.088095],[20.010104,50.088044],[20.010179,50.088047],[20.010174,50.088098],[20.010099,50.088095]]]}},{"type":"Feature","id":"w1253538447","properties":{"type":"roof","residential":false,"residents_est":0,"h3_10":"8a1e2e6a3a5ffff","h3_11":"8b1e2e6a3a58fff"},"geometry":{"type":"Polygon","coordinates":[[[20.017237,50.085714],[20.017238,50.085654],[20.017704,50.085657],[20.017703,50.085718],[20.017237,50.085714]]]}},{"type":"Feature","id":"w1253538468","properties":{"type":"retail","levels":1.0,"residential":false,"residents_est":0,"h3_10":"8a1e2e6a3a5ffff","h3_11":"8b1e2e6a3a59fff"},"geometry":{"type":"Polygon","coordinates":[[[20.017725,50.085704],[20.017765,50.085702],[20.01777,50.085757],[20.01773,50.085759],[20.017725,50.085704]]]}},{"type":"Feature","id":"w1287375261","properties":{"type":"shed","residential":false,"residents_est":0,"h3_10":"8a1e2e6a3b6ffff","h3_11":"8b1e2e6a3b6dfff"},"geometry":{"type":"Polygon","coordinates":[[[20.016304,50.090651],[20.01638,50.09065],[20.016383,50.090686],[20.016305,50.090686],[20.016304,50.090651]]]}},{"type":"Feature","id":"w1287718650","properties":{"type":"service","residential":false,"residents_est":0,"h3_10":"8a1e2e6a3b67fff","h3_11":"8b1e2e6a3b60fff"},"geometry":{"type":"Polygon","coordinates":[[[20.014138,50.090448],[20.014186,50.090413],[20.014241,50.090444],[20.014193,50.090479],[20.014138,50.090448]]]}},{"type":"Feature","id":"w1322881568","properties":{"type":"yes","residential":false,"residents_est":0,"h3_10":"8a1e2e6a3b1ffff","h3_11":"8b1e2e6a3b1bfff"},"geometry":{"type":"Polygon","coordinates":[[[20.009941,50.087918],[20.009998,50.087918],[20.009998,50.087954],[20.009942,50.087955],[20.009941,50.087918]]]}},{"type":"Feature","id":"w1341640698","properties":{"type":"outbuilding","levels":1.0,"residential":false,"residents_est":0,"h3_10":"8a1e2e6a3b27fff","h3_11":"8b1e2e6a3b22fff"},"geometry":{"type":"Polygon","coordinates":[[[20.008809,50.090277],[20.008863,50.090237],[20.008985,50.090307],[20.008931,50.090346],[20.008809,50.090277]]]}},{"type":"Feature","id":"w1370473164","properties":{"type":"outbuilding","residential":false,"residents_est":0,"h3_10":"8a1e2e6a3b47fff","h3_11":"8b1e2e6a3b44fff"},"geometry":{"type":"Polygon","coordinates":[[[20.014287,50.089778],[20.014435,50.089713],[20.014485,50.08976],[20.014337,50.089825],[20.014287,50.089778]]]}},{"type":"Feature","id":"w1393050252","properties":{"type":"retail","levels":1.0,"name":"Dom Chleba","residential":false,"residents_est":0,"h3_10":"8a1e2e6a3b5ffff","h3_11":"8b1e2e6a3b5cfff"},"geometry":{"type":"Polygon","coordinates":[[[20.014425,50.088797],[20.014493,50.088774],[20.014532,50.088824],[20.014466,50.088845],[20.014425,50.088797]]]}},{"type":"Feature","id":"w1394480337","properties":{"type":"retail","address":"Osiedle Kościuszkowskie 6a","residential":false,"residents_est":0,"h3_10":"8a1e2e6a3acffff","h3_11":"8b1e2e6a3acbfff"},"geometry":{"type":"Polygon","coordinates":[[[20.016521,50.083386],[20.016611,50.083368],[20.016635,50.083416],[20.016544,50.083434],[20.016521,50.083386]]]}},{"type":"Feature","id":"w1427900403","properties":{"type":"yes","residential":false,"residents_est":0,"h3_10":"8a1e2e6a3a37fff","h3_11":"8b1e2e6a3a34fff"},"geometry":{"type":"Polygon","coordinates":[[[20.009802,50.087568],[20.009867,50.087567],[20.009867,50.087609],[20.009803,50.087609],[20.009802,50.087568]]]}},{"type":"Feature","id":"w1427900404","properties":{"type":"yes","residential":false,"residents_est":0,"h3_10":"8a1e2e6a3a37fff","h3_11":"8b1e2e6a3a36fff"},"geometry":{"type":"Polygon","coordinates":[[[20.009639,50.087198],[20.009689,50.087189],[20.009702,50.087226],[20.009654,50.087235],[20.009639,50.087198]]]}},{"type":"Feature","id":"w1435854004","properties":{"type":"shed","residential":false,"residents_est":0,"h3_10":"8a1e2e6a3baffff","h3_11":"8b1e2e6a3bacfff"},"geometry":{"type":"Polygon","coordinates":[[[20.007804,50.087911],[20.007861,50.08791],[20.007864,50.08795],[20.007807,50.087952],[20.007804,50.087911]]]}},{"type":"Feature","id":"w1441604620","properties":{"type":"construction","levels":5.0,"address":"Generała Leopolda Okulickiego 5","residential":false,"residents_est":0,"h3_10":"8a1e2e6a3b17fff","h3_11":"8b1e2e6a3b14fff"},"geometry":{"type":"Polygon","coordinates":[[[20.006836,50.089071],[20.007407,50.088671],[20.007575,50.088769],[20.007157,50.089062],[20.007451,50.089235],[20.007884,50.088932],[20.008051,50.08903],[20.007618,50.089334],[20.007914,50.089507],[20.008362,50.089193],[20.008528,50.08929],[20.007927,50.089711],[20.006836,50.089071]]]}},{"type":"Feature","id":"w1442246942","properties":{"type":"retail","residential":false,"residents_est":0,"h3_10":"8a1e2e6a3a0ffff","h3_11":"8b1e2e6a3a0dfff"},"geometry":{"type":"Polygon","coordinates":[[[20.01425,50.086853],[20.014318,50.086842],[20.014332,50.086879],[20.014264,50.08689],[20.01425,50.086853]]]}},{"type":"Feature","id":"w1446178880","properties":{"type":"shed","residential":false,"residents_est":0,"h3_10":"8a1e2e6a3a2ffff","h3_11":"8b1e2e6a3a28fff"},"geometry":{"type":"Polygon","coordinates":[[[20.013533,50.087517],[20.013589,50.087516],[20.013588,50.087558],[20.013533,50.087559],[20.013533,50.087517]]]}},{"type":"Feature","id":"w1448039227","properties":{"type":"yes","residential":true,"residents_est":1,"h3_10":"8a1e2e6a3a1ffff","h3_11":"8b1e2e6a3a19fff"},"geometry":{"type":"Polygon","coordinates":[[[20.012646,50.085554],[20.01272,50.085542],[20.012752,50.085624],[20.012678,50.085637],[20.012646,50.085554]]]}},{"type":"Feature","id":"w1448039229","properties":{"type":"yes","residential":false,"residents_est":0,"h3_10":"8a1e2e6a3a1ffff","h3_11":"8b1e2e6a3a19fff"},"geometry":{"type":"Polygon","coordinates":[[[20.012678,50.085637],[20.012752,50.085624],[20.012774,50.085681],[20.012698,50.085692],[20.012678,50.085637]]]}},{"type":"Feature","id":"w1460241435","properties":{"type":"yes","name":"Good Kebab","residential":false,"residents_est":0,"h3_10":"8a1e2e6a3b5ffff","h3_11":"8b1e2e6a3b5efff"},"geometry":{"type":"Polygon","coordinates":[[[20.014134,50.088475],[20.014185,50.088464],[20.014206,50.088506],[20.014155,50.088516],[20.014134,50.088475]]]}},{"type":"Feature","id":"w1478837660","properties":{"type":"apartments","levels":5.0,"address":"Osiedle Dywizjonu 303 22D","residential":true,"residents_est":8,"h3_10":"8a1e2e6a3b97fff","h3_11":"8b1e2e6a3b95fff"},"geometry":{"type":"Polygon","coordinates":[[[20.005469,50.086466],[20.005471,50.086365],[20.005477,50.086365],[20.005477,50.086383],[20.005512,50.086383],[20.005512,50.08637],[20.005517,50.08637],[20.005517,50.086383],[20.005603,50.086384],[20.00561,50.086442],[20.005469,50.086466]]]}},{"type":"Feature","id":"w1500641615","properties":{"type":"shed","residential":false,"residents_est":0,"h3_10":"8a1e2e6a3b2ffff","h3_11":"8b1e2e6a3b2dfff"},"geometry":{"type":"Polygon","coordinates":[[[20.011248,50.09028],[20.011294,50.090247],[20.011332,50.090269],[20.011285,50.090301],[20.011248,50.09028]]]}},{"type":"Feature","id":"w1502849558","properties":{"type":"yes","residential":false,"residents_est":0,"h3_10":"8a1e2e6a3b17fff","h3_11":"8b1e2e6a3b12fff"},"geometry":{"type":"Polygon","coordinates":[[[20.007922,50.088254],[20.008001,50.088254],[20.008001,50.088289],[20.007922,50.088289],[20.007922,50.088254]]]}},{"type":"Feature","id":"w1510503744","properties":{"type":"yes","residential":false,"residents_est":0,"h3_10":"8a1e2e6a3a67fff","h3_11":"8b1e2e6a3a66fff"},"geometry":{"type":"Polygon","coordinates":[[[20.015859,50.087949],[20.015923,50.087947],[20.015926,50.087988],[20.015862,50.08799],[20.015859,50.087949]]]}}]}