{"type":"FeatureCollection","features":[{"type":"Feature","id":"w231208106","properties":{"type":"yes","address":"Dobiesława Kurozwęckiego 30","residential":true,"residents_est":2,"h3_10":"8a1e05b68367fff","h3_11":"8b1e05b68362fff"},"geometry":{"type":"Polygon","coordinates":[[[19.842025,50.081512],[19.842031,50.081466],[19.842101,50.08147],[19.842103,50.081458],[19.842186,50.081463],[19.842175,50.081541],[19.84215,50.08154],[19.842148,50.081555],[19.84209,50.081552],[19.842095,50.081516],[19.842025,50.081512]]]}},{"type":"Feature","id":"w231208122","properties":{"type":"yes","address":"Dobiesława Kurozwęckiego 36","residential":true,"residents_est":2,"h3_10":"8a1e05b68347fff","h3_11":"8b1e05b68344fff"},"geometry":{"type":"Polygon","coordinates":[[[19.842196,50.081174],[19.842235,50.081079],[19.842347,50.081101],[19.842311,50.081181],[19.842253,50.08117],[19.842249,50.08118],[19.842238,50.081182],[19.842196,50.081174]]]}},{"type":"Feature","id":"w231208135","properties":{"type":"house","address":"Dobiesława Kurozwęckiego 17","residential":true,"residents_est":8,"h3_10":"8a1e05b68367fff","h3_11":"8b1e05b68364fff"},"geometry":{"type":"Polygon","coordinates":[[[19.842289,50.082343],[19.842291,50.082252],[19.842364,50.082252],[19.842365,50.082234],[19.842419,50.082234],[19.842419,50.082253],[19.842489,50.082253],[19.842488,50.082282],[19.84253,50.082282],[19.842529,50.082344],[19.842289,50.082343]]]}},{"type":"Feature","id":"w231208140","properties":{"type":"yes","address":"Mariana Hemara 32","residential":true,"residents_est":3,"h3_10":"8a1e05b68367fff","h3_11":"8b1e05b68361fff"},"geometry":{"type":"Polygon","coordinates":[[[19.843049,50.081778],[19.843074,50.081721],[19.843118,50.081731],[19.843111,50.081749],[19.843249,50.081777],[19.843207,50.081861],[19.843167,50.081853],[19.84316,50.081869],[19.843111,50.08186],[19.843118,50.081844],[19.843068,50.081832],[19.843092,50.081786],[19.843049,50.081778]]]}},{"type":"Feature","id":"w231208187","properties":{"type":"yes","address":"Dobiesława Kurozwęckiego 15","residential":true,"residents_est":2,"h3_10":"8a1e05b68367fff","h3_11":"8b1e05b68365fff"},"geometry":{"type":"Polygon","coordinates":[[[19.842796,50.08256],[19.84281,50.082477],[19.842935,50.082484],[19.842921,50.082568],[19.842796,50.08256]]]}},{"type":"Feature","id":"w231208188","properties":{"type":"yes","address":"Zakliki z Mydlnik 14h","residential":true,"residents_est":2,"h3_10":"8a1e05b6834ffff","h3_11":"8b1e05b6834cfff"},"geometry":{"type":"Polygon","coordinates":[[[19.844324,50.080915],[19.8444,50.080877],[19.844502,50.080963],[19.84443,50.080999],[19.844324,50.080915]]]}},{"type":"Feature","id":"w231208193","properties":{"type":"yes","residential":false,"residents_est":0,"h3_10":"8a1e05b68367fff","h3_11":"8b1e05b68364fff"},"geometry":{"type":"Polygon","coordinates":[[[19.841846,50.082284],[19.841872,50.082233],[19.841955,50.08225],[19.841929,50.082301],[19.841846,50.082284]]]}},{"type":"Feature","id":"w231208201","properties":{"type":"yes","residential":false,"residents_est":0,"h3_10":"8a1e05b68367fff","h3_11":"8b1e05b68365fff"},"geometry":{"type":"Polygon","coordinates":[[[19.842708,50.082259],[19.842715,50.082227],[19.842818,50.082236],[19.842812,50.082268],[19.842708,50.082259]]]}},{"type":"Feature","id":"w231208204","properties":{"type":"yes","residential":true,"residents_est":2,"h3_10":"8a1e05b68367fff","h3_11":"8b1e05b68363fff"},"geometry":{"type":"Polygon","coordinates":[[[19.84253,50.08184],[19.842552,50.081745],[19.84265,50.081755],[19.84263,50.081847],[19.84253,50.08184]]]}},{"type":"Feature","id":"w231208207","properties":{"type":"yes","residential":true,"residents_est":5,"h3_10":"8a1e05b6834ffff","h3_11":"8b1e05b6834bfff"},"geometry":{"type":"Polygon","coordinates":[[[19.844981,50.080205],[19.844987,50.080139],[19.845392,50.080154],[19.845387,50.08022],[19.844981,50.080205]]]}},{"type":"Feature","id":"w231208208","properties":{"type":"yes","residential":false,"residents_est":0,"h3_10":"8a1e05b68347fff","h3_11":"8b1e05b68345fff"},"geometry":{"type":"Polygon","coordinates":[[[19.843031,50.081458],[19.843048,50.081424],[19.84318,50.081451],[19.843163,50.081486],[19.843031,50.081458]]]}},{"type":"Feature","id":"w231208215","properties":{"type":"yes","residential":true,"residents_est":0,"h3_10":"8a1e05b6834ffff","h3_11":"8b1e05b6834afff"},"geometry":{"type":"Polygon","coordinates":[[[19.844044,50.080332],[19.844053,50.080252],[19.844124,50.080255],[19.844117,50.080335],[19.844044,50.080332]]]}},{"type":"Feature","id":"w231208220","properties":{"type":"yes","address":"Dobiesława Kurozwęckiego 35","residential":true,"residents_est":2,"h3_10":"8a1e05b6836ffff","h3_11":"8b1e05b6836afff"},"geometry":{"type":"Polygon","coordinates":[[[19.843576,50.081417],[19.843608,50.081338],[19.843744,50.081362],[19.843712,50.081441],[19.843576,50.081417]]]}},{"type":"Feature","id":"w231208222","properties":{"type":"yes","residential":true,"residents_est":1,"h3_10":"8a1e05b68367fff","h3_11":"8b1e05b68362fff"},"geometry":{"type":"Polygon","coordinates":[[[19.842279,50.081545],[19.842292,50.081493],[19.842407,50.0815],[19.842391,50.081559],[19.842279,50.081545]]]}},{"type":"Feature","id":"w231208235","properties":{"type":"yes","residential":false,"residents_est":0,"h3_10":"8a1e05b68347fff","h3_11":"8b1e05b68344fff"},"geometry":{"type":"Polygon","coordinates":[[[19.842615,50.081215],[19.842683,50.081211],[19.842689,50.081287],[19.842621,50.08128],[19.842615,50.081215]]]}},{"type":"Feature","id":"w231208237","properties":{"type":"yes","residential":false,"residents_est":0,"h3_10":"8a1e05b68347fff","h3_11":"8b1e05b68345fff"},"geometry":{"type":"Polygon","coordinates":[[[19.842842,50.08115],[19.842856,50.081114],[19.842973,50.081132],[19.842959,50.081168],[19.842842,50.08115]]]}},{"type":"Feature","id":"w231208252","properties":{"type":"yes","address":"Dobiesława Kurozwęckiego 28","residential":true,"residents_est":2,"h3_10":"8a1e05b68367fff","h3_11":"8b1e05b68362fff"},"geometry":{"type":"Polygon","coordinates":[[[19.842029,50.081698],[19.842049,50.081605],[19.842164,50.081615],[19.842144,50.081708],[19.842029,50.081698]]]}},{"type":"Feature","id":"w231208269","properties":{"type":"yes","address":"Mariana Hemara 25A","residential":true,"residents_est":1,"h3_10":"8a1e05b6836ffff","h3_11":"8b1e05b6836efff"},"geometry":{"type":"Polygon","coordinates":[[[19.843756,50.081659],[19.843764,50.081599],[19.843876,50.081605],[19.843869,50.081666],[19.843756,50.081659]]]}},{"type":"Feature","id":"w231208271","properties":{"type":"yes","address":"Dobiesława Kurozwęckiego 25","residential":true,"residents_est":2,"h3_10":"8a1e05b68367fff","h3_11":"8b1e05b68360fff"},"geometry":{"type":"Polygon","coordinates":[[[19.842389,50.081827],[19.842409,50.081733],[19.842552,50.081745],[19.84253,50.08184],[19.842389,50.081827]]]}},{"type":"Feature","id":"w231208272","properties":{"type":"yes","address":"Mariana Hemara 23","residential":true,"residents_est":1,"h3_10":"8a1e05b6836ffff","h3_11":"8b1e05b6836cfff"},"geometry":{"type":"Polygon","coordinates":[[[19.843901,50.081949],[19.843917,50.081888],[19.844028,50.081901],[19.844012,50.081961],[19.843901,50.081949]]]}},{"type":"Feature","id":"w231208279","properties":{"type":"yes","residential":false,"residents_est":0,"h3_10":"8a1e05b68367fff","h3_11":"8b1e05b68361fff"},"geometry":{"type":"Polygon","coordinates":[[[19.842915,50.082028],[19.842931,50.08198],[19.843008,50.081991],[19.842992,50.082039],[19.842915,50.082028]]]}},{"type":"Feature","id":"w231208281","properties":{"type":"yes","address":"Dobiesława Kurozwęckiego 29","residential":true,"residents_est":2,"h3_10":"8a1e05b68367fff","h3_11":"8b1e05b68363fff"},"geometry":{"type":"Polygon","coordinates":[[[19.842991,50.081537],[19.843031,50.081458],[19.843163,50.081486],[19.843124,50.081564],[19.842991,50.081537]]]}},{"type":"Feature","id":"w231208284","properties":{"type":"yes","address":"Dobiesława Kurozwęckiego 34","residential":true,"residents_est":2,"h3_10":"8a1e05b68347fff","h3_11":"8b1e05b68346fff"},"geometry":{"type":"Polygon","coordinates":[[[19.842083,50.081138],[19.842115,50.08106],[19.842235,50.081079],[19.842202,50.081158],[19.842083,50.081138]]]}},{"type":"Feature","id":"w231208289","properties":{"type":"yes","residential":true,"residents_est":1,"h3_10":"8a1e05b68367fff","h3_11":"8b1e05b68365fff"},"geometry":{"type":"Polygon","coordinates":[[[19.842637,50.082401],[19.84264,50.082328],[19.842741,50.08233],[19.842737,50.082403],[19.842637,50.082401]]]}},{"type":"Feature","id":"w231208291","properties":{"type":"yes","residential":false,"residents_est":0,"h3_10":"8a1e05b6836ffff","h3_11":"8b1e05b68368fff"},"geometry":{"type":"Polygon","coordinates":[[[19.843894,50.081597],[19.843909,50.08151],[19.843954,50.081513],[19.843938,50.0816],[19.843894,50.081597]]]}},{"type":"Feature","id":"w231208314","properties":{"type":"yes","address":"Mariana Hemara 25","residential":true,"residents_est":3,"h3_10":"8a1e05b6836ffff","h3_11":"8b1e05b68368fff"},"geometry":{"type":"Polygon","coordinates":[[[19.843938,50.0816],[19.843954,50.081513],[19.844134,50.081527],[19.844119,50.081613],[19.843938,50.0816]]]}},{"type":"Feature","id":"w231208318","properties":{"type":"yes","residential":true,"residents_est":1,"h3_10":"8a1e05b6836ffff","h3_11":"8b1e05b68368fff"},"geometry":{"type":"Polygon","coordinates":[[[19.844119,50.081613],[19.844134,50.081527],[19.844212,50.081534],[19.844195,50.081618],[19.844119,50.081613]]]}},{"type":"Feature","id":"w231208323","properties":{"type":"yes","address":"Dobiesława Kurozwęckiego 13","residential":true,"residents_est":2,"h3_10":"8a1e05b68367fff","h3_11":"8b1e05b68365fff"},"geometry":{"type":"Polygon","coordinates":[[[19.842781,50.082644],[19.842796,50.08256],[19.842921,50.082568],[19.842906,50.082652],[19.842781,50.082644]]]}},{"type":"Feature","id":"w231208326","properties":{"type":"yes","residential":true,"residents_est":1,"h3_10":"8a1e05b6836ffff","h3_11":"8b1e05b68368fff"},"geometry":{"type":"Polygon","coordinates":[[[19.844166,50.08163],[19.844276,50.081626],[19.844278,50.081681],[19.844172,50.081685],[19.844166,50.08163]]]}},{"type":"Feature","id":"w231208336","properties":{"type":"yes","residential":false,"residents_est":0,"h3_10":"8a1e05b68367fff","h3_11":"8b1e05b68364fff"},"geometry":{"type":"Polygon","coordinates":[[[19.841965,50.082536],[19.841966,50.082503],[19.842061,50.082504],[19.84206,50.082536],[19.841965,50.082536]]]}},{"type":"Feature","id":"w231208337","properties":{"type":"yes","residential":true,"residents_est":1,"h3_10":"8a1e05b68367fff","h3_11":"8b1e05b68365fff"},"geometry":{"type":"Polygon","coordinates":[[[19.842715,50.082227],[19.842728,50.082168],[19.84283,50.082177],[19.842818,50.082236],[19.842715,50.082227]]]}},{"type":"Feature","id":"w231208342","properties":{"type":"yes","address":"Zakliki z Mydlnik 16c","residential":true,"residents_est":40,"h3_10":"8a1e05b6834ffff","h3_11":"8b1e05b68348fff"},"geometry":{"type":"Polygon","coordinates":[[[19.844446,50.080557],[19.844457,50.08039],[19.845112,50.080415],[19.845101,50.080583],[19.844446,50.080557]]]}},{"type":"Feature","id":"w231208347","properties":{"type":"yes","residential":true,"residents_est":2,"h3_10":"8a1e05b6834ffff","h3_11":"8b1e05b68349fff"},"geometry":{"type":"Polygon","coordinates":[[[19.845037,50.080641],[19.845046,50.080581],[19.84523,50.080588],[19.845221,50.08065],[19.845037,50.080641]]]}},{"type":"Feature","id":"w231208350","properties":{"type":"yes","residential":true,"residents_est":2,"h3_10":"8a1e05b68367fff","h3_11":"8b1e05b68361fff"},"geometry":{"type":"Polygon","coordinates":[[[19.842931,50.08198],[19.842951,50.081921],[19.843115,50.081944],[19.843095,50.082003],[19.842931,50.08198]]]}},{"type":"Feature","id":"w231208351","properties":{"type":"yes","residential":true,"residents_est":1,"h3_10":"8a1e05b68367fff","h3_11":"8b1e05b68363fff"},"geometry":{"type":"Polygon","coordinates":[[[19.842602,50.081479],[19.842629,50.081432],[19.842728,50.081451],[19.842707,50.081499],[19.842602,50.081479]]]}},{"type":"Feature","id":"w231208385","properties":{"type":"yes","address":"Zakliki z Mydlnik 16d","residential":true,"residents_est":28,"h3_10":"8a1e05b6834ffff","h3_11":"8b1e05b68349fff"},"geometry":{"type":"Polygon","coordinates":[[[19.845101,50.080583],[19.845112,50.080415],[19.845577,50.080433],[19.845561,50.080601],[19.845101,50.080583]]]}},{"type":"Feature","id":"w231208392","properties":{"type":"yes","residential":true,"residents_est":1,"h3_10":"8a1e05b68367fff","h3_11":"8b1e05b68362fff"},"geometry":{"type":"Polygon","coordinates":[[[19.842278,50.081811],[19.842289,50.081751],[19.842385,50.081759],[19.842369,50.081821],[19.842278,50.081811]]]}},{"type":"Feature","id":"w231208398","properties":{"type":"yes","residential":true,"residents_est":1,"h3_10":"8a1e05b68367fff","h3_11":"8b1e05b68360fff"},"geometry":{"type":"Polygon","coordinates":[[[19.842497,50.082172],[19.842509,50.082123],[19.842671,50.082136],[19.84266,50.082185],[19.842497,50.082172]]]}},{"type":"Feature","id":"w231208402","properties":{"type":"yes","address":"Dobiesława Kurozwęckiego 26","residential":false,"residents_est":0,"h3_10":"8a1e05b68367fff","h3_11":"8b1e05b68362fff"},"geometry":{"type":"Polygon","coordinates":[[[19.841891,50.081774],[19.841922,50.081737],[19.842019,50.081772],[19.841987,50.081809],[19.841891,50.081774]]]}},{"type":"Feature","id":"w231208419","properties":{"type":"yes","address":"Mariana Hemara 30","residential":true,"residents_est":3,"h3_10":"8a1e05b68367fff","h3_11":"8b1e05b68361fff"},"geometry":{"type":"Polygon","coordinates":[[[19.843087,50.082077],[19.843124,50.081979],[19.84332,50.082008],[19.843302,50.082056],[19.843257,50.08205],[19.84324,50.0821],[19.843087,50.082077]]]}},{"type":"Feature","id":"w231208430","properties":{"type":"yes","address":"Mariana Hemara 19","residential":true,"residents_est":3,"h3_10":"8a1e05b6836ffff","h3_11":"8b1e05b6836cfff"},"geometry":{"type":"Polygon","coordinates":[[[19.843748,50.082078],[19.843955,50.082068],[19.843963,50.082136],[19.843756,50.082146],[19.843748,50.082078]]]}},{"type":"Feature","id":"w231208433","properties":{"type":"yes","address":"Dobiesława Kurozwęckiego 40","residential":true,"residents_est":3,"h3_10":"8a1e05b68347fff","h3_11":"8b1e05b68346fff"},"geometry":{"type":"Polygon","coordinates":[[[19.842296,50.080965],[19.842305,50.080827],[19.842457,50.080831],[19.84245,50.080945],[19.842427,50.080945],[19.842426,50.080968],[19.842296,50.080965]]]}},{"type":"Feature","id":"w231208439","properties":{"type":"yes","address":"Dobiesława Kurozwęckiego 21a","residential":true,"residents_est":1,"h3_10":"8a1e05b68367fff","h3_11":"8b1e05b68360fff"},"geometry":{"type":"Polygon","coordinates":[[[19.842435,50.082018],[19.842453,50.081944],[19.842526,50.081951],[19.842519,50.081983],[19.842553,50.081987],[19.842543,50.082029],[19.842435,50.082018]]]}},{"type":"Feature","id":"w231208441","properties":{"type":"yes","address":"Zakliki z Mydlnik 16b","residential":true,"residents_est":42,"h3_10":"8a1e05b6834ffff","h3_11":"8b1e05b6834dfff"},"geometry":{"type":"Polygon","coordinates":[[[19.844925,50.080968],[19.844957,50.080638],[19.845311,50.080655],[19.845275,50.080982],[19.844925,50.080968]]]}},{"type":"Feature","id":"w231208454","properties":{"type":"yes","address":"Dobiesława Kurozwęckiego 31","residential":true,"residents_est":2,"h3_10":"8a1e05b68347fff","h3_11":"8b1e05b68344fff"},"geometry":{"type":"Polygon","coordinates":[[[19.842683,50.081211],[19.842852,50.081206],[19.842852,50.081286],[19.842689,50.081287],[19.842683,50.081211]]]}},{"type":"Feature","id":"w231208456","properties":{"type":"yes","residential":false,"residents_est":0,"h3_10":"8a1e05b6834ffff","h3_11":"8b1e05b68349fff"},"geometry":{"type":"Polygon","coordinates":[[[19.845464,50.08072],[19.84547,50.080676],[19.845555,50.08068],[19.845549,50.080725],[19.845464,50.08072]]]}},{"type":"Feature","id":"w231208476","properties":{"type":"yes","address":"Mariana Hemara 28","residential":true,"residents_est":2,"h3_10":"8a1e05b68367fff","h3_11":"8b1e05b68360fff"},"geometry":{"type":"Polygon","coordinates":[[[19.842656,50.082096],[19.842683,50.08201],[19.842815,50.082026],[19.842777,50.082143],[19.842712,50.082138],[19.842723,50.082105],[19.842656,50.082096]]]}},{"type":"Feature","id":"w231208482","properties":{"type":"yes","address":"Dobiesława Kurozwęckiego 20","residential":true,"residents_est":2,"h3_10":"8a1e05b68367fff","h3_11":"8b1e05b68364fff"},"geometry":{"type":"Polygon","coordinates":[[[19.841936,50.082503],[19.841938,50.082405],[19.842095,50.082406],[19.842094,50.082456],[19.842062,50.082456],[19.842061,50.082504],[19.841936,50.082503]]]}},{"type":"Feature","id":"w231208488","properties":{"type":"yes","residential":true,"residents_est":1,"h3_10":"8a1e05b6834ffff","h3_11":"8b1e05b6834cfff"},"geometry":{"type":"Polygon","coordinates":[[[19.844263,50.080898],[19.844382,50.08084],[19.844401,50.080855],[19.844406,50.080873],[19.844298,50.080927],[19.844263,50.080898]]]}},{"type":"Feature","id":"w231208506","properties":{"type":"yes","residential":true,"residents_est":2,"h3_10":"8a1e05b68367fff","h3_11":"8b1e05b68363fff"},"geometry":{"type":"Polygon","coordinates":[[[19.842556,50.081596],[19.842602,50.081479],[19.842693,50.081497],[19.842653,50.081587],[19.842648,50.081586],[19.842636,50.081611],[19.842556,50.081596]]]}},{"type":"Feature","id":"w231208510","properties":{"type":"yes","address":"Dobiesława Kurozwęckiego 33","residential":true,"residents_est":2,"h3_10":"8a1e05b68347fff","h3_11":"8b1e05b68345fff"},"geometry":{"type":"Polygon","coordinates":[[[19.84287,50.081311],[19.842877,50.081292],[19.842897,50.081297],[19.842911,50.081267],[19.843072,50.081297],[19.843043,50.081358],[19.842883,50.081328],[19.842889,50.081315],[19.84287,50.081311]]]}},{"type":"Feature","id":"w231208516","properties":{"type":"yes","address":"Dobiesława Kurozwęckiego 39","residential":true,"residents_est":2,"h3_10":"8a1e05b68347fff","h3_11":"8b1e05b68340fff"},"geometry":{"type":"Polygon","coordinates":[[[19.842955,50.08103],[19.842966,50.081],[19.84299,50.081004],[19.843001,50.080973],[19.843141,50.080993],[19.843115,50.081075],[19.842975,50.081057],[19.842982,50.081034],[19.842955,50.08103]]]}},{"type":"Feature","id":"w231208520","properties":{"type":"house","address":"Dobiesława Kurozwęckiego 21","residential":true,"residents_est":4,"h3_10":"8a1e05b68367fff","h3_11":"8b1e05b68360fff"},"geometry":{"type":"Polygon","coordinates":[[[19.8423,50.082005],[19.842318,50.08193],[19.842453,50.081944],[19.842435,50.082018],[19.842399,50.082014],[19.842392,50.082043],[19.84233,50.082037],[19.842336,50.082009],[19.8423,50.082005]]]}},{"type":"Feature","id":"w231208524","properties":{"type":"yes","residential":true,"residents_est":4,"h3_10":"8a1e05b68347fff","h3_11":"8b1e05b68344fff"},"geometry":{"type":"Polygon","coordinates":[[[19.842325,50.081409],[19.842358,50.081329],[19.842422,50.08134],[19.842428,50.081328],[19.842465,50.081334],[19.84246,50.081347],[19.842588,50.081369],[19.842552,50.081449],[19.842325,50.081409]]]}},{"type":"Feature","id":"w231208534","properties":{"type":"yes","address":"Mariana Hemara 21","residential":true,"residents_est":2,"h3_10":"8a1e05b6836ffff","h3_11":"8b1e05b6836cfff"},"geometry":{"type":"Polygon","coordinates":[[[19.843752,50.081965],[19.843766,50.081871],[19.843917,50.081888],[19.843901,50.081949],[19.843834,50.081941],[19.843827,50.081972],[19.843752,50.081965]]]}},{"type":"Feature","id":"w231208551","properties":{"type":"yes","residential":true,"residents_est":1,"h3_10":"8a1e05b68367fff","h3_11":"8b1e05b68360fff"},"geometry":{"type":"Polygon","coordinates":[[[19.842509,50.082123],[19.842518,50.082083],[19.842581,50.08209],[19.842595,50.082034],[19.842631,50.082036],[19.84261,50.08213],[19.842509,50.082123]]]}},{"type":"Feature","id":"w231208553","properties":{"type":"yes","residential":true,"residents_est":3,"h3_10":"8a1e05b68347fff","h3_11":"8b1e05b68340fff"},"geometry":{"type":"Polygon","coordinates":[[[19.842879,50.080771],[19.842886,50.080681],[19.843118,50.080687],[19.843114,50.080755],[19.842947,50.080751],[19.842945,50.080773],[19.842879,50.080771]]]}},{"type":"Feature","id":"w232081809","properties":{"type":"house","address":"Jadwigi Majówny 76B","residential":true,"residents_est":6,"h3_10":"8a1e05b68297fff","h3_11":"8b1e05b68290fff"},"geometry":{"type":"Polygon","coordinates":[[[19.835902,50.074953],[19.835903,50.07493],[19.836002,50.0749],[19.836006,50.074886],[19.836082,50.074895],[19.836061,50.075001],[19.835925,50.074992],[19.835929,50.074953],[19.835902,50.074953]]]}},{"type":"Feature","id":"w232081977","properties":{"type":"yes","address":"Jadwigi Majówny 68b","residential":true,"residents_est":3,"h3_10":"8a1e05b6829ffff","h3_11":"8b1e05b6829afff"},"geometry":{"type":"Polygon","coordinates":[[[19.837474,50.074234],[19.837493,50.074231],[19.837484,50.074203],[19.837611,50.074187],[19.837626,50.074233],[19.837646,50.074235],[19.837651,50.074251],[19.837633,50.074258],[19.837642,50.074287],[19.837514,50.074303],[19.837506,50.074275],[19.837487,50.074277],[19.837474,50.074234]]]}},{"type":"Feature","id":"w232082306","properties":{"type":"yes","address":"Jadwigi Majówny 74","residential":true,"residents_est":2,"h3_10":"8a1e05b68297fff","h3_11":"8b1e05b68294fff"},"geometry":{"type":"Polygon","coordinates":[[[19.835835,50.075548],[19.835875,50.075471],[19.835995,50.075497],[19.835955,50.075573],[19.835835,50.075548]]]}},{"type":"Feature","id":"w232082377","properties":{"type":"yes","address":"Jadwigi Majówny 72","residential":true,"residents_est":2,"h3_10":"8a1e05b68297fff","h3_11":"8b1e05b68290fff"},"geometry":{"type":"Polygon","coordinates":[[[19.836309,50.075107],[19.836332,50.07502],[19.836474,50.075037],[19.83645,50.075122],[19.836386,50.075116],[19.836383,50.075128],[19.836347,50.075124],[19.83635,50.075112],[19.836309,50.075107]]]}},{"type":"Feature","id":"w232082429","properties":{"type":"yes","residential":false,"residents_est":0,"h3_10":"8a1e05b68387fff","h3_11":"8b1e05b68381fff"},"geometry":{"type":"Polygon","coordinates":[[[19.836136,50.078242],[19.836229,50.078234],[19.836237,50.078275],[19.836145,50.078284],[19.836136,50.078242]]]}},{"type":"Feature","id":"w232082524","properties":{"type":"house","address":"Jadwigi Majówny 80","residential":true,"residents_est":5,"h3_10":"8a1e05b68297fff","h3_11":"8b1e05b68296fff"},"geometry":{"type":"Polygon","coordinates":[[[19.835193,50.075155],[19.835202,50.075073],[19.835354,50.07508],[19.835346,50.075163],[19.835193,50.075155]]]}},{"type":"Feature","id":"w232082557","properties":{"type":"yes","residential":true,"residents_est":2,"h3_10":"8a1e05b68297fff","h3_11":"8b1e05b68294fff"},"geometry":{"type":"Polygon","coordinates":[[[19.836016,50.075307],[19.836042,50.075236],[19.836153,50.075256],[19.836127,50.075324],[19.836016,50.075307]]]}},{"type":"Feature","id":"w232082763","properties":{"type":"house","address":"Podkamyk 7","residential":true,"residents_est":4,"h3_10":"8a1e05b683a7fff","h3_11":"8b1e05b683a6fff"},"geometry":{"type":"Polygon","coordinates":[[[19.834281,50.079594],[19.834315,50.079514],[19.83445,50.079538],[19.834415,50.079619],[19.834281,50.079594]]]}},{"type":"Feature","id":"w232082922","properties":{"type":"yes","residential":false,"residents_est":0,"h3_10":"8a1e05b6829ffff","h3_11":"8b1e05b6829afff"},"geometry":{"type":"Polygon","coordinates":[[[19.837676,50.074101],[19.837705,50.074097],[19.837701,50.074084],[19.837728,50.07408],[19.837758,50.074172],[19.837703,50.074179],[19.837676,50.074101]]]}},{"type":"Feature","id":"w232083371","properties":{"type":"yes","address":"Jadwigi Majówny 78","residential":true,"residents_est":3,"h3_10":"8a1e05b68297fff","h3_11":"8b1e05b68296fff"},"geometry":{"type":"Polygon","coordinates":[[[19.835446,50.0752],[19.835478,50.075127],[19.835648,50.075155],[19.835606,50.075252],[19.835554,50.075243],[19.835565,50.075219],[19.835446,50.0752]]]}},{"type":"Feature","id":"w232083415","properties":{"type":"yes","residential":false,"residents_est":0,"h3_10":"8a1e05b68297fff","h3_11":"8b1e05b68293fff"},"geometry":{"type":"Polygon","coordinates":[[[19.836687,50.0746],[19.836695,50.074531],[19.836756,50.074535],[19.836748,50.074603],[19.836687,50.0746]]]}},{"type":"Feature","id":"w232083698","properties":{"type":"yes","residential":true,"residents_est":1,"h3_10":"8a1e05b68297fff","h3_11":"8b1e05b68294fff"},"geometry":{"type":"Polygon","coordinates":[[[19.836181,50.075263],[19.836199,50.07521],[19.836332,50.07523],[19.836314,50.075283],[19.836181,50.075263]]]}},{"type":"Feature","id":"w232083985","properties":{"type":"yes","residential":false,"residents_est":0,"h3_10":"8a1e05b68297fff","h3_11":"8b1e05b68292fff"},"geometry":{"type":"Polygon","coordinates":[[[19.835846,50.074578],[19.835904,50.074573],[19.835914,50.074631],[19.835857,50.074635],[19.835846,50.074578]]]}},{"type":"Feature","id":"w232084766","properties":{"type":"yes","address":"Podkamyk 14","residential":true,"residents_est":3,"h3_10":"8a1e05b6839ffff","h3_11":"8b1e05b6839efff"},"geometry":{"type":"Polygon","coordinates":[[[19.834662,50.077064],[19.834864,50.077049],[19.834873,50.077092],[19.834802,50.077098],[19.834812,50.077143],[19.834728,50.077151],[19.834733,50.077176],[19.834687,50.07718],[19.834662,50.077064]]]}},{"type":"Feature","id":"w232084869","properties":{"type":"yes","address":"Jadwigi Majówny 76","residential":true,"residents_est":1,"h3_10":"8a1e05b68297fff","h3_11":"8b1e05b68294fff"},"geometry":{"type":"Polygon","coordinates":[[[19.835666,50.075277],[19.835694,50.075216],[19.835789,50.075234],[19.835749,50.07531],[19.835713,50.075303],[19.835721,50.075287],[19.835666,50.075277]]]}},{"type":"Feature","id":"w232084912","properties":{"type":"yes","residential":true,"residents_est":3,"h3_10":"8a1e05b68297fff","h3_11":"8b1e05b68292fff"},"geometry":{"type":"Polygon","coordinates":[[[19.835581,50.074573],[19.835639,50.074573],[19.835639,50.074551],[19.835752,50.074547],[19.835754,50.074583],[19.835789,50.074583],[19.83579,50.074628],[19.835582,50.074637],[19.835581,50.074573]]]}},{"type":"Feature","id":"w232085118","properties":{"type":"yes","address":"Jadwigi Majówny 76A","residential":true,"residents_est":3,"h3_10":"8a1e05b68297fff","h3_11":"8b1e05b68296fff"},"geometry":{"type":"Polygon","coordinates":[[[19.835823,50.075133],[19.835847,50.075037],[19.835985,50.075049],[19.835959,50.075145],[19.835823,50.075133]]]}},{"type":"Feature","id":"w232085160","properties":{"type":"yes","address":"Podkamyk 16","residential":true,"residents_est":3,"h3_10":"8a1e05b68387fff","h3_11":"8b1e05b68381fff"},"geometry":{"type":"Polygon","coordinates":[[[19.836032,50.078181],[19.836048,50.078179],[19.836042,50.078149],[19.836095,50.078144],[19.836101,50.078173],[19.836213,50.078162],[19.836229,50.078233],[19.836048,50.07825],[19.836032,50.078181]]]}},{"type":"Feature","id":"w232085196","properties":{"type":"yes","address":"Jadwigi Majówny 70","residential":true,"residents_est":1,"h3_10":"8a1e05b68297fff","h3_11":"8b1e05b68293fff"},"geometry":{"type":"Polygon","coordinates":[[[19.836578,50.074595],[19.836586,50.074526],[19.836694,50.074531],[19.836687,50.0746],[19.836578,50.074595]]]}},{"type":"Feature","id":"w575298190","properties":{"type":"yes","residential":false,"residents_est":0,"h3_10":"8a1e05b68387fff","h3_11":"8b1e05b68384fff"},"geometry":{"type":"Polygon","coordinates":[[[19.834865,50.078573],[19.834883,50.078535],[19.83496,50.078551],[19.834941,50.078588],[19.834865,50.078573]]]}},{"type":"Feature","id":"w717877741","properties":{"type":"yes","residential":false,"residents_est":0,"h3_10":"8a1e05b6829ffff","h3_11":"8b1e05b6829afff"},"geometry":{"type":"Polygon","coordinates":[[[19.837544,50.074138],[19.837594,50.074132],[19.837611,50.074187],[19.837562,50.074193],[19.837544,50.074138]]]}},{"type":"Feature","id":"w717877745","properties":{"type":"yes","residential":false,"residents_est":0,"h3_10":"8a1e05b68387fff","h3_11":"8b1e05b68381fff"},"geometry":{"type":"Polygon","coordinates":[[[19.836144,50.078298],[19.836226,50.078294],[19.836231,50.078339],[19.836151,50.078344],[19.836144,50.078298]]]}},{"type":"Feature","id":"w717877875","properties":{"type":"yes","residential":false,"residents_est":0,"h3_10":"8a1e05b68297fff","h3_11":"8b1e05b68293fff"},"geometry":{"type":"Polygon","coordinates":[[[19.836538,50.074593],[19.836546,50.074524],[19.836586,50.074526],[19.836578,50.074595],[19.836538,50.074593]]]}},{"type":"Feature","id":"w717877877","properties":{"type":"yes","residential":false,"residents_est":0,"h3_10":"8a1e05b68297fff","h3_11":"8b1e05b68296fff"},"geometry":{"type":"Polygon","coordinates":[[[19.835765,50.075135],[19.835773,50.075095],[19.835831,50.075101],[19.835823,50.075133],[19.835833,50.075135],[19.835832,50.07514],[19.835765,50.075135]]]}},{"type":"Feature","id":"w717877878","properties":{"type":"yes","residential":false,"residents_est":0,"h3_10":"8a1e05b68297fff","h3_11":"8b1e05b68294fff"},"geometry":{"type":"Polygon","coordinates":[[[19.835879,50.075282],[19.835894,50.075243],[19.835963,50.075253],[19.835945,50.075292],[19.835879,50.075282]]]}},{"type":"Feature","id":"w719959134","properties":{"type":"service","residential":false,"residents_est":0,"h3_10":"8a1e05b6835ffff","h3_11":"8b1e05b6835dfff"},"geometry":{"type":"Polygon","coordinates":[[[19.84341,50.080034],[19.843422,50.080025],[19.843422,50.080008],[19.843439,50.079996],[19.843463,50.079994],[19.843483,50.080006],[19.843484,50.080021],[19.843466,50.080034],[19.843441,50.080036],[19.843429,50.080045],[19.84341,50.080034]]]}},{"type":"Feature","id":"w719959135","properties":{"type":"yes","residential":true,"residents_est":15,"h3_10":"8a1e05b6834ffff","h3_11":"8b1e05b6834efff"},"geometry":{"type":"Polygon","coordinates":[[[19.84394,50.080565],[19.843966,50.080364],[19.84417,50.080375],[19.844159,50.08046],[19.84408,50.080455],[19.844069,50.080538],[19.844149,50.080607],[19.844046,50.080657],[19.84394,50.080565]]]}},{"type":"Feature","id":"w719959138","properties":{"type":"yes","residential":false,"residents_est":0,"h3_10":"8a1e05b6834ffff","h3_11":"8b1e05b6834dfff"},"geometry":{"type":"Polygon","coordinates":[[[19.844865,50.08107],[19.844871,50.081046],[19.844957,50.081055],[19.844952,50.081078],[19.844865,50.08107]]]}},{"type":"Feature","id":"w719959139","properties":{"type":"yes","residential":false,"residents_est":0,"h3_10":"8a1e05b6836ffff","h3_11":"8b1e05b6836bfff"},"geometry":{"type":"Polygon","coordinates":[[[19.844908,50.081227],[19.844926,50.081153],[19.84498,50.08116],[19.844968,50.081241],[19.844908,50.081227]]]}}]}