{"type":"FeatureCollection","features":[{"type":"Feature","id":"w233371381","properties":{"type":"detached","levels":4.0,"residential":true,"residents_est":25,"h3_10":"8a1e2e6b2377fff","h3_11":"8b1e2e6b2371fff"},"geometry":{"type":"Polygon","coordinates":[[[19.910743,50.045687],[19.910773,50.045686],[19.910771,50.045658],[19.910798,50.045657],[19.910798,50.045642],[19.910953,50.045478],[19.911017,50.04549],[19.911023,50.045589],[19.911006,50.045589],[19.911007,50.045603],[19.911025,50.045602],[19.911036,50.045737],[19.911019,50.045738],[19.91102,50.045757],[19.910972,50.045751],[19.910971,50.045739],[19.910905,50.045742],[19.910903,50.045727],[19.910804,50.045731],[19.910748,50.045727],[19.910743,50.045687]]]}},{"type":"Feature","id":"w233371384","properties":{"type":"yes","levels":1.0,"residential":true,"residents_est":1,"h3_10":"8a1e2e6b2347fff","h3_11":"8b1e2e6b2341fff"},"geometry":{"type":"Polygon","coordinates":[[[19.912219,50.045235],[19.912249,50.04521],[19.912236,50.045204],[19.912234,50.045194],[19.912247,50.045183],[19.912262,50.045182],[19.912275,50.045189],[19.912305,50.045163],[19.912422,50.045222],[19.912335,50.045293],[19.912219,50.045235]]]}},{"type":"Feature","id":"w233371387","properties":{"type":"terrace","levels":2.0,"residential":true,"residents_est":4,"h3_10":"8a1e2e6b2347fff","h3_11":"8b1e2e6b2343fff"},"geometry":{"type":"Polygon","coordinates":[[[19.911802,50.045052],[19.911839,50.045041],[19.911833,50.045033],[19.911841,50.045021],[19.911856,50.045016],[19.911875,50.04502],[19.911881,50.045028],[19.911928,50.045013],[19.911989,50.0451],[19.911911,50.045124],[19.911927,50.045148],[19.91188,50.045162],[19.911802,50.045052]]]}},{"type":"Feature","id":"w233371388","properties":{"type":"yes","levels":2.0,"residential":true,"residents_est":5,"h3_10":"8a1e2e6b2357fff","h3_11":"8b1e2e6b2351fff"},"geometry":{"type":"Polygon","coordinates":[[[19.911154,50.044657],[19.91121,50.044538],[19.91127,50.044546],[19.911263,50.044571],[19.911403,50.044592],[19.911415,50.044551],[19.911425,50.044552],[19.911436,50.044517],[19.911507,50.044521],[19.911477,50.044712],[19.911436,50.044705],[19.911444,50.044683],[19.911227,50.04465],[19.911222,50.044666],[19.911154,50.044657]]]}},{"type":"Feature","id":"w233371395","properties":{"type":"detached","levels":2.0,"residential":true,"residents_est":8,"h3_10":"8a1e2e6b235ffff","h3_11":"8b1e2e6b235efff"},"geometry":{"type":"Polygon","coordinates":[[[19.911328,50.044135],[19.911338,50.044065],[19.91149,50.044075],[19.9115,50.043998],[19.911586,50.044006],[19.911545,50.044235],[19.911468,50.04423],[19.911481,50.044144],[19.911328,50.044135]]]}},{"type":"Feature","id":"w233371398","properties":{"type":"yes","levels":1.0,"residential":true,"residents_est":1,"h3_10":"8a1e2e6b2347fff","h3_11":"8b1e2e6b2345fff"},"geometry":{"type":"Polygon","coordinates":[[[19.911779,50.045594],[19.911809,50.045569],[19.911796,50.045563],[19.911795,50.045553],[19.911808,50.045543],[19.911823,50.045541],[19.911836,50.045548],[19.911867,50.045522],[19.911982,50.045581],[19.911894,50.045653],[19.911779,50.045594]]]}},{"type":"Feature","id":"w233371399","properties":{"type":"terrace","levels":2.0,"residential":true,"residents_est":4,"h3_10":"8a1e2e6b2347fff","h3_11":"8b1e2e6b2343fff"},"geometry":{"type":"Polygon","coordinates":[[[19.911918,50.045],[19.911954,50.044988],[19.911949,50.04498],[19.911955,50.044968],[19.911973,50.044963],[19.911991,50.044967],[19.911997,50.044976],[19.912042,50.044962],[19.912104,50.045049],[19.912024,50.045071],[19.912042,50.045098],[19.911996,50.045111],[19.911918,50.045]]]}},{"type":"Feature","id":"w233371405","properties":{"type":"yes","levels":1.0,"residential":true,"residents_est":1,"h3_10":"8a1e2e6b2347fff","h3_11":"8b1e2e6b2345fff"},"geometry":{"type":"Polygon","coordinates":[[[19.911691,50.045667],[19.911723,50.04564],[19.91171,50.045634],[19.911709,50.045624],[19.911722,50.045613],[19.911737,50.045612],[19.911749,50.045619],[19.911779,50.045594],[19.911894,50.045653],[19.911806,50.045725],[19.911691,50.045667]]]}},{"type":"Feature","id":"w233371408","properties":{"type":"terrace","levels":2.0,"residential":true,"residents_est":4,"h3_10":"8a1e2e6b2347fff","h3_11":"8b1e2e6b2343fff"},"geometry":{"type":"Polygon","coordinates":[[[19.912025,50.044938],[19.912103,50.044914],[19.912121,50.04494],[19.912175,50.044924],[19.91223,50.045002],[19.912215,50.045007],[19.912219,50.045014],[19.912213,50.045027],[19.912199,50.045032],[19.912178,50.045026],[19.912173,50.045019],[19.912146,50.045028],[19.912165,50.045053],[19.912117,50.045067],[19.912025,50.044938]]]}},{"type":"Feature","id":"w233371409","properties":{"type":"garage","residential":false,"residents_est":0,"h3_10":"8a1e2e6b222ffff","h3_11":"8b1e2e6b222dfff"},"geometry":{"type":"Polygon","coordinates":[[[19.910716,50.043881],[19.910729,50.043827],[19.910816,50.043835],[19.910804,50.04389],[19.910716,50.043881]]]}},{"type":"Feature","id":"w233371421","properties":{"type":"terrace","levels":2.0,"residential":true,"residents_est":4,"h3_10":"8a1e2e6b2347fff","h3_11":"8b1e2e6b2343fff"},"geometry":{"type":"Polygon","coordinates":[[[19.912167,50.044917],[19.912217,50.044902],[19.912212,50.044896],[19.912215,50.044883],[19.912235,50.044876],[19.912253,50.044881],[19.912259,50.04489],[19.912293,50.044879],[19.912375,50.044989],[19.912334,50.045001],[19.912318,50.044977],[19.91223,50.045002],[19.912167,50.044917]]]}},{"type":"Feature","id":"w233371448","properties":{"type":"terrace","levels":2.0,"residential":true,"residents_est":4,"h3_10":"8a1e2e6b2347fff","h3_11":"8b1e2e6b2343fff"},"geometry":{"type":"Polygon","coordinates":[[[19.912278,50.044857],[19.912357,50.044834],[19.912377,50.044864],[19.912426,50.044848],[19.912481,50.044927],[19.912468,50.044931],[19.912472,50.044938],[19.912465,50.044951],[19.912453,50.044954],[19.912434,50.044949],[19.91243,50.044942],[19.912401,50.04495],[19.912418,50.044976],[19.912375,50.044989],[19.912278,50.044857]]]}},{"type":"Feature","id":"w233371472","properties":{"type":"terrace","levels":2.0,"residential":true,"residents_est":4,"h3_10":"8a1e2e6b234ffff","h3_11":"8b1e2e6b234efff"},"geometry":{"type":"Polygon","coordinates":[[[19.912426,50.044848],[19.912474,50.044834],[19.912454,50.044807],[19.912533,50.044783],[19.912627,50.044914],[19.912585,50.044927],[19.912565,50.0449],[19.91254,50.044908],[19.912545,50.044916],[19.912538,50.04493],[19.912522,50.044935],[19.912495,50.044923],[19.912481,50.044927],[19.912426,50.044848]]]}},{"type":"Feature","id":"w233371477","properties":{"type":"terrace","levels":2.0,"residential":true,"residents_est":4,"h3_10":"8a1e2e6b234ffff","h3_11":"8b1e2e6b234efff"},"geometry":{"type":"Polygon","coordinates":[[[19.912533,50.044783],[19.912613,50.044758],[19.912633,50.044787],[19.912682,50.044772],[19.912737,50.044851],[19.912721,50.044856],[19.912726,50.044862],[19.912721,50.044873],[19.912703,50.044879],[19.912686,50.044876],[19.91268,50.044867],[19.912654,50.044876],[19.912673,50.0449],[19.912627,50.044914],[19.912533,50.044783]]]}},{"type":"Feature","id":"w233371482","properties":{"type":"terrace","levels":2.0,"residential":true,"residents_est":4,"h3_10":"8a1e2e6b234ffff","h3_11":"8b1e2e6b234efff"},"geometry":{"type":"Polygon","coordinates":[[[19.912673,50.044766],[19.912725,50.044751],[19.912718,50.044743],[19.912724,50.044732],[19.912744,50.044726],[19.912761,50.04473],[19.912767,50.044738],[19.9128,50.044728],[19.912878,50.044839],[19.912839,50.044851],[19.91282,50.044826],[19.912737,50.044851],[19.912673,50.044766]]]}},{"type":"Feature","id":"w233371489","properties":{"type":"terrace","levels":2.0,"residential":true,"residents_est":4,"h3_10":"8a1e2e6b234ffff","h3_11":"8b1e2e6b234efff"},"geometry":{"type":"Polygon","coordinates":[[[19.912786,50.044708],[19.91286,50.044685],[19.91288,50.044712],[19.912934,50.044694],[19.91299,50.044773],[19.912975,50.044778],[19.912979,50.044784],[19.912975,50.044797],[19.912954,50.044803],[19.912937,50.044798],[19.912931,50.04479],[19.912903,50.044799],[19.912924,50.044826],[19.912878,50.044839],[19.912786,50.044708]]]}},{"type":"Feature","id":"w233371500","properties":{"type":"yes","levels":2.0,"residential":true,"residents_est":2,"h3_10":"8a1e2e6b2347fff","h3_11":"8b1e2e6b2341fff"},"geometry":{"type":"Polygon","coordinates":[[[19.912129,50.045307],[19.91216,50.045282],[19.912147,50.045275],[19.912146,50.045265],[19.912159,50.045254],[19.912174,50.045253],[19.912186,50.04526],[19.912216,50.045235],[19.912334,50.045295],[19.912246,50.045367],[19.912129,50.045307]]]}},{"type":"Feature","id":"w233371520","properties":{"type":"yes","residential":true,"residents_est":3,"h3_10":"8a1e2e6b2317fff","h3_11":"8b1e2e6b2313fff"},"geometry":{"type":"Polygon","coordinates":[[[19.90531,50.044279],[19.905331,50.044182],[19.905564,50.044202],[19.905543,50.0443],[19.90531,50.044279]]]}},{"type":"Feature","id":"w233371521","properties":{"type":"yes","levels":4.0,"residential":true,"residents_est":8,"h3_10":"8a1e2e6b23affff","h3_11":"8b1e2e6b23adfff"},"geometry":{"type":"Polygon","coordinates":[[[19.906151,50.043764],[19.906205,50.043629],[19.906415,50.043664],[19.906392,50.043721],[19.906385,50.04372],[19.906377,50.043741],[19.906383,50.043742],[19.90636,50.043799],[19.906151,50.043764]]]}},{"type":"Feature","id":"w233371522","properties":{"type":"yes","levels":4.0,"residential":true,"residents_est":10,"h3_10":"8a1e2e6b231ffff","h3_11":"8b1e2e6b231afff"},"geometry":{"type":"Polygon","coordinates":[[[19.906558,50.043949],[19.90656,50.043945],[19.906616,50.043956],[19.906639,50.043907],[19.906582,50.043897],[19.906591,50.04388],[19.907038,50.043967],[19.906993,50.044062],[19.906906,50.044045],[19.90691,50.044037],[19.906872,50.044027],[19.906747,50.044002],[19.906701,50.043996],[19.906697,50.044004],[19.906574,50.04398],[19.906587,50.043955],[19.906558,50.043949]]]}},{"type":"Feature","id":"w233371531","properties":{"type":"yes","levels":1.0,"residential":true,"residents_est":1,"h3_10":"8a1e2e6b2347fff","h3_11":"8b1e2e6b2341fff"},"geometry":{"type":"Polygon","coordinates":[[[19.912041,50.045379],[19.91207,50.045355],[19.912058,50.045349],[19.912056,50.045339],[19.912069,50.045328],[19.912084,50.045327],[19.912097,50.045334],[19.912129,50.045307],[19.912244,50.045366],[19.912156,50.045437],[19.912041,50.045379]]]}},{"type":"Feature","id":"w233371547","properties":{"type":"yes","levels":1.0,"residential":true,"residents_est":1,"h3_10":"8a1e2e6b2347fff","h3_11":"8b1e2e6b2340fff"},"geometry":{"type":"Polygon","coordinates":[[[19.911954,50.045451],[19.911985,50.045425],[19.911972,50.045419],[19.911971,50.045409],[19.911984,50.045398],[19.911998,50.045397],[19.912011,50.045404],[19.912041,50.045379],[19.912156,50.045437],[19.91207,50.045509],[19.911954,50.045451]]]}},{"type":"Feature","id":"w233371561","properties":{"type":"yes","levels":1.0,"residential":true,"residents_est":1,"h3_10":"8a1e2e6b2347fff","h3_11":"8b1e2e6b2345fff"},"geometry":{"type":"Polygon","coordinates":[[[19.911867,50.045522],[19.911897,50.045497],[19.911885,50.045491],[19.911883,50.045481],[19.911896,50.045471],[19.911911,50.045469],[19.911924,50.045476],[19.911954,50.045451],[19.91207,50.045509],[19.911982,50.045581],[19.911867,50.045522]]]}},{"type":"Feature","id":"w233371603","properties":{"type":"hotel","levels":4.0,"address":"Jana Pietrusińskiego 12","name":"Petrus","residential":false,"residents_est":0,"h3_10":"8a1e2e6b2357fff","h3_11":"8b1e2e6b2351fff"},"geometry":{"type":"Polygon","coordinates":[[[19.910764,50.044437],[19.910801,50.044302],[19.910891,50.044313],[19.9109,50.044315],[19.910878,50.044376],[19.911097,50.044488],[19.911008,50.044562],[19.910764,50.044437]]]}},{"type":"Feature","id":"w233371620","properties":{"type":"commercial","address":"Praska 52","residential":false,"residents_est":0,"h3_10":"8a1e2e6b2367fff","h3_11":"8b1e2e6b2362fff"},"geometry":{"type":"Polygon","coordinates":[[[19.910371,50.046109],[19.910479,50.046002],[19.910564,50.046039],[19.910578,50.046028],[19.910604,50.046021],[19.910633,50.046024],[19.91066,50.046039],[19.910663,50.046051],[19.910652,50.046076],[19.910817,50.046143],[19.910918,50.046042],[19.910924,50.046008],[19.911011,50.046013],[19.911005,50.046053],[19.911078,50.046057],[19.911077,50.046065],[19.911047,50.046098],[19.910804,50.04634],[19.910637,50.046276],[19.91066,50.046252],[19.910611,50.046231],[19.910628,50.046215],[19.910371,50.046109]]]}},{"type":"Feature","id":"w233371690","properties":{"type":"terrace","levels":2.0,"residential":true,"residents_est":4,"h3_10":"8a1e2e6b222ffff","h3_11":"8b1e2e6b2229fff"},"geometry":{"type":"Polygon","coordinates":[[[19.911065,50.043679],[19.911091,50.043582],[19.911102,50.043583],[19.911115,50.043535],[19.911237,50.043548],[19.911213,50.043638],[19.911166,50.043633],[19.91115,50.043688],[19.911065,50.043679]]]}},{"type":"Feature","id":"w233371784","properties":{"type":"terrace","levels":1.0,"residential":true,"residents_est":2,"h3_10":"8a1e2e6b2347fff","h3_11":"8b1e2e6b2344fff"},"geometry":{"type":"Polygon","coordinates":[[[19.911356,50.045686],[19.911503,50.045681],[19.911505,50.045706],[19.911537,50.045711],[19.911537,50.045725],[19.911525,50.045736],[19.911507,50.045736],[19.911511,50.045772],[19.911364,50.045777],[19.911356,50.045686]]]}},{"type":"Feature","id":"w233371801","properties":{"type":"terrace","levels":1.0,"residential":true,"residents_est":2,"h3_10":"8a1e2e6b2347fff","h3_11":"8b1e2e6b2344fff"},"geometry":{"type":"Polygon","coordinates":[[[19.911348,50.045595],[19.911495,50.04559],[19.911497,50.045621],[19.911531,50.045626],[19.911531,50.045642],[19.911517,50.045651],[19.9115,50.045652],[19.911503,50.045681],[19.911356,50.045686],[19.911348,50.045595]]]}},{"type":"Feature","id":"w233371810","properties":{"type":"terrace","levels":1.0,"residential":true,"residents_est":2,"h3_10":"8a1e2e6b2347fff","h3_11":"8b1e2e6b2344fff"},"geometry":{"type":"Polygon","coordinates":[[[19.911364,50.045777],[19.911511,50.045772],[19.911513,50.0458],[19.911534,50.045799],[19.911544,50.045807],[19.911545,50.045823],[19.911537,50.045831],[19.911516,50.045832],[19.911519,50.045863],[19.911372,50.045868],[19.911364,50.045777]]]}},{"type":"Feature","id":"w233371820","properties":{"type":"detached","levels":1.0,"residential":true,"residents_est":2,"h3_10":"8a1e2e6b2267fff","h3_11":"8b1e2e6b2264fff"},"geometry":{"type":"Polygon","coordinates":[[[19.913514,50.044116],[19.913545,50.044111],[19.913525,50.044057],[19.913563,50.044052],[19.913567,50.044062],[19.913687,50.044043],[19.913719,50.044132],[19.913599,50.044151],[19.913602,50.044158],[19.913533,50.044168],[19.913514,50.044116]]]}},{"type":"Feature","id":"w233371822","properties":{"type":"detached","levels":1.0,"residential":true,"residents_est":2,"h3_10":"8a1e2e6b2267fff","h3_11":"8b1e2e6b2260fff"},"geometry":{"type":"Polygon","coordinates":[[[19.913806,50.043759],[19.913854,50.043752],[19.913858,50.043762],[19.913975,50.043744],[19.914008,50.043832],[19.913837,50.043859],[19.913836,50.043868],[19.913818,50.04382],[19.913829,50.043818],[19.913806,50.043759]]]}},{"type":"Feature","id":"w233371833","properties":{"type":"detached","levels":1.0,"residential":true,"residents_est":2,"h3_10":"8a1e2e6b2267fff","h3_11":"8b1e2e6b2264fff"},"geometry":{"type":"Polygon","coordinates":[[[19.91331,50.044092],[19.913338,50.044088],[19.913318,50.044033],[19.913362,50.044027],[19.913367,50.04404],[19.913476,50.044021],[19.913513,50.044108],[19.913391,50.044128],[19.913394,50.044134],[19.913331,50.044144],[19.91331,50.044092]]]}},{"type":"Feature","id":"w233371851","properties":{"type":"detached","levels":2.0,"residential":true,"residents_est":4,"h3_10":"8a1e2e6b235ffff","h3_11":"8b1e2e6b235dfff"},"geometry":{"type":"Polygon","coordinates":[[[19.912408,50.044371],[19.912451,50.044363],[19.912455,50.044372],[19.912561,50.044355],[19.912578,50.044396],[19.912614,50.04439],[19.912632,50.044435],[19.912484,50.044461],[19.912477,50.044446],[19.91244,50.044452],[19.912408,50.044371]]]}},{"type":"Feature","id":"w233371954","properties":{"type":"detached","levels":1.0,"residential":true,"residents_est":2,"h3_10":"8a1e2e6b2267fff","h3_11":"8b1e2e6b2266fff"},"geometry":{"type":"Polygon","coordinates":[[[19.912895,50.044048],[19.912925,50.044043],[19.912904,50.043987],[19.912946,50.043982],[19.912949,50.04399],[19.913066,50.043974],[19.913096,50.044063],[19.912914,50.04409],[19.912917,50.044097],[19.912912,50.044098],[19.912895,50.044048]]]}},{"type":"Feature","id":"w233371966","properties":{"type":"detached","levels":1.0,"residential":true,"residents_est":1,"h3_10":"8a1e2e6b2357fff","h3_11":"8b1e2e6b2353fff"},"geometry":{"type":"Polygon","coordinates":[[[19.910543,50.04401],[19.910581,50.043933],[19.91062,50.043941],[19.910627,50.043925],[19.910665,50.043933],[19.910657,50.043948],[19.91069,50.043955],[19.910658,50.044021],[19.910625,50.044014],[19.91062,50.044026],[19.910543,50.04401]]]}},{"type":"Feature","id":"w233371996","properties":{"type":"detached","levels":2.0,"residential":true,"residents_est":3,"h3_10":"8a1e2e6b235ffff","h3_11":"8b1e2e6b235dfff"},"geometry":{"type":"Polygon","coordinates":[[[19.91223,50.04442],[19.912268,50.044414],[19.912272,50.044423],[19.912382,50.044406],[19.912397,50.044447],[19.912421,50.044443],[19.912439,50.044491],[19.912306,50.044511],[19.912292,50.044472],[19.912252,50.044478],[19.91223,50.04442]]]}},{"type":"Feature","id":"w233372280","properties":{"type":"detached","levels":2.0,"residential":true,"residents_est":4,"h3_10":"8a1e2e6b235ffff","h3_11":"8b1e2e6b2359fff"},"geometry":{"type":"Polygon","coordinates":[[[19.912586,50.044319],[19.91262,50.044313],[19.912623,50.044321],[19.912737,50.044303],[19.912753,50.044345],[19.912793,50.044339],[19.91281,50.044383],[19.912665,50.044406],[19.912651,50.044369],[19.912615,50.044375],[19.91262,50.044387],[19.912614,50.044388],[19.912586,50.044319]]]}},{"type":"Feature","id":"w233372299","properties":{"type":"detached","levels":2.0,"residential":true,"residents_est":5,"h3_10":"8a1e2e6b235ffff","h3_11":"8b1e2e6b235cfff"},"geometry":{"type":"Polygon","coordinates":[[[19.91168,50.044573],[19.911733,50.044564],[19.911737,50.044575],[19.911865,50.044554],[19.911887,50.044612],[19.911896,50.04461],[19.911908,50.044643],[19.911774,50.044665],[19.911777,50.044674],[19.911711,50.044685],[19.91169,50.04463],[19.911702,50.044628],[19.91168,50.044573]]]}},{"type":"Feature","id":"w233372312","properties":{"type":"detached","levels":1.0,"residential":true,"residents_est":2,"h3_10":"8a1e2e6b2267fff","h3_11":"8b1e2e6b2266fff"},"geometry":{"type":"Polygon","coordinates":[[[19.913096,50.04407],[19.913131,50.044064],[19.913111,50.04401],[19.91315,50.044005],[19.913154,50.044015],[19.913206,50.044006],[19.913201,50.043996],[19.913274,50.043984],[19.913296,50.044038],[19.913286,50.04404],[19.913305,50.044088],[19.913116,50.044119],[19.913096,50.04407]]]}},{"type":"Feature","id":"w233372373","properties":{"type":"detached","levels":2.0,"residential":true,"residents_est":4,"h3_10":"8a1e2e6b235ffff","h3_11":"8b1e2e6b235dfff"},"geometry":{"type":"Polygon","coordinates":[[[19.912051,50.044473],[19.912092,50.044466],[19.912095,50.044476],[19.912207,50.044459],[19.912224,50.044502],[19.912259,50.044496],[19.912276,50.04454],[19.91213,50.044563],[19.912114,50.044521],[19.912078,50.044526],[19.912084,50.044542],[19.912078,50.044543],[19.912051,50.044473]]]}},{"type":"Feature","id":"w233372439","properties":{"type":"yes","address":"Zielna 94","residential":true,"residents_est":3,"h3_10":"8a1e2e6b226ffff","h3_11":"8b1e2e6b226efff"},"geometry":{"type":"Polygon","coordinates":[[[19.91504,50.043509],[19.915086,50.043456],[19.915098,50.043459],[19.915107,50.04345],[19.915081,50.04344],[19.915156,50.043352],[19.915271,50.043393],[19.915195,50.043481],[19.915169,50.043472],[19.91516,50.043482],[19.915171,50.043486],[19.915126,50.043539],[19.91504,50.043509]]]}},{"type":"Feature","id":"w233372470","properties":{"type":"yes","address":"Salezjańska 17b","residential":true,"residents_est":2,"h3_10":"8a1e2e6b226ffff","h3_11":"8b1e2e6b226afff"},"geometry":{"type":"Polygon","coordinates":[[[19.915353,50.043146],[19.915396,50.043097],[19.91538,50.043091],[19.915457,50.043003],[19.915571,50.043045],[19.915496,50.043133],[19.915481,50.043127],[19.915438,50.043177],[19.915353,50.043146]]]}},{"type":"Feature","id":"w233372502","properties":{"type":"yes","address":"Salezjańska 19","residential":true,"residents_est":3,"h3_10":"8a1e2e6b224ffff","h3_11":"8b1e2e6b224bfff"},"geometry":{"type":"Polygon","coordinates":[[[19.916086,50.042099],[19.91618,50.041981],[19.916197,50.041969],[19.916247,50.041969],[19.916389,50.042018],[19.916335,50.042084],[19.916278,50.042065],[19.916252,50.042068],[19.916197,50.042136],[19.916086,50.042099]]]}},{"type":"Feature","id":"w233372737","properties":{"type":"yes","address":"Zielna 92","residential":true,"residents_est":3,"h3_10":"8a1e2e6b226ffff","h3_11":"8b1e2e6b226cfff"},"geometry":{"type":"Polygon","coordinates":[[[19.914798,50.043812],[19.914919,50.043671],[19.914939,50.043678],[19.914946,50.04367],[19.914962,50.043676],[19.914967,50.04367],[19.915026,50.04369],[19.915021,50.043696],[19.915036,50.043702],[19.914902,50.043869],[19.914806,50.043836],[19.91482,50.043819],[19.914798,50.043812]]]}},{"type":"Feature","id":"w233372790","properties":{"type":"yes","address":"Salezjańska 17","residential":true,"residents_est":3,"h3_10":"8a1e2e6b224ffff","h3_11":"8b1e2e6b2248fff"},"geometry":{"type":"Polygon","coordinates":[[[19.915897,50.042328],[19.915954,50.042259],[19.916058,50.042294],[19.916065,50.042287],[19.916075,50.04229],[19.916096,50.042265],[19.916118,50.042273],[19.916132,50.042255],[19.916218,50.042285],[19.916142,50.042377],[19.916126,50.042391],[19.916102,50.042395],[19.915897,50.042328]]]}},{"type":"Feature","id":"w233372988","properties":{"type":"apartments","levels":3.0,"residential":true,"residents_est":27,"h3_10":"8a1e2e6b2307fff","h3_11":"8b1e2e6b2305fff"},"geometry":{"type":"Polygon","coordinates":[[[19.906681,50.045709],[19.907044,50.045234],[19.907161,50.045272],[19.907123,50.045322],[19.90713,50.045324],[19.907114,50.045346],[19.907106,50.045344],[19.907033,50.045439],[19.907041,50.045442],[19.907024,50.045463],[19.907016,50.045461],[19.906944,50.045557],[19.906951,50.045559],[19.906934,50.045581],[19.906927,50.045578],[19.906854,50.045674],[19.906861,50.045676],[19.906845,50.045698],[19.906837,50.045696],[19.906799,50.045746],[19.906681,50.045709]]]}},{"type":"Feature","id":"w233372993","properties":{"type":"apartments","levels":3.0,"residential":true,"residents_est":27,"h3_10":"8a1e2e6b232ffff","h3_11":"8b1e2e6b2329fff"},"geometry":{"type":"Polygon","coordinates":[[[19.90844,50.04626],[19.908801,50.045786],[19.908918,50.045824],[19.908881,50.045873],[19.90889,50.045876],[19.908872,50.0459],[19.908863,50.045897],[19.908792,50.04599],[19.908801,50.045993],[19.908783,50.046017],[19.908774,50.046014],[19.908703,50.046107],[19.908712,50.04611],[19.908693,50.046135],[19.908684,50.046132],[19.908614,50.046224],[19.908623,50.046227],[19.908604,50.046252],[19.908595,50.046249],[19.908558,50.046298],[19.90844,50.04626]]]}},{"type":"Feature","id":"w233373038","properties":{"type":"terrace","levels":3.0,"residential":true,"residents_est":4,"h3_10":"8a1e2e6b236ffff","h3_11":"8b1e2e6b2368fff"},"geometry":{"type":"Polygon","coordinates":[[[19.91292,50.046203],[19.913,50.046109],[19.913075,50.046135],[19.913062,50.04615],[19.913082,50.046157],[19.913097,50.046143],[19.913024,50.046228],[19.912976,50.046211],[19.912968,50.046219],[19.912971,50.046223],[19.91292,50.046203]]]}},{"type":"Feature","id":"w233373039","properties":{"type":"terrace","levels":2.0,"residential":true,"residents_est":4,"h3_10":"8a1e2e6b2347fff","h3_11":"8b1e2e6b2340fff"},"geometry":{"type":"Polygon","coordinates":[[[19.911698,50.045121],[19.911821,50.045078],[19.911902,50.045186],[19.91186,50.045199],[19.911841,50.045174],[19.911815,50.045182],[19.911811,50.045202],[19.911793,50.045207],[19.911771,50.045195],[19.911754,50.045198],[19.911698,50.045121]]]}},{"type":"Feature","id":"w233373049","properties":{"type":"apartments","levels":3.0,"residential":true,"residents_est":35,"h3_10":"8a1e2e6b2377fff","h3_11":"8b1e2e6b2370fff"},"geometry":{"type":"Polygon","coordinates":[[[19.909858,50.045893],[19.910272,50.045481],[19.910608,50.045623],[19.910537,50.045694],[19.91048,50.045671],[19.910474,50.045676],[19.910426,50.045655],[19.910431,50.04565],[19.910329,50.045608],[19.910318,50.045619],[19.910299,50.045611],[19.910255,50.045654],[19.910262,50.045656],[19.910239,50.045679],[19.910234,50.045677],[19.910147,50.045762],[19.910154,50.045764],[19.91013,50.045789],[19.910123,50.045786],[19.910034,50.045873],[19.910043,50.045877],[19.910021,50.045899],[19.910014,50.045896],[19.909969,50.045941],[19.909858,50.045893]]]}},{"type":"Feature","id":"w233373054","properties":{"type":"apartments","levels":3.0,"residential":true,"residents_est":35,"h3_10":"8a1e2e6b232ffff","h3_11":"8b1e2e6b2328fff"},"geometry":{"type":"Polygon","coordinates":[[[19.907935,50.046206],[19.908387,50.045616],[19.908506,50.045652],[19.908468,50.045701],[19.908477,50.045704],[19.908459,50.04573],[19.908449,50.045727],[19.908379,50.045819],[19.908388,50.045822],[19.908368,50.045847],[19.90836,50.045845],[19.908291,50.045937],[19.908301,50.04594],[19.908284,50.045961],[19.908273,50.045958],[19.908202,50.046053],[19.908209,50.046056],[19.908192,50.046079],[19.908185,50.046076],[19.908107,50.04618],[19.908114,50.046182],[19.908101,50.046198],[19.908092,50.046196],[19.908053,50.046245],[19.907935,50.046206]]]}},{"type":"Feature","id":"w233373057","properties":{"type":"apartments","levels":3.0,"residential":true,"residents_est":34,"h3_10":"8a1e2e6b2377fff","h3_11":"8b1e2e6b2370fff"},"geometry":{"type":"Polygon","coordinates":[[[19.90945,50.045728],[19.909868,50.045311],[19.910206,50.045454],[19.910133,50.045527],[19.910063,50.045497],[19.910058,50.045502],[19.910022,50.045487],[19.910027,50.045482],[19.909925,50.04544],[19.909911,50.045454],[19.909888,50.045443],[19.909848,50.045484],[19.909855,50.045487],[19.909831,50.045512],[19.909821,50.045508],[19.909734,50.045595],[19.909744,50.045599],[19.909725,50.045619],[19.909716,50.045615],[19.90963,50.045702],[19.909638,50.045706],[19.909614,50.04573],[19.909604,50.045726],[19.909558,50.045772],[19.90945,50.045728]]]}},{"type":"Feature","id":"w233373061","properties":{"type":"apartments","levels":3.0,"residential":true,"residents_est":34,"h3_10":"8a1e2e6b232ffff","h3_11":"8b1e2e6b232afff"},"geometry":{"type":"Polygon","coordinates":[[[19.907523,50.046034],[19.907972,50.045443],[19.90809,50.045481],[19.908052,50.045531],[19.90806,50.045533],[19.908043,50.045555],[19.908036,50.045553],[19.907963,50.045648],[19.907971,50.045651],[19.907954,50.045672],[19.907947,50.04567],[19.907874,50.045765],[19.907882,50.045767],[19.907865,50.045789],[19.907858,50.045787],[19.907785,50.045882],[19.907792,50.045885],[19.907776,50.045907],[19.907768,50.045904],[19.907696,50.046],[19.907703,50.046002],[19.907687,50.046023],[19.907679,50.046021],[19.907641,50.046072],[19.907523,50.046034]]]}},{"type":"Feature","id":"w233373068","properties":{"type":"garages","levels":1.0,"residential":false,"residents_est":0,"h3_10":"8a1e2e6b230ffff","h3_11":"8b1e2e6b2309fff"},"geometry":{"type":"Polygon","coordinates":[[[19.909022,50.044851],[19.909072,50.044802],[19.909493,50.044978],[19.909447,50.045028],[19.909022,50.044851]]]}},{"type":"Feature","id":"w233373070","properties":{"type":"residential","levels":2.0,"residential":true,"residents_est":8,"h3_10":"8a1e2e6b2347fff","h3_11":"8b1e2e6b2340fff"},"geometry":{"type":"Polygon","coordinates":[[[19.91126,50.045342],[19.911312,50.045326],[19.911307,50.045317],[19.911311,50.045307],[19.911331,50.045301],[19.911354,50.045313],[19.911384,50.045304],[19.911369,50.045282],[19.911449,50.045258],[19.911455,50.045266],[19.911507,50.04525],[19.911564,50.045328],[19.911544,50.045334],[19.91155,50.045343],[19.911544,50.045354],[19.911524,50.045359],[19.911502,50.045347],[19.911476,50.045355],[19.911493,50.045379],[19.911455,50.04539],[19.911471,50.045412],[19.911425,50.045426],[19.911407,50.045401],[19.91132,50.045428],[19.91126,50.045342]]]}},{"type":"Feature","id":"w233373083","properties":{"type":"apartments","levels":3.0,"residential":true,"residents_est":41,"h3_10":"8a1e2e6b2307fff","h3_11":"8b1e2e6b2305fff"},"geometry":{"type":"Polygon","coordinates":[[[19.907024,50.045976],[19.907559,50.045271],[19.907675,50.045308],[19.90764,50.045357],[19.907648,50.04536],[19.907633,50.045381],[19.907624,50.045378],[19.907553,50.045474],[19.907562,50.045477],[19.907544,50.0455],[19.907535,50.045498],[19.907464,50.045594],[19.907472,50.045597],[19.907457,50.045618],[19.907448,50.045616],[19.907375,50.045711],[19.907385,50.045714],[19.907368,50.045737],[19.907356,50.045733],[19.907287,50.045824],[19.907297,50.045827],[19.907282,50.045847],[19.907272,50.045844],[19.907197,50.045941],[19.907206,50.045945],[19.90719,50.045966],[19.907181,50.045963],[19.907142,50.046015],[19.907024,50.045976]]]}},{"type":"Feature","id":"w233373091","properties":{"type":"apartments","levels":3.0,"residential":true,"residents_est":32,"h3_10":"8a1e2e6b230ffff","h3_11":"8b1e2e6b2308fff"},"geometry":{"type":"Polygon","coordinates":[[[19.90797,50.045079],[19.908029,50.045022],[19.908014,50.045016],[19.908055,50.044976],[19.908069,50.044982],[19.908151,50.044902],[19.908138,50.044896],[19.90818,50.044855],[19.908193,50.044861],[19.908362,50.044697],[19.908443,50.044732],[19.908454,50.044721],[19.908507,50.044744],[19.908434,50.044816],[19.908444,50.04482],[19.908419,50.044844],[19.908409,50.04484],[19.908308,50.044938],[19.908322,50.044944],[19.908298,50.044967],[19.908284,50.044961],[19.908277,50.044968],[19.90829,50.044973],[19.908279,50.044984],[19.908266,50.044979],[19.908185,50.045058],[19.908208,50.045068],[19.908114,50.045159],[19.908003,50.045111],[19.908016,50.045099],[19.90797,50.045079]]]}},{"type":"Feature","id":"w233373200","properties":{"type":"detached","levels":1.0,"residential":true,"residents_est":1,"h3_10":"8a1e2e6b2267fff","h3_11":"8b1e2e6b2266fff"},"geometry":{"type":"Polygon","coordinates":[[[19.913026,50.04367],[19.913135,50.043653],[19.913168,50.043741],[19.913059,50.043758],[19.913026,50.04367]]]}},{"type":"Feature","id":"w233373351","properties":{"type":"garage","residential":false,"residents_est":0,"h3_10":"8a1e2e6b222ffff","h3_11":"8b1e2e6b222cfff"},"geometry":{"type":"Polygon","coordinates":[[[19.910191,50.043624],[19.910217,50.043557],[19.910286,50.043568],[19.91026,50.043635],[19.910191,50.043624]]]}},{"type":"Feature","id":"w233373384","properties":{"type":"yes","residential":false,"residents_est":0,"h3_10":"8a1e2e6b235ffff","h3_11":"8b1e2e6b235bfff"},"geometry":{"type":"Polygon","coordinates":[[[19.912308,50.043648],[19.912351,50.04364],[19.912391,50.043728],[19.912347,50.043736],[19.912308,50.043648]]]}},{"type":"Feature","id":"w233373398","properties":{"type":"yes","residential":false,"residents_est":0,"h3_10":"8a1e2e6b235ffff","h3_11":"8b1e2e6b235afff"},"geometry":{"type":"Polygon","coordinates":[[[19.911946,50.043751],[19.912002,50.043742],[19.912028,50.04381],[19.911972,50.043819],[19.911946,50.043751]]]}},{"type":"Feature","id":"w233373444","properties":{"type":"yes","residential":false,"residents_est":0,"h3_10":"8a1e2e6b235ffff","h3_11":"8b1e2e6b235bfff"},"geometry":{"type":"Polygon","coordinates":[[[19.912126,50.0437],[19.912174,50.043692],[19.912201,50.043758],[19.912153,50.043766],[19.912126,50.0437]]]}},{"type":"Feature","id":"w233373496","properties":{"type":"detached","levels":1.0,"residential":true,"residents_est":2,"h3_10":"8a1e2e6b235ffff","h3_11":"8b1e2e6b235bfff"},"geometry":{"type":"Polygon","coordinates":[[[19.912351,50.04364],[19.912473,50.043618],[19.912512,50.043706],[19.912391,50.043728],[19.912351,50.04364]]]}},{"type":"Feature","id":"w233373518","properties":{"type":"detached","levels":1.0,"residential":true,"residents_est":2,"h3_10":"8a1e2e6b2267fff","h3_11":"8b1e2e6b2265fff"},"geometry":{"type":"Polygon","coordinates":[[[19.913774,50.044089],[19.913895,50.04407],[19.913928,50.044155],[19.913807,50.044174],[19.913774,50.044089]]]}},{"type":"Feature","id":"w233373663","properties":{"type":"yes","residential":true,"residents_est":1,"h3_10":"8a1e2e6b235ffff","h3_11":"8b1e2e6b235efff"},"geometry":{"type":"Polygon","coordinates":[[[19.911301,50.044325],[19.911315,50.044286],[19.911532,50.04431],[19.911529,50.044346],[19.911301,50.044325]]]}},{"type":"Feature","id":"w233373707","properties":{"type":"yes","residential":false,"residents_est":0,"h3_10":"8a1e2e6b2267fff","h3_11":"8b1e2e6b2266fff"},"geometry":{"type":"Polygon","coordinates":[[[19.913298,50.043979],[19.913343,50.043972],[19.913362,50.044027],[19.913318,50.044033],[19.913298,50.043979]]]}},{"type":"Feature","id":"w233373768","properties":{"type":"yes","residential":true,"residents_est":1,"h3_10":"8a1e2e6b2317fff","h3_11":"8b1e2e6b2312fff"},"geometry":{"type":"Polygon","coordinates":[[[19.904897,50.04431],[19.904962,50.04427],[19.905041,50.044324],[19.904975,50.044363],[19.904897,50.04431]]]}},{"type":"Feature","id":"w233373850","properties":{"type":"yes","residential":true,"residents_est":1,"h3_10":"8a1e2e6b23affff","h3_11":"8b1e2e6b23a9fff"},"geometry":{"type":"Polygon","coordinates":[[[19.906527,50.043546],[19.906568,50.043504],[19.906671,50.043544],[19.90663,50.043587],[19.906527,50.043546]]]}},{"type":"Feature","id":"w233373883","properties":{"type":"yes","residential":false,"residents_est":0,"h3_10":"8a1e2e6b2267fff","h3_11":"8b1e2e6b2264fff"},"geometry":{"type":"Polygon","coordinates":[[[19.913506,50.044004],[19.913545,50.043999],[19.913563,50.044052],[19.913525,50.044057],[19.913506,50.044004]]]}},{"type":"Feature","id":"w233373909","properties":{"type":"garage","residential":false,"residents_est":0,"h3_10":"8a1e2e6b235ffff","h3_11":"8b1e2e6b2358fff"},"geometry":{"type":"Polygon","coordinates":[[[19.911697,50.04408],[19.911744,50.044072],[19.911785,50.044177],[19.911738,50.044185],[19.911697,50.04408]]]}},{"type":"Feature","id":"w233373959","properties":{"type":"detached","levels":1.0,"residential":true,"residents_est":2,"h3_10":"8a1e2e6b2267fff","h3_11":"8b1e2e6b2265fff"},"geometry":{"type":"Polygon","coordinates":[[[19.913926,50.044163],[19.91399,50.044147],[19.913977,50.044111],[19.914097,50.044092],[19.91412,50.044151],[19.914151,50.044147],[19.914164,50.044179],[19.913944,50.044213],[19.913926,50.044163]]]}},{"type":"Feature","id":"w233373999","properties":{"type":"yes","residential":true,"residents_est":1,"h3_10":"8a1e2e6b22a7fff","h3_11":"8b1e2e6b22a1fff"},"geometry":{"type":"Polygon","coordinates":[[[19.906988,50.041105],[19.907081,50.041062],[19.907157,50.04113],[19.907063,50.041171],[19.906988,50.041105]]]}},{"type":"Feature","id":"w233374081","properties":{"type":"yes","residential":true,"residents_est":1,"h3_10":"8a1e2e6b22a7fff","h3_11":"8b1e2e6b22a1fff"},"geometry":{"type":"Polygon","coordinates":[[[19.90679,50.041151],[19.906852,50.041119],[19.906968,50.04121],[19.906904,50.041243],[19.90679,50.041151]]]}},{"type":"Feature","id":"w233374086","properties":{"type":"yes","residential":false,"residents_est":0,"h3_10":"8a1e2e6b235ffff","h3_11":"8b1e2e6b235bfff"},"geometry":{"type":"Polygon","coordinates":[[[19.912682,50.043913],[19.912723,50.043908],[19.912739,50.043962],[19.912698,50.043967],[19.912682,50.043913]]]}},{"type":"Feature","id":"w233374098","properties":{"type":"garages","residential":false,"residents_est":0,"h3_10":"8a1e2e6b2317fff","h3_11":"8b1e2e6b2312fff"},"geometry":{"type":"Polygon","coordinates":[[[19.904808,50.044235],[19.904829,50.044136],[19.905185,50.044168],[19.905164,50.044267],[19.904808,50.044235]]]}},{"type":"Feature","id":"w233374157","properties":{"type":"yes","residential":true,"residents_est":1,"h3_10":"8a1e2e6b2277fff","h3_11":"8b1e2e6b2275fff"},"geometry":{"type":"Polygon","coordinates":[[[19.912764,50.043658],[19.912819,50.043648],[19.912856,50.043736],[19.912802,50.043746],[19.912764,50.043658]]]}},{"type":"Feature","id":"w233374197","properties":{"type":"yes","levels":1.0,"residential":true,"residents_est":1,"h3_10":"8a1e2e6b2357fff","h3_11":"8b1e2e6b2353fff"},"geometry":{"type":"Polygon","coordinates":[[[19.910801,50.044302],[19.910866,50.04407],[19.910947,50.04408],[19.910891,50.044313],[19.910801,50.044302]]]}},{"type":"Feature","id":"w233374296","properties":{"type":"yes","residential":true,"residents_est":1,"h3_10":"8a1e2e6b2317fff","h3_11":"8b1e2e6b2310fff"},"geometry":{"type":"Polygon","coordinates":[[[19.905467,50.044696],[19.905533,50.044657],[19.905603,50.044706],[19.905536,50.044744],[19.905467,50.044696]]]}},{"type":"Feature","id":"w233374307","properties":{"type":"yes","residential":true,"residents_est":1,"h3_10":"8a1e2e6b235ffff","h3_11":"8b1e2e6b235cfff"},"geometry":{"type":"Polygon","coordinates":[[[19.911635,50.044794],[19.911766,50.044775],[19.911783,50.044821],[19.911651,50.04484],[19.911635,50.044794]]]}},{"type":"Feature","id":"w233374319","properties":{"type":"yes","residential":true,"residents_est":3,"h3_10":"8a1e2e6b2327fff","h3_11":"8b1e2e6b2325fff"},"geometry":{"type":"Polygon","coordinates":[[[19.906621,50.046528],[19.906643,50.046486],[19.907104,50.046587],[19.907082,50.046628],[19.906621,50.046528]]]}},{"type":"Feature","id":"w233374364","properties":{"type":"yes","residential":false,"residents_est":0,"h3_10":"8a1e2e6b224ffff","h3_11":"8b1e2e6b224cfff"},"geometry":{"type":"Polygon","coordinates":[[[19.91566,50.042825],[19.915701,50.042777],[19.915779,50.042806],[19.915737,50.042853],[19.91566,50.042825]]]}},{"type":"Feature","id":"w233374463","properties":{"type":"garages","residential":false,"residents_est":0,"h3_10":"8a1e2e6b236ffff","h3_11":"8b1e2e6b2368fff"},"geometry":{"type":"Polygon","coordinates":[[[19.913159,50.045929],[19.913202,50.045879],[19.913834,50.046104],[19.913792,50.046155],[19.913159,50.045929]]]}},{"type":"Feature","id":"w233374523","properties":{"type":"yes","address":"Praska 70","name":"Klub Wojsk Specjalnych","residential":true,"residents_est":16,"h3_10":"8a1e2e6b2237fff","h3_11":"8b1e2e6b2234fff"},"geometry":{"type":"Polygon","coordinates":[[[19.907118,50.04354],[19.907395,50.043262],[19.907553,50.043327],[19.907277,50.043605],[19.907118,50.04354]]]}},{"type":"Feature","id":"w233374577","properties":{"type":"detached","levels":1.0,"residential":true,"residents_est":1,"h3_10":"8a1e2e6b2267fff","h3_11":"8b1e2e6b2266fff"},"geometry":{"type":"Polygon","coordinates":[[[19.913238,50.043694],[19.913358,50.043676],[19.913388,50.043764],[19.913268,50.043781],[19.913238,50.043694]]]}},{"type":"Feature","id":"w233374603","properties":{"type":"yes","residential":false,"residents_est":0,"h3_10":"8a1e2e6b2387fff","h3_11":"8b1e2e6b2384fff"},"geometry":{"type":"Polygon","coordinates":[[[19.903512,50.04319],[19.903627,50.043167],[19.903641,50.043195],[19.903526,50.043219],[19.903512,50.04319]]]}},{"type":"Feature","id":"w233374610","properties":{"type":"yes","residential":true,"residents_est":3,"h3_10":"8a1e2e6b2327fff","h3_11":"8b1e2e6b2321fff"},"geometry":{"type":"Polygon","coordinates":[[[19.90661,50.046472],[19.906631,50.046429],[19.907146,50.046537],[19.907121,50.04658],[19.90661,50.046472]]]}},{"type":"Feature","id":"w233374660","properties":{"type":"yes","residential":false,"residents_est":0,"h3_10":"8a1e2e6b2267fff","h3_11":"8b1e2e6b2266fff"},"geometry":{"type":"Polygon","coordinates":[[[19.913393,50.043723],[19.913438,50.043716],[19.913472,50.043803],[19.913427,50.04381],[19.913393,50.043723]]]}},{"type":"Feature","id":"w233374692","properties":{"type":"yes","residential":true,"residents_est":0,"h3_10":"8a1e2e6b2267fff","h3_11":"8b1e2e6b2261fff"},"geometry":{"type":"Polygon","coordinates":[[[19.914313,50.043863],[19.914396,50.043848],[19.914421,50.043905],[19.914338,50.04392],[19.914313,50.043863]]]}},{"type":"Feature","id":"w233374742","properties":{"type":"yes","residential":false,"residents_est":0,"h3_10":"8a1e2e6b2267fff","h3_11":"8b1e2e6b2264fff"},"geometry":{"type":"Polygon","coordinates":[[[19.913337,50.044349],[19.913408,50.044337],[19.913434,50.044397],[19.913363,50.04441],[19.913337,50.044349]]]}},{"type":"Feature","id":"w233374767","properties":{"type":"yes","residential":true,"residents_est":2,"h3_10":"8a1e2e6b2357fff","h3_11":"8b1e2e6b2353fff"},"geometry":{"type":"Polygon","coordinates":[[[19.910652,50.044423],[19.91069,50.04429],[19.910801,50.044302],[19.910764,50.044437],[19.910652,50.044423]]]}},{"type":"Feature","id":"w233374871","properties":{"type":"yes","residential":false,"residents_est":0,"h3_10":"8a1e2e6b2267fff","h3_11":"8b1e2e6b2266fff"},"geometry":{"type":"Polygon","coordinates":[[[19.912994,50.043675],[19.913026,50.04367],[19.913059,50.043758],[19.913,50.043767],[19.912994,50.043675]]]}},{"type":"Feature","id":"w233374898","properties":{"type":"detached","levels":1.0,"residential":true,"residents_est":1,"h3_10":"8a1e2e6b2267fff","h3_11":"8b1e2e6b2260fff"},"geometry":{"type":"Polygon","coordinates":[[[19.913438,50.043716],[19.913556,50.043697],[19.91359,50.043784],[19.913472,50.043803],[19.913438,50.043716]]]}},{"type":"Feature","id":"w233374962","properties":{"type":"yes","residential":false,"residents_est":0,"h3_10":"8a1e2e6b2267fff","h3_11":"8b1e2e6b2264fff"},"geometry":{"type":"Polygon","coordinates":[[[19.913728,50.044096],[19.913774,50.044089],[19.913807,50.044174],[19.91376,50.044182],[19.913728,50.044096]]]}},{"type":"Feature","id":"w233375129","properties":{"type":"yes","residential":true,"residents_est":4,"h3_10":"8a1e2e6b2327fff","h3_11":"8b1e2e6b2321fff"},"geometry":{"type":"Polygon","coordinates":[[[19.906565,50.046259],[19.906589,50.046213],[19.907207,50.046348],[19.907183,50.046393],[19.906565,50.046259]]]}},{"type":"Feature","id":"w233375142","properties":{"type":"yes","residential":true,"residents_est":1,"h3_10":"8a1e2e6b222ffff","h3_11":"8b1e2e6b222dfff"},"geometry":{"type":"Polygon","coordinates":[[[19.911053,50.04399],[19.911061,50.043957],[19.911277,50.043979],[19.911269,50.044013],[19.911053,50.04399]]]}},{"type":"Feature","id":"w233375178","properties":{"type":"service","residential":false,"residents_est":0,"h3_10":"8a1e2e6b2307fff","h3_11":"8b1e2e6b2305fff"},"geometry":{"type":"Polygon","coordinates":[[[19.907045,50.045632],[19.907098,50.045575],[19.907172,50.0456],[19.90712,50.045658],[19.907045,50.045632]]]}},{"type":"Feature","id":"w233375184","properties":{"type":"yes","residential":false,"residents_est":0,"h3_10":"8a1e2e6b235ffff","h3_11":"8b1e2e6b235bfff"},"geometry":{"type":"Polygon","coordinates":[[[19.912533,50.043662],[19.912582,50.043654],[19.912608,50.043723],[19.912559,50.043731],[19.912533,50.043662]]]}},{"type":"Feature","id":"w233375208","properties":{"type":"yes","residential":false,"residents_est":0,"h3_10":"8a1e2e6b226ffff","h3_11":"8b1e2e6b226afff"},"geometry":{"type":"Polygon","coordinates":[[[19.915357,50.043063],[19.91542,50.04299],[19.915457,50.043003],[19.915393,50.043077],[19.915357,50.043063]]]}},{"type":"Feature","id":"w233375261","properties":{"type":"yes","residential":false,"residents_est":0,"h3_10":"8a1e2e6b235ffff","h3_11":"8b1e2e6b2358fff"},"geometry":{"type":"Polygon","coordinates":[[[19.912082,50.044095],[19.912136,50.044086],[19.912164,50.044156],[19.91211,50.044166],[19.912082,50.044095]]]}},{"type":"Feature","id":"w233375328","properties":{"type":"yes","residential":true,"residents_est":4,"h3_10":"8a1e2e6b2327fff","h3_11":"8b1e2e6b2321fff"},"geometry":{"type":"Polygon","coordinates":[[[19.906563,50.046317],[19.906586,50.046273],[19.907179,50.046402],[19.907156,50.046446],[19.906563,50.046317]]]}},{"type":"Feature","id":"w233375356","properties":{"type":"yes","residential":false,"residents_est":0,"h3_10":"8a1e2e6b2267fff","h3_11":"8b1e2e6b2266fff"},"geometry":{"type":"Polygon","coordinates":[[[19.913202,50.043699],[19.913238,50.043694],[19.913268,50.043781],[19.913209,50.04379],[19.913202,50.043699]]]}},{"type":"Feature","id":"w233375432","properties":{"type":"yes","residential":false,"residents_est":0,"h3_10":"8a1e2e6b235ffff","h3_11":"8b1e2e6b235efff"},"geometry":{"type":"Polygon","coordinates":[[[19.911466,50.044425],[19.911483,50.044343],[19.911529,50.044346],[19.911522,50.044429],[19.911466,50.044425]]]}},{"type":"Feature","id":"w233375469","properties":{"type":"detached","levels":1.0,"residential":true,"residents_est":1,"h3_10":"8a1e2e6b235ffff","h3_11":"8b1e2e6b2358fff"},"geometry":{"type":"Polygon","coordinates":[[[19.91196,50.044139],[19.912081,50.04412],[19.912115,50.044207],[19.911995,50.044227],[19.91196,50.044139]]]}},{"type":"Feature","id":"w233375483","properties":{"type":"yes","residential":true,"residents_est":2,"h3_10":"8a1e2e6b2387fff","h3_11":"8b1e2e6b2384fff"},"geometry":{"type":"Polygon","coordinates":[[[19.903457,50.043079],[19.903608,50.043048],[19.903665,50.04316],[19.903512,50.04319],[19.903457,50.043079]]]}},{"type":"Feature","id":"w233375495","properties":{"type":"detached","levels":1.0,"residential":true,"residents_est":2,"h3_10":"8a1e2e6b235ffff","h3_11":"8b1e2e6b235bfff"},"geometry":{"type":"Polygon","coordinates":[[[19.912174,50.043692],[19.912295,50.043671],[19.912332,50.043761],[19.912211,50.043782],[19.912174,50.043692]]]}},{"type":"Feature","id":"w233375564","properties":{"type":"detached","levels":1.0,"residential":true,"residents_est":1,"h3_10":"8a1e2e6b235ffff","h3_11":"8b1e2e6b2358fff"},"geometry":{"type":"Polygon","coordinates":[[[19.912136,50.044086],[19.912256,50.044066],[19.912291,50.044152],[19.912171,50.044172],[19.912136,50.044086]]]}},{"type":"Feature","id":"w233375583","properties":{"type":"yes","residential":false,"residents_est":0,"h3_10":"8a1e2e6b222ffff","h3_11":"8b1e2e6b222dfff"},"geometry":{"type":"Polygon","coordinates":[[[19.911107,50.043959],[19.911116,50.043917],[19.911161,50.043921],[19.911152,50.043964],[19.911107,50.043959]]]}},{"type":"Feature","id":"w233375615","properties":{"type":"yes","residential":true,"residents_est":2,"h3_10":"8a1e2e6b222ffff","h3_11":"8b1e2e6b222dfff"},"geometry":{"type":"Polygon","coordinates":[[[19.910905,50.043942],[19.910957,50.043715],[19.911044,50.043723],[19.910996,50.043951],[19.910905,50.043942]]]}},{"type":"Feature","id":"w233375640","properties":{"type":"garage","residential":false,"residents_est":0,"h3_10":"8a1e2e6b2267fff","h3_11":"8b1e2e6b2260fff"},"geometry":{"type":"Polygon","coordinates":[[[19.914015,50.043838],[19.914069,50.04383],[19.914086,50.043877],[19.914032,50.043884],[19.914015,50.043838]]]}},{"type":"Feature","id":"w233375671","properties":{"type":"detached","levels":1.0,"residential":true,"residents_est":2,"h3_10":"8a1e2e6b2267fff","h3_11":"8b1e2e6b2264fff"},"geometry":{"type":"Polygon","coordinates":[[[19.913408,50.044337],[19.913541,50.044313],[19.913579,50.044403],[19.913446,50.044427],[19.913408,50.044337]]]}},{"type":"Feature","id":"w233375697","properties":{"type":"detached","levels":1.0,"residential":true,"residents_est":1,"h3_10":"8a1e2e6b235ffff","h3_11":"8b1e2e6b235bfff"},"geometry":{"type":"Polygon","coordinates":[[[19.912002,50.043742],[19.912121,50.043724],[19.912155,50.043813],[19.912036,50.043832],[19.912002,50.043742]]]}},{"type":"Feature","id":"w233375802","properties":{"type":"yes","residential":false,"residents_est":0,"h3_10":"8a1e2e6b235ffff","h3_11":"8b1e2e6b235efff"},"geometry":{"type":"Polygon","coordinates":[[[19.911294,50.04435],[19.911301,50.044325],[19.911483,50.044343],[19.911477,50.04437],[19.911294,50.04435]]]}},{"type":"Feature","id":"w233375906","properties":{"type":"yes","address":"Salezjańska 17a","residential":true,"residents_est":3,"h3_10":"8a1e2e6b224ffff","h3_11":"8b1e2e6b224cfff"},"geometry":{"type":"Polygon","coordinates":[[[19.915683,50.042771],[19.9158,50.042636],[19.915916,50.042678],[19.915798,50.042813],[19.915683,50.042771]]]}},{"type":"Feature","id":"w233376056","properties":{"type":"yes","residential":true,"residents_est":2,"h3_10":"8a1e2e6b222ffff","h3_11":"8b1e2e6b222dfff"},"geometry":{"type":"Polygon","coordinates":[[[19.910846,50.044067],[19.91088,50.04394],[19.910982,50.04395],[19.910947,50.04408],[19.910846,50.044067]]]}},{"type":"Feature","id":"w233376061","properties":{"type":"yes","residential":true,"residents_est":1,"h3_10":"8a1e2e6b226ffff","h3_11":"8b1e2e6b226dfff"},"geometry":{"type":"Polygon","coordinates":[[[19.915817,50.044079],[19.915937,50.043952],[19.915997,50.043976],[19.915876,50.044103],[19.915817,50.044079]]]}},{"type":"Feature","id":"w233376407","properties":{"type":"yes","residential":false,"residents_est":0,"h3_10":"8a1e2e6b226ffff","h3_11":"8b1e2e6b226dfff"},"geometry":{"type":"Polygon","coordinates":[[[19.915687,50.043829],[19.915763,50.043741],[19.915805,50.043756],[19.915731,50.043844],[19.915687,50.043829]]]}},{"type":"Feature","id":"w233376420","properties":{"type":"yes","residential":true,"residents_est":1,"h3_10":"8a1e2e6b226ffff","h3_11":"8b1e2e6b226dfff"},"geometry":{"type":"Polygon","coordinates":[[[19.915579,50.043909],[19.915601,50.043884],[19.915581,50.043877],[19.915625,50.043826],[19.915697,50.043854],[19.915631,50.043928],[19.915579,50.043909]]]}},{"type":"Feature","id":"w233376626","properties":{"type":"detached","levels":1.0,"residential":true,"residents_est":1,"h3_10":"8a1e2e6b2267fff","h3_11":"8b1e2e6b2266fff"},"geometry":{"type":"Polygon","coordinates":[[[19.912819,50.043648],[19.912941,50.043627],[19.912959,50.043669],[19.912944,50.043671],[19.912963,50.043717],[19.912856,50.043736],[19.912819,50.043648]]]}},{"type":"Feature","id":"w233376648","properties":{"type":"detached","levels":1.0,"residential":true,"residents_est":2,"h3_10":"8a1e2e6b235ffff","h3_11":"8b1e2e6b235afff"},"geometry":{"type":"Polygon","coordinates":[[[19.911799,50.043796],[19.911937,50.043774],[19.911973,50.043862],[19.911853,50.043881],[19.911847,50.043866],[19.911829,50.043869],[19.911799,50.043796]]]}},{"type":"Feature","id":"w233376755","properties":{"type":"yes","residential":true,"residents_est":2,"h3_10":"8a1e2e6b2317fff","h3_11":"8b1e2e6b2312fff"},"geometry":{"type":"Polygon","coordinates":[[[19.905159,50.044289],[19.905185,50.044168],[19.905331,50.044182],[19.905304,50.044302],[19.905159,50.044289]]]}},{"type":"Feature","id":"w233376898","properties":{"type":"garage","residential":false,"residents_est":0,"h3_10":"8a1e2e6b235ffff","h3_11":"8b1e2e6b235afff"},"geometry":{"type":"Polygon","coordinates":[[[19.911729,50.043808],[19.911799,50.043796],[19.911833,50.043878],[19.911793,50.043885],[19.911798,50.043898],[19.911768,50.043903],[19.911729,50.043808]]]}},{"type":"Feature","id":"w233377143","properties":{"type":"yes","residential":false,"residents_est":0,"h3_10":"8a1e2e6b226ffff","h3_11":"8b1e2e6b226dfff"},"geometry":{"type":"Polygon","coordinates":[[[19.915762,50.043664],[19.915783,50.043639],[19.915855,50.043664],[19.915884,50.04363],[19.91592,50.043642],[19.91587,50.043701],[19.915762,50.043664]]]}},{"type":"Feature","id":"w233377259","properties":{"type":"yes","residential":true,"residents_est":1,"h3_10":"8a1e2e6b2367fff","h3_11":"8b1e2e6b2360fff"},"geometry":{"type":"Polygon","coordinates":[[[19.911284,50.046218],[19.911285,50.046183],[19.911306,50.046183],[19.911307,50.046137],[19.9114,50.046138],[19.911397,50.046229],[19.911304,50.046227],[19.911304,50.046218],[19.911284,50.046218]]]}},{"type":"Feature","id":"w233377423","properties":{"type":"detached","levels":1.0,"residential":true,"residents_est":3,"h3_10":"8a1e2e6b2267fff","h3_11":"8b1e2e6b2260fff"},"geometry":{"type":"Polygon","coordinates":[[[19.914016,50.043781],[19.914064,50.043774],[19.914068,50.043785],[19.914176,50.043768],[19.914172,50.043757],[19.914224,50.043748],[19.914243,50.043799],[19.914261,50.043796],[19.914284,50.043853],[19.914212,50.043863],[19.914209,50.043856],[19.914086,50.043877],[19.914068,50.043828],[19.914035,50.043833],[19.914016,50.043781]]]}},{"type":"Feature","id":"w233377453","properties":{"type":"apartments","levels":4.0,"residential":true,"residents_est":73,"h3_10":"8a1e2e6b2317fff","h3_11":"8b1e2e6b2313fff"},"geometry":{"type":"Polygon","coordinates":[[[19.905841,50.044619],[19.905861,50.044556],[19.905881,50.044559],[19.905906,50.044478],[19.905885,50.044476],[19.905905,50.044413],[19.905925,50.044416],[19.905951,50.044333],[19.90593,50.044331],[19.90595,50.044268],[19.90597,50.04427],[19.905996,50.044188],[19.905975,50.044185],[19.905995,50.044123],[19.906015,50.044125],[19.90605,50.044014],[19.906029,50.044011],[19.906049,50.043948],[19.906069,50.043951],[19.906077,50.043924],[19.906269,50.043949],[19.906242,50.04404],[19.906159,50.044027],[19.906142,50.044081],[19.906224,50.044092],[19.906091,50.044529],[19.906007,50.044518],[19.90599,50.044573],[19.906073,50.044582],[19.906045,50.044672],[19.905855,50.044648],[19.905862,50.044621],[19.905841,50.044619]]]}},{"type":"Feature","id":"w233377540","properties":{"type":"detached","levels":2.0,"residential":true,"residents_est":4,"h3_10":"8a1e2e6b235ffff","h3_11":"8b1e2e6b235cfff"},"geometry":{"type":"Polygon","coordinates":[[[19.91187,50.044517],[19.911914,50.04451],[19.91192,50.044526],[19.912027,50.044509],[19.912043,50.04455],[19.91207,50.044546],[19.912089,50.044594],[19.911911,50.044622],[19.91187,50.044517]]]}},{"type":"Feature","id":"w233377620","properties":{"type":"detached","levels":1.0,"residential":true,"residents_est":2,"h3_10":"8a1e2e6b235ffff","h3_11":"8b1e2e6b235bfff"},"geometry":{"type":"Polygon","coordinates":[[[19.912276,50.044037],[19.912318,50.04403],[19.912321,50.044038],[19.912438,50.044019],[19.912472,50.044106],[19.912352,50.044125],[19.912348,50.044115],[19.912309,50.044122],[19.912276,50.044037]]]}},{"type":"Feature","id":"w233377699","properties":{"type":"detached","levels":1.0,"residential":true,"residents_est":2,"h3_10":"8a1e2e6b2267fff","h3_11":"8b1e2e6b2260fff"},"geometry":{"type":"Polygon","coordinates":[[[19.913602,50.043734],[19.913646,50.043726],[19.913651,50.043737],[19.913764,50.04372],[19.913798,50.043808],[19.913677,50.043827],[19.91366,50.043782],[19.913622,50.043788],[19.913602,50.043734]]]}},{"type":"Feature","id":"w233377787","properties":{"type":"detached","levels":1.0,"residential":true,"residents_est":2,"h3_10":"8a1e2e6b235ffff","h3_11":"8b1e2e6b235bfff"},"geometry":{"type":"Polygon","coordinates":[[[19.912454,50.043983],[19.912498,50.043976],[19.912502,50.043987],[19.912645,50.043965],[19.912681,50.044057],[19.912533,50.044081],[19.912529,50.044072],[19.912491,50.044078],[19.912454,50.043983]]]}},{"type":"Feature","id":"w233377796","properties":{"type":"apartments","levels":3.0,"residential":true,"residents_est":29,"h3_10":"8a1e2e6b230ffff","h3_11":"8b1e2e6b230dfff"},"geometry":{"type":"Polygon","coordinates":[[[19.908476,50.04523],[19.908833,50.044879],[19.908999,50.044949],[19.90893,50.045017],[19.908904,50.045006],[19.908681,50.045221],[19.908714,50.045235],[19.908644,50.045302],[19.908476,50.04523]]]}},{"type":"Feature","id":"w233377917","properties":{"type":"detached","levels":1.0,"residential":true,"residents_est":2,"h3_10":"8a1e2e6b2267fff","h3_11":"8b1e2e6b2266fff"},"geometry":{"type":"Polygon","coordinates":[[[19.912698,50.043967],[19.912739,50.043962],[19.912742,50.043972],[19.912856,50.043957],[19.912853,50.043946],[19.912858,50.043946],[19.912889,50.044046],[19.912737,50.04407],[19.912698,50.043967]]]}},{"type":"Feature","id":"w233377998","properties":{"type":"detached","levels":1.0,"residential":true,"residents_est":2,"h3_10":"8a1e2e6b2277fff","h3_11":"8b1e2e6b2275fff"},"geometry":{"type":"Polygon","coordinates":[[[19.912568,50.043618],[19.912609,50.043612],[19.912613,50.043622],[19.91272,50.043605],[19.912754,50.043697],[19.912608,50.043723],[19.912568,50.043618]]]}},{"type":"Feature","id":"w233378092","properties":{"type":"terrace","levels":2.0,"residential":true,"residents_est":2,"h3_10":"8a1e2e6b222ffff","h3_11":"8b1e2e6b2229fff"},"geometry":{"type":"Polygon","coordinates":[[[19.911214,50.043634],[19.911238,50.043542],[19.911297,50.043548],[19.911296,50.043554],[19.911335,50.04356],[19.911311,50.04365],[19.911214,50.043634]]]}},{"type":"Feature","id":"w233378102","properties":{"type":"apartments","levels":3.0,"residential":true,"residents_est":29,"h3_10":"8a1e2e6b230ffff","h3_11":"8b1e2e6b230dfff"},"geometry":{"type":"Polygon","coordinates":[[[19.908938,50.04542],[19.909003,50.045355],[19.909035,50.045368],[19.909253,50.045148],[19.909226,50.045137],[19.909293,50.045071],[19.909459,50.04514],[19.909106,50.04549],[19.908938,50.04542]]]}},{"type":"Feature","id":"w233378105","properties":{"type":"terrace","levels":1.0,"residential":true,"residents_est":2,"h3_10":"8a1e2e6b2367fff","h3_11":"8b1e2e6b2363fff"},"geometry":{"type":"Polygon","coordinates":[[[19.911372,50.045868],[19.911519,50.045863],[19.911522,50.045889],[19.91155,50.045897],[19.911551,50.045912],[19.911545,50.045919],[19.911524,50.045919],[19.911527,50.045953],[19.91138,50.045959],[19.911372,50.045868]]]}},{"type":"Feature","id":"w233378127","properties":{"type":"terrace","levels":2.0,"residential":true,"residents_est":3,"h3_10":"8a1e2e6b222ffff","h3_11":"8b1e2e6b2229fff"},"geometry":{"type":"Polygon","coordinates":[[[19.91141,50.04366],[19.911434,50.04357],[19.911525,50.04358],[19.911519,50.043603],[19.911528,50.043604],[19.911507,50.043687],[19.911458,50.043683],[19.911462,50.043666],[19.91141,50.04366]]]}},{"type":"Feature","id":"w233378155","properties":{"type":"detached","levels":1.0,"residential":true,"residents_est":2,"h3_10":"8a1e2e6b235ffff","h3_11":"8b1e2e6b2358fff"},"geometry":{"type":"Polygon","coordinates":[[[19.911738,50.044185],[19.911785,50.044177],[19.91179,50.044189],[19.911905,50.04417],[19.911926,50.044222],[19.91195,50.044218],[19.911968,50.044263],[19.911781,50.044293],[19.911738,50.044185]]]}},{"type":"Feature","id":"w233378180","properties":{"type":"terrace","levels":2.0,"residential":true,"residents_est":2,"h3_10":"8a1e2e6b222ffff","h3_11":"8b1e2e6b2229fff"},"geometry":{"type":"Polygon","coordinates":[[[19.911311,50.04365],[19.911335,50.04356],[19.911376,50.043565],[19.911378,50.043557],[19.911436,50.043563],[19.911411,50.043656],[19.911311,50.04365]]]}},{"type":"Feature","id":"r3138932","properties":{"type":"school","residential":false,"residents_est":0,"h3_10":"8a1e2e6b231ffff","h3_11":"8b1e2e6b231dfff"},"geometry":{"type":"Polygon","coordinates":[[[19.907012,50.044742],[19.907044,50.044671],[19.907051,50.044672],[19.90706,50.044652],[19.907053,50.04465],[19.907117,50.044509],[19.907125,50.04451],[19.907136,50.044487],[19.907128,50.044486],[19.907192,50.044345],[19.9072,50.044347],[19.907209,50.044327],[19.907201,50.044326],[19.907234,50.044254],[19.907433,50.044291],[19.907405,50.044359],[19.907624,50.044401],[19.907672,50.044304],[19.908096,50.044382],[19.908052,50.044479],[19.90781,50.044434],[19.907612,50.044873],[19.907501,50.044852],[19.907523,50.044803],[19.907228,50.044748],[19.907188,50.044836],[19.907019,50.044804],[19.907044,50.044748],[19.907012,50.044742]],[[19.907261,50.044673],[19.907516,50.04472],[19.907644,50.044438],[19.90739,50.04439],[19.907261,50.044673]]]}},{"type":"Feature","id":"w303312904","properties":{"type":"terrace","levels":3.0,"residential":true,"residents_est":4,"h3_10":"8a1e2e6b236ffff","h3_11":"8b1e2e6b2368fff"},"geometry":{"type":"Polygon","coordinates":[[[19.913105,50.04627],[19.913187,50.046174],[19.913258,50.0462],[19.913246,50.046214],[19.913267,50.046221],[19.91328,50.046208],[19.913207,50.046293],[19.913159,50.046276],[19.913151,50.046285],[19.913155,50.046288],[19.913105,50.04627]]]}},{"type":"Feature","id":"w303312905","properties":{"type":"terrace","levels":3.0,"residential":true,"residents_est":4,"h3_10":"8a1e2e6b236ffff","h3_11":"8b1e2e6b2368fff"},"geometry":{"type":"Polygon","coordinates":[[[19.913024,50.046228],[19.913097,50.046143],[19.913086,50.046158],[19.913106,50.046165],[19.913118,50.04615],[19.913187,50.046174],[19.913105,50.04627],[19.913058,50.046254],[19.913072,50.046245],[19.913024,50.046228]]]}},{"type":"Feature","id":"w303312906","properties":{"type":"terrace","levels":3.0,"residential":true,"residents_est":4,"h3_10":"8a1e2e6b236ffff","h3_11":"8b1e2e6b236dfff"},"geometry":{"type":"Polygon","coordinates":[[[19.913207,50.046293],[19.91328,50.046208],[19.91327,50.046222],[19.91329,50.046229],[19.913302,50.046216],[19.913375,50.046242],[19.913345,50.046282],[19.913291,50.046337],[19.913241,50.046319],[19.913255,50.04631],[19.913207,50.046293]]]}},{"type":"Feature","id":"w303439281","properties":{"type":"detached","levels":4.0,"residential":true,"residents_est":31,"h3_10":"8a1e2e6b2347fff","h3_11":"8b1e2e6b2346fff"},"geometry":{"type":"Polygon","coordinates":[[[19.910674,50.045144],[19.910796,50.045033],[19.910956,50.045106],[19.910913,50.045146],[19.910944,50.045144],[19.910936,50.045149],[19.910938,50.04517],[19.910963,50.045169],[19.910965,50.045194],[19.910971,50.045194],[19.910985,50.045335],[19.910777,50.045342],[19.910761,50.045183],[19.910674,50.045144]]]}},{"type":"Feature","id":"w303439284","properties":{"type":"yes","residential":false,"residents_est":0,"h3_10":"8a1e2e6b23affff","h3_11":"8b1e2e6b23acfff"},"geometry":{"type":"Polygon","coordinates":[[[19.90522,50.043856],[19.905244,50.043833],[19.905313,50.043862],[19.905289,50.043886],[19.90522,50.043856]]]}},{"type":"Feature","id":"w303439286","properties":{"type":"yes","residential":false,"residents_est":0,"h3_10":"8a1e2e6b232ffff","h3_11":"8b1e2e6b232cfff"},"geometry":{"type":"Polygon","coordinates":[[[19.907646,50.046494],[19.907677,50.046436],[19.907733,50.046448],[19.907702,50.046506],[19.907646,50.046494]]]}},{"type":"Feature","id":"w303498388","properties":{"type":"garage","residential":false,"residents_est":0,"h3_10":"8a1e2e6b2357fff","h3_11":"8b1e2e6b2351fff"},"geometry":{"type":"Polygon","coordinates":[[[19.911236,50.044542],[19.911261,50.044473],[19.911294,50.044477],[19.91127,50.044546],[19.911236,50.044542]]]}},{"type":"Feature","id":"w303498389","properties":{"type":"garage","residential":false,"residents_est":0,"h3_10":"8a1e2e6b222ffff","h3_11":"8b1e2e6b222dfff"},"geometry":{"type":"Polygon","coordinates":[[[19.911261,50.043975],[19.911268,50.043923],[19.911348,50.043927],[19.91134,50.043982],[19.911261,50.043975]]]}},{"type":"Feature","id":"w303498390","properties":{"type":"garage","residential":false,"residents_est":0,"h3_10":"8a1e2e6b222ffff","h3_11":"8b1e2e6b222dfff"},"geometry":{"type":"Polygon","coordinates":[[[19.911152,50.043964],[19.911161,50.043921],[19.911208,50.043925],[19.911202,50.04397],[19.911152,50.043964]]]}},{"type":"Feature","id":"w303498391","properties":{"type":"yes","residential":false,"residents_est":0,"h3_10":"8a1e2e6b2357fff","h3_11":"8b1e2e6b2350fff"},"geometry":{"type":"Polygon","coordinates":[[[19.910112,50.04449],[19.910153,50.044467],[19.910212,50.04451],[19.910171,50.044533],[19.910112,50.04449]]]}},{"type":"Feature","id":"w303545271","properties":{"type":"yes","residential":true,"residents_est":3,"h3_10":"8a1e2e6b226ffff","h3_11":"8b1e2e6b226bfff"},"geometry":{"type":"Polygon","coordinates":[[[19.916156,50.043168],[19.91619,50.043129],[19.916172,50.043123],[19.916205,50.043086],[19.916223,50.043092],[19.916296,50.043014],[19.916404,50.043053],[19.916272,50.043209],[19.916156,50.043168]]]}},{"type":"Feature","id":"w303545272","properties":{"type":"yes","residential":true,"residents_est":2,"h3_10":"8a1e2e6b226ffff","h3_11":"8b1e2e6b226bfff"},"geometry":{"type":"Polygon","coordinates":[[[19.915838,50.043032],[19.915921,50.042932],[19.915931,50.042935],[19.915957,50.042903],[19.916063,50.042939],[19.916036,50.042972],[19.916046,50.042975],[19.915978,50.043058],[19.915937,50.043044],[19.915918,50.043066],[19.915874,50.043052],[19.915878,50.043047],[19.915838,50.043032]]]}},{"type":"Feature","id":"w303545274","properties":{"type":"yes","residential":true,"residents_est":4,"h3_10":"8a1e2e6b226ffff","h3_11":"8b1e2e6b2269fff"},"geometry":{"type":"Polygon","coordinates":[[[19.916246,50.04341],[19.916289,50.043364],[19.916273,50.043355],[19.916304,50.043323],[19.916365,50.043346],[19.916375,50.043335],[19.916394,50.043332],[19.916411,50.043339],[19.916446,50.043303],[19.916538,50.043338],[19.91639,50.043495],[19.916316,50.043466],[19.916342,50.043438],[19.916317,50.043428],[19.916311,50.043435],[19.916246,50.04341]]]}},{"type":"Feature","id":"w303545275","properties":{"type":"yes","residential":true,"residents_est":4,"h3_10":"8a1e2e6b226ffff","h3_11":"8b1e2e6b2268fff"},"geometry":{"type":"Polygon","coordinates":[[[19.915402,50.043534],[19.915464,50.043459],[19.915471,50.04346],[19.915515,50.043405],[19.91551,50.043402],[19.915572,50.043327],[19.915624,50.043344],[19.915642,50.04334],[19.915663,50.043347],[19.915669,50.04336],[19.915687,50.043366],[19.915626,50.043442],[19.915617,50.043439],[19.915574,50.043495],[19.915579,50.043498],[19.915518,50.043573],[19.915459,50.043564],[19.915454,50.043552],[19.915402,50.043534]]]}},{"type":"Feature","id":"w303545286","properties":{"type":"yes","residential":false,"residents_est":0,"h3_10":"8a1e2e6b226ffff","h3_11":"8b1e2e6b226dfff"},"geometry":{"type":"Polygon","coordinates":[[[19.915771,50.043976],[19.915795,50.043953],[19.915865,50.043981],[19.915842,50.044005],[19.915771,50.043976]]]}},{"type":"Feature","id":"w303545296","properties":{"type":"yes","residential":false,"residents_est":0,"h3_10":"8a1e2e6b224ffff","h3_11":"8b1e2e6b2248fff"},"geometry":{"type":"Polygon","coordinates":[[[19.916,50.042509],[19.916029,50.042476],[19.916101,50.042503],[19.916073,50.042536],[19.916,50.042509]]]}},{"type":"Feature","id":"w303545304","properties":{"type":"yes","residential":false,"residents_est":0,"h3_10":"8a1e2e6b226ffff","h3_11":"8b1e2e6b226dfff"},"geometry":{"type":"Polygon","coordinates":[[[19.915898,50.043839],[19.915929,50.043805],[19.916002,50.043833],[19.915985,50.043853],[19.915951,50.04384],[19.915938,50.043854],[19.915898,50.043839]]]}},{"type":"Feature","id":"w303545307","properties":{"type":"yes","residential":true,"residents_est":3,"h3_10":"8a1e2e6b226ffff","h3_11":"8b1e2e6b226dfff"},"geometry":{"type":"Polygon","coordinates":[[[19.915982,50.043757],[19.916101,50.043622],[19.916217,50.043667],[19.916091,50.043799],[19.915982,50.043757]]]}},{"type":"Feature","id":"w504345688","properties":{"type":"yes","residential":false,"residents_est":0,"h3_10":"8a1e2e6b22affff","h3_11":"8b1e2e6b22a8fff"},"geometry":{"type":"Polygon","coordinates":[[[19.908147,50.040917],[19.908215,50.040916],[19.908216,50.040977],[19.908148,50.040978],[19.908147,50.040917]]]}},{"type":"Feature","id":"w623055167","properties":{"type":"apartments","address":"Praska 34D","residential":true,"residents_est":41,"h3_10":"8a1e2e6b236ffff","h3_11":"8b1e2e6b236cfff"},"geometry":{"type":"Polygon","coordinates":[[[19.912786,50.046473],[19.912857,50.046385],[19.912943,50.046414],[19.912948,50.046408],[19.91313,50.046467],[19.913124,50.046474],[19.91322,50.046506],[19.913226,50.0465],[19.913319,50.046531],[19.913314,50.046537],[19.913365,50.046554],[19.913281,50.046658],[19.912947,50.046547],[19.912972,50.046515],[19.912892,50.046488],[19.912879,50.046504],[19.912786,50.046473]]]}},{"type":"Feature","id":"w703331591","properties":{"type":"yes","residential":true,"residents_est":12,"h3_10":"8a1e2e6b2367fff","h3_11":"8b1e2e6b2364fff"},"geometry":{"type":"Polygon","coordinates":[[[19.91054,50.046946],[19.910613,50.046891],[19.910632,50.0469],[19.910764,50.046797],[19.91093,50.046887],[19.91072,50.047046],[19.91054,50.046946]]]}},{"type":"Feature","id":"w708022547","properties":{"type":"service","residential":false,"residents_est":0,"h3_10":"8a1e2e6b221ffff","h3_11":"8b1e2e6b2219fff"},"geometry":{"type":"Polygon","coordinates":[[[19.910141,50.041401],[19.910191,50.041375],[19.910235,50.041411],[19.910184,50.041437],[19.910141,50.041401]]]}},{"type":"Feature","id":"w708022550","properties":{"type":"yes","residential":false,"residents_est":0,"h3_10":"8a1e2e6b238ffff","h3_11":"8b1e2e6b238cfff"},"geometry":{"type":"Polygon","coordinates":[[[19.905282,50.042577],[19.905341,50.042567],[19.905354,50.0426],[19.905295,50.042609],[19.905282,50.042577]]]}},{"type":"Feature","id":"w708022554","properties":{"type":"yes","residential":false,"residents_est":0,"h3_10":"8a1e2e6b231ffff","h3_11":"8b1e2e6b231afff"},"geometry":{"type":"Polygon","coordinates":[[[19.906922,50.043866],[19.906943,50.043824],[19.906991,50.043834],[19.906971,50.043876],[19.906922,50.043866]]]}},{"type":"Feature","id":"w708022556","properties":{"type":"yes","residential":false,"residents_est":0,"h3_10":"8a1e2e6b231ffff","h3_11":"8b1e2e6b231afff"},"geometry":{"type":"Polygon","coordinates":[[[19.906765,50.043621],[19.906794,50.04359],[19.90689,50.043625],[19.906861,50.043657],[19.906765,50.043621]]]}},{"type":"Feature","id":"w708022557","properties":{"type":"yes","residential":false,"residents_est":0,"h3_10":"8a1e2e6b231ffff","h3_11":"8b1e2e6b231afff"},"geometry":{"type":"Polygon","coordinates":[[[19.906686,50.043719],[19.906727,50.04371],[19.906749,50.043753],[19.906708,50.043762],[19.906686,50.043719]]]}},{"type":"Feature","id":"w708022558","properties":{"type":"yes","residential":false,"residents_est":0,"h3_10":"8a1e2e6b231ffff","h3_11":"8b1e2e6b231afff"},"geometry":{"type":"Polygon","coordinates":[[[19.906625,50.043708],[19.906669,50.043702],[19.906684,50.043744],[19.90664,50.043751],[19.906625,50.043708]]]}},{"type":"Feature","id":"w708022562","properties":{"type":"yes","residential":false,"residents_est":0,"h3_10":"8a1e2e6b23affff","h3_11":"8b1e2e6b23a9fff"},"geometry":{"type":"Polygon","coordinates":[[[19.906317,50.043607],[19.906326,50.04358],[19.906394,50.04359],[19.906385,50.043617],[19.906317,50.043607]]]}},{"type":"Feature","id":"w708022565","properties":{"type":"yes","residential":false,"residents_est":0,"h3_10":"8a1e2e6b23affff","h3_11":"8b1e2e6b23a9fff"},"geometry":{"type":"Polygon","coordinates":[[[19.906166,50.04358],[19.906185,50.043537],[19.906228,50.043545],[19.906209,50.043588],[19.906166,50.04358]]]}},{"type":"Feature","id":"w708022567","properties":{"type":"yes","residential":false,"residents_est":0,"h3_10":"8a1e2e6b23affff","h3_11":"8b1e2e6b23abfff"},"geometry":{"type":"Polygon","coordinates":[[[19.906157,50.04316],[19.906228,50.043157],[19.90623,50.043185],[19.906158,50.043186],[19.906157,50.04316]]]}},{"type":"Feature","id":"w708022569","properties":{"type":"yes","residential":false,"residents_est":0,"h3_10":"8a1e2e6b23affff","h3_11":"8b1e2e6b23abfff"},"geometry":{"type":"Polygon","coordinates":[[[19.906161,50.043229],[19.906232,50.043228],[19.906233,50.043255],[19.906162,50.043256],[19.906161,50.043229]]]}},{"type":"Feature","id":"w708022570","properties":{"type":"yes","residential":false,"residents_est":0,"h3_10":"8a1e2e6b2237fff","h3_11":"8b1e2e6b2236fff"},"geometry":{"type":"Polygon","coordinates":[[[19.906329,50.043206],[19.90634,50.043162],[19.906389,50.043167],[19.906378,50.043211],[19.906329,50.043206]]]}},{"type":"Feature","id":"w708022571","properties":{"type":"yes","residential":false,"residents_est":0,"h3_10":"8a1e2e6b2237fff","h3_11":"8b1e2e6b2236fff"},"geometry":{"type":"Polygon","coordinates":[[[19.906384,50.043213],[19.906396,50.043168],[19.906439,50.043173],[19.906427,50.043217],[19.906384,50.043213]]]}},{"type":"Feature","id":"w708022573","properties":{"type":"yes","residential":false,"residents_est":0,"h3_10":"8a1e2e6b23affff","h3_11":"8b1e2e6b23a9fff"},"geometry":{"type":"Polygon","coordinates":[[[19.906162,50.043262],[19.906233,50.04326],[19.906234,50.043287],[19.906163,50.043289],[19.906162,50.043262]]]}},{"type":"Feature","id":"w708022574","properties":{"type":"yes","residential":false,"residents_est":0,"h3_10":"8a1e2e6b23affff","h3_11":"8b1e2e6b23a9fff"},"geometry":{"type":"Polygon","coordinates":[[[19.906402,50.043274],[19.906414,50.043248],[19.906481,50.043261],[19.90647,50.043287],[19.906402,50.043274]]]}},{"type":"Feature","id":"w708022575","properties":{"type":"yes","residential":false,"residents_est":0,"h3_10":"8a1e2e6b23affff","h3_11":"8b1e2e6b23a9fff"},"geometry":{"type":"Polygon","coordinates":[[[19.906379,50.043308],[19.90639,50.043282],[19.906459,50.043295],[19.906447,50.043321],[19.906379,50.043308]]]}},{"type":"Feature","id":"w708022576","properties":{"type":"yes","residential":false,"residents_est":0,"h3_10":"8a1e2e6b23affff","h3_11":"8b1e2e6b23a9fff"},"geometry":{"type":"Polygon","coordinates":[[[19.906365,50.043339],[19.906377,50.043313],[19.906445,50.043326],[19.906433,50.043352],[19.906365,50.043339]]]}},{"type":"Feature","id":"w708022580","properties":{"type":"yes","residential":false,"residents_est":0,"h3_10":"8a1e2e6b23affff","h3_11":"8b1e2e6b23a9fff"},"geometry":{"type":"Polygon","coordinates":[[[19.906163,50.04332],[19.906164,50.043294],[19.906235,50.043293],[19.906236,50.04332],[19.906163,50.04332]]]}},{"type":"Feature","id":"w708022582","properties":{"type":"yes","residential":false,"residents_est":0,"h3_10":"8a1e2e6b23affff","h3_11":"8b1e2e6b23a9fff"},"geometry":{"type":"Polygon","coordinates":[[[19.906166,50.043352],[19.906236,50.043351],[19.906237,50.043378],[19.906166,50.043379],[19.906166,50.043352]]]}},{"type":"Feature","id":"w708022585","properties":{"type":"yes","residential":false,"residents_est":0,"h3_10":"8a1e2e6b23affff","h3_11":"8b1e2e6b23a9fff"},"geometry":{"type":"Polygon","coordinates":[[[19.906169,50.043448],[19.90624,50.043446],[19.906241,50.043474],[19.906171,50.043474],[19.906169,50.043448]]]}},{"type":"Feature","id":"w708022586","properties":{"type":"service","residential":false,"residents_est":0,"h3_10":"8a1e2e6b234ffff","h3_11":"8b1e2e6b234bfff"},"geometry":{"type":"Polygon","coordinates":[[[19.913534,50.04462],[19.913582,50.044588],[19.91363,50.044618],[19.913583,50.04465],[19.913534,50.04462]]]}},{"type":"Feature","id":"w708022587","properties":{"type":"terrace","levels":2.0,"residential":true,"residents_est":4,"h3_10":"8a1e2e6b2347fff","h3_11":"8b1e2e6b2340fff"},"geometry":{"type":"Polygon","coordinates":[[[19.911592,50.04519],[19.911646,50.045174],[19.911637,50.045164],[19.911715,50.045144],[19.911798,50.045253],[19.911753,50.045266],[19.911735,50.045242],[19.911707,50.04525],[19.911713,50.045259],[19.911708,50.045272],[19.911687,50.045277],[19.911668,50.04527],[19.911666,50.045262],[19.911645,50.045267],[19.911592,50.04519]]]}},{"type":"Feature","id":"w708022594","properties":{"type":"yes","residential":true,"residents_est":2,"h3_10":"8a1e2e6b224ffff","h3_11":"8b1e2e6b224dfff"},"geometry":{"type":"Polygon","coordinates":[[[19.916356,50.042941],[19.916464,50.04282],[19.916539,50.042837],[19.916543,50.042849],[19.916573,50.04286],[19.916465,50.042981],[19.916356,50.042941]]]}},{"type":"Feature","id":"w708022595","properties":{"type":"yes","residential":true,"residents_est":2,"h3_10":"8a1e2e6b226ffff","h3_11":"8b1e2e6b226bfff"},"geometry":{"type":"Polygon","coordinates":[[[19.915663,50.043225],[19.91575,50.043123],[19.915781,50.043134],[19.915798,50.043131],[19.915854,50.04316],[19.915767,50.043262],[19.915663,50.043225]]]}}]}