{"type":"FeatureCollection","features":[{"type":"Feature","id":"w328468709","properties":{"type":"yes","residential":true,"residents_est":2,"h3_10":"8a1e2e6f2097fff","h3_11":"8b1e2e6f2095fff"},"geometry":{"type":"Polygon","coordinates":[[[20.136631,50.04336],[20.136666,50.043305],[20.136792,50.043339],[20.136756,50.043394],[20.136631,50.04336]]]}},{"type":"Feature","id":"w328468750","properties":{"type":"house","address":"Grabie 103","residential":true,"residents_est":7,"h3_10":"8a1e2e6f2097fff","h3_11":"8b1e2e6f2094fff"},"geometry":{"type":"Polygon","coordinates":[[[20.135802,50.043044],[20.13584,50.042953],[20.135975,50.042977],[20.135936,50.043067],[20.135894,50.04306],[20.135885,50.043081],[20.135852,50.043074],[20.13586,50.043055],[20.135802,50.043044]]]}},{"type":"Feature","id":"w328468770","properties":{"type":"barn","residential":false,"residents_est":0,"h3_10":"8a1e2e6f2097fff","h3_11":"8b1e2e6f2094fff"},"geometry":{"type":"Polygon","coordinates":[[[20.135969,50.04315],[20.136063,50.043002],[20.136182,50.043034],[20.136088,50.043181],[20.135969,50.04315]]]}},{"type":"Feature","id":"w337834093","properties":{"type":"yes","residential":true,"residents_est":2,"h3_10":"8a1e2e6f2137fff","h3_11":"8b1e2e6f2132fff"},"geometry":{"type":"Polygon","coordinates":[[[20.135381,50.048776],[20.135464,50.048767],[20.135492,50.048879],[20.13541,50.048888],[20.135381,50.048776]]]}},{"type":"Feature","id":"w337834126","properties":{"type":"yes","residential":true,"residents_est":3,"h3_10":"8a1e2e6f2137fff","h3_11":"8b1e2e6f2132fff"},"geometry":{"type":"Polygon","coordinates":[[[20.135901,50.048562],[20.136042,50.048557],[20.136049,50.048637],[20.135908,50.048643],[20.135901,50.048562]]]}},{"type":"Feature","id":"w337834157","properties":{"type":"yes","residential":true,"residents_est":4,"h3_10":"8a1e2e6f2137fff","h3_11":"8b1e2e6f2133fff"},"geometry":{"type":"Polygon","coordinates":[[[20.136437,50.048924],[20.136464,50.048841],[20.136646,50.048865],[20.136619,50.048948],[20.136437,50.048924]]]}},{"type":"Feature","id":"w337834178","properties":{"type":"yes","residential":true,"residents_est":6,"h3_10":"8a1e2e6f2137fff","h3_11":"8b1e2e6f2132fff"},"geometry":{"type":"Polygon","coordinates":[[[20.135527,50.048526],[20.135795,50.048504],[20.135812,50.048586],[20.135543,50.048609],[20.135527,50.048526]]]}},{"type":"Feature","id":"w337834211","properties":{"type":"yes","residential":true,"residents_est":2,"h3_10":"8a1e2e6f2137fff","h3_11":"8b1e2e6f2133fff"},"geometry":{"type":"Polygon","coordinates":[[[20.136185,50.048565],[20.136297,50.048553],[20.136311,50.048607],[20.136198,50.048619],[20.136185,50.048565]]]}},{"type":"Feature","id":"w337834331","properties":{"type":"yes","residential":true,"residents_est":2,"h3_10":"8a1e2e6f2137fff","h3_11":"8b1e2e6f2131fff"},"geometry":{"type":"Polygon","coordinates":[[[20.136651,50.04902],[20.136684,50.048932],[20.136762,50.048945],[20.13673,50.049032],[20.136651,50.04902]]]}},{"type":"Feature","id":"w337834385","properties":{"type":"yes","residential":true,"residents_est":5,"h3_10":"8a1e2e6f2137fff","h3_11":"8b1e2e6f2131fff"},"geometry":{"type":"Polygon","coordinates":[[[20.136913,50.049015],[20.136983,50.048879],[20.137087,50.048901],[20.137,50.04907],[20.136928,50.049054],[20.136944,50.049022],[20.136913,50.049015]]]}},{"type":"Feature","id":"w337834532","properties":{"type":"yes","residential":true,"residents_est":5,"h3_10":"8a1e2e6f2137fff","h3_11":"8b1e2e6f2133fff"},"geometry":{"type":"Polygon","coordinates":[[[20.136706,50.048766],[20.136714,50.048728],[20.136759,50.048719],[20.136897,50.048731],[20.136868,50.048872],[20.13673,50.048861],[20.136748,50.04877],[20.136706,50.048766]]]}},{"type":"Feature","id":"w1267072929","properties":{"type":"yes","residential":false,"residents_est":0,"h3_10":"8a1e2e6f2137fff","h3_11":"8b1e2e6f2133fff"},"geometry":{"type":"Polygon","coordinates":[[[20.136388,50.048918],[20.136415,50.048835],[20.136464,50.048841],[20.136437,50.048924],[20.136388,50.048918]]]}},{"type":"Feature","id":"w1267072931","properties":{"type":"yes","residential":false,"residents_est":0,"h3_10":"8a1e2e6f2137fff","h3_11":"8b1e2e6f2132fff"},"geometry":{"type":"Polygon","coordinates":[[[20.135465,50.048639],[20.135535,50.048635],[20.13554,50.04868],[20.135471,50.048684],[20.135465,50.048639]]]}}]}