{"type":"FeatureCollection","features":[{"type":"Feature","id":"w133509820","properties":{"type":"yes","residential":true,"residents_est":5,"h3_10":"8a1e2e6f399ffff","h3_11":"8b1e2e6f3999fff"},"geometry":{"type":"Polygon","coordinates":[[[20.168918,50.052892],[20.168982,50.052802],[20.169124,50.052844],[20.169062,50.052934],[20.168918,50.052892]]]}},{"type":"Feature","id":"w133509836","properties":{"type":"yes","address":"Ciekowiec 29","residential":true,"residents_est":5,"h3_10":"8a1e2e6f399ffff","h3_11":"8b1e2e6f3999fff"},"geometry":{"type":"Polygon","coordinates":[[[20.168491,50.052741],[20.168556,50.052661],[20.168685,50.052704],[20.168621,50.052785],[20.168491,50.052741]]]}},{"type":"Feature","id":"w133509847","properties":{"type":"yes","residential":true,"residents_est":5,"h3_10":"8a1e2e6f3807fff","h3_11":"8b1e2e6f3803fff"},"geometry":{"type":"Polygon","coordinates":[[[20.173113,50.053329],[20.173232,50.05332],[20.173246,50.05339],[20.173166,50.053397],[20.173161,50.053369],[20.173121,50.053372],[20.173113,50.053329]]]}},{"type":"Feature","id":"w133509852","properties":{"type":"yes","address":"Ciekowiec 50","residential":true,"residents_est":5,"h3_10":"8a1e2e6f3887fff","h3_11":"8b1e2e6f3884fff"},"geometry":{"type":"Polygon","coordinates":[[[20.169606,50.051742],[20.169777,50.051709],[20.169815,50.051791],[20.169644,50.051825],[20.169606,50.051742]]]}},{"type":"Feature","id":"w337889723","properties":{"type":"yes","residential":true,"residents_est":3,"h3_10":"8a1e2e6f399ffff","h3_11":"8b1e2e6f399efff"},"geometry":{"type":"Polygon","coordinates":[[[20.167257,50.052969],[20.167378,50.052931],[20.167422,50.052987],[20.167295,50.053029],[20.167289,50.053021],[20.167298,50.053019],[20.167257,50.052969]]]}},{"type":"Feature","id":"w337889761","properties":{"type":"yes","residential":true,"residents_est":5,"h3_10":"8a1e2e6f3997fff","h3_11":"8b1e2e6f3990fff"},"geometry":{"type":"Polygon","coordinates":[[[20.166259,50.053292],[20.1663,50.053264],[20.166294,50.05326],[20.16635,50.053222],[20.1664,50.053253],[20.166415,50.053243],[20.166462,50.053271],[20.166402,50.053312],[20.166424,50.053325],[20.166399,50.053343],[20.166377,50.05333],[20.166351,50.053347],[20.166259,50.053292]]]}},{"type":"Feature","id":"w337889767","properties":{"type":"yes","residential":true,"residents_est":3,"h3_10":"8a1e2e6f384ffff","h3_11":"8b1e2e6f3848fff"},"geometry":{"type":"Polygon","coordinates":[[[20.179489,50.053508],[20.179592,50.053471],[20.179644,50.053527],[20.179542,50.053565],[20.179489,50.053508]]]}},{"type":"Feature","id":"w337889805","properties":{"type":"yes","residential":true,"residents_est":10,"h3_10":"8a1e2e6f385ffff","h3_11":"8b1e2e6f385afff"},"geometry":{"type":"Polygon","coordinates":[[[20.177778,50.052356],[20.177903,50.052308],[20.177936,50.052344],[20.177947,50.05234],[20.177985,50.052377],[20.177958,50.052388],[20.177987,50.052416],[20.177997,50.052411],[20.178041,50.052456],[20.177947,50.052493],[20.177985,50.05253],[20.177923,50.052555],[20.177888,50.052516],[20.177921,50.052503],[20.177778,50.052356]]]}},{"type":"Feature","id":"w337889806","properties":{"type":"yes","residential":true,"residents_est":9,"h3_10":"8a1e2e6f3987fff","h3_11":"8b1e2e6f3982fff"},"geometry":{"type":"Polygon","coordinates":[[[20.167322,50.05361],[20.167488,50.053506],[20.167587,50.053573],[20.167476,50.053642],[20.167508,50.053663],[20.167452,50.053697],[20.167322,50.05361]]]}},{"type":"Feature","id":"w337889828","properties":{"type":"yes","residential":true,"residents_est":6,"h3_10":"8a1e2e6f385ffff","h3_11":"8b1e2e6f3859fff"},"geometry":{"type":"Polygon","coordinates":[[[20.178376,50.05292],[20.178399,50.052913],[20.178406,50.052901],[20.178425,50.052895],[20.178444,50.0529],[20.178483,50.052888],[20.178552,50.052983],[20.178543,50.052986],[20.178562,50.053013],[20.178469,50.053041],[20.17845,50.053014],[20.178429,50.05302],[20.178407,50.05299],[20.178402,50.052991],[20.178377,50.052957],[20.178398,50.05295],[20.178376,50.05292]]]}},{"type":"Feature","id":"w337889863","properties":{"type":"yes","residential":true,"residents_est":2,"h3_10":"8a1e2e6f385ffff","h3_11":"8b1e2e6f385bfff"},"geometry":{"type":"Polygon","coordinates":[[[20.178106,50.05241],[20.178219,50.052356],[20.178261,50.052392],[20.178148,50.052446],[20.178106,50.05241]]]}},{"type":"Feature","id":"w337889975","properties":{"type":"yes","residential":true,"residents_est":6,"h3_10":"8a1e2e6f385ffff","h3_11":"8b1e2e6f385bfff"},"geometry":{"type":"Polygon","coordinates":[[[20.178575,50.052459],[20.178722,50.052385],[20.178795,50.05245],[20.17871,50.052492],[20.178733,50.052513],[20.178674,50.052542],[20.178575,50.052459]]]}},{"type":"Feature","id":"w337890096","properties":{"type":"yes","residential":true,"residents_est":4,"h3_10":"8a1e2e6f384ffff","h3_11":"8b1e2e6f384afff"},"geometry":{"type":"Polygon","coordinates":[[[20.179281,50.053156],[20.179416,50.05311],[20.179476,50.053182],[20.179342,50.053228],[20.179281,50.053156]]]}},{"type":"Feature","id":"w337890117","properties":{"type":"yes","residential":true,"residents_est":3,"h3_10":"8a1e2e6f385ffff","h3_11":"8b1e2e6f385bfff"},"geometry":{"type":"Polygon","coordinates":[[[20.178232,50.052514],[20.178323,50.05248],[20.178382,50.052546],[20.178292,50.052579],[20.178232,50.052514]]]}},{"type":"Feature","id":"w337890138","properties":{"type":"yes","residential":true,"residents_est":4,"h3_10":"8a1e2e6f3997fff","h3_11":"8b1e2e6f3990fff"},"geometry":{"type":"Polygon","coordinates":[[[20.166047,50.053159],[20.166151,50.053094],[20.166147,50.053101],[20.166188,50.053127],[20.166195,50.053123],[20.166242,50.053154],[20.166217,50.05317],[20.166238,50.053184],[20.166207,50.053204],[20.166186,50.05319],[20.166137,50.05322],[20.166047,50.053159]]]}},{"type":"Feature","id":"w337890176","properties":{"type":"yes","residential":true,"residents_est":3,"h3_10":"8a1e2e6f385ffff","h3_11":"8b1e2e6f3859fff"},"geometry":{"type":"Polygon","coordinates":[[[20.178899,50.052704],[20.178938,50.052661],[20.179096,50.05272],[20.179057,50.052763],[20.178899,50.052704]]]}},{"type":"Feature","id":"w337890237","properties":{"type":"yes","residential":false,"residents_est":0,"h3_10":"8a1e2e6f3997fff","h3_11":"8b1e2e6f3990fff"},"geometry":{"type":"Polygon","coordinates":[[[20.16631,50.053416],[20.166377,50.053369],[20.166429,50.053401],[20.16636,50.053446],[20.16631,50.053416]]]}},{"type":"Feature","id":"w337890283","properties":{"type":"yes","residential":true,"residents_est":5,"h3_10":"8a1e2e6f3997fff","h3_11":"8b1e2e6f3991fff"},"geometry":{"type":"Polygon","coordinates":[[[20.167098,50.053344],[20.167194,50.053281],[20.167297,50.053343],[20.167201,50.053407],[20.167098,50.053344]]]}},{"type":"Feature","id":"w337890286","properties":{"type":"yes","residential":true,"residents_est":5,"h3_10":"8a1e2e6f385ffff","h3_11":"8b1e2e6f3859fff"},"geometry":{"type":"Polygon","coordinates":[[[20.178396,50.052703],[20.178429,50.052696],[20.178436,50.052707],[20.178535,50.052684],[20.178582,50.052774],[20.178452,50.052803],[20.178396,50.052703]]]}},{"type":"Feature","id":"w337890318","properties":{"type":"yes","residential":true,"residents_est":4,"h3_10":"8a1e2e6f399ffff","h3_11":"8b1e2e6f399efff"},"geometry":{"type":"Polygon","coordinates":[[[20.167064,50.052796],[20.167185,50.052751],[20.167252,50.052827],[20.16713,50.052873],[20.167064,50.052796]]]}},{"type":"Feature","id":"w337890335","properties":{"type":"yes","residential":true,"residents_est":8,"h3_10":"8a1e2e6f3887fff","h3_11":"8b1e2e6f3884fff"},"geometry":{"type":"Polygon","coordinates":[[[20.169931,50.051732],[20.170053,50.051706],[20.170134,50.051862],[20.170014,50.051892],[20.169931,50.051732]]]}},{"type":"Feature","id":"w337890384","properties":{"type":"yes","residential":true,"residents_est":4,"h3_10":"8a1e2e6f384ffff","h3_11":"8b1e2e6f384bfff"},"geometry":{"type":"Polygon","coordinates":[[[20.179723,50.05301],[20.179825,50.052969],[20.179894,50.05304],[20.179791,50.053081],[20.179723,50.05301]]]}},{"type":"Feature","id":"w337890439","properties":{"type":"yes","residential":true,"residents_est":4,"h3_10":"8a1e2e6f3997fff","h3_11":"8b1e2e6f3993fff"},"geometry":{"type":"Polygon","coordinates":[[[20.166641,50.052807],[20.166723,50.052781],[20.166801,50.052881],[20.166718,50.052907],[20.166641,50.052807]]]}},{"type":"Feature","id":"w337890477","properties":{"type":"yes","residential":true,"residents_est":5,"h3_10":"8a1e2e6f3997fff","h3_11":"8b1e2e6f3993fff"},"geometry":{"type":"Polygon","coordinates":[[[20.166543,50.052624],[20.166668,50.052584],[20.166731,50.052666],[20.166613,50.052705],[20.166543,50.052624]]]}},{"type":"Feature","id":"w337890483","properties":{"type":"yes","residential":true,"residents_est":4,"h3_10":"8a1e2e6f384ffff","h3_11":"8b1e2e6f3849fff"},"geometry":{"type":"Polygon","coordinates":[[[20.18022,50.053455],[20.180343,50.053409],[20.180406,50.053477],[20.180285,50.053524],[20.18022,50.053455]]]}},{"type":"Feature","id":"w337890648","properties":{"type":"yes","residential":true,"residents_est":6,"h3_10":"8a1e2e6f384ffff","h3_11":"8b1e2e6f384afff"},"geometry":{"type":"Polygon","coordinates":[[[20.179182,50.053285],[20.17929,50.053245],[20.179383,50.05335],[20.179238,50.053403],[20.179208,50.05337],[20.179246,50.053356],[20.179182,50.053285]]]}},{"type":"Feature","id":"w337890681","properties":{"type":"yes","residential":true,"residents_est":4,"h3_10":"8a1e2e6f399ffff","h3_11":"8b1e2e6f399cfff"},"geometry":{"type":"Polygon","coordinates":[[[20.167355,50.053303],[20.167421,50.053239],[20.167526,50.053284],[20.167499,50.05331],[20.167526,50.053321],[20.167486,50.053359],[20.167355,50.053303]]]}},{"type":"Feature","id":"w337890708","properties":{"type":"yes","residential":true,"residents_est":3,"h3_10":"8a1e2e6f384ffff","h3_11":"8b1e2e6f384bfff"},"geometry":{"type":"Polygon","coordinates":[[[20.179919,50.053117],[20.179964,50.053098],[20.179976,50.05311],[20.180046,50.053081],[20.1801,50.053133],[20.179986,50.053182],[20.179919,50.053117]]]}},{"type":"Feature","id":"w337890868","properties":{"type":"yes","residential":true,"residents_est":4,"h3_10":"8a1e2e6f399ffff","h3_11":"8b1e2e6f399efff"},"geometry":{"type":"Polygon","coordinates":[[[20.16747,50.052846],[20.167542,50.052823],[20.167629,50.052928],[20.167547,50.052959],[20.167479,50.052873],[20.167489,50.05287],[20.16747,50.052846]]]}},{"type":"Feature","id":"w337890944","properties":{"type":"yes","residential":true,"residents_est":4,"h3_10":"8a1e2e6f3997fff","h3_11":"8b1e2e6f3991fff"},"geometry":{"type":"Polygon","coordinates":[[[20.166835,50.053021],[20.166893,50.053001],[20.166909,50.053019],[20.166961,50.053001],[20.167011,50.05306],[20.166897,50.053094],[20.166835,50.053021]]]}},{"type":"Feature","id":"w337890947","properties":{"type":"yes","residential":true,"residents_est":4,"h3_10":"8a1e2e6f3997fff","h3_11":"8b1e2e6f3992fff"},"geometry":{"type":"Polygon","coordinates":[[[20.166137,50.052783],[20.166287,50.052755],[20.166321,50.052832],[20.166173,50.05286],[20.166137,50.052783]]]}},{"type":"Feature","id":"w337891095","properties":{"type":"yes","residential":true,"residents_est":7,"h3_10":"8a1e2e6f385ffff","h3_11":"8b1e2e6f3859fff"},"geometry":{"type":"Polygon","coordinates":[[[20.178799,50.053024],[20.178904,50.052986],[20.178911,50.052994],[20.178974,50.052973],[20.179003,50.053008],[20.179028,50.053],[20.179043,50.053019],[20.17902,50.053027],[20.179045,50.053058],[20.178875,50.053116],[20.178799,50.053024]]]}},{"type":"Feature","id":"w337891113","properties":{"type":"yes","residential":true,"residents_est":4,"h3_10":"8a1e2e6f399ffff","h3_11":"8b1e2e6f399efff"},"geometry":{"type":"Polygon","coordinates":[[[20.167266,50.052691],[20.167377,50.052653],[20.167445,50.052736],[20.167333,50.052774],[20.167266,50.052691]]]}},{"type":"Feature","id":"w337891196","properties":{"type":"yes","residential":true,"residents_est":4,"h3_10":"8a1e2e6f3997fff","h3_11":"8b1e2e6f3995fff"},"geometry":{"type":"Polygon","coordinates":[[[20.166498,50.053517],[20.16659,50.053455],[20.16668,50.053511],[20.166588,50.053573],[20.166498,50.053517]]]}},{"type":"Feature","id":"w444057836","properties":{"type":"yes","address":"Ciekowiec 28","residential":true,"residents_est":9,"h3_10":"8a1e2e6f399ffff","h3_11":"8b1e2e6f399efff"},"geometry":{"type":"Polygon","coordinates":[[[20.167613,50.052664],[20.167655,50.052649],[20.16766,50.052638],[20.167678,50.052632],[20.167694,50.052635],[20.167736,50.052621],[20.167818,50.052721],[20.167845,50.052712],[20.167889,50.052766],[20.167754,50.052812],[20.167713,50.052763],[20.167698,50.052767],[20.167613,50.052664]]]}},{"type":"Feature","id":"w444057837","properties":{"type":"yes","address":"Ciekowiec 30","residential":true,"residents_est":6,"h3_10":"8a1e2e6f399ffff","h3_11":"8b1e2e6f399afff"},"geometry":{"type":"Polygon","coordinates":[[[20.167418,50.052425],[20.167516,50.052392],[20.167537,50.052417],[20.167552,50.05242],[20.167568,50.052439],[20.167563,50.052449],[20.167584,50.052475],[20.167579,50.052476],[20.167625,50.052531],[20.16754,50.05256],[20.167495,50.052505],[20.167486,50.052508],[20.167418,50.052425]]]}},{"type":"Feature","id":"w444057838","properties":{"type":"yes","residential":false,"residents_est":0,"h3_10":"8a1e2e6f399ffff","h3_11":"8b1e2e6f399cfff"},"geometry":{"type":"Polygon","coordinates":[[[20.167616,50.053382],[20.167668,50.053334],[20.167713,50.053354],[20.167662,50.053403],[20.167616,50.053382]]]}},{"type":"Feature","id":"w722161695","properties":{"type":"yes","residential":true,"residents_est":10,"h3_10":"8a1e2e6f385ffff","h3_11":"8b1e2e6f385efff"},"geometry":{"type":"Polygon","coordinates":[[[20.177443,50.052966],[20.177712,50.052856],[20.177793,50.052938],[20.177622,50.053008],[20.177607,50.052993],[20.177508,50.053033],[20.177443,50.052966]]]}},{"type":"Feature","id":"w722165867","properties":{"type":"yes","residential":true,"residents_est":6,"h3_10":"8a1e2e6f384ffff","h3_11":"8b1e2e6f3848fff"},"geometry":{"type":"Polygon","coordinates":[[[20.179408,50.053625],[20.179515,50.053579],[20.179634,50.053688],[20.179531,50.053736],[20.179408,50.053625]]]}},{"type":"Feature","id":"w722165868","properties":{"type":"yes","residential":false,"residents_est":0,"h3_10":"8a1e2e6f384ffff","h3_11":"8b1e2e6f3848fff"},"geometry":{"type":"Polygon","coordinates":[[[20.179436,50.053532],[20.179491,50.053511],[20.179542,50.053567],[20.179488,50.053588],[20.179436,50.053532]]]}},{"type":"Feature","id":"w722165869","properties":{"type":"yes","residential":false,"residents_est":0,"h3_10":"8a1e2e6f385ffff","h3_11":"8b1e2e6f385bfff"},"geometry":{"type":"Polygon","coordinates":[[[20.178431,50.052657],[20.178524,50.052636],[20.178545,50.052681],[20.178452,50.052703],[20.178431,50.052657]]]}},{"type":"Feature","id":"w722165870","properties":{"type":"yes","residential":false,"residents_est":0,"h3_10":"8a1e2e6f385ffff","h3_11":"8b1e2e6f3859fff"},"geometry":{"type":"Polygon","coordinates":[[[20.178544,50.052695],[20.178596,50.052684],[20.178632,50.052751],[20.178578,50.052762],[20.178544,50.052695]]]}},{"type":"Feature","id":"w722178129","properties":{"type":"yes","residential":false,"residents_est":0,"h3_10":"8a1e2e6f3807fff","h3_11":"8b1e2e6f3803fff"},"geometry":{"type":"Polygon","coordinates":[[[20.173239,50.053447],[20.173315,50.053445],[20.173317,50.053473],[20.17324,50.053475],[20.173239,50.053447]]]}},{"type":"Feature","id":"w722207564","properties":{"type":"yes","residential":false,"residents_est":0,"h3_10":"8a1e2e6f3987fff","h3_11":"8b1e2e6f3982fff"},"geometry":{"type":"Polygon","coordinates":[[[20.167509,50.053622],[20.167587,50.053573],[20.167627,50.053599],[20.167549,50.053648],[20.167509,50.053622]]]}},{"type":"Feature","id":"w722207565","properties":{"type":"yes","residential":true,"residents_est":3,"h3_10":"8a1e2e6f3987fff","h3_11":"8b1e2e6f3982fff"},"geometry":{"type":"Polygon","coordinates":[[[20.167488,50.053506],[20.167549,50.053468],[20.167649,50.053534],[20.167587,50.053573],[20.167488,50.053506]]]}},{"type":"Feature","id":"w722207566","properties":{"type":"yes","residential":true,"residents_est":4,"h3_10":"8a1e2e6f3987fff","h3_11":"8b1e2e6f3982fff"},"geometry":{"type":"Polygon","coordinates":[[[20.167305,50.053482],[20.167376,50.053437],[20.167487,50.053507],[20.167412,50.053553],[20.167305,50.053482]]]}},{"type":"Feature","id":"w722207568","properties":{"type":"yes","residential":true,"residents_est":5,"h3_10":"8a1e2e6f3997fff","h3_11":"8b1e2e6f3991fff"},"geometry":{"type":"Polygon","coordinates":[[[20.166998,50.053411],[20.167098,50.053344],[20.1672,50.053407],[20.1671,50.053473],[20.166998,50.053411]]]}},{"type":"Feature","id":"w722207569","properties":{"type":"yes","residential":false,"residents_est":0,"h3_10":"8a1e2e6f3997fff","h3_11":"8b1e2e6f3995fff"},"geometry":{"type":"Polygon","coordinates":[[[20.166591,50.053572],[20.16665,50.053532],[20.16668,50.05355],[20.16662,50.05359],[20.166591,50.053572]]]}},{"type":"Feature","id":"w722207571","properties":{"type":"yes","residential":true,"residents_est":3,"h3_10":"8a1e2e6f3997fff","h3_11":"8b1e2e6f3993fff"},"geometry":{"type":"Polygon","coordinates":[[[20.166287,50.052755],[20.166381,50.052737],[20.166412,50.052815],[20.166321,50.052832],[20.166287,50.052755]]]}},{"type":"Feature","id":"w722207572","properties":{"type":"yes","residential":true,"residents_est":4,"h3_10":"8a1e2e6f3997fff","h3_11":"8b1e2e6f3993fff"},"geometry":{"type":"Polygon","coordinates":[[[20.166751,50.052818],[20.16688,50.052776],[20.16693,50.052838],[20.166801,50.052881],[20.166751,50.052818]]]}},{"type":"Feature","id":"w722207575","properties":{"type":"yes","residential":false,"residents_est":0,"h3_10":"8a1e2e6f399ffff","h3_11":"8b1e2e6f399efff"},"geometry":{"type":"Polygon","coordinates":[[[20.167232,50.052713],[20.167272,50.052699],[20.16732,50.052758],[20.16728,50.052772],[20.167232,50.052713]]]}},{"type":"Feature","id":"w722207576","properties":{"type":"yes","residential":true,"residents_est":3,"h3_10":"8a1e2e6f399ffff","h3_11":"8b1e2e6f399efff"},"geometry":{"type":"Polygon","coordinates":[[[20.167333,50.052774],[20.167445,50.052736],[20.167486,50.052786],[20.167374,50.052824],[20.167333,50.052774]]]}},{"type":"Feature","id":"w722207577","properties":{"type":"yes","residential":true,"residents_est":5,"h3_10":"8a1e2e6f399ffff","h3_11":"8b1e2e6f3998fff"},"geometry":{"type":"Polygon","coordinates":[[[20.16823,50.052897],[20.168284,50.052826],[20.168322,50.052837],[20.168337,50.052834],[20.168393,50.052853],[20.168397,50.052863],[20.168436,50.052876],[20.168379,50.052947],[20.16823,50.052897]]]}},{"type":"Feature","id":"w1213847183","properties":{"type":"yes","residential":true,"residents_est":5,"h3_10":"8a1e2e6f399ffff","h3_11":"8b1e2e6f399dfff"},"geometry":{"type":"Polygon","coordinates":[[[20.168075,50.053225],[20.168147,50.053123],[20.168271,50.053159],[20.168199,50.053261],[20.168075,50.053225]]]}},{"type":"Feature","id":"w1246883989","properties":{"type":"yes","residential":true,"residents_est":8,"h3_10":"8a1e2e6f384ffff","h3_11":"8b1e2e6f384efff"},"geometry":{"type":"Polygon","coordinates":[[[20.178643,50.053397],[20.178775,50.053344],[20.178898,50.053469],[20.178767,50.053522],[20.178643,50.053397]]]}},{"type":"Feature","id":"w1246883991","properties":{"type":"yes","residential":true,"residents_est":6,"h3_10":"8a1e2e6f385ffff","h3_11":"8b1e2e6f385efff"},"geometry":{"type":"Polygon","coordinates":[[[20.176967,50.052827],[20.177086,50.052778],[20.177181,50.052874],[20.177062,50.052923],[20.176967,50.052827]]]}}]}