{"type":"FeatureCollection","features":[{"type":"Feature","id":"w233371645","properties":{"type":"yes","address":"Zagórze 3","residential":true,"residents_est":5,"h3_10":"8a1e05b4a9a7fff","h3_11":"8b1e05b4a9a6fff"},"geometry":{"type":"Polygon","coordinates":[[[19.818255,50.017806],[19.81843,50.017741],[19.818471,50.017786],[19.818422,50.017804],[19.818446,50.017831],[19.818319,50.017878],[19.818255,50.017806]]]}},{"type":"Feature","id":"w233371757","properties":{"type":"yes","address":"Skołczanka 5","residential":true,"residents_est":6,"h3_10":"8a1e05b4a897fff","h3_11":"8b1e05b4a891fff"},"geometry":{"type":"Polygon","coordinates":[[[19.82075,50.013454],[19.820764,50.01331],[19.82088,50.013315],[19.82087,50.013423],[19.8209,50.013424],[19.820897,50.01346],[19.820773,50.01346],[19.82075,50.013454]]]}},{"type":"Feature","id":"w233371772","properties":{"type":"yes","residential":false,"residents_est":0,"h3_10":"8a1e05b4a96ffff","h3_11":"8b1e05b4a96bfff"},"geometry":{"type":"Polygon","coordinates":[[[19.828344,50.019517],[19.82835,50.019516],[19.828352,50.019522],[19.828421,50.01951],[19.828411,50.019484],[19.828439,50.01948],[19.828453,50.019516],[19.828431,50.01952],[19.828439,50.019539],[19.828359,50.019553],[19.828344,50.019517]]]}},{"type":"Feature","id":"w233371864","properties":{"type":"yes","residential":true,"residents_est":8,"h3_10":"8a1e05b4a9b7fff","h3_11":"8b1e05b4a9b5fff"},"geometry":{"type":"Polygon","coordinates":[[[19.817958,50.017301],[19.818053,50.017257],[19.818046,50.017251],[19.818048,50.017225],[19.818092,50.017236],[19.818158,50.017205],[19.818195,50.017206],[19.818265,50.017266],[19.818041,50.017373],[19.817958,50.017301]]]}},{"type":"Feature","id":"w233371890","properties":{"type":"yes","address":"Świętojańska 16","residential":true,"residents_est":5,"h3_10":"8a1e05b4a987fff","h3_11":"8b1e05b4a981fff"},"geometry":{"type":"Polygon","coordinates":[[[19.820033,50.01663],[19.82017,50.016587],[19.820192,50.016619],[19.820176,50.016624],[19.820217,50.016683],[19.820088,50.016719],[19.820033,50.01663]]]}},{"type":"Feature","id":"w233371929","properties":{"type":"yes","address":"Nad Czerną 9","residential":true,"residents_est":3,"h3_10":"8a1e05b4a917fff","h3_11":"8b1e05b4a911fff"},"geometry":{"type":"Polygon","coordinates":[[[19.821008,50.018443],[19.821087,50.018442],[19.821088,50.018456],[19.82114,50.018455],[19.82114,50.018443],[19.821146,50.018443],[19.821147,50.01852],[19.821013,50.018522],[19.821008,50.018443]]]}},{"type":"Feature","id":"w233371994","properties":{"type":"yes","residential":true,"residents_est":9,"h3_10":"8a1e05b4a827fff","h3_11":"8b1e05b4a825fff"},"geometry":{"type":"Polygon","coordinates":[[[19.824466,50.018167],[19.824478,50.018155],[19.824474,50.018133],[19.824574,50.018126],[19.824564,50.018068],[19.824656,50.018065],[19.824686,50.018242],[19.824574,50.018251],[19.824565,50.018232],[19.824571,50.018232],[19.82457,50.018227],[19.824563,50.01822],[19.82449,50.018224],[19.824485,50.018193],[19.824469,50.018184],[19.824466,50.018167]]]}},{"type":"Feature","id":"w233372138","properties":{"type":"yes","address":"Skołczanka 14a","residential":true,"residents_est":3,"h3_10":"8a1e05b4a89ffff","h3_11":"8b1e05b4a89cfff"},"geometry":{"type":"Polygon","coordinates":[[[19.82194,50.013229],[19.821954,50.013141],[19.822081,50.013149],[19.822068,50.013237],[19.82194,50.013229]]]}},{"type":"Feature","id":"w233372156","properties":{"type":"yes","address":"Skołczanka 28","residential":true,"residents_est":4,"h3_10":"8a1e05b4a887fff","h3_11":"8b1e05b4a885fff"},"geometry":{"type":"Polygon","coordinates":[[[19.82169,50.014391],[19.821714,50.014306],[19.821859,50.014322],[19.821837,50.014407],[19.82169,50.014391]]]}},{"type":"Feature","id":"w233372194","properties":{"type":"yes","address":"Świętojańska 8a","residential":true,"residents_est":5,"h3_10":"8a1e05b4a9affff","h3_11":"8b1e05b4a9a8fff"},"geometry":{"type":"Polygon","coordinates":[[[19.820851,50.017283],[19.820905,50.017268],[19.820894,50.017252],[19.820898,50.017237],[19.820933,50.017227],[19.820946,50.017234],[19.821024,50.017213],[19.821057,50.017262],[19.821005,50.017276],[19.821032,50.017317],[19.820899,50.017354],[19.820851,50.017283]]]}},{"type":"Feature","id":"w233372387","properties":{"type":"yes","address":"Obrony Tyńca 69","residential":true,"residents_est":10,"h3_10":"8a1e05b4a897fff","h3_11":"8b1e05b4a892fff"},"geometry":{"type":"Polygon","coordinates":[[[19.819649,50.013156],[19.819687,50.013086],[19.819761,50.013103],[19.819808,50.013015],[19.819869,50.013029],[19.819904,50.013095],[19.819983,50.013112],[19.819944,50.013184],[19.819863,50.013166],[19.81985,50.013192],[19.819697,50.013158],[19.819693,50.013166],[19.819649,50.013156]]]}},{"type":"Feature","id":"w233372401","properties":{"type":"yes","address":"Świętojańska 2","residential":true,"residents_est":6,"h3_10":"8a1e05b4a91ffff","h3_11":"8b1e05b4a91efff"},"geometry":{"type":"Polygon","coordinates":[[[19.821329,50.018087],[19.821569,50.018032],[19.82161,50.018107],[19.821409,50.018153],[19.821391,50.018119],[19.821351,50.018128],[19.821329,50.018087]]]}},{"type":"Feature","id":"w233372406","properties":{"type":"yes","address":"Świętojańska 6","residential":true,"residents_est":7,"h3_10":"8a1e05b4a9affff","h3_11":"8b1e05b4a9adfff"},"geometry":{"type":"Polygon","coordinates":[[[19.821067,50.017684],[19.821174,50.017662],[19.821167,50.017652],[19.821141,50.017659],[19.821114,50.017614],[19.821266,50.017576],[19.821308,50.017645],[19.821273,50.017654],[19.821296,50.017693],[19.821102,50.017742],[19.821067,50.017684]]]}},{"type":"Feature","id":"w233372670","properties":{"type":"yes","residential":true,"residents_est":6,"h3_10":"8a1e05b4a887fff","h3_11":"8b1e05b4a880fff"},"geometry":{"type":"Polygon","coordinates":[[[19.821679,50.013977],[19.821708,50.013863],[19.821909,50.013889],[19.821897,50.013935],[19.821881,50.013934],[19.821885,50.01392],[19.821865,50.013918],[19.821846,50.013993],[19.821759,50.013985],[19.821761,50.013977],[19.821728,50.013973],[19.821726,50.013982],[19.821679,50.013977]]]}},{"type":"Feature","id":"w233372729","properties":{"type":"yes","address":"Bolesława Śmiałego 60","name":"FERO EXPRESS","residential":true,"residents_est":90,"h3_10":"8a1e05b4a977fff","h3_11":"8b1e05b4a974fff"},"geometry":{"type":"Polygon","coordinates":[[[19.82412,50.019914],[19.824365,50.019662],[19.824514,50.019721],[19.824416,50.01982],[19.824683,50.019928],[19.824731,50.019877],[19.82488,50.019937],[19.824682,50.020142],[19.824533,50.020082],[19.824562,50.020052],[19.824408,50.019989],[19.824296,50.019944],[19.824267,50.019974],[19.82412,50.019914]]]}},{"type":"Feature","id":"w233372804","properties":{"type":"yes","address":"Nad Czerną 25","residential":true,"residents_est":7,"h3_10":"8a1e05b4a90ffff","h3_11":"8b1e05b4a90afff"},"geometry":{"type":"Polygon","coordinates":[[[19.823096,50.01824],[19.823108,50.018231],[19.823105,50.018211],[19.823251,50.018201],[19.823248,50.018189],[19.823329,50.018183],[19.823348,50.018293],[19.823268,50.018299],[19.823266,50.01829],[19.823206,50.018294],[19.823208,50.018303],[19.823141,50.018307],[19.823133,50.018259],[19.823113,50.018261],[19.823098,50.018253],[19.823096,50.01824]]]}},{"type":"Feature","id":"w233372857","properties":{"type":"yes","address":"Skołczanka 12","residential":true,"residents_est":5,"h3_10":"8a1e05b4a89ffff","h3_11":"8b1e05b4a898fff"},"geometry":{"type":"Polygon","coordinates":[[[19.822253,50.013107],[19.822264,50.01303],[19.822468,50.013044],[19.822462,50.013094],[19.822426,50.013092],[19.822422,50.013118],[19.822253,50.013107]]]}},{"type":"Feature","id":"w233372904","properties":{"type":"yes","address":"Nad Czerną 2a","residential":true,"residents_est":9,"h3_10":"8a1e05b4a9a7fff","h3_11":"8b1e05b4a9a3fff"},"geometry":{"type":"Polygon","coordinates":[[[19.819106,50.017526],[19.819146,50.017516],[19.819142,50.017509],[19.819205,50.017495],[19.819171,50.017432],[19.819272,50.017409],[19.819306,50.017471],[19.819416,50.017446],[19.81945,50.017508],[19.819317,50.017538],[19.819328,50.017557],[19.819277,50.017569],[19.819267,50.017549],[19.819133,50.017575],[19.819106,50.017526]]]}},{"type":"Feature","id":"w233372911","properties":{"type":"yes","address":"Świętojańska 17","residential":true,"residents_est":26,"h3_10":"8a1e05b4a8a7fff","h3_11":"8b1e05b4a8a4fff"},"geometry":{"type":"Polygon","coordinates":[[[19.821044,50.015465],[19.82106,50.015298],[19.821144,50.015301],[19.821137,50.015348],[19.821295,50.015356],[19.821298,50.015337],[19.821392,50.015341],[19.821387,50.015381],[19.821402,50.015382],[19.821394,50.015451],[19.821317,50.015448],[19.821316,50.01546],[19.821195,50.015455],[19.821197,50.015434],[19.821133,50.015431],[19.821129,50.015468],[19.821044,50.015465]]]}},{"type":"Feature","id":"w233373400","properties":{"type":"yes","address":"Świętojańska 20","residential":true,"residents_est":5,"h3_10":"8a1e05b4a99ffff","h3_11":"8b1e05b4a99dfff"},"geometry":{"type":"Polygon","coordinates":[[[19.820035,50.015896],[19.820184,50.015881],[19.820207,50.01598],[19.820059,50.015995],[19.820035,50.015896]]]}},{"type":"Feature","id":"w233373406","properties":{"type":"yes","address":"Świętojańska 8c","residential":true,"residents_est":4,"h3_10":"8a1e05b4a9affff","h3_11":"8b1e05b4a9acfff"},"geometry":{"type":"Polygon","coordinates":[[[19.820217,50.017581],[19.820328,50.017554],[19.82038,50.01764],[19.82027,50.017667],[19.820217,50.017581]]]}},{"type":"Feature","id":"w233373538","properties":{"type":"yes","address":"Świętojańska 14","residential":true,"residents_est":5,"h3_10":"8a1e05b4a9affff","h3_11":"8b1e05b4a9aafff"},"geometry":{"type":"Polygon","coordinates":[[[19.820287,50.016839],[19.820438,50.016802],[19.820488,50.016886],[19.820337,50.016923],[19.820287,50.016839]]]}},{"type":"Feature","id":"w233373615","properties":{"type":"yes","address":"Nad Czerną 19","residential":true,"residents_est":2,"h3_10":"8a1e05b4a90ffff","h3_11":"8b1e05b4a90bfff"},"geometry":{"type":"Polygon","coordinates":[[[19.824225,50.018497],[19.824227,50.018435],[19.824338,50.018436],[19.824336,50.018498],[19.824225,50.018497]]]}},{"type":"Feature","id":"w233373681","properties":{"type":"yes","residential":false,"residents_est":0,"h3_10":"8a1e05b4a89ffff","h3_11":"8b1e05b4a89afff"},"geometry":{"type":"Polygon","coordinates":[[[19.821639,50.012614],[19.821646,50.012551],[19.821704,50.012554],[19.821697,50.012617],[19.821639,50.012614]]]}},{"type":"Feature","id":"w233373694","properties":{"type":"yes","residential":true,"residents_est":5,"h3_10":"8a1e05b4a917fff","h3_11":"8b1e05b4a912fff"},"geometry":{"type":"Polygon","coordinates":[[[19.820287,50.018033],[19.820432,50.017997],[19.82049,50.018086],[19.82034,50.018122],[19.820287,50.018033]]]}},{"type":"Feature","id":"w233373757","properties":{"type":"yes","address":"Nad Czerną 17","residential":true,"residents_est":3,"h3_10":"8a1e05b4a90ffff","h3_11":"8b1e05b4a90afff"},"geometry":{"type":"Polygon","coordinates":[[[19.823479,50.018554],[19.823525,50.018474],[19.823622,50.018497],[19.823577,50.018577],[19.823479,50.018554]]]}},{"type":"Feature","id":"w233373769","properties":{"type":"yes","residential":true,"residents_est":2,"h3_10":"8a1e05b4a987fff","h3_11":"8b1e05b4a981fff"},"geometry":{"type":"Polygon","coordinates":[[[19.819846,50.016804],[19.81996,50.016773],[19.819986,50.016812],[19.819872,50.016844],[19.819846,50.016804]]]}},{"type":"Feature","id":"w233373786","properties":{"type":"yes","residential":false,"residents_est":0,"h3_10":"8a1e05b4a91ffff","h3_11":"8b1e05b4a91dfff"},"geometry":{"type":"Polygon","coordinates":[[[19.822337,50.018571],[19.822385,50.01857],[19.822389,50.018648],[19.82234,50.018649],[19.822337,50.018571]]]}},{"type":"Feature","id":"w233373795","properties":{"type":"yes","address":"Nad Czerną 13","residential":true,"residents_est":3,"h3_10":"8a1e05b4a91ffff","h3_11":"8b1e05b4a91cfff"},"geometry":{"type":"Polygon","coordinates":[[[19.821874,50.018491],[19.821997,50.018487],[19.822003,50.018566],[19.821879,50.018569],[19.821874,50.018491]]]}},{"type":"Feature","id":"w233373880","properties":{"type":"yes","residential":false,"residents_est":0,"h3_10":"8a1e05b4a9a7fff","h3_11":"8b1e05b4a9a4fff"},"geometry":{"type":"Polygon","coordinates":[[[19.818547,50.017946],[19.818592,50.017939],[19.818627,50.018036],[19.818583,50.018042],[19.818547,50.017946]]]}},{"type":"Feature","id":"w233373884","properties":{"type":"yes","address":"Nad Czerną 2","residential":true,"residents_est":3,"h3_10":"8a1e05b4a9a7fff","h3_11":"8b1e05b4a9a1fff"},"geometry":{"type":"Polygon","coordinates":[[[19.819416,50.017738],[19.81947,50.017728],[19.819458,50.017703],[19.819528,50.017689],[19.819565,50.017767],[19.819441,50.017791],[19.819416,50.017738]]]}},{"type":"Feature","id":"w233373897","properties":{"type":"yes","residential":true,"residents_est":2,"h3_10":"8a1e05b4a96ffff","h3_11":"8b1e05b4a969fff"},"geometry":{"type":"Polygon","coordinates":[[[19.828566,50.020002],[19.828724,50.019996],[19.828728,50.020038],[19.828569,50.020044],[19.828566,50.020002]]]}},{"type":"Feature","id":"w233373944","properties":{"type":"yes","residential":false,"residents_est":0,"h3_10":"8a1e05b4a867fff","h3_11":"8b1e05b4a860fff"},"geometry":{"type":"Polygon","coordinates":[[[19.829121,50.017896],[19.829121,50.017838],[19.82917,50.017838],[19.82917,50.017896],[19.829121,50.017896]]]}},{"type":"Feature","id":"w233373947","properties":{"type":"yes","address":"Nad Czerną 1","residential":true,"residents_est":5,"h3_10":"8a1e05b4a917fff","h3_11":"8b1e05b4a916fff"},"geometry":{"type":"Polygon","coordinates":[[[19.819867,50.01851],[19.819877,50.018414],[19.820024,50.018417],[19.820018,50.018516],[19.819867,50.01851]]]}},{"type":"Feature","id":"w233374011","properties":{"type":"yes","address":"Świętojańska 18","residential":true,"residents_est":6,"h3_10":"8a1e05b4a987fff","h3_11":"8b1e05b4a981fff"},"geometry":{"type":"Polygon","coordinates":[[[19.819954,50.016355],[19.820126,50.016314],[19.820178,50.016405],[19.820007,50.016446],[19.819954,50.016355]]]}},{"type":"Feature","id":"w233374093","properties":{"type":"yes","residential":true,"residents_est":3,"h3_10":"8a1e05b4a897fff","h3_11":"8b1e05b4a893fff"},"geometry":{"type":"Polygon","coordinates":[[[19.820341,50.012778],[19.820481,50.012776],[19.820481,50.012837],[19.820343,50.012839],[19.820341,50.012778]]]}},{"type":"Feature","id":"w233374214","properties":{"type":"yes","address":"Zagórze 1","residential":true,"residents_est":5,"h3_10":"8a1e05b4a9a7fff","h3_11":"8b1e05b4a9a4fff"},"geometry":{"type":"Polygon","coordinates":[[[19.818592,50.017939],[19.818752,50.017914],[19.818788,50.018011],[19.818627,50.018036],[19.818592,50.017939]]]}},{"type":"Feature","id":"w233374320","properties":{"type":"yes","address":"Skołczanka 14","residential":true,"residents_est":3,"h3_10":"8a1e05b4a89ffff","h3_11":"8b1e05b4a89cfff"},"geometry":{"type":"Polygon","coordinates":[[[19.821846,50.013223],[19.821859,50.013135],[19.821954,50.013141],[19.82194,50.013229],[19.821846,50.013223]]]}},{"type":"Feature","id":"w233374346","properties":{"type":"yes","address":"Świętojańska 19","residential":true,"residents_est":3,"h3_10":"8a1e05b4a98ffff","h3_11":"8b1e05b4a98afff"},"geometry":{"type":"Polygon","coordinates":[[[19.820509,50.015695],[19.820535,50.015617],[19.820665,50.015636],[19.820637,50.015715],[19.820509,50.015695]]]}},{"type":"Feature","id":"w233374399","properties":{"type":"yes","address":"Nad Czerną 4","residential":true,"residents_est":6,"h3_10":"8a1e05b4a9a7fff","h3_11":"8b1e05b4a9a1fff"},"geometry":{"type":"Polygon","coordinates":[[[19.819676,50.017749],[19.819697,50.017744],[19.819704,50.017754],[19.819792,50.017733],[19.819797,50.017743],[19.819857,50.017729],[19.819903,50.017809],[19.819738,50.01785],[19.819734,50.017844],[19.819707,50.017856],[19.819676,50.017806],[19.819707,50.017803],[19.819676,50.017749]]]}},{"type":"Feature","id":"w233374457","properties":{"type":"yes","residential":false,"residents_est":0,"h3_10":"8a1e05b4a997fff","h3_11":"8b1e05b4a992fff"},"geometry":{"type":"Polygon","coordinates":[[[19.817603,50.015325],[19.817712,50.015324],[19.817713,50.01537],[19.817604,50.015371],[19.817603,50.015325]]]}},{"type":"Feature","id":"w233374476","properties":{"type":"yes","address":"Skołczanka 26","residential":true,"residents_est":4,"h3_10":"8a1e05b4a887fff","h3_11":"8b1e05b4a880fff"},"geometry":{"type":"Polygon","coordinates":[[[19.82145,50.014145],[19.821473,50.014051],[19.821591,50.014063],[19.821568,50.014157],[19.82145,50.014145]]]}},{"type":"Feature","id":"w233374537","properties":{"type":"yes","address":"Skołczanka 10","residential":true,"residents_est":3,"h3_10":"8a1e05b4a89ffff","h3_11":"8b1e05b4a898fff"},"geometry":{"type":"Polygon","coordinates":[[[19.821661,50.012964],[19.821674,50.012891],[19.821826,50.012902],[19.821814,50.012974],[19.821661,50.012964]]]}},{"type":"Feature","id":"w233374540","properties":{"type":"yes","address":"Obrony Tyńca 59c","residential":true,"residents_est":6,"h3_10":"8a1e05b4a8b7fff","h3_11":"8b1e05b4a8b2fff"},"geometry":{"type":"Polygon","coordinates":[[[19.819334,50.013905],[19.819416,50.013822],[19.819564,50.013884],[19.819481,50.013966],[19.819334,50.013905]]]}},{"type":"Feature","id":"w233374573","properties":{"type":"yes","residential":false,"residents_est":0,"h3_10":"8a1e05b4a907fff","h3_11":"8b1e05b4a903fff"},"geometry":{"type":"Polygon","coordinates":[[[19.822077,50.01878],[19.822084,50.018721],[19.822168,50.018725],[19.822161,50.018784],[19.822077,50.01878]]]}},{"type":"Feature","id":"w233374657","properties":{"type":"yes","residential":false,"residents_est":0,"h3_10":"8a1e05b4a917fff","h3_11":"8b1e05b4a910fff"},"geometry":{"type":"Polygon","coordinates":[[[19.820712,50.018447],[19.820763,50.018446],[19.820766,50.018526],[19.820716,50.018527],[19.820712,50.018447]]]}},{"type":"Feature","id":"w233374661","properties":{"type":"yes","residential":true,"residents_est":4,"h3_10":"8a1e05b4a9a7fff","h3_11":"8b1e05b4a9a6fff"},"geometry":{"type":"Polygon","coordinates":[[[19.818496,50.017683],[19.818619,50.017649],[19.818684,50.017746],[19.818561,50.01778],[19.818496,50.017683]]]}},{"type":"Feature","id":"w233374745","properties":{"type":"yes","residential":false,"residents_est":0,"h3_10":"8a1e05b4a99ffff","h3_11":"8b1e05b4a99dfff"},"geometry":{"type":"Polygon","coordinates":[[[19.819956,50.015991],[19.819996,50.015985],[19.82002,50.016053],[19.819981,50.01606],[19.819956,50.015991]]]}},{"type":"Feature","id":"w233374746","properties":{"type":"yes","residential":false,"residents_est":0,"h3_10":"8a1e05b4a91ffff","h3_11":"8b1e05b4a91cfff"},"geometry":{"type":"Polygon","coordinates":[[[19.82182,50.018492],[19.821874,50.018491],[19.821879,50.018569],[19.821825,50.018571],[19.82182,50.018492]]]}},{"type":"Feature","id":"w233374763","properties":{"type":"yes","residential":true,"residents_est":2,"h3_10":"8a1e05b4a917fff","h3_11":"8b1e05b4a916fff"},"geometry":{"type":"Polygon","coordinates":[[[19.819764,50.018538],[19.819828,50.01853],[19.819857,50.018628],[19.819792,50.018636],[19.819764,50.018538]]]}},{"type":"Feature","id":"w233374883","properties":{"type":"yes","address":"Nad Czerną 15","residential":true,"residents_est":4,"h3_10":"8a1e05b4a91ffff","h3_11":"8b1e05b4a91dfff"},"geometry":{"type":"Polygon","coordinates":[[[19.822121,50.018527],[19.822255,50.018524],[19.82226,50.018619],[19.822126,50.018622],[19.822121,50.018527]]]}},{"type":"Feature","id":"w233375042","properties":{"type":"yes","address":"Skołczanka 4","residential":true,"residents_est":4,"h3_10":"8a1e05b4a89ffff","h3_11":"8b1e05b4a89afff"},"geometry":{"type":"Polygon","coordinates":[[[19.821832,50.012761],[19.821842,50.012687],[19.822011,50.012697],[19.822008,50.012724],[19.822046,50.012726],[19.82204,50.012773],[19.821832,50.012761]]]}},{"type":"Feature","id":"w233375046","properties":{"type":"yes","address":"Toporczyków 25","residential":true,"residents_est":3,"h3_10":"8a1e05b4a997fff","h3_11":"8b1e05b4a993fff"},"geometry":{"type":"Polygon","coordinates":[[[19.818371,50.015414],[19.818397,50.015346],[19.818533,50.015368],[19.818507,50.015437],[19.818371,50.015414]]]}},{"type":"Feature","id":"w233375093","properties":{"type":"yes","residential":true,"residents_est":2,"h3_10":"8a1e05b4a917fff","h3_11":"8b1e05b4a915fff"},"geometry":{"type":"Polygon","coordinates":[[[19.820735,50.018649],[19.820845,50.018646],[19.820849,50.0187],[19.820739,50.018704],[19.820735,50.018649]]]}},{"type":"Feature","id":"w233375146","properties":{"type":"yes","residential":true,"residents_est":2,"h3_10":"8a1e05b4a8a7fff","h3_11":"8b1e05b4a8a4fff"},"geometry":{"type":"Polygon","coordinates":[[[19.821184,50.015574],[19.821187,50.015516],[19.821302,50.015518],[19.821299,50.015576],[19.821184,50.015574]]]}},{"type":"Feature","id":"w233375185","properties":{"type":"yes","address":"Nad Czerną 3","residential":true,"residents_est":4,"h3_10":"8a1e05b4a917fff","h3_11":"8b1e05b4a910fff"},"geometry":{"type":"Polygon","coordinates":[[[19.820251,50.018509],[19.820257,50.018427],[19.820405,50.018432],[19.820398,50.018514],[19.820251,50.018509]]]}},{"type":"Feature","id":"w233375292","properties":{"type":"yes","residential":false,"residents_est":0,"h3_10":"8a1e05b4a98ffff","h3_11":"8b1e05b4a98efff"},"geometry":{"type":"Polygon","coordinates":[[[19.820203,50.016103],[19.820275,50.016095],[19.820294,50.016161],[19.820222,50.016169],[19.820203,50.016103]]]}},{"type":"Feature","id":"w233375294","properties":{"type":"yes","residential":false,"residents_est":0,"h3_10":"8a1e05b4a91ffff","h3_11":"8b1e05b4a91efff"},"geometry":{"type":"Polygon","coordinates":[[[19.821766,50.018032],[19.821813,50.018025],[19.821829,50.01807],[19.821782,50.018076],[19.821766,50.018032]]]}},{"type":"Feature","id":"w233375410","properties":{"type":"yes","residential":false,"residents_est":0,"h3_10":"8a1e05b4a98ffff","h3_11":"8b1e05b4a98efff"},"geometry":{"type":"Polygon","coordinates":[[[19.820218,50.01617],[19.820294,50.016161],[19.820303,50.016208],[19.820231,50.016216],[19.820218,50.01617]]]}},{"type":"Feature","id":"w233375468","properties":{"type":"yes","address":"Skołczanka 2","residential":true,"residents_est":4,"h3_10":"8a1e05b4a89ffff","h3_11":"8b1e05b4a89afff"},"geometry":{"type":"Polygon","coordinates":[[[19.821697,50.012617],[19.821706,50.012536],[19.821844,50.012542],[19.821835,50.012623],[19.821697,50.012617]]]}},{"type":"Feature","id":"w233375622","properties":{"type":"yes","address":"Nad Czerną 6","residential":true,"residents_est":4,"h3_10":"8a1e05b4a9affff","h3_11":"8b1e05b4a9acfff"},"geometry":{"type":"Polygon","coordinates":[[[19.820015,50.017662],[19.820145,50.017629],[19.820197,50.017715],[19.820068,50.017748],[19.820015,50.017662]]]}},{"type":"Feature","id":"w233375777","properties":{"type":"yes","address":"Świętojańska 10","residential":true,"residents_est":5,"h3_10":"8a1e05b4a9affff","h3_11":"8b1e05b4a9a8fff"},"geometry":{"type":"Polygon","coordinates":[[[19.820609,50.017096],[19.820745,50.017055],[19.820802,50.017134],[19.820746,50.017151],[19.820759,50.017168],[19.820681,50.017192],[19.820609,50.017096]]]}},{"type":"Feature","id":"w233375797","properties":{"type":"yes","address":"Świętojańska 4","residential":true,"residents_est":4,"h3_10":"8a1e05b4a9affff","h3_11":"8b1e05b4a9adfff"},"geometry":{"type":"Polygon","coordinates":[[[19.821229,50.017801],[19.821381,50.017759],[19.821431,50.017834],[19.821279,50.017876],[19.821229,50.017801]]]}},{"type":"Feature","id":"w233375900","properties":{"type":"yes","address":"Nad Czerną 5","residential":true,"residents_est":3,"h3_10":"8a1e05b4a917fff","h3_11":"8b1e05b4a910fff"},"geometry":{"type":"Polygon","coordinates":[[[19.820512,50.018449],[19.820648,50.018448],[19.820648,50.018517],[19.820513,50.018518],[19.820512,50.018449]]]}},{"type":"Feature","id":"w233375929","properties":{"type":"yes","address":"Nad Czerną 7","residential":true,"residents_est":3,"h3_10":"8a1e05b4a917fff","h3_11":"8b1e05b4a911fff"},"geometry":{"type":"Polygon","coordinates":[[[19.820763,50.018446],[19.820891,50.018444],[19.820894,50.018512],[19.820832,50.018513],[19.820833,50.018525],[19.820766,50.018526],[19.820763,50.018446]]]}},{"type":"Feature","id":"w233375935","properties":{"type":"yes","address":"Nad Czerną 11","residential":true,"residents_est":7,"h3_10":"8a1e05b4a91ffff","h3_11":"8b1e05b4a91cfff"},"geometry":{"type":"Polygon","coordinates":[[[19.82144,50.018438],[19.821625,50.018435],[19.821627,50.018526],[19.821559,50.018527],[19.821561,50.018562],[19.821444,50.018563],[19.82144,50.018438]]]}},{"type":"Feature","id":"w233375985","properties":{"type":"yes","address":"Świętojańska 12","residential":true,"residents_est":4,"h3_10":"8a1e05b4a9affff","h3_11":"8b1e05b4a9aafff"},"geometry":{"type":"Polygon","coordinates":[[[19.820326,50.016993],[19.82047,50.016955],[19.820525,50.017033],[19.820378,50.017074],[19.820326,50.016993]]]}},{"type":"Feature","id":"w233376198","properties":{"type":"yes","residential":true,"residents_est":2,"h3_10":"8a1e05b4a9affff","h3_11":"8b1e05b4a9aafff"},"geometry":{"type":"Polygon","coordinates":[[[19.820046,50.01687],[19.820125,50.01685],[19.82015,50.016891],[19.820134,50.016895],[19.820151,50.016922],[19.820087,50.016938],[19.820046,50.01687]]]}},{"type":"Feature","id":"w233376289","properties":{"type":"yes","residential":false,"residents_est":0,"h3_10":"8a1e05b4a89ffff","h3_11":"8b1e05b4a89dfff"},"geometry":{"type":"Polygon","coordinates":[[[19.822219,50.01329],[19.822226,50.01325],[19.822304,50.013255],[19.822298,50.013295],[19.822219,50.01329]]]}},{"type":"Feature","id":"w233376326","properties":{"type":"yes","residential":true,"residents_est":2,"h3_10":"8a1e05b4a887fff","h3_11":"8b1e05b4a880fff"},"geometry":{"type":"Polygon","coordinates":[[[19.82198,50.014032],[19.821989,50.013992],[19.82206,50.013998],[19.822062,50.013987],[19.822129,50.013993],[19.822118,50.014045],[19.82198,50.014032]]]}},{"type":"Feature","id":"w233376477","properties":{"type":"yes","address":"Nad Czerną 41","residential":true,"residents_est":4,"h3_10":"8a1e05b4a867fff","h3_11":"8b1e05b4a860fff"},"geometry":{"type":"Polygon","coordinates":[[[19.829111,50.017751],[19.82925,50.017751],[19.82925,50.017838],[19.829111,50.017838],[19.829111,50.017751]]]}},{"type":"Feature","id":"w233376502","properties":{"type":"yes","address":"Skołczanka 5","residential":true,"residents_est":6,"h3_10":"8a1e05b4a897fff","h3_11":"8b1e05b4a891fff"},"geometry":{"type":"Polygon","coordinates":[[[19.820886,50.01322],[19.820896,50.013125],[19.821092,50.013133],[19.821083,50.013228],[19.820886,50.01322]]]}},{"type":"Feature","id":"w233376544","properties":{"type":"yes","residential":false,"residents_est":0,"h3_10":"8a1e05b4a917fff","h3_11":"8b1e05b4a910fff"},"geometry":{"type":"Polygon","coordinates":[[[19.820465,50.018536],[19.820468,50.018454],[19.820512,50.018454],[19.820513,50.018518],[19.820562,50.018517],[19.820562,50.018536],[19.820465,50.018536]]]}},{"type":"Feature","id":"w233376645","properties":{"type":"yes","address":"Skołczanka 18","residential":true,"residents_est":4,"h3_10":"8a1e05b4a887fff","h3_11":"8b1e05b4a883fff"},"geometry":{"type":"Polygon","coordinates":[[[19.821784,50.013681],[19.821796,50.0136],[19.821934,50.013608],[19.821923,50.013689],[19.821784,50.013681]]]}},{"type":"Feature","id":"w233376660","properties":{"type":"yes","residential":false,"residents_est":0,"h3_10":"8a1e05b4a917fff","h3_11":"8b1e05b4a911fff"},"geometry":{"type":"Polygon","coordinates":[[[19.82103,50.018561],[19.821031,50.018539],[19.821046,50.018539],[19.821046,50.018521],[19.821147,50.01852],[19.821148,50.018561],[19.82103,50.018561]]]}},{"type":"Feature","id":"w233376681","properties":{"type":"yes","address":"Nad Czerną 31b","residential":true,"residents_est":4,"h3_10":"8a1e05b4a82ffff","h3_11":"8b1e05b4a82dfff"},"geometry":{"type":"Polygon","coordinates":[[[19.826139,50.017605],[19.826249,50.017599],[19.826247,50.017583],[19.826317,50.017579],[19.826328,50.017665],[19.826148,50.017674],[19.826139,50.017605]]]}},{"type":"Feature","id":"w233376722","properties":{"type":"yes","residential":true,"residents_est":5,"h3_10":"8a1e05b4a897fff","h3_11":"8b1e05b4a890fff"},"geometry":{"type":"Polygon","coordinates":[[[19.820516,50.013256],[19.820519,50.013205],[19.820567,50.013205],[19.820568,50.013186],[19.820764,50.01319],[19.820761,50.013259],[19.820516,50.013256]]]}},{"type":"Feature","id":"w233376734","properties":{"type":"yes","residential":false,"residents_est":0,"h3_10":"8a1e05b4a96ffff","h3_11":"8b1e05b4a96bfff"},"geometry":{"type":"Polygon","coordinates":[[[19.828333,50.019475],[19.828402,50.019463],[19.828421,50.01951],[19.828352,50.019522],[19.828333,50.019475]]]}},{"type":"Feature","id":"w233377150","properties":{"type":"yes","address":"Nad Czerną 11a","residential":true,"residents_est":3,"h3_10":"8a1e05b4a91ffff","h3_11":"8b1e05b4a91cfff"},"geometry":{"type":"Polygon","coordinates":[[[19.821625,50.018435],[19.821747,50.018434],[19.821749,50.018525],[19.821627,50.018526],[19.821625,50.018435]]]}},{"type":"Feature","id":"w233377422","properties":{"type":"yes","address":"Świętojańska 8","residential":true,"residents_est":6,"h3_10":"8a1e05b4a9affff","h3_11":"8b1e05b4a9a8fff"},"geometry":{"type":"Polygon","coordinates":[[[19.820909,50.017447],[19.821089,50.017396],[19.821098,50.017406],[19.821136,50.017396],[19.821171,50.017447],[19.821134,50.017457],[19.82114,50.017468],[19.821088,50.017483],[19.821097,50.017498],[19.821017,50.01752],[19.820989,50.01748],[19.82094,50.017493],[19.820909,50.017447]]]}},{"type":"Feature","id":"w233377451","properties":{"type":"yes","address":"Zagórze 11a","residential":true,"residents_est":5,"h3_10":"8a1e05b4a9b7fff","h3_11":"8b1e05b4a9b6fff"},"geometry":{"type":"Polygon","coordinates":[[[19.816875,50.017053],[19.816951,50.017019],[19.816969,50.017036],[19.817054,50.016998],[19.817121,50.017065],[19.816958,50.017131],[19.816875,50.017053]]]}},{"type":"Feature","id":"w233377576","properties":{"type":"yes","residential":true,"residents_est":3,"h3_10":"8a1e05b4a9affff","h3_11":"8b1e05b4a9a8fff"},"geometry":{"type":"Polygon","coordinates":[[[19.820626,50.017519],[19.820711,50.017496],[19.820759,50.017572],[19.820656,50.017597],[19.820628,50.017554],[19.820646,50.017549],[19.820626,50.017519]]]}},{"type":"Feature","id":"w233377749","properties":{"type":"yes","address":"Skołczanka 18a","residential":true,"residents_est":4,"h3_10":"8a1e05b4a887fff","h3_11":"8b1e05b4a883fff"},"geometry":{"type":"Polygon","coordinates":[[[19.822134,50.013743],[19.822147,50.013677],[19.822195,50.013681],[19.822201,50.01365],[19.822312,50.013659],[19.822292,50.013759],[19.822134,50.013743]]]}},{"type":"Feature","id":"w233378043","properties":{"type":"yes","residential":true,"residents_est":4,"h3_10":"8a1e05b4a89ffff","h3_11":"8b1e05b4a89dfff"},"geometry":{"type":"Polygon","coordinates":[[[19.822433,50.013237],[19.822444,50.013164],[19.822612,50.013175],[19.822609,50.013211],[19.822584,50.013216],[19.822582,50.013242],[19.822601,50.013243],[19.8226,50.013248],[19.822433,50.013237]]]}},{"type":"Feature","id":"w233378087","properties":{"type":"yes","address":"Zagórze 5","residential":true,"residents_est":5,"h3_10":"8a1e05b4a9a7fff","h3_11":"8b1e05b4a9a6fff"},"geometry":{"type":"Polygon","coordinates":[[[19.817948,50.017662],[19.81799,50.01764],[19.817975,50.017628],[19.818014,50.017607],[19.818028,50.017619],[19.818076,50.017595],[19.8181,50.017614],[19.818111,50.017608],[19.818129,50.01761],[19.818147,50.01763],[19.818132,50.017639],[19.818156,50.017658],[19.818028,50.017725],[19.817948,50.017662]]]}},{"type":"Feature","id":"w233378090","properties":{"type":"yes","address":"Nad Czerną 15a","residential":true,"residents_est":5,"h3_10":"8a1e05b4a91ffff","h3_11":"8b1e05b4a91dfff"},"geometry":{"type":"Polygon","coordinates":[[[19.822385,50.01857],[19.8225,50.018569],[19.822501,50.018587],[19.822529,50.018587],[19.822531,50.018625],[19.822503,50.018626],[19.822507,50.018695],[19.822392,50.018697],[19.822385,50.01857]]]}},{"type":"Feature","id":"w233378174","properties":{"type":"yes","residential":true,"residents_est":4,"h3_10":"8a1e05b4a90ffff","h3_11":"8b1e05b4a90afff"},"geometry":{"type":"Polygon","coordinates":[[[19.823386,50.018501],[19.823421,50.018427],[19.823536,50.018453],[19.823479,50.018554],[19.82341,50.018538],[19.823426,50.018511],[19.823386,50.018501]]]}},{"type":"Feature","id":"w233378218","properties":{"type":"yes","residential":true,"residents_est":7,"h3_10":"8a1e05b4a897fff","h3_11":"8b1e05b4a890fff"},"geometry":{"type":"Polygon","coordinates":[[[19.820373,50.013255],[19.820379,50.013106],[19.820522,50.013108],[19.820519,50.013192],[19.820505,50.013192],[19.820505,50.013204],[19.820519,50.013205],[19.820516,50.013256],[19.820373,50.013255]]]}},{"type":"Feature","id":"w703326108","properties":{"type":"yes","residential":true,"residents_est":4,"h3_10":"8a1e05b4a957fff","h3_11":"8b1e05b4a950fff"},"geometry":{"type":"Polygon","coordinates":[[[19.824896,50.018471],[19.824899,50.018392],[19.825033,50.018394],[19.825032,50.018403],[19.825078,50.018404],[19.825076,50.018464],[19.82503,50.018463],[19.82503,50.018473],[19.824896,50.018471]]]}},{"type":"Feature","id":"w703326109","properties":{"type":"yes","residential":true,"residents_est":4,"h3_10":"8a1e05b4a957fff","h3_11":"8b1e05b4a954fff"},"geometry":{"type":"Polygon","coordinates":[[[19.82498,50.018694],[19.824983,50.018614],[19.825118,50.018616],[19.825117,50.018626],[19.825163,50.018627],[19.825162,50.018687],[19.825116,50.018686],[19.825116,50.018696],[19.82498,50.018694]]]}},{"type":"Feature","id":"w703326110","properties":{"type":"yes","residential":true,"residents_est":4,"h3_10":"8a1e05b4a82ffff","h3_11":"8b1e05b4a82dfff"},"geometry":{"type":"Polygon","coordinates":[[[19.82585,50.017625],[19.82596,50.017617],[19.825979,50.01773],[19.825869,50.017738],[19.82585,50.017625]]]}},{"type":"Feature","id":"w703326111","properties":{"type":"yes","residential":false,"residents_est":0,"h3_10":"8a1e05b4a867fff","h3_11":"8b1e05b4a863fff"},"geometry":{"type":"Polygon","coordinates":[[[19.829208,50.017308],[19.829241,50.017278],[19.82929,50.0173],[19.829258,50.017331],[19.829208,50.017308]]]}},{"type":"Feature","id":"w706466523","properties":{"type":"house","residential":true,"residents_est":9,"h3_10":"8a1e05b4a99ffff","h3_11":"8b1e05b4a99cfff"},"geometry":{"type":"Polygon","coordinates":[[[19.819535,50.015749],[19.819658,50.01572],[19.819717,50.015817],[19.819595,50.015848],[19.819535,50.015749]]]}},{"type":"Feature","id":"w706466524","properties":{"type":"house","residential":true,"residents_est":8,"h3_10":"8a1e05b4a99ffff","h3_11":"8b1e05b4a99efff"},"geometry":{"type":"Polygon","coordinates":[[[19.818956,50.015577],[19.819005,50.015507],[19.819144,50.015546],[19.819095,50.015617],[19.818956,50.015577]]]}},{"type":"Feature","id":"w706466525","properties":{"type":"yes","residential":true,"residents_est":3,"h3_10":"8a1e05b4a9b7fff","h3_11":"8b1e05b4a9b0fff"},"geometry":{"type":"Polygon","coordinates":[[[19.817197,50.017001],[19.817285,50.016959],[19.81735,50.017016],[19.817316,50.017032],[19.817324,50.01704],[19.817272,50.017066],[19.817197,50.017001]]]}},{"type":"Feature","id":"w706466526","properties":{"type":"house","residential":true,"residents_est":12,"h3_10":"8a1e05b4a9b7fff","h3_11":"8b1e05b4a9b0fff"},"geometry":{"type":"Polygon","coordinates":[[[19.81736,50.01687],[19.817463,50.01682],[19.817491,50.016844],[19.817521,50.016829],[19.817594,50.016891],[19.817507,50.016934],[19.81752,50.016945],[19.817448,50.01698],[19.817387,50.016928],[19.817412,50.016915],[19.81736,50.01687]]]}},{"type":"Feature","id":"w706466527","properties":{"type":"house","residential":true,"residents_est":13,"h3_10":"8a1e05b4a9b7fff","h3_11":"8b1e05b4a9b3fff"},"geometry":{"type":"Polygon","coordinates":[[[19.817634,50.016742],[19.81774,50.016695],[19.817767,50.016719],[19.817797,50.016705],[19.817865,50.016769],[19.817777,50.016809],[19.817789,50.016821],[19.817716,50.016855],[19.817656,50.0168],[19.817684,50.016788],[19.817634,50.016742]]]}},{"type":"Feature","id":"w717836346","properties":{"type":"yes","residential":true,"residents_est":2,"h3_10":"8a1e05b4a94ffff","h3_11":"8b1e05b4a94dfff"},"geometry":{"type":"Polygon","coordinates":[[[19.828976,50.019333],[19.829092,50.019331],[19.829095,50.019391],[19.828979,50.019393],[19.828976,50.019333]]]}},{"type":"Feature","id":"w717836356","properties":{"type":"yes","residential":true,"residents_est":2,"h3_10":"8a1e05b4a9a7fff","h3_11":"8b1e05b4a9a5fff"},"geometry":{"type":"Polygon","coordinates":[[[19.819597,50.018086],[19.819626,50.01802],[19.819723,50.018038],[19.819694,50.018104],[19.819597,50.018086]]]}},{"type":"Feature","id":"w717836357","properties":{"type":"yes","residential":false,"residents_est":0,"h3_10":"8a1e05b4a9a7fff","h3_11":"8b1e05b4a9a6fff"},"geometry":{"type":"Polygon","coordinates":[[[19.818158,50.017853],[19.818189,50.01783],[19.818242,50.01786],[19.818211,50.017883],[19.818158,50.017853]]]}},{"type":"Feature","id":"w717836362","properties":{"type":"yes","residential":false,"residents_est":0,"h3_10":"8a1e05b4a997fff","h3_11":"8b1e05b4a993fff"},"geometry":{"type":"Polygon","coordinates":[[[19.818506,50.015435],[19.818531,50.015372],[19.818588,50.015381],[19.818563,50.015445],[19.818506,50.015435]]]}},{"type":"Feature","id":"w717836363","properties":{"type":"yes","residential":false,"residents_est":0,"h3_10":"8a1e05b4a99ffff","h3_11":"8b1e05b4a99dfff"},"geometry":{"type":"Polygon","coordinates":[[[19.819854,50.01573],[19.819921,50.01572],[19.81994,50.015771],[19.819872,50.015781],[19.819854,50.01573]]]}},{"type":"Feature","id":"w717836365","properties":{"type":"yes","residential":false,"residents_est":0,"h3_10":"8a1e05b4a9affff","h3_11":"8b1e05b4a9abfff"},"geometry":{"type":"Polygon","coordinates":[[[19.820768,50.01698],[19.820826,50.016961],[19.820864,50.017011],[19.820806,50.01703],[19.820768,50.01698]]]}},{"type":"Feature","id":"w717836366","properties":{"type":"yes","residential":false,"residents_est":0,"h3_10":"8a1e05b4a9affff","h3_11":"8b1e05b4a9a8fff"},"geometry":{"type":"Polygon","coordinates":[[[19.820497,50.017223],[19.82054,50.017209],[19.820571,50.017248],[19.820527,50.017262],[19.820497,50.017223]]]}},{"type":"Feature","id":"w717836368","properties":{"type":"yes","residential":false,"residents_est":0,"h3_10":"8a1e05b4a91ffff","h3_11":"8b1e05b4a91efff"},"geometry":{"type":"Polygon","coordinates":[[[19.821729,50.017983],[19.821801,50.017972],[19.821804,50.018],[19.821736,50.018009],[19.821729,50.017983]]]}},{"type":"Feature","id":"w717836369","properties":{"type":"yes","residential":false,"residents_est":0,"h3_10":"8a1e05b4a91ffff","h3_11":"8b1e05b4a91efff"},"geometry":{"type":"Polygon","coordinates":[[[19.821569,50.018032],[19.821607,50.018024],[19.821648,50.018098],[19.82161,50.018107],[19.821569,50.018032]]]}},{"type":"Feature","id":"w717836370","properties":{"type":"yes","residential":false,"residents_est":0,"h3_10":"8a1e05b4a91ffff","h3_11":"8b1e05b4a91cfff"},"geometry":{"type":"Polygon","coordinates":[[[19.82197,50.018346],[19.821985,50.018301],[19.822072,50.018314],[19.822057,50.018358],[19.82197,50.018346]]]}},{"type":"Feature","id":"w717836371","properties":{"type":"yes","residential":false,"residents_est":0,"h3_10":"8a1e05b4a91ffff","h3_11":"8b1e05b4a91cfff"},"geometry":{"type":"Polygon","coordinates":[[[19.821757,50.018363],[19.821802,50.018362],[19.821805,50.018419],[19.82176,50.01842],[19.821757,50.018363]]]}},{"type":"Feature","id":"w895215142","properties":{"type":"yes","residential":false,"residents_est":0,"h3_10":"8a1e05b4a887fff","h3_11":"8b1e05b4a885fff"},"geometry":{"type":"Polygon","coordinates":[[[19.821778,50.014313],[19.821787,50.014279],[19.821867,50.014288],[19.821859,50.014322],[19.821778,50.014313]]]}},{"type":"Feature","id":"w895215143","properties":{"type":"yes","residential":false,"residents_est":0,"h3_10":"8a1e05b4a887fff","h3_11":"8b1e05b4a884fff"},"geometry":{"type":"Polygon","coordinates":[[[19.821508,50.014485],[19.821526,50.014432],[19.821583,50.01444],[19.821565,50.014493],[19.821508,50.014485]]]}},{"type":"Feature","id":"w895215144","properties":{"type":"yes","residential":true,"residents_est":6,"h3_10":"8a1e05b4a89ffff","h3_11":"8b1e05b4a89efff"},"geometry":{"type":"Polygon","coordinates":[[[19.821063,50.012769],[19.821161,50.012757],[19.821177,50.012811],[19.821078,50.012823],[19.821063,50.012769]]]}},{"type":"Feature","id":"w895215145","properties":{"type":"yes","residential":false,"residents_est":0,"h3_10":"8a1e05b4a89ffff","h3_11":"8b1e05b4a89dfff"},"geometry":{"type":"Polygon","coordinates":[[[19.822071,50.013216],[19.822077,50.013175],[19.822091,50.013176],[19.822093,50.013168],[19.82213,50.01317],[19.822122,50.013219],[19.822071,50.013216]]]}},{"type":"Feature","id":"w895215146","properties":{"type":"yes","residential":false,"residents_est":0,"h3_10":"8a1e05b4a89ffff","h3_11":"8b1e05b4a89dfff"},"geometry":{"type":"Polygon","coordinates":[[[19.822151,50.013286],[19.822157,50.013245],[19.822226,50.01325],[19.822219,50.01329],[19.822151,50.013286]]]}},{"type":"Feature","id":"w895215147","properties":{"type":"yes","residential":false,"residents_est":0,"h3_10":"8a1e05b4a89ffff","h3_11":"8b1e05b4a89dfff"},"geometry":{"type":"Polygon","coordinates":[[[19.822256,50.013225],[19.822262,50.013187],[19.822344,50.013192],[19.822338,50.01323],[19.822256,50.013225]]]}},{"type":"Feature","id":"w895215148","properties":{"type":"yes","residential":false,"residents_est":0,"h3_10":"8a1e05b4a89ffff","h3_11":"8b1e05b4a899fff"},"geometry":{"type":"Polygon","coordinates":[[[19.822518,50.013093],[19.822523,50.013059],[19.822601,50.013064],[19.822596,50.013098],[19.822518,50.013093]]]}},{"type":"Feature","id":"w895215149","properties":{"type":"yes","residential":false,"residents_est":0,"h3_10":"8a1e05b4a89ffff","h3_11":"8b1e05b4a898fff"},"geometry":{"type":"Polygon","coordinates":[[[19.822181,50.013058],[19.822186,50.013026],[19.822264,50.01303],[19.822257,50.013082],[19.822221,50.01308],[19.822224,50.013061],[19.822181,50.013058]]]}},{"type":"Feature","id":"w895215151","properties":{"type":"yes","residential":false,"residents_est":0,"h3_10":"8a1e05b4a89ffff","h3_11":"8b1e05b4a898fff"},"geometry":{"type":"Polygon","coordinates":[[[19.822054,50.012936],[19.822059,50.0129],[19.822138,50.012904],[19.822133,50.01294],[19.822054,50.012936]]]}},{"type":"Feature","id":"w895215152","properties":{"type":"yes","residential":false,"residents_est":0,"h3_10":"8a1e05b4a89ffff","h3_11":"8b1e05b4a89bfff"},"geometry":{"type":"Polygon","coordinates":[[[19.82236,50.012744],[19.822364,50.012698],[19.822461,50.012702],[19.822457,50.012748],[19.82236,50.012744]]]}},{"type":"Feature","id":"w1038752870","properties":{"type":"outbuilding","levels":1.0,"residential":false,"residents_est":0,"h3_10":"8a1e05b4a887fff","h3_11":"8b1e05b4a883fff"},"geometry":{"type":"Polygon","coordinates":[[[19.821827,50.013745],[19.821834,50.013686],[19.821924,50.01369],[19.821917,50.013749],[19.821827,50.013745]]]}},{"type":"Feature","id":"w1038752874","properties":{"type":"construction","levels":2.0,"residential":false,"residents_est":0,"h3_10":"8a1e05b4a997fff","h3_11":"8b1e05b4a996fff"},"geometry":{"type":"Polygon","coordinates":[[[19.816904,50.015841],[19.817087,50.015835],[19.817094,50.015921],[19.816911,50.015928],[19.816904,50.015841]]]}},{"type":"Feature","id":"w1038752884","properties":{"type":"yes","levels":2.0,"residential":true,"residents_est":5,"h3_10":"8a1e05b4a9b7fff","h3_11":"8b1e05b4a9b2fff"},"geometry":{"type":"Polygon","coordinates":[[[19.816756,50.016617],[19.816868,50.016602],[19.816865,50.016594],[19.816955,50.016582],[19.816981,50.016665],[19.816779,50.016692],[19.816756,50.016617]]]}},{"type":"Feature","id":"w1038752886","properties":{"type":"detached","levels":2.0,"residential":true,"residents_est":15,"h3_10":"8a1e05b4a997fff","h3_11":"8b1e05b4a994fff"},"geometry":{"type":"Polygon","coordinates":[[[19.817454,50.016113],[19.817707,50.016068],[19.817744,50.016153],[19.817491,50.016199],[19.817454,50.016113]]]}},{"type":"Feature","id":"w1038752887","properties":{"type":"detached","levels":2.0,"residential":true,"residents_est":16,"h3_10":"8a1e05b4a997fff","h3_11":"8b1e05b4a996fff"},"geometry":{"type":"Polygon","coordinates":[[[19.817315,50.015915],[19.817376,50.015911],[19.817364,50.015835],[19.817489,50.015827],[19.817508,50.015945],[19.817471,50.015948],[19.817481,50.016007],[19.817361,50.016016],[19.817351,50.015956],[19.817322,50.015958],[19.817315,50.015915]]]}},{"type":"Feature","id":"w1038752891","properties":{"type":"detached","levels":2.0,"residential":true,"residents_est":15,"h3_10":"8a1e05b4a987fff","h3_11":"8b1e05b4a984fff"},"geometry":{"type":"Polygon","coordinates":[[[19.818821,50.017212],[19.818887,50.017197],[19.818865,50.017157],[19.819014,50.017123],[19.819039,50.017167],[19.819074,50.017159],[19.819104,50.017213],[19.818853,50.01727],[19.818821,50.017212]]]}},{"type":"Feature","id":"w1038752892","properties":{"type":"detached","levels":2.0,"residential":true,"residents_est":9,"h3_10":"8a1e05b4a987fff","h3_11":"8b1e05b4a986fff"},"geometry":{"type":"Polygon","coordinates":[[[19.81828,50.016508],[19.818282,50.016403],[19.818441,50.016405],[19.81844,50.01643],[19.818451,50.01643],[19.818451,50.01646],[19.818439,50.01646],[19.818439,50.016485],[19.818339,50.016484],[19.818338,50.016508],[19.81828,50.016508]]]}},{"type":"Feature","id":"w1231855009","properties":{"type":"garage","residential":false,"residents_est":0,"h3_10":"8a1e05b4a967fff","h3_11":"8b1e05b4a966fff"},"geometry":{"type":"Polygon","coordinates":[[[19.825409,50.020372],[19.825458,50.020333],[19.825495,50.020352],[19.825443,50.020389],[19.825409,50.020372]]]}},{"type":"Feature","id":"w1308410328","properties":{"type":"yes","residential":true,"residents_est":2,"h3_10":"8a1e05b4a897fff","h3_11":"8b1e05b4a891fff"},"geometry":{"type":"Polygon","coordinates":[[[19.820973,50.013285],[19.821077,50.013281],[19.821082,50.013341],[19.820978,50.013345],[19.820973,50.013285]]]}},{"type":"Feature","id":"r19067682","properties":{"type":"hangar","residential":false,"residents_est":0,"h3_10":"8a1e05b4a967fff","h3_11":"8b1e05b4a966fff"},"geometry":{"type":"Polygon","coordinates":[[[19.825446,50.02042],[19.825584,50.020298],[19.825672,50.020344],[19.825536,50.020463],[19.825446,50.02042]]]}},{"type":"Feature","id":"w1512684748","properties":{"type":"yes","residential":true,"residents_est":9,"h3_10":"8a1e05b4a89ffff","h3_11":"8b1e05b4a89bfff"},"geometry":{"type":"Polygon","coordinates":[[[19.822321,50.0124],[19.822614,50.012362],[19.822644,50.012459],[19.822351,50.012497],[19.822321,50.0124]]]}}]}