{"type":"FeatureCollection","features":[{"type":"Feature","id":"w232081382","properties":{"type":"yes","residential":false,"residents_est":0,"h3_10":"8a1e05b4dcd7fff","h3_11":"8b1e05b4dcd5fff"},"geometry":{"type":"Polygon","coordinates":[[[19.851151,50.044705],[19.851151,50.044687],[19.851165,50.044647],[19.851257,50.04466],[19.851245,50.0447],[19.851198,50.044694],[19.851192,50.04471],[19.851151,50.044705]]]}},{"type":"Feature","id":"w232081439","properties":{"type":"yes","residential":false,"residents_est":0,"h3_10":"8a1e05b4dcd7fff","h3_11":"8b1e05b4dcd5fff"},"geometry":{"type":"Polygon","coordinates":[[[19.851201,50.044721],[19.851211,50.044695],[19.851245,50.0447],[19.851246,50.044695],[19.851346,50.044714],[19.85134,50.044734],[19.851287,50.044728],[19.851285,50.044733],[19.851201,50.044721]]]}},{"type":"Feature","id":"w232081531","properties":{"type":"bunker","name":"Schron Amunicyjny Bielany","residential":false,"residents_est":0,"h3_10":"8a1e05b4dc9ffff","h3_11":"8b1e05b4dc9cfff"},"geometry":{"type":"Polygon","coordinates":[[[19.847007,50.044131],[19.84701,50.044123],[19.847074,50.044101],[19.847179,50.044203],[19.847208,50.04419],[19.847248,50.044228],[19.847202,50.044248],[19.847162,50.04421],[19.847109,50.044229],[19.847007,50.044131]]]}},{"type":"Feature","id":"w232081606","properties":{"type":"yes","address":"Księcia Józefa 289","residential":true,"residents_est":6,"h3_10":"8a1e05b4dc87fff","h3_11":"8b1e05b4dc83fff"},"geometry":{"type":"Polygon","coordinates":[[[19.847183,50.044478],[19.847222,50.044412],[19.847286,50.044431],[19.847302,50.044405],[19.847376,50.044423],[19.847356,50.044444],[19.847453,50.044471],[19.847403,50.044549],[19.84729,50.044523],[19.84728,50.04454],[19.847185,50.044516],[19.847195,50.044498],[19.847183,50.044478]]]}},{"type":"Feature","id":"w232081689","properties":{"type":"yes","address":"Księcia Józefa 120","name":"Srebrna Góra","residential":false,"residents_est":0,"h3_10":"8a1e05b4dc9ffff","h3_11":"8b1e05b4dc98fff"},"geometry":{"type":"Polygon","coordinates":[[[19.847255,50.043692],[19.847287,50.043604],[19.84738,50.043618],[19.84741,50.043535],[19.847774,50.04359],[19.847709,50.043765],[19.84759,50.043747],[19.847583,50.043768],[19.847441,50.043747],[19.847449,50.043726],[19.847255,50.043692]]]}},{"type":"Feature","id":"w232081867","properties":{"type":"yes","address":"Księcia Józefa 271","residential":true,"residents_est":6,"h3_10":"8a1e05b4dcc7fff","h3_11":"8b1e05b4dcc6fff"},"geometry":{"type":"Polygon","coordinates":[[[19.851296,50.045042],[19.851298,50.044996],[19.851358,50.044998],[19.851362,50.044959],[19.851422,50.044961],[19.851424,50.04494],[19.851495,50.044942],[19.851494,50.044963],[19.85156,50.044965],[19.851558,50.044992],[19.851608,50.044993],[19.851606,50.045025],[19.851641,50.045026],[19.851639,50.045052],[19.851296,50.045042]]]}},{"type":"Feature","id":"w232082139","properties":{"type":"yes","address":"Księcia Józefa 287","residential":true,"residents_est":3,"h3_10":"8a1e05b4dc9ffff","h3_11":"8b1e05b4dc9cfff"},"geometry":{"type":"Polygon","coordinates":[[[19.847356,50.04419],[19.847529,50.044176],[19.847544,50.044253],[19.847371,50.044267],[19.847356,50.04419]]]}},{"type":"Feature","id":"w232082260","properties":{"type":"yes","residential":false,"residents_est":0,"h3_10":"8a1e05b4dcc7fff","h3_11":"8b1e05b4dcc5fff"},"geometry":{"type":"Polygon","coordinates":[[[19.85243,50.045568],[19.852512,50.045564],[19.85252,50.045625],[19.852438,50.045628],[19.85243,50.045568]]]}},{"type":"Feature","id":"w232082335","properties":{"type":"yes","residential":false,"residents_est":0,"h3_10":"8a1e05b4dcdffff","h3_11":"8b1e05b4dcdcfff"},"geometry":{"type":"Polygon","coordinates":[[[19.851974,50.044326],[19.851985,50.044281],[19.852093,50.044292],[19.852082,50.044337],[19.851974,50.044326]]]}},{"type":"Feature","id":"w232082446","properties":{"type":"yes","address":"Księcia Józefa 285E","residential":true,"residents_est":3,"h3_10":"8a1e05b4dc8ffff","h3_11":"8b1e05b4dc88fff"},"geometry":{"type":"Polygon","coordinates":[[[19.848629,50.044707],[19.848656,50.04463],[19.848831,50.044655],[19.848804,50.044732],[19.848629,50.044707]]]}},{"type":"Feature","id":"w232082598","properties":{"type":"yes","residential":false,"residents_est":0,"h3_10":"8a1e05b4dcc7fff","h3_11":"8b1e05b4dcc0fff"},"geometry":{"type":"Polygon","coordinates":[[[19.851924,50.044864],[19.851948,50.044785],[19.852003,50.044792],[19.851978,50.044871],[19.851924,50.044864]]]}},{"type":"Feature","id":"w232082648","properties":{"type":"yes","residential":true,"residents_est":5,"h3_10":"8a1e05b4dc9ffff","h3_11":"8b1e05b4dc9bfff"},"geometry":{"type":"Polygon","coordinates":[[[19.847813,50.043652],[19.847836,50.04358],[19.848135,50.043619],[19.848112,50.043692],[19.847813,50.043652]]]}},{"type":"Feature","id":"w232082877","properties":{"type":"yes","address":"Księcia Józefa 285a","residential":true,"residents_est":3,"h3_10":"8a1e05b4dc8ffff","h3_11":"8b1e05b4dc8bfff"},"geometry":{"type":"Polygon","coordinates":[[[19.849128,50.044347],[19.849203,50.044279],[19.84931,50.044329],[19.849232,50.044395],[19.849128,50.044347]]]}},{"type":"Feature","id":"w232083044","properties":{"type":"yes","residential":true,"residents_est":2,"h3_10":"8a1e05b4dc8ffff","h3_11":"8b1e05b4dc89fff"},"geometry":{"type":"Polygon","coordinates":[[[19.849584,50.044557],[19.849633,50.044508],[19.849731,50.044547],[19.849686,50.044596],[19.849584,50.044557]]]}},{"type":"Feature","id":"w232083047","properties":{"type":"yes","residential":true,"residents_est":2,"h3_10":"8a1e05b4dcc7fff","h3_11":"8b1e05b4dcc1fff"},"geometry":{"type":"Polygon","coordinates":[[[19.852591,50.045006],[19.852621,50.04493],[19.852709,50.044944],[19.85268,50.04502],[19.852591,50.045006]]]}},{"type":"Feature","id":"w232083168","properties":{"type":"yes","address":"Księcia Józefa 283","residential":true,"residents_est":6,"h3_10":"8a1e05b4dcd7fff","h3_11":"8b1e05b4dcd6fff"},"geometry":{"type":"Polygon","coordinates":[[[19.849612,50.044355],[19.849699,50.04426],[19.849897,50.044335],[19.849809,50.04443],[19.849612,50.044355]]]}},{"type":"Feature","id":"w232083276","properties":{"type":"yes","address":"Księcia Józefa 261","residential":true,"residents_est":4,"h3_10":"8a1e05b4dccffff","h3_11":"8b1e05b4dcccfff"},"geometry":{"type":"Polygon","coordinates":[[[19.853385,50.044869],[19.853556,50.044863],[19.853569,50.04496],[19.853395,50.044967],[19.853385,50.044869]]]}},{"type":"Feature","id":"w232083318","properties":{"type":"yes","residential":true,"residents_est":3,"h3_10":"8a1e05b4dcc7fff","h3_11":"8b1e05b4dcc4fff"},"geometry":{"type":"Polygon","coordinates":[[[19.851896,50.045288],[19.851936,50.04522],[19.852048,50.045247],[19.852005,50.045315],[19.851896,50.045288]]]}},{"type":"Feature","id":"w232083327","properties":{"type":"yes","address":"Księcia Józefa 285","residential":true,"residents_est":3,"h3_10":"8a1e05b4dc8ffff","h3_11":"8b1e05b4dc8bfff"},"geometry":{"type":"Polygon","coordinates":[[[19.849238,50.044391],[19.84931,50.044329],[19.849431,50.044386],[19.849356,50.044451],[19.849238,50.044391]]]}},{"type":"Feature","id":"w232083356","properties":{"type":"yes","residential":false,"residents_est":0,"h3_10":"8a1e05b4dcc7fff","h3_11":"8b1e05b4dcc6fff"},"geometry":{"type":"Polygon","coordinates":[[[19.851199,50.04504],[19.851234,50.044994],[19.851298,50.044996],[19.851296,50.045042],[19.851199,50.04504]]]}},{"type":"Feature","id":"w232083408","properties":{"type":"yes","address":"Księcia Józefa 279","residential":true,"residents_est":3,"h3_10":"8a1e05b4dcd7fff","h3_11":"8b1e05b4dcd0fff"},"geometry":{"type":"Polygon","coordinates":[[[19.850343,50.044392],[19.850373,50.044322],[19.850528,50.044346],[19.8505,50.044418],[19.850343,50.044392]]]}},{"type":"Feature","id":"w232083884","properties":{"type":"yes","address":"Księcia Józefa 265","residential":true,"residents_est":5,"h3_10":"8a1e05b4dcc7fff","h3_11":"8b1e05b4dcc1fff"},"geometry":{"type":"Polygon","coordinates":[[[19.852501,50.044852],[19.852546,50.044782],[19.852794,50.044849],[19.852748,50.044919],[19.852501,50.044852]]]}},{"type":"Feature","id":"w232083912","properties":{"type":"yes","address":"Księcia Józefa 283a","residential":true,"residents_est":2,"h3_10":"8a1e05b4dc8ffff","h3_11":"8b1e05b4dc89fff"},"geometry":{"type":"Polygon","coordinates":[[[19.849582,50.044489],[19.849625,50.044442],[19.849776,50.044501],[19.849731,50.044547],[19.849582,50.044489]]]}},{"type":"Feature","id":"w232083943","properties":{"type":"yes","address":"Księcia Józefa 285F","residential":true,"residents_est":3,"h3_10":"8a1e05b4dc8ffff","h3_11":"8b1e05b4dc8efff"},"geometry":{"type":"Polygon","coordinates":[[[19.848276,50.044656],[19.848302,50.044579],[19.848478,50.044604],[19.848451,50.044681],[19.848276,50.044656]]]}},{"type":"Feature","id":"w232084029","properties":{"type":"yes","residential":true,"residents_est":5,"h3_10":"8a1e05b4dccffff","h3_11":"8b1e05b4dcc8fff"},"geometry":{"type":"Polygon","coordinates":[[[19.853759,50.044621],[19.853851,50.044615],[19.853871,50.044742],[19.854021,50.044732],[19.854027,50.044772],[19.853786,50.044789],[19.853759,50.044621]]]}},{"type":"Feature","id":"w232084086","properties":{"type":"yes","address":"Księcia Józefa 267","residential":true,"residents_est":3,"h3_10":"8a1e05b4dcc7fff","h3_11":"8b1e05b4dcc0fff"},"geometry":{"type":"Polygon","coordinates":[[[19.85188,50.045058],[19.851896,50.044994],[19.852116,50.045017],[19.852099,50.045081],[19.85188,50.045058]]]}},{"type":"Feature","id":"w232084409","properties":{"type":"yes","address":"Księcia Józefa 263","residential":true,"residents_est":5,"h3_10":"8a1e05b4dccffff","h3_11":"8b1e05b4dccefff"},"geometry":{"type":"Polygon","coordinates":[[[19.853061,50.044815],[19.853169,50.044807],[19.853176,50.044843],[19.853216,50.044864],[19.853267,50.04486],[19.85328,50.044928],[19.853086,50.044941],[19.853061,50.044815]]]}},{"type":"Feature","id":"w232084621","properties":{"type":"yes","address":"Księcia Józefa 263A","residential":true,"residents_est":6,"h3_10":"8a1e05b4dcc7fff","h3_11":"8b1e05b4dcc1fff"},"geometry":{"type":"Polygon","coordinates":[[[19.852982,50.045151],[19.852989,50.04515],[19.852987,50.045142],[19.853174,50.045114],[19.853187,50.045151],[19.853234,50.045147],[19.853231,50.045132],[19.853386,50.045121],[19.853396,50.045182],[19.853155,50.045198],[19.853151,50.045178],[19.853008,50.0452],[19.852982,50.045151]]]}},{"type":"Feature","id":"w232084758","properties":{"type":"yes","address":"Księcia Józefa 267a","residential":true,"residents_est":3,"h3_10":"8a1e05b4dcc7fff","h3_11":"8b1e05b4dcc6fff"},"geometry":{"type":"Polygon","coordinates":[[[19.851054,50.044935],[19.851057,50.044852],[19.85124,50.044858],[19.851233,50.044911],[19.851193,50.044912],[19.851189,50.044952],[19.851149,50.044951],[19.851149,50.044938],[19.851054,50.044935]]]}},{"type":"Feature","id":"w232084760","properties":{"type":"yes","address":"Księcia Józefa 281","residential":true,"residents_est":3,"h3_10":"8a1e05b4dcd7fff","h3_11":"8b1e05b4dcd4fff"},"geometry":{"type":"Polygon","coordinates":[[[19.849963,50.044616],[19.850012,50.044536],[19.8501,50.044559],[19.850096,50.044565],[19.850136,50.044576],[19.850141,50.044571],[19.85016,50.044575],[19.850111,50.044654],[19.849963,50.044616]]]}},{"type":"Feature","id":"w232084792","properties":{"type":"yes","address":"Księcia Józefa 273","residential":true,"residents_est":3,"h3_10":"8a1e05b4dcd7fff","h3_11":"8b1e05b4dcd5fff"},"geometry":{"type":"Polygon","coordinates":[[[19.851221,50.044635],[19.851259,50.04454],[19.851316,50.044549],[19.851328,50.044541],[19.851367,50.044548],[19.851371,50.044558],[19.851402,50.044563],[19.851362,50.044659],[19.851221,50.044635]]]}},{"type":"Feature","id":"w232085064","properties":{"type":"yes","residential":true,"residents_est":5,"h3_10":"8a1e05b4dcc7fff","h3_11":"8b1e05b4dcc3fff"},"geometry":{"type":"Polygon","coordinates":[[[19.851997,50.044673],[19.852035,50.044555],[19.852217,50.044576],[19.852187,50.044677],[19.852135,50.04467],[19.852141,50.04465],[19.852093,50.044644],[19.852082,50.044684],[19.851997,50.044673]]]}},{"type":"Feature","id":"w232085083","properties":{"type":"yes","address":"Księcia Józefa 285b","residential":true,"residents_est":4,"h3_10":"8a1e05b4dc8ffff","h3_11":"8b1e05b4dc8bfff"},"geometry":{"type":"Polygon","coordinates":[[[19.848829,50.044242],[19.848892,50.044157],[19.848977,50.044183],[19.848989,50.044207],[19.849014,50.044214],[19.848998,50.044236],[19.849021,50.044244],[19.848986,50.044291],[19.848829,50.044242]]]}},{"type":"Feature","id":"w664405297","properties":{"type":"house","address":"Księcia Józefa 285D","residential":true,"residents_est":7,"h3_10":"8a1e05b4dc8ffff","h3_11":"8b1e05b4dc8afff"},"geometry":{"type":"Polygon","coordinates":[[[19.848505,50.044403],[19.848544,50.044326],[19.848716,50.044362],[19.848676,50.044439],[19.848505,50.044403]]]}},{"type":"Feature","id":"w664405298","properties":{"type":"house","address":"Księcia Józefa 279A","residential":true,"residents_est":7,"h3_10":"8a1e05b4dcd7fff","h3_11":"8b1e05b4dcd6fff"},"geometry":{"type":"Polygon","coordinates":[[[19.850086,50.044311],[19.850111,50.044251],[19.850271,50.044279],[19.850225,50.044378],[19.850129,50.044361],[19.850145,50.044321],[19.850086,50.044311]]]}},{"type":"Feature","id":"w664405299","properties":{"type":"house","address":"Księcia Józefa 265B","residential":true,"residents_est":6,"h3_10":"8a1e05b4dcc7fff","h3_11":"8b1e05b4dcc5fff"},"geometry":{"type":"Polygon","coordinates":[[[19.852332,50.045307],[19.852344,50.045297],[19.852342,50.045283],[19.852486,50.045272],[19.852487,50.045279],[19.852536,50.045274],[19.852547,50.045334],[19.852499,50.045338],[19.8525,50.045344],[19.852356,50.045355],[19.852353,50.045341],[19.852336,50.045334],[19.852332,50.045307]]]}},{"type":"Feature","id":"w664405300","properties":{"type":"house","address":"Księcia Józefa 265C","residential":true,"residents_est":4,"h3_10":"8a1e05b4dcc7fff","h3_11":"8b1e05b4dcc5fff"},"geometry":{"type":"Polygon","coordinates":[[[19.852472,50.045509],[19.852521,50.04547],[19.852604,50.045464],[19.85266,50.045498],[19.852666,50.045523],[19.852477,50.045535],[19.852472,50.045509]]]}},{"type":"Feature","id":"w664406414","properties":{"type":"house","address":"Księcia Józefa 273A","residential":true,"residents_est":6,"h3_10":"8a1e05b4dcd7fff","h3_11":"8b1e05b4dcd1fff"},"geometry":{"type":"Polygon","coordinates":[[[19.851294,50.044459],[19.851318,50.044402],[19.851347,50.044407],[19.851349,50.044345],[19.851358,50.044346],[19.851357,50.044355],[19.851385,50.044355],[19.851386,50.044346],[19.851424,50.044347],[19.851422,50.044385],[19.851468,50.044394],[19.851452,50.044431],[19.851436,50.044428],[19.851422,50.04446],[19.851438,50.044463],[19.851436,50.044467],[19.851357,50.044453],[19.85135,50.044468],[19.851294,50.044459]]]}},{"type":"Feature","id":"w706571863","properties":{"type":"yes","residential":true,"residents_est":3,"h3_10":"8a1e05b4dcc7fff","h3_11":"8b1e05b4dcc5fff"},"geometry":{"type":"Polygon","coordinates":[[[19.852621,50.045477],[19.852652,50.045431],[19.852669,50.045429],[19.852664,50.045399],[19.852711,50.045396],[19.852716,50.045426],[19.852733,50.045425],[19.852782,50.045468],[19.852791,50.045514],[19.852666,50.045523],[19.85266,50.045498],[19.852621,50.045477]]]}},{"type":"Feature","id":"w706571865","properties":{"type":"yes","residential":false,"residents_est":0,"h3_10":"8a1e05b4dcf7fff","h3_11":"8b1e05b4dcf2fff"},"geometry":{"type":"Polygon","coordinates":[[[19.850212,50.044893],[19.850232,50.044864],[19.850297,50.044882],[19.850277,50.044911],[19.850212,50.044893]]]}},{"type":"Feature","id":"w706571866","properties":{"type":"yes","residential":false,"residents_est":0,"h3_10":"8a1e05b4dcd7fff","h3_11":"8b1e05b4dcd4fff"},"geometry":{"type":"Polygon","coordinates":[[[19.850287,50.04448],[19.850309,50.044449],[19.850384,50.044471],[19.850361,50.044502],[19.850287,50.04448]]]}},{"type":"Feature","id":"w706571867","properties":{"type":"yes","residential":false,"residents_est":0,"h3_10":"8a1e05b4dc8ffff","h3_11":"8b1e05b4dc89fff"},"geometry":{"type":"Polygon","coordinates":[[[19.849301,50.044486],[19.849332,50.044459],[19.849398,50.044491],[19.849367,50.044517],[19.849301,50.044486]]]}},{"type":"Feature","id":"w1039863407","properties":{"type":"outbuilding","levels":1.0,"residential":false,"residents_est":0,"h3_10":"8a1e05b4dcc7fff","h3_11":"8b1e05b4dcc1fff"},"geometry":{"type":"Polygon","coordinates":[[[19.852561,50.045084],[19.852591,50.045006],[19.852679,50.04502],[19.852649,50.045098],[19.852561,50.045084]]]}},{"type":"Feature","id":"w1039863690","properties":{"type":"outbuilding","levels":1.0,"residential":false,"residents_est":0,"h3_10":"8a1e05b4dccffff","h3_11":"8b1e05b4dcccfff"},"geometry":{"type":"Polygon","coordinates":[[[19.853188,50.044952],[19.853317,50.044944],[19.853324,50.044987],[19.853195,50.044995],[19.853188,50.044952]]]}},{"type":"Feature","id":"w1039863696","properties":{"type":"yes","levels":1.0,"address":"Księcia Józefa 275","residential":true,"residents_est":3,"h3_10":"8a1e05b4dcd7fff","h3_11":"8b1e05b4dcd5fff"},"geometry":{"type":"Polygon","coordinates":[[[19.850926,50.044627],[19.850992,50.044472],[19.851077,50.044487],[19.851086,50.044467],[19.851169,50.044481],[19.851094,50.044657],[19.850926,50.044627]]]}},{"type":"Feature","id":"w1341788691","properties":{"type":"yes","address":"Księcia Józefa 277","residential":true,"residents_est":18,"h3_10":"8a1e05b4dcd7fff","h3_11":"8b1e05b4dcd5fff"},"geometry":{"type":"Polygon","coordinates":[[[19.85068,50.044575],[19.85079,50.044343],[19.850939,50.044368],[19.850836,50.044604],[19.85068,50.044575]]]}},{"type":"Feature","id":"w1445756574","properties":{"type":"residential","address":"Księcia Józefa 265F","residential":true,"residents_est":11,"h3_10":"8a1e05b4dccffff","h3_11":"8b1e05b4dccefff"},"geometry":{"type":"Polygon","coordinates":[[[19.852742,50.044746],[19.852828,50.044658],[19.85292,50.044696],[19.852834,50.044786],[19.852742,50.044746]]]}},{"type":"Feature","id":"w1445756575","properties":{"type":"residential","address":"Księcia Józefa 265E","residential":true,"residents_est":11,"h3_10":"8a1e05b4dccffff","h3_11":"8b1e05b4dccefff"},"geometry":{"type":"Polygon","coordinates":[[[19.852828,50.044658],[19.85292,50.044564],[19.853008,50.044604],[19.85292,50.044696],[19.852828,50.044658]]]}}]}