{"type":"FeatureCollection","features":[{"type":"Feature","id":"w229442540","properties":{"type":"yes","address":"Witkowicka 72","residential":true,"residents_est":4,"h3_10":"8a1e2e6a4797fff","h3_11":"8b1e2e6a4796fff"},"geometry":{"type":"Polygon","coordinates":[[[19.962895,50.108981],[19.963059,50.108978],[19.963065,50.10907],[19.962901,50.109074],[19.962895,50.108981]]]}},{"type":"Feature","id":"w229442541","properties":{"type":"yes","address":"Witkowicka 82","residential":true,"residents_est":1,"h3_10":"8a1e2e6a479ffff","h3_11":"8b1e2e6a479efff"},"geometry":{"type":"Polygon","coordinates":[[[19.96476,50.108759],[19.964911,50.108738],[19.964941,50.108821],[19.964789,50.108843],[19.96476,50.108759]]]}},{"type":"Feature","id":"w229442548","properties":{"type":"yes","address":"Witkowicka 81","residential":true,"residents_est":4,"h3_10":"8a1e2e6a4797fff","h3_11":"8b1e2e6a4794fff"},"geometry":{"type":"Polygon","coordinates":[[[19.963474,50.109503],[19.963476,50.109405],[19.963632,50.109406],[19.96363,50.109504],[19.963474,50.109503]]]}},{"type":"Feature","id":"w229442550","properties":{"type":"yes","address":"Witkowicka 74","residential":true,"residents_est":5,"h3_10":"8a1e2e6a4797fff","h3_11":"8b1e2e6a4790fff"},"geometry":{"type":"Polygon","coordinates":[[[19.963339,50.1089],[19.963406,50.108897],[19.963406,50.108888],[19.96347,50.108886],[19.963471,50.108895],[19.963539,50.108892],[19.963547,50.108998],[19.963483,50.109],[19.963484,50.109008],[19.963418,50.109011],[19.963417,50.109002],[19.963349,50.109005],[19.963339,50.1089]]]}},{"type":"Feature","id":"w229442556","properties":{"type":"yes","address":"Witkowicka 87A","residential":true,"residents_est":8,"h3_10":"8a1e2e6a4787fff","h3_11":"8b1e2e6a4786fff"},"geometry":{"type":"Polygon","coordinates":[[[19.964222,50.109595],[19.964415,50.109592],[19.96442,50.109718],[19.964229,50.109789],[19.964222,50.109595]]]}},{"type":"Feature","id":"w229442567","properties":{"type":"yes","address":"Witkowicka 87","residential":true,"residents_est":6,"h3_10":"8a1e2e6a4787fff","h3_11":"8b1e2e6a4782fff"},"geometry":{"type":"Polygon","coordinates":[[[19.964479,50.109201],[19.964665,50.109196],[19.964673,50.109319],[19.964487,50.109324],[19.964479,50.109201]]]}},{"type":"Feature","id":"w229442569","properties":{"type":"yes","address":"Witkowicka 79","residential":true,"residents_est":5,"h3_10":"8a1e2e6a4797fff","h3_11":"8b1e2e6a4794fff"},"geometry":{"type":"Polygon","coordinates":[[[19.963179,50.109376],[19.963182,50.109318],[19.963358,50.109321],[19.963352,50.109468],[19.96323,50.109466],[19.963234,50.109377],[19.963179,50.109376]]]}},{"type":"Feature","id":"w229442572","properties":{"type":"yes","address":"Witkowicka 80","residential":true,"residents_est":4,"h3_10":"8a1e2e6a4797fff","h3_11":"8b1e2e6a4791fff"},"geometry":{"type":"Polygon","coordinates":[[[19.964277,50.108787],[19.964392,50.108783],[19.964402,50.108917],[19.964355,50.108918],[19.964354,50.108909],[19.964287,50.108911],[19.964277,50.108787]]]}},{"type":"Feature","id":"w229442578","properties":{"type":"yes","address":"Witkowicka 78","residential":true,"residents_est":5,"h3_10":"8a1e2e6a4797fff","h3_11":"8b1e2e6a4790fff"},"geometry":{"type":"Polygon","coordinates":[[[19.963906,50.108824],[19.964022,50.108822],[19.964022,50.108842],[19.964102,50.10884],[19.964107,50.108922],[19.963911,50.108926],[19.963906,50.108824]]]}},{"type":"Feature","id":"w229442579","properties":{"type":"yes","address":"Witkowicka 89","residential":true,"residents_est":4,"h3_10":"8a1e2e6a479ffff","h3_11":"8b1e2e6a479cfff"},"geometry":{"type":"Polygon","coordinates":[[[19.965073,50.109079],[19.965202,50.109072],[19.965205,50.109098],[19.965251,50.109096],[19.965259,50.109156],[19.965085,50.109166],[19.965073,50.109079]]]}},{"type":"Feature","id":"w229442581","properties":{"type":"yes","address":"Witkowicka 77","residential":true,"residents_est":5,"h3_10":"8a1e2e6a47b7fff","h3_11":"8b1e2e6a47b2fff"},"geometry":{"type":"Polygon","coordinates":[[[19.962818,50.109642],[19.962829,50.109549],[19.962999,50.109558],[19.962988,50.10965],[19.962948,50.109648],[19.962946,50.109668],[19.962866,50.109665],[19.962868,50.109644],[19.962818,50.109642]]]}},{"type":"Feature","id":"w229446437","properties":{"type":"yes","address":"Warszawska 5A","residential":true,"residents_est":26,"h3_10":"8a1e2e6a47b7fff","h3_11":"8b1e2e6a47b1fff"},"geometry":{"type":"Polygon","coordinates":[[[19.963863,50.110163],[19.964274,50.110108],[19.964337,50.110304],[19.964197,50.110321],[19.964167,50.110226],[19.964138,50.110228],[19.964132,50.110213],[19.96389,50.110245],[19.963863,50.110163]]]}},{"type":"Feature","id":"w229446448","properties":{"type":"yes","residential":true,"residents_est":4,"h3_10":"8a1e2e6a4787fff","h3_11":"8b1e2e6a4786fff"},"geometry":{"type":"Polygon","coordinates":[[[19.964682,50.109748],[19.96478,50.109726],[19.964862,50.10987],[19.96477,50.109891],[19.964682,50.109748]]]}},{"type":"Feature","id":"w229446451","properties":{"type":"yes","residential":true,"residents_est":4,"h3_10":"8a1e2e6a4787fff","h3_11":"8b1e2e6a4780fff"},"geometry":{"type":"Polygon","coordinates":[[[19.96478,50.109726],[19.964874,50.109704],[19.964953,50.109846],[19.964862,50.10987],[19.96478,50.109726]]]}},{"type":"Feature","id":"w229446464","properties":{"type":"yes","residential":true,"residents_est":7,"h3_10":"8a1e2e6a47b7fff","h3_11":"8b1e2e6a47b1fff"},"geometry":{"type":"Polygon","coordinates":[[[19.963826,50.109923],[19.964016,50.109897],[19.96406,50.110034],[19.963871,50.110059],[19.963826,50.109923]]]}},{"type":"Feature","id":"w229446483","properties":{"type":"yes","address":"Warszawska 1","residential":true,"residents_est":5,"h3_10":"8a1e2e6a4787fff","h3_11":"8b1e2e6a4780fff"},"geometry":{"type":"Polygon","coordinates":[[[19.965076,50.109658],[19.965249,50.109617],[19.965301,50.109707],[19.965235,50.109723],[19.965247,50.109744],[19.965195,50.109756],[19.965183,50.109735],[19.965128,50.109748],[19.965076,50.109658]]]}},{"type":"Feature","id":"w229702515","properties":{"type":"yes","address":"Warszawska 5","residential":true,"residents_est":4,"h3_10":"8a1e2e6a47b7fff","h3_11":"8b1e2e6a47b4fff"},"geometry":{"type":"Polygon","coordinates":[[[19.963151,50.110495],[19.963168,50.110409],[19.963224,50.110413],[19.963227,50.110396],[19.963251,50.110394],[19.963289,50.110401],[19.963286,50.110419],[19.963342,50.110423],[19.963324,50.11051],[19.963263,50.110504],[19.963258,50.110528],[19.963204,50.110523],[19.963208,50.1105],[19.963151,50.110495]]]}},{"type":"Feature","id":"w229702573","properties":{"type":"yes","residential":true,"residents_est":2,"h3_10":"8a1e2e6a47b7fff","h3_11":"8b1e2e6a47b4fff"},"geometry":{"type":"Polygon","coordinates":[[[19.962856,50.110431],[19.962863,50.11039],[19.962882,50.110392],[19.96289,50.110348],[19.962964,50.110353],[19.962957,50.110397],[19.96298,50.110399],[19.962973,50.110439],[19.962856,50.110431]]]}},{"type":"Feature","id":"w323421866","properties":{"type":"greenhouse","residential":false,"residents_est":0,"h3_10":"8a1e2e6a4797fff","h3_11":"8b1e2e6a4793fff"},"geometry":{"type":"Polygon","coordinates":[[[19.964201,50.108567],[19.964639,50.108558],[19.964643,50.10864],[19.964205,50.108649],[19.964201,50.108567]]]}},{"type":"Feature","id":"w323421871","properties":{"type":"greenhouse","residential":false,"residents_est":0,"h3_10":"8a1e2e6a4797fff","h3_11":"8b1e2e6a4793fff"},"geometry":{"type":"Polygon","coordinates":[[[19.964194,50.108465],[19.964633,50.108454],[19.964638,50.108535],[19.964198,50.108546],[19.964194,50.108465]]]}},{"type":"Feature","id":"w323421882","properties":{"type":"greenhouse","residential":false,"residents_est":0,"h3_10":"8a1e2e6a4797fff","h3_11":"8b1e2e6a4793fff"},"geometry":{"type":"Polygon","coordinates":[[[19.964206,50.10867],[19.964643,50.108659],[19.964648,50.10874],[19.964211,50.108751],[19.964206,50.10867]]]}},{"type":"Feature","id":"w323421888","properties":{"type":"yes","address":"Trzecia Góra 2","residential":true,"residents_est":4,"h3_10":"8a1e2e6a47b7fff","h3_11":"8b1e2e6a47b6fff"},"geometry":{"type":"Polygon","coordinates":[[[19.962461,50.110202],[19.962482,50.110093],[19.962608,50.110102],[19.962581,50.11023],[19.962528,50.110225],[19.962519,50.110207],[19.962461,50.110202]]]}},{"type":"Feature","id":"w837405942","properties":{"type":"yes","address":"Witkowicka 83","residential":true,"residents_est":3,"h3_10":"8a1e2e6a4797fff","h3_11":"8b1e2e6a4795fff"},"geometry":{"type":"Polygon","coordinates":[[[19.963828,50.109469],[19.963831,50.109359],[19.963922,50.109361],[19.963918,50.10947],[19.963828,50.109469]]]}},{"type":"Feature","id":"w1300744287","properties":{"type":"shed","residential":false,"residents_est":0,"h3_10":"8a1e2e6a4797fff","h3_11":"8b1e2e6a4792fff"},"geometry":{"type":"Polygon","coordinates":[[[19.963546,50.108511],[19.963604,50.108508],[19.963611,50.108559],[19.963552,50.108562],[19.963546,50.108511]]]}},{"type":"Feature","id":"w1300994761","properties":{"type":"carport","residential":false,"residents_est":0,"h3_10":"8a1e2e6a479ffff","h3_11":"8b1e2e6a479efff"},"geometry":{"type":"Polygon","coordinates":[[[19.964764,50.108719],[19.96489,50.108701],[19.964901,50.108739],[19.964776,50.108757],[19.964764,50.108719]]]}},{"type":"Feature","id":"w1300994776","properties":{"type":"carport","residential":false,"residents_est":0,"h3_10":"8a1e2e6a4797fff","h3_11":"8b1e2e6a4791fff"},"geometry":{"type":"Polygon","coordinates":[[[19.964102,50.108844],[19.964161,50.108843],[19.964165,50.10892],[19.964107,50.108922],[19.964102,50.108844]]]}},{"type":"Feature","id":"w1301064922","properties":{"type":"yes","address":"Witkowicka 85","residential":true,"residents_est":2,"h3_10":"8a1e2e6a4797fff","h3_11":"8b1e2e6a4795fff"},"geometry":{"type":"Polygon","coordinates":[[[19.963918,50.10947],[19.963922,50.109361],[19.964012,50.109362],[19.964008,50.109471],[19.963918,50.10947]]]}},{"type":"Feature","id":"w1301064923","properties":{"type":"yes","address":"Witkowicka 79A","residential":true,"residents_est":5,"h3_10":"8a1e2e6a47b7fff","h3_11":"8b1e2e6a47b2fff"},"geometry":{"type":"Polygon","coordinates":[[[19.963029,50.1099],[19.963067,50.109847],[19.963117,50.109861],[19.963175,50.109781],[19.963285,50.109813],[19.963189,50.109947],[19.963029,50.1099]]]}},{"type":"Feature","id":"w1301064935","properties":{"type":"garage","residential":false,"residents_est":0,"h3_10":"8a1e2e6a4787fff","h3_11":"8b1e2e6a4782fff"},"geometry":{"type":"Polygon","coordinates":[[[19.964577,50.109321],[19.964673,50.109319],[19.964675,50.109354],[19.964579,50.109356],[19.964577,50.109321]]]}},{"type":"Feature","id":"w1301064937","properties":{"type":"garage","residential":false,"residents_est":0,"h3_10":"8a1e2e6a4797fff","h3_11":"8b1e2e6a4795fff"},"geometry":{"type":"Polygon","coordinates":[[[19.964333,50.10944],[19.964428,50.109435],[19.964434,50.109498],[19.96434,50.109502],[19.964333,50.10944]]]}},{"type":"Feature","id":"w1301064938","properties":{"type":"shed","residential":false,"residents_est":0,"h3_10":"8a1e2e6a4787fff","h3_11":"8b1e2e6a4786fff"},"geometry":{"type":"Polygon","coordinates":[[[19.964585,50.109576],[19.964679,50.109556],[19.964702,50.109598],[19.964608,50.109619],[19.964585,50.109576]]]}},{"type":"Feature","id":"w1301064939","properties":{"type":"shed","residential":false,"residents_est":0,"h3_10":"8a1e2e6a4797fff","h3_11":"8b1e2e6a4795fff"},"geometry":{"type":"Polygon","coordinates":[[[19.964092,50.10951],[19.964131,50.109507],[19.964139,50.109557],[19.9641,50.109559],[19.964092,50.10951]]]}},{"type":"Feature","id":"w1301064940","properties":{"type":"garage","residential":false,"residents_est":0,"h3_10":"8a1e2e6a47b7fff","h3_11":"8b1e2e6a47b3fff"},"geometry":{"type":"Polygon","coordinates":[[[19.963616,50.109594],[19.963695,50.109593],[19.963698,50.109715],[19.96362,50.109716],[19.963616,50.109594]]]}},{"type":"Feature","id":"w1301064942","properties":{"type":"shed","residential":false,"residents_est":0,"h3_10":"8a1e2e6a47b7fff","h3_11":"8b1e2e6a47b2fff"},"geometry":{"type":"Polygon","coordinates":[[[19.96278,50.109764],[19.962788,50.109715],[19.962858,50.10972],[19.962849,50.109769],[19.96278,50.109764]]]}}]}