{"type":"FeatureCollection","features":[{"type":"Feature","id":"w214451304","properties":{"type":"yes","address":"Piotra Michałowskiego 3","residential":true,"residents_est":1,"h3_10":"8a1e2e61e2d7fff","h3_11":"8b1e2e61e2d1fff"},"geometry":{"type":"Polygon","coordinates":[[[20.121206,50.112124],[20.121209,50.1121],[20.121231,50.112101],[20.121236,50.11205],[20.121384,50.112055],[20.121374,50.112132],[20.121206,50.112124]]]}},{"type":"Feature","id":"w214451316","properties":{"type":"yes","address":"Jana Stanisława Bystronia 45","residential":true,"residents_est":1,"h3_10":"8a1e2e61e2d7fff","h3_11":"8b1e2e61e2d2fff"},"geometry":{"type":"Polygon","coordinates":[[[20.120031,50.11176],[20.120064,50.111676],[20.120189,50.111696],[20.120157,50.11178],[20.120031,50.11176]]]}},{"type":"Feature","id":"w214451320","properties":{"type":"yes","residential":true,"residents_est":1,"h3_10":"8a1e2e61e2d7fff","h3_11":"8b1e2e61e2d6fff"},"geometry":{"type":"Polygon","coordinates":[[[20.11991,50.111997],[20.119926,50.111937],[20.120115,50.111956],[20.120098,50.112018],[20.11991,50.111997]]]}},{"type":"Feature","id":"w214451374","properties":{"type":"yes","residential":true,"residents_est":5,"h3_10":"8a1e2e61e2f7fff","h3_11":"8b1e2e61e2f2fff"},"geometry":{"type":"Polygon","coordinates":[[[20.119829,50.112967],[20.119858,50.11286],[20.12019,50.112891],[20.120165,50.112999],[20.119829,50.112967]]]}},{"type":"Feature","id":"w214451379","properties":{"type":"yes","residential":true,"residents_est":2,"h3_10":"8a1e2e61e2c7fff","h3_11":"8b1e2e61e2c0fff"},"geometry":{"type":"Polygon","coordinates":[[[20.121823,50.112877],[20.121849,50.112783],[20.122173,50.11282],[20.122147,50.112913],[20.121823,50.112877]]]}},{"type":"Feature","id":"w214451434","properties":{"type":"yes","residential":true,"residents_est":1,"h3_10":"8a1e2e61e2dffff","h3_11":"8b1e2e61e2ddfff"},"geometry":{"type":"Polygon","coordinates":[[[20.122509,50.111913],[20.122523,50.111843],[20.1227,50.111858],[20.122686,50.111927],[20.122509,50.111913]]]}},{"type":"Feature","id":"w214451453","properties":{"type":"yes","address":"Piotra Michałowskiego 15","residential":true,"residents_est":1,"h3_10":"8a1e2e61e2c7fff","h3_11":"8b1e2e61e2c3fff"},"geometry":{"type":"Polygon","coordinates":[[[20.122451,50.112495],[20.122463,50.112472],[20.122493,50.112479],[20.122507,50.112452],[20.122633,50.112479],[20.122596,50.112549],[20.122467,50.112521],[20.122478,50.112501],[20.122451,50.112495]]]}},{"type":"Feature","id":"w214451466","properties":{"type":"yes","address":"Piotra Michałowskiego 18","residential":true,"residents_est":1,"h3_10":"8a1e2e61e2dffff","h3_11":"8b1e2e61e2ddfff"},"geometry":{"type":"Polygon","coordinates":[[[20.122511,50.112156],[20.122526,50.112035],[20.122669,50.112042],[20.122654,50.112163],[20.122511,50.112156]]]}},{"type":"Feature","id":"w214451476","properties":{"type":"yes","residential":true,"residents_est":0,"h3_10":"8a1e2e61e29ffff","h3_11":"8b1e2e61e29bfff"},"geometry":{"type":"Polygon","coordinates":[[[20.117445,50.111155],[20.117483,50.111095],[20.117594,50.111124],[20.117556,50.111184],[20.117445,50.111155]]]}},{"type":"Feature","id":"w214451504","properties":{"type":"yes","residential":true,"residents_est":1,"h3_10":"8a1e2e61e2dffff","h3_11":"8b1e2e61e2d8fff"},"geometry":{"type":"Polygon","coordinates":[[[20.122105,50.111855],[20.122111,50.111789],[20.122274,50.111795],[20.122268,50.111861],[20.122105,50.111855]]]}},{"type":"Feature","id":"w214451540","properties":{"type":"yes","address":"Piotra Michałowskiego 16","residential":true,"residents_est":1,"h3_10":"8a1e2e61e2dffff","h3_11":"8b1e2e61e2ddfff"},"geometry":{"type":"Polygon","coordinates":[[[20.122206,50.112022],[20.122217,50.111934],[20.12235,50.11194],[20.12234,50.112028],[20.122206,50.112022]]]}},{"type":"Feature","id":"w214451614","properties":{"type":"yes","address":"Piotra Michałowskiego 14","residential":true,"residents_est":1,"h3_10":"8a1e2e61e2dffff","h3_11":"8b1e2e61e2d8fff"},"geometry":{"type":"Polygon","coordinates":[[[20.121881,50.111825],[20.121887,50.111721],[20.121953,50.111722],[20.121952,50.111733],[20.122025,50.111734],[20.122018,50.111831],[20.12197,50.111829],[20.121969,50.11185],[20.121905,50.111848],[20.121907,50.111825],[20.121881,50.111825]]]}},{"type":"Feature","id":"w214451627","properties":{"type":"yes","address":"Piotra Michałowskiego 6","residential":true,"residents_est":1,"h3_10":"8a1e2e61e2dffff","h3_11":"8b1e2e61e2defff"},"geometry":{"type":"Polygon","coordinates":[[[20.121342,50.111664],[20.121349,50.111587],[20.121541,50.111595],[20.121533,50.111676],[20.121484,50.111674],[20.121483,50.111684],[20.121404,50.111681],[20.121405,50.111667],[20.121342,50.111664]]]}},{"type":"Feature","id":"w214451639","properties":{"type":"yes","address":"Piotra Michałowskiego 5","residential":true,"residents_est":1,"h3_10":"8a1e2e61e2d7fff","h3_11":"8b1e2e61e2d1fff"},"geometry":{"type":"Polygon","coordinates":[[[20.121415,50.112189],[20.12143,50.112082],[20.121551,50.112089],[20.121537,50.112196],[20.121415,50.112189]]]}},{"type":"Feature","id":"w214451645","properties":{"type":"yes","address":"Glinik 97","residential":true,"residents_est":27,"h3_10":"8a1e2e61e28ffff","h3_11":"8b1e2e61e28dfff"},"geometry":{"type":"Polygon","coordinates":[[[20.118627,50.113069],[20.11875,50.112641],[20.119253,50.112701],[20.119127,50.113129],[20.118627,50.113069]]]}},{"type":"Feature","id":"w214451658","properties":{"type":"yes","address":"Glinik 193","residential":true,"residents_est":20,"h3_10":"8a1e2e61e2f7fff","h3_11":"8b1e2e61e2f4fff"},"geometry":{"type":"Polygon","coordinates":[[[20.119511,50.113492],[20.119599,50.113169],[20.1201,50.113227],[20.120013,50.11355],[20.119511,50.113492]]]}},{"type":"Feature","id":"w214451723","properties":{"type":"yes","address":"Piotra Michałowskiego 4","residential":true,"residents_est":1,"h3_10":"8a1e2e61e2dffff","h3_11":"8b1e2e61e2defff"},"geometry":{"type":"Polygon","coordinates":[[[20.121116,50.11162],[20.121125,50.111546],[20.121263,50.111553],[20.121253,50.111628],[20.121206,50.111626],[20.121203,50.111646],[20.121169,50.111644],[20.121171,50.111623],[20.121116,50.11162]]]}},{"type":"Feature","id":"w214451728","properties":{"type":"yes","residential":true,"residents_est":7,"h3_10":"8a1e2e61e2f7fff","h3_11":"8b1e2e61e2f2fff"},"geometry":{"type":"Polygon","coordinates":[[[20.119608,50.11314],[20.119708,50.112785],[20.119872,50.112804],[20.119772,50.113159],[20.119608,50.11314]]]}},{"type":"Feature","id":"w214451819","properties":{"type":"yes","address":"Jana Stanisława Bystronia 43A","residential":true,"residents_est":2,"h3_10":"8a1e2e61e2d7fff","h3_11":"8b1e2e61e2d2fff"},"geometry":{"type":"Polygon","coordinates":[[[20.119637,50.111909],[20.119684,50.111784],[20.119825,50.111805],[20.119822,50.111814],[20.119906,50.111826],[20.119881,50.111893],[20.119797,50.11188],[20.119778,50.111931],[20.119637,50.111909]]]}},{"type":"Feature","id":"w337963122","properties":{"type":"yes","residential":true,"residents_est":2,"h3_10":"8a1e2e61e2c7fff","h3_11":"8b1e2e61e2c3fff"},"geometry":{"type":"Polygon","coordinates":[[[20.121845,50.112591],[20.121879,50.112517],[20.121953,50.112531],[20.121948,50.112543],[20.122259,50.1126],[20.122243,50.112636],[20.122146,50.112618],[20.12213,50.112653],[20.121992,50.112628],[20.121996,50.112619],[20.121845,50.112591]]]}},{"type":"Feature","id":"w337963124","properties":{"type":"yes","address":"Zacisze 5","residential":true,"residents_est":1,"h3_10":"8a1e2e61e2e7fff","h3_11":"8b1e2e61e2e4fff"},"geometry":{"type":"Polygon","coordinates":[[[20.121023,50.114363],[20.121026,50.114314],[20.121037,50.114314],[20.12104,50.114269],[20.121107,50.114271],[20.121106,50.114278],[20.12116,50.11428],[20.121157,50.114319],[20.121177,50.11432],[20.121173,50.114368],[20.121023,50.114363]]]}},{"type":"Feature","id":"w337963126","properties":{"type":"yes","address":"Piotra Michałowskiego 7","residential":true,"residents_est":1,"h3_10":"8a1e2e61e2dffff","h3_11":"8b1e2e61e2dcfff"},"geometry":{"type":"Polygon","coordinates":[[[20.12165,50.11228],[20.121658,50.112239],[20.121674,50.11224],[20.121683,50.112193],[20.12174,50.112198],[20.121738,50.112208],[20.121789,50.112212],[20.121782,50.112249],[20.121803,50.112251],[20.121796,50.112292],[20.12165,50.11228]]]}},{"type":"Feature","id":"w337963128","properties":{"type":"yes","residential":true,"residents_est":1,"h3_10":"8a1e2e61e2affff","h3_11":"8b1e2e61e2acfff"},"geometry":{"type":"Polygon","coordinates":[[[20.117854,50.114167],[20.117887,50.114092],[20.117941,50.114102],[20.117974,50.114032],[20.11806,50.114048],[20.117996,50.114193],[20.117939,50.114183],[20.117935,50.114195],[20.117891,50.114187],[20.117897,50.114175],[20.117854,50.114167]]]}},{"type":"Feature","id":"w337963129","properties":{"type":"yes","address":"Glinik 198","residential":true,"residents_est":1,"h3_10":"8a1e2e61e20ffff","h3_11":"8b1e2e61e20efff"},"geometry":{"type":"Polygon","coordinates":[[[20.120368,50.115047],[20.120369,50.115013],[20.120395,50.115013],[20.120396,50.114975],[20.120532,50.114976],[20.120532,50.114982],[20.120571,50.114983],[20.120569,50.115085],[20.120384,50.115084],[20.120384,50.115047],[20.120368,50.115047]]]}},{"type":"Feature","id":"w337963130","properties":{"type":"kindergarten","address":"Krakowska 130","residential":false,"residents_est":0,"h3_10":"8a1e2e61e31ffff","h3_11":"8b1e2e61e319fff"},"geometry":{"type":"Polygon","coordinates":[[[20.117855,50.11683],[20.11788,50.116829],[20.117876,50.116764],[20.118118,50.116756],[20.118142,50.116998],[20.117984,50.117003],[20.117972,50.116875],[20.117887,50.11688],[20.117886,50.116866],[20.11786,50.116867],[20.117855,50.11683]]]}},{"type":"Feature","id":"w337963135","properties":{"type":"yes","residential":true,"residents_est":1,"h3_10":"8a1e2e61e287fff","h3_11":"8b1e2e61e284fff"},"geometry":{"type":"Polygon","coordinates":[[[20.116804,50.113185],[20.116833,50.113174],[20.116844,50.113152],[20.116959,50.113169],[20.11697,50.113148],[20.117022,50.113159],[20.116972,50.113259],[20.116806,50.113226],[20.116818,50.113203],[20.116804,50.113185]]]}},{"type":"Feature","id":"w337963143","properties":{"type":"yes","address":"Glinik 202","residential":true,"residents_est":1,"h3_10":"8a1e2e61e20ffff","h3_11":"8b1e2e61e20cfff"},"geometry":{"type":"Polygon","coordinates":[[[20.120612,50.115522],[20.120615,50.115491],[20.120638,50.115491],[20.120642,50.115463],[20.120767,50.115468],[20.120755,50.115566],[20.120701,50.115563],[20.120701,50.115582],[20.120674,50.115581],[20.120676,50.115562],[20.12063,50.115559],[20.120636,50.115523],[20.120612,50.115522]]]}},{"type":"Feature","id":"w337963148","properties":{"type":"yes","address":"Zacisze 3","residential":true,"residents_est":1,"h3_10":"8a1e2e61e21ffff","h3_11":"8b1e2e61e219fff"},"geometry":{"type":"Polygon","coordinates":[[[20.120665,50.114309],[20.120666,50.114293],[20.120686,50.114283],[20.120688,50.114245],[20.120812,50.114249],[20.120811,50.114262],[20.120898,50.114265],[20.120893,50.114327],[20.120807,50.114324],[20.120804,50.114349],[20.120711,50.114346],[20.120713,50.114322],[20.120683,50.114321],[20.120665,50.114309]]]}},{"type":"Feature","id":"w337963149","properties":{"type":"yes","residential":true,"residents_est":1,"h3_10":"8a1e2e61e2b7fff","h3_11":"8b1e2e61e2b1fff"},"geometry":{"type":"Polygon","coordinates":[[[20.115691,50.113307],[20.115738,50.113206],[20.115789,50.113216],[20.115785,50.113225],[20.11584,50.113235],[20.115831,50.113254],[20.115878,50.113254],[20.115884,50.113265],[20.115866,50.113282],[20.11584,50.113336],[20.115691,50.113307]]]}},{"type":"Feature","id":"w337963157","properties":{"type":"yes","residential":true,"residents_est":1,"h3_10":"8a1e2e61e237fff","h3_11":"8b1e2e61e236fff"},"geometry":{"type":"Polygon","coordinates":[[[20.117082,50.115727],[20.117131,50.115628],[20.117183,50.115638],[20.117189,50.115626],[20.117239,50.115636],[20.117216,50.115684],[20.117188,50.115678],[20.117165,50.115726],[20.117193,50.115732],[20.117188,50.115741],[20.117234,50.11575],[20.117213,50.115793],[20.117165,50.115783],[20.117185,50.115748],[20.117082,50.115727]]]}},{"type":"Feature","id":"w337963158","properties":{"type":"yes","residential":true,"residents_est":1,"h3_10":"8a1e2e61e237fff","h3_11":"8b1e2e61e230fff"},"geometry":{"type":"Polygon","coordinates":[[[20.11766,50.115984],[20.117709,50.115867],[20.117702,50.115865],[20.117778,50.115704],[20.117897,50.115728],[20.117865,50.115797],[20.117826,50.115789],[20.117822,50.115797],[20.117809,50.115795],[20.11777,50.115878],[20.117786,50.115881],[20.117735,50.115998],[20.11766,50.115984]]]}},{"type":"Feature","id":"w337963164","properties":{"type":"yes","residential":true,"residents_est":1,"h3_10":"8a1e2e61e2c7fff","h3_11":"8b1e2e61e2c2fff"},"geometry":{"type":"Polygon","coordinates":[[[20.121495,50.1127],[20.121509,50.112638],[20.121672,50.112654],[20.121657,50.112716],[20.121495,50.1127]]]}},{"type":"Feature","id":"w337963165","properties":{"type":"yes","residential":true,"residents_est":0,"h3_10":"8a1e2e61e227fff","h3_11":"8b1e2e61e226fff"},"geometry":{"type":"Polygon","coordinates":[[[20.118414,50.116556],[20.118471,50.116528],[20.118545,50.116587],[20.118485,50.116616],[20.118414,50.116556]]]}},{"type":"Feature","id":"w337963170","properties":{"type":"yes","residential":true,"residents_est":0,"h3_10":"8a1e2e61e22ffff","h3_11":"8b1e2e61e22cfff"},"geometry":{"type":"Polygon","coordinates":[[[20.12046,50.116351],[20.120467,50.116274],[20.120562,50.116277],[20.120555,50.116355],[20.12046,50.116351]]]}},{"type":"Feature","id":"w337963174","properties":{"type":"yes","residential":true,"residents_est":1,"h3_10":"8a1e2e61e29ffff","h3_11":"8b1e2e61e29bfff"},"geometry":{"type":"Polygon","coordinates":[[[20.117766,50.111343],[20.11782,50.111268],[20.117998,50.111322],[20.117943,50.111397],[20.117766,50.111343]]]}},{"type":"Feature","id":"w337963179","properties":{"type":"yes","residential":true,"residents_est":1,"h3_10":"8a1e2e61e2e7fff","h3_11":"8b1e2e61e2e6fff"},"geometry":{"type":"Polygon","coordinates":[[[20.120758,50.114004],[20.120763,50.113863],[20.12087,50.113865],[20.120865,50.114006],[20.120758,50.114004]]]}},{"type":"Feature","id":"w337963190","properties":{"type":"yes","residential":true,"residents_est":0,"h3_10":"8a1e2e61e2dffff","h3_11":"8b1e2e61e2d8fff"},"geometry":{"type":"Polygon","coordinates":[[[20.121945,50.11164],[20.121953,50.111562],[20.12205,50.111566],[20.122042,50.111644],[20.121945,50.11164]]]}},{"type":"Feature","id":"w337963195","properties":{"type":"yes","address":"Glinik 204","residential":true,"residents_est":1,"h3_10":"8a1e2e61e22ffff","h3_11":"8b1e2e61e22afff"},"geometry":{"type":"Polygon","coordinates":[[[20.120327,50.115669],[20.120338,50.115564],[20.12049,50.115571],[20.120478,50.115676],[20.120327,50.115669]]]}},{"type":"Feature","id":"w337963196","properties":{"type":"yes","address":"Krzysztoforzyce 63","residential":true,"residents_est":1,"h3_10":"8a1e2e61e2e7fff","h3_11":"8b1e2e61e2e6fff"},"geometry":{"type":"Polygon","coordinates":[[[20.120463,50.113943],[20.120466,50.113867],[20.120614,50.11387],[20.120611,50.113946],[20.120463,50.113943]]]}},{"type":"Feature","id":"w337963197","properties":{"type":"yes","residential":true,"residents_est":1,"h3_10":"8a1e2e61e2affff","h3_11":"8b1e2e61e2a9fff"},"geometry":{"type":"Polygon","coordinates":[[[20.118815,50.113638],[20.118862,50.113535],[20.118983,50.113557],[20.118935,50.113661],[20.118815,50.113638]]]}},{"type":"Feature","id":"w337963199","properties":{"type":"yes","address":"Glinik 184","residential":true,"residents_est":1,"h3_10":"8a1e2e61e2f7fff","h3_11":"8b1e2e61e2f1fff"},"geometry":{"type":"Polygon","coordinates":[[[20.120588,50.113039],[20.120597,50.112957],[20.12075,50.112964],[20.120741,50.113046],[20.120588,50.113039]]]}},{"type":"Feature","id":"w337963210","properties":{"type":"yes","residential":true,"residents_est":0,"h3_10":"8a1e2e61e20ffff","h3_11":"8b1e2e61e20cfff"},"geometry":{"type":"Polygon","coordinates":[[[20.120906,50.115563],[20.120915,50.115463],[20.121016,50.115467],[20.121007,50.115567],[20.120906,50.115563]]]}},{"type":"Feature","id":"w337963215","properties":{"type":"yes","residential":true,"residents_est":1,"h3_10":"8a1e2e61e227fff","h3_11":"8b1e2e61e220fff"},"geometry":{"type":"Polygon","coordinates":[[[20.118722,50.116421],[20.118775,50.116348],[20.118986,50.116412],[20.118933,50.116485],[20.118722,50.116421]]]}},{"type":"Feature","id":"w337963216","properties":{"type":"yes","name":"Auto Serwis Euroma","residential":true,"residents_est":1,"h3_10":"8a1e2e61e31ffff","h3_11":"8b1e2e61e31bfff"},"geometry":{"type":"Polygon","coordinates":[[[20.117497,50.116403],[20.11761,50.11632],[20.117728,50.116386],[20.117616,50.116469],[20.117497,50.116403]]]}},{"type":"Feature","id":"w337963218","properties":{"type":"yes","address":"Zacisze 4","residential":true,"residents_est":1,"h3_10":"8a1e2e61e2e7fff","h3_11":"8b1e2e61e2e6fff"},"geometry":{"type":"Polygon","coordinates":[[[20.120974,50.113975],[20.120988,50.113887],[20.121135,50.113896],[20.121122,50.113984],[20.120974,50.113975]]]}},{"type":"Feature","id":"w337963221","properties":{"type":"yes","residential":true,"residents_est":1,"h3_10":"8a1e2e61e2b7fff","h3_11":"8b1e2e61e2b0fff"},"geometry":{"type":"Polygon","coordinates":[[[20.115185,50.113115],[20.115226,50.113025],[20.115359,50.11305],[20.115319,50.11314],[20.115185,50.113115]]]}},{"type":"Feature","id":"w337963229","properties":{"type":"yes","residential":true,"residents_est":1,"h3_10":"8a1e2e61e22ffff","h3_11":"8b1e2e61e228fff"},"geometry":{"type":"Polygon","coordinates":[[[20.120813,50.116181],[20.120928,50.116177],[20.120939,50.116294],[20.120824,50.116298],[20.120813,50.116181]]]}},{"type":"Feature","id":"w337963233","properties":{"type":"yes","residential":true,"residents_est":1,"h3_10":"8a1e2e61e31ffff","h3_11":"8b1e2e61e31bfff"},"geometry":{"type":"Polygon","coordinates":[[[20.117808,50.116573],[20.117911,50.116525],[20.118002,50.116607],[20.117899,50.116654],[20.117808,50.116573]]]}},{"type":"Feature","id":"w337963234","properties":{"type":"yes","residential":true,"residents_est":1,"h3_10":"8a1e2e61e2f7fff","h3_11":"8b1e2e61e2f4fff"},"geometry":{"type":"Polygon","coordinates":[[[20.119444,50.113748],[20.119475,50.113666],[20.1196,50.113685],[20.11957,50.113767],[20.119444,50.113748]]]}},{"type":"Feature","id":"w337963254","properties":{"type":"yes","residential":true,"residents_est":0,"h3_10":"8a1e2e61e2dffff","h3_11":"8b1e2e61e2dcfff"},"geometry":{"type":"Polygon","coordinates":[[[20.122015,50.112174],[20.122038,50.112147],[20.122223,50.112214],[20.1222,50.11224],[20.122015,50.112174]]]}},{"type":"Feature","id":"w337963257","properties":{"type":"yes","residential":true,"residents_est":1,"h3_10":"8a1e2e61e237fff","h3_11":"8b1e2e61e230fff"},"geometry":{"type":"Polygon","coordinates":[[[20.117341,50.11567],[20.11738,50.115588],[20.117514,50.115615],[20.117473,50.115697],[20.117341,50.11567]]]}},{"type":"Feature","id":"w337963264","properties":{"type":"yes","residential":false,"residents_est":0,"h3_10":"8a1e2e61e2c7fff","h3_11":"8b1e2e61e2c3fff"},"geometry":{"type":"Polygon","coordinates":[[[20.122285,50.112527],[20.122302,50.11247],[20.122386,50.11248],[20.122371,50.112537],[20.122285,50.112527]]]}},{"type":"Feature","id":"w337963276","properties":{"type":"yes","residential":true,"residents_est":0,"h3_10":"8a1e2e61e2f7fff","h3_11":"8b1e2e61e2f5fff"},"geometry":{"type":"Polygon","coordinates":[[[20.120104,50.113649],[20.120114,50.113597],[20.120136,50.113598],[20.120145,50.113553],[20.120208,50.113556],[20.120196,50.11366],[20.120104,50.113649]]]}},{"type":"Feature","id":"w337963280","properties":{"type":"yes","residential":true,"residents_est":1,"h3_10":"8a1e2e61e227fff","h3_11":"8b1e2e61e226fff"},"geometry":{"type":"Polygon","coordinates":[[[20.118277,50.116436],[20.118343,50.116398],[20.118367,50.116415],[20.118482,50.116348],[20.118549,50.116396],[20.118369,50.116501],[20.118277,50.116436]]]}},{"type":"Feature","id":"w337963281","properties":{"type":"yes","residential":true,"residents_est":1,"h3_10":"8a1e2e61e21ffff","h3_11":"8b1e2e61e21afff"},"geometry":{"type":"Polygon","coordinates":[[[20.119492,50.114007],[20.11952,50.113928],[20.119631,50.113945],[20.119638,50.113924],[20.119704,50.113933],[20.119668,50.114033],[20.119492,50.114007]]]}},{"type":"Feature","id":"w337963289","properties":{"type":"yes","residential":true,"residents_est":1,"h3_10":"8a1e2e61e2c7fff","h3_11":"8b1e2e61e2c2fff"},"geometry":{"type":"Polygon","coordinates":[[[20.121636,50.112572],[20.121649,50.112528],[20.121639,50.112527],[20.121658,50.112462],[20.121814,50.112481],[20.121782,50.11259],[20.121636,50.112572]]]}},{"type":"Feature","id":"w337963293","properties":{"type":"yes","residential":false,"residents_est":0,"h3_10":"8a1e2e61e2e7fff","h3_11":"8b1e2e61e2e6fff"},"geometry":{"type":"Polygon","coordinates":[[[20.120958,50.113847],[20.120964,50.113757],[20.121013,50.113759],[20.121009,50.113817],[20.121028,50.113817],[20.121025,50.113849],[20.120958,50.113847]]]}},{"type":"Feature","id":"w337963294","properties":{"type":"yes","address":"Glinik 210","residential":true,"residents_est":1,"h3_10":"8a1e2e61e22ffff","h3_11":"8b1e2e61e22efff"},"geometry":{"type":"Polygon","coordinates":[[[20.120285,50.116352],[20.120288,50.116284],[20.120313,50.116285],[20.120316,50.116217],[20.120419,50.116219],[20.120413,50.116355],[20.120285,50.116352]]]}},{"type":"Feature","id":"w337963295","properties":{"type":"yes","residential":true,"residents_est":1,"h3_10":"8a1e2e61e21ffff","h3_11":"8b1e2e61e218fff"},"geometry":{"type":"Polygon","coordinates":[[[20.119703,50.114326],[20.11975,50.114181],[20.119916,50.114204],[20.119898,50.114258],[20.119856,50.114252],[20.119826,50.114343],[20.119703,50.114326]]]}},{"type":"Feature","id":"w337963300","properties":{"type":"yes","address":"Piotra Michałowskiego 11","residential":true,"residents_est":2,"h3_10":"8a1e2e61e2c7fff","h3_11":"8b1e2e61e2c3fff"},"geometry":{"type":"Polygon","coordinates":[[[20.121965,50.112316],[20.122023,50.112227],[20.122215,50.112279],[20.122159,50.112365],[20.122146,50.112362],[20.122094,50.11244],[20.121974,50.112408],[20.122024,50.112332],[20.121965,50.112316]]]}},{"type":"Feature","id":"w337963301","properties":{"type":"yes","residential":true,"residents_est":1,"h3_10":"8a1e2e61e2c7fff","h3_11":"8b1e2e61e2c2fff"},"geometry":{"type":"Polygon","coordinates":[[[20.121525,50.11233],[20.121532,50.112293],[20.121624,50.1123],[20.121617,50.112337],[20.121627,50.112338],[20.121608,50.112444],[20.121543,50.112439],[20.121563,50.112333],[20.121525,50.11233]]]}},{"type":"Feature","id":"w337963307","properties":{"type":"yes","residential":false,"residents_est":0,"h3_10":"8a1e2e61e28ffff","h3_11":"8b1e2e61e28efff"},"geometry":{"type":"Polygon","coordinates":[[[20.118029,50.112634],[20.118059,50.112588],[20.118075,50.112593],[20.118086,50.112576],[20.118109,50.112583],[20.118099,50.112599],[20.118142,50.112611],[20.118112,50.112657],[20.118029,50.112634]]]}},{"type":"Feature","id":"w337963308","properties":{"type":"yes","address":"Glinik 208","residential":true,"residents_est":1,"h3_10":"8a1e2e61e22ffff","h3_11":"8b1e2e61e22efff"},"geometry":{"type":"Polygon","coordinates":[[[20.12024,50.116136],[20.120258,50.116064],[20.120324,50.11607],[20.120327,50.116059],[20.12035,50.116062],[20.120347,50.116073],[20.120414,50.11608],[20.120396,50.116152],[20.12024,50.116136]]]}},{"type":"Feature","id":"w337963309","properties":{"type":"yes","address":"Glinik 212","residential":true,"residents_est":1,"h3_10":"8a1e2e61e22ffff","h3_11":"8b1e2e61e228fff"},"geometry":{"type":"Polygon","coordinates":[[[20.120566,50.116223],[20.120572,50.116142],[20.120726,50.116147],[20.12072,50.116228],[20.12067,50.116226],[20.120669,50.116247],[20.120625,50.116245],[20.120626,50.116225],[20.120566,50.116223]]]}},{"type":"Feature","id":"w337963316","properties":{"type":"yes","residential":true,"residents_est":1,"h3_10":"8a1e2e61e237fff","h3_11":"8b1e2e61e234fff"},"geometry":{"type":"Polygon","coordinates":[[[20.116958,50.116097],[20.117005,50.116026],[20.117175,50.116078],[20.117118,50.116164],[20.117038,50.116142],[20.117051,50.116123],[20.116958,50.116097]]]}},{"type":"Feature","id":"w337963320","properties":{"type":"yes","address":"Kresowa 3","residential":true,"residents_est":1,"h3_10":"8a1e2e61e2c7fff","h3_11":"8b1e2e61e2c6fff"},"geometry":{"type":"Polygon","coordinates":[[[20.120836,50.112753],[20.120889,50.112738],[20.120869,50.11271],[20.12096,50.112683],[20.121026,50.112775],[20.120933,50.112803],[20.12092,50.112785],[20.12087,50.1128],[20.120836,50.112753]]]}},{"type":"Feature","id":"w337963325","properties":{"type":"yes","residential":true,"residents_est":2,"h3_10":"8a1e2e61e237fff","h3_11":"8b1e2e61e234fff"},"geometry":{"type":"Polygon","coordinates":[[[20.117346,50.116291],[20.117581,50.116128],[20.117691,50.116194],[20.117651,50.116221],[20.117621,50.116203],[20.117481,50.1163],[20.117508,50.116316],[20.117452,50.116355],[20.117346,50.116291]]]}},{"type":"Feature","id":"w337963328","properties":{"type":"yes","residential":true,"residents_est":1,"h3_10":"8a1e2e61e2affff","h3_11":"8b1e2e61e2a9fff"},"geometry":{"type":"Polygon","coordinates":[[[20.119021,50.113771],[20.119047,50.113713],[20.119221,50.113746],[20.119186,50.113824],[20.119112,50.11381],[20.119108,50.113818],[20.119038,50.113805],[20.11905,50.113777],[20.119021,50.113771]]]}},{"type":"Feature","id":"w337988234","properties":{"type":"yes","residential":true,"residents_est":1,"h3_10":"8a1e2e61e307fff","h3_11":"8b1e2e61e306fff"},"geometry":{"type":"Polygon","coordinates":[[[20.116504,50.117941],[20.116584,50.117905],[20.116675,50.117987],[20.116596,50.118023],[20.116504,50.117941]]]}},{"type":"Feature","id":"w337988358","properties":{"type":"yes","residential":false,"residents_est":0,"h3_10":"8a1e2e61e307fff","h3_11":"8b1e2e61e300fff"},"geometry":{"type":"Polygon","coordinates":[[[20.116722,50.118002],[20.11678,50.117976],[20.116843,50.118035],[20.116785,50.118061],[20.116722,50.118002]]]}},{"type":"Feature","id":"w337988459","properties":{"type":"yes","residential":true,"residents_est":0,"h3_10":"8a1e2e61e337fff","h3_11":"8b1e2e61e331fff"},"geometry":{"type":"Polygon","coordinates":[[[20.115788,50.118092],[20.11584,50.118064],[20.115933,50.118134],[20.115881,50.118163],[20.115788,50.118092]]]}},{"type":"Feature","id":"w337988528","properties":{"type":"yes","address":"Lipowa 7","residential":true,"residents_est":0,"h3_10":"8a1e2e61e337fff","h3_11":"8b1e2e61e333fff"},"geometry":{"type":"Polygon","coordinates":[[[20.115684,50.117809],[20.115751,50.117775],[20.11582,50.117831],[20.115752,50.117865],[20.115684,50.117809]]]}},{"type":"Feature","id":"w337988908","properties":{"type":"yes","address":"Lipowa 3","residential":true,"residents_est":1,"h3_10":"8a1e2e61e307fff","h3_11":"8b1e2e61e306fff"},"geometry":{"type":"Polygon","coordinates":[[[20.116187,50.117843],[20.116301,50.117793],[20.11634,50.117832],[20.116437,50.11779],[20.116475,50.117826],[20.116264,50.117917],[20.116187,50.117843]]]}},{"type":"Feature","id":"w337988923","properties":{"type":"yes","residential":true,"residents_est":1,"h3_10":"8a1e2e61e337fff","h3_11":"8b1e2e61e336fff"},"geometry":{"type":"Polygon","coordinates":[[[20.114543,50.118135],[20.114655,50.118081],[20.114709,50.118127],[20.11469,50.118136],[20.114714,50.118157],[20.114621,50.118202],[20.114543,50.118135]]]}},{"type":"Feature","id":"w337989035","properties":{"type":"yes","address":"Lipowa 15","residential":true,"residents_est":1,"h3_10":"8a1e2e61e337fff","h3_11":"8b1e2e61e332fff"},"geometry":{"type":"Polygon","coordinates":[[[20.114718,50.117937],[20.114848,50.117875],[20.114937,50.117952],[20.114823,50.118006],[20.114754,50.117946],[20.114738,50.117954],[20.114718,50.117937]]]}},{"type":"Feature","id":"w337989099","properties":{"type":"yes","address":"Krakowska 124","residential":true,"residents_est":1,"h3_10":"8a1e2e61e307fff","h3_11":"8b1e2e61e302fff"},"geometry":{"type":"Polygon","coordinates":[[[20.116489,50.117707],[20.116616,50.117655],[20.11668,50.117719],[20.116628,50.11774],[20.116644,50.117757],[20.116569,50.117788],[20.116489,50.117707]]]}},{"type":"Feature","id":"w337989173","properties":{"type":"yes","residential":true,"residents_est":2,"h3_10":"8a1e2e61e337fff","h3_11":"8b1e2e61e331fff"},"geometry":{"type":"Polygon","coordinates":[[[20.115567,50.11825],[20.11571,50.118138],[20.115803,50.118187],[20.115688,50.118277],[20.115772,50.118293],[20.115751,50.118335],[20.115638,50.118313],[20.11566,50.118299],[20.115567,50.11825]]]}},{"type":"Feature","id":"w337989253","properties":{"type":"yes","address":"Lipowa 4","residential":true,"residents_est":1,"h3_10":"8a1e2e61e337fff","h3_11":"8b1e2e61e331fff"},"geometry":{"type":"Polygon","coordinates":[[[20.115902,50.118278],[20.115972,50.118208],[20.116106,50.118263],[20.116038,50.118332],[20.115985,50.11831],[20.115969,50.118327],[20.11593,50.118311],[20.115946,50.118296],[20.115902,50.118278]]]}},{"type":"Feature","id":"w385376826","properties":{"type":"yes","address":"Przy Łąkach 23","residential":true,"residents_est":1,"h3_10":"8a1e2e61e357fff","h3_11":"8b1e2e61e354fff"},"geometry":{"type":"Polygon","coordinates":[[[20.120414,50.117574],[20.120444,50.117569],[20.120429,50.117534],[20.120505,50.117521],[20.120511,50.117534],[20.120584,50.117521],[20.120631,50.117632],[20.120533,50.117649],[20.120519,50.117614],[20.120437,50.117628],[20.120414,50.117574]]]}},{"type":"Feature","id":"w385376852","properties":{"type":"yes","address":"Wzorki 4","residential":true,"residents_est":1,"h3_10":"8a1e2e61e32ffff","h3_11":"8b1e2e61e329fff"},"geometry":{"type":"Polygon","coordinates":[[[20.118746,50.118666],[20.118798,50.118648],[20.118806,50.118657],[20.118833,50.118648],[20.118827,50.118641],[20.118899,50.118617],[20.118971,50.118706],[20.118926,50.118721],[20.118919,50.118712],[20.118865,50.11873],[20.118871,50.118737],[20.118817,50.118755],[20.118746,50.118666]]]}},{"type":"Feature","id":"w385376855","properties":{"type":"yes","address":"Przy Łąkach 15","residential":true,"residents_est":1,"h3_10":"8a1e2e61e30ffff","h3_11":"8b1e2e61e30dfff"},"geometry":{"type":"Polygon","coordinates":[[[20.118903,50.11808],[20.119033,50.118039],[20.11909,50.118112],[20.119054,50.118124],[20.119064,50.118137],[20.119038,50.118145],[20.11903,50.118136],[20.118962,50.118157],[20.118903,50.11808]]]}},{"type":"Feature","id":"w385376883","properties":{"type":"yes","address":"Przy Łąkach 31","residential":true,"residents_est":1,"h3_10":"8a1e2e61e347fff","h3_11":"8b1e2e61e342fff"},"geometry":{"type":"Polygon","coordinates":[[[20.121646,50.117425],[20.121757,50.117406],[20.1218,50.117511],[20.121689,50.11753],[20.121646,50.117425]]]}},{"type":"Feature","id":"w385376896","properties":{"type":"yes","residential":false,"residents_est":0,"h3_10":"8a1e2e61e30ffff","h3_11":"8b1e2e61e30dfff"},"geometry":{"type":"Polygon","coordinates":[[[20.11914,50.118033],[20.119214,50.118021],[20.119228,50.118053],[20.119153,50.118066],[20.11914,50.118033]]]}},{"type":"Feature","id":"w385376929","properties":{"type":"yes","residential":true,"residents_est":0,"h3_10":"8a1e2e61e377fff","h3_11":"8b1e2e61e372fff"},"geometry":{"type":"Polygon","coordinates":[[[20.119883,50.117792],[20.12005,50.117768],[20.120068,50.117823],[20.119902,50.117846],[20.119883,50.117792]]]}},{"type":"Feature","id":"w385376941","properties":{"type":"yes","address":"Szmaragdowa 4","residential":true,"residents_est":1,"h3_10":"8a1e2e61e377fff","h3_11":"8b1e2e61e370fff"},"geometry":{"type":"Polygon","coordinates":[[[20.120103,50.118149],[20.120223,50.118128],[20.120265,50.118227],[20.120144,50.118248],[20.120103,50.118149]]]}},{"type":"Feature","id":"w385376951","properties":{"type":"yes","residential":true,"residents_est":0,"h3_10":"8a1e2e61e30ffff","h3_11":"8b1e2e61e30cfff"},"geometry":{"type":"Polygon","coordinates":[[[20.118463,50.117789],[20.118533,50.117762],[20.118586,50.11782],[20.118516,50.117847],[20.118463,50.117789]]]}},{"type":"Feature","id":"w385376956","properties":{"type":"yes","address":"Przy Łąkach 5","residential":true,"residents_est":0,"h3_10":"8a1e2e61e307fff","h3_11":"8b1e2e61e305fff"},"geometry":{"type":"Polygon","coordinates":[[[20.117659,50.118409],[20.117754,50.118373],[20.117803,50.118426],[20.117707,50.118462],[20.117659,50.118409]]]}},{"type":"Feature","id":"w385377005","properties":{"type":"yes","residential":false,"residents_est":0,"h3_10":"8a1e2e61e357fff","h3_11":"8b1e2e61e354fff"},"geometry":{"type":"Polygon","coordinates":[[[20.119938,50.117525],[20.120008,50.117514],[20.12003,50.117571],[20.11996,50.117583],[20.119938,50.117525]]]}},{"type":"Feature","id":"w385377018","properties":{"type":"yes","address":"Przy Łąkach 19","residential":true,"residents_est":1,"h3_10":"8a1e2e61e357fff","h3_11":"8b1e2e61e354fff"},"geometry":{"type":"Polygon","coordinates":[[[20.11983,50.117607],[20.11996,50.117583],[20.119997,50.117663],[20.119867,50.117688],[20.11983,50.117607]]]}},{"type":"Feature","id":"w385377037","properties":{"type":"yes","address":"Przy Łąkach 11","residential":true,"residents_est":1,"h3_10":"8a1e2e61e30ffff","h3_11":"8b1e2e61e30dfff"},"geometry":{"type":"Polygon","coordinates":[[[20.119048,50.118173],[20.119142,50.118146],[20.119197,50.118224],[20.119103,50.118252],[20.119048,50.118173]]]}},{"type":"Feature","id":"w385377048","properties":{"type":"yes","residential":true,"residents_est":0,"h3_10":"8a1e2e61e327fff","h3_11":"8b1e2e61e323fff"},"geometry":{"type":"Polygon","coordinates":[[[20.117181,50.118654],[20.117317,50.118593],[20.117369,50.118641],[20.117233,50.118703],[20.117181,50.118654]]]}},{"type":"Feature","id":"w385377085","properties":{"type":"yes","residential":true,"residents_est":0,"h3_10":"8a1e2e61e32ffff","h3_11":"8b1e2e61e32efff"},"geometry":{"type":"Polygon","coordinates":[[[20.117369,50.118641],[20.117456,50.118605],[20.1175,50.11865],[20.117414,50.118685],[20.117369,50.118641]]]}},{"type":"Feature","id":"w385377153","properties":{"type":"yes","residential":true,"residents_est":0,"h3_10":"8a1e2e61e32ffff","h3_11":"8b1e2e61e328fff"},"geometry":{"type":"Polygon","coordinates":[[[20.118088,50.118589],[20.118145,50.118571],[20.118221,50.118672],[20.118164,50.11869],[20.118088,50.118589]]]}},{"type":"Feature","id":"w385377187","properties":{"type":"yes","residential":true,"residents_est":1,"h3_10":"8a1e2e61e30ffff","h3_11":"8b1e2e61e309fff"},"geometry":{"type":"Polygon","coordinates":[[[20.119569,50.117706],[20.119705,50.117685],[20.119754,50.117812],[20.119617,50.117834],[20.119569,50.117706]]]}},{"type":"Feature","id":"w385377210","properties":{"type":"yes","address":"Przy Łąkach 25","residential":true,"residents_est":1,"h3_10":"8a1e2e61e357fff","h3_11":"8b1e2e61e355fff"},"geometry":{"type":"Polygon","coordinates":[[[20.12075,50.117515],[20.120917,50.117484],[20.120951,50.117568],[20.120785,50.117596],[20.12075,50.117515]]]}},{"type":"Feature","id":"w385377289","properties":{"type":"yes","address":"Przy Łąkach 7","residential":true,"residents_est":1,"h3_10":"8a1e2e61e32ffff","h3_11":"8b1e2e61e32afff"},"geometry":{"type":"Polygon","coordinates":[[[20.11798,50.118463],[20.118111,50.118417],[20.118168,50.118484],[20.118131,50.118497],[20.118143,50.118512],[20.118049,50.118545],[20.11798,50.118463]]]}},{"type":"Feature","id":"w385377428","properties":{"type":"yes","residential":true,"residents_est":1,"h3_10":"8a1e2e61e357fff","h3_11":"8b1e2e61e355fff"},"geometry":{"type":"Polygon","coordinates":[[[20.12057,50.11769],[20.120673,50.117672],[20.120734,50.117825],[20.12063,50.117842],[20.12057,50.11769]]]}},{"type":"Feature","id":"w385377450","properties":{"type":"yes","address":"Przy Łąkach 17","residential":true,"residents_est":2,"h3_10":"8a1e2e61e30ffff","h3_11":"8b1e2e61e30dfff"},"geometry":{"type":"Polygon","coordinates":[[[20.119325,50.117928],[20.11955,50.117886],[20.119578,50.117951],[20.119533,50.117959],[20.11954,50.117975],[20.119528,50.117977],[20.119536,50.117996],[20.119369,50.118026],[20.119325,50.117928]]]}},{"type":"Feature","id":"w385377459","properties":{"type":"yes","residential":true,"residents_est":2,"h3_10":"8a1e2e61e32ffff","h3_11":"8b1e2e61e32bfff"},"geometry":{"type":"Polygon","coordinates":[[[20.118631,50.118196],[20.118711,50.118172],[20.118883,50.118407],[20.118802,50.118431],[20.118742,50.118349],[20.118711,50.118358],[20.118639,50.118259],[20.11867,50.11825],[20.118631,50.118196]]]}},{"type":"Feature","id":"w385377474","properties":{"type":"yes","address":"Przy Łąkach 9","residential":true,"residents_est":1,"h3_10":"8a1e2e61e32ffff","h3_11":"8b1e2e61e32bfff"},"geometry":{"type":"Polygon","coordinates":[[[20.118398,50.118287],[20.118506,50.118252],[20.11855,50.11831],[20.118503,50.118326],[20.118515,50.118342],[20.118489,50.118351],[20.118475,50.118333],[20.118441,50.118343],[20.118398,50.118287]]]}},{"type":"Feature","id":"w409311953","properties":{"type":"house","residential":true,"residents_est":2,"h3_10":"8a1e2e61e217fff","h3_11":"8b1e2e61e214fff"},"geometry":{"type":"Polygon","coordinates":[[[20.117504,50.114863],[20.117529,50.114806],[20.117605,50.11482],[20.117628,50.114815],[20.117719,50.114828],[20.11772,50.114848],[20.117779,50.114861],[20.11774,50.114928],[20.11763,50.11491],[20.117628,50.114888],[20.117504,50.114863]]]}},{"type":"Feature","id":"w409311955","properties":{"type":"house","residential":true,"residents_est":2,"h3_10":"8a1e2e61e21ffff","h3_11":"8b1e2e61e21efff"},"geometry":{"type":"Polygon","coordinates":[[[20.118751,50.114294],[20.118881,50.11432],[20.118939,50.114201],[20.11881,50.114175],[20.118751,50.114294]],[[20.118799,50.114198],[20.118799,50.114199],[20.118799,50.114199],[20.118799,50.114198]]]}},{"type":"Feature","id":"w706380046","properties":{"type":"yes","residential":false,"residents_est":0,"h3_10":"8a1e2e61e2f7fff","h3_11":"8b1e2e61e2f6fff"},"geometry":{"type":"Polygon","coordinates":[[[20.119599,50.113169],[20.119608,50.11314],[20.119712,50.113152],[20.119703,50.113181],[20.119599,50.113169]]]}},{"type":"Feature","id":"w720476829","properties":{"type":"yes","residential":true,"residents_est":0,"h3_10":"8a1e2e61e2d7fff","h3_11":"8b1e2e61e2d2fff"},"geometry":{"type":"Polygon","coordinates":[[[20.120227,50.11183],[20.120256,50.111732],[20.120321,50.11174],[20.120299,50.11184],[20.120227,50.11183]]]}},{"type":"Feature","id":"w720476833","properties":{"type":"greenhouse","residential":false,"residents_est":0,"h3_10":"8a1e2e61e28ffff","h3_11":"8b1e2e61e28bfff"},"geometry":{"type":"Polygon","coordinates":[[[20.119125,50.11212],[20.119284,50.111789],[20.119371,50.111806],[20.119212,50.112137],[20.119125,50.11212]]]}},{"type":"Feature","id":"w720476834","properties":{"type":"yes","residential":true,"residents_est":1,"h3_10":"8a1e2e61e2d7fff","h3_11":"8b1e2e61e2d4fff"},"geometry":{"type":"Polygon","coordinates":[[[20.119966,50.112629],[20.120146,50.112625],[20.120151,50.112717],[20.119971,50.112721],[20.119966,50.112629]]]}},{"type":"Feature","id":"w724341166","properties":{"type":"yes","residential":false,"residents_est":0,"h3_10":"8a1e2e61e217fff","h3_11":"8b1e2e61e213fff"},"geometry":{"type":"Polygon","coordinates":[[[20.118171,50.114109],[20.118188,50.11407],[20.118263,50.114084],[20.118246,50.114123],[20.118171,50.114109]]]}},{"type":"Feature","id":"w724341167","properties":{"type":"yes","residential":true,"residents_est":1,"h3_10":"8a1e2e61e2affff","h3_11":"8b1e2e61e2adfff"},"geometry":{"type":"Polygon","coordinates":[[[20.118436,50.113973],[20.118487,50.113863],[20.118608,50.113886],[20.118557,50.113996],[20.118436,50.113973]]]}},{"type":"Feature","id":"w724348335","properties":{"type":"yes","residential":true,"residents_est":1,"h3_10":"8a1e2e61e2a7fff","h3_11":"8b1e2e61e2a3fff"},"geometry":{"type":"Polygon","coordinates":[[[20.116567,50.113477],[20.116599,50.113406],[20.116742,50.113433],[20.11671,50.113503],[20.116567,50.113477]]]}},{"type":"Feature","id":"w724348355","properties":{"type":"yes","residential":true,"residents_est":1,"h3_10":"8a1e2e61e21ffff","h3_11":"8b1e2e61e21bfff"},"geometry":{"type":"Polygon","coordinates":[[[20.119816,50.113965],[20.11989,50.113817],[20.119937,50.113828],[20.119946,50.113813],[20.120032,50.113833],[20.119977,50.113932],[20.119969,50.11393],[20.119935,50.113992],[20.119816,50.113965]]]}},{"type":"Feature","id":"w724352888","properties":{"type":"yes","residential":false,"residents_est":0,"h3_10":"8a1e2e61e32ffff","h3_11":"8b1e2e61e32bfff"},"geometry":{"type":"Polygon","coordinates":[[[20.118927,50.118335],[20.118977,50.118322],[20.119005,50.118366],[20.118955,50.118379],[20.118927,50.118335]]]}},{"type":"Feature","id":"w724352889","properties":{"type":"yes","address":"Szmaragdowa 3","residential":true,"residents_est":1,"h3_10":"8a1e2e61e377fff","h3_11":"8b1e2e61e376fff"},"geometry":{"type":"Polygon","coordinates":[[[20.119591,50.118344],[20.119629,50.118337],[20.119612,50.118299],[20.119669,50.118288],[20.119663,50.118273],[20.119727,50.118262],[20.119739,50.118284],[20.119801,50.118273],[20.119819,50.118311],[20.119809,50.118313],[20.119826,50.118355],[20.119711,50.118371],[20.119717,50.118384],[20.119615,50.118401],[20.119591,50.118344]]]}},{"type":"Feature","id":"w724352890","properties":{"type":"yes","address":"Orzechowa 5","residential":true,"residents_est":1,"h3_10":"8a1e2e61e377fff","h3_11":"8b1e2e61e373fff"},"geometry":{"type":"Polygon","coordinates":[[[20.120346,50.118135],[20.120514,50.118105],[20.120546,50.118181],[20.120375,50.118213],[20.120346,50.118135]]]}},{"type":"Feature","id":"w724352892","properties":{"type":"yes","address":"Przy Łąkach 27","residential":true,"residents_est":1,"h3_10":"8a1e2e61e357fff","h3_11":"8b1e2e61e355fff"},"geometry":{"type":"Polygon","coordinates":[[[20.121064,50.11754],[20.121239,50.11751],[20.121271,50.117594],[20.121095,50.117625],[20.121064,50.11754]]]}},{"type":"Feature","id":"w724352893","properties":{"type":"yes","address":"Przy Łąkach 29","residential":true,"residents_est":0,"h3_10":"8a1e2e61e347fff","h3_11":"8b1e2e61e342fff"},"geometry":{"type":"Polygon","coordinates":[[[20.121394,50.117466],[20.121534,50.117445],[20.121563,50.117513],[20.121426,50.117536],[20.121394,50.117466]]]}},{"type":"Feature","id":"w724352895","properties":{"type":"yes","residential":false,"residents_est":0,"h3_10":"8a1e2e61e35ffff","h3_11":"8b1e2e61e35cfff"},"geometry":{"type":"Polygon","coordinates":[[[20.121894,50.117036],[20.121973,50.117021],[20.121992,50.117066],[20.121913,50.11708],[20.121894,50.117036]]]}},{"type":"Feature","id":"w724353773","properties":{"type":"greenhouse","residential":false,"residents_est":0,"h3_10":"8a1e2e61e297fff","h3_11":"8b1e2e61e293fff"},"geometry":{"type":"Polygon","coordinates":[[[20.114969,50.11205],[20.115859,50.110846],[20.116419,50.111016],[20.115529,50.11222],[20.114969,50.11205]]]}},{"type":"Feature","id":"w724514188","properties":{"type":"yes","residential":true,"residents_est":1,"h3_10":"8a1e2e61e3b7fff","h3_11":"8b1e2e61e3b4fff"},"geometry":{"type":"Polygon","coordinates":[[[20.112447,50.116303],[20.112451,50.116254],[20.112491,50.116255],[20.112495,50.116213],[20.112594,50.116218],[20.112584,50.116307],[20.112563,50.116307],[20.112557,50.116358],[20.112476,50.116354],[20.112482,50.116304],[20.112447,50.116303]]]}},{"type":"Feature","id":"w724573837","properties":{"type":"yes","address":"Karola Irzykowskiego 17B","residential":true,"residents_est":1,"h3_10":"8a1e2e61e397fff","h3_11":"8b1e2e61e396fff"},"geometry":{"type":"Polygon","coordinates":[[[20.112543,50.114728],[20.112657,50.114716],[20.112686,50.114827],[20.112555,50.11484],[20.112545,50.114805],[20.112562,50.114803],[20.112543,50.114728]]]}},{"type":"Feature","id":"w923428573","properties":{"type":"yes","address":"Piotra Michałowskiego 12","residential":true,"residents_est":1,"h3_10":"8a1e2e61e2dffff","h3_11":"8b1e2e61e2defff"},"geometry":{"type":"Polygon","coordinates":[[[20.121675,50.111772],[20.121682,50.111655],[20.121805,50.111658],[20.121799,50.111775],[20.121675,50.111772]]]}},{"type":"Feature","id":"w942640709","properties":{"type":"yes","address":"Lipowa 9","residential":true,"residents_est":1,"h3_10":"8a1e2e61e337fff","h3_11":"8b1e2e61e333fff"},"geometry":{"type":"Polygon","coordinates":[[[20.11527,50.117801],[20.115393,50.117746],[20.115475,50.117822],[20.115351,50.117876],[20.11527,50.117801]]]}},{"type":"Feature","id":"w942640711","properties":{"type":"yes","residential":false,"residents_est":0,"h3_10":"8a1e2e61e337fff","h3_11":"8b1e2e61e332fff"},"geometry":{"type":"Polygon","coordinates":[[[20.114824,50.118138],[20.114874,50.11812],[20.11493,50.118182],[20.114881,50.118201],[20.114824,50.118138]]]}},{"type":"Feature","id":"w972786140","properties":{"type":"yes","residential":false,"residents_est":0,"h3_10":"8a1e2e61e337fff","h3_11":"8b1e2e61e335fff"},"geometry":{"type":"Polygon","coordinates":[[[20.115351,50.118686],[20.115409,50.118651],[20.115469,50.118691],[20.115411,50.118727],[20.115351,50.118686]]]}},{"type":"Feature","id":"w1008899774","properties":{"type":"yes","residential":true,"residents_est":1,"h3_10":"8a1e2e61e2c7fff","h3_11":"8b1e2e61e2c3fff"},"geometry":{"type":"Polygon","coordinates":[[[20.122233,50.11271],[20.122285,50.112527],[20.122371,50.112537],[20.122319,50.11272],[20.122233,50.11271]]]}},{"type":"Feature","id":"w1043850106","properties":{"type":"yes","residential":true,"residents_est":1,"h3_10":"8a1e2e61e32ffff","h3_11":"8b1e2e61e32efff"},"geometry":{"type":"Polygon","coordinates":[[[20.117803,50.118534],[20.117909,50.118497],[20.117983,50.118585],[20.117877,50.118622],[20.117803,50.118534]]]}},{"type":"Feature","id":"w1043850107","properties":{"type":"yes","residential":true,"residents_est":1,"h3_10":"8a1e2e61e32ffff","h3_11":"8b1e2e61e32bfff"},"geometry":{"type":"Polygon","coordinates":[[[20.118777,50.118118],[20.118903,50.11808],[20.118962,50.118157],[20.118837,50.118197],[20.118777,50.118118]]]}},{"type":"Feature","id":"w1043850108","properties":{"type":"yes","residential":true,"residents_est":0,"h3_10":"8a1e2e61e377fff","h3_11":"8b1e2e61e370fff"},"geometry":{"type":"Polygon","coordinates":[[[20.120398,50.118301],[20.120495,50.118285],[20.120531,50.118378],[20.120434,50.118394],[20.120398,50.118301]]]}},{"type":"Feature","id":"w1047828272","properties":{"type":"detached","levels":2.0,"address":"Księdza Kazimierza Figlewicza 34","residential":true,"residents_est":1,"h3_10":"8a1e2e61e287fff","h3_11":"8b1e2e61e280fff"},"geometry":{"type":"Polygon","coordinates":[[[20.11697,50.112881],[20.117022,50.112804],[20.117143,50.112837],[20.117091,50.112915],[20.11697,50.112881]]]}},{"type":"Feature","id":"w1047828392","properties":{"type":"detached","levels":2.0,"residential":true,"residents_est":1,"h3_10":"8a1e2e61e2a7fff","h3_11":"8b1e2e61e2a2fff"},"geometry":{"type":"Polygon","coordinates":[[[20.116169,50.113414],[20.116212,50.11332],[20.116299,50.113336],[20.116256,50.11343],[20.116169,50.113414]]]}},{"type":"Feature","id":"w1047828590","properties":{"type":"outbuilding","levels":1.0,"residential":false,"residents_est":0,"h3_10":"8a1e2e61e377fff","h3_11":"8b1e2e61e370fff"},"geometry":{"type":"Polygon","coordinates":[[[20.120122,50.118329],[20.120238,50.11831],[20.120258,50.118358],[20.120142,50.118378],[20.120122,50.118329]]]}},{"type":"Feature","id":"w1075677494","properties":{"type":"yes","address":"Makowa 1","residential":true,"residents_est":1,"h3_10":"8a1e2e61e347fff","h3_11":"8b1e2e61e346fff"},"geometry":{"type":"Polygon","coordinates":[[[20.121164,50.117804],[20.121274,50.117783],[20.121285,50.117806],[20.121354,50.117793],[20.121398,50.117892],[20.121218,50.117925],[20.121164,50.117804]]]}},{"type":"Feature","id":"w1075692752","properties":{"type":"yes","residential":true,"residents_est":1,"h3_10":"8a1e2e61e28ffff","h3_11":"8b1e2e61e28bfff"},"geometry":{"type":"Polygon","coordinates":[[[20.118943,50.112297],[20.118974,50.112209],[20.119181,50.11224],[20.11915,50.112328],[20.118943,50.112297]]]}},{"type":"Feature","id":"w1075692754","properties":{"type":"greenhouse","residential":false,"residents_est":0,"h3_10":"8a1e2e61e28ffff","h3_11":"8b1e2e61e28bfff"},"geometry":{"type":"Polygon","coordinates":[[[20.119026,50.112075],[20.119145,50.111805],[20.119224,50.111819],[20.119105,50.11209],[20.119026,50.112075]]]}},{"type":"Feature","id":"w1075692758","properties":{"type":"yes","residential":true,"residents_est":1,"h3_10":"8a1e2e61e2a7fff","h3_11":"8b1e2e61e2a0fff"},"geometry":{"type":"Polygon","coordinates":[[[20.116504,50.113717],[20.116534,50.113645],[20.116686,50.113671],[20.116656,50.113743],[20.116504,50.113717]]]}},{"type":"Feature","id":"w1088203569","properties":{"type":"yes","residential":false,"residents_est":0,"h3_10":"8a1e2e61e327fff","h3_11":"8b1e2e61e323fff"},"geometry":{"type":"Polygon","coordinates":[[[20.117082,50.118713],[20.117157,50.118674],[20.117207,50.118714],[20.117132,50.118753],[20.117082,50.118713]]]}},{"type":"Feature","id":"w1155263991","properties":{"type":"yes","residential":false,"residents_est":0,"h3_10":"8a1e2e61e377fff","h3_11":"8b1e2e61e374fff"},"geometry":{"type":"Polygon","coordinates":[[[20.119538,50.118572],[20.119605,50.11856],[20.119636,50.118626],[20.119568,50.118639],[20.119538,50.118572]]]}},{"type":"Feature","id":"w1165114720","properties":{"type":"yes","residential":true,"residents_est":2,"h3_10":"8a1e2e61e20ffff","h3_11":"8b1e2e61e209fff"},"geometry":{"type":"Polygon","coordinates":[[[20.121608,50.115234],[20.121622,50.115045],[20.121782,50.115049],[20.121769,50.115239],[20.121608,50.115234]]]}},{"type":"Feature","id":"w1165114721","properties":{"type":"construction","residential":false,"residents_est":0,"h3_10":"8a1e2e61e20ffff","h3_11":"8b1e2e61e20bfff"},"geometry":{"type":"Polygon","coordinates":[[[20.121643,50.114497],[20.121647,50.114455],[20.121805,50.114461],[20.121799,50.11454],[20.121757,50.114539],[20.121752,50.114601],[20.121658,50.114598],[20.121666,50.114498],[20.121643,50.114497]]]}},{"type":"Feature","id":"w1165114722","properties":{"type":"construction","residential":false,"residents_est":0,"h3_10":"8a1e2e61e2e7fff","h3_11":"8b1e2e61e2e5fff"},"geometry":{"type":"Polygon","coordinates":[[[20.121647,50.114455],[20.12165,50.114413],[20.121673,50.114414],[20.121681,50.114314],[20.121775,50.114317],[20.121769,50.11438],[20.121812,50.114381],[20.121805,50.114461],[20.121647,50.114455]]]}},{"type":"Feature","id":"w1165114723","properties":{"type":"yes","residential":true,"residents_est":0,"h3_10":"8a1e2e61e21ffff","h3_11":"8b1e2e61e219fff"},"geometry":{"type":"Polygon","coordinates":[[[20.120469,50.114527],[20.120473,50.114471],[20.120562,50.114473],[20.120557,50.114554],[20.120505,50.114553],[20.120506,50.114528],[20.120469,50.114527]]]}},{"type":"Feature","id":"w1166315292","properties":{"type":"yes","residential":true,"residents_est":2,"h3_10":"8a1e2e61e287fff","h3_11":"8b1e2e61e282fff"},"geometry":{"type":"Polygon","coordinates":[[[20.116335,50.112425],[20.11646,50.112273],[20.116606,50.112323],[20.116481,50.112474],[20.116335,50.112425]]]}},{"type":"Feature","id":"w1166315296","properties":{"type":"yes","residential":true,"residents_est":0,"h3_10":"8a1e2e61e29ffff","h3_11":"8b1e2e61e29dfff"},"geometry":{"type":"Polygon","coordinates":[[[20.117621,50.112308],[20.117668,50.112235],[20.117786,50.112266],[20.117739,50.112339],[20.117621,50.112308]]]}},{"type":"Feature","id":"w1166315297","properties":{"type":"yes","residential":true,"residents_est":1,"h3_10":"8a1e2e61e287fff","h3_11":"8b1e2e61e284fff"},"geometry":{"type":"Polygon","coordinates":[[[20.116262,50.113158],[20.116306,50.113065],[20.116478,50.113099],[20.116434,50.113192],[20.116262,50.113158]]]}},{"type":"Feature","id":"w1166315299","properties":{"type":"yes","residential":true,"residents_est":2,"h3_10":"8a1e2e61e2affff","h3_11":"8b1e2e61e2acfff"},"geometry":{"type":"Polygon","coordinates":[[[20.118128,50.11385],[20.118165,50.113766],[20.118356,50.1138],[20.118291,50.113947],[20.118168,50.113925],[20.118196,50.113862],[20.118128,50.11385]]]}},{"type":"Feature","id":"w1242002740","properties":{"type":"yes","residential":false,"residents_est":0,"h3_10":"8a1e2e61e357fff","h3_11":"8b1e2e61e351fff"},"geometry":{"type":"Polygon","coordinates":[[[20.121313,50.117334],[20.121405,50.11732],[20.121423,50.117369],[20.121331,50.117383],[20.121313,50.117334]]]}},{"type":"Feature","id":"w1286909508","properties":{"type":"yes","residential":false,"residents_est":0,"h3_10":"8a1e2e61e2affff","h3_11":"8b1e2e61e2a8fff"},"geometry":{"type":"Polygon","coordinates":[[[20.118395,50.113703],[20.118416,50.113654],[20.118496,50.113668],[20.118475,50.113717],[20.118395,50.113703]]]}},{"type":"Feature","id":"w1286909509","properties":{"type":"yes","residential":true,"residents_est":0,"h3_10":"8a1e2e61e2affff","h3_11":"8b1e2e61e2adfff"},"geometry":{"type":"Polygon","coordinates":[[[20.118597,50.113783],[20.118627,50.113699],[20.118695,50.113709],[20.118665,50.113793],[20.118597,50.113783]]]}},{"type":"Feature","id":"w1286909510","properties":{"type":"yes","residential":false,"residents_est":0,"h3_10":"8a1e2e61e28ffff","h3_11":"8b1e2e61e289fff"},"geometry":{"type":"Polygon","coordinates":[[[20.119027,50.112522],[20.119053,50.112461],[20.119113,50.112471],[20.119087,50.112533],[20.119027,50.112522]]]}},{"type":"Feature","id":"w1332499162","properties":{"type":"construction","residential":false,"residents_est":0,"h3_10":"8a1e2e61e21ffff","h3_11":"8b1e2e61e219fff"},"geometry":{"type":"Polygon","coordinates":[[[20.120421,50.11435],[20.120423,50.114327],[20.120437,50.114327],[20.120441,50.114257],[20.120552,50.114259],[20.120546,50.114353],[20.120421,50.11435]]]}},{"type":"Feature","id":"w1341515310","properties":{"type":"construction","residential":false,"residents_est":0,"h3_10":"8a1e2e61e297fff","h3_11":"8b1e2e61e295fff"},"geometry":{"type":"Polygon","coordinates":[[[20.115535,50.11252],[20.115578,50.112463],[20.11574,50.112513],[20.115696,50.11257],[20.115535,50.11252]]]}},{"type":"Feature","id":"w1341515312","properties":{"type":"construction","residential":false,"residents_est":0,"h3_10":"8a1e2e61e29ffff","h3_11":"8b1e2e61e29efff"},"geometry":{"type":"Polygon","coordinates":[[[20.116141,50.111772],[20.116211,50.111673],[20.116343,50.111711],[20.116272,50.11181],[20.116141,50.111772]]]}},{"type":"Feature","id":"w1341580640","properties":{"type":"yes","residential":false,"residents_est":0,"h3_10":"8a1e2e61e357fff","h3_11":"8b1e2e61e352fff"},"geometry":{"type":"Polygon","coordinates":[[[20.120243,50.116773],[20.120328,50.116761],[20.120343,50.116802],[20.120258,50.116815],[20.120243,50.116773]]]}},{"type":"Feature","id":"w1427143849","properties":{"type":"yes","residential":true,"residents_est":5,"h3_10":"8a1e2e61e297fff","h3_11":"8b1e2e61e294fff"},"geometry":{"type":"Polygon","coordinates":[[[20.115019,50.112251],[20.115116,50.112123],[20.115357,50.112199],[20.11526,50.112326],[20.115019,50.112251]]]}},{"type":"Feature","id":"w1427143850","properties":{"type":"construction","residential":false,"residents_est":0,"h3_10":"8a1e2e61e2a7fff","h3_11":"8b1e2e61e2a0fff"},"geometry":{"type":"Polygon","coordinates":[[[20.116309,50.114014],[20.116363,50.11391],[20.116482,50.113935],[20.116427,50.11404],[20.116309,50.114014]]]}},{"type":"Feature","id":"w1427143851","properties":{"type":"yes","residential":true,"residents_est":1,"h3_10":"8a1e2e61e2affff","h3_11":"8b1e2e61e2aefff"},"geometry":{"type":"Polygon","coordinates":[[[20.117684,50.113413],[20.117729,50.113324],[20.117911,50.113362],[20.117866,50.113451],[20.117684,50.113413]]]}},{"type":"Feature","id":"w1550433695","properties":{"type":"construction","residential":false,"residents_est":0,"h3_10":"8a1e2e61e397fff","h3_11":"8b1e2e61e396fff"},"geometry":{"type":"Polygon","coordinates":[[[20.11248,50.11459],[20.112655,50.114572],[20.112672,50.114635],[20.112496,50.114654],[20.11248,50.11459]]]}}]}