{"type":"FeatureCollection","features":[{"type":"Feature","id":"w337951990","properties":{"type":"yes","residential":true,"residents_est":28,"h3_10":"8a1e2e6f5727fff","h3_11":"8b1e2e6f5725fff"},"geometry":{"type":"Polygon","coordinates":[[[20.17582,50.078625],[20.175843,50.078503],[20.176003,50.078515],[20.175989,50.078569],[20.17595,50.078665],[20.175881,50.07866],[20.175887,50.078631],[20.17582,50.078625]]]}},{"type":"Feature","id":"w721235492","properties":{"type":"yes","residential":false,"residents_est":0,"h3_10":"8a1e2e6f569ffff","h3_11":"8b1e2e6f5699fff"},"geometry":{"type":"Polygon","coordinates":[[[20.17671,50.070787],[20.176714,50.070724],[20.176774,50.070726],[20.176771,50.070788],[20.17671,50.070787]]]}}]}