{"type":"FeatureCollection","features":[{"type":"Feature","id":"w338036537","properties":{"type":"yes","residential":true,"residents_est":2,"h3_10":"8a1e2e61358ffff","h3_11":"8b1e2e613589fff"},"geometry":{"type":"Polygon","coordinates":[[[20.059853,50.112336],[20.059919,50.112218],[20.060026,50.112242],[20.059961,50.11236],[20.059853,50.112336]]]}},{"type":"Feature","id":"w338036545","properties":{"type":"yes","residential":true,"residents_est":2,"h3_10":"8a1e2e6134b7fff","h3_11":"8b1e2e6134b4fff"},"geometry":{"type":"Polygon","coordinates":[[[20.057537,50.110854],[20.05762,50.110774],[20.05775,50.110831],[20.057665,50.11091],[20.057537,50.110854]]]}},{"type":"Feature","id":"w338036546","properties":{"type":"yes","residential":true,"residents_est":2,"h3_10":"8a1e2e613597fff","h3_11":"8b1e2e613592fff"},"geometry":{"type":"Polygon","coordinates":[[[20.055357,50.111779],[20.055407,50.111706],[20.055533,50.111742],[20.055483,50.111815],[20.055357,50.111779]]]}},{"type":"Feature","id":"w338036549","properties":{"type":"yes","residential":true,"residents_est":3,"h3_10":"8a1e2e613597fff","h3_11":"8b1e2e613591fff"},"geometry":{"type":"Polygon","coordinates":[[[20.0565,50.111869],[20.056548,50.111795],[20.056734,50.111849],[20.056684,50.111922],[20.0565,50.111869]]]}},{"type":"Feature","id":"w338036555","properties":{"type":"yes","residential":true,"residents_est":2,"h3_10":"8a1e2e613417fff","h3_11":"8b1e2e613412fff"},"geometry":{"type":"Polygon","coordinates":[[[20.060598,50.111558],[20.06064,50.111464],[20.060773,50.111488],[20.06073,50.111583],[20.060598,50.111558]]]}},{"type":"Feature","id":"w338036568","properties":{"type":"yes","residential":true,"residents_est":3,"h3_10":"8a1e2e613487fff","h3_11":"8b1e2e613486fff"},"geometry":{"type":"Polygon","coordinates":[[[20.058964,50.110244],[20.059095,50.110132],[20.059193,50.110178],[20.059063,50.11029],[20.058964,50.110244]]]}},{"type":"Feature","id":"w338036570","properties":{"type":"yes","residential":true,"residents_est":2,"h3_10":"8a1e2e6134affff","h3_11":"8b1e2e6134acfff"},"geometry":{"type":"Polygon","coordinates":[[[20.060636,50.111031],[20.060722,50.110969],[20.060825,50.111031],[20.06074,50.111091],[20.060636,50.111031]]]}},{"type":"Feature","id":"w338036613","properties":{"type":"yes","residential":true,"residents_est":2,"h3_10":"8a1e2e61359ffff","h3_11":"8b1e2e61359bfff"},"geometry":{"type":"Polygon","coordinates":[[[20.057634,50.111002],[20.0577,50.110941],[20.057732,50.110956],[20.057745,50.110942],[20.057789,50.110961],[20.057774,50.110974],[20.057813,50.110992],[20.057747,50.111053],[20.057634,50.111002]]]}},{"type":"Feature","id":"w338036624","properties":{"type":"yes","residential":true,"residents_est":0,"h3_10":"8a1e2e613417fff","h3_11":"8b1e2e613410fff"},"geometry":{"type":"Polygon","coordinates":[[[20.060627,50.111946],[20.060643,50.111888],[20.060789,50.111902],[20.060776,50.11196],[20.060627,50.111946]]]}},{"type":"Feature","id":"w338036633","properties":{"type":"yes","residential":true,"residents_est":2,"h3_10":"8a1e2e613487fff","h3_11":"8b1e2e613480fff"},"geometry":{"type":"Polygon","coordinates":[[[20.059333,50.110055],[20.059424,50.109983],[20.059532,50.11004],[20.05944,50.110112],[20.059333,50.110055]]]}},{"type":"Feature","id":"w338036634","properties":{"type":"yes","residential":true,"residents_est":2,"h3_10":"8a1e2e613417fff","h3_11":"8b1e2e613413fff"},"geometry":{"type":"Polygon","coordinates":[[[20.060858,50.111479],[20.060873,50.111417],[20.061079,50.111438],[20.061064,50.1115],[20.060858,50.111479]]]}},{"type":"Feature","id":"w338036650","properties":{"type":"yes","residential":true,"residents_est":2,"h3_10":"8a1e2e6134b7fff","h3_11":"8b1e2e6134b1fff"},"geometry":{"type":"Polygon","coordinates":[[[20.058699,50.110571],[20.058752,50.110529],[20.058884,50.110599],[20.058831,50.110641],[20.058699,50.110571]]]}},{"type":"Feature","id":"w338036656","properties":{"type":"yes","residential":true,"residents_est":4,"h3_10":"8a1e2e61358ffff","h3_11":"8b1e2e61358dfff"},"geometry":{"type":"Polygon","coordinates":[[[20.05946,50.112668],[20.059599,50.11266],[20.059624,50.112816],[20.059484,50.112826],[20.05946,50.112668]]]}},{"type":"Feature","id":"w338036661","properties":{"type":"yes","residential":true,"residents_est":18,"h3_10":"8a1e2e61358ffff","h3_11":"8b1e2e61358efff"},"geometry":{"type":"Polygon","coordinates":[[[20.057806,50.112414],[20.057826,50.112294],[20.058001,50.112307],[20.058008,50.112267],[20.05826,50.112284],[20.058258,50.112291],[20.058241,50.11229],[20.058228,50.112369],[20.058245,50.11237],[20.058244,50.112377],[20.058185,50.112372],[20.058175,50.112432],[20.058195,50.112434],[20.058194,50.112441],[20.058042,50.11243],[20.058045,50.112417],[20.058019,50.112415],[20.058017,50.112429],[20.057806,50.112414]]]}},{"type":"Feature","id":"w338036669","properties":{"type":"yes","residential":false,"residents_est":0,"h3_10":"8a1e2e613417fff","h3_11":"8b1e2e613414fff"},"geometry":{"type":"Polygon","coordinates":[[[20.060325,50.112155],[20.060338,50.112115],[20.060419,50.112125],[20.060406,50.112166],[20.060325,50.112155]]]}},{"type":"Feature","id":"w338036684","properties":{"type":"yes","residential":false,"residents_est":0,"h3_10":"8a1e2e613487fff","h3_11":"8b1e2e613480fff"},"geometry":{"type":"Polygon","coordinates":[[[20.059486,50.110216],[20.05956,50.110159],[20.059612,50.110187],[20.059538,50.110244],[20.059486,50.110216]]]}},{"type":"Feature","id":"w338036693","properties":{"type":"yes","residential":true,"residents_est":1,"h3_10":"8a1e2e61359ffff","h3_11":"8b1e2e613599fff"},"geometry":{"type":"Polygon","coordinates":[[[20.058042,50.111486],[20.058118,50.111411],[20.058196,50.111442],[20.058122,50.111517],[20.058042,50.111486]]]}},{"type":"Feature","id":"w338036704","properties":{"type":"yes","residential":true,"residents_est":2,"h3_10":"8a1e2e61359ffff","h3_11":"8b1e2e61359dfff"},"geometry":{"type":"Polygon","coordinates":[[[20.057681,50.112009],[20.057727,50.111943],[20.057858,50.111982],[20.057811,50.112048],[20.057681,50.112009]]]}},{"type":"Feature","id":"w338036714","properties":{"type":"yes","residential":true,"residents_est":1,"h3_10":"8a1e2e6134a7fff","h3_11":"8b1e2e6134a4fff"},"geometry":{"type":"Polygon","coordinates":[[[20.058908,50.111648],[20.059002,50.111624],[20.059037,50.111681],[20.058943,50.111705],[20.058908,50.111648]]]}},{"type":"Feature","id":"w338036719","properties":{"type":"yes","residential":true,"residents_est":1,"h3_10":"8a1e2e6134b7fff","h3_11":"8b1e2e6134b4fff"},"geometry":{"type":"Polygon","coordinates":[[[20.05727,50.11077],[20.057358,50.11068],[20.057428,50.110708],[20.057341,50.110799],[20.05727,50.11077]]]}},{"type":"Feature","id":"w338036744","properties":{"type":"yes","residential":false,"residents_est":0,"h3_10":"8a1e2e6134a7fff","h3_11":"8b1e2e6134a6fff"},"geometry":{"type":"Polygon","coordinates":[[[20.058652,50.111021],[20.0587,50.110972],[20.058752,50.110994],[20.058704,50.111043],[20.058652,50.111021]]]}},{"type":"Feature","id":"w338036746","properties":{"type":"yes","residential":true,"residents_est":2,"h3_10":"8a1e2e61359ffff","h3_11":"8b1e2e61359efff"},"geometry":{"type":"Polygon","coordinates":[[[20.056756,50.11146],[20.056813,50.111397],[20.056948,50.111447],[20.056892,50.11151],[20.056853,50.111496],[20.056833,50.111519],[20.056774,50.111499],[20.056795,50.111474],[20.056756,50.11146]]]}},{"type":"Feature","id":"w338036750","properties":{"type":"yes","residential":true,"residents_est":3,"h3_10":"8a1e2e6134a7fff","h3_11":"8b1e2e6134a5fff"},"geometry":{"type":"Polygon","coordinates":[[[20.059275,50.11156],[20.05936,50.111398],[20.05946,50.11142],[20.059376,50.111581],[20.059275,50.11156]]]}},{"type":"Feature","id":"w338036754","properties":{"type":"yes","residential":true,"residents_est":4,"h3_10":"8a1e2e6134a7fff","h3_11":"8b1e2e6134a4fff"},"geometry":{"type":"Polygon","coordinates":[[[20.05863,50.111692],[20.058847,50.111637],[20.058901,50.111726],[20.058684,50.111781],[20.05863,50.111692]]]}},{"type":"Feature","id":"w338036756","properties":{"type":"yes","residential":true,"residents_est":3,"h3_10":"8a1e2e613487fff","h3_11":"8b1e2e613484fff"},"geometry":{"type":"Polygon","coordinates":[[[20.059277,50.110404],[20.059358,50.110339],[20.05951,50.110415],[20.05943,50.11048],[20.059352,50.110442],[20.059334,50.110456],[20.059303,50.110441],[20.059321,50.110426],[20.059277,50.110404]]]}},{"type":"Feature","id":"w338036759","properties":{"type":"yes","residential":true,"residents_est":2,"h3_10":"8a1e2e61359ffff","h3_11":"8b1e2e61359bfff"},"geometry":{"type":"Polygon","coordinates":[[[20.05804,50.111127],[20.058108,50.111053],[20.058158,50.111072],[20.058175,50.111053],[20.058219,50.111069],[20.058202,50.111089],[20.058222,50.111097],[20.058155,50.111169],[20.05804,50.111127]]]}},{"type":"Feature","id":"w338036774","properties":{"type":"yes","residential":true,"residents_est":1,"h3_10":"8a1e2e61359ffff","h3_11":"8b1e2e61359efff"},"geometry":{"type":"Polygon","coordinates":[[[20.056639,50.111675],[20.05669,50.111609],[20.05678,50.111637],[20.056729,50.111703],[20.056639,50.111675]]]}},{"type":"Feature","id":"w338036777","properties":{"type":"yes","residential":true,"residents_est":2,"h3_10":"8a1e2e61359ffff","h3_11":"8b1e2e61359bfff"},"geometry":{"type":"Polygon","coordinates":[[[20.057863,50.111386],[20.057932,50.11129],[20.058052,50.111327],[20.057983,50.111422],[20.057863,50.111386]]]}},{"type":"Feature","id":"w338036795","properties":{"type":"yes","residential":true,"residents_est":11,"h3_10":"8a1e2e61359ffff","h3_11":"8b1e2e613599fff"},"geometry":{"type":"Polygon","coordinates":[[[20.058003,50.111651],[20.058031,50.111617],[20.058047,50.111621],[20.058122,50.111517],[20.058395,50.111601],[20.058339,50.111679],[20.058157,50.111623],[20.058107,50.111683],[20.058003,50.111651]]]}},{"type":"Feature","id":"w338036799","properties":{"type":"yes","residential":true,"residents_est":2,"h3_10":"8a1e2e6134a7fff","h3_11":"8b1e2e6134a1fff"},"geometry":{"type":"Polygon","coordinates":[[[20.059713,50.111352],[20.059742,50.111267],[20.059891,50.111289],[20.059862,50.111373],[20.059713,50.111352]]]}},{"type":"Feature","id":"w338036801","properties":{"type":"yes","residential":true,"residents_est":2,"h3_10":"8a1e2e6135affff","h3_11":"8b1e2e6135a8fff"},"geometry":{"type":"Polygon","coordinates":[[[20.058491,50.113549],[20.0586,50.11354],[20.058616,50.113619],[20.058506,50.113628],[20.058491,50.113549]]]}},{"type":"Feature","id":"w338036804","properties":{"type":"yes","residential":true,"residents_est":3,"h3_10":"8a1e2e6134a7fff","h3_11":"8b1e2e6134a6fff"},"geometry":{"type":"Polygon","coordinates":[[[20.058452,50.11123],[20.058528,50.111153],[20.058686,50.111217],[20.05861,50.111294],[20.058452,50.11123]]]}},{"type":"Feature","id":"w338036805","properties":{"type":"yes","residential":true,"residents_est":3,"h3_10":"8a1e2e613597fff","h3_11":"8b1e2e613592fff"},"geometry":{"type":"Polygon","coordinates":[[[20.055395,50.11138],[20.055467,50.111311],[20.055675,50.111402],[20.055602,50.11147],[20.055395,50.11138]]]}},{"type":"Feature","id":"w338036818","properties":{"type":"yes","residential":true,"residents_est":3,"h3_10":"8a1e2e6134b7fff","h3_11":"8b1e2e6134b4fff"},"geometry":{"type":"Polygon","coordinates":[[[20.057249,50.110909],[20.05731,50.11084],[20.057491,50.110905],[20.05743,50.110975],[20.057249,50.110909]]]}},{"type":"Feature","id":"w338036837","properties":{"type":"yes","residential":true,"residents_est":2,"h3_10":"8a1e2e6134affff","h3_11":"8b1e2e6134a9fff"},"geometry":{"type":"Polygon","coordinates":[[[20.061649,50.110675],[20.061653,50.110633],[20.062006,50.110647],[20.062002,50.11069],[20.061649,50.110675]]]}},{"type":"Feature","id":"w338036844","properties":{"type":"yes","residential":true,"residents_est":2,"h3_10":"8a1e2e6135affff","h3_11":"8b1e2e6135a8fff"},"geometry":{"type":"Polygon","coordinates":[[[20.058259,50.113456],[20.058443,50.113441],[20.058459,50.113513],[20.058274,50.113529],[20.058259,50.113456]]]}},{"type":"Feature","id":"w338036848","properties":{"type":"yes","residential":true,"residents_est":3,"h3_10":"8a1e2e6134a7fff","h3_11":"8b1e2e6134a0fff"},"geometry":{"type":"Polygon","coordinates":[[[20.058868,50.111104],[20.058941,50.111029],[20.059019,50.111061],[20.059013,50.111067],[20.05909,50.111105],[20.059032,50.111165],[20.058993,50.111149],[20.058989,50.111154],[20.058868,50.111104]]]}},{"type":"Feature","id":"w338036857","properties":{"type":"yes","residential":true,"residents_est":1,"h3_10":"8a1e2e613597fff","h3_11":"8b1e2e613590fff"},"geometry":{"type":"Polygon","coordinates":[[[20.055342,50.111936],[20.055376,50.111888],[20.055514,50.111928],[20.055481,50.111976],[20.055342,50.111936]]]}},{"type":"Feature","id":"w338036862","properties":{"type":"yes","residential":true,"residents_est":2,"h3_10":"8a1e2e61359ffff","h3_11":"8b1e2e61359cfff"},"geometry":{"type":"Polygon","coordinates":[[[20.05724,50.112045],[20.057291,50.111954],[20.05742,50.111983],[20.057369,50.112074],[20.05724,50.112045]]]}},{"type":"Feature","id":"w338036874","properties":{"type":"yes","residential":true,"residents_est":1,"h3_10":"8a1e2e61359ffff","h3_11":"8b1e2e61359efff"},"geometry":{"type":"Polygon","coordinates":[[[20.056501,50.111519],[20.056574,50.111435],[20.056639,50.111458],[20.056566,50.111543],[20.056501,50.111519]]]}},{"type":"Feature","id":"w338036879","properties":{"type":"yes","residential":true,"residents_est":2,"h3_10":"8a1e2e6134affff","h3_11":"8b1e2e6134adfff"},"geometry":{"type":"Polygon","coordinates":[[[20.061258,50.11109],[20.061264,50.111012],[20.061416,50.111017],[20.061409,50.111096],[20.061258,50.11109]]]}},{"type":"Feature","id":"w338036887","properties":{"type":"yes","residential":true,"residents_est":2,"h3_10":"8a1e2e6135affff","h3_11":"8b1e2e6135aafff"},"geometry":{"type":"Polygon","coordinates":[[[20.058232,50.112902],[20.058378,50.112881],[20.058407,50.11297],[20.058261,50.11299],[20.058232,50.112902]]]}},{"type":"Feature","id":"w338036895","properties":{"type":"yes","residential":false,"residents_est":0,"h3_10":"8a1e2e613597fff","h3_11":"8b1e2e613596fff"},"geometry":{"type":"Polygon","coordinates":[[[20.054908,50.111825],[20.054936,50.111766],[20.055001,50.11178],[20.054972,50.111839],[20.054908,50.111825]]]}},{"type":"Feature","id":"w338036897","properties":{"type":"yes","residential":true,"residents_est":2,"h3_10":"8a1e2e613597fff","h3_11":"8b1e2e613591fff"},"geometry":{"type":"Polygon","coordinates":[[[20.05664,50.11201],[20.056703,50.111925],[20.056756,50.111942],[20.056761,50.111934],[20.056824,50.111952],[20.056785,50.112004],[20.056801,50.112012],[20.056773,50.112051],[20.05664,50.11201]]]}},{"type":"Feature","id":"w338036899","properties":{"type":"yes","residential":true,"residents_est":3,"h3_10":"8a1e2e613587fff","h3_11":"8b1e2e613582fff"},"geometry":{"type":"Polygon","coordinates":[[[20.056792,50.112234],[20.056908,50.112102],[20.057028,50.112146],[20.056912,50.112278],[20.056792,50.112234]]]}},{"type":"Feature","id":"w338036902","properties":{"type":"yes","residential":true,"residents_est":1,"h3_10":"8a1e2e613417fff","h3_11":"8b1e2e613413fff"},"geometry":{"type":"Polygon","coordinates":[[[20.060768,50.111695],[20.060781,50.111635],[20.060873,50.111643],[20.060861,50.111704],[20.060768,50.111695]]]}},{"type":"Feature","id":"w338036926","properties":{"type":"yes","residential":true,"residents_est":1,"h3_10":"8a1e2e613487fff","h3_11":"8b1e2e613484fff"},"geometry":{"type":"Polygon","coordinates":[[[20.058905,50.110369],[20.058956,50.110326],[20.059089,50.110391],[20.059043,50.110436],[20.058905,50.110369]]]}},{"type":"Feature","id":"w338036934","properties":{"type":"yes","residential":true,"residents_est":5,"h3_10":"8a1e2e613417fff","h3_11":"8b1e2e613413fff"},"geometry":{"type":"Polygon","coordinates":[[[20.061219,50.111677],[20.061253,50.111461],[20.061383,50.11147],[20.061349,50.111686],[20.061219,50.111677]]]}},{"type":"Feature","id":"w338036982","properties":{"type":"yes","residential":true,"residents_est":2,"h3_10":"8a1e2e613487fff","h3_11":"8b1e2e613480fff"},"geometry":{"type":"Polygon","coordinates":[[[20.059519,50.11031],[20.05963,50.110225],[20.059702,50.110267],[20.059592,50.110352],[20.059519,50.11031]]]}},{"type":"Feature","id":"w338036988","properties":{"type":"yes","residential":true,"residents_est":2,"h3_10":"8a1e2e613597fff","h3_11":"8b1e2e613590fff"},"geometry":{"type":"Polygon","coordinates":[[[20.055949,50.111863],[20.055995,50.111766],[20.056113,50.111788],[20.056071,50.111886],[20.055949,50.111863]]]}},{"type":"Feature","id":"w338037002","properties":{"type":"yes","residential":true,"residents_est":1,"h3_10":"8a1e2e613587fff","h3_11":"8b1e2e613583fff"},"geometry":{"type":"Polygon","coordinates":[[[20.057488,50.112119],[20.057518,50.112033],[20.057495,50.112027],[20.057506,50.111999],[20.0576,50.112014],[20.057555,50.112132],[20.057488,50.112119]]]}},{"type":"Feature","id":"w338037007","properties":{"type":"yes","residential":true,"residents_est":3,"h3_10":"8a1e2e613597fff","h3_11":"8b1e2e613596fff"},"geometry":{"type":"Polygon","coordinates":[[[20.055098,50.111739],[20.055146,50.111655],[20.055222,50.111678],[20.055231,50.111663],[20.055317,50.111683],[20.055268,50.111767],[20.055188,50.111749],[20.055182,50.111759],[20.055098,50.111739]]]}},{"type":"Feature","id":"w338037008","properties":{"type":"yes","residential":true,"residents_est":3,"h3_10":"8a1e2e613597fff","h3_11":"8b1e2e613591fff"},"geometry":{"type":"Polygon","coordinates":[[[20.056332,50.11181],[20.056369,50.111731],[20.056547,50.111764],[20.056509,50.111846],[20.056332,50.11181]]]}},{"type":"Feature","id":"w338037010","properties":{"type":"yes","residential":true,"residents_est":2,"h3_10":"8a1e2e6134affff","h3_11":"8b1e2e6134a8fff"},"geometry":{"type":"Polygon","coordinates":[[[20.061347,50.110912],[20.061356,50.110831],[20.061501,50.110837],[20.061491,50.11093],[20.06141,50.110927],[20.061411,50.110915],[20.061347,50.110912]]]}},{"type":"Feature","id":"w338037044","properties":{"type":"yes","residential":true,"residents_est":4,"h3_10":"8a1e2e6134affff","h3_11":"8b1e2e6134a9fff"},"geometry":{"type":"Polygon","coordinates":[[[20.0617,50.110959],[20.061719,50.11078],[20.061858,50.110786],[20.061839,50.110965],[20.0617,50.110959]]]}},{"type":"Feature","id":"w338037092","properties":{"type":"yes","residential":true,"residents_est":15,"h3_10":"8a1e2e613587fff","h3_11":"8b1e2e613582fff"},"geometry":{"type":"Polygon","coordinates":[[[20.056358,50.112224],[20.056467,50.111954],[20.056579,50.111972],[20.056501,50.112167],[20.056675,50.112196],[20.056644,50.112271],[20.056358,50.112224]]]}},{"type":"Feature","id":"w338037122","properties":{"type":"yes","residential":true,"residents_est":2,"h3_10":"8a1e2e613417fff","h3_11":"8b1e2e613416fff"},"geometry":{"type":"Polygon","coordinates":[[[20.059924,50.112066],[20.059951,50.112007],[20.060015,50.112019],[20.060021,50.112006],[20.060063,50.112014],[20.060057,50.112027],[20.060107,50.112037],[20.06008,50.112096],[20.059924,50.112066]]]}},{"type":"Feature","id":"w338037124","properties":{"type":"yes","residential":true,"residents_est":1,"h3_10":"8a1e2e613417fff","h3_11":"8b1e2e613416fff"},"geometry":{"type":"Polygon","coordinates":[[[20.059828,50.111754],[20.0599,50.11167],[20.059988,50.1117],[20.059916,50.111784],[20.059828,50.111754]]]}},{"type":"Feature","id":"w338037142","properties":{"type":"yes","residential":true,"residents_est":3,"h3_10":"8a1e2e6134b7fff","h3_11":"8b1e2e6134b5fff"},"geometry":{"type":"Polygon","coordinates":[[[20.058011,50.110929],[20.058145,50.110795],[20.05823,50.110825],[20.058096,50.110961],[20.058011,50.110929]]]}},{"type":"Feature","id":"w338037154","properties":{"type":"yes","residential":true,"residents_est":2,"h3_10":"8a1e2e6135affff","h3_11":"8b1e2e6135abfff"},"geometry":{"type":"Polygon","coordinates":[[[20.058956,50.112776],[20.059137,50.112759],[20.059151,50.11283],[20.058971,50.112848],[20.058956,50.112776]]]}},{"type":"Feature","id":"w338037165","properties":{"type":"yes","residential":true,"residents_est":2,"h3_10":"8a1e2e613417fff","h3_11":"8b1e2e613412fff"},"geometry":{"type":"Polygon","coordinates":[[[20.060027,50.111569],[20.060106,50.111496],[20.060216,50.111546],[20.060136,50.111619],[20.060095,50.1116],[20.060079,50.111616],[20.060051,50.111604],[20.060068,50.111588],[20.060027,50.111569]]]}},{"type":"Feature","id":"w338037170","properties":{"type":"yes","residential":true,"residents_est":3,"h3_10":"8a1e2e6134a7fff","h3_11":"8b1e2e6134a2fff"},"geometry":{"type":"Polygon","coordinates":[[[20.05887,50.110783],[20.058932,50.110732],[20.058901,50.110716],[20.058965,50.110665],[20.059084,50.110728],[20.059021,50.110779],[20.059005,50.110771],[20.058942,50.110821],[20.05887,50.110783]]]}},{"type":"Feature","id":"w338037194","properties":{"type":"yes","residential":true,"residents_est":3,"h3_10":"8a1e2e6134b7fff","h3_11":"8b1e2e6134b4fff"},"geometry":{"type":"Polygon","coordinates":[[[20.057449,50.110595],[20.057521,50.110528],[20.057733,50.110622],[20.057662,50.110689],[20.057449,50.110595]]]}},{"type":"Feature","id":"w338037220","properties":{"type":"yes","residential":true,"residents_est":0,"h3_10":"8a1e2e613587fff","h3_11":"8b1e2e613585fff"},"geometry":{"type":"Polygon","coordinates":[[[20.057848,50.113018],[20.057849,50.112967],[20.057976,50.112963],[20.057983,50.113013],[20.057848,50.113018]]]}},{"type":"Feature","id":"w706306581","properties":{"type":"yes","residential":false,"residents_est":0,"h3_10":"8a1e2e6134affff","h3_11":"8b1e2e6134a9fff"},"geometry":{"type":"Polygon","coordinates":[[[20.061609,50.110956],[20.061612,50.110916],[20.061704,50.11092],[20.0617,50.110959],[20.061609,50.110956]]]}},{"type":"Feature","id":"w706306582","properties":{"type":"yes","residential":false,"residents_est":0,"h3_10":"8a1e2e6134affff","h3_11":"8b1e2e6134adfff"},"geometry":{"type":"Polygon","coordinates":[[[20.061643,50.111075],[20.061649,50.11102],[20.061698,50.111022],[20.061692,50.111078],[20.061643,50.111075]]]}},{"type":"Feature","id":"w706306583","properties":{"type":"yes","residential":true,"residents_est":3,"h3_10":"8a1e2e6134affff","h3_11":"8b1e2e6134aefff"},"geometry":{"type":"Polygon","coordinates":[[[20.06019,50.110869],[20.060282,50.110796],[20.060397,50.110857],[20.060366,50.110881],[20.060399,50.1109],[20.060323,50.110957],[20.060256,50.11092],[20.060264,50.110914],[20.06019,50.110869]]]}},{"type":"Feature","id":"w706306584","properties":{"type":"yes","residential":true,"residents_est":4,"h3_10":"8a1e2e613417fff","h3_11":"8b1e2e613411fff"},"geometry":{"type":"Polygon","coordinates":[[[20.061337,50.111986],[20.061355,50.111853],[20.061416,50.111857],[20.061411,50.111888],[20.061444,50.11189],[20.061446,50.111874],[20.061563,50.11188],[20.061548,50.111998],[20.061337,50.111986]]]}},{"type":"Feature","id":"w706306585","properties":{"type":"yes","residential":false,"residents_est":0,"h3_10":"8a1e2e613417fff","h3_11":"8b1e2e613416fff"},"geometry":{"type":"Polygon","coordinates":[[[20.060205,50.112025],[20.060217,50.111992],[20.060275,50.112],[20.060263,50.112033],[20.060205,50.112025]]]}},{"type":"Feature","id":"w706306587","properties":{"type":"yes","residential":false,"residents_est":0,"h3_10":"8a1e2e613417fff","h3_11":"8b1e2e613416fff"},"geometry":{"type":"Polygon","coordinates":[[[20.059916,50.111784],[20.059943,50.111755],[20.060019,50.111785],[20.060003,50.111805],[20.059916,50.111784]]]}},{"type":"Feature","id":"w706306588","properties":{"type":"yes","residential":true,"residents_est":1,"h3_10":"8a1e2e6134a7fff","h3_11":"8b1e2e6134a5fff"},"geometry":{"type":"Polygon","coordinates":[[[20.05989,50.111657],[20.059963,50.111586],[20.060032,50.111616],[20.059971,50.111676],[20.05998,50.11168],[20.05997,50.111691],[20.05989,50.111657]]]}},{"type":"Feature","id":"w706306589","properties":{"type":"yes","residential":true,"residents_est":2,"h3_10":"8a1e2e6134b7fff","h3_11":"8b1e2e6134b1fff"},"geometry":{"type":"Polygon","coordinates":[[[20.058214,50.110545],[20.058244,50.110517],[20.058237,50.110514],[20.058263,50.110491],[20.05827,50.110494],[20.058311,50.110456],[20.058402,50.110497],[20.058296,50.110595],[20.058252,50.110575],[20.05826,50.110566],[20.058214,50.110545]]]}},{"type":"Feature","id":"w706306590","properties":{"type":"yes","residential":false,"residents_est":0,"h3_10":"8a1e2e61359ffff","h3_11":"8b1e2e613599fff"},"geometry":{"type":"Polygon","coordinates":[[[20.058004,50.111524],[20.058042,50.111486],[20.058113,50.111514],[20.058076,50.111552],[20.058004,50.111524]]]}},{"type":"Feature","id":"w706306592","properties":{"type":"yes","residential":false,"residents_est":0,"h3_10":"8a1e2e6135b7fff","h3_11":"8b1e2e6135b3fff"},"geometry":{"type":"Polygon","coordinates":[[[20.055948,50.112637],[20.05597,50.112591],[20.056064,50.112608],[20.056043,50.112654],[20.055948,50.112637]]]}},{"type":"Feature","id":"w706306593","properties":{"type":"yes","residential":false,"residents_est":0,"h3_10":"8a1e2e6135b7fff","h3_11":"8b1e2e6135b3fff"},"geometry":{"type":"Polygon","coordinates":[[[20.055929,50.112538],[20.055959,50.112482],[20.056026,50.112497],[20.055996,50.112553],[20.055929,50.112538]]]}},{"type":"Feature","id":"w706306594","properties":{"type":"yes","residential":false,"residents_est":0,"h3_10":"8a1e2e6135b7fff","h3_11":"8b1e2e6135b3fff"},"geometry":{"type":"Polygon","coordinates":[[[20.055996,50.112553],[20.056026,50.112497],[20.056105,50.112514],[20.056075,50.11257],[20.055996,50.112553]]]}},{"type":"Feature","id":"w706306595","properties":{"type":"yes","residential":true,"residents_est":2,"h3_10":"8a1e2e613597fff","h3_11":"8b1e2e613591fff"},"geometry":{"type":"Polygon","coordinates":[[[20.056379,50.111939],[20.056428,50.11183],[20.056509,50.111846],[20.056458,50.111955],[20.056379,50.111939]]]}},{"type":"Feature","id":"w706306596","properties":{"type":"yes","residential":true,"residents_est":5,"h3_10":"8a1e2e613597fff","h3_11":"8b1e2e613595fff"},"geometry":{"type":"Polygon","coordinates":[[[20.055987,50.112088],[20.056028,50.111992],[20.056129,50.11201],[20.056137,50.111992],[20.056247,50.112012],[20.05624,50.112031],[20.056288,50.112039],[20.056255,50.112117],[20.056205,50.112108],[20.056197,50.112126],[20.055987,50.112088]]]}},{"type":"Feature","id":"w706306597","properties":{"type":"yes","residential":true,"residents_est":2,"h3_10":"8a1e2e613597fff","h3_11":"8b1e2e613593fff"},"geometry":{"type":"Polygon","coordinates":[[[20.056118,50.111498],[20.056165,50.111429],[20.056209,50.111441],[20.05622,50.111425],[20.056329,50.111455],[20.056313,50.11148],[20.05632,50.111492],[20.056312,50.111504],[20.056294,50.111509],[20.056276,50.111534],[20.056174,50.111506],[20.056169,50.111512],[20.056118,50.111498]]]}},{"type":"Feature","id":"w725291822","properties":{"type":"yes","residential":true,"residents_est":4,"h3_10":"8a1e2e6135affff","h3_11":"8b1e2e6135aafff"},"geometry":{"type":"Polygon","coordinates":[[[20.057879,50.113056],[20.058128,50.113045],[20.058135,50.113133],[20.057887,50.113144],[20.057879,50.113056]]]}},{"type":"Feature","id":"w725291823","properties":{"type":"yes","residential":false,"residents_est":0,"h3_10":"8a1e2e61358ffff","h3_11":"8b1e2e61358dfff"},"geometry":{"type":"Polygon","coordinates":[[[20.059273,50.112858],[20.059362,50.112847],[20.059369,50.112887],[20.059284,50.112895],[20.059273,50.112858]]]}},{"type":"Feature","id":"w725291824","properties":{"type":"yes","residential":true,"residents_est":1,"h3_10":"8a1e2e61358ffff","h3_11":"8b1e2e61358dfff"},"geometry":{"type":"Polygon","coordinates":[[[20.059148,50.112818],[20.059314,50.112801],[20.059327,50.112852],[20.059161,50.112869],[20.059148,50.112818]]]}},{"type":"Feature","id":"w725777413","properties":{"type":"yes","residential":true,"residents_est":1,"h3_10":"8a1e2e613487fff","h3_11":"8b1e2e613480fff"},"geometry":{"type":"Polygon","coordinates":[[[20.059351,50.110192],[20.059423,50.110135],[20.059477,50.110165],[20.059405,50.11022],[20.059351,50.110192]]]}},{"type":"Feature","id":"w725777414","properties":{"type":"yes","residential":false,"residents_est":0,"h3_10":"8a1e2e613487fff","h3_11":"8b1e2e613486fff"},"geometry":{"type":"Polygon","coordinates":[[[20.058939,50.110265],[20.058964,50.110244],[20.059057,50.110288],[20.059031,50.110309],[20.058939,50.110265]]]}},{"type":"Feature","id":"w725777415","properties":{"type":"yes","residential":false,"residents_est":0,"h3_10":"8a1e2e613487fff","h3_11":"8b1e2e613484fff"},"geometry":{"type":"Polygon","coordinates":[[[20.058952,50.110446],[20.058992,50.110412],[20.059043,50.110436],[20.059004,50.110473],[20.058952,50.110446]]]}},{"type":"Feature","id":"w725777416","properties":{"type":"yes","residential":true,"residents_est":2,"h3_10":"8a1e2e61359ffff","h3_11":"8b1e2e61359bfff"},"geometry":{"type":"Polygon","coordinates":[[[20.057916,50.111019],[20.058001,50.110926],[20.058073,50.110953],[20.057988,50.111047],[20.057916,50.111019]]]}},{"type":"Feature","id":"w1043513880","properties":{"type":"yes","residential":true,"residents_est":3,"h3_10":"8a1e2e6134affff","h3_11":"8b1e2e6134a9fff"},"geometry":{"type":"Polygon","coordinates":[[[20.061644,50.110726],[20.061649,50.110675],[20.062002,50.11069],[20.061997,50.11074],[20.061644,50.110726]]]}},{"type":"Feature","id":"w1047828260","properties":{"type":"outbuilding","levels":1.0,"residential":false,"residents_est":0,"h3_10":"8a1e2e6134a7fff","h3_11":"8b1e2e6134a2fff"},"geometry":{"type":"Polygon","coordinates":[[[20.058701,50.110972],[20.058769,50.110902],[20.05882,50.110922],[20.058752,50.110992],[20.058701,50.110972]]]}},{"type":"Feature","id":"w1047828284","properties":{"type":"outbuilding","levels":1.0,"residential":false,"residents_est":0,"h3_10":"8a1e2e613417fff","h3_11":"8b1e2e613413fff"},"geometry":{"type":"Polygon","coordinates":[[[20.060888,50.111707],[20.060904,50.111639],[20.061019,50.11165],[20.061005,50.111718],[20.060888,50.111707]]]}},{"type":"Feature","id":"w1076607731","properties":{"type":"yes","residential":true,"residents_est":2,"h3_10":"8a1e2e6134affff","h3_11":"8b1e2e6134a8fff"},"geometry":{"type":"Polygon","coordinates":[[[20.060883,50.110862],[20.06098,50.110766],[20.061091,50.110812],[20.061019,50.110883],[20.060992,50.110872],[20.060967,50.110897],[20.060883,50.110862]]]}},{"type":"Feature","id":"w1076607732","properties":{"type":"yes","residential":false,"residents_est":0,"h3_10":"8a1e2e61348ffff","h3_11":"8b1e2e61348dfff"},"geometry":{"type":"Polygon","coordinates":[[[20.061697,50.110203],[20.061732,50.110172],[20.061802,50.110203],[20.061767,50.110234],[20.061697,50.110203]]]}},{"type":"Feature","id":"w1155392185","properties":{"type":"yes","residential":true,"residents_est":3,"h3_10":"8a1e2e6134b7fff","h3_11":"8b1e2e6134b6fff"},"geometry":{"type":"Polygon","coordinates":[[[20.057121,50.110491],[20.057203,50.110421],[20.057367,50.110499],[20.057285,50.110569],[20.057121,50.110491]]]}},{"type":"Feature","id":"w1190024899","properties":{"type":"outbuilding","levels":1.0,"residential":false,"residents_est":0,"h3_10":"8a1e2e613597fff","h3_11":"8b1e2e613590fff"},"geometry":{"type":"Polygon","coordinates":[[[20.055654,50.111909],[20.055763,50.11179],[20.05587,50.11183],[20.055765,50.111949],[20.055654,50.111909]]]}},{"type":"Feature","id":"w1190024900","properties":{"type":"outbuilding","levels":1.0,"residential":false,"residents_est":0,"h3_10":"8a1e2e6134b7fff","h3_11":"8b1e2e6134b5fff"},"geometry":{"type":"Polygon","coordinates":[[[20.058299,50.110744],[20.058361,50.110684],[20.058567,50.110773],[20.058505,50.110833],[20.058391,50.110783],[20.05836,50.110813],[20.0583,50.110787],[20.058331,50.110757],[20.058299,50.110744]]]}},{"type":"Feature","id":"w1190024901","properties":{"type":"house","levels":1.0,"residential":true,"residents_est":3,"h3_10":"8a1e2e613417fff","h3_11":"8b1e2e613412fff"},"geometry":{"type":"Polygon","coordinates":[[[20.060189,50.111408],[20.060249,50.111347],[20.060424,50.111418],[20.060364,50.111479],[20.060189,50.111408]]]}},{"type":"Feature","id":"w1474132283","properties":{"type":"yes","residential":false,"residents_est":0,"h3_10":"8a1e2e613587fff","h3_11":"8b1e2e613584fff"},"geometry":{"type":"Polygon","coordinates":[[[20.056727,50.112788],[20.056776,50.112763],[20.05685,50.112826],[20.056803,50.112849],[20.056727,50.112788]]]}}]}