{"type":"FeatureCollection","features":[{"type":"Feature","id":"w133328442","properties":{"type":"service","residential":false,"residents_est":0,"h3_10":"8a1e2e61b4a7fff","h3_11":"8b1e2e61b4a0fff"},"geometry":{"type":"Polygon","coordinates":[[[20.145793,50.093428],[20.145814,50.093373],[20.145967,50.093397],[20.145947,50.093452],[20.145793,50.093428]]]}},{"type":"Feature","id":"w133328488","properties":{"type":"yes","address":"Węgrzynowicka 6","residential":true,"residents_est":18,"h3_10":"8a1e2e61b417fff","h3_11":"8b1e2e61b410fff"},"geometry":{"type":"Polygon","coordinates":[[[20.147299,50.094409],[20.147306,50.09432],[20.147459,50.094324],[20.147451,50.094414],[20.1474,50.094412],[20.147399,50.09443],[20.147368,50.09443],[20.147369,50.094412],[20.147299,50.094409]]]}},{"type":"Feature","id":"w133328522","properties":{"type":"yes","residential":true,"residents_est":14,"h3_10":"8a1e2e61b5affff","h3_11":"8b1e2e61b5a8fff"},"geometry":{"type":"Polygon","coordinates":[[[20.145506,50.095616],[20.145525,50.095547],[20.145686,50.095564],[20.145668,50.095633],[20.145506,50.095616]]]}},{"type":"Feature","id":"w133328526","properties":{"type":"yes","residential":true,"residents_est":16,"h3_10":"8a1e2e61b58ffff","h3_11":"8b1e2e61b588fff"},"geometry":{"type":"Polygon","coordinates":[[[20.145405,50.094481],[20.145429,50.09448],[20.145428,50.094462],[20.145464,50.094461],[20.145465,50.09448],[20.145527,50.09448],[20.145529,50.09451],[20.145562,50.094509],[20.145564,50.09455],[20.145531,50.094551],[20.145533,50.094568],[20.145408,50.094571],[20.145405,50.094481]]]}},{"type":"Feature","id":"w290556095","properties":{"type":"industrial","levels":2.0,"address":"Spławy 2a","residential":false,"residents_est":0,"h3_10":"8a1e2e61b4f7fff","h3_11":"8b1e2e61b4f4fff"},"geometry":{"type":"Polygon","coordinates":[[[20.147896,50.093013],[20.14794,50.092895],[20.149687,50.093163],[20.149677,50.093191],[20.150685,50.093346],[20.150649,50.093442],[20.147896,50.093013]]]}},{"type":"Feature","id":"w290556097","properties":{"type":"industrial","residential":false,"residents_est":0,"h3_10":"8a1e2e61b45ffff","h3_11":"8b1e2e61b45efff"},"geometry":{"type":"Polygon","coordinates":[[[20.153142,50.093743],[20.153168,50.093678],[20.15322,50.093687],[20.153233,50.093663],[20.153413,50.093688],[20.153374,50.093776],[20.153142,50.093743]]]}},{"type":"Feature","id":"w290556098","properties":{"type":"industrial","levels":1.0,"residential":false,"residents_est":0,"h3_10":"8a1e2e61b4b7fff","h3_11":"8b1e2e61b4b2fff"},"geometry":{"type":"Polygon","coordinates":[[[20.144232,50.092416],[20.144261,50.092356],[20.144588,50.092419],[20.14456,50.09248],[20.144232,50.092416]]]}},{"type":"Feature","id":"w290556099","properties":{"type":"industrial","residential":false,"residents_est":0,"h3_10":"8a1e2e61b457fff","h3_11":"8b1e2e61b453fff"},"geometry":{"type":"Polygon","coordinates":[[[20.152356,50.093722],[20.152373,50.093684],[20.152794,50.093748],[20.15278,50.093787],[20.152356,50.093722]]]}},{"type":"Feature","id":"w290556101","properties":{"type":"industrial","levels":1.0,"residential":false,"residents_est":0,"h3_10":"8a1e2e61b4e7fff","h3_11":"8b1e2e61b4e1fff"},"geometry":{"type":"Polygon","coordinates":[[[20.151104,50.093512],[20.15113,50.093444],[20.151696,50.093532],[20.15167,50.093601],[20.151104,50.093512]]]}},{"type":"Feature","id":"w290556105","properties":{"type":"industrial","levels":2.0,"residential":false,"residents_est":0,"h3_10":"8a1e2e61b487fff","h3_11":"8b1e2e61b484fff"},"geometry":{"type":"Polygon","coordinates":[[[20.146097,50.092736],[20.14612,50.092675],[20.146309,50.092704],[20.146287,50.092765],[20.146097,50.092736]]]}},{"type":"Feature","id":"w290556107","properties":{"type":"industrial","levels":1.0,"residential":false,"residents_est":0,"h3_10":"8a1e2e61b4effff","h3_11":"8b1e2e61b4ecfff"},"geometry":{"type":"Polygon","coordinates":[[[20.151748,50.093614],[20.151784,50.09353],[20.152393,50.093638],[20.152356,50.093722],[20.151748,50.093614]]]}},{"type":"Feature","id":"w290556109","properties":{"type":"industrial","levels":1.0,"residential":false,"residents_est":0,"h3_10":"8a1e2e61b4e7fff","h3_11":"8b1e2e61b4e2fff"},"geometry":{"type":"Polygon","coordinates":[[[20.150522,50.09328],[20.150571,50.093156],[20.150792,50.09319],[20.150744,50.093314],[20.150522,50.09328]]]}},{"type":"Feature","id":"w290556110","properties":{"type":"industrial","levels":2.0,"residential":false,"residents_est":0,"h3_10":"8a1e2e61b4f7fff","h3_11":"8b1e2e61b4f5fff"},"geometry":{"type":"Polygon","coordinates":[[[20.149677,50.093191],[20.149742,50.093015],[20.150575,50.093142],[20.150506,50.093318],[20.149677,50.093191]]]}},{"type":"Feature","id":"w290556111","properties":{"type":"industrial","levels":2.0,"residential":false,"residents_est":0,"h3_10":"8a1e2e61b4affff","h3_11":"8b1e2e61b4aafff"},"geometry":{"type":"Polygon","coordinates":[[[20.147074,50.092818],[20.147084,50.092792],[20.147133,50.092797],[20.147191,50.092645],[20.147141,50.092637],[20.147149,50.092616],[20.147994,50.092748],[20.147987,50.092769],[20.147965,50.092766],[20.147908,50.092915],[20.14793,50.092919],[20.147896,50.093013],[20.147079,50.092884],[20.147103,50.092822],[20.147074,50.092818]]]}},{"type":"Feature","id":"w337950170","properties":{"type":"yes","residential":true,"residents_est":16,"h3_10":"8a1e2e61b59ffff","h3_11":"8b1e2e61b59bfff"},"geometry":{"type":"Polygon","coordinates":[[[20.14441,50.093555],[20.144413,50.093488],[20.144436,50.093489],[20.144436,50.093482],[20.144638,50.093486],[20.144636,50.093541],[20.144573,50.09354],[20.144573,50.093527],[20.144497,50.093526],[20.144496,50.093557],[20.14441,50.093555]]]}},{"type":"Feature","id":"w337950544","properties":{"type":"yes","residential":true,"residents_est":22,"h3_10":"8a1e2e61b59ffff","h3_11":"8b1e2e61b59bfff"},"geometry":{"type":"Polygon","coordinates":[[[20.144133,50.093533],[20.144143,50.09339],[20.144267,50.093393],[20.144258,50.093537],[20.144133,50.093533]]]}},{"type":"Feature","id":"w337950838","properties":{"type":"yes","residential":true,"residents_est":10,"h3_10":"8a1e2e61b4a7fff","h3_11":"8b1e2e61b4a6fff"},"geometry":{"type":"Polygon","coordinates":[[[20.144982,50.093502],[20.145146,50.093502],[20.145146,50.093553],[20.144983,50.093554],[20.144982,50.093502]]]}},{"type":"Feature","id":"w337950864","properties":{"type":"yes","residential":true,"residents_est":19,"h3_10":"8a1e2e61b437fff","h3_11":"8b1e2e61b433fff"},"geometry":{"type":"Polygon","coordinates":[[[20.147357,50.094814],[20.147573,50.094803],[20.147578,50.094876],[20.147365,50.094886],[20.147357,50.094814]]]}},{"type":"Feature","id":"w337950913","properties":{"type":"yes","residential":true,"residents_est":15,"h3_10":"8a1e2e61b59ffff","h3_11":"8b1e2e61b59bfff"},"geometry":{"type":"Polygon","coordinates":[[[20.144438,50.093319],[20.14458,50.093317],[20.144581,50.093402],[20.144439,50.093403],[20.144438,50.093319]]]}},{"type":"Feature","id":"w337950916","properties":{"type":"yes","levels":1.0,"residential":true,"residents_est":5,"h3_10":"8a1e2e61b487fff","h3_11":"8b1e2e61b485fff"},"geometry":{"type":"Polygon","coordinates":[[[20.14657,50.092812],[20.146596,50.092757],[20.146701,50.092777],[20.146678,50.092831],[20.14657,50.092812]]]}},{"type":"Feature","id":"w337951015","properties":{"type":"yes","residential":false,"residents_est":0,"h3_10":"8a1e2e61b58ffff","h3_11":"8b1e2e61b588fff"},"geometry":{"type":"Polygon","coordinates":[[[20.145584,50.094531],[20.145653,50.094529],[20.145657,50.094594],[20.145587,50.094594],[20.145584,50.094531]]]}},{"type":"Feature","id":"w337951082","properties":{"type":"yes","residential":true,"residents_est":9,"h3_10":"8a1e2e61b417fff","h3_11":"8b1e2e61b410fff"},"geometry":{"type":"Polygon","coordinates":[[[20.147519,50.094412],[20.147525,50.094339],[20.147625,50.094343],[20.147619,50.094415],[20.147519,50.094412]]]}},{"type":"Feature","id":"w337951219","properties":{"type":"industrial","levels":1.0,"residential":false,"residents_est":0,"h3_10":"8a1e2e61b487fff","h3_11":"8b1e2e61b486fff"},"geometry":{"type":"Polygon","coordinates":[[[20.145386,50.092492],[20.145426,50.092404],[20.145891,50.092492],[20.145851,50.092579],[20.145386,50.092492]]]}},{"type":"Feature","id":"w337951222","properties":{"type":"yes","residential":true,"residents_est":17,"h3_10":"8a1e2e61b4b7fff","h3_11":"8b1e2e61b4b4fff"},"geometry":{"type":"Polygon","coordinates":[[[20.144019,50.093254],[20.144173,50.093252],[20.144175,50.093342],[20.144021,50.093344],[20.144019,50.093254]]]}},{"type":"Feature","id":"w337951258","properties":{"type":"yes","residential":true,"residents_est":13,"h3_10":"8a1e2e61b48ffff","h3_11":"8b1e2e61b48efff"},"geometry":{"type":"Polygon","coordinates":[[[20.147429,50.091896],[20.147452,50.091836],[20.147621,50.091862],[20.147598,50.091923],[20.147429,50.091896]]]}},{"type":"Feature","id":"w337951315","properties":{"type":"yes","residential":false,"residents_est":0,"h3_10":"8a1e2e61b437fff","h3_11":"8b1e2e61b433fff"},"geometry":{"type":"Polygon","coordinates":[[[20.147635,50.094839],[20.147767,50.094829],[20.147774,50.094865],[20.147641,50.094875],[20.147635,50.094839]]]}},{"type":"Feature","id":"w337951774","properties":{"type":"yes","residential":true,"residents_est":20,"h3_10":"8a1e2e61b4a7fff","h3_11":"8b1e2e61b4a6fff"},"geometry":{"type":"Polygon","coordinates":[[[20.145028,50.093402],[20.145031,50.093317],[20.145233,50.09332],[20.145231,50.093388],[20.145146,50.093387],[20.145146,50.093404],[20.145028,50.093402]]]}},{"type":"Feature","id":"w337952076","properties":{"type":"yes","residential":true,"residents_est":7,"h3_10":"8a1e2e61b4effff","h3_11":"8b1e2e61b4edfff"},"geometry":{"type":"Polygon","coordinates":[[[20.153149,50.093353],[20.153166,50.09331],[20.153222,50.093319],[20.153218,50.09333],[20.153288,50.093341],[20.15327,50.093385],[20.153188,50.093372],[20.153193,50.09336],[20.153149,50.093353]]]}},{"type":"Feature","id":"w337952289","properties":{"type":"yes","residential":true,"residents_est":19,"h3_10":"8a1e2e61b417fff","h3_11":"8b1e2e61b415fff"},"geometry":{"type":"Polygon","coordinates":[[[20.147763,50.094494],[20.147772,50.094369],[20.147898,50.094374],[20.147886,50.094499],[20.147763,50.094494]]]}},{"type":"Feature","id":"w706050170","properties":{"type":"yes","residential":true,"residents_est":15,"h3_10":"8a1e2e61b5affff","h3_11":"8b1e2e61b5abfff"},"geometry":{"type":"Polygon","coordinates":[[[20.145394,50.095506],[20.145408,50.095422],[20.145531,50.09543],[20.145527,50.09546],[20.145553,50.095462],[20.145544,50.09552],[20.145394,50.095506]]]}},{"type":"Feature","id":"w706050171","properties":{"type":"yes","residential":true,"residents_est":8,"h3_10":"8a1e2e61b5affff","h3_11":"8b1e2e61b5a8fff"},"geometry":{"type":"Polygon","coordinates":[[[20.145333,50.09563],[20.145343,50.095557],[20.145433,50.095561],[20.145423,50.095635],[20.145333,50.09563]]]}},{"type":"Feature","id":"w706050173","properties":{"type":"yes","residential":true,"residents_est":18,"h3_10":"8a1e2e61b51ffff","h3_11":"8b1e2e61b519fff"},"geometry":{"type":"Polygon","coordinates":[[[20.14752,50.096281],[20.147607,50.096275],[20.147609,50.096289],[20.147651,50.096286],[20.147664,50.096364],[20.147648,50.096365],[20.147653,50.096398],[20.147557,50.096404],[20.147551,50.096372],[20.147536,50.096373],[20.14752,50.096281]]]}},{"type":"Feature","id":"w706050174","properties":{"type":"yes","residential":true,"residents_est":14,"h3_10":"8a1e2e61b427fff","h3_11":"8b1e2e61b426fff"},"geometry":{"type":"Polygon","coordinates":[[[20.147774,50.096196],[20.14792,50.096186],[20.147932,50.096261],[20.147786,50.096271],[20.147774,50.096196]]]}},{"type":"Feature","id":"w706050175","properties":{"type":"yes","residential":true,"residents_est":19,"h3_10":"8a1e2e61b427fff","h3_11":"8b1e2e61b420fff"},"geometry":{"type":"Polygon","coordinates":[[[20.1481,50.096139],[20.148114,50.096138],[20.148111,50.096122],[20.148229,50.096115],[20.14825,50.096254],[20.148163,50.096259],[20.148153,50.096194],[20.148122,50.096196],[20.148118,50.096169],[20.148105,50.09617],[20.1481,50.096139]]]}},{"type":"Feature","id":"w706050176","properties":{"type":"yes","residential":false,"residents_est":0,"h3_10":"8a1e2e61b50ffff","h3_11":"8b1e2e61b50bfff"},"geometry":{"type":"Polygon","coordinates":[[[20.148328,50.096682],[20.148384,50.096678],[20.148392,50.096732],[20.148336,50.096736],[20.148328,50.096682]]]}},{"type":"Feature","id":"w706050177","properties":{"type":"yes","residential":true,"residents_est":13,"h3_10":"8a1e2e61b50ffff","h3_11":"8b1e2e61b50bfff"},"geometry":{"type":"Polygon","coordinates":[[[20.148191,50.096672],[20.148325,50.096664],[20.148337,50.096742],[20.148204,50.09675],[20.148191,50.096672]]]}},{"type":"Feature","id":"w706050178","properties":{"type":"yes","residential":true,"residents_est":24,"h3_10":"8a1e2e61b50ffff","h3_11":"8b1e2e61b50afff"},"geometry":{"type":"Polygon","coordinates":[[[20.147909,50.096692],[20.147919,50.096685],[20.147913,50.096648],[20.148052,50.096638],[20.148062,50.096699],[20.148083,50.096699],[20.148095,50.096779],[20.148003,50.096785],[20.147997,50.096746],[20.14793,50.096751],[20.147924,50.096714],[20.147912,50.096708],[20.147909,50.096692]]]}},{"type":"Feature","id":"w706050179","properties":{"type":"yes","residential":false,"residents_est":0,"h3_10":"8a1e2e61b50ffff","h3_11":"8b1e2e61b50efff"},"geometry":{"type":"Polygon","coordinates":[[[20.147258,50.096997],[20.147326,50.096995],[20.147331,50.097054],[20.147264,50.097057],[20.147258,50.096997]]]}},{"type":"Feature","id":"w706050180","properties":{"type":"yes","residential":false,"residents_est":0,"h3_10":"8a1e2e61b507fff","h3_11":"8b1e2e61b503fff"},"geometry":{"type":"Polygon","coordinates":[[[20.146929,50.097098],[20.146938,50.09699],[20.146983,50.096991],[20.146974,50.097099],[20.146929,50.097098]]]}},{"type":"Feature","id":"w706050181","properties":{"type":"yes","residential":true,"residents_est":22,"h3_10":"8a1e2e61b50ffff","h3_11":"8b1e2e61b50efff"},"geometry":{"type":"Polygon","coordinates":[[[20.146997,50.096993],[20.147176,50.096988],[20.147179,50.097085],[20.147005,50.097093],[20.146997,50.096993]]]}},{"type":"Feature","id":"w706050182","properties":{"type":"yes","residential":true,"residents_est":8,"h3_10":"8a1e2e61b51ffff","h3_11":"8b1e2e61b51dfff"},"geometry":{"type":"Polygon","coordinates":[[[20.14713,50.096858],[20.147132,50.096777],[20.147216,50.096778],[20.147214,50.096858],[20.14713,50.096858]]]}},{"type":"Feature","id":"w706050183","properties":{"type":"yes","residential":false,"residents_est":0,"h3_10":"8a1e2e61b51ffff","h3_11":"8b1e2e61b51dfff"},"geometry":{"type":"Polygon","coordinates":[[[20.146932,50.096906],[20.146933,50.096857],[20.147018,50.096858],[20.147017,50.096906],[20.146932,50.096906]]]}},{"type":"Feature","id":"w706050184","properties":{"type":"yes","residential":true,"residents_est":20,"h3_10":"8a1e2e61b51ffff","h3_11":"8b1e2e61b51dfff"},"geometry":{"type":"Polygon","coordinates":[[[20.146933,50.096857],[20.146935,50.096775],[20.147132,50.096777],[20.14713,50.096858],[20.146933,50.096857]]]}},{"type":"Feature","id":"w706050186","properties":{"type":"yes","residential":true,"residents_est":22,"h3_10":"8a1e2e61b51ffff","h3_11":"8b1e2e61b519fff"},"geometry":{"type":"Polygon","coordinates":[[[20.14707,50.096549],[20.147071,50.096524],[20.147078,50.096524],[20.147079,50.096458],[20.147268,50.09646],[20.147266,50.096551],[20.14707,50.096549]]]}},{"type":"Feature","id":"w706050187","properties":{"type":"yes","residential":true,"residents_est":10,"h3_10":"8a1e2e61b51ffff","h3_11":"8b1e2e61b518fff"},"geometry":{"type":"Polygon","coordinates":[[[20.146952,50.096522],[20.146954,50.096457],[20.147079,50.096458],[20.147078,50.096524],[20.146952,50.096522]]]}},{"type":"Feature","id":"w706050188","properties":{"type":"yes","residential":false,"residents_est":0,"h3_10":"8a1e2e61b51ffff","h3_11":"8b1e2e61b518fff"},"geometry":{"type":"Polygon","coordinates":[[[20.146954,50.096457],[20.146955,50.096416],[20.147034,50.096416],[20.147033,50.096457],[20.146954,50.096457]]]}},{"type":"Feature","id":"w706050189","properties":{"type":"yes","residential":false,"residents_est":0,"h3_10":"8a1e2e61b51ffff","h3_11":"8b1e2e61b518fff"},"geometry":{"type":"Polygon","coordinates":[[[20.146959,50.096355],[20.146961,50.096281],[20.14702,50.096281],[20.147018,50.096356],[20.146959,50.096355]]]}},{"type":"Feature","id":"w706050190","properties":{"type":"yes","residential":true,"residents_est":19,"h3_10":"8a1e2e61b51ffff","h3_11":"8b1e2e61b518fff"},"geometry":{"type":"Polygon","coordinates":[[[20.146982,50.096415],[20.146984,50.096356],[20.147018,50.096356],[20.14702,50.096281],[20.147162,50.096281],[20.147161,50.096352],[20.147102,50.096352],[20.147101,50.096378],[20.147034,50.096378],[20.147034,50.096416],[20.146982,50.096415]]]}},{"type":"Feature","id":"w706050191","properties":{"type":"yes","residential":false,"residents_est":0,"h3_10":"8a1e2e61b51ffff","h3_11":"8b1e2e61b51bfff"},"geometry":{"type":"Polygon","coordinates":[[[20.147002,50.096035],[20.147062,50.096034],[20.147064,50.096078],[20.147004,50.096079],[20.147002,50.096035]]]}},{"type":"Feature","id":"w706050192","properties":{"type":"yes","residential":true,"residents_est":23,"h3_10":"8a1e2e61b437fff","h3_11":"8b1e2e61b435fff"},"geometry":{"type":"Polygon","coordinates":[[[20.147482,50.095745],[20.147633,50.095735],[20.147649,50.095832],[20.147627,50.095834],[20.147633,50.095868],[20.147527,50.095875],[20.147521,50.095841],[20.147498,50.095843],[20.147482,50.095745]]]}},{"type":"Feature","id":"w706050193","properties":{"type":"yes","residential":true,"residents_est":17,"h3_10":"8a1e2e61b437fff","h3_11":"8b1e2e61b431fff"},"geometry":{"type":"Polygon","coordinates":[[[20.147421,50.095333],[20.147436,50.095323],[20.14743,50.095291],[20.147536,50.095284],[20.147554,50.095383],[20.147544,50.095384],[20.14755,50.095416],[20.147462,50.095423],[20.147449,50.095353],[20.147423,50.095349],[20.147421,50.095333]]]}},{"type":"Feature","id":"w706050194","properties":{"type":"yes","residential":false,"residents_est":0,"h3_10":"8a1e2e61b417fff","h3_11":"8b1e2e61b411fff"},"geometry":{"type":"Polygon","coordinates":[[[20.147814,50.09437],[20.147817,50.094344],[20.147901,50.094347],[20.147898,50.094374],[20.147814,50.09437]]]}},{"type":"Feature","id":"w706050195","properties":{"type":"yes","residential":false,"residents_est":0,"h3_10":"8a1e2e61b417fff","h3_11":"8b1e2e61b415fff"},"geometry":{"type":"Polygon","coordinates":[[[20.147759,50.094522],[20.147763,50.094494],[20.147886,50.094499],[20.147884,50.094526],[20.147759,50.094522]]]}},{"type":"Feature","id":"w706050196","properties":{"type":"yes","residential":true,"residents_est":15,"h3_10":"8a1e2e61b417fff","h3_11":"8b1e2e61b411fff"},"geometry":{"type":"Polygon","coordinates":[[[20.147727,50.094296],[20.147736,50.094196],[20.147855,50.0942],[20.147846,50.0943],[20.147727,50.094296]]]}},{"type":"Feature","id":"w706050197","properties":{"type":"yes","residential":true,"residents_est":18,"h3_10":"8a1e2e61b417fff","h3_11":"8b1e2e61b414fff"},"geometry":{"type":"Polygon","coordinates":[[[20.147219,50.09461],[20.147308,50.094604],[20.147309,50.09461],[20.147372,50.094609],[20.147374,50.094701],[20.147327,50.094701],[20.147328,50.094709],[20.147266,50.094709],[20.147266,50.094702],[20.14722,50.094702],[20.147219,50.09461]]]}},{"type":"Feature","id":"w706050198","properties":{"type":"yes","residential":false,"residents_est":0,"h3_10":"8a1e2e61b58ffff","h3_11":"8b1e2e61b58cfff"},"geometry":{"type":"Polygon","coordinates":[[[20.145376,50.094766],[20.145377,50.094722],[20.145419,50.094721],[20.145421,50.094766],[20.145376,50.094766]]]}},{"type":"Feature","id":"w706050200","properties":{"type":"yes","residential":false,"residents_est":0,"h3_10":"8a1e2e61b58ffff","h3_11":"8b1e2e61b588fff"},"geometry":{"type":"Polygon","coordinates":[[[20.145551,50.094699],[20.14558,50.094658],[20.145604,50.094665],[20.145617,50.094647],[20.145647,50.094656],[20.145606,50.094715],[20.145551,50.094699]]]}},{"type":"Feature","id":"w706050201","properties":{"type":"yes","residential":true,"residents_est":17,"h3_10":"8a1e2e61b58ffff","h3_11":"8b1e2e61b58bfff"},"geometry":{"type":"Polygon","coordinates":[[[20.145849,50.094385],[20.145862,50.094385],[20.145863,50.094332],[20.145977,50.094332],[20.145976,50.094437],[20.145933,50.094437],[20.145932,50.09445],[20.14585,50.09445],[20.145849,50.094385]]]}},{"type":"Feature","id":"w706050202","properties":{"type":"yes","residential":false,"residents_est":0,"h3_10":"8a1e2e61b4a7fff","h3_11":"8b1e2e61b4a6fff"},"geometry":{"type":"Polygon","coordinates":[[[20.145188,50.093465],[20.145273,50.093463],[20.145275,50.0935],[20.14519,50.093502],[20.145188,50.093465]]]}},{"type":"Feature","id":"w720360034","properties":{"type":"yes","residential":true,"residents_est":9,"h3_10":"8a1e2e61b49ffff","h3_11":"8b1e2e61b49dfff"},"geometry":{"type":"Polygon","coordinates":[[[20.14712,50.091837],[20.147122,50.091773],[20.147239,50.091774],[20.147237,50.091839],[20.14712,50.091837]]]}},{"type":"Feature","id":"w720360036","properties":{"type":"yes","residential":false,"residents_est":0,"h3_10":"8a1e2e61b4b7fff","h3_11":"8b1e2e61b4b1fff"},"geometry":{"type":"Polygon","coordinates":[[[20.145426,50.092612],[20.145436,50.092584],[20.145517,50.092596],[20.145507,50.092624],[20.145426,50.092612]]]}},{"type":"Feature","id":"w720360037","properties":{"type":"yes","residential":false,"residents_est":0,"h3_10":"8a1e2e61b487fff","h3_11":"8b1e2e61b484fff"},"geometry":{"type":"Polygon","coordinates":[[[20.145755,50.092693],[20.145774,50.092638],[20.145861,50.09265],[20.145842,50.092705],[20.145755,50.092693]]]}},{"type":"Feature","id":"w720360038","properties":{"type":"yes","residential":true,"residents_est":13,"h3_10":"8a1e2e61b487fff","h3_11":"8b1e2e61b484fff"},"geometry":{"type":"Polygon","coordinates":[[[20.145907,50.092706],[20.145926,50.092655],[20.146116,50.092685],[20.146097,50.092736],[20.145907,50.092706]]]}},{"type":"Feature","id":"w720360053","properties":{"type":"greenhouse","residential":false,"residents_est":0,"h3_10":"8a1e2e61b59ffff","h3_11":"8b1e2e61b599fff"},"geometry":{"type":"Polygon","coordinates":[[[20.145163,50.093651],[20.145205,50.093651],[20.145206,50.093785],[20.145163,50.093785],[20.145163,50.093651]]]}},{"type":"Feature","id":"w720360054","properties":{"type":"greenhouse","residential":false,"residents_est":0,"h3_10":"8a1e2e61b4a7fff","h3_11":"8b1e2e61b4a4fff"},"geometry":{"type":"Polygon","coordinates":[[[20.145286,50.093648],[20.145332,50.093648],[20.145336,50.093785],[20.14529,50.093785],[20.145286,50.093648]]]}},{"type":"Feature","id":"w720360055","properties":{"type":"greenhouse","residential":false,"residents_est":0,"h3_10":"8a1e2e61b4a7fff","h3_11":"8b1e2e61b4a4fff"},"geometry":{"type":"Polygon","coordinates":[[[20.14522,50.093787],[20.145222,50.093659],[20.145269,50.093659],[20.145266,50.093787],[20.14522,50.093787]]]}},{"type":"Feature","id":"w720360056","properties":{"type":"greenhouse","residential":false,"residents_est":0,"h3_10":"8a1e2e61b59ffff","h3_11":"8b1e2e61b599fff"},"geometry":{"type":"Polygon","coordinates":[[[20.145102,50.093785],[20.145104,50.09364],[20.145151,50.09364],[20.145149,50.093785],[20.145102,50.093785]]]}},{"type":"Feature","id":"w720360057","properties":{"type":"greenhouse","residential":false,"residents_est":0,"h3_10":"8a1e2e61b59ffff","h3_11":"8b1e2e61b599fff"},"geometry":{"type":"Polygon","coordinates":[[[20.145035,50.093785],[20.145039,50.093645],[20.145092,50.093646],[20.145088,50.093785],[20.145035,50.093785]]]}},{"type":"Feature","id":"w720360058","properties":{"type":"greenhouse","residential":false,"residents_est":0,"h3_10":"8a1e2e61b59ffff","h3_11":"8b1e2e61b599fff"},"geometry":{"type":"Polygon","coordinates":[[[20.144913,50.093685],[20.144953,50.093684],[20.144963,50.093793],[20.144923,50.093794],[20.144913,50.093685]]]}},{"type":"Feature","id":"w720360066","properties":{"type":"greenhouse","residential":false,"residents_est":0,"h3_10":"8a1e2e61b5affff","h3_11":"8b1e2e61b5a8fff"},"geometry":{"type":"Polygon","coordinates":[[[20.145482,50.095865],[20.145496,50.095766],[20.145546,50.095769],[20.145532,50.095868],[20.145482,50.095865]]]}},{"type":"Feature","id":"w1047828293","properties":{"type":"outbuilding","levels":1.0,"residential":false,"residents_est":0,"h3_10":"8a1e2e61b51ffff","h3_11":"8b1e2e61b51dfff"},"geometry":{"type":"Polygon","coordinates":[[[20.147018,50.096627],[20.147187,50.096627],[20.147188,50.096669],[20.147019,50.096669],[20.147018,50.096627]]]}},{"type":"Feature","id":"w1047828353","properties":{"type":"construction","levels":2.0,"residential":false,"residents_est":0,"h3_10":"8a1e2e61b437fff","h3_11":"8b1e2e61b433fff"},"geometry":{"type":"Polygon","coordinates":[[[20.14755,50.09506],[20.147668,50.095054],[20.147683,50.095187],[20.147564,50.095192],[20.14755,50.09506]]]}},{"type":"Feature","id":"w1047828399","properties":{"type":"construction","levels":2.0,"residential":false,"residents_est":0,"h3_10":"8a1e2e61b50ffff","h3_11":"8b1e2e61b50afff"},"geometry":{"type":"Polygon","coordinates":[[[20.147592,50.09671],[20.147612,50.096708],[20.147608,50.096686],[20.147627,50.096677],[20.147725,50.096677],[20.147743,50.09681],[20.147654,50.096816],[20.147642,50.096762],[20.1476,50.096765],[20.147592,50.09671]]]}},{"type":"Feature","id":"w1047828520","properties":{"type":"construction","levels":2.0,"residential":false,"residents_est":0,"h3_10":"8a1e2e61b58ffff","h3_11":"8b1e2e61b58bfff"},"geometry":{"type":"Polygon","coordinates":[[[20.14587,50.09414],[20.145986,50.094139],[20.145989,50.09425],[20.145872,50.094251],[20.14587,50.09414]]]}}]}