{"type":"FeatureCollection","features":[{"type":"Feature","id":"w42385438","properties":{"type":"warehouse","residential":false,"residents_est":0,"h3_10":"8a1e2e68396ffff","h3_11":"8b1e2e68396cfff"},"geometry":{"type":"Polygon","coordinates":[[[20.019253,50.038609],[20.02009,50.038566],[20.020257,50.039917],[20.01942,50.03996],[20.019253,50.038609]]]}},{"type":"Feature","id":"w42385439","properties":{"type":"warehouse","levels":2.0,"address":"Albatrosów 1","name":"Polska Grupa Farmaceutyczna Cefarm Kraków sp. z o.o.","residential":false,"residents_est":0,"h3_10":"8a1e2e683967fff","h3_11":"8b1e2e683962fff"},"geometry":{"type":"Polygon","coordinates":[[[20.017002,50.038656],[20.017609,50.038621],[20.018034,50.038608],[20.018144,50.03942],[20.017924,50.039427],[20.017119,50.039472],[20.017002,50.038656]]]}},{"type":"Feature","id":"w80244209","properties":{"type":"yes","residential":true,"residents_est":12,"h3_10":"8a1e2e68392ffff","h3_11":"8b1e2e683929fff"},"geometry":{"type":"Polygon","coordinates":[[[20.015479,50.038663],[20.01582,50.038644],[20.015843,50.038812],[20.015501,50.038831],[20.015479,50.038663]]]}},{"type":"Feature","id":"w80244213","properties":{"type":"yes","residential":true,"residents_est":14,"h3_10":"8a1e2e68392ffff","h3_11":"8b1e2e683929fff"},"geometry":{"type":"Polygon","coordinates":[[[20.015528,50.03888],[20.015791,50.038868],[20.015821,50.039131],[20.015558,50.039143],[20.015528,50.03888]]]}},{"type":"Feature","id":"w80244230","properties":{"type":"yes","residential":true,"residents_est":54,"h3_10":"8a1e2e683977fff","h3_11":"8b1e2e683974fff"},"geometry":{"type":"Polygon","coordinates":[[[20.016014,50.038691],[20.016058,50.038688],[20.016054,50.03866],[20.016236,50.03865],[20.01624,50.038678],[20.016283,50.038675],[20.016299,50.038791],[20.016256,50.038794],[20.016271,50.038898],[20.016317,50.038896],[20.016421,50.03964],[20.016146,50.039656],[20.016041,50.038912],[20.016088,50.038908],[20.016073,50.038805],[20.01603,50.038808],[20.016014,50.038691]]]}},{"type":"Feature","id":"w80753084","properties":{"type":"yes","residential":true,"residents_est":3,"h3_10":"8a1e2e683987fff","h3_11":"8b1e2e683985fff"},"geometry":{"type":"Polygon","coordinates":[[[20.011201,50.035714],[20.011353,50.035669],[20.011462,50.03582],[20.01131,50.035865],[20.011201,50.035714]]]}},{"type":"Feature","id":"w80753087","properties":{"type":"yes","residential":true,"residents_est":21,"h3_10":"8a1e2e6839b7fff","h3_11":"8b1e2e6839b4fff"},"geometry":{"type":"Polygon","coordinates":[[[20.008372,50.036172],[20.008907,50.035988],[20.009031,50.036136],[20.008496,50.036321],[20.008372,50.036172]]]}},{"type":"Feature","id":"w80753110","properties":{"type":"yes","residential":true,"residents_est":2,"h3_10":"8a1e2e6839a7fff","h3_11":"8b1e2e6839a0fff"},"geometry":{"type":"Polygon","coordinates":[[[20.010433,50.036442],[20.01067,50.036371],[20.010685,50.036391],[20.010725,50.03638],[20.01071,50.036359],[20.010866,50.036311],[20.010895,50.036351],[20.010462,50.036482],[20.010433,50.036442]]]}},{"type":"Feature","id":"w107756255","properties":{"type":"yes","residential":true,"residents_est":3,"h3_10":"8a1e2e6838dffff","h3_11":"8b1e2e6838defff"},"geometry":{"type":"Polygon","coordinates":[[[20.01773,50.03172],[20.017738,50.031692],[20.017766,50.031695],[20.017773,50.031666],[20.018024,50.031695],[20.018027,50.031683],[20.018243,50.031712],[20.018221,50.031779],[20.01773,50.03172]]]}},{"type":"Feature","id":"w107756263","properties":{"type":"yes","residential":true,"residents_est":11,"h3_10":"8a1e2e6838dffff","h3_11":"8b1e2e6838defff"},"geometry":{"type":"Polygon","coordinates":[[[20.017485,50.031957],[20.017518,50.031846],[20.017691,50.031867],[20.017683,50.031894],[20.017839,50.031913],[20.017847,50.031887],[20.018019,50.031908],[20.017987,50.032019],[20.017485,50.031957]]]}},{"type":"Feature","id":"w107756266","properties":{"type":"yes","residential":true,"residents_est":3,"h3_10":"8a1e2e6838dffff","h3_11":"8b1e2e6838dafff"},"geometry":{"type":"Polygon","coordinates":[[[20.017986,50.031317],[20.018011,50.031234],[20.018341,50.031276],[20.018316,50.031359],[20.017986,50.031317]]]}},{"type":"Feature","id":"w139537499","properties":{"type":"yes","residential":true,"residents_est":434,"h3_10":"8a1e2e68381ffff","h3_11":"8b1e2e68381cfff"},"geometry":{"type":"Polygon","coordinates":[[[20.014735,50.035068],[20.014769,50.034359],[20.015211,50.034368],[20.015212,50.03436],[20.016259,50.034376],[20.016258,50.034389],[20.017563,50.034415],[20.017524,50.035229],[20.01626,50.035204],[20.016264,50.035099],[20.014735,50.035068]]]}},{"type":"Feature","id":"w155654468","properties":{"type":"yes","address":"Obrońców Modlina 14","residential":true,"residents_est":16,"h3_10":"8a1e2e683807fff","h3_11":"8b1e2e683804fff"},"geometry":{"type":"Polygon","coordinates":[[[20.015331,50.035697],[20.015929,50.03569],[20.015933,50.035821],[20.015335,50.035829],[20.015331,50.035697]]]}},{"type":"Feature","id":"w155654492","properties":{"type":"industrial","address":"Obrońców Modlina 11","name":"Walstead","residential":false,"residents_est":0,"h3_10":"8a1e2e68391ffff","h3_11":"8b1e2e68391dfff"},"geometry":{"type":"Polygon","coordinates":[[[20.013666,50.03712],[20.014706,50.037067],[20.01476,50.037505],[20.01372,50.037558],[20.013666,50.03712]]]}},{"type":"Feature","id":"w155654496","properties":{"type":"yes","residential":true,"residents_est":100,"h3_10":"8a1e2e683877fff","h3_11":"8b1e2e683875fff"},"geometry":{"type":"Polygon","coordinates":[[[20.018612,50.03657],[20.018666,50.036326],[20.018947,50.036353],[20.018986,50.03619],[20.01999,50.036284],[20.0199,50.03669],[20.018612,50.03657]]]}},{"type":"Feature","id":"w155654499","properties":{"type":"yes","residential":true,"residents_est":18,"h3_10":"8a1e2e68380ffff","h3_11":"8b1e2e68380cfff"},"geometry":{"type":"Polygon","coordinates":[[[20.016708,50.035468],[20.016753,50.035472],[20.016764,50.035424],[20.017357,50.03548],[20.017323,50.035623],[20.016726,50.035567],[20.016708,50.035468]]]}},{"type":"Feature","id":"w155654513","properties":{"type":"yes","residential":true,"residents_est":2,"h3_10":"8a1e2e683917fff","h3_11":"8b1e2e683916fff"},"geometry":{"type":"Polygon","coordinates":[[[20.011347,50.037358],[20.011433,50.037342],[20.011534,50.037577],[20.011449,50.037593],[20.011347,50.037358]]]}},{"type":"Feature","id":"w155654516","properties":{"type":"yes","residential":true,"residents_est":52,"h3_10":"8a1e2e683887fff","h3_11":"8b1e2e683885fff"},"geometry":{"type":"Polygon","coordinates":[[[20.013136,50.032648],[20.013395,50.032628],[20.013577,50.033607],[20.013319,50.033627],[20.013136,50.032648]]]}},{"type":"Feature","id":"w155654523","properties":{"type":"yes","residential":true,"residents_est":83,"h3_10":"8a1e2e683867fff","h3_11":"8b1e2e683861fff"},"geometry":{"type":"Polygon","coordinates":[[[20.021058,50.036884],[20.021204,50.036236],[20.021818,50.036297],[20.021664,50.036967],[20.021554,50.036957],[20.021556,50.036933],[20.021058,50.036884]]]}},{"type":"Feature","id":"w155654528","properties":{"type":"yes","residential":true,"residents_est":8,"h3_10":"8a1e2e68385ffff","h3_11":"8b1e2e68385afff"},"geometry":{"type":"Polygon","coordinates":[[[20.020608,50.034207],[20.02067,50.03409],[20.02095,50.034152],[20.020888,50.034269],[20.020608,50.034207]]]}},{"type":"Feature","id":"w155654532","properties":{"type":"yes","residential":true,"residents_est":1,"h3_10":"8a1e2e683827fff","h3_11":"8b1e2e683826fff"},"geometry":{"type":"Polygon","coordinates":[[[20.014745,50.036507],[20.014804,50.036502],[20.014837,50.03669],[20.014778,50.036695],[20.014745,50.036507]]]}},{"type":"Feature","id":"w155654568","properties":{"type":"yes","residential":true,"residents_est":19,"h3_10":"8a1e2e6838effff","h3_11":"8b1e2e6838eefff"},"geometry":{"type":"Polygon","coordinates":[[[20.018551,50.033719],[20.01862,50.033588],[20.019254,50.033727],[20.019185,50.033858],[20.018551,50.033719]]]}},{"type":"Feature","id":"w155654596","properties":{"type":"yes","residential":true,"residents_est":11,"h3_10":"8a1e2e68384ffff","h3_11":"8b1e2e68384efff"},"geometry":{"type":"Polygon","coordinates":[[[20.021848,50.035097],[20.021862,50.035016],[20.02251,50.035075],[20.022492,50.035155],[20.021848,50.035097]]]}},{"type":"Feature","id":"w155654600","properties":{"type":"yes","residential":true,"residents_est":8,"h3_10":"8a1e2e6839a7fff","h3_11":"8b1e2e6839a3fff"},"geometry":{"type":"Polygon","coordinates":[[[20.010509,50.036265],[20.010773,50.036188],[20.010856,50.036306],[20.010593,50.036383],[20.010509,50.036265]]]}},{"type":"Feature","id":"w155654604","properties":{"type":"yes","address":"Pułkownika Stanisława Dąbka 5A","residential":true,"residents_est":85,"h3_10":"8a1e2e68389ffff","h3_11":"8b1e2e68389cfff"},"geometry":{"type":"Polygon","coordinates":[[[20.012801,50.031902],[20.012967,50.031889],[20.012899,50.031517],[20.01324,50.031491],[20.013418,50.032459],[20.013076,50.032485],[20.013057,50.03238],[20.012891,50.032393],[20.012801,50.031902]]]}},{"type":"Feature","id":"w155654613","properties":{"type":"yes","residential":true,"residents_est":3,"h3_10":"8a1e2e683917fff","h3_11":"8b1e2e683916fff"},"geometry":{"type":"Polygon","coordinates":[[[20.010922,50.037387],[20.011109,50.037354],[20.011124,50.037389],[20.011108,50.037393],[20.011146,50.037486],[20.010977,50.037517],[20.010922,50.037387]]]}},{"type":"Feature","id":"w155654620","properties":{"type":"yes","residential":true,"residents_est":23,"h3_10":"8a1e2e68394ffff","h3_11":"8b1e2e68394bfff"},"geometry":{"type":"Polygon","coordinates":[[[20.019838,50.037256],[20.019839,50.037138],[20.020785,50.037143],[20.020784,50.037261],[20.019838,50.037256]]]}},{"type":"Feature","id":"w155654623","properties":{"type":"yes","residential":true,"residents_est":43,"h3_10":"8a1e2e68391ffff","h3_11":"8b1e2e68391afff"},"geometry":{"type":"Polygon","coordinates":[[[20.013104,50.036523],[20.013581,50.036496],[20.013639,50.036939],[20.013165,50.036966],[20.013104,50.036523]]]}},{"type":"Feature","id":"w155654626","properties":{"type":"yes","address":"Pułkownika Stanisława Dąbka 16","residential":true,"residents_est":27,"h3_10":"8a1e2e6838effff","h3_11":"8b1e2e6838ecfff"},"geometry":{"type":"Polygon","coordinates":[[[20.019157,50.033911],[20.019254,50.033727],[20.019836,50.033859],[20.019816,50.033898],[20.019896,50.033916],[20.019822,50.034055],[20.019157,50.033911]]]}},{"type":"Feature","id":"w155654628","properties":{"type":"yes","residential":true,"residents_est":2,"h3_10":"8a1e2e68390ffff","h3_11":"8b1e2e68390efff"},"geometry":{"type":"Polygon","coordinates":[[[20.014354,50.037567],[20.014615,50.037553],[20.014626,50.03764],[20.014365,50.037654],[20.014354,50.037567]]]}},{"type":"Feature","id":"w155654638","properties":{"type":"yes","residential":true,"residents_est":20,"h3_10":"8a1e2e683917fff","h3_11":"8b1e2e683914fff"},"geometry":{"type":"Polygon","coordinates":[[[20.0116,50.037695],[20.012419,50.037547],[20.012466,50.037656],[20.01165,50.037803],[20.0116,50.037695]]]}},{"type":"Feature","id":"w155654641","properties":{"type":"yes","residential":true,"residents_est":10,"h3_10":"8a1e2e683917fff","h3_11":"8b1e2e683911fff"},"geometry":{"type":"Polygon","coordinates":[[[20.012787,50.037113],[20.012836,50.037111],[20.012829,50.037054],[20.012915,50.037047],[20.012989,50.037591],[20.012898,50.037595],[20.012844,50.037171],[20.012796,50.037172],[20.012787,50.037113]]]}},{"type":"Feature","id":"w155654651","properties":{"type":"yes","residential":true,"residents_est":21,"h3_10":"8a1e2e683897fff","h3_11":"8b1e2e683893fff"},"geometry":{"type":"Polygon","coordinates":[[[20.012088,50.031154],[20.012219,50.031143],[20.012336,50.031729],[20.012376,50.031727],[20.0124,50.031859],[20.012223,50.031873],[20.012088,50.031154]]]}},{"type":"Feature","id":"w155654657","properties":{"type":"yes","address":"Obrońców Modlina 12","residential":true,"residents_est":22,"h3_10":"8a1e2e683837fff","h3_11":"8b1e2e683836fff"},"geometry":{"type":"Polygon","coordinates":[[[20.012768,50.03587],[20.013339,50.035835],[20.013366,50.036023],[20.012795,50.036058],[20.012768,50.03587]]]}},{"type":"Feature","id":"w155654666","properties":{"type":"yes","residential":true,"residents_est":28,"h3_10":"8a1e2e6839affff","h3_11":"8b1e2e6839acfff"},"geometry":{"type":"Polygon","coordinates":[[[20.011357,50.036901],[20.011834,50.036757],[20.011818,50.036735],[20.011876,50.036718],[20.011892,50.03674],[20.012311,50.036614],[20.012295,50.036592],[20.012409,50.036558],[20.012425,50.03658],[20.012434,50.036578],[20.012507,50.03668],[20.011431,50.037002],[20.011357,50.036901]]]}},{"type":"Feature","id":"w155654671","properties":{"type":"yes","residential":true,"residents_est":7,"h3_10":"8a1e2e68389ffff","h3_11":"8b1e2e683898fff"},"geometry":{"type":"Polygon","coordinates":[[[20.013664,50.031792],[20.013949,50.031773],[20.013967,50.031885],[20.013682,50.031904],[20.013664,50.031792]]]}},{"type":"Feature","id":"w155654672","properties":{"type":"yes","residential":true,"residents_est":32,"h3_10":"8a1e2e683807fff","h3_11":"8b1e2e683800fff"},"geometry":{"type":"Polygon","coordinates":[[[20.015478,50.035495],[20.015521,50.035303],[20.01632,50.035377],[20.016277,50.035569],[20.015478,50.035495]]]}},{"type":"Feature","id":"w155654681","properties":{"type":"yes","address":"Kosiarzy 2B","residential":true,"residents_est":14,"h3_10":"8a1e2e68389ffff","h3_11":"8b1e2e683899fff"},"geometry":{"type":"Polygon","coordinates":[[[20.014088,50.031804],[20.014263,50.031792],[20.01433,50.032173],[20.014153,50.032186],[20.014088,50.031804]]]}},{"type":"Feature","id":"w155654700","properties":{"type":"yes","residential":true,"residents_est":3,"h3_10":"8a1e2e68389ffff","h3_11":"8b1e2e68389bfff"},"geometry":{"type":"Polygon","coordinates":[[[20.013649,50.03154],[20.013907,50.031523],[20.013925,50.031639],[20.013668,50.031657],[20.013649,50.03154]]]}},{"type":"Feature","id":"w155654733","properties":{"type":"yes","residential":true,"residents_est":24,"h3_10":"8a1e2e683887fff","h3_11":"8b1e2e683886fff"},"geometry":{"type":"Polygon","coordinates":[[[20.012151,50.032782],[20.012416,50.032762],[20.012498,50.033199],[20.012232,50.03322],[20.012151,50.032782]]]}},{"type":"Feature","id":"w155654737","properties":{"type":"yes","residential":true,"residents_est":11,"h3_10":"8a1e2e68386ffff","h3_11":"8b1e2e68386afff"},"geometry":{"type":"Polygon","coordinates":[[[20.021257,50.035902],[20.021281,50.035825],[20.02194,50.035893],[20.02192,50.03597],[20.021257,50.035902]]]}},{"type":"Feature","id":"w155654763","properties":{"type":"yes","address":"Pułkownika Stanisława Dąbka 8b","residential":true,"residents_est":38,"h3_10":"8a1e2e683887fff","h3_11":"8b1e2e683884fff"},"geometry":{"type":"Polygon","coordinates":[[[20.012767,50.033064],[20.013022,50.033045],[20.013152,50.033747],[20.012891,50.033769],[20.012767,50.033064]]]}},{"type":"Feature","id":"w155654786","properties":{"type":"yes","residential":true,"residents_est":22,"h3_10":"8a1e2e6839affff","h3_11":"8b1e2e6839abfff"},"geometry":{"type":"Polygon","coordinates":[[[20.01274,50.035683],[20.013313,50.03565],[20.013339,50.035835],[20.012768,50.03587],[20.01274,50.035683]]]}},{"type":"Feature","id":"w155654831","properties":{"type":"yes","address":"Kosiarzy 2","residential":true,"residents_est":21,"h3_10":"8a1e2e6838affff","h3_11":"8b1e2e6838aafff"},"geometry":{"type":"Polygon","coordinates":[[[20.014198,50.032962],[20.014463,50.032942],[20.014529,50.033316],[20.014267,50.033336],[20.014198,50.032962]]]}},{"type":"Feature","id":"w155654864","properties":{"type":"yes","address":"Obrońców Modlina 9","residential":true,"residents_est":67,"h3_10":"8a1e2e68391ffff","h3_11":"8b1e2e68391bfff"},"geometry":{"type":"Polygon","coordinates":[[[20.013659,50.036468],[20.014291,50.036436],[20.014357,50.036951],[20.013725,50.036982],[20.013659,50.036468]]]}},{"type":"Feature","id":"w155654878","properties":{"type":"yes","residential":true,"residents_est":28,"h3_10":"8a1e2e68384ffff","h3_11":"8b1e2e68384cfff"},"geometry":{"type":"Polygon","coordinates":[[[20.021751,50.035458],[20.021802,50.03523],[20.022389,50.035285],[20.022338,50.035513],[20.021751,50.035458]]]}},{"type":"Feature","id":"w155654901","properties":{"type":"yes","residential":true,"residents_est":2,"h3_10":"8a1e2e68384ffff","h3_11":"8b1e2e68384bfff"},"geometry":{"type":"Polygon","coordinates":[[[20.02259,50.034944],[20.02263,50.034869],[20.022857,50.034918],[20.022817,50.034994],[20.02259,50.034944]]]}},{"type":"Feature","id":"w155654906","properties":{"type":"yes","residential":true,"residents_est":40,"h3_10":"8a1e2e68380ffff","h3_11":"8b1e2e683809fff"},"geometry":{"type":"Polygon","coordinates":[[[20.018298,50.035399],[20.018311,50.034954],[20.018747,50.03496],[20.018734,50.035404],[20.018298,50.035399]]]}},{"type":"Feature","id":"w155654942","properties":{"type":"yes","residential":true,"residents_est":10,"h3_10":"8a1e2e68388ffff","h3_11":"8b1e2e68388efff"},"geometry":{"type":"Polygon","coordinates":[[[20.01418,50.032295],[20.014355,50.032281],[20.014409,50.032552],[20.014233,50.032566],[20.01418,50.032295]]]}},{"type":"Feature","id":"w155654983","properties":{"type":"yes","residential":true,"residents_est":16,"h3_10":"8a1e2e68382ffff","h3_11":"8b1e2e68382bfff"},"geometry":{"type":"Polygon","coordinates":[[[20.01713,50.036019],[20.017133,50.035911],[20.017379,50.035915],[20.017387,50.035703],[20.017546,50.035705],[20.01754,50.035893],[20.017563,50.035893],[20.017559,50.035992],[20.01755,50.036005],[20.017517,50.036023],[20.017495,50.036025],[20.01713,50.036019]]]}},{"type":"Feature","id":"w155655003","properties":{"type":"yes","residential":true,"residents_est":11,"h3_10":"8a1e2e683997fff","h3_11":"8b1e2e683996fff"},"geometry":{"type":"Polygon","coordinates":[[[20.008713,50.034587],[20.009265,50.034546],[20.009283,50.034644],[20.008731,50.034685],[20.008713,50.034587]]]}},{"type":"Feature","id":"w155655056","properties":{"type":"yes","residential":true,"residents_est":12,"h3_10":"8a1e2e6839affff","h3_11":"8b1e2e6839adfff"},"geometry":{"type":"Polygon","coordinates":[[[20.01264,50.036629],[20.012802,50.036616],[20.012869,50.036969],[20.012708,50.036982],[20.01264,50.036629]]]}},{"type":"Feature","id":"w155655203","properties":{"type":"yes","levels":3.0,"address":"Obrońców Modlina 11","residential":true,"residents_est":6,"h3_10":"8a1e2e68395ffff","h3_11":"8b1e2e68395efff"},"geometry":{"type":"Polygon","coordinates":[[[20.017588,50.036751],[20.017681,50.036746],[20.017679,50.036731],[20.017737,50.036728],[20.017772,50.037008],[20.017623,50.037016],[20.017588,50.036751]]]}},{"type":"Feature","id":"w155655229","properties":{"type":"yes","residential":true,"residents_est":29,"h3_10":"8a1e2e68386ffff","h3_11":"8b1e2e68386dfff"},"geometry":{"type":"Polygon","coordinates":[[[20.022497,50.036939],[20.022575,50.036394],[20.022833,50.03641],[20.022754,50.036955],[20.022497,50.036939]]]}},{"type":"Feature","id":"w155655251","properties":{"type":"industrial","residential":false,"residents_est":0,"h3_10":"8a1e2e6839a7fff","h3_11":"8b1e2e6839a4fff"},"geometry":{"type":"Polygon","coordinates":[[[20.010187,50.037096],[20.010188,50.037038],[20.010639,50.037044],[20.010638,50.037102],[20.010187,50.037096]]]}},{"type":"Feature","id":"w155655294","properties":{"type":"yes","residential":true,"residents_est":2,"h3_10":"8a1e2e68389ffff","h3_11":"8b1e2e68389bfff"},"geometry":{"type":"Polygon","coordinates":[[[20.013971,50.031288],[20.014066,50.031279],[20.01407,50.031292],[20.014105,50.03129],[20.014121,50.031394],[20.01399,50.031403],[20.013971,50.031288]]]}},{"type":"Feature","id":"w155655300","properties":{"type":"yes","residential":true,"residents_est":3,"h3_10":"8a1e2e6838b7fff","h3_11":"8b1e2e6838b1fff"},"geometry":{"type":"Polygon","coordinates":[[[20.012255,50.033356],[20.012372,50.033349],[20.012409,50.0336],[20.012291,50.033607],[20.012255,50.033356]]]}},{"type":"Feature","id":"w155655313","properties":{"type":"yes","residential":true,"residents_est":41,"h3_10":"8a1e2e68386ffff","h3_11":"8b1e2e68386bfff"},"geometry":{"type":"Polygon","coordinates":[[[20.021849,50.035768],[20.021887,50.035603],[20.023074,50.035711],[20.023036,50.035879],[20.021849,50.035768]]]}},{"type":"Feature","id":"w155655319","properties":{"type":"yes","residential":true,"residents_est":33,"h3_10":"8a1e2e6838b7fff","h3_11":"8b1e2e6838b5fff"},"geometry":{"type":"Polygon","coordinates":[[[20.011592,50.033259],[20.011857,50.03324],[20.011965,50.033836],[20.011698,50.033857],[20.011592,50.033259]]]}},{"type":"Feature","id":"w155655355","properties":{"type":"yes","residential":true,"residents_est":14,"h3_10":"8a1e2e683847fff","h3_11":"8b1e2e683845fff"},"geometry":{"type":"Polygon","coordinates":[[[20.020919,50.036134],[20.020989,50.035804],[20.021197,50.035822],[20.021128,50.036152],[20.020919,50.036134]]]}},{"type":"Feature","id":"w155655360","properties":{"type":"yes","address":"Obrońców Modlina 7e","residential":true,"residents_est":17,"h3_10":"8a1e2e6839a7fff","h3_11":"8b1e2e6839a5fff"},"geometry":{"type":"Polygon","coordinates":[[[20.010723,50.037183],[20.010727,50.037034],[20.011296,50.037039],[20.011291,50.037191],[20.010723,50.037183]]]}},{"type":"Feature","id":"w155655387","properties":{"type":"yes","residential":true,"residents_est":29,"h3_10":"8a1e2e68382ffff","h3_11":"8b1e2e68382afff"},"geometry":{"type":"Polygon","coordinates":[[[20.016475,50.035406],[20.016693,50.035389],[20.016816,50.03605],[20.016598,50.036067],[20.016475,50.035406]]]}},{"type":"Feature","id":"w155655416","properties":{"type":"commercial","address":"Pułkownika Stanisława Dąbka 8","residential":false,"residents_est":0,"h3_10":"8a1e2e6838a7fff","h3_11":"8b1e2e6838a6fff"},"geometry":{"type":"Polygon","coordinates":[[[20.011747,50.033983],[20.011901,50.033969],[20.011921,50.034064],[20.012165,50.034046],[20.012162,50.034029],[20.012215,50.034025],[20.012217,50.034038],[20.012472,50.034019],[20.012496,50.034142],[20.011944,50.034184],[20.011943,50.034179],[20.011784,50.03419],[20.011747,50.033983]]]}},{"type":"Feature","id":"w155655422","properties":{"type":"yes","residential":true,"residents_est":69,"h3_10":"8a1e2e683867fff","h3_11":"8b1e2e683862fff"},"geometry":{"type":"Polygon","coordinates":[[[20.019931,50.036553],[20.019972,50.036368],[20.02027,50.036396],[20.020416,50.035739],[20.020722,50.035768],[20.020513,50.036679],[20.020215,50.03665],[20.020229,50.03658],[20.019931,50.036553]]]}},{"type":"Feature","id":"w155655436","properties":{"type":"yes","residential":true,"residents_est":13,"h3_10":"8a1e2e6839affff","h3_11":"8b1e2e6839aafff"},"geometry":{"type":"Polygon","coordinates":[[[20.012066,50.035772],[20.012256,50.035758],[20.01228,50.035862],[20.012296,50.035861],[20.012316,50.035969],[20.012333,50.035968],[20.012351,50.036078],[20.012161,50.036091],[20.012141,50.035985],[20.012123,50.035987],[20.012103,50.035879],[20.012087,50.03588],[20.012066,50.035772]]]}},{"type":"Feature","id":"w155655440","properties":{"type":"yes","residential":true,"residents_est":10,"h3_10":"8a1e2e68380ffff","h3_11":"8b1e2e68380cfff"},"geometry":{"type":"Polygon","coordinates":[[[20.017323,50.03563],[20.017359,50.035475],[20.017576,50.035477],[20.017573,50.035582],[20.01755,50.035582],[20.017546,50.035705],[20.017387,50.035703],[20.01739,50.035636],[20.017323,50.03563]]]}},{"type":"Feature","id":"w155655442","properties":{"type":"yes","residential":true,"residents_est":125,"h3_10":"8a1e2e683857fff","h3_11":"8b1e2e683852fff"},"geometry":{"type":"Polygon","coordinates":[[[20.018626,50.034583],[20.018667,50.034585],[20.018665,50.034549],[20.018651,50.034546],[20.018649,50.034499],[20.018692,50.034439],[20.018752,50.034396],[20.018738,50.034385],[20.018791,50.034355],[20.01888,50.034325],[20.01889,50.034339],[20.018885,50.034532],[20.018916,50.034534],[20.019053,50.034534],[20.019057,50.034365],[20.020172,50.034377],[20.020161,50.034826],[20.019045,50.034815],[20.019049,50.034646],[20.018884,50.034644],[20.018879,50.034805],[20.018792,50.034805],[20.018778,50.034817],[20.018728,50.034787],[20.018743,50.034777],[20.018701,50.034744],[20.018667,50.034707],[20.018644,50.034667],[20.018629,50.034625],[20.018626,50.034583]]]}},{"type":"Feature","id":"w155655459","properties":{"type":"yes","residential":true,"residents_est":14,"h3_10":"8a1e2e683877fff","h3_11":"8b1e2e683876fff"},"geometry":{"type":"Polygon","coordinates":[[[20.018184,50.035823],[20.018231,50.035631],[20.018696,50.035682],[20.01867,50.035794],[20.018377,50.035763],[20.01836,50.035834],[20.018184,50.035823]]]}},{"type":"Feature","id":"w155655463","properties":{"type":"yes","residential":true,"residents_est":41,"h3_10":"8a1e2e68395ffff","h3_11":"8b1e2e68395dfff"},"geometry":{"type":"Polygon","coordinates":[[[20.018702,50.037244],[20.018705,50.037082],[20.018964,50.037084],[20.018965,50.037044],[20.019743,50.03705],[20.01974,50.037251],[20.018702,50.037244]]]}},{"type":"Feature","id":"w155655483","properties":{"type":"yes","residential":true,"residents_est":30,"h3_10":"8a1e2e683877fff","h3_11":"8b1e2e683871fff"},"geometry":{"type":"Polygon","coordinates":[[[20.01956,50.035956],[20.019613,50.035742],[20.020276,50.035806],[20.020225,50.036019],[20.01956,50.035956]]]}},{"type":"Feature","id":"w155655535","properties":{"type":"yes","residential":true,"residents_est":7,"h3_10":"8a1e2e6838b7fff","h3_11":"8b1e2e6838b3fff"},"geometry":{"type":"Polygon","coordinates":[[[20.011427,50.032777],[20.01159,50.032765],[20.0116,50.032819],[20.011635,50.032828],[20.011663,50.032843],[20.011639,50.032865],[20.011608,50.032877],[20.011623,50.032958],[20.011464,50.032971],[20.011427,50.032777]]]}},{"type":"Feature","id":"w160195877","properties":{"type":"yes","residential":true,"residents_est":7,"h3_10":"8a1e2e6838c7fff","h3_11":"8b1e2e6838c2fff"},"geometry":{"type":"Polygon","coordinates":[[[20.017686,50.032842],[20.017751,50.032625],[20.017803,50.032631],[20.017905,50.032704],[20.017858,50.032863],[20.017686,50.032842]]]}},{"type":"Feature","id":"w160195879","properties":{"type":"yes","residential":true,"residents_est":3,"h3_10":"8a1e2e6838c7fff","h3_11":"8b1e2e6838c3fff"},"geometry":{"type":"Polygon","coordinates":[[[20.018453,50.03244],[20.018486,50.032331],[20.018763,50.032365],[20.018731,50.032475],[20.018453,50.03244]]]}},{"type":"Feature","id":"w160195881","properties":{"type":"yes","residential":true,"residents_est":1,"h3_10":"8a1e2e6838cffff","h3_11":"8b1e2e6838c9fff"},"geometry":{"type":"Polygon","coordinates":[[[20.020833,50.032448],[20.02085,50.03239],[20.021071,50.032419],[20.021056,50.032475],[20.020833,50.032448]]]}},{"type":"Feature","id":"w160195882","properties":{"type":"yes","residential":true,"residents_est":1,"h3_10":"8a1e2e6838cffff","h3_11":"8b1e2e6838c9fff"},"geometry":{"type":"Polygon","coordinates":[[[20.020858,50.032714],[20.020891,50.032599],[20.02098,50.03261],[20.020947,50.032725],[20.020858,50.032714]]]}},{"type":"Feature","id":"w160195886","properties":{"type":"yes","residential":true,"residents_est":1,"h3_10":"8a1e2e6838d7fff","h3_11":"8b1e2e6838d1fff"},"geometry":{"type":"Polygon","coordinates":[[[20.017554,50.032413],[20.017581,50.032321],[20.017685,50.032334],[20.017657,50.032426],[20.017554,50.032413]]]}},{"type":"Feature","id":"w162545760","properties":{"type":"yes","residential":true,"residents_est":1,"h3_10":"8a1e2e68394ffff","h3_11":"8b1e2e68394dfff"},"geometry":{"type":"Polygon","coordinates":[[[20.020591,50.038173],[20.020647,50.038172],[20.020663,50.038387],[20.020604,50.03839],[20.020591,50.038173]]]}},{"type":"Feature","id":"w162545840","properties":{"type":"service","residential":false,"residents_est":0,"h3_10":"8a1e2e68396ffff","h3_11":"8b1e2e68396bfff"},"geometry":{"type":"Polygon","coordinates":[[[20.020228,50.038526],[20.020353,50.038524],[20.020356,50.038575],[20.020232,50.038577],[20.020228,50.038526]]]}},{"type":"Feature","id":"w162545849","properties":{"type":"guardhouse","levels":1.0,"residential":false,"residents_est":0,"h3_10":"8a1e2e68396ffff","h3_11":"8b1e2e68396afff"},"geometry":{"type":"Polygon","coordinates":[[[20.019064,50.038413],[20.019119,50.03841],[20.019125,50.038464],[20.019071,50.038467],[20.019064,50.038413]]]}},{"type":"Feature","id":"w229322440","properties":{"type":"yes","residential":true,"residents_est":2,"h3_10":"8a1e2e68386ffff","h3_11":"8b1e2e683869fff"},"geometry":{"type":"Polygon","coordinates":[[[20.022576,50.036393],[20.022586,50.036332],[20.022623,50.036334],[20.022626,50.036303],[20.022806,50.036314],[20.022792,50.036406],[20.022576,50.036393]]]}},{"type":"Feature","id":"w229322450","properties":{"type":"yes","residential":true,"residents_est":49,"h3_10":"8a1e2e68386ffff","h3_11":"8b1e2e683868fff"},"geometry":{"type":"Polygon","coordinates":[[[20.022236,50.03623],[20.022281,50.035907],[20.02295,50.035947],[20.022902,50.036319],[20.02247,50.036293],[20.022477,50.036245],[20.022236,50.03623]]]}},{"type":"Feature","id":"w337805429","properties":{"type":"warehouse","residential":false,"residents_est":0,"h3_10":"8a1e2e683827fff","h3_11":"8b1e2e683820fff"},"geometry":{"type":"Polygon","coordinates":[[[20.015191,50.036471],[20.015864,50.036437],[20.015916,50.036862],[20.015243,50.036897],[20.015191,50.036471]]]}},{"type":"Feature","id":"w337805545","properties":{"type":"yes","residential":true,"residents_est":1,"h3_10":"8a1e2e683917fff","h3_11":"8b1e2e683913fff"},"geometry":{"type":"Polygon","coordinates":[[[20.011977,50.036907],[20.012139,50.036881],[20.01216,50.036936],[20.011998,50.036962],[20.011977,50.036907]]]}},{"type":"Feature","id":"w337805595","properties":{"type":"yes","residential":true,"residents_est":1,"h3_10":"8a1e2e683947fff","h3_11":"8b1e2e683946fff"},"geometry":{"type":"Polygon","coordinates":[[[20.017365,50.038098],[20.017506,50.03809],[20.017515,50.038181],[20.017374,50.038187],[20.017365,50.038098]]]}},{"type":"Feature","id":"w337805751","properties":{"type":"yes","residential":true,"residents_est":1,"h3_10":"8a1e2e6839affff","h3_11":"8b1e2e6839adfff"},"geometry":{"type":"Polygon","coordinates":[[[20.012656,50.036428],[20.012834,50.036422],[20.012838,50.036466],[20.012791,50.036467],[20.012792,50.036479],[20.01266,50.036483],[20.012656,50.036428]]]}},{"type":"Feature","id":"w665006489","properties":{"type":"carport","residential":false,"residents_est":0,"h3_10":"8a1e2e683967fff","h3_11":"8b1e2e683965fff"},"geometry":{"type":"Polygon","coordinates":[[[20.018061,50.039628],[20.018075,50.039627],[20.018077,50.039635],[20.018175,50.03963],[20.018184,50.039733],[20.018074,50.039737],[20.018061,50.039628]]]}},{"type":"Feature","id":"w665006490","properties":{"type":"yes","residential":false,"residents_est":0,"h3_10":"8a1e2e683967fff","h3_11":"8b1e2e683965fff"},"geometry":{"type":"Polygon","coordinates":[[[20.018071,50.039588],[20.018164,50.039583],[20.018171,50.03963],[20.018077,50.039635],[20.018071,50.039588]]]}},{"type":"Feature","id":"w703403968","properties":{"type":"yes","residential":true,"residents_est":2,"h3_10":"8a1e2e683997fff","h3_11":"8b1e2e683995fff"},"geometry":{"type":"Polygon","coordinates":[[[20.009669,50.034859],[20.009797,50.034816],[20.009894,50.034934],[20.009869,50.034942],[20.009877,50.034952],[20.009775,50.034988],[20.009669,50.034859]]]}},{"type":"Feature","id":"w703403969","properties":{"type":"yes","residential":true,"residents_est":2,"h3_10":"8a1e2e683997fff","h3_11":"8b1e2e683995fff"},"geometry":{"type":"Polygon","coordinates":[[[20.009637,50.034975],[20.009702,50.034954],[20.009715,50.034969],[20.009749,50.034958],[20.009775,50.034989],[20.009878,50.034953],[20.00987,50.034943],[20.009894,50.034934],[20.009935,50.034984],[20.009658,50.035078],[20.009637,50.034975]]]}},{"type":"Feature","id":"w703403970","properties":{"type":"yes","residential":true,"residents_est":2,"h3_10":"8a1e2e683997fff","h3_11":"8b1e2e683995fff"},"geometry":{"type":"Polygon","coordinates":[[[20.00986,50.034891],[20.010046,50.034827],[20.01012,50.034918],[20.009934,50.034981],[20.00986,50.034891]]]}},{"type":"Feature","id":"w703403972","properties":{"type":"yes","residential":true,"residents_est":3,"h3_10":"8a1e2e68399ffff","h3_11":"8b1e2e68399bfff"},"geometry":{"type":"Polygon","coordinates":[[[20.011195,50.03396],[20.011294,50.033954],[20.011327,50.034205],[20.011228,50.03421],[20.011195,50.03396]]]}},{"type":"Feature","id":"w703403973","properties":{"type":"yes","residential":true,"residents_est":9,"h3_10":"8a1e2e68399ffff","h3_11":"8b1e2e68399afff"},"geometry":{"type":"Polygon","coordinates":[[[20.010469,50.034125],[20.011006,50.034084],[20.011022,50.034168],[20.010484,50.034209],[20.010469,50.034125]]]}},{"type":"Feature","id":"w703404027","properties":{"type":"yes","residential":false,"residents_est":0,"h3_10":"8a1e2e6839a7fff","h3_11":"8b1e2e6839a4fff"},"geometry":{"type":"Polygon","coordinates":[[[20.009943,50.037041],[20.010014,50.037021],[20.010049,50.037072],[20.009978,50.037092],[20.009943,50.037041]]]}},{"type":"Feature","id":"w703404084","properties":{"type":"yes","residential":false,"residents_est":0,"h3_10":"8a1e2e6839b7fff","h3_11":"8b1e2e6839b2fff"},"geometry":{"type":"Polygon","coordinates":[[[20.008539,50.035525],[20.008687,50.035474],[20.008709,50.0355],[20.008561,50.035552],[20.008539,50.035525]]]}},{"type":"Feature","id":"w709881319","properties":{"type":"yes","residential":true,"residents_est":1,"h3_10":"8a1e2e683957fff","h3_11":"8b1e2e683951fff"},"geometry":{"type":"Polygon","coordinates":[[[20.017328,50.037282],[20.01741,50.037278],[20.01743,50.03744],[20.017348,50.037444],[20.017328,50.037282]]]}},{"type":"Feature","id":"w709881320","properties":{"type":"yes","residential":true,"residents_est":8,"h3_10":"8a1e2e683957fff","h3_11":"8b1e2e683953fff"},"geometry":{"type":"Polygon","coordinates":[[[20.01726,50.036768],[20.017347,50.036764],[20.017403,50.037222],[20.017316,50.037226],[20.01726,50.036768]]]}},{"type":"Feature","id":"w709881321","properties":{"type":"service","residential":false,"residents_est":0,"h3_10":"8a1e2e68382ffff","h3_11":"8b1e2e68382dfff"},"geometry":{"type":"Polygon","coordinates":[[[20.017558,50.036492],[20.017628,50.036488],[20.017633,50.036533],[20.017563,50.036536],[20.017558,50.036492]]]}},{"type":"Feature","id":"w709881322","properties":{"type":"yes","residential":false,"residents_est":0,"h3_10":"8a1e2e68382ffff","h3_11":"8b1e2e68382cfff"},"geometry":{"type":"Polygon","coordinates":[[[20.016869,50.036659],[20.016954,50.036656],[20.01696,50.0367],[20.016873,50.036704],[20.016869,50.036659]]]}},{"type":"Feature","id":"w709881324","properties":{"type":"yes","residential":false,"residents_est":0,"h3_10":"8a1e2e683827fff","h3_11":"8b1e2e683821fff"},"geometry":{"type":"Polygon","coordinates":[[[20.015864,50.036437],[20.015956,50.036432],[20.015962,50.03648],[20.01587,50.036485],[20.015864,50.036437]]]}},{"type":"Feature","id":"w709881326","properties":{"type":"yes","residential":true,"residents_est":1,"h3_10":"8a1e2e683827fff","h3_11":"8b1e2e683820fff"},"geometry":{"type":"Polygon","coordinates":[[[20.01523,50.036394],[20.015368,50.036387],[20.015378,50.036461],[20.01524,50.036468],[20.01523,50.036394]]]}},{"type":"Feature","id":"w709881328","properties":{"type":"yes","residential":false,"residents_est":0,"h3_10":"8a1e2e683827fff","h3_11":"8b1e2e683824fff"},"geometry":{"type":"Polygon","coordinates":[[[20.015034,50.036874],[20.015149,50.036868],[20.015153,50.036901],[20.015038,50.036907],[20.015034,50.036874]]]}},{"type":"Feature","id":"w709881329","properties":{"type":"yes","residential":true,"residents_est":426,"h3_10":"8a1e2e683957fff","h3_11":"8b1e2e683952fff"},"geometry":{"type":"Polygon","coordinates":[[[20.014703,50.037037],[20.01487,50.037029],[20.014861,50.036949],[20.014916,50.036946],[20.014912,50.036914],[20.015917,50.036863],[20.01587,50.036485],[20.016882,50.036434],[20.016888,50.036441],[20.016914,50.03665],[20.016911,50.036657],[20.016867,50.036658],[20.01688,50.036763],[20.016913,50.036762],[20.016912,50.036753],[20.017256,50.036735],[20.017316,50.037226],[20.017403,50.037222],[20.01741,50.037278],[20.017328,50.037282],[20.017348,50.037449],[20.014769,50.037581],[20.014703,50.037037]]]}},{"type":"Feature","id":"w709881330","properties":{"type":"yes","residential":true,"residents_est":1,"h3_10":"8a1e2e68390ffff","h3_11":"8b1e2e68390efff"},"geometry":{"type":"Polygon","coordinates":[[[20.014365,50.037654],[20.014626,50.03764],[20.014629,50.037664],[20.014369,50.037679],[20.014365,50.037654]]]}},{"type":"Feature","id":"w709881331","properties":{"type":"yes","residential":false,"residents_est":0,"h3_10":"8a1e2e68391ffff","h3_11":"8b1e2e683919fff"},"geometry":{"type":"Polygon","coordinates":[[[20.014115,50.037051],[20.01426,50.037043],[20.014265,50.037077],[20.01412,50.037085],[20.014115,50.037051]]]}},{"type":"Feature","id":"w709881332","properties":{"type":"yes","residential":true,"residents_est":12,"h3_10":"8a1e2e68391ffff","h3_11":"8b1e2e68391cfff"},"geometry":{"type":"Polygon","coordinates":[[[20.013528,50.037127],[20.013666,50.03712],[20.013719,50.037555],[20.013582,50.037562],[20.013528,50.037127]]]}},{"type":"Feature","id":"w709881333","properties":{"type":"yes","residential":true,"residents_est":2,"h3_10":"8a1e2e683917fff","h3_11":"8b1e2e683914fff"},"geometry":{"type":"Polygon","coordinates":[[[20.011278,50.037752],[20.011478,50.037717],[20.011525,50.037819],[20.011323,50.037856],[20.011278,50.037752]]]}},{"type":"Feature","id":"w709881334","properties":{"type":"yes","residential":true,"residents_est":54,"h3_10":"8a1e2e683917fff","h3_11":"8b1e2e683910fff"},"geometry":{"type":"Polygon","coordinates":[[[20.011539,50.037137],[20.011666,50.037113],[20.011742,50.037124],[20.011752,50.037097],[20.011874,50.037074],[20.011949,50.037086],[20.01196,50.037058],[20.012186,50.037016],[20.01236,50.037395],[20.012203,50.037425],[20.012199,50.037416],[20.01214,50.037427],[20.012143,50.037436],[20.011708,50.037515],[20.011539,50.037137]]]}},{"type":"Feature","id":"w709881335","properties":{"type":"yes","residential":true,"residents_est":1,"h3_10":"8a1e2e683917fff","h3_11":"8b1e2e683916fff"},"geometry":{"type":"Polygon","coordinates":[[[20.011305,50.037281],[20.011398,50.037264],[20.011433,50.037342],[20.01134,50.037359],[20.011305,50.037281]]]}},{"type":"Feature","id":"w709899000","properties":{"type":"yes","residential":false,"residents_est":0,"h3_10":"8a1e2e6839affff","h3_11":"8b1e2e6839aefff"},"geometry":{"type":"Polygon","coordinates":[[[20.011434,50.036126],[20.011509,50.036105],[20.011529,50.036134],[20.011453,50.036155],[20.011434,50.036126]]]}},{"type":"Feature","id":"w709899001","properties":{"type":"service","residential":false,"residents_est":0,"h3_10":"8a1e2e68398ffff","h3_11":"8b1e2e68398cfff"},"geometry":{"type":"Polygon","coordinates":[[[20.01202,50.035454],[20.012089,50.03545],[20.012101,50.035539],[20.012031,50.035542],[20.01202,50.035454]]]}},{"type":"Feature","id":"w709899002","properties":{"type":"yes","residential":true,"residents_est":2,"h3_10":"8a1e2e6839affff","h3_11":"8b1e2e6839a8fff"},"geometry":{"type":"Polygon","coordinates":[[[20.012333,50.035968],[20.012522,50.035951],[20.012543,50.036066],[20.012352,50.03608],[20.012333,50.035968]]]}},{"type":"Feature","id":"w709899003","properties":{"type":"yes","residential":false,"residents_est":0,"h3_10":"8a1e2e68398ffff","h3_11":"8b1e2e68398dfff"},"geometry":{"type":"Polygon","coordinates":[[[20.013112,50.035428],[20.013195,50.035425],[20.013201,50.035479],[20.013117,50.035482],[20.013112,50.035428]]]}},{"type":"Feature","id":"w709899004","properties":{"type":"yes","residential":true,"residents_est":2,"h3_10":"8a1e2e683837fff","h3_11":"8b1e2e683835fff"},"geometry":{"type":"Polygon","coordinates":[[[20.014145,50.036018],[20.014453,50.035996],[20.014471,50.036079],[20.014214,50.036104],[20.014198,50.036045],[20.014152,50.036048],[20.014145,50.036018]]]}},{"type":"Feature","id":"w709899005","properties":{"type":"yes","residential":true,"residents_est":7,"h3_10":"8a1e2e683807fff","h3_11":"8b1e2e683806fff"},"geometry":{"type":"Polygon","coordinates":[[[20.014682,50.035438],[20.014897,50.035421],[20.014943,50.035645],[20.014799,50.035655],[20.014762,50.035466],[20.014688,50.035471],[20.014682,50.035438]]]}},{"type":"Feature","id":"w709899006","properties":{"type":"service","residential":false,"residents_est":0,"h3_10":"8a1e2e683807fff","h3_11":"8b1e2e683805fff"},"geometry":{"type":"Polygon","coordinates":[[[20.016071,50.035778],[20.016072,50.035733],[20.016141,50.035733],[20.016141,50.035778],[20.016071,50.035778]]]}},{"type":"Feature","id":"w709899007","properties":{"type":"yes","residential":true,"residents_est":1,"h3_10":"8a1e2e683807fff","h3_11":"8b1e2e683805fff"},"geometry":{"type":"Polygon","coordinates":[[[20.016408,50.035762],[20.016483,50.035756],[20.016503,50.035863],[20.016428,50.035869],[20.016408,50.035762]]]}},{"type":"Feature","id":"w709899008","properties":{"type":"yes","residential":true,"residents_est":1,"h3_10":"8a1e2e683807fff","h3_11":"8b1e2e683805fff"},"geometry":{"type":"Polygon","coordinates":[[[20.016423,50.03587],[20.016503,50.035863],[20.016523,50.035968],[20.016442,50.035974],[20.016423,50.03587]]]}},{"type":"Feature","id":"w709899009","properties":{"type":"yes","residential":true,"residents_est":1,"h3_10":"8a1e2e68382ffff","h3_11":"8b1e2e68382afff"},"geometry":{"type":"Polygon","coordinates":[[[20.016528,50.03591],[20.016568,50.035907],[20.016593,50.036041],[20.016555,50.036043],[20.016528,50.03591]]]}},{"type":"Feature","id":"w709899011","properties":{"type":"yes","residential":true,"residents_est":3,"h3_10":"8a1e2e683807fff","h3_11":"8b1e2e683805fff"},"geometry":{"type":"Polygon","coordinates":[[[20.015844,50.035823],[20.015933,50.035821],[20.015932,50.035776],[20.016064,50.035775],[20.016066,50.035888],[20.016026,50.035921],[20.015847,50.035922],[20.015844,50.035823]]]}},{"type":"Feature","id":"w709899012","properties":{"type":"yes","residential":false,"residents_est":0,"h3_10":"8a1e2e683807fff","h3_11":"8b1e2e683804fff"},"geometry":{"type":"Polygon","coordinates":[[[20.015344,50.035829],[20.015426,50.035828],[20.015429,50.035882],[20.015346,50.035883],[20.015344,50.035829]]]}},{"type":"Feature","id":"w709899013","properties":{"type":"yes","residential":false,"residents_est":0,"h3_10":"8a1e2e683807fff","h3_11":"8b1e2e683804fff"},"geometry":{"type":"Polygon","coordinates":[[[20.015262,50.035783],[20.015332,50.035781],[20.015335,50.035829],[20.015265,50.03583],[20.015262,50.035783]]]}},{"type":"Feature","id":"w709899014","properties":{"type":"yes","residential":false,"residents_est":0,"h3_10":"8a1e2e683807fff","h3_11":"8b1e2e683804fff"},"geometry":{"type":"Polygon","coordinates":[[[20.015338,50.035654],[20.015456,50.035653],[20.015457,50.035695],[20.015339,50.035697],[20.015338,50.035654]]]}},{"type":"Feature","id":"w709899015","properties":{"type":"yes","residential":true,"residents_est":1,"h3_10":"8a1e2e683837fff","h3_11":"8b1e2e683832fff"},"geometry":{"type":"Polygon","coordinates":[[[20.013762,50.035452],[20.013938,50.035444],[20.013943,50.035489],[20.013764,50.035498],[20.013762,50.035452]]]}},{"type":"Feature","id":"w709899017","properties":{"type":"yes","residential":true,"residents_est":3,"h3_10":"8a1e2e683807fff","h3_11":"8b1e2e683806fff"},"geometry":{"type":"Polygon","coordinates":[[[20.015313,50.035445],[20.015349,50.035269],[20.015494,50.03528],[20.015452,50.035458],[20.015313,50.035445]]]}},{"type":"Feature","id":"w709899021","properties":{"type":"yes","residential":false,"residents_est":0,"h3_10":"8a1e2e6838b7fff","h3_11":"8b1e2e6838b1fff"},"geometry":{"type":"Polygon","coordinates":[[[20.011918,50.033195],[20.011976,50.033192],[20.011988,50.033273],[20.01193,50.033277],[20.011918,50.033195]]]}},{"type":"Feature","id":"w709899022","properties":{"type":"yes","residential":true,"residents_est":2,"h3_10":"8a1e2e6838affff","h3_11":"8b1e2e6838aefff"},"geometry":{"type":"Polygon","coordinates":[[[20.013986,50.03338],[20.014094,50.033372],[20.014124,50.033534],[20.014016,50.033541],[20.013986,50.03338]]]}},{"type":"Feature","id":"w709899023","properties":{"type":"yes","residential":true,"residents_est":2,"h3_10":"8a1e2e6838affff","h3_11":"8b1e2e6838aafff"},"geometry":{"type":"Polygon","coordinates":[[[20.014168,50.033407],[20.014509,50.033386],[20.014514,50.033411],[20.014394,50.03342],[20.014399,50.033449],[20.014178,50.033465],[20.014168,50.033407]]]}},{"type":"Feature","id":"w709899024","properties":{"type":"yes","residential":true,"residents_est":2,"h3_10":"8a1e2e6838affff","h3_11":"8b1e2e6838aafff"},"geometry":{"type":"Polygon","coordinates":[[[20.014267,50.033336],[20.014529,50.033316],[20.014541,50.033383],[20.014278,50.033403],[20.014267,50.033336]]]}},{"type":"Feature","id":"w709899025","properties":{"type":"yes","residential":true,"residents_est":0,"h3_10":"8a1e2e68389ffff","h3_11":"8b1e2e68389dfff"},"geometry":{"type":"Polygon","coordinates":[[[20.014173,50.032257],[20.014348,50.032243],[20.014355,50.032281],[20.01418,50.032295],[20.014173,50.032257]]]}},{"type":"Feature","id":"w709899026","properties":{"type":"yes","residential":true,"residents_est":1,"h3_10":"8a1e2e68388ffff","h3_11":"8b1e2e68388efff"},"geometry":{"type":"Polygon","coordinates":[[[20.01426,50.032717],[20.014461,50.032702],[20.014471,50.032759],[20.01427,50.032773],[20.01426,50.032717]]]}},{"type":"Feature","id":"w709899027","properties":{"type":"yes","residential":true,"residents_est":2,"h3_10":"8a1e2e683887fff","h3_11":"8b1e2e683881fff"},"geometry":{"type":"Polygon","coordinates":[[[20.014184,50.032891],[20.01445,50.032871],[20.014463,50.032942],[20.014198,50.032962],[20.014184,50.032891]]]}},{"type":"Feature","id":"w709899028","properties":{"type":"yes","residential":true,"residents_est":19,"h3_10":"8a1e2e683887fff","h3_11":"8b1e2e683881fff"},"geometry":{"type":"Polygon","coordinates":[[[20.013883,50.032758],[20.014146,50.032739],[20.014172,50.032892],[20.014184,50.032891],[20.014218,50.033073],[20.013942,50.033093],[20.013883,50.032758]]]}},{"type":"Feature","id":"w709899029","properties":{"type":"yes","residential":true,"residents_est":2,"h3_10":"8a1e2e683887fff","h3_11":"8b1e2e683880fff"},"geometry":{"type":"Polygon","coordinates":[[[20.013549,50.032625],[20.013591,50.032622],[20.013695,50.033193],[20.013654,50.033196],[20.013549,50.032625]]]}},{"type":"Feature","id":"w709899030","properties":{"type":"service","residential":false,"residents_est":0,"h3_10":"8a1e2e683897fff","h3_11":"8b1e2e683895fff"},"geometry":{"type":"Polygon","coordinates":[[[20.012093,50.032465],[20.012219,50.032457],[20.012234,50.032545],[20.012108,50.032554],[20.012093,50.032465]]]}},{"type":"Feature","id":"w709899032","properties":{"type":"yes","residential":true,"residents_est":1,"h3_10":"8a1e2e683897fff","h3_11":"8b1e2e683891fff"},"geometry":{"type":"Polygon","coordinates":[[[20.01227,50.032227],[20.012459,50.032209],[20.012471,50.032264],[20.012282,50.032282],[20.01227,50.032227]]]}},{"type":"Feature","id":"w709899039","properties":{"type":"yes","residential":true,"residents_est":2,"h3_10":"8a1e2e68389ffff","h3_11":"8b1e2e68389bfff"},"geometry":{"type":"Polygon","coordinates":[[[20.013911,50.031546],[20.014212,50.031518],[20.014223,50.031572],[20.01392,50.0316],[20.013911,50.031546]]]}},{"type":"Feature","id":"w709899042","properties":{"type":"yes","residential":true,"residents_est":1,"h3_10":"8a1e2e68389ffff","h3_11":"8b1e2e68389bfff"},"geometry":{"type":"Polygon","coordinates":[[[20.01399,50.031403],[20.014121,50.031394],[20.01413,50.031452],[20.013999,50.031461],[20.01399,50.031403]]]}},{"type":"Feature","id":"w709899043","properties":{"type":"service","residential":false,"residents_est":0,"h3_10":"8a1e2e68389ffff","h3_11":"8b1e2e68389bfff"},"geometry":{"type":"Polygon","coordinates":[[[20.01362,50.031438],[20.01369,50.031432],[20.0137,50.031478],[20.013629,50.031483],[20.01362,50.031438]]]}},{"type":"Feature","id":"w709899125","properties":{"type":"yes","residential":true,"residents_est":3,"h3_10":"8a1e2e6838dffff","h3_11":"8b1e2e6838d8fff"},"geometry":{"type":"Polygon","coordinates":[[[20.018704,50.031858],[20.018745,50.031725],[20.018843,50.031738],[20.018862,50.031684],[20.018928,50.031694],[20.01887,50.03188],[20.018704,50.031858]]]}},{"type":"Feature","id":"w709899126","properties":{"type":"yes","residential":false,"residents_est":0,"h3_10":"8a1e2e68388ffff","h3_11":"8b1e2e683889fff"},"geometry":{"type":"Polygon","coordinates":[[[20.015705,50.032402],[20.01576,50.032366],[20.015804,50.032395],[20.015748,50.03243],[20.015705,50.032402]]]}},{"type":"Feature","id":"w709899127","properties":{"type":"yes","residential":true,"residents_est":1,"h3_10":"8a1e2e6838d7fff","h3_11":"8b1e2e6838d6fff"},"geometry":{"type":"Polygon","coordinates":[[[20.015926,50.032155],[20.016004,50.032105],[20.016101,50.032169],[20.016022,50.032218],[20.015926,50.032155]]]}},{"type":"Feature","id":"w709899128","properties":{"type":"yes","residential":true,"residents_est":14,"h3_10":"8a1e2e6838d7fff","h3_11":"8b1e2e6838d6fff"},"geometry":{"type":"Polygon","coordinates":[[[20.016004,50.032105],[20.016307,50.031913],[20.016488,50.032032],[20.016185,50.032223],[20.016004,50.032105]]]}},{"type":"Feature","id":"w709899129","properties":{"type":"yes","residential":true,"residents_est":3,"h3_10":"8a1e2e6838d7fff","h3_11":"8b1e2e6838d4fff"},"geometry":{"type":"Polygon","coordinates":[[[20.016472,50.032359],[20.016625,50.032261],[20.016775,50.03236],[20.016622,50.032457],[20.016472,50.032359]]]}},{"type":"Feature","id":"w709899130","properties":{"type":"yes","residential":true,"residents_est":1,"h3_10":"8a1e2e6838d7fff","h3_11":"8b1e2e6838d5fff"},"geometry":{"type":"Polygon","coordinates":[[[20.017046,50.032579],[20.01712,50.032531],[20.017244,50.032612],[20.017171,50.032659],[20.017046,50.032579]]]}},{"type":"Feature","id":"w709899131","properties":{"type":"yes","residential":true,"residents_est":7,"h3_10":"8a1e2e6838d7fff","h3_11":"8b1e2e6838d5fff"},"geometry":{"type":"Polygon","coordinates":[[[20.017171,50.032659],[20.017246,50.032612],[20.017185,50.032572],[20.017208,50.032557],[20.017265,50.032558],[20.017293,50.032577],[20.017353,50.032538],[20.017488,50.032626],[20.017301,50.032744],[20.017171,50.032659]]]}},{"type":"Feature","id":"w709899132","properties":{"type":"yes","residential":false,"residents_est":0,"h3_10":"8a1e2e6838c7fff","h3_11":"8b1e2e6838c2fff"},"geometry":{"type":"Polygon","coordinates":[[[20.017803,50.032631],[20.017922,50.032645],[20.017905,50.032704],[20.017803,50.032631]]]}},{"type":"Feature","id":"w709899133","properties":{"type":"yes","residential":true,"residents_est":1,"h3_10":"8a1e2e6838c7fff","h3_11":"8b1e2e6838c2fff"},"geometry":{"type":"Polygon","coordinates":[[[20.017982,50.032625],[20.018008,50.032536],[20.018077,50.032544],[20.018066,50.032581],[20.018082,50.032583],[20.018067,50.032635],[20.017982,50.032625]]]}},{"type":"Feature","id":"w709899134","properties":{"type":"yes","residential":true,"residents_est":45,"h3_10":"8a1e2e6838c7fff","h3_11":"8b1e2e6838c3fff"},"geometry":{"type":"Polygon","coordinates":[[[20.018074,50.032615],[20.018083,50.032584],[20.018181,50.032576],[20.018207,50.032486],[20.01823,50.032476],[20.01825,50.032479],[20.018263,50.032449],[20.019224,50.032565],[20.019251,50.032546],[20.019241,50.032536],[20.019276,50.032527],[20.019313,50.032527],[20.019348,50.032537],[20.019374,50.032554],[20.019388,50.032576],[20.019388,50.0326],[20.019374,50.032622],[20.019348,50.032639],[20.019314,50.032649],[20.019277,50.032649],[20.019242,50.03264],[20.019215,50.032624],[20.019231,50.032617],[20.019216,50.032592],[20.018789,50.032544],[20.018764,50.032555],[20.018749,50.032552],[20.018676,50.0328],[20.018652,50.032798],[20.018638,50.032842],[20.018164,50.032784],[20.018173,50.032753],[20.018149,50.03275],[20.018134,50.032735],[20.018161,50.032644],[20.018127,50.032638],[20.018074,50.032615]]]}},{"type":"Feature","id":"w709899135","properties":{"type":"yes","residential":false,"residents_est":0,"h3_10":"8a1e2e6838cffff","h3_11":"8b1e2e6838cafff"},"geometry":{"type":"Polygon","coordinates":[[[20.019313,50.032317],[20.019331,50.032259],[20.019403,50.032268],[20.019388,50.032326],[20.019313,50.032317]]]}},{"type":"Feature","id":"w709899159","properties":{"type":"yes","residential":true,"residents_est":1,"h3_10":"8a1e2e6838effff","h3_11":"8b1e2e6838edfff"},"geometry":{"type":"Polygon","coordinates":[[[20.019971,50.034078],[20.019993,50.034035],[20.020199,50.03408],[20.020177,50.034122],[20.019971,50.034078]]]}},{"type":"Feature","id":"w709899160","properties":{"type":"yes","residential":true,"residents_est":9,"h3_10":"8a1e2e6838effff","h3_11":"8b1e2e6838edfff"},"geometry":{"type":"Polygon","coordinates":[[[20.019988,50.034034],[20.020033,50.033949],[20.020515,50.034056],[20.02047,50.034139],[20.019988,50.034034]]]}},{"type":"Feature","id":"w709899161","properties":{"type":"yes","residential":true,"residents_est":2,"h3_10":"8a1e2e68385ffff","h3_11":"8b1e2e68385afff"},"geometry":{"type":"Polygon","coordinates":[[[20.020453,50.034173],[20.020515,50.034056],[20.02067,50.03409],[20.020608,50.034207],[20.020453,50.034173]]]}},{"type":"Feature","id":"w709899162","properties":{"type":"service","residential":false,"residents_est":0,"h3_10":"8a1e2e68381ffff","h3_11":"8b1e2e683819fff"},"geometry":{"type":"Polygon","coordinates":[[[20.016904,50.03438],[20.016906,50.034334],[20.017043,50.034337],[20.017041,50.034382],[20.016904,50.03438]]]}},{"type":"Feature","id":"w709899163","properties":{"type":"yes","residential":true,"residents_est":1,"h3_10":"8a1e2e68380ffff","h3_11":"8b1e2e68380bfff"},"geometry":{"type":"Polygon","coordinates":[[[20.018208,50.034808],[20.018211,50.03474],[20.018255,50.034713],[20.018218,50.034683],[20.018256,50.034661],[20.01829,50.034672],[20.018329,50.0347],[20.018304,50.034715],[20.018344,50.034743],[20.018316,50.034759],[20.018313,50.034811],[20.018208,50.034808]]]}},{"type":"Feature","id":"w709899164","properties":{"type":"yes","residential":false,"residents_est":0,"h3_10":"8a1e2e683877fff","h3_11":"8b1e2e683876fff"},"geometry":{"type":"Polygon","coordinates":[[[20.018186,50.03607],[20.018196,50.036003],[20.018265,50.036007],[20.018255,50.036074],[20.018186,50.03607]]]}},{"type":"Feature","id":"w709899165","properties":{"type":"yes","residential":true,"residents_est":2,"h3_10":"8a1e2e683847fff","h3_11":"8b1e2e683844fff"},"geometry":{"type":"Polygon","coordinates":[[[20.020244,50.03615],[20.020319,50.035828],[20.020364,50.035832],[20.020288,50.036155],[20.020244,50.03615]]]}},{"type":"Feature","id":"w709899166","properties":{"type":"yes","residential":true,"residents_est":1,"h3_10":"8a1e2e683867fff","h3_11":"8b1e2e683862fff"},"geometry":{"type":"Polygon","coordinates":[[[20.019854,50.036144],[20.019866,50.036086],[20.020037,50.0361],[20.020025,50.036158],[20.019854,50.036144]]]}},{"type":"Feature","id":"w709899167","properties":{"type":"yes","residential":true,"residents_est":1,"h3_10":"8a1e2e683867fff","h3_11":"8b1e2e683862fff"},"geometry":{"type":"Polygon","coordinates":[[[20.020232,50.036391],[20.020269,50.036232],[20.020305,50.036235],[20.020268,50.036395],[20.020232,50.036391]]]}},{"type":"Feature","id":"w709899168","properties":{"type":"yes","residential":true,"residents_est":3,"h3_10":"8a1e2e683867fff","h3_11":"8b1e2e683862fff"},"geometry":{"type":"Polygon","coordinates":[[[20.020088,50.036379],[20.020127,50.036203],[20.020269,50.036216],[20.02023,50.036392],[20.020088,50.036379]]]}},{"type":"Feature","id":"w709899169","properties":{"type":"yes","residential":true,"residents_est":1,"h3_10":"8a1e2e683867fff","h3_11":"8b1e2e683862fff"},"geometry":{"type":"Polygon","coordinates":[[[20.019972,50.036368],[20.019988,50.036299],[20.02006,50.036306],[20.020045,50.036375],[20.019972,50.036368]]]}},{"type":"Feature","id":"w709899170","properties":{"type":"yes","residential":true,"residents_est":7,"h3_10":"8a1e2e683867fff","h3_11":"8b1e2e683860fff"},"geometry":{"type":"Polygon","coordinates":[[[20.02,50.03675],[20.020036,50.036565],[20.020228,50.036581],[20.0202,50.036712],[20.020181,50.03671],[20.020168,50.036766],[20.02,50.03675]]]}},{"type":"Feature","id":"w709899171","properties":{"type":"yes","residential":true,"residents_est":3,"h3_10":"8a1e2e683867fff","h3_11":"8b1e2e683860fff"},"geometry":{"type":"Polygon","coordinates":[[[20.0202,50.036712],[20.020215,50.036651],[20.020628,50.036691],[20.020612,50.036754],[20.0202,50.036712]]]}},{"type":"Feature","id":"w709899172","properties":{"type":"yes","residential":true,"residents_est":7,"h3_10":"8a1e2e683877fff","h3_11":"8b1e2e683874fff"},"geometry":{"type":"Polygon","coordinates":[[[20.018689,50.036201],[20.018731,50.036043],[20.018936,50.036065],[20.018894,50.036223],[20.018689,50.036201]]]}},{"type":"Feature","id":"w709899176","properties":{"type":"yes","residential":true,"residents_est":1,"h3_10":"8a1e2e683847fff","h3_11":"8b1e2e683845fff"},"geometry":{"type":"Polygon","coordinates":[[[20.020887,50.035966],[20.02091,50.03586],[20.020963,50.035865],[20.02094,50.035971],[20.020887,50.035966]]]}},{"type":"Feature","id":"w709899177","properties":{"type":"yes","residential":false,"residents_est":0,"h3_10":"8a1e2e68384ffff","h3_11":"8b1e2e68384afff"},"geometry":{"type":"Polygon","coordinates":[[[20.021816,50.03486],[20.021836,50.0348],[20.021888,50.034807],[20.021869,50.034867],[20.021816,50.03486]]]}},{"type":"Feature","id":"w709899178","properties":{"type":"yes","residential":true,"residents_est":2,"h3_10":"8a1e2e68384ffff","h3_11":"8b1e2e68384bfff"},"geometry":{"type":"Polygon","coordinates":[[[20.023024,50.034616],[20.023226,50.03466],[20.023247,50.034715],[20.023219,50.03477],[20.023069,50.034737],[20.023024,50.034616]]]}},{"type":"Feature","id":"w709899179","properties":{"type":"yes","residential":true,"residents_est":1,"h3_10":"8a1e2e68386ffff","h3_11":"8b1e2e683869fff"},"geometry":{"type":"Polygon","coordinates":[[[20.023047,50.03612],[20.023065,50.03604],[20.02315,50.036048],[20.023132,50.036128],[20.023047,50.03612]]]}},{"type":"Feature","id":"w710052521","properties":{"type":"yes","residential":false,"residents_est":0,"h3_10":"8a1e2e68394ffff","h3_11":"8b1e2e68394cfff"},"geometry":{"type":"Polygon","coordinates":[[[20.019607,50.038151],[20.019663,50.038144],[20.019676,50.038179],[20.019619,50.038187],[20.019607,50.038151]]]}},{"type":"Feature","id":"w1038786275","properties":{"type":"outbuilding","levels":1.0,"residential":false,"residents_est":0,"h3_10":"8a1e2e68394ffff","h3_11":"8b1e2e68394dfff"},"geometry":{"type":"Polygon","coordinates":[[[20.020677,50.038125],[20.020857,50.038123],[20.020861,50.03826],[20.020682,50.038262],[20.020677,50.038125]]]}},{"type":"Feature","id":"w1038786277","properties":{"type":"outbuilding","levels":1.0,"residential":false,"residents_est":0,"h3_10":"8a1e2e68386ffff","h3_11":"8b1e2e683869fff"},"geometry":{"type":"Polygon","coordinates":[[[20.023033,50.036178],[20.023046,50.03612],[20.023132,50.036128],[20.023119,50.036186],[20.023033,50.036178]]]}},{"type":"Feature","id":"w1038786278","properties":{"type":"outbuilding","levels":1.0,"residential":false,"residents_est":0,"h3_10":"8a1e2e683917fff","h3_11":"8b1e2e683914fff"},"geometry":{"type":"Polygon","coordinates":[[[20.011448,50.037594],[20.011534,50.037578],[20.011558,50.037632],[20.011472,50.037648],[20.011448,50.037594]]]}},{"type":"Feature","id":"w1038786279","properties":{"type":"office","levels":3.0,"residential":false,"residents_est":0,"h3_10":"8a1e2e683877fff","h3_11":"8b1e2e683874fff"},"geometry":{"type":"Polygon","coordinates":[[[20.018659,50.036314],[20.018689,50.036201],[20.018838,50.036217],[20.018808,50.03633],[20.018659,50.036314]]]}},{"type":"Feature","id":"w1095545273","properties":{"type":"garage","levels":1.0,"residential":false,"residents_est":0,"h3_10":"8a1e2e6838e7fff","h3_11":"8b1e2e6838e3fff"},"geometry":{"type":"Polygon","coordinates":[[[20.018327,50.03367],[20.018396,50.033539],[20.01862,50.033588],[20.01855,50.033719],[20.018327,50.03367]]]}},{"type":"Feature","id":"w1095545297","properties":{"type":"outbuilding","levels":1.0,"residential":false,"residents_est":0,"h3_10":"8a1e2e6838c7fff","h3_11":"8b1e2e6838c1fff"},"geometry":{"type":"Polygon","coordinates":[[[20.018857,50.032708],[20.019,50.032646],[20.019081,50.032725],[20.018913,50.032798],[20.018877,50.032764],[20.018907,50.032751],[20.018857,50.032708]]]}}]}