{"type":"FeatureCollection","features":[{"type":"Feature","id":"w337472297","properties":{"type":"yes","address":"Golkowice 389","residential":true,"residents_est":0,"h3_10":"8a1e05a6da5ffff","h3_11":"8b1e05a6da5cfff"},"geometry":{"type":"Polygon","coordinates":[[[19.979823,49.978018],[19.979915,49.978006],[19.979904,49.977971],[19.979975,49.977962],[19.979986,49.977996],[19.980035,49.97799],[19.98005,49.97804],[19.980073,49.978037],[19.980088,49.978085],[19.979852,49.978114],[19.979823,49.978018]]]}},{"type":"Feature","id":"w337472320","properties":{"type":"yes","residential":true,"residents_est":0,"h3_10":"8a1e05a6da17fff","h3_11":"8b1e05a6da16fff"},"geometry":{"type":"Polygon","coordinates":[[[19.972372,49.97817],[19.972379,49.978087],[19.972493,49.978091],[19.972492,49.978098],[19.972687,49.978109],[19.972681,49.978187],[19.972404,49.978178],[19.972404,49.978171],[19.972372,49.97817]]]}},{"type":"Feature","id":"w337472338","properties":{"type":"yes","residential":true,"residents_est":0,"h3_10":"8a1e05a6da0ffff","h3_11":"8b1e05a6da0cfff"},"geometry":{"type":"Polygon","coordinates":[[[19.976548,49.978762],[19.976783,49.978754],[19.976785,49.978828],[19.976668,49.978829],[19.976668,49.978851],[19.976588,49.978852],[19.976585,49.978818],[19.976549,49.97882],[19.976548,49.978762]]]}},{"type":"Feature","id":"w337472436","properties":{"type":"yes","address":"Golkowice 352","residential":true,"residents_est":0,"h3_10":"8a1e05a6da07fff","h3_11":"8b1e05a6da04fff"},"geometry":{"type":"Polygon","coordinates":[[[19.974783,49.979113],[19.974796,49.979072],[19.974846,49.979078],[19.97486,49.979034],[19.974936,49.979044],[19.974926,49.979082],[19.974944,49.979085],[19.974941,49.979092],[19.974922,49.97909],[19.97491,49.97913],[19.974783,49.979113]]]}},{"type":"Feature","id":"w337472447","properties":{"type":"yes","address":"Golkowice 350","residential":true,"residents_est":0,"h3_10":"8a1e05a6da07fff","h3_11":"8b1e05a6da05fff"},"geometry":{"type":"Polygon","coordinates":[[[19.975461,49.979081],[19.975477,49.979034],[19.975667,49.979065],[19.975638,49.979154],[19.975588,49.979147],[19.975581,49.979167],[19.975538,49.97916],[19.975547,49.979138],[19.9755,49.979136],[19.975516,49.979089],[19.975461,49.979081]]]}},{"type":"Feature","id":"w337472463","properties":{"type":"detached","levels":1.0,"address":"Golkowice 390","residential":true,"residents_est":0,"h3_10":"8a1e05a6db8ffff","h3_11":"8b1e05a6db8afff"},"geometry":{"type":"Polygon","coordinates":[[[19.97136,49.97788],[19.971375,49.977869],[19.971388,49.977868],[19.971387,49.977846],[19.971581,49.977839],[19.971589,49.977931],[19.971513,49.977934],[19.971512,49.977923],[19.971393,49.977927],[19.971392,49.977904],[19.971378,49.977905],[19.971361,49.977895],[19.97136,49.97788]]]}},{"type":"Feature","id":"w337472485","properties":{"type":"yes","address":"Golkowice 401","residential":true,"residents_est":0,"h3_10":"8a1e05a6db9ffff","h3_11":"8b1e05a6db9dfff"},"geometry":{"type":"Polygon","coordinates":[[[19.970762,49.978106],[19.970912,49.978106],[19.970913,49.978119],[19.970968,49.978119],[19.970967,49.978106],[19.971047,49.978105],[19.971049,49.978235],[19.970974,49.978235],[19.970973,49.978177],[19.970913,49.978177],[19.970913,49.978195],[19.970799,49.978196],[19.970798,49.978185],[19.970764,49.978185],[19.970762,49.978106]]]}},{"type":"Feature","id":"w337472501","properties":{"type":"yes","address":"Golkowice 91","residential":true,"residents_est":0,"h3_10":"8a1e05a6da77fff","h3_11":"8b1e05a6da70fff"},"geometry":{"type":"Polygon","coordinates":[[[19.977882,49.979342],[19.977883,49.979312],[19.977903,49.979312],[19.977904,49.97928],[19.978286,49.979283],[19.978283,49.97935],[19.978122,49.979348],[19.978123,49.979368],[19.978042,49.979368],[19.978043,49.979346],[19.977933,49.979352],[19.977933,49.979343],[19.977882,49.979342]]]}},{"type":"Feature","id":"w337472502","properties":{"type":"yes","residential":true,"residents_est":0,"h3_10":"8a1e05a6da47fff","h3_11":"8b1e05a6da44fff"},"geometry":{"type":"Polygon","coordinates":[[[19.979584,49.979075],[19.979684,49.979075],[19.979684,49.979066],[19.979754,49.979066],[19.979754,49.979053],[19.97978,49.979053],[19.97978,49.979068],[19.979849,49.979067],[19.97985,49.979143],[19.979793,49.979143],[19.979793,49.979175],[19.97974,49.979175],[19.97974,49.97914],[19.979584,49.97914],[19.979584,49.979075]]]}},{"type":"Feature","id":"w337472564","properties":{"type":"yes","address":"Geologów 47","residential":true,"residents_est":0,"h3_10":"8a1e05a6db67fff","h3_11":"8b1e05a6db65fff"},"geometry":{"type":"Polygon","coordinates":[[[19.97769,49.982718],[19.977691,49.982706],[19.977714,49.982699],[19.977715,49.982672],[19.977758,49.982671],[19.977759,49.982658],[19.977845,49.982657],[19.977846,49.982648],[19.977903,49.982647],[19.977903,49.982737],[19.977853,49.982737],[19.97785,49.982764],[19.97782,49.982764],[19.97782,49.982755],[19.977786,49.982755],[19.977786,49.982764],[19.977757,49.982765],[19.977756,49.982751],[19.977715,49.982752],[19.977714,49.982725],[19.97769,49.982718]]]}},{"type":"Feature","id":"w337472584","properties":{"type":"yes","address":"Golkowice 83","residential":true,"residents_est":0,"h3_10":"8a1e05a6da5ffff","h3_11":"8b1e05a6da5cfff"},"geometry":{"type":"Polygon","coordinates":[[[19.980006,49.978203],[19.980154,49.97817],[19.980217,49.97829],[19.980069,49.978323],[19.980006,49.978203]]]}},{"type":"Feature","id":"w337472598","properties":{"type":"yes","address":"Golkowice 65","residential":true,"residents_est":0,"h3_10":"8a1e05a6da77fff","h3_11":"8b1e05a6da71fff"},"geometry":{"type":"Polygon","coordinates":[[[19.979014,49.97923],[19.979126,49.979222],[19.979139,49.979297],[19.979027,49.979305],[19.979014,49.97923]]]}},{"type":"Feature","id":"w337472602","properties":{"type":"yes","address":"Golkowice 64","residential":true,"residents_est":0,"h3_10":"8a1e05a6da47fff","h3_11":"8b1e05a6da44fff"},"geometry":{"type":"Polygon","coordinates":[[[19.979257,49.979083],[19.979266,49.979011],[19.979504,49.979024],[19.979495,49.979095],[19.979257,49.979083]]]}},{"type":"Feature","id":"w337472623","properties":{"type":"yes","address":"Golkowice 226","residential":true,"residents_est":0,"h3_10":"8a1e05a6da07fff","h3_11":"8b1e05a6da02fff"},"geometry":{"type":"Polygon","coordinates":[[[19.974327,49.978498],[19.974348,49.978421],[19.974526,49.978441],[19.974505,49.978518],[19.974327,49.978498]]]}},{"type":"Feature","id":"w337472627","properties":{"type":"yes","address":"Golkowice 156","residential":true,"residents_est":0,"h3_10":"8a1e05a6da5ffff","h3_11":"8b1e05a6da5cfff"},"geometry":{"type":"Polygon","coordinates":[[[19.979536,49.977909],[19.979667,49.977893],[19.979689,49.977969],[19.979557,49.977985],[19.979536,49.977909]]]}},{"type":"Feature","id":"w337472681","properties":{"type":"yes","residential":true,"residents_est":0,"h3_10":"8a1e05a6db87fff","h3_11":"8b1e05a6db80fff"},"geometry":{"type":"Polygon","coordinates":[[[19.970108,49.978715],[19.97014,49.978612],[19.970236,49.978625],[19.970204,49.978727],[19.970108,49.978715]]]}},{"type":"Feature","id":"w337472742","properties":{"type":"yes","address":"Golkowice 66","residential":true,"residents_est":0,"h3_10":"8a1e05a6da77fff","h3_11":"8b1e05a6da76fff"},"geometry":{"type":"Polygon","coordinates":[[[19.977538,49.979222],[19.977554,49.979152],[19.97766,49.979162],[19.977644,49.979232],[19.977538,49.979222]]]}},{"type":"Feature","id":"w337472746","properties":{"type":"yes","address":"Golkowice 186a","residential":true,"residents_est":0,"h3_10":"8a1e05a6da0ffff","h3_11":"8b1e05a6da0dfff"},"geometry":{"type":"Polygon","coordinates":[[[19.977171,49.978913],[19.977339,49.978902],[19.97735,49.978973],[19.977182,49.978984],[19.977171,49.978913]]]}},{"type":"Feature","id":"w337472749","properties":{"type":"yes","residential":true,"residents_est":0,"h3_10":"8a1e05a6da47fff","h3_11":"8b1e05a6da41fff"},"geometry":{"type":"Polygon","coordinates":[[[19.980655,49.978854],[19.98079,49.97885],[19.980795,49.978936],[19.98066,49.978939],[19.980655,49.978854]]]}},{"type":"Feature","id":"w337472791","properties":{"type":"garage","residential":false,"residents_est":0,"h3_10":"8a1e05a6db8ffff","h3_11":"8b1e05a6db8afff"},"geometry":{"type":"Polygon","coordinates":[[[19.971685,49.978065],[19.971787,49.978065],[19.971788,49.978114],[19.971686,49.978115],[19.971685,49.978065]]]}},{"type":"Feature","id":"w337472800","properties":{"type":"yes","residential":true,"residents_est":0,"h3_10":"8a1e05a6da77fff","h3_11":"8b1e05a6da75fff"},"geometry":{"type":"Polygon","coordinates":[[[19.978179,49.979634],[19.978285,49.979634],[19.978285,49.979709],[19.978179,49.979709],[19.978179,49.979634]]]}},{"type":"Feature","id":"w337472805","properties":{"type":"yes","address":"Golkowice 294","residential":true,"residents_est":0,"h3_10":"8a1e05a6da77fff","h3_11":"8b1e05a6da74fff"},"geometry":{"type":"Polygon","coordinates":[[[19.97772,49.979685],[19.977727,49.979605],[19.977927,49.979611],[19.977921,49.979691],[19.97772,49.979685]]]}},{"type":"Feature","id":"w337472868","properties":{"type":"yes","residential":true,"residents_est":0,"h3_10":"8a1e05a6da17fff","h3_11":"8b1e05a6da15fff"},"geometry":{"type":"Polygon","coordinates":[[[19.974172,49.978504],[19.97421,49.978364],[19.974291,49.978373],[19.974254,49.978513],[19.974172,49.978504]]]}},{"type":"Feature","id":"w337472904","properties":{"type":"yes","residential":true,"residents_est":0,"h3_10":"8a1e05a6da17fff","h3_11":"8b1e05a6da14fff"},"geometry":{"type":"Polygon","coordinates":[[[19.973132,49.978278],[19.97314,49.978162],[19.97324,49.978165],[19.973233,49.97828],[19.973132,49.978278]]]}},{"type":"Feature","id":"w337472954","properties":{"type":"yes","residential":true,"residents_est":8,"h3_10":"8a1e05a6db8ffff","h3_11":"8b1e05a6db8cfff"},"geometry":{"type":"Polygon","coordinates":[[[19.9716,49.978696],[19.971613,49.978647],[19.971729,49.97866],[19.971716,49.978709],[19.9716,49.978696]]]}},{"type":"Feature","id":"w337472959","properties":{"type":"detached","levels":2.0,"address":"Golkowice 241","residential":true,"residents_est":0,"h3_10":"8a1e05a6db8ffff","h3_11":"8b1e05a6db88fff"},"geometry":{"type":"Polygon","coordinates":[[[19.971597,49.97855],[19.971621,49.978466],[19.971763,49.978484],[19.971738,49.978567],[19.971597,49.97855]]]}},{"type":"Feature","id":"w337472989","properties":{"type":"yes","address":"Golkowice 371","residential":true,"residents_est":0,"h3_10":"8a1e05a6db9ffff","h3_11":"8b1e05a6db9cfff"},"geometry":{"type":"Polygon","coordinates":[[[19.970174,49.978201],[19.970185,49.978105],[19.970307,49.978111],[19.970296,49.978207],[19.970174,49.978201]]]}},{"type":"Feature","id":"w337472998","properties":{"type":"yes","residential":true,"residents_est":0,"h3_10":"8a1e05a6da2ffff","h3_11":"8b1e05a6da2afff"},"geometry":{"type":"Polygon","coordinates":[[[19.975736,49.97921],[19.975753,49.979148],[19.975919,49.979167],[19.975902,49.979229],[19.975736,49.97921]]]}},{"type":"Feature","id":"w337473028","properties":{"type":"yes","address":"Golkowice 225","residential":true,"residents_est":0,"h3_10":"8a1e05a6da2ffff","h3_11":"8b1e05a6da2afff"},"geometry":{"type":"Polygon","coordinates":[[[19.97585,49.979141],[19.97589,49.979032],[19.976061,49.979054],[19.976023,49.979163],[19.97585,49.979141]]]}},{"type":"Feature","id":"w337473033","properties":{"type":"yes","address":"Golkowice 450","residential":false,"residents_est":0,"h3_10":"8a1e05a6da2ffff","h3_11":"8b1e05a6da2bfff"},"geometry":{"type":"Polygon","coordinates":[[[19.97633,49.979116],[19.976355,49.979081],[19.976455,49.979109],[19.97643,49.979144],[19.97633,49.979116]]]}},{"type":"Feature","id":"w337473038","properties":{"type":"yes","address":"Golkowice 479","residential":true,"residents_est":0,"h3_10":"8a1e05a6da37fff","h3_11":"8b1e05a6da33fff"},"geometry":{"type":"Polygon","coordinates":[[[19.973136,49.978842],[19.973157,49.978764],[19.973336,49.978784],[19.973315,49.978862],[19.973136,49.978842]]]}},{"type":"Feature","id":"w337473066","properties":{"type":"yes","address":"Golkowice 160","residential":true,"residents_est":0,"h3_10":"8a1e05a6da67fff","h3_11":"8b1e05a6da66fff"},"geometry":{"type":"Polygon","coordinates":[[[19.979035,49.979856],[19.979132,49.979853],[19.979137,49.979927],[19.97904,49.97993],[19.979035,49.979856]]]}},{"type":"Feature","id":"w337473069","properties":{"type":"yes","address":"Golkowice 224","residential":true,"residents_est":0,"h3_10":"8a1e05a6db5ffff","h3_11":"8b1e05a6db5bfff"},"geometry":{"type":"Polygon","coordinates":[[[19.978341,49.979956],[19.978341,49.979875],[19.978579,49.979876],[19.978578,49.979956],[19.978341,49.979956]]]}},{"type":"Feature","id":"w337473138","properties":{"type":"yes","address":"Golkowice 147","residential":true,"residents_est":0,"h3_10":"8a1e05a6da4ffff","h3_11":"8b1e05a6da4cfff"},"geometry":{"type":"Polygon","coordinates":[[[19.980915,49.978719],[19.981115,49.978691],[19.981145,49.978784],[19.980945,49.978811],[19.980915,49.978719]]]}},{"type":"Feature","id":"w337473140","properties":{"type":"yes","residential":true,"residents_est":0,"h3_10":"8a1e05a6da5ffff","h3_11":"8b1e05a6da5dfff"},"geometry":{"type":"Polygon","coordinates":[[[19.980921,49.978174],[19.980929,49.97808],[19.980998,49.978083],[19.98099,49.978176],[19.980921,49.978174]]]}},{"type":"Feature","id":"w337473206","properties":{"type":"yes","residential":true,"residents_est":0,"h3_10":"8a1e05a6da47fff","h3_11":"8b1e05a6da45fff"},"geometry":{"type":"Polygon","coordinates":[[[19.979921,49.97924],[19.97995,49.979114],[19.980035,49.979124],[19.980004,49.979249],[19.979921,49.97924]]]}},{"type":"Feature","id":"w337473245","properties":{"type":"yes","address":"Golkowice 424","residential":true,"residents_est":0,"h3_10":"8a1e05a6da07fff","h3_11":"8b1e05a6da00fff"},"geometry":{"type":"Polygon","coordinates":[[[19.974708,49.978938],[19.974728,49.978856],[19.974882,49.978873],[19.974867,49.978934],[19.974802,49.978927],[19.974798,49.978947],[19.974708,49.978938]]]}},{"type":"Feature","id":"w337473256","properties":{"type":"yes","residential":true,"residents_est":0,"h3_10":"8a1e05a6da4ffff","h3_11":"8b1e05a6da4cfff"},"geometry":{"type":"Polygon","coordinates":[[[19.980937,49.978901],[19.981103,49.97887],[19.981097,49.978857],[19.981142,49.978849],[19.981176,49.978924],[19.980965,49.978964],[19.980937,49.978901]]]}},{"type":"Feature","id":"w337473313","properties":{"type":"yes","address":"Golkowice 293","residential":true,"residents_est":0,"h3_10":"8a1e05a6da77fff","h3_11":"8b1e05a6da74fff"},"geometry":{"type":"Polygon","coordinates":[[[19.977769,49.979498],[19.977804,49.979498],[19.977803,49.979484],[19.977924,49.979483],[19.977925,49.979528],[19.97777,49.979529],[19.977769,49.979498]]]}},{"type":"Feature","id":"w337473350","properties":{"type":"yes","address":"Golkowice 111","residential":true,"residents_est":0,"h3_10":"8a1e05a6da77fff","h3_11":"8b1e05a6da75fff"},"geometry":{"type":"Polygon","coordinates":[[[19.978313,49.979629],[19.978447,49.979629],[19.978448,49.979716],[19.978314,49.979709],[19.978313,49.979629]]]}},{"type":"Feature","id":"w337473401","properties":{"type":"yes","residential":true,"residents_est":0,"h3_10":"8a1e05a6da47fff","h3_11":"8b1e05a6da44fff"},"geometry":{"type":"Polygon","coordinates":[[[19.979389,49.979137],[19.979473,49.979132],[19.979481,49.979185],[19.979515,49.979183],[19.979524,49.979243],[19.979403,49.979249],[19.979389,49.979137]]]}},{"type":"Feature","id":"w337473405","properties":{"type":"yes","residential":true,"residents_est":0,"h3_10":"8a1e05a6da5ffff","h3_11":"8b1e05a6da5efff"},"geometry":{"type":"Polygon","coordinates":[[[19.979512,49.977675],[19.979583,49.97767],[19.979589,49.977705],[19.979609,49.977704],[19.979615,49.977741],[19.979524,49.977747],[19.979512,49.977675]]]}},{"type":"Feature","id":"w337473441","properties":{"type":"yes","address":"Golkowice 298","residential":true,"residents_est":0,"h3_10":"8a1e05a6da77fff","h3_11":"8b1e05a6da76fff"},"geometry":{"type":"Polygon","coordinates":[[[19.977234,49.979227],[19.977236,49.979141],[19.977381,49.979143],[19.97738,49.97918],[19.977409,49.979181],[19.977408,49.979229],[19.977234,49.979227]]]}},{"type":"Feature","id":"w337473444","properties":{"type":"yes","residential":true,"residents_est":0,"h3_10":"8a1e05a6db8ffff","h3_11":"8b1e05a6db8efff"},"geometry":{"type":"Polygon","coordinates":[[[19.970961,49.978638],[19.970977,49.978576],[19.971093,49.978588],[19.971085,49.978621],[19.971042,49.978617],[19.971035,49.978646],[19.970961,49.978638]]]}},{"type":"Feature","id":"w337473478","properties":{"type":"yes","residential":true,"residents_est":0,"h3_10":"8a1e05a6da6ffff","h3_11":"8b1e05a6da6afff"},"geometry":{"type":"Polygon","coordinates":[[[19.980768,49.979241],[19.981024,49.979197],[19.981052,49.979261],[19.980941,49.979279],[19.980955,49.979314],[19.980806,49.979337],[19.980768,49.979241]]]}},{"type":"Feature","id":"w337473495","properties":{"type":"detached","levels":3.0,"residential":true,"residents_est":0,"h3_10":"8a1e05a6db8ffff","h3_11":"8b1e05a6db8bfff"},"geometry":{"type":"Polygon","coordinates":[[[19.972135,49.978178],[19.972289,49.978178],[19.972289,49.978213],[19.972321,49.978213],[19.972322,49.978269],[19.972153,49.97827],[19.972152,49.978226],[19.972135,49.978226],[19.972135,49.978178]]]}},{"type":"Feature","id":"w337473513","properties":{"type":"yes","address":"Golkowice 47","residential":true,"residents_est":0,"h3_10":"8a1e05a6da07fff","h3_11":"8b1e05a6da05fff"},"geometry":{"type":"Polygon","coordinates":[[[19.975236,49.978984],[19.975255,49.978905],[19.975389,49.978919],[19.975392,49.978907],[19.97542,49.97891],[19.975418,49.978922],[19.975496,49.97893],[19.975477,49.979008],[19.975236,49.978984]]]}},{"type":"Feature","id":"w337473518","properties":{"type":"yes","address":"Golkowice 126","residential":true,"residents_est":0,"h3_10":"8a1e05a6da47fff","h3_11":"8b1e05a6da42fff"},"geometry":{"type":"Polygon","coordinates":[[[19.979529,49.978383],[19.979671,49.978361],[19.9797,49.978435],[19.979654,49.978442],[19.979662,49.978463],[19.979603,49.978472],[19.979595,49.978451],[19.979557,49.978457],[19.979529,49.978383]]]}},{"type":"Feature","id":"w337473524","properties":{"type":"yes","address":"Golkowice 125","residential":true,"residents_est":0,"h3_10":"8a1e05a6da5ffff","h3_11":"8b1e05a6da59fff"},"geometry":{"type":"Polygon","coordinates":[[[19.980977,49.977736],[19.981043,49.977728],[19.981039,49.977715],[19.981083,49.97771],[19.981088,49.977726],[19.98115,49.977719],[19.981172,49.977795],[19.981,49.977816],[19.980977,49.977736]]]}},{"type":"Feature","id":"w337473526","properties":{"type":"yes","address":"Golkowice 270","residential":true,"residents_est":0,"h3_10":"8a1e05a6db87fff","h3_11":"8b1e05a6db81fff"},"geometry":{"type":"Polygon","coordinates":[[[19.970637,49.978602],[19.970662,49.978518],[19.970862,49.978544],[19.970837,49.978625],[19.97073,49.978612],[19.970724,49.978631],[19.970678,49.978625],[19.970684,49.978609],[19.970637,49.978602]]]}},{"type":"Feature","id":"w337473554","properties":{"type":"yes","address":"Golkowice 91A","residential":true,"residents_est":0,"h3_10":"8a1e05a6da77fff","h3_11":"8b1e05a6da70fff"},"geometry":{"type":"Polygon","coordinates":[[[19.978213,49.97922],[19.978214,49.979147],[19.978276,49.979147],[19.978276,49.979166],[19.978361,49.979166],[19.97836,49.979251],[19.978301,49.97925],[19.978302,49.979221],[19.978213,49.97922]]]}},{"type":"Feature","id":"w337473577","properties":{"type":"yes","address":"Golkowice 341","residential":true,"residents_est":0,"h3_10":"8a1e05a6da5ffff","h3_11":"8b1e05a6da5bfff"},"geometry":{"type":"Polygon","coordinates":[[[19.980486,49.9773],[19.980539,49.977294],[19.980541,49.977299],[19.980681,49.977281],[19.980705,49.977365],[19.980513,49.977394],[19.980486,49.9773]]]}},{"type":"Feature","id":"w337473600","properties":{"type":"yes","address":"Golkowice 268","residential":true,"residents_est":0,"h3_10":"8a1e05a6db87fff","h3_11":"8b1e05a6db83fff"},"geometry":{"type":"Polygon","coordinates":[[[19.970284,49.978567],[19.970311,49.978488],[19.970441,49.978506],[19.970415,49.978583],[19.970362,49.978576],[19.970357,49.978589],[19.970322,49.978585],[19.970326,49.978573],[19.970284,49.978567]]]}},{"type":"Feature","id":"w337473629","properties":{"type":"yes","address":"Golkowice 242","residential":true,"residents_est":0,"h3_10":"8a1e05a6da07fff","h3_11":"8b1e05a6da06fff"},"geometry":{"type":"Polygon","coordinates":[[[19.974367,49.978898],[19.974383,49.978824],[19.974452,49.978831],[19.974455,49.978816],[19.974501,49.97882],[19.974498,49.978834],[19.974563,49.97884],[19.974547,49.978915],[19.974367,49.978898]]]}},{"type":"Feature","id":"w337473647","properties":{"type":"yes","address":"Golkowice 63","residential":true,"residents_est":0,"h3_10":"8a1e05a6da6ffff","h3_11":"8b1e05a6da68fff"},"geometry":{"type":"Polygon","coordinates":[[[19.981202,49.979341],[19.981375,49.97932],[19.981402,49.97939],[19.981296,49.979407],[19.981298,49.979413],[19.981234,49.979425],[19.981202,49.979341]]]}},{"type":"Feature","id":"w337473657","properties":{"type":"yes","address":"Golkowice 107","residential":true,"residents_est":0,"h3_10":"8a1e05a6da4ffff","h3_11":"8b1e05a6da4afff"},"geometry":{"type":"Polygon","coordinates":[[[19.981036,49.978069],[19.981038,49.97799],[19.981175,49.977992],[19.981172,49.97807],[19.981111,49.978069],[19.98111,49.978082],[19.981075,49.978082],[19.981075,49.97807],[19.981036,49.978069]]]}},{"type":"Feature","id":"w337473670","properties":{"type":"yes","residential":true,"residents_est":0,"h3_10":"8a1e05a6da6ffff","h3_11":"8b1e05a6da6efff"},"geometry":{"type":"Polygon","coordinates":[[[19.980607,49.979339],[19.980706,49.979325],[19.980715,49.979351],[19.980691,49.979354],[19.980703,49.97939],[19.980726,49.979387],[19.980737,49.979419],[19.980639,49.979433],[19.980607,49.979339]]]}},{"type":"Feature","id":"w337473687","properties":{"type":"yes","address":"Golkowice 110","residential":true,"residents_est":0,"h3_10":"8a1e05a6da4ffff","h3_11":"8b1e05a6da4efff"},"geometry":{"type":"Polygon","coordinates":[[[19.980636,49.978533],[19.980693,49.978533],[19.980693,49.978521],[19.980718,49.978521],[19.980718,49.978533],[19.980797,49.978533],[19.980798,49.978608],[19.980637,49.978608],[19.980636,49.978533]]]}},{"type":"Feature","id":"w337473753","properties":{"type":"yes","residential":true,"residents_est":0,"h3_10":"8a1e05a6da47fff","h3_11":"8b1e05a6da42fff"},"geometry":{"type":"Polygon","coordinates":[[[19.979751,49.978364],[19.979961,49.978339],[19.979969,49.978369],[19.980016,49.978361],[19.980027,49.978407],[19.979817,49.978436],[19.979807,49.978397],[19.979761,49.978402],[19.979751,49.978364]]]}},{"type":"Feature","id":"w683702033","properties":{"type":"yes","residential":true,"residents_est":0,"h3_10":"8a1e05a6db87fff","h3_11":"8b1e05a6db86fff"},"geometry":{"type":"Polygon","coordinates":[[[19.969431,49.978846],[19.969473,49.978772],[19.969547,49.97879],[19.969504,49.978864],[19.969431,49.978846]]]}},{"type":"Feature","id":"w683702034","properties":{"type":"yes","address":"Golkowice 590","residential":true,"residents_est":0,"h3_10":"8a1e05a6db87fff","h3_11":"8b1e05a6db82fff"},"geometry":{"type":"Polygon","coordinates":[[[19.96945,49.978558],[19.9695,49.978475],[19.969557,49.97849],[19.969547,49.978506],[19.969627,49.978526],[19.969637,49.97851],[19.969693,49.978524],[19.969643,49.978607],[19.969593,49.978594],[19.969585,49.978608],[19.96949,49.978584],[19.969499,49.97857],[19.96945,49.978558]]]}},{"type":"Feature","id":"w683702035","properties":{"type":"yes","address":"Golkowice 550","residential":true,"residents_est":0,"h3_10":"8a1e05a6db87fff","h3_11":"8b1e05a6db80fff"},"geometry":{"type":"Polygon","coordinates":[[[19.969805,49.978565],[19.96985,49.978487],[19.969919,49.978504],[19.969924,49.978495],[19.969982,49.978509],[19.969992,49.978492],[19.97008,49.978513],[19.970041,49.978581],[19.970025,49.978577],[19.970004,49.978614],[19.969941,49.978598],[19.969931,49.978615],[19.969864,49.9786],[19.969874,49.978582],[19.969805,49.978565]]]}},{"type":"Feature","id":"w708513620","properties":{"type":"yes","residential":false,"residents_est":0,"h3_10":"8a1e05a6db37fff","h3_11":"8b1e05a6db34fff"},"geometry":{"type":"Polygon","coordinates":[[[19.970682,49.982164],[19.970712,49.982146],[19.970764,49.982182],[19.970734,49.9822],[19.970682,49.982164]]]}},{"type":"Feature","id":"w1050475326","properties":{"type":"outbuilding","levels":1.0,"residential":false,"residents_est":0,"h3_10":"8a1e05a6db87fff","h3_11":"8b1e05a6db81fff"},"geometry":{"type":"Polygon","coordinates":[[[19.97033,49.978765],[19.970367,49.978708],[19.970427,49.978724],[19.970391,49.978781],[19.97033,49.978765]]]}},{"type":"Feature","id":"w1050475334","properties":{"type":"outbuilding","levels":1.0,"residential":false,"residents_est":0,"h3_10":"8a1e05a6da47fff","h3_11":"8b1e05a6da41fff"},"geometry":{"type":"Polygon","coordinates":[[[19.980602,49.978669],[19.980667,49.978668],[19.980669,49.978735],[19.980603,49.978736],[19.980602,49.978669]]]}},{"type":"Feature","id":"w1050475339","properties":{"type":"outbuilding","levels":1.0,"residential":false,"residents_est":0,"h3_10":"8a1e05a6da47fff","h3_11":"8b1e05a6da44fff"},"geometry":{"type":"Polygon","coordinates":[[[19.979177,49.979161],[19.979266,49.979154],[19.979276,49.979203],[19.979187,49.97921],[19.979177,49.979161]]]}},{"type":"Feature","id":"w1050475380","properties":{"type":"outbuilding","levels":1.0,"residential":false,"residents_est":0,"h3_10":"8a1e05a6da07fff","h3_11":"8b1e05a6da00fff"},"geometry":{"type":"Polygon","coordinates":[[[19.974987,49.978967],[19.97502,49.978864],[19.975062,49.978869],[19.975029,49.978972],[19.974987,49.978967]]]}},{"type":"Feature","id":"w1050475386","properties":{"type":"outbuilding","levels":1.0,"residential":false,"residents_est":0,"h3_10":"8a1e05a6da07fff","h3_11":"8b1e05a6da00fff"},"geometry":{"type":"Polygon","coordinates":[[[19.975082,49.978889],[19.97511,49.978815],[19.975187,49.978828],[19.975158,49.978901],[19.975082,49.978889]]]}},{"type":"Feature","id":"w1050475388","properties":{"type":"outbuilding","levels":1.0,"residential":false,"residents_est":0,"h3_10":"8a1e05a6da6ffff","h3_11":"8b1e05a6da68fff"},"geometry":{"type":"Polygon","coordinates":[[[19.98102,49.979442],[19.981075,49.979431],[19.981106,49.979497],[19.981049,49.979509],[19.98102,49.979442]]]}},{"type":"Feature","id":"w1050475399","properties":{"type":"outbuilding","levels":1.0,"residential":false,"residents_est":0,"h3_10":"8a1e05a6da77fff","h3_11":"8b1e05a6da70fff"},"geometry":{"type":"Polygon","coordinates":[[[19.978073,49.979213],[19.978156,49.979212],[19.978157,49.979254],[19.978074,49.979255],[19.978073,49.979213]]]}},{"type":"Feature","id":"w1050475400","properties":{"type":"outbuilding","levels":1.0,"residential":false,"residents_est":0,"h3_10":"8a1e05a6da77fff","h3_11":"8b1e05a6da76fff"},"geometry":{"type":"Polygon","coordinates":[[[19.97712,49.979183],[19.977127,49.97912],[19.97719,49.979123],[19.977184,49.979185],[19.97712,49.979183]]]}},{"type":"Feature","id":"w1240983742","properties":{"type":"yes","residential":true,"residents_est":0,"h3_10":"8a1e05a6da67fff","h3_11":"8b1e05a6da66fff"},"geometry":{"type":"Polygon","coordinates":[[[19.978768,49.980036],[19.978904,49.980035],[19.978905,49.980083],[19.978839,49.980084],[19.978838,49.980074],[19.978768,49.980075],[19.978768,49.980036]]]}},{"type":"Feature","id":"w1240983743","properties":{"type":"yes","residential":true,"residents_est":0,"h3_10":"8a1e05a6da67fff","h3_11":"8b1e05a6da64fff"},"geometry":{"type":"Polygon","coordinates":[[[19.978855,49.980327],[19.978975,49.980314],[19.978988,49.980363],[19.978868,49.980377],[19.978855,49.980327]]]}},{"type":"Feature","id":"w1243987475","properties":{"type":"yes","address":"Golkowice 618","residential":true,"residents_est":0,"h3_10":"8a1e05a6da37fff","h3_11":"8b1e05a6da33fff"},"geometry":{"type":"Polygon","coordinates":[[[19.973603,49.978826],[19.973622,49.978756],[19.973714,49.978766],[19.973723,49.978732],[19.973823,49.978743],[19.973793,49.978856],[19.973645,49.978844],[19.973648,49.978831],[19.973603,49.978826]]]}},{"type":"Feature","id":"w1312812371","properties":{"type":"yes","residential":true,"residents_est":0,"h3_10":"8a1e05a6da5ffff","h3_11":"8b1e05a6da59fff"},"geometry":{"type":"Polygon","coordinates":[[[19.980686,49.977548],[19.980797,49.97754],[19.980812,49.977621],[19.9807,49.977629],[19.980686,49.977548]]]}}]}