{"type":"FeatureCollection","features":[{"type":"Feature","id":"w163428013","properties":{"type":"yes","residential":true,"residents_est":1,"h3_10":"8a1e2e6b2cf7fff","h3_11":"8b1e2e6b2cf6fff"},"geometry":{"type":"Polygon","coordinates":[[[19.88432,50.045505],[19.88436,50.045495],[19.884487,50.045703],[19.884447,50.045714],[19.88432,50.045505]]]}},{"type":"Feature","id":"w163428067","properties":{"type":"yes","residential":true,"residents_est":1,"h3_10":"8a1e2e6b2cf7fff","h3_11":"8b1e2e6b2cf6fff"},"geometry":{"type":"Polygon","coordinates":[[[19.884236,50.045368],[19.884246,50.045336],[19.884578,50.045378],[19.884569,50.045411],[19.884236,50.045368]]]}},{"type":"Feature","id":"w163428132","properties":{"type":"yes","residential":true,"residents_est":2,"h3_10":"8a1e2e6b2caffff","h3_11":"8b1e2e6b2ca9fff"},"geometry":{"type":"Polygon","coordinates":[[[19.883945,50.04591],[19.883957,50.045875],[19.884367,50.045931],[19.884356,50.045966],[19.883945,50.04591]]]}},{"type":"Feature","id":"w163428254","properties":{"type":"yes","residential":true,"residents_est":1,"h3_10":"8a1e2e6b2caffff","h3_11":"8b1e2e6b2ca9fff"},"geometry":{"type":"Polygon","coordinates":[[[19.883928,50.045964],[19.883937,50.045937],[19.88428,50.045983],[19.884271,50.04601],[19.883928,50.045964]]]}},{"type":"Feature","id":"w163428286","properties":{"type":"yes","residential":true,"residents_est":2,"h3_10":"8a1e2e6b2caffff","h3_11":"8b1e2e6b2ca9fff"},"geometry":{"type":"Polygon","coordinates":[[[19.88396,50.045846],[19.883971,50.045813],[19.884395,50.045871],[19.884384,50.045904],[19.88396,50.045846]]]}},{"type":"Feature","id":"w163428410","properties":{"type":"yes","residential":true,"residents_est":2,"h3_10":"8a1e2e6b2cf7fff","h3_11":"8b1e2e6b2cf6fff"},"geometry":{"type":"Polygon","coordinates":[[[19.884397,50.045485],[19.884449,50.045471],[19.884589,50.045683],[19.884537,50.045697],[19.884397,50.045485]]]}},{"type":"Feature","id":"w163428416","properties":{"type":"yes","residential":true,"residents_est":2,"h3_10":"8a1e2e6b2caffff","h3_11":"8b1e2e6b2ca9fff"},"geometry":{"type":"Polygon","coordinates":[[[19.883905,50.04602],[19.883916,50.04599],[19.884266,50.04604],[19.884255,50.04607],[19.883905,50.04602]]]}},{"type":"Feature","id":"w163428450","properties":{"type":"yes","residential":true,"residents_est":2,"h3_10":"8a1e2e6b2cf7fff","h3_11":"8b1e2e6b2cf6fff"},"geometry":{"type":"Polygon","coordinates":[[[19.88425,50.045307],[19.88426,50.045274],[19.884595,50.045317],[19.884584,50.04535],[19.88425,50.045307]]]}},{"type":"Feature","id":"w231919307","properties":{"type":"yes","address":"Rybna 3","residential":true,"residents_est":16,"h3_10":"8a1e2e6b2caffff","h3_11":"8b1e2e6b2caafff"},"geometry":{"type":"Polygon","coordinates":[[[19.883006,50.045687],[19.883073,50.045479],[19.883017,50.04547],[19.883057,50.045475],[19.883066,50.045448],[19.883026,50.045443],[19.883026,50.045441],[19.883083,50.045449],[19.883165,50.045187],[19.883111,50.04518],[19.883133,50.045182],[19.883142,50.045157],[19.883122,50.045152],[19.883322,50.045179],[19.883308,50.045179],[19.8833,50.045204],[19.883313,50.045207],[19.88326,50.0452],[19.883176,50.045461],[19.88323,50.045468],[19.883196,50.045467],[19.883188,50.045491],[19.88322,50.045497],[19.883167,50.04549],[19.8831,50.045699],[19.883006,50.045687]]]}},{"type":"Feature","id":"w231919310","properties":{"type":"yes","residential":true,"residents_est":12,"h3_10":"8a1e2e6b2caffff","h3_11":"8b1e2e6b2caefff"},"geometry":{"type":"Polygon","coordinates":[[[19.882582,50.045769],[19.882595,50.045769],[19.882655,50.045584],[19.882651,50.045609],[19.882895,50.045643],[19.882907,50.045619],[19.882846,50.045803],[19.882858,50.045807],[19.882761,50.045794],[19.882766,50.045778],[19.882687,50.045767],[19.882682,50.045783],[19.882582,50.045769]]]}},{"type":"Feature","id":"w231919317","properties":{"type":"yes","residential":true,"residents_est":2,"h3_10":"8a1e2e6b2c87fff","h3_11":"8b1e2e6b2c85fff"},"geometry":{"type":"Polygon","coordinates":[[[19.882414,50.045648],[19.882435,50.04558],[19.882639,50.045606],[19.882617,50.045675],[19.882414,50.045648]]]}},{"type":"Feature","id":"w231919321","properties":{"type":"yes","address":"Kamedulska 5","residential":true,"residents_est":10,"h3_10":"8a1e2e6b2c37fff","h3_11":"8b1e2e6b2c30fff"},"geometry":{"type":"Polygon","coordinates":[[[19.88254,50.048114],[19.882647,50.048072],[19.882752,50.048184],[19.882705,50.048202],[19.882803,50.048305],[19.882674,50.048354],[19.88258,50.048268],[19.882641,50.048242],[19.882541,50.048133],[19.882553,50.048129],[19.88254,50.048114]]]}},{"type":"Feature","id":"w231919394","properties":{"type":"yes","address":"Księcia Józefa 103","residential":true,"residents_est":3,"h3_10":"8a1e2e6b2c47fff","h3_11":"8b1e2e6b2c41fff"},"geometry":{"type":"Polygon","coordinates":[[[19.890137,50.04789],[19.890155,50.04779],[19.890242,50.047797],[19.89024,50.047802],[19.890393,50.047811],[19.890373,50.047908],[19.890137,50.04789]]]}},{"type":"Feature","id":"w231919399","properties":{"type":"yes","address":"Do Przystani 12a","residential":true,"residents_est":4,"h3_10":"8a1e2e6b2ccffff","h3_11":"8b1e2e6b2ccefff"},"geometry":{"type":"Polygon","coordinates":[[[19.888064,50.044776],[19.888071,50.044724],[19.888105,50.044726],[19.888111,50.04468],[19.888277,50.044689],[19.888258,50.044832],[19.888093,50.044823],[19.888099,50.044778],[19.888064,50.044776]]]}},{"type":"Feature","id":"w231919440","properties":{"type":"yes","address":"Kamedulska 11","residential":true,"residents_est":2,"h3_10":"8a1e2e6b2daffff","h3_11":"8b1e2e6b2dabfff"},"geometry":{"type":"Polygon","coordinates":[[[19.881237,50.048348],[19.881251,50.048248],[19.881258,50.048248],[19.881257,50.048255],[19.881317,50.048257],[19.881317,50.048251],[19.881423,50.048256],[19.881418,50.048314],[19.881387,50.048313],[19.881382,50.048355],[19.881237,50.048348]]]}},{"type":"Feature","id":"w231919444","properties":{"type":"yes","address":"Księcia Józefa 105a","residential":true,"residents_est":1,"h3_10":"8a1e2e6b2c47fff","h3_11":"8b1e2e6b2c40fff"},"geometry":{"type":"Polygon","coordinates":[[[19.889326,50.048009],[19.889335,50.047967],[19.889452,50.047979],[19.88945,50.047984],[19.889485,50.047989],[19.889473,50.048046],[19.889393,50.048039],[19.889397,50.048016],[19.889326,50.048009]]]}},{"type":"Feature","id":"w231919463","properties":{"type":"yes","address":"Do Przystani 12","residential":true,"residents_est":4,"h3_10":"8a1e2e6b2ccffff","h3_11":"8b1e2e6b2ccefff"},"geometry":{"type":"Polygon","coordinates":[[[19.888031,50.045027],[19.888038,50.044975],[19.888073,50.044977],[19.888078,50.044932],[19.888244,50.04494],[19.888226,50.045083],[19.88806,50.045074],[19.888066,50.045029],[19.888031,50.045027]]]}},{"type":"Feature","id":"w231919500","properties":{"type":"yes","address":"Kamedulska 30","residential":true,"residents_est":2,"h3_10":"8a1e2e6b2da7fff","h3_11":"8b1e2e6b2da2fff"},"geometry":{"type":"Polygon","coordinates":[[[19.878828,50.048443],[19.878984,50.048397],[19.879044,50.04848],[19.878995,50.048495],[19.879004,50.048507],[19.878961,50.048519],[19.878952,50.048507],[19.878923,50.048516],[19.878908,50.048494],[19.87887,50.048505],[19.878828,50.048443]]]}},{"type":"Feature","id":"w231919501","properties":{"type":"yes","residential":true,"residents_est":2,"h3_10":"8a1e2e6b2daffff","h3_11":"8b1e2e6b2dacfff"},"geometry":{"type":"Polygon","coordinates":[[[19.880585,50.048862],[19.880615,50.0488],[19.8808,50.048839],[19.880755,50.048932],[19.880673,50.048916],[19.88069,50.048882],[19.880585,50.048862]]]}},{"type":"Feature","id":"w231919519","properties":{"type":"yes","address":"Kamedulska 50","residential":true,"residents_est":3,"h3_10":"8a1e2e6b2db7fff","h3_11":"8b1e2e6b2db6fff"},"geometry":{"type":"Polygon","coordinates":[[[19.876846,50.048202],[19.876961,50.0481],[19.876987,50.048112],[19.877014,50.048088],[19.877078,50.048118],[19.876991,50.048196],[19.877001,50.048201],[19.876953,50.048244],[19.876901,50.048269],[19.87685,50.048226],[19.876864,50.048219],[19.876846,50.048202]]]}},{"type":"Feature","id":"w231919544","properties":{"type":"yes","address":"Księcia Józefa 129","residential":true,"residents_est":13,"h3_10":"8a1e2e6b2d97fff","h3_11":"8b1e2e6b2d95fff"},"geometry":{"type":"Polygon","coordinates":[[[19.878541,50.0475],[19.878597,50.047335],[19.878617,50.047338],[19.878636,50.047285],[19.878768,50.047303],[19.87875,50.047357],[19.878773,50.04736],[19.87876,50.047398],[19.878838,50.04741],[19.87881,50.047495],[19.878728,50.047484],[19.878714,50.047525],[19.878541,50.0475]]]}},{"type":"Feature","id":"w231919561","properties":{"type":"yes","residential":true,"residents_est":3,"h3_10":"8a1e2e6b2ccffff","h3_11":"8b1e2e6b2ccefff"},"geometry":{"type":"Polygon","coordinates":[[[19.887856,50.044945],[19.887859,50.044871],[19.888137,50.044881],[19.88813,50.044934],[19.888078,50.044932],[19.888073,50.044977],[19.888038,50.044975],[19.888037,50.044953],[19.888001,50.044946],[19.887895,50.044956],[19.887856,50.044945]]]}},{"type":"Feature","id":"w231919570","properties":{"type":"yes","address":"Księcia Józefa 109A","residential":true,"residents_est":2,"h3_10":"8a1e2e6b2c77fff","h3_11":"8b1e2e6b2c70fff"},"geometry":{"type":"Polygon","coordinates":[[[19.887617,50.048062],[19.887627,50.048033],[19.887619,50.048032],[19.887654,50.047946],[19.887784,50.047967],[19.887751,50.048051],[19.887737,50.048049],[19.887729,50.048074],[19.887739,50.048077],[19.887653,50.048063],[19.887648,50.048075],[19.887617,50.048062]]]}},{"type":"Feature","id":"w231919572","properties":{"type":"yes","residential":true,"residents_est":3,"h3_10":"8a1e2e6b2cf7fff","h3_11":"8b1e2e6b2cf4fff"},"geometry":{"type":"Polygon","coordinates":[[[19.884462,50.046129],[19.884463,50.046123],[19.88447,50.046124],[19.884554,50.045864],[19.884546,50.045859],[19.884649,50.045871],[19.884641,50.045875],[19.884558,50.046135],[19.884565,50.046136],[19.884563,50.046143],[19.884462,50.046129]]]}},{"type":"Feature","id":"w231919578","properties":{"type":"yes","address":"Kamedulska 21","residential":true,"residents_est":4,"h3_10":"8a1e2e6b2da7fff","h3_11":"8b1e2e6b2da3fff"},"geometry":{"type":"Polygon","coordinates":[[[19.879229,50.048596],[19.879251,50.048595],[19.879247,50.048547],[19.879375,50.048543],[19.879379,50.04859],[19.879406,50.048589],[19.879411,50.048645],[19.879386,50.048646],[19.879393,50.048744],[19.879265,50.048749],[19.879257,50.04865],[19.879233,50.048651],[19.879229,50.048596]]]}},{"type":"Feature","id":"w231919586","properties":{"type":"yes","address":"Księcia Józefa 123b","residential":true,"residents_est":3,"h3_10":"8a1e2e6b2c17fff","h3_11":"8b1e2e6b2c16fff"},"geometry":{"type":"Polygon","coordinates":[[[19.882063,50.046856],[19.88216,50.046744],[19.882195,50.046753],[19.882187,50.04677],[19.882294,50.04681],[19.882217,50.046896],[19.882104,50.046852],[19.88209,50.046867],[19.882063,50.046856]]]}},{"type":"Feature","id":"w231919646","properties":{"type":"yes","address":"Księcia Józefa 95","residential":true,"residents_est":2,"h3_10":"8a1e2e6b2c4ffff","h3_11":"8b1e2e6b2c4dfff"},"geometry":{"type":"Polygon","coordinates":[[[19.891612,50.047946],[19.89163,50.047839],[19.891764,50.047851],[19.891762,50.047862],[19.891804,50.047866],[19.891794,50.047909],[19.891754,50.047904],[19.891748,50.047933],[19.891644,50.047923],[19.891641,50.04794],[19.891663,50.047942],[19.891662,50.047949],[19.891612,50.047946]]]}},{"type":"Feature","id":"w231919657","properties":{"type":"yes","residential":true,"residents_est":25,"h3_10":"8a1e2e6b2c57fff","h3_11":"8b1e2e6b2c51fff"},"geometry":{"type":"Polygon","coordinates":[[[19.888226,50.047088],[19.888361,50.047057],[19.888356,50.047046],[19.888641,50.046981],[19.888645,50.046986],[19.889081,50.0469],[19.889078,50.046893],[19.889226,50.046865],[19.889205,50.046978],[19.889117,50.046965],[19.889125,50.046981],[19.888677,50.04707],[19.888679,50.047076],[19.888376,50.047143],[19.888365,50.047124],[19.888258,50.047148],[19.888226,50.047088]]]}},{"type":"Feature","id":"w231919661","properties":{"type":"yes","address":"Księcia Józefa 131","residential":true,"residents_est":3,"h3_10":"8a1e2e6b2d97fff","h3_11":"8b1e2e6b2d95fff"},"geometry":{"type":"Polygon","coordinates":[[[19.877916,50.047498],[19.877965,50.04735],[19.878012,50.047356],[19.878,50.047395],[19.878104,50.047408],[19.878096,50.047435],[19.878155,50.047443],[19.878138,50.047496],[19.878077,50.047488],[19.878075,50.047494],[19.878051,50.047491],[19.878043,50.047516],[19.877916,50.047498]]]}},{"type":"Feature","id":"w231919668","properties":{"type":"yes","residential":true,"residents_est":35,"h3_10":"8a1e2e6b2c5ffff","h3_11":"8b1e2e6b2c5cfff"},"geometry":{"type":"Polygon","coordinates":[[[19.889147,50.047248],[19.889184,50.047027],[19.889196,50.047028],[19.889227,50.046863],[19.889565,50.046891],[19.889515,50.04717],[19.889522,50.047171],[19.889515,50.047199],[19.88942,50.047191],[19.889411,50.047239],[19.889343,50.047234],[19.889376,50.04704],[19.889363,50.047039],[19.889325,50.04726],[19.889147,50.047248]]]}},{"type":"Feature","id":"w231919710","properties":{"type":"yes","residential":false,"residents_est":0,"h3_10":"8a1e2e6b2c77fff","h3_11":"8b1e2e6b2c70fff"},"geometry":{"type":"Polygon","coordinates":[[[19.887467,50.048201],[19.887494,50.048131],[19.88755,50.04814],[19.887521,50.04821],[19.887467,50.048201]]]}},{"type":"Feature","id":"w231919714","properties":{"type":"yes","address":"Kamedulska 17","residential":true,"residents_est":2,"h3_10":"8a1e2e6b2daffff","h3_11":"8b1e2e6b2daefff"},"geometry":{"type":"Polygon","coordinates":[[[19.880149,50.048611],[19.880186,50.048541],[19.880269,50.048559],[19.880278,50.048542],[19.880338,50.048555],[19.880329,50.048572],[19.880369,50.048581],[19.880332,50.04865],[19.880291,50.048641],[19.880284,50.048655],[19.880225,50.048642],[19.880232,50.048629],[19.880149,50.048611]]]}},{"type":"Feature","id":"w231919761","properties":{"type":"yes","address":"Kamedulska 26","residential":true,"residents_est":3,"h3_10":"8a1e2e6b2d87fff","h3_11":"8b1e2e6b2d80fff"},"geometry":{"type":"Polygon","coordinates":[[[19.879396,50.047847],[19.879436,50.04784],[19.879432,50.047829],[19.879445,50.047817],[19.879474,50.047813],[19.879492,50.047821],[19.8796,50.047801],[19.879634,50.047889],[19.879504,50.047911],[19.87951,50.047921],[19.879473,50.047928],[19.879468,50.047916],[19.879427,50.047923],[19.879396,50.047847]]]}},{"type":"Feature","id":"w231919795","properties":{"type":"yes","address":"Kamedulska 18","residential":true,"residents_est":4,"h3_10":"8a1e2e6b2d8ffff","h3_11":"8b1e2e6b2d8cfff"},"geometry":{"type":"Polygon","coordinates":[[[19.880889,50.047526],[19.881089,50.047498],[19.881095,50.047501],[19.881124,50.047605],[19.88108,50.04761],[19.881086,50.047629],[19.881047,50.047633],[19.881042,50.047615],[19.881007,50.047619],[19.881012,50.047638],[19.880974,50.047642],[19.880969,50.047624],[19.880917,50.04763],[19.880889,50.047526]]]}},{"type":"Feature","id":"w231919802","properties":{"type":"yes","address":"Księcia Józefa 54A","residential":true,"residents_est":40,"h3_10":"8a1e2e6b2c47fff","h3_11":"8b1e2e6b2c42fff"},"geometry":{"type":"Polygon","coordinates":[[[19.888298,50.047219],[19.888458,50.047184],[19.888509,50.047277],[19.888527,50.047278],[19.888521,50.0473],[19.889219,50.047343],[19.889201,50.047493],[19.888422,50.047447],[19.888298,50.047219]]]}},{"type":"Feature","id":"w231919903","properties":{"type":"yes","address":"Księcia Józefa 84","residential":true,"residents_est":4,"h3_10":"8a1e2e6b2ca7fff","h3_11":"8b1e2e6b2ca1fff"},"geometry":{"type":"Polygon","coordinates":[[[19.88204,50.046216],[19.882054,50.0462],[19.882157,50.046239],[19.882151,50.046247],[19.882217,50.046272],[19.882224,50.046264],[19.882399,50.046329],[19.882334,50.046401],[19.882104,50.046315],[19.88208,50.046334],[19.88204,50.046327],[19.882086,50.046225],[19.88204,50.046216]]]}},{"type":"Feature","id":"w231919946","properties":{"type":"yes","residential":true,"residents_est":2,"h3_10":"8a1e2e6b2c87fff","h3_11":"8b1e2e6b2c81fff"},"geometry":{"type":"Polygon","coordinates":[[[19.882703,50.045128],[19.882711,50.045094],[19.883067,50.045132],[19.883058,50.045166],[19.882703,50.045128]]]}},{"type":"Feature","id":"w231919950","properties":{"type":"yes","address":"Rybna 5","residential":true,"residents_est":2,"h3_10":"8a1e2e6b2c9ffff","h3_11":"8b1e2e6b2c9dfff"},"geometry":{"type":"Polygon","coordinates":[[[19.882646,50.044439],[19.882752,50.044436],[19.882759,50.044542],[19.882653,50.044545],[19.882646,50.044439]]]}},{"type":"Feature","id":"w231919978","properties":{"type":"yes","residential":true,"residents_est":3,"h3_10":"8a1e2e6b2c4ffff","h3_11":"8b1e2e6b2c49fff"},"geometry":{"type":"Polygon","coordinates":[[[19.891584,50.047561],[19.891605,50.04742],[19.891742,50.047426],[19.891726,50.047566],[19.891584,50.047561]]]}},{"type":"Feature","id":"w231919988","properties":{"type":"yes","residential":true,"residents_est":3,"h3_10":"8a1e2e6b2d97fff","h3_11":"8b1e2e6b2d93fff"},"geometry":{"type":"Polygon","coordinates":[[[19.878571,50.046718],[19.878587,50.046633],[19.87886,50.046655],[19.878844,50.04674],[19.878571,50.046718]]]}},{"type":"Feature","id":"w231919999","properties":{"type":"yes","address":"Księcia Józefa 113","residential":true,"residents_est":2,"h3_10":"8a1e2e6b2c77fff","h3_11":"8b1e2e6b2c72fff"},"geometry":{"type":"Polygon","coordinates":[[[19.887333,50.047985],[19.887365,50.047907],[19.8875,50.047928],[19.88747,50.048006],[19.887333,50.047985]]]}},{"type":"Feature","id":"w231920015","properties":{"type":"yes","address":"Księcia Józefa 109","residential":true,"residents_est":2,"h3_10":"8a1e2e6b2c77fff","h3_11":"8b1e2e6b2c71fff"},"geometry":{"type":"Polygon","coordinates":[[[19.887931,50.048071],[19.88796,50.047995],[19.888128,50.048023],[19.888088,50.048124],[19.888015,50.048112],[19.888017,50.048106],[19.887988,50.048101],[19.887995,50.048082],[19.887931,50.048071]]]}},{"type":"Feature","id":"w231920016","properties":{"type":"yes","address":"Kamedulska 24","residential":true,"residents_est":2,"h3_10":"8a1e2e6b2d87fff","h3_11":"8b1e2e6b2d81fff"},"geometry":{"type":"Polygon","coordinates":[[[19.880232,50.047687],[19.880253,50.047579],[19.880384,50.04759],[19.880363,50.047698],[19.880232,50.047687]]]}},{"type":"Feature","id":"w231920023","properties":{"type":"yes","residential":false,"residents_est":0,"h3_10":"8a1e2e6b2ccffff","h3_11":"8b1e2e6b2ccefff"},"geometry":{"type":"Polygon","coordinates":[[[19.88813,50.044934],[19.888137,50.044881],[19.888231,50.044886],[19.888224,50.044939],[19.88813,50.044934]]]}},{"type":"Feature","id":"w231920039","properties":{"type":"yes","residential":true,"residents_est":1,"h3_10":"8a1e2e6b2c4ffff","h3_11":"8b1e2e6b2c4afff"},"geometry":{"type":"Polygon","coordinates":[[[19.890731,50.047097],[19.890738,50.047047],[19.890858,50.047054],[19.890851,50.047104],[19.890731,50.047097]]]}},{"type":"Feature","id":"w231920058","properties":{"type":"yes","address":"Kamedulska 22","residential":true,"residents_est":2,"h3_10":"8a1e2e6b2d8ffff","h3_11":"8b1e2e6b2d8cfff"},"geometry":{"type":"Polygon","coordinates":[[[19.880554,50.047564],[19.880677,50.047549],[19.880706,50.047647],[19.880583,50.047662],[19.880554,50.047564]]]}},{"type":"Feature","id":"w231920078","properties":{"type":"yes","residential":false,"residents_est":0,"h3_10":"8a1e2e6b2c37fff","h3_11":"8b1e2e6b2c33fff"},"geometry":{"type":"Polygon","coordinates":[[[19.882742,50.047562],[19.88279,50.047555],[19.882815,50.047624],[19.882769,50.047632],[19.882742,50.047562]]]}},{"type":"Feature","id":"w231920080","properties":{"type":"yes","residential":false,"residents_est":0,"h3_10":"8a1e2e6b2c37fff","h3_11":"8b1e2e6b2c30fff"},"geometry":{"type":"Polygon","coordinates":[[[19.882949,50.048018],[19.88306,50.047999],[19.883074,50.048038],[19.882964,50.048056],[19.882949,50.048018]]]}},{"type":"Feature","id":"w231920088","properties":{"type":"yes","residential":false,"residents_est":0,"h3_10":"8a1e2e6b2ceffff","h3_11":"8b1e2e6b2ceafff"},"geometry":{"type":"Polygon","coordinates":[[[19.887614,50.045727],[19.887616,50.045683],[19.887726,50.045685],[19.887725,50.045729],[19.887614,50.045727]]]}},{"type":"Feature","id":"w231920113","properties":{"type":"yes","residential":true,"residents_est":0,"h3_10":"8a1e2e6b2c2ffff","h3_11":"8b1e2e6b2c2afff"},"geometry":{"type":"Polygon","coordinates":[[[19.885226,50.048151],[19.885329,50.048118],[19.885362,50.048161],[19.88526,50.048194],[19.885226,50.048151]]]}},{"type":"Feature","id":"w231920154","properties":{"type":"yes","residential":true,"residents_est":1,"h3_10":"8a1e2e6b2db7fff","h3_11":"8b1e2e6b2db4fff"},"geometry":{"type":"Polygon","coordinates":[[[19.877566,50.048455],[19.877621,50.048377],[19.877695,50.048398],[19.877641,50.048477],[19.877566,50.048455]]]}},{"type":"Feature","id":"w231920157","properties":{"type":"yes","residential":true,"residents_est":2,"h3_10":"8a1e2e6b2c37fff","h3_11":"8b1e2e6b2c33fff"},"geometry":{"type":"Polygon","coordinates":[[[19.882904,50.047897],[19.883171,50.047853],[19.883188,50.047899],[19.88292,50.047941],[19.882904,50.047897]]]}},{"type":"Feature","id":"w231920174","properties":{"type":"yes","residential":false,"residents_est":0,"h3_10":"8a1e2e6b2c27fff","h3_11":"8b1e2e6b2c20fff"},"geometry":{"type":"Polygon","coordinates":[[[19.88395,50.048619],[19.884011,50.04861],[19.884038,50.048684],[19.883976,50.048693],[19.88395,50.048619]]]}},{"type":"Feature","id":"w231920181","properties":{"type":"yes","address":"Rybna 8","residential":true,"residents_est":1,"h3_10":"8a1e2e6b2c97fff","h3_11":"8b1e2e6b2c90fff"},"geometry":{"type":"Polygon","coordinates":[[[19.880559,50.04446],[19.880595,50.044386],[19.880686,50.044406],[19.880651,50.044478],[19.880559,50.04446]]]}},{"type":"Feature","id":"w231920192","properties":{"type":"yes","residential":true,"residents_est":3,"h3_10":"8a1e2e6b2c27fff","h3_11":"8b1e2e6b2c22fff"},"geometry":{"type":"Polygon","coordinates":[[[19.88367,50.04831],[19.883755,50.048297],[19.883851,50.048553],[19.883765,50.048566],[19.88367,50.04831]]]}},{"type":"Feature","id":"w231920236","properties":{"type":"yes","residential":false,"residents_est":0,"h3_10":"8a1e2e6b2d97fff","h3_11":"8b1e2e6b2d95fff"},"geometry":{"type":"Polygon","coordinates":[[[19.878,50.047395],[19.878012,50.047356],[19.878115,50.047369],[19.878104,50.047408],[19.878,50.047395]]]}},{"type":"Feature","id":"w231920247","properties":{"type":"yes","address":"Kamedulska 19a","residential":true,"residents_est":1,"h3_10":"8a1e2e6b2da7fff","h3_11":"8b1e2e6b2da1fff"},"geometry":{"type":"Polygon","coordinates":[[[19.879981,50.048774],[19.879988,50.048699],[19.88014,50.048705],[19.880133,50.04878],[19.879981,50.048774]]]}},{"type":"Feature","id":"w231920248","properties":{"type":"yes","residential":false,"residents_est":0,"h3_10":"8a1e2e6b2ceffff","h3_11":"8b1e2e6b2cedfff"},"geometry":{"type":"Polygon","coordinates":[[[19.888621,50.046322],[19.888671,50.046277],[19.888743,50.04631],[19.888694,50.046355],[19.888621,50.046322]]]}},{"type":"Feature","id":"w231920261","properties":{"type":"yes","residential":true,"residents_est":0,"h3_10":"8a1e2e6b2cdffff","h3_11":"8b1e2e6b2cdbfff"},"geometry":{"type":"Polygon","coordinates":[[[19.887297,50.043678],[19.887302,50.043621],[19.887394,50.043624],[19.887389,50.043681],[19.887297,50.043678]]]}},{"type":"Feature","id":"w231920266","properties":{"type":"yes","residential":true,"residents_est":4,"h3_10":"8a1e2e6b2c4ffff","h3_11":"8b1e2e6b2c4afff"},"geometry":{"type":"Polygon","coordinates":[[[19.890434,50.04725],[19.890478,50.047019],[19.890595,50.047027],[19.890557,50.047255],[19.890434,50.04725]]]}},{"type":"Feature","id":"w231920287","properties":{"type":"yes","residential":true,"residents_est":0,"h3_10":"8a1e2e6b2c0ffff","h3_11":"8b1e2e6b2c0cfff"},"geometry":{"type":"Polygon","coordinates":[[[19.885618,50.047619],[19.885715,50.047594],[19.885758,50.047637],[19.885658,50.047664],[19.885618,50.047619]]]}},{"type":"Feature","id":"w231920295","properties":{"type":"yes","address":"Kamedulska 32","residential":true,"residents_est":2,"h3_10":"8a1e2e6b2da7fff","h3_11":"8b1e2e6b2da2fff"},"geometry":{"type":"Polygon","coordinates":[[[19.878577,50.04851],[19.878713,50.04847],[19.878777,50.048559],[19.878639,50.048598],[19.878577,50.04851]]]}},{"type":"Feature","id":"w231920303","properties":{"type":"yes","residential":false,"residents_est":0,"h3_10":"8a1e2e6b2c27fff","h3_11":"8b1e2e6b2c22fff"},"geometry":{"type":"Polygon","coordinates":[[[19.883893,50.048627],[19.88395,50.048619],[19.883976,50.048693],[19.883919,50.048701],[19.883893,50.048627]]]}},{"type":"Feature","id":"w231920322","properties":{"type":"yes","residential":true,"residents_est":1,"h3_10":"8a1e2e6b2ceffff","h3_11":"8b1e2e6b2cecfff"},"geometry":{"type":"Polygon","coordinates":[[[19.887885,50.046189],[19.887891,50.046111],[19.888016,50.046115],[19.88801,50.046193],[19.887885,50.046189]]]}},{"type":"Feature","id":"w231920331","properties":{"type":"detached","residential":true,"residents_est":3,"h3_10":"8a1e2e6b2c17fff","h3_11":"8b1e2e6b2c12fff"},"geometry":{"type":"Polygon","coordinates":[[[19.882379,50.046565],[19.882428,50.046514],[19.882557,50.046565],[19.882509,50.046616],[19.882379,50.046565]]]}},{"type":"Feature","id":"w231920333","properties":{"type":"yes","residential":true,"residents_est":1,"h3_10":"8a1e2e6b2cc7fff","h3_11":"8b1e2e6b2cc1fff"},"geometry":{"type":"Polygon","coordinates":[[[19.887342,50.045103],[19.887352,50.045043],[19.887525,50.045053],[19.887518,50.045113],[19.887342,50.045103]]]}},{"type":"Feature","id":"w231920355","properties":{"type":"yes","residential":true,"residents_est":1,"h3_10":"8a1e2e6b2c97fff","h3_11":"8b1e2e6b2c91fff"},"geometry":{"type":"Polygon","coordinates":[[[19.880991,50.044571],[19.881033,50.044472],[19.881104,50.044485],[19.881062,50.044584],[19.880991,50.044571]]]}},{"type":"Feature","id":"w231920358","properties":{"type":"yes","residential":false,"residents_est":0,"h3_10":"8a1e2e6b2c37fff","h3_11":"8b1e2e6b2c31fff"},"geometry":{"type":"Polygon","coordinates":[[[19.883192,50.048092],[19.88329,50.048077],[19.883305,50.048123],[19.883207,50.048137],[19.883192,50.048092]]]}},{"type":"Feature","id":"w231920382","properties":{"type":"yes","residential":true,"residents_est":18,"h3_10":"8a1e2e6b2c4ffff","h3_11":"8b1e2e6b2c48fff"},"geometry":{"type":"Polygon","coordinates":[[[19.891321,50.047551],[19.891361,50.047093],[19.891502,50.047099],[19.891459,50.047555],[19.891321,50.047551]]]}},{"type":"Feature","id":"w231920400","properties":{"type":"yes","residential":true,"residents_est":1,"h3_10":"8a1e2e6b2c9ffff","h3_11":"8b1e2e6b2c9afff"},"geometry":{"type":"Polygon","coordinates":[[[19.881739,50.043625],[19.881809,50.043621],[19.88182,50.04371],[19.88175,50.043714],[19.881739,50.043625]]]}},{"type":"Feature","id":"w231920406","properties":{"type":"yes","address":"Kamedulska 4","residential":true,"residents_est":2,"h3_10":"8a1e2e6b2c17fff","h3_11":"8b1e2e6b2c15fff"},"geometry":{"type":"Polygon","coordinates":[[[19.883104,50.047476],[19.883235,50.047469],[19.883245,50.04755],[19.883115,50.047556],[19.883104,50.047476]]]}},{"type":"Feature","id":"w231920412","properties":{"type":"yes","address":"Rybna 14","residential":true,"residents_est":3,"h3_10":"8a1e2e6b2c9ffff","h3_11":"8b1e2e6b2c9efff"},"geometry":{"type":"Polygon","coordinates":[[[19.881589,50.043998],[19.881673,50.043899],[19.881828,50.043954],[19.881744,50.044054],[19.881589,50.043998]]]}},{"type":"Feature","id":"w231920510","properties":{"type":"yes","residential":true,"residents_est":1,"h3_10":"8a1e2e6b2db7fff","h3_11":"8b1e2e6b2db0fff"},"geometry":{"type":"Polygon","coordinates":[[[19.877655,50.048301],[19.877709,50.04825],[19.877801,50.048291],[19.877747,50.048342],[19.877655,50.048301]]]}},{"type":"Feature","id":"w231920527","properties":{"type":"yes","residential":true,"residents_est":1,"h3_10":"8a1e2e6b2ccffff","h3_11":"8b1e2e6b2ccefff"},"geometry":{"type":"Polygon","coordinates":[[[19.888137,50.044881],[19.888144,50.044826],[19.888238,50.044831],[19.888231,50.044886],[19.888137,50.044881]]]}},{"type":"Feature","id":"w231920550","properties":{"type":"yes","address":"Kamedulska 50a","residential":true,"residents_est":3,"h3_10":"8a1e2e6b2db7fff","h3_11":"8b1e2e6b2db2fff"},"geometry":{"type":"Polygon","coordinates":[[[19.877181,50.047846],[19.877319,50.047734],[19.877414,50.047782],[19.877277,50.047895],[19.877181,50.047846]]]}},{"type":"Feature","id":"w231920570","properties":{"type":"yes","residential":true,"residents_est":1,"h3_10":"8a1e2e6b2c57fff","h3_11":"8b1e2e6b2c51fff"},"geometry":{"type":"Polygon","coordinates":[[[19.8888,50.047078],[19.888957,50.047044],[19.888983,50.047093],[19.888827,50.047128],[19.8888,50.047078]]]}},{"type":"Feature","id":"w231920588","properties":{"type":"yes","residential":false,"residents_est":0,"h3_10":"8a1e2e6b2d2ffff","h3_11":"8b1e2e6b2d2dfff"},"geometry":{"type":"Polygon","coordinates":[[[19.884019,50.051394],[19.884035,50.05136],[19.884093,50.051372],[19.884076,50.051406],[19.884019,50.051394]]]}},{"type":"Feature","id":"w231920597","properties":{"type":"yes","residential":true,"residents_est":4,"h3_10":"8a1e2e6b2c27fff","h3_11":"8b1e2e6b2c22fff"},"geometry":{"type":"Polygon","coordinates":[[[19.883779,50.048311],[19.883893,50.048293],[19.883984,50.048533],[19.883869,50.04855],[19.883779,50.048311]]]}},{"type":"Feature","id":"w231920632","properties":{"type":"yes","residential":true,"residents_est":1,"h3_10":"8a1e2e6b2c4ffff","h3_11":"8b1e2e6b2c48fff"},"geometry":{"type":"Polygon","coordinates":[[[19.891144,50.047216],[19.891154,50.047147],[19.891237,50.047152],[19.891228,50.047221],[19.891144,50.047216]]]}},{"type":"Feature","id":"w231920675","properties":{"type":"yes","residential":true,"residents_est":1,"h3_10":"8a1e2e6b2ca7fff","h3_11":"8b1e2e6b2ca5fff"},"geometry":{"type":"Polygon","coordinates":[[[19.881784,50.046647],[19.881826,50.046584],[19.881904,50.046608],[19.881861,50.046671],[19.881784,50.046647]]]}},{"type":"Feature","id":"w231920680","properties":{"type":"yes","residential":false,"residents_est":0,"h3_10":"8a1e2e6b2c9ffff","h3_11":"8b1e2e6b2c99fff"},"geometry":{"type":"Polygon","coordinates":[[[19.882866,50.043969],[19.882873,50.043929],[19.882989,50.043938],[19.882983,50.043978],[19.882866,50.043969]]]}},{"type":"Feature","id":"w231920689","properties":{"type":"yes","residential":false,"residents_est":0,"h3_10":"8a1e2e6b2ccffff","h3_11":"8b1e2e6b2cc9fff"},"geometry":{"type":"Polygon","coordinates":[[[19.888956,50.044813],[19.889037,50.044792],[19.889068,50.044843],[19.888988,50.044864],[19.888956,50.044813]]]}},{"type":"Feature","id":"w231920701","properties":{"type":"yes","residential":true,"residents_est":1,"h3_10":"8a1e2e6b2d8ffff","h3_11":"8b1e2e6b2d88fff"},"geometry":{"type":"Polygon","coordinates":[[[19.880853,50.047317],[19.880989,50.047309],[19.880996,50.047362],[19.88086,50.047369],[19.880853,50.047317]]]}},{"type":"Feature","id":"w231920716","properties":{"type":"yes","address":"Kamedulska 44","residential":true,"residents_est":2,"h3_10":"8a1e2e6b2db7fff","h3_11":"8b1e2e6b2db5fff"},"geometry":{"type":"Polygon","coordinates":[[[19.877641,50.048477],[19.877695,50.048398],[19.877844,50.048441],[19.877787,50.048521],[19.877641,50.048477]]]}},{"type":"Feature","id":"w231920718","properties":{"type":"yes","residential":true,"residents_est":1,"h3_10":"8a1e2e6b2d87fff","h3_11":"8b1e2e6b2d80fff"},"geometry":{"type":"Polygon","coordinates":[[[19.879531,50.047906],[19.879623,50.047891],[19.879649,50.04796],[19.879559,50.047975],[19.879531,50.047906]]]}},{"type":"Feature","id":"w231920746","properties":{"type":"yes","address":"Kamedulska 2","residential":true,"residents_est":2,"h3_10":"8a1e2e6b2c17fff","h3_11":"8b1e2e6b2c15fff"},"geometry":{"type":"Polygon","coordinates":[[[19.883536,50.047438],[19.883669,50.04743],[19.883688,50.047521],[19.88356,50.047532],[19.883536,50.047438]]]}},{"type":"Feature","id":"w231920774","properties":{"type":"yes","residential":true,"residents_est":1,"h3_10":"8a1e2e6b2db7fff","h3_11":"8b1e2e6b2db6fff"},"geometry":{"type":"Polygon","coordinates":[[[19.877231,50.048217],[19.877306,50.048148],[19.877368,50.048176],[19.877292,50.048245],[19.877231,50.048217]]]}},{"type":"Feature","id":"w231920777","properties":{"type":"yes","address":"Kamedulska 8","residential":true,"residents_est":2,"h3_10":"8a1e2e6b2c37fff","h3_11":"8b1e2e6b2c32fff"},"geometry":{"type":"Polygon","coordinates":[[[19.882158,50.047668],[19.882286,50.047657],[19.88231,50.047759],[19.882181,50.047771],[19.882158,50.047668]]]}},{"type":"Feature","id":"w231920798","properties":{"type":"yes","residential":false,"residents_est":0,"h3_10":"8a1e2e6b2c9ffff","h3_11":"8b1e2e6b2c9dfff"},"geometry":{"type":"Polygon","coordinates":[[[19.88235,50.044315],[19.882444,50.044314],[19.882445,50.044365],[19.882351,50.044366],[19.88235,50.044315]]]}},{"type":"Feature","id":"w231920802","properties":{"type":"yes","residential":false,"residents_est":0,"h3_10":"8a1e2e6b2c47fff","h3_11":"8b1e2e6b2c41fff"},"geometry":{"type":"Polygon","coordinates":[[[19.89008,50.047845],[19.89009,50.047788],[19.890155,50.047792],[19.890144,50.04785],[19.89008,50.047845]]]}},{"type":"Feature","id":"w231920809","properties":{"type":"yes","address":"Kamedulska 19","residential":true,"residents_est":2,"h3_10":"8a1e2e6b2da7fff","h3_11":"8b1e2e6b2da1fff"},"geometry":{"type":"Polygon","coordinates":[[[19.879708,50.048654],[19.879717,50.048572],[19.879862,50.048578],[19.879855,50.04866],[19.879708,50.048654]]]}},{"type":"Feature","id":"w231920810","properties":{"type":"yes","residential":true,"residents_est":1,"h3_10":"8a1e2e6b2ce7fff","h3_11":"8b1e2e6b2ce1fff"},"geometry":{"type":"Polygon","coordinates":[[[19.887268,50.046313],[19.887268,50.046242],[19.887349,50.046242],[19.887348,50.046313],[19.887268,50.046313]]]}},{"type":"Feature","id":"w231920815","properties":{"type":"yes","address":"Kamedulska 15a","residential":true,"residents_est":1,"h3_10":"8a1e2e6b2d1ffff","h3_11":"8b1e2e6b2d1afff"},"geometry":{"type":"Polygon","coordinates":[[[19.881936,50.048901],[19.881952,50.048825],[19.882076,50.048835],[19.882061,50.048912],[19.881936,50.048901]]]}},{"type":"Feature","id":"w231920839","properties":{"type":"yes","residential":true,"residents_est":12,"h3_10":"8a1e2e6b2c4ffff","h3_11":"8b1e2e6b2c49fff"},"geometry":{"type":"Polygon","coordinates":[[[19.8916,50.04742],[19.891645,50.047112],[19.891782,50.047122],[19.891742,50.047426],[19.8916,50.04742]]]}},{"type":"Feature","id":"w231920852","properties":{"type":"yes","residential":true,"residents_est":2,"h3_10":"8a1e2e6b2c9ffff","h3_11":"8b1e2e6b2c99fff"},"geometry":{"type":"Polygon","coordinates":[[[19.882696,50.043959],[19.882706,50.043874],[19.882833,50.043881],[19.882819,50.043967],[19.882696,50.043959]]]}},{"type":"Feature","id":"w231920857","properties":{"type":"yes","residential":true,"residents_est":1,"h3_10":"8a1e2e6b2c4ffff","h3_11":"8b1e2e6b2c4afff"},"geometry":{"type":"Polygon","coordinates":[[[19.890851,50.047104],[19.890859,50.047052],[19.89104,50.047063],[19.891032,50.047115],[19.890851,50.047104]]]}},{"type":"Feature","id":"w231920894","properties":{"type":"yes","address":"Kamedulska 15","residential":true,"residents_est":2,"h3_10":"8a1e2e6b2daffff","h3_11":"8b1e2e6b2dacfff"},"geometry":{"type":"Polygon","coordinates":[[[19.880655,50.048808],[19.880692,50.048731],[19.880837,50.048759],[19.8808,50.048839],[19.880655,50.048808]]]}},{"type":"Feature","id":"w231920917","properties":{"type":"yes","address":"Księcia Józefa 121","residential":true,"residents_est":1,"h3_10":"8a1e2e6b2c17fff","h3_11":"8b1e2e6b2c15fff"},"geometry":{"type":"Polygon","coordinates":[[[19.882916,50.047317],[19.882956,50.047313],[19.882961,50.04733],[19.883022,50.047324],[19.88302,50.04731],[19.883051,50.047308],[19.883053,50.047322],[19.883132,50.047316],[19.883139,50.047358],[19.882932,50.047373],[19.882916,50.047317]]]}},{"type":"Feature","id":"w231920933","properties":{"type":"yes","address":"Kamedulska 48","residential":true,"residents_est":2,"h3_10":"8a1e2e6b2db7fff","h3_11":"8b1e2e6b2db4fff"},"geometry":{"type":"Polygon","coordinates":[[[19.876943,50.048337],[19.876995,50.04826],[19.877151,50.048302],[19.877099,50.048379],[19.876943,50.048337]]]}},{"type":"Feature","id":"w231920945","properties":{"type":"yes","address":"Rybna 7","residential":true,"residents_est":2,"h3_10":"8a1e2e6b2c9ffff","h3_11":"8b1e2e6b2c9bfff"},"geometry":{"type":"Polygon","coordinates":[[[19.882528,50.043959],[19.882538,50.043869],[19.882705,50.043882],[19.882695,50.043968],[19.882528,50.043959]]]}},{"type":"Feature","id":"w231920997","properties":{"type":"yes","residential":true,"residents_est":2,"h3_10":"8a1e2e6b2c17fff","h3_11":"8b1e2e6b2c15fff"},"geometry":{"type":"Polygon","coordinates":[[[19.883228,50.047352],[19.88337,50.047341],[19.883375,50.047377],[19.883405,50.047411],[19.883238,50.047425],[19.883228,50.047352]]]}},{"type":"Feature","id":"w231921006","properties":{"type":"yes","address":"Kamedulska 20","residential":true,"residents_est":3,"h3_10":"8a1e2e6b2d8ffff","h3_11":"8b1e2e6b2d8cfff"},"geometry":{"type":"Polygon","coordinates":[[[19.880677,50.047549],[19.880828,50.047531],[19.880861,50.047641],[19.88071,50.047659],[19.880677,50.047549]]]}},{"type":"Feature","id":"w231921007","properties":{"type":"yes","residential":true,"residents_est":25,"h3_10":"8a1e2e6b2d97fff","h3_11":"8b1e2e6b2d94fff"},"geometry":{"type":"Polygon","coordinates":[[[19.877288,50.047469],[19.87741,50.047172],[19.877693,50.04722],[19.87757,50.047517],[19.877288,50.047469]]]}},{"type":"Feature","id":"w231921011","properties":{"type":"yes","address":"Księcia Józefa 117","residential":true,"residents_est":2,"h3_10":"8a1e2e6b2c17fff","h3_11":"8b1e2e6b2c15fff"},"geometry":{"type":"Polygon","coordinates":[[[19.883516,50.04733],[19.883645,50.04732],[19.883669,50.04743],[19.883536,50.047438],[19.883516,50.04733]]]}},{"type":"Feature","id":"w231921033","properties":{"type":"yes","residential":true,"residents_est":1,"h3_10":"8a1e2e6b2c17fff","h3_11":"8b1e2e6b2c14fff"},"geometry":{"type":"Polygon","coordinates":[[[19.882716,50.047497],[19.882807,50.047483],[19.882832,50.047548],[19.882742,50.047562],[19.882716,50.047497]]]}},{"type":"Feature","id":"w231921049","properties":{"type":"yes","address":"Księcia Józefa 115b","residential":true,"residents_est":2,"h3_10":"8a1e2e6b2c2ffff","h3_11":"8b1e2e6b2c2bfff"},"geometry":{"type":"Polygon","coordinates":[[[19.885804,50.048003],[19.885887,50.047981],[19.885869,50.047949],[19.885931,50.047933],[19.885987,50.048029],[19.88584,50.048065],[19.885804,50.048003]]]}},{"type":"Feature","id":"w231921091","properties":{"type":"yes","address":"Rybna 5a","residential":true,"residents_est":2,"h3_10":"8a1e2e6b2c9ffff","h3_11":"8b1e2e6b2c9dfff"},"geometry":{"type":"Polygon","coordinates":[[[19.882752,50.044436],[19.882839,50.044434],[19.882841,50.044461],[19.882891,50.044459],[19.882896,50.044537],[19.882759,50.044542],[19.882752,50.044436]]]}},{"type":"Feature","id":"w231921105","properties":{"type":"yes","address":"Kamedulska 10","residential":true,"residents_est":2,"h3_10":"8a1e2e6b2d8ffff","h3_11":"8b1e2e6b2d89fff"},"geometry":{"type":"Polygon","coordinates":[[[19.881827,50.047478],[19.881948,50.04747],[19.881972,50.047565],[19.881851,50.047575],[19.881827,50.047478]]]}},{"type":"Feature","id":"w231921124","properties":{"type":"civic","address":"Księcia Józefa 52","residential":false,"residents_est":0,"h3_10":"8a1e2e6b2c4ffff","h3_11":"8b1e2e6b2c4efff"},"geometry":{"type":"Polygon","coordinates":[[[19.890421,50.047513],[19.890432,50.047419],[19.890718,50.047431],[19.890717,50.047446],[19.891192,50.047467],[19.891186,50.047544],[19.890421,50.047513]]]}},{"type":"Feature","id":"w231921146","properties":{"type":"yes","address":"Księcia Józefa 125","residential":true,"residents_est":3,"h3_10":"8a1e2e6b2ca7fff","h3_11":"8b1e2e6b2ca5fff"},"geometry":{"type":"Polygon","coordinates":[[[19.88184,50.046768],[19.881943,50.046657],[19.88211,50.046723],[19.882008,50.046835],[19.88184,50.046768]]]}},{"type":"Feature","id":"w231921150","properties":{"type":"yes","address":"Księcia Józefa 105","residential":true,"residents_est":2,"h3_10":"8a1e2e6b2c47fff","h3_11":"8b1e2e6b2c41fff"},"geometry":{"type":"Polygon","coordinates":[[[19.889674,50.047827],[19.889702,50.047753],[19.889858,50.047776],[19.889824,50.04787],[19.889752,50.047858],[19.889758,50.04784],[19.889674,50.047827]]]}},{"type":"Feature","id":"w231921193","properties":{"type":"yes","address":"Księcia Józefa 123","residential":true,"residents_est":3,"h3_10":"8a1e2e6b2c17fff","h3_11":"8b1e2e6b2c14fff"},"geometry":{"type":"Polygon","coordinates":[[[19.882455,50.047168],[19.882642,50.047164],[19.882645,50.047256],[19.882459,50.047258],[19.882455,50.047168]]]}},{"type":"Feature","id":"w231921198","properties":{"type":"yes","residential":true,"residents_est":1,"h3_10":"8a1e2e6b2c17fff","h3_11":"8b1e2e6b2c16fff"},"geometry":{"type":"Polygon","coordinates":[[[19.882417,50.047129],[19.882573,50.047126],[19.882574,50.047165],[19.882455,50.047168],[19.882457,50.047208],[19.88242,50.047208],[19.882417,50.047129]]]}},{"type":"Feature","id":"w231921212","properties":{"type":"yes","residential":true,"residents_est":1,"h3_10":"8a1e2e6b2c47fff","h3_11":"8b1e2e6b2c40fff"},"geometry":{"type":"Polygon","coordinates":[[[19.889497,50.047807],[19.88952,50.047751],[19.889659,50.047772],[19.889638,50.047826],[19.889497,50.047807]]]}},{"type":"Feature","id":"w231921221","properties":{"type":"yes","address":"Księcia Józefa 107a","residential":true,"residents_est":3,"h3_10":"8a1e2e6b2c47fff","h3_11":"8b1e2e6b2c46fff"},"geometry":{"type":"Polygon","coordinates":[[[19.888759,50.047931],[19.88876,50.047882],[19.888779,50.047882],[19.88878,50.047863],[19.888801,50.047863],[19.888802,50.04782],[19.888969,50.04782],[19.888968,50.047871],[19.888935,50.047871],[19.888934,50.047897],[19.888864,50.047916],[19.888849,50.04795],[19.888804,50.04795],[19.888806,50.047932],[19.888759,50.047931]]]}},{"type":"Feature","id":"w231921233","properties":{"type":"yes","address":"Księcia Józefa 101","residential":true,"residents_est":3,"h3_10":"8a1e2e6b2c4ffff","h3_11":"8b1e2e6b2c4cfff"},"geometry":{"type":"Polygon","coordinates":[[[19.89076,50.047871],[19.890764,50.047788],[19.891029,50.047798],[19.891023,50.047879],[19.89076,50.047871]]]}},{"type":"Feature","id":"w231921241","properties":{"type":"yes","address":"Kamedulska 17d","residential":true,"residents_est":1,"h3_10":"8a1e2e6b2daffff","h3_11":"8b1e2e6b2daafff"},"geometry":{"type":"Polygon","coordinates":[[[19.880565,50.048242],[19.880627,50.048172],[19.880707,50.048201],[19.880678,50.048234],[19.8807,50.048242],[19.880667,50.048279],[19.880565,50.048242]]]}},{"type":"Feature","id":"w231921276","properties":{"type":"yes","address":"Bruzdowa 5","residential":true,"residents_est":1,"h3_10":"8a1e2e6b2c27fff","h3_11":"8b1e2e6b2c22fff"},"geometry":{"type":"Polygon","coordinates":[[[19.883865,50.048551],[19.883984,50.048533],[19.884011,50.04861],[19.883893,50.048627],[19.883865,50.048551]]]}},{"type":"Feature","id":"w231921277","properties":{"type":"yes","residential":false,"residents_est":0,"h3_10":"8a1e2e6b2c97fff","h3_11":"8b1e2e6b2c92fff"},"geometry":{"type":"Polygon","coordinates":[[[19.880137,50.044102],[19.880164,50.044097],[19.880195,50.044111],[19.880265,50.044098],[19.88028,50.04413],[19.88016,50.044152],[19.880137,50.044102]]]}},{"type":"Feature","id":"w231921280","properties":{"type":"yes","address":"Kamedulska 34","residential":false,"residents_est":0,"h3_10":"8a1e2e6b2db7fff","h3_11":"8b1e2e6b2db5fff"},"geometry":{"type":"Polygon","coordinates":[[[19.878084,50.048645],[19.87814,50.048624],[19.878172,50.048657],[19.878186,50.048652],[19.878205,50.048675],[19.878135,50.048702],[19.878084,50.048645]]]}},{"type":"Feature","id":"w231921285","properties":{"type":"yes","residential":true,"residents_est":1,"h3_10":"8a1e2e6b2c37fff","h3_11":"8b1e2e6b2c32fff"},"geometry":{"type":"Polygon","coordinates":[[[19.882504,50.047641],[19.882604,50.047624],[19.882636,50.047701],[19.882536,50.047718],[19.882504,50.047641]]]}},{"type":"Feature","id":"w231921307","properties":{"type":"yes","residential":true,"residents_est":1,"h3_10":"8a1e2e6b2d1ffff","h3_11":"8b1e2e6b2d18fff"},"geometry":{"type":"Polygon","coordinates":[[[19.882286,50.049418],[19.882334,50.049412],[19.882312,50.049334],[19.882362,50.049328],[19.882394,50.049438],[19.882295,50.049449],[19.882286,50.049418]]]}},{"type":"Feature","id":"w231921320","properties":{"type":"yes","address":"Kamedulska 17a","residential":true,"residents_est":2,"h3_10":"8a1e2e6b2daffff","h3_11":"8b1e2e6b2da8fff"},"geometry":{"type":"Polygon","coordinates":[[[19.880744,50.048307],[19.880816,50.048223],[19.88094,50.048274],[19.880869,50.048355],[19.880744,50.048307]]]}},{"type":"Feature","id":"w231921350","properties":{"type":"yes","residential":true,"residents_est":1,"h3_10":"8a1e2e6b2c4ffff","h3_11":"8b1e2e6b2c4afff"},"geometry":{"type":"Polygon","coordinates":[[[19.890855,50.047249],[19.890865,50.047167],[19.890926,50.04717],[19.890919,50.047228],[19.890949,50.04723],[19.890946,50.047253],[19.890855,50.047249]]]}},{"type":"Feature","id":"w231921391","properties":{"type":"yes","residential":false,"residents_est":0,"h3_10":"8a1e2e6b2c47fff","h3_11":"8b1e2e6b2c40fff"},"geometry":{"type":"Polygon","coordinates":[[[19.889427,50.047792],[19.889447,50.047736],[19.889521,50.047746],[19.889498,50.047802],[19.889427,50.047792]]]}},{"type":"Feature","id":"w231921394","properties":{"type":"yes","address":"Pajęcza 6","residential":true,"residents_est":3,"h3_10":"8a1e2e6b2d8ffff","h3_11":"8b1e2e6b2d88fff"},"geometry":{"type":"Polygon","coordinates":[[[19.881396,50.047253],[19.881404,50.047198],[19.881613,50.047211],[19.881599,50.047303],[19.881432,50.047292],[19.881437,50.047255],[19.881396,50.047253]]]}},{"type":"Feature","id":"w231921404","properties":{"type":"yes","address":"Księcia Józefa 54","residential":true,"residents_est":11,"h3_10":"8a1e2e6b2c47fff","h3_11":"8b1e2e6b2c43fff"},"geometry":{"type":"Polygon","coordinates":[[[19.88951,50.047481],[19.889527,50.047389],[19.889654,50.0474],[19.889672,50.047318],[19.889824,50.047331],[19.889792,50.047502],[19.88951,50.047481]]]}},{"type":"Feature","id":"w231921425","properties":{"type":"yes","address":"Księcia Józefa 111","residential":true,"residents_est":2,"h3_10":"8a1e2e6b2c77fff","h3_11":"8b1e2e6b2c73fff"},"geometry":{"type":"Polygon","coordinates":[[[19.887733,50.047718],[19.88774,50.04762],[19.887911,50.047626],[19.887905,50.047725],[19.887862,50.047723],[19.88786,50.047734],[19.887776,50.04773],[19.887777,50.04772],[19.887733,50.047718]]]}},{"type":"Feature","id":"w231921431","properties":{"type":"yes","residential":false,"residents_est":0,"h3_10":"8a1e2e6b2d1ffff","h3_11":"8b1e2e6b2d1afff"},"geometry":{"type":"Polygon","coordinates":[[[19.881975,50.04909],[19.882003,50.049022],[19.88198,50.049019],[19.881997,50.048975],[19.882052,50.048983],[19.882007,50.049096],[19.881975,50.04909]]]}},{"type":"Feature","id":"w231921435","properties":{"type":"detached","address":"Księcia Józefa 107","residential":true,"residents_est":3,"h3_10":"8a1e2e6b2c47fff","h3_11":"8b1e2e6b2c46fff"},"geometry":{"type":"Polygon","coordinates":[[[19.888502,50.047733],[19.888516,50.047647],[19.888704,50.04766],[19.888694,50.047711],[19.888593,50.047704],[19.888587,50.047738],[19.888502,50.047733]]]}},{"type":"Feature","id":"w231921440","properties":{"type":"yes","residential":false,"residents_est":0,"h3_10":"8a1e2e6b2c8ffff","h3_11":"8b1e2e6b2c8efff"},"geometry":{"type":"Polygon","coordinates":[[[19.882993,50.044608],[19.883043,50.044606],[19.883062,50.044615],[19.883067,50.04468],[19.882997,50.044683],[19.882993,50.044608]]]}},{"type":"Feature","id":"w231921475","properties":{"type":"yes","residential":false,"residents_est":0,"h3_10":"8a1e2e6b2c37fff","h3_11":"8b1e2e6b2c33fff"},"geometry":{"type":"Polygon","coordinates":[[[19.88274,50.047636],[19.882815,50.047624],[19.882818,50.047635],[19.882841,50.047633],[19.882852,50.047656],[19.882755,50.047672],[19.88274,50.047636]]]}},{"type":"Feature","id":"w231921493","properties":{"type":"yes","residential":true,"residents_est":20,"h3_10":"8a1e2e6b2d97fff","h3_11":"8b1e2e6b2d94fff"},"geometry":{"type":"Polygon","coordinates":[[[19.877596,50.047455],[19.877693,50.04722],[19.877991,50.047266],[19.877928,50.047466],[19.877721,50.047435],[19.877704,50.047472],[19.877596,50.047455]]]}},{"type":"Feature","id":"w231921558","properties":{"type":"yes","residential":true,"residents_est":23,"h3_10":"8a1e2e6b2c77fff","h3_11":"8b1e2e6b2c74fff"},"geometry":{"type":"Polygon","coordinates":[[[19.887432,50.048785],[19.887499,50.048308],[19.887511,50.048309],[19.887513,50.0483],[19.887556,50.048303],[19.887554,50.048312],[19.887665,50.04832],[19.887599,50.048794],[19.887432,50.048785]]]}},{"type":"Feature","id":"w231921584","properties":{"type":"yes","address":"Kamedulska 6","residential":true,"residents_est":2,"h3_10":"8a1e2e6b2c37fff","h3_11":"8b1e2e6b2c33fff"},"geometry":{"type":"Polygon","coordinates":[[[19.88279,50.047555],[19.88295,50.047528],[19.88298,50.04761],[19.882818,50.047635],[19.88279,50.047555]]]}},{"type":"Feature","id":"w231921605","properties":{"type":"yes","address":"Kamedulska 12","residential":true,"residents_est":2,"h3_10":"8a1e2e6b2d8ffff","h3_11":"8b1e2e6b2d8dfff"},"geometry":{"type":"Polygon","coordinates":[[[19.881412,50.047701],[19.881429,50.047617],[19.881604,50.047631],[19.881586,50.047723],[19.881456,50.047712],[19.881457,50.047705],[19.881412,50.047701]]]}},{"type":"Feature","id":"w231921672","properties":{"type":"yes","address":"Pajęcza 4","residential":true,"residents_est":2,"h3_10":"8a1e2e6b2d8ffff","h3_11":"8b1e2e6b2d8bfff"},"geometry":{"type":"Polygon","coordinates":[[[19.881305,50.046932],[19.881318,50.046873],[19.881375,50.046878],[19.881373,50.046892],[19.8815,50.046904],[19.88148,50.046992],[19.881344,50.046979],[19.881354,50.046936],[19.881305,50.046932]]]}},{"type":"Feature","id":"w231921693","properties":{"type":"yes","residential":true,"residents_est":0,"h3_10":"8a1e2e6b2d5ffff","h3_11":"8b1e2e6b2d5afff"},"geometry":{"type":"Polygon","coordinates":[[[19.887191,50.048898],[19.887198,50.048863],[19.887349,50.048872],[19.887342,50.048911],[19.887191,50.048898]]]}},{"type":"Feature","id":"w231921714","properties":{"type":"yes","address":"Kamedulska 36","residential":true,"residents_est":2,"h3_10":"8a1e2e6b2da7fff","h3_11":"8b1e2e6b2da6fff"},"geometry":{"type":"Polygon","coordinates":[[[19.877961,50.048966],[19.878037,50.048869],[19.878092,50.048887],[19.878102,50.048874],[19.878173,50.048897],[19.878112,50.048975],[19.878088,50.048967],[19.878062,50.048998],[19.877961,50.048966]]]}},{"type":"Feature","id":"w231921734","properties":{"type":"yes","residential":true,"residents_est":1,"h3_10":"8a1e2e6b2daffff","h3_11":"8b1e2e6b2daefff"},"geometry":{"type":"Polygon","coordinates":[[[19.880127,50.048667],[19.880156,50.048612],[19.880232,50.048629],[19.880225,50.048642],[19.880284,50.048655],[19.880291,50.048641],[19.880315,50.048646],[19.880294,50.048684],[19.880127,50.048667]]]}},{"type":"Feature","id":"w231921736","properties":{"type":"yes","address":"Winowców 5","residential":true,"residents_est":2,"h3_10":"8a1e2e6b2daffff","h3_11":"8b1e2e6b2da9fff"},"geometry":{"type":"Polygon","coordinates":[[[19.881227,50.048635],[19.88124,50.048556],[19.881393,50.048566],[19.881388,50.048598],[19.881409,50.0486],[19.881406,50.048619],[19.881386,50.048617],[19.881381,50.048645],[19.881227,50.048635]]]}},{"type":"Feature","id":"w231921766","properties":{"type":"yes","address":"Rybna 5b","residential":true,"residents_est":4,"h3_10":"8a1e2e6b2c8ffff","h3_11":"8b1e2e6b2c8afff"},"geometry":{"type":"Polygon","coordinates":[[[19.88299,50.044456],[19.883056,50.044453],[19.883053,50.044429],[19.883274,50.044424],[19.883283,50.044522],[19.882995,50.04453],[19.88299,50.044456]]]}},{"type":"Feature","id":"w231921768","properties":{"type":"yes","address":"Winowców 9","residential":true,"residents_est":2,"h3_10":"8a1e2e6b2daffff","h3_11":"8b1e2e6b2dadfff"},"geometry":{"type":"Polygon","coordinates":[[[19.881198,50.048799],[19.881214,50.048715],[19.881367,50.048725],[19.881361,50.048758],[19.881384,50.048759],[19.881381,50.048776],[19.881359,50.048774],[19.881353,50.04881],[19.881198,50.048799]]]}},{"type":"Feature","id":"w231921781","properties":{"type":"yes","residential":true,"residents_est":1,"h3_10":"8a1e2e6b2c17fff","h3_11":"8b1e2e6b2c15fff"},"geometry":{"type":"Polygon","coordinates":[[[19.883438,50.047448],[19.883536,50.047438],[19.88356,50.047532],[19.883519,50.04754],[19.883438,50.047448]]]}},{"type":"Feature","id":"w231921782","properties":{"type":"yes","residential":true,"residents_est":14,"h3_10":"8a1e2e6b2c5ffff","h3_11":"8b1e2e6b2c5cfff"},"geometry":{"type":"Polygon","coordinates":[[[19.889515,50.04717],[19.889565,50.046891],[19.889746,50.046904],[19.889693,50.047184],[19.889515,50.04717]]]}},{"type":"Feature","id":"w231921795","properties":{"type":"yes","address":"Kamedulska 3a","residential":true,"residents_est":1,"h3_10":"8a1e2e6b2c37fff","h3_11":"8b1e2e6b2c31fff"},"geometry":{"type":"Polygon","coordinates":[[[19.883002,50.048155],[19.883124,50.048134],[19.883154,50.048229],[19.883088,50.048239],[19.883081,50.048226],[19.883034,50.048235],[19.883002,50.048155]]]}},{"type":"Feature","id":"w231921809","properties":{"type":"yes","address":"Kamedulska 52","residential":true,"residents_est":2,"h3_10":"8a1e2e6b2db7fff","h3_11":"8b1e2e6b2db6fff"},"geometry":{"type":"Polygon","coordinates":[[[19.87656,50.048161],[19.87664,50.048083],[19.876723,50.048122],[19.876748,50.0481],[19.876789,50.048119],[19.876709,50.048192],[19.876668,50.048173],[19.876642,50.048198],[19.87656,50.048161]]]}},{"type":"Feature","id":"w231921813","properties":{"type":"yes","address":"Kamedulska 3","residential":true,"residents_est":4,"h3_10":"8a1e2e6b2c37fff","h3_11":"8b1e2e6b2c31fff"},"geometry":{"type":"Polygon","coordinates":[[[19.88292,50.047941],[19.883188,50.047899],[19.883228,50.048005],[19.883163,50.048018],[19.88315,50.048027],[19.883074,50.048038],[19.88306,50.047999],[19.882949,50.048018],[19.88292,50.047941]]]}},{"type":"Feature","id":"w231921825","properties":{"type":"yes","address":"Kamedulska 46","residential":true,"residents_est":2,"h3_10":"8a1e2e6b2db7fff","h3_11":"8b1e2e6b2db4fff"},"geometry":{"type":"Polygon","coordinates":[[[19.877281,50.048371],[19.87733,50.048292],[19.877404,50.048311],[19.877423,50.048278],[19.877498,50.048297],[19.877478,50.04833],[19.877464,50.048327],[19.877419,50.048405],[19.877281,50.048371]]]}},{"type":"Feature","id":"w231921832","properties":{"type":"yes","address":"Winowców 3","residential":true,"residents_est":2,"h3_10":"8a1e2e6b2daffff","h3_11":"8b1e2e6b2da9fff"},"geometry":{"type":"Polygon","coordinates":[[[19.88124,50.048556],[19.881255,50.048472],[19.881409,50.048483],[19.881402,50.04852],[19.881424,50.048521],[19.881421,50.048539],[19.881398,50.048537],[19.881393,50.048566],[19.88124,50.048556]]]}},{"type":"Feature","id":"w231921840","properties":{"type":"yes","address":"Księcia Józefa 121a","residential":true,"residents_est":2,"h3_10":"8a1e2e6b2c17fff","h3_11":"8b1e2e6b2c14fff"},"geometry":{"type":"Polygon","coordinates":[[[19.882725,50.04717],[19.882805,50.047156],[19.882814,50.047177],[19.882849,50.047171],[19.882892,50.047275],[19.882837,50.047285],[19.882848,50.047311],[19.882788,50.047322],[19.882725,50.04717]]]}},{"type":"Feature","id":"w231921902","properties":{"type":"yes","residential":false,"residents_est":0,"h3_10":"8a1e2e6b2c77fff","h3_11":"8b1e2e6b2c76fff"},"geometry":{"type":"Polygon","coordinates":[[[19.887232,50.048215],[19.887245,50.048169],[19.887318,50.048178],[19.887306,50.048224],[19.887232,50.048215]]]}},{"type":"Feature","id":"w231921927","properties":{"type":"yes","residential":true,"residents_est":3,"h3_10":"8a1e2e6b2c97fff","h3_11":"8b1e2e6b2c92fff"},"geometry":{"type":"Polygon","coordinates":[[[19.880215,50.044011],[19.880442,50.043942],[19.880498,50.04402],[19.880283,50.044084],[19.880248,50.044035],[19.880235,50.044038],[19.880215,50.044011]]]}},{"type":"Feature","id":"w231921977","properties":{"type":"yes","residential":true,"residents_est":1,"h3_10":"8a1e2e6b2ca7fff","h3_11":"8b1e2e6b2ca1fff"},"geometry":{"type":"Polygon","coordinates":[[[19.882149,50.046486],[19.882182,50.046453],[19.882203,50.046461],[19.882214,50.046449],[19.882292,50.04648],[19.882251,50.046526],[19.882149,50.046486]]]}},{"type":"Feature","id":"w231921986","properties":{"type":"yes","address":"Winowców 7","residential":true,"residents_est":2,"h3_10":"8a1e2e6b2daffff","h3_11":"8b1e2e6b2dadfff"},"geometry":{"type":"Polygon","coordinates":[[[19.881214,50.048715],[19.881227,50.048635],[19.881381,50.048645],[19.881375,50.048677],[19.881396,50.048678],[19.881393,50.048698],[19.881372,50.048696],[19.881367,50.048725],[19.881214,50.048715]]]}},{"type":"Feature","id":"w231921989","properties":{"type":"yes","address":"Księcia Józefa 119","residential":true,"residents_est":2,"h3_10":"8a1e2e6b2c17fff","h3_11":"8b1e2e6b2c15fff"},"geometry":{"type":"Polygon","coordinates":[[[19.883324,50.047271],[19.883511,50.047257],[19.88353,50.047329],[19.883339,50.047343],[19.883324,50.047271]]]}},{"type":"Feature","id":"w231922095","properties":{"type":"yes","residential":true,"residents_est":1,"h3_10":"8a1e2e6b2c8ffff","h3_11":"8b1e2e6b2c8afff"},"geometry":{"type":"Polygon","coordinates":[[[19.883204,50.044524],[19.883297,50.044518],[19.883305,50.044623],[19.883224,50.044626],[19.883221,50.044592],[19.883209,50.044592],[19.883204,50.044524]]]}},{"type":"Feature","id":"w231922110","properties":{"type":"yes","residential":false,"residents_est":0,"h3_10":"8a1e2e6b2c17fff","h3_11":"8b1e2e6b2c15fff"},"geometry":{"type":"Polygon","coordinates":[[[19.883365,50.047484],[19.883443,50.047454],[19.883484,50.0475],[19.883473,50.047499],[19.883406,50.047528],[19.883365,50.047484]]]}},{"type":"Feature","id":"w383341050","properties":{"type":"house","residential":true,"residents_est":7,"h3_10":"8a1e2e6b2db7fff","h3_11":"8b1e2e6b2db2fff"},"geometry":{"type":"Polygon","coordinates":[[[19.877426,50.047922],[19.877491,50.047862],[19.877472,50.047853],[19.877548,50.047784],[19.87763,50.047822],[19.877639,50.047813],[19.877703,50.047841],[19.877697,50.047846],[19.877713,50.047854],[19.87764,50.04792],[19.877612,50.047908],[19.877585,50.04791],[19.877523,50.047966],[19.877426,50.047922]]]}},{"type":"Feature","id":"w383341051","properties":{"type":"house","residential":true,"residents_est":6,"h3_10":"8a1e2e6b2d87fff","h3_11":"8b1e2e6b2d85fff"},"geometry":{"type":"Polygon","coordinates":[[[19.879648,50.048236],[19.87969,50.04823],[19.879682,50.048207],[19.879794,50.048191],[19.879803,50.048217],[19.879849,50.048211],[19.879874,50.048285],[19.879673,50.048313],[19.879648,50.048236]]]}},{"type":"Feature","id":"w383341052","properties":{"type":"yes","residential":true,"residents_est":1,"h3_10":"8a1e2e6b2d87fff","h3_11":"8b1e2e6b2d85fff"},"geometry":{"type":"Polygon","coordinates":[[[19.879723,50.048305],[19.879874,50.048285],[19.879872,50.048277],[19.879886,50.048275],[19.879911,50.048353],[19.879799,50.048367],[19.879781,50.048312],[19.879728,50.048319],[19.879723,50.048305]]]}},{"type":"Feature","id":"w383344489","properties":{"type":"house","address":"Księcia Józefa 125A","residential":true,"residents_est":3,"h3_10":"8a1e2e6b2d8ffff","h3_11":"8b1e2e6b2d89fff"},"geometry":{"type":"Polygon","coordinates":[[[19.881813,50.047265],[19.881866,50.047263],[19.881865,50.047251],[19.881902,50.047249],[19.881915,50.047378],[19.881825,50.047382],[19.881813,50.047265]]]}},{"type":"Feature","id":"w383344490","properties":{"type":"house","address":"Księcia Józefa 125D","residential":true,"residents_est":3,"h3_10":"8a1e2e6b2d8ffff","h3_11":"8b1e2e6b2d89fff"},"geometry":{"type":"Polygon","coordinates":[[[19.882215,50.047248],[19.882266,50.047246],[19.882264,50.047234],[19.882303,50.047232],[19.882317,50.047361],[19.882226,50.047365],[19.882215,50.047248]]]}},{"type":"Feature","id":"w383344491","properties":{"type":"house","address":"Księcia Józefa 125E","residential":true,"residents_est":4,"h3_10":"8a1e2e6b2c17fff","h3_11":"8b1e2e6b2c16fff"},"geometry":{"type":"Polygon","coordinates":[[[19.882101,50.047026],[19.882141,50.047025],[19.882143,50.047037],[19.882206,50.047034],[19.882218,50.047152],[19.882115,50.047156],[19.882101,50.047026]]]}},{"type":"Feature","id":"w430874631","properties":{"type":"yes","residential":false,"residents_est":0,"h3_10":"8a1e2e6b2c6ffff","h3_11":"8b1e2e6b2c6cfff"},"geometry":{"type":"Polygon","coordinates":[[[19.890503,50.048701],[19.890569,50.048696],[19.890575,50.048729],[19.89051,50.048734],[19.890503,50.048701]]]}},{"type":"Feature","id":"w430874637","properties":{"type":"yes","residential":false,"residents_est":0,"h3_10":"8a1e2e6b2c67fff","h3_11":"8b1e2e6b2c61fff"},"geometry":{"type":"Polygon","coordinates":[[[19.889793,50.048987],[19.889797,50.04894],[19.88986,50.048942],[19.889856,50.048989],[19.889793,50.048987]]]}},{"type":"Feature","id":"w430874638","properties":{"type":"yes","residential":false,"residents_est":0,"h3_10":"8a1e2e6b2d77fff","h3_11":"8b1e2e6b2d75fff"},"geometry":{"type":"Polygon","coordinates":[[[19.885791,50.05115],[19.8858,50.051097],[19.885876,50.051102],[19.885868,50.051155],[19.885791,50.05115]]]}},{"type":"Feature","id":"w430874645","properties":{"type":"yes","residential":false,"residents_est":0,"h3_10":"8a1e2e6b2c6ffff","h3_11":"8b1e2e6b2c69fff"},"geometry":{"type":"Polygon","coordinates":[[[19.891279,50.048664],[19.891288,50.048616],[19.891343,50.04862],[19.891333,50.048668],[19.891279,50.048664]]]}},{"type":"Feature","id":"w430874646","properties":{"type":"yes","residential":false,"residents_est":0,"h3_10":"8a1e2e6b2c67fff","h3_11":"8b1e2e6b2c65fff"},"geometry":{"type":"Polygon","coordinates":[[[19.8894,50.049155],[19.889459,50.049155],[19.889459,50.049192],[19.8894,50.049192],[19.8894,50.049155]]]}},{"type":"Feature","id":"w449732556","properties":{"type":"yes","residential":false,"residents_est":0,"h3_10":"8a1e2e6b2d8ffff","h3_11":"8b1e2e6b2d8bfff"},"geometry":{"type":"Polygon","coordinates":[[[19.881832,50.04696],[19.881896,50.04696],[19.881896,50.046976],[19.881923,50.046975],[19.881924,50.047018],[19.881834,50.047019],[19.881832,50.04696]]]}},{"type":"Feature","id":"w449732557","properties":{"type":"yes","address":"Księcia Józefa 109B","residential":true,"residents_est":2,"h3_10":"8a1e2e6b2c77fff","h3_11":"8b1e2e6b2c73fff"},"geometry":{"type":"Polygon","coordinates":[[[19.888042,50.047784],[19.888056,50.047705],[19.888176,50.047714],[19.888158,50.047814],[19.888084,50.047808],[19.888088,50.047787],[19.888042,50.047784]]]}},{"type":"Feature","id":"w450403105","properties":{"type":"yes","residential":true,"residents_est":1,"h3_10":"8a1e2e6b2ce7fff","h3_11":"8b1e2e6b2ce6fff"},"geometry":{"type":"Polygon","coordinates":[[[19.885806,50.046245],[19.885813,50.04618],[19.885906,50.046185],[19.885899,50.046249],[19.885806,50.046245]]]}},{"type":"Feature","id":"w456647947","properties":{"type":"yes","residential":false,"residents_est":0,"h3_10":"8a1e2e6b2c9ffff","h3_11":"8b1e2e6b2c9afff"},"geometry":{"type":"Polygon","coordinates":[[[19.881948,50.043695],[19.881949,50.043648],[19.882045,50.043649],[19.882045,50.043695],[19.881948,50.043695]]]}},{"type":"Feature","id":"w632181360","properties":{"type":"house","address":"Księcia Józefa 125F","residential":true,"residents_est":3,"h3_10":"8a1e2e6b2c17fff","h3_11":"8b1e2e6b2c16fff"},"geometry":{"type":"Polygon","coordinates":[[[19.882203,50.047022],[19.882242,50.04702],[19.882243,50.047033],[19.882283,50.047031],[19.882295,50.047149],[19.882218,50.047152],[19.882203,50.047022]]]}},{"type":"Feature","id":"w632181361","properties":{"type":"house","address":"Księcia Józefa 125C","residential":true,"residents_est":3,"h3_10":"8a1e2e6b2d8ffff","h3_11":"8b1e2e6b2d89fff"},"geometry":{"type":"Polygon","coordinates":[[[19.882125,50.047252],[19.882178,50.047249],[19.882177,50.047238],[19.882215,50.047236],[19.882226,50.047365],[19.882137,50.047369],[19.882125,50.047252]]]}},{"type":"Feature","id":"w632181362","properties":{"type":"house","address":"Księcia Józefa 125B","residential":true,"residents_est":3,"h3_10":"8a1e2e6b2d8ffff","h3_11":"8b1e2e6b2d89fff"},"geometry":{"type":"Polygon","coordinates":[[[19.881902,50.047261],[19.881953,50.047259],[19.881952,50.047247],[19.881991,50.047246],[19.882003,50.047374],[19.881915,50.047378],[19.881902,50.047261]]]}},{"type":"Feature","id":"w706571782","properties":{"type":"yes","residential":false,"residents_est":0,"h3_10":"8a1e2e6b2c77fff","h3_11":"8b1e2e6b2c70fff"},"geometry":{"type":"Polygon","coordinates":[[[19.887494,50.048131],[19.887508,50.048092],[19.887587,50.048104],[19.887572,50.048143],[19.887494,50.048131]]]}},{"type":"Feature","id":"w706571783","properties":{"type":"yes","residential":true,"residents_est":1,"h3_10":"8a1e2e6b2d5ffff","h3_11":"8b1e2e6b2d5bfff"},"geometry":{"type":"Polygon","coordinates":[[[19.887599,50.048794],[19.887615,50.048679],[19.887671,50.048682],[19.887654,50.048796],[19.887599,50.048794]]]}},{"type":"Feature","id":"w706571785","properties":{"type":"yes","residential":false,"residents_est":0,"h3_10":"8a1e2e6b2c77fff","h3_11":"8b1e2e6b2c71fff"},"geometry":{"type":"Polygon","coordinates":[[[19.888187,50.048211],[19.888203,50.048183],[19.888276,50.0482],[19.88826,50.048228],[19.888187,50.048211]]]}},{"type":"Feature","id":"w706571787","properties":{"type":"yes","residential":true,"residents_est":4,"h3_10":"8a1e2e6b2c47fff","h3_11":"8b1e2e6b2c42fff"},"geometry":{"type":"Polygon","coordinates":[[[19.889208,50.047457],[19.889217,50.047367],[19.889527,50.047389],[19.88951,50.047481],[19.889208,50.047457]]]}},{"type":"Feature","id":"w706571788","properties":{"type":"yes","residential":true,"residents_est":4,"h3_10":"8a1e2e6b2c47fff","h3_11":"8b1e2e6b2c42fff"},"geometry":{"type":"Polygon","coordinates":[[[19.888523,50.0473],[19.888531,50.04726],[19.889238,50.047302],[19.889228,50.047343],[19.889219,50.047343],[19.888523,50.0473]]]}},{"type":"Feature","id":"w706571790","properties":{"type":"yes","residential":false,"residents_est":0,"h3_10":"8a1e2e6b2c5ffff","h3_11":"8b1e2e6b2c5dfff"},"geometry":{"type":"Polygon","coordinates":[[[19.889946,50.046986],[19.889955,50.046931],[19.889997,50.046935],[19.889989,50.046989],[19.889946,50.046986]]]}},{"type":"Feature","id":"w706571791","properties":{"type":"yes","residential":true,"residents_est":2,"h3_10":"8a1e2e6b2c5ffff","h3_11":"8b1e2e6b2c5dfff"},"geometry":{"type":"Polygon","coordinates":[[[19.889723,50.047031],[19.88974,50.046939],[19.889884,50.046949],[19.889868,50.047041],[19.889723,50.047031]]]}},{"type":"Feature","id":"w706571792","properties":{"type":"yes","residential":true,"residents_est":2,"h3_10":"8a1e2e6b2cc7fff","h3_11":"8b1e2e6b2cc3fff"},"geometry":{"type":"Polygon","coordinates":[[[19.886832,50.044851],[19.886864,50.044849],[19.88687,50.044802],[19.886856,50.044801],[19.886864,50.044741],[19.886874,50.044741],[19.886879,50.0447],[19.886939,50.044703],[19.886938,50.044716],[19.887004,50.04472],[19.886993,50.044809],[19.886962,50.044807],[19.886956,50.044857],[19.886832,50.044851]]]}},{"type":"Feature","id":"w706571793","properties":{"type":"yes","residential":true,"residents_est":3,"h3_10":"8a1e2e6b2cc7fff","h3_11":"8b1e2e6b2cc3fff"},"geometry":{"type":"Polygon","coordinates":[[[19.886831,50.044854],[19.886956,50.044857],[19.88695,50.044905],[19.886979,50.044907],[19.886968,50.045],[19.8869,50.044996],[19.886899,50.045009],[19.886836,50.045006],[19.886842,50.044961],[19.886834,50.04496],[19.886841,50.0449],[19.886856,50.044901],[19.886862,50.044855],[19.886831,50.044854]]]}},{"type":"Feature","id":"w706571794","properties":{"type":"yes","residential":true,"residents_est":2,"h3_10":"8a1e2e6b2cc7fff","h3_11":"8b1e2e6b2cc2fff"},"geometry":{"type":"Polygon","coordinates":[[[19.886437,50.044764],[19.886448,50.044675],[19.886515,50.044679],[19.886516,50.044666],[19.886576,50.044669],[19.886571,50.044712],[19.886579,50.044713],[19.886572,50.044771],[19.886556,50.04477],[19.88655,50.044818],[19.886582,50.044822],[19.88646,50.044815],[19.88647,50.044766],[19.886437,50.044764]]]}},{"type":"Feature","id":"w706571795","properties":{"type":"yes","residential":true,"residents_est":3,"h3_10":"8a1e2e6b2cc7fff","h3_11":"8b1e2e6b2cc2fff"},"geometry":{"type":"Polygon","coordinates":[[[19.886412,50.044953],[19.886424,50.044864],[19.886457,50.044866],[19.88646,50.044815],[19.886582,50.044822],[19.88655,50.044823],[19.886543,50.044871],[19.886559,50.044872],[19.886551,50.04493],[19.886543,50.04493],[19.886537,50.044973],[19.886477,50.044969],[19.886479,50.044956],[19.886412,50.044953]]]}},{"type":"Feature","id":"w706571796","properties":{"type":"yes","residential":true,"residents_est":16,"h3_10":"8a1e2e6b2caffff","h3_11":"8b1e2e6b2cabfff"},"geometry":{"type":"Polygon","coordinates":[[[19.883577,50.045765],[19.883645,50.045555],[19.883597,50.045549],[19.883626,50.045551],[19.883634,50.045527],[19.883599,50.045521],[19.883654,50.045528],[19.88374,50.045269],[19.883684,50.045258],[19.883706,50.045259],[19.883713,50.045234],[19.883693,50.045229],[19.883903,50.045258],[19.883882,50.045257],[19.883873,50.045282],[19.883893,50.045287],[19.883839,50.04528],[19.883753,50.045541],[19.883808,50.04555],[19.883773,50.045546],[19.883765,50.04557],[19.883799,50.045575],[19.883797,50.045579],[19.883744,50.04557],[19.883676,50.045778],[19.883577,50.045765]]]}},{"type":"Feature","id":"w706571797","properties":{"type":"yes","residential":true,"residents_est":25,"h3_10":"8a1e2e6b2caffff","h3_11":"8b1e2e6b2ca8fff"},"geometry":{"type":"Polygon","coordinates":[[[19.882863,50.045753],[19.882883,50.045697],[19.882958,50.045708],[19.882967,50.045684],[19.882952,50.045685],[19.882951,50.04568],[19.883152,50.045707],[19.883135,50.045707],[19.883127,50.045731],[19.883204,50.045741],[19.883231,50.045663],[19.883226,50.045688],[19.883469,50.045722],[19.88348,50.045698],[19.883455,50.045774],[19.883533,50.045785],[19.88354,50.045762],[19.88352,50.045762],[19.883522,50.045758],[19.88373,50.045786],[19.883708,50.045785],[19.883701,50.045808],[19.883778,50.045819],[19.883789,50.045794],[19.883759,50.045889],[19.883755,50.045889],[19.883759,50.045876],[19.883681,50.045865],[19.883678,50.045876],[19.883678,50.045864],[19.8836,50.045854],[19.883593,50.045865],[19.883597,50.045853],[19.883517,50.045843],[19.883514,50.045854],[19.883514,50.045842],[19.883436,50.045832],[19.88342,50.045882],[19.883432,50.045886],[19.883331,50.045872],[19.883337,50.045856],[19.883262,50.045845],[19.883257,50.045862],[19.883155,50.045848],[19.883168,50.045847],[19.883185,50.045797],[19.883108,50.045786],[19.883104,50.045798],[19.883104,50.045786],[19.883026,50.045775],[19.883019,50.045786],[19.883022,50.045775],[19.882944,50.045764],[19.88294,50.045775],[19.882941,50.045763],[19.882863,50.045753]]]}},{"type":"Feature","id":"w706571798","properties":{"type":"yes","residential":true,"residents_est":4,"h3_10":"8a1e2e6b2caffff","h3_11":"8b1e2e6b2caafff"},"geometry":{"type":"Polygon","coordinates":[[[19.882658,50.04557],[19.882735,50.045345],[19.88286,50.045362],[19.882783,50.045588],[19.882737,50.045581],[19.882725,50.045619],[19.882692,50.045614],[19.882704,50.045577],[19.882658,50.04557]]]}},{"type":"Feature","id":"w706571799","properties":{"type":"yes","residential":true,"residents_est":3,"h3_10":"8a1e2e6b2ca7fff","h3_11":"8b1e2e6b2ca1fff"},"geometry":{"type":"Polygon","coordinates":[[[19.882002,50.046403],[19.882018,50.046368],[19.88204,50.046373],[19.882059,50.046331],[19.882039,50.046327],[19.882085,50.046225],[19.881968,50.046204],[19.881889,50.046382],[19.881993,50.046422],[19.882002,50.046403]],[[19.882001,50.046403],[19.882001,50.046401],[19.882002,50.046403],[19.882001,50.046403]]]}},{"type":"Feature","id":"w706571801","properties":{"type":"yes","residential":false,"residents_est":0,"h3_10":"8a1e2e6b2c17fff","h3_11":"8b1e2e6b2c12fff"},"geometry":{"type":"Polygon","coordinates":[[[19.882818,50.04673],[19.882856,50.046682],[19.882932,50.046706],[19.882895,50.046754],[19.882818,50.04673]]]}},{"type":"Feature","id":"w706571802","properties":{"type":"yes","residential":false,"residents_est":0,"h3_10":"8a1e2e6b2c17fff","h3_11":"8b1e2e6b2c10fff"},"geometry":{"type":"Polygon","coordinates":[[[19.882772,50.047138],[19.882794,50.047137],[19.882786,50.047104],[19.882866,50.047098],[19.882883,50.047104],[19.882844,50.047147],[19.882849,50.047171],[19.882814,50.047177],[19.882805,50.047156],[19.88278,50.04716],[19.882772,50.047138]]]}},{"type":"Feature","id":"w718861661","properties":{"type":"greenhouse","residential":false,"residents_est":0,"h3_10":"8a1e2e6b2d87fff","h3_11":"8b1e2e6b2d80fff"},"geometry":{"type":"Polygon","coordinates":[[[19.879412,50.047483],[19.87947,50.047473],[19.879518,50.047588],[19.87946,50.047598],[19.879412,50.047483]]]}},{"type":"Feature","id":"w718861662","properties":{"type":"yes","residential":false,"residents_est":0,"h3_10":"8a1e2e6b2d8ffff","h3_11":"8b1e2e6b2d8efff"},"geometry":{"type":"Polygon","coordinates":[[[19.88031,50.047378],[19.880415,50.047365],[19.880422,50.047388],[19.880316,50.047401],[19.88031,50.047378]]]}},{"type":"Feature","id":"w970403279","properties":{"type":"yes","residential":true,"residents_est":2,"h3_10":"8a1e2e6b2ccffff","h3_11":"8b1e2e6b2ccafff"},"geometry":{"type":"Polygon","coordinates":[[[19.888157,50.04448],[19.888168,50.044387],[19.888197,50.044388],[19.888204,50.044342],[19.888331,50.044348],[19.88833,50.044353],[19.888299,50.044351],[19.888294,50.044394],[19.888308,50.044395],[19.8883,50.044458],[19.888292,50.044458],[19.888286,50.044501],[19.888221,50.044498],[19.888222,50.044483],[19.888157,50.04448]]]}},{"type":"Feature","id":"w970403280","properties":{"type":"yes","residential":true,"residents_est":3,"h3_10":"8a1e2e6b2ccffff","h3_11":"8b1e2e6b2ccafff"},"geometry":{"type":"Polygon","coordinates":[[[19.888181,50.044291],[19.888193,50.044198],[19.88826,50.044201],[19.888262,50.044188],[19.888328,50.044191],[19.888321,50.044299],[19.888306,50.044298],[19.8883,50.044342],[19.888331,50.044348],[19.888204,50.044342],[19.888211,50.044293],[19.888181,50.044291]]]}},{"type":"Feature","id":"w970403281","properties":{"type":"yes","residential":true,"residents_est":3,"h3_10":"8a1e2e6b2cdffff","h3_11":"8b1e2e6b2cd9fff"},"geometry":{"type":"Polygon","coordinates":[[[19.887642,50.044205],[19.887661,50.044058],[19.887728,50.044062],[19.88773,50.044041],[19.887791,50.044043],[19.887785,50.044095],[19.887793,50.044095],[19.887785,50.044158],[19.887769,50.044157],[19.887763,50.044207],[19.8878,50.044209],[19.887799,50.044213],[19.887642,50.044205]]]}},{"type":"Feature","id":"w970403282","properties":{"type":"yes","residential":true,"residents_est":3,"h3_10":"8a1e2e6b2cdffff","h3_11":"8b1e2e6b2cddfff"},"geometry":{"type":"Polygon","coordinates":[[[19.887625,50.044345],[19.887636,50.044252],[19.887665,50.044254],[19.887673,50.044207],[19.887799,50.044213],[19.887798,50.044218],[19.887767,50.044216],[19.887762,50.044259],[19.887776,50.04426],[19.887769,50.044323],[19.88776,50.044323],[19.887754,50.044366],[19.887689,50.044364],[19.88769,50.044348],[19.887625,50.044345]]]}},{"type":"Feature","id":"w970403283","properties":{"type":"yes","address":"Do Przystani 14E","residential":true,"residents_est":2,"h3_10":"8a1e2e6b2cdffff","h3_11":"8b1e2e6b2cd8fff"},"geometry":{"type":"Polygon","coordinates":[[[19.886981,50.044121],[19.886987,50.04402],[19.887082,50.044016],[19.887081,50.044025],[19.887113,50.044026],[19.887107,50.044126],[19.887092,50.044126],[19.88709,50.044156],[19.886992,50.044154],[19.886995,50.044121],[19.886981,50.044121]]]}},{"type":"Feature","id":"w970403284","properties":{"type":"house","address":"Do Przystani 14D","residential":true,"residents_est":5,"h3_10":"8a1e2e6b2cdffff","h3_11":"8b1e2e6b2cd8fff"},"geometry":{"type":"Polygon","coordinates":[[[19.886968,50.044285],[19.886975,50.044185],[19.88699,50.044185],[19.886992,50.044154],[19.88709,50.044156],[19.887088,50.044188],[19.887101,50.044189],[19.887093,50.044291],[19.887004,50.044295],[19.887005,50.044286],[19.886968,50.044285]]]}},{"type":"Feature","id":"w970404213","properties":{"type":"yes","residential":true,"residents_est":3,"h3_10":"8a1e2e6b2c9ffff","h3_11":"8b1e2e6b2c9afff"},"geometry":{"type":"Polygon","coordinates":[[[19.881925,50.043813],[19.881926,50.043765],[19.881992,50.043766],[19.881993,50.043734],[19.882045,50.043734],[19.882045,50.043745],[19.882083,50.043746],[19.882082,50.043793],[19.882071,50.043793],[19.88207,50.043831],[19.882081,50.043831],[19.882081,50.04386],[19.882064,50.04386],[19.882064,50.0439],[19.881965,50.043899],[19.881966,50.043859],[19.881954,50.043859],[19.881954,50.043814],[19.881925,50.043813]]]}},{"type":"Feature","id":"w970404215","properties":{"type":"yes","residential":true,"residents_est":2,"h3_10":"8a1e2e6b2c9ffff","h3_11":"8b1e2e6b2c9dfff"},"geometry":{"type":"Polygon","coordinates":[[[19.882362,50.044603],[19.882594,50.044596],[19.882599,50.044661],[19.882367,50.044668],[19.882362,50.044603]]]}},{"type":"Feature","id":"w970404216","properties":{"type":"yes","residential":false,"residents_est":0,"h3_10":"8a1e2e6b2c37fff","h3_11":"8b1e2e6b2c32fff"},"geometry":{"type":"Polygon","coordinates":[[[19.882452,50.047848],[19.882545,50.047832],[19.882559,50.047865],[19.882466,50.047881],[19.882452,50.047848]]]}},{"type":"Feature","id":"w1039863413","properties":{"type":"yes","levels":1.0,"residential":true,"residents_est":0,"h3_10":"8a1e2e6b2c8ffff","h3_11":"8b1e2e6b2c8cfff"},"geometry":{"type":"Polygon","coordinates":[[[19.883223,50.04533],[19.883263,50.045203],[19.883317,50.045211],[19.883277,50.045338],[19.883223,50.04533]]]}},{"type":"Feature","id":"w1039863414","properties":{"type":"yes","levels":1.0,"residential":true,"residents_est":1,"h3_10":"8a1e2e6b2c8ffff","h3_11":"8b1e2e6b2c8cfff"},"geometry":{"type":"Polygon","coordinates":[[[19.88306,50.045335],[19.883109,50.045182],[19.883162,50.04519],[19.883114,50.045342],[19.88306,50.045335]]]}},{"type":"Feature","id":"w1039863415","properties":{"type":"yes","levels":1.0,"residential":true,"residents_est":0,"h3_10":"8a1e2e6b2caffff","h3_11":"8b1e2e6b2caafff"},"geometry":{"type":"Polygon","coordinates":[[[19.883105,50.045697],[19.88314,50.045592],[19.883193,50.045599],[19.883159,50.045704],[19.883105,50.045697]]]}},{"type":"Feature","id":"w1039863428","properties":{"type":"outbuilding","levels":1.0,"residential":false,"residents_est":0,"h3_10":"8a1e2e6b2c8ffff","h3_11":"8b1e2e6b2c8afff"},"geometry":{"type":"Polygon","coordinates":[[[19.883068,50.044617],[19.883219,50.044613],[19.883222,50.044627],[19.883311,50.044623],[19.883314,50.044672],[19.883071,50.04468],[19.883068,50.044617]]]}},{"type":"Feature","id":"w1039863620","properties":{"type":"yes","levels":1.0,"residential":true,"residents_est":1,"h3_10":"8a1e2e6b2caffff","h3_11":"8b1e2e6b2caafff"},"geometry":{"type":"Polygon","coordinates":[[[19.883183,50.04546],[19.883223,50.04533],[19.883277,50.045338],[19.883236,50.045468],[19.883183,50.04546]]]}},{"type":"Feature","id":"w1039863624","properties":{"type":"yes","levels":1.0,"residential":true,"residents_est":0,"h3_10":"8a1e2e6b2caffff","h3_11":"8b1e2e6b2caafff"},"geometry":{"type":"Polygon","coordinates":[[[19.883026,50.04544],[19.88306,50.045335],[19.883114,50.045342],[19.88308,50.045447],[19.883026,50.04544]]]}},{"type":"Feature","id":"w1039863625","properties":{"type":"yes","levels":1.0,"residential":true,"residents_est":0,"h3_10":"8a1e2e6b2caffff","h3_11":"8b1e2e6b2caafff"},"geometry":{"type":"Polygon","coordinates":[[[19.88314,50.045592],[19.883173,50.045492],[19.883226,50.045499],[19.883193,50.045599],[19.88314,50.045592]]]}},{"type":"Feature","id":"w1039863626","properties":{"type":"outbuilding","levels":1.0,"residential":false,"residents_est":0,"h3_10":"8a1e2e6b2c9ffff","h3_11":"8b1e2e6b2c9cfff"},"geometry":{"type":"Polygon","coordinates":[[[19.881901,50.044225],[19.881949,50.044181],[19.882048,50.044226],[19.882,50.04427],[19.881901,50.044225]]]}},{"type":"Feature","id":"w1039863630","properties":{"type":"outbuilding","levels":1.0,"residential":false,"residents_est":0,"h3_10":"8a1e2e6b2caffff","h3_11":"8b1e2e6b2caefff"},"geometry":{"type":"Polygon","coordinates":[[[19.88225,50.045807],[19.882268,50.045754],[19.88237,50.045769],[19.882352,50.045821],[19.88225,50.045807]]]}},{"type":"Feature","id":"w1039863631","properties":{"type":"outbuilding","levels":1.0,"residential":false,"residents_est":0,"h3_10":"8a1e2e6b2c6ffff","h3_11":"8b1e2e6b2c6afff"},"geometry":{"type":"Polygon","coordinates":[[[19.890702,50.048103],[19.890708,50.04803],[19.890794,50.048033],[19.890787,50.048106],[19.890702,50.048103]]]}},{"type":"Feature","id":"w1039863632","properties":{"type":"outbuilding","levels":1.0,"residential":false,"residents_est":0,"h3_10":"8a1e2e6b2daffff","h3_11":"8b1e2e6b2dabfff"},"geometry":{"type":"Polygon","coordinates":[[[19.881389,50.047933],[19.881469,50.04793],[19.881477,50.047999],[19.881396,50.048002],[19.881389,50.047933]]]}},{"type":"Feature","id":"w1245495401","properties":{"type":"yes","residential":true,"residents_est":1,"h3_10":"8a1e2e6b2c17fff","h3_11":"8b1e2e6b2c15fff"},"geometry":{"type":"Polygon","coordinates":[[[19.883116,50.047231],[19.883266,50.047219],[19.883273,50.047255],[19.883123,50.047266],[19.883116,50.047231]]]}},{"type":"Feature","id":"w1245495433","properties":{"type":"construction","residential":false,"residents_est":0,"h3_10":"8a1e2e6b2c4ffff","h3_11":"8b1e2e6b2c4dfff"},"geometry":{"type":"Polygon","coordinates":[[[19.891354,50.047936],[19.891361,50.047865],[19.891561,50.047874],[19.891554,50.047944],[19.891354,50.047936]]]}},{"type":"Feature","id":"w1263263813","properties":{"type":"yes","residential":true,"residents_est":11,"h3_10":"8a1e2e6b2c9ffff","h3_11":"8b1e2e6b2c9bfff"},"geometry":{"type":"Polygon","coordinates":[[[19.882394,50.043581],[19.882399,50.043459],[19.882717,50.043465],[19.882712,50.043587],[19.882394,50.043581]]]}},{"type":"Feature","id":"w1474384920","properties":{"type":"house","address":"Do Przystani 14G","residential":true,"residents_est":5,"h3_10":"8a1e2e6b2cdffff","h3_11":"8b1e2e6b2cdefff"},"geometry":{"type":"Polygon","coordinates":[[[19.886498,50.044268],[19.886505,50.044168],[19.886519,50.044168],[19.886522,50.044137],[19.88662,50.044139],[19.886618,50.044171],[19.88663,50.044172],[19.886623,50.044274],[19.886534,50.044278],[19.886535,50.044269],[19.886498,50.044268]]]}},{"type":"Feature","id":"w1474384921","properties":{"type":"yes","address":"Do Przystani 14F","residential":true,"residents_est":2,"h3_10":"8a1e2e6b2cdffff","h3_11":"8b1e2e6b2cdefff"},"geometry":{"type":"Polygon","coordinates":[[[19.886511,50.044103],[19.886517,50.044003],[19.886612,50.043999],[19.886611,50.044008],[19.886643,50.044009],[19.886637,50.044109],[19.886622,50.044109],[19.88662,50.044139],[19.886522,50.044137],[19.886524,50.044104],[19.886511,50.044103]]]}},{"type":"Feature","id":"w1561972064","properties":{"type":"house","residential":true,"residents_est":5,"h3_10":"8a1e2e6b2cd7fff","h3_11":"8b1e2e6b2cd5fff"},"geometry":{"type":"Polygon","coordinates":[[[19.885899,50.044895],[19.885907,50.044796],[19.885921,50.044796],[19.885924,50.044764],[19.886021,50.044767],[19.88602,50.044799],[19.886032,50.044799],[19.886025,50.044902],[19.885936,50.044905],[19.885937,50.044896],[19.885899,50.044895]]]}},{"type":"Feature","id":"w1561972065","properties":{"type":"yes","residential":true,"residents_est":2,"h3_10":"8a1e2e6b2cd7fff","h3_11":"8b1e2e6b2cd5fff"},"geometry":{"type":"Polygon","coordinates":[[[19.885912,50.044731],[19.885919,50.04463],[19.886013,50.044627],[19.886013,50.044636],[19.886045,50.044637],[19.886039,50.044737],[19.886023,50.044736],[19.886021,50.044767],[19.885924,50.044764],[19.885926,50.044732],[19.885912,50.044731]]]}}]}