{"type":"FeatureCollection","features":[{"type":"Feature","id":"w155010833","properties":{"type":"yes","residential":true,"residents_est":4,"h3_10":"8a1e2e682a87fff","h3_11":"8b1e2e682a86fff"},"geometry":{"type":"Polygon","coordinates":[[[19.989856,50.030186],[19.990113,50.030157],[19.990134,50.030235],[19.990033,50.030246],[19.990036,50.030254],[19.989997,50.030258],[19.989995,50.030251],[19.989877,50.030264],[19.989856,50.030186]]]}},{"type":"Feature","id":"w155010855","properties":{"type":"yes","levels":2.0,"address":"Kolejowa 4a","residential":true,"residents_est":4,"h3_10":"8a1e2e682a97fff","h3_11":"8b1e2e682a92fff"},"geometry":{"type":"Polygon","coordinates":[[[19.988778,50.029133],[19.988976,50.029061],[19.989045,50.029143],[19.988978,50.029166],[19.988986,50.029176],[19.988934,50.029194],[19.988926,50.029185],[19.988847,50.029212],[19.988778,50.029133]]]}},{"type":"Feature","id":"w155654721","properties":{"type":"yes","residential":true,"residents_est":15,"h3_10":"8a1e2e682a4ffff","h3_11":"8b1e2e682a4bfff"},"geometry":{"type":"Polygon","coordinates":[[[20.000074,50.032026],[20.000324,50.032011],[20.000346,50.032175],[20.000097,50.03219],[20.000074,50.032026]]]}},{"type":"Feature","id":"w155654899","properties":{"type":"yes","residential":true,"residents_est":64,"h3_10":"8a1e2e682a4ffff","h3_11":"8b1e2e682a4afff"},"geometry":{"type":"Polygon","coordinates":[[[19.999653,50.031879],[19.999897,50.03186],[20.000035,50.032556],[19.999785,50.032576],[19.999653,50.031879]]]}},{"type":"Feature","id":"w155654915","properties":{"type":"yes","address":"Bagrowa 9","residential":true,"residents_est":18,"h3_10":"8a1e2e682a4ffff","h3_11":"8b1e2e682a4dfff"},"geometry":{"type":"Polygon","coordinates":[[[19.999992,50.032745],[20.000457,50.03271],[20.000477,50.032815],[20.000012,50.032851],[19.999992,50.032745]]]}},{"type":"Feature","id":"w155655007","properties":{"type":"yes","address":"Sudecka 4","residential":true,"residents_est":64,"h3_10":"8a1e2e682a4ffff","h3_11":"8b1e2e682a49fff"},"geometry":{"type":"Polygon","coordinates":[[[20.000947,50.032266],[20.001283,50.032233],[20.001381,50.032741],[20.001046,50.03277],[20.000947,50.032266]]]}},{"type":"Feature","id":"r2089235","properties":{"type":"yes","residential":true,"residents_est":165,"h3_10":"8a1e2e682a6ffff","h3_11":"8b1e2e682a69fff"},"geometry":{"type":"Polygon","coordinates":[[[20.000253,50.033615],[20.00028,50.033612],[20.000279,50.033606],[20.000346,50.033599],[20.00035,50.033614],[20.000663,50.033592],[20.000681,50.033696],[20.000789,50.03369],[20.00082,50.033853],[20.00098,50.033839],[20.000858,50.033193],[20.001365,50.033152],[20.001493,50.033808],[20.000324,50.033898],[20.00029,50.033726],[20.000276,50.033727],[20.000253,50.033615]],[[20.000384,50.033719],[20.000405,50.033826],[20.000625,50.033808],[20.000609,50.033702],[20.000384,50.033719]]]}},{"type":"Feature","id":"w156415140","properties":{"type":"yes","residential":true,"residents_est":5,"h3_10":"8a1e2e682a0ffff","h3_11":"8b1e2e682a0dfff"},"geometry":{"type":"Polygon","coordinates":[[[19.995286,50.0327],[19.995395,50.032656],[19.995559,50.032824],[19.995449,50.032868],[19.995286,50.0327]]]}},{"type":"Feature","id":"w156415141","properties":{"type":"yes","residential":true,"residents_est":17,"h3_10":"8a1e2e682a57fff","h3_11":"8b1e2e682a56fff"},"geometry":{"type":"Polygon","coordinates":[[[19.995853,50.032209],[19.996155,50.032188],[19.996158,50.032209],[19.99628,50.0322],[19.996276,50.03218],[19.996285,50.03218],[19.996288,50.032199],[19.996365,50.032194],[19.996362,50.032174],[19.996371,50.032174],[19.996386,50.032268],[19.99587,50.032304],[19.995853,50.032209]]]}},{"type":"Feature","id":"w159333333","properties":{"type":"apartments","levels":5.0,"address":"Gliniana 17","residential":true,"residents_est":116,"h3_10":"8a1e2e682b57fff","h3_11":"8b1e2e682b54fff"},"geometry":{"type":"Polygon","coordinates":[[[19.993459,50.035195],[19.993472,50.035003],[19.993672,50.03489],[19.993667,50.034886],[19.993769,50.034833],[19.993764,50.03483],[19.993807,50.034804],[19.993844,50.034805],[19.993844,50.03481],[19.994077,50.034816],[19.994078,50.034811],[19.994108,50.034812],[19.99411,50.034772],[19.994357,50.034778],[19.994349,50.034883],[19.994297,50.034882],[19.994295,50.034897],[19.994278,50.034897],[19.99421,50.034895],[19.994211,50.034879],[19.994107,50.034877],[19.994104,50.03492],[19.993992,50.034917],[19.993991,50.034924],[19.993943,50.034923],[19.993944,50.034913],[19.993871,50.034912],[19.993845,50.034925],[19.993855,50.034932],[19.993818,50.034954],[19.993809,50.034947],[19.99369,50.035018],[19.9937,50.035025],[19.993665,50.035045],[19.993658,50.03504],[19.993633,50.035053],[19.99363,50.035118],[19.993644,50.035118],[19.993643,50.035148],[19.993627,50.035148],[19.993625,50.035198],[19.993459,50.035195]]]}},{"type":"Feature","id":"w159333335","properties":{"type":"yes","residential":true,"residents_est":3,"h3_10":"8a1e2e682b5ffff","h3_11":"8b1e2e682b5afff"},"geometry":{"type":"Polygon","coordinates":[[[19.996111,50.034008],[19.996129,50.033962],[19.996316,50.033991],[19.996272,50.034108],[19.996199,50.034097],[19.996213,50.034058],[19.996139,50.034052],[19.996132,50.034044],[19.996144,50.034013],[19.996111,50.034008]]]}},{"type":"Feature","id":"w159333337","properties":{"type":"apartments","address":"Gliniana 7","residential":true,"residents_est":52,"h3_10":"8a1e2e682b47fff","h3_11":"8b1e2e682b42fff"},"geometry":{"type":"Polygon","coordinates":[[[19.995537,50.034985],[19.995554,50.034646],[19.995714,50.03465],[19.995711,50.034714],[19.995748,50.034715],[19.995739,50.03472],[19.995738,50.03474],[19.99571,50.03474],[19.995705,50.034831],[19.995743,50.034832],[19.995742,50.034837],[19.995733,50.034837],[19.995732,50.034858],[19.995703,50.034858],[19.995699,50.034927],[19.995739,50.034928],[19.995738,50.034934],[19.995729,50.034934],[19.995728,50.034955],[19.995697,50.034955],[19.995695,50.034988],[19.995537,50.034985]]]}},{"type":"Feature","id":"w159333339","properties":{"type":"yes","residential":true,"residents_est":4,"h3_10":"8a1e2e682b5ffff","h3_11":"8b1e2e682b5afff"},"geometry":{"type":"Polygon","coordinates":[[[19.995675,50.033966],[19.995702,50.033899],[19.995949,50.03394],[19.995917,50.034025],[19.995727,50.033994],[19.995734,50.033976],[19.995675,50.033966]]]}},{"type":"Feature","id":"w159333341","properties":{"type":"dormitory","levels":5.0,"address":"Grochowa 17","name":"Dom Studencki \"Atol\"","residential":true,"residents_est":73,"h3_10":"8a1e2e682b6ffff","h3_11":"8b1e2e682b68fff"},"geometry":{"type":"Polygon","coordinates":[[[19.997217,50.035829],[19.997379,50.035827],[19.997392,50.036311],[19.99723,50.036314],[19.997217,50.035829]]]}},{"type":"Feature","id":"w159333342","properties":{"type":"apartments","levels":5.0,"address":"Kozia 7","residential":true,"residents_est":45,"h3_10":"8a1e2e682b4ffff","h3_11":"8b1e2e682b49fff"},"geometry":{"type":"Polygon","coordinates":[[[19.998245,50.035319],[19.998285,50.035163],[19.99859,50.035196],[19.99855,50.035352],[19.998245,50.035319]]]}},{"type":"Feature","id":"w159333344","properties":{"type":"semidetached_house","levels":1.0,"address":"Grochowa 34","residential":true,"residents_est":3,"h3_10":"8a1e2e682b4ffff","h3_11":"8b1e2e682b4efff"},"geometry":{"type":"Polygon","coordinates":[[[19.99674,50.035097],[19.996741,50.035014],[19.996903,50.035015],[19.996902,50.035097],[19.99674,50.035097]]]}},{"type":"Feature","id":"w159333347","properties":{"type":"yes","address":"Kozia 21","residential":true,"residents_est":2,"h3_10":"8a1e2e682b5ffff","h3_11":"8b1e2e682b58fff"},"geometry":{"type":"Polygon","coordinates":[[[19.996063,50.034443],[19.996094,50.034362],[19.996232,50.034385],[19.996225,50.034402],[19.996255,50.034407],[19.996231,50.03447],[19.996063,50.034443]]]}},{"type":"Feature","id":"w159333348","properties":{"type":"apartments","levels":5.0,"address":"Gliniana 9","residential":true,"residents_est":70,"h3_10":"8a1e2e682b47fff","h3_11":"8b1e2e682b46fff"},"geometry":{"type":"Polygon","coordinates":[[[19.995297,50.035569],[19.995313,50.035111],[19.995471,50.035113],[19.995468,50.035176],[19.995508,50.035177],[19.995508,50.035182],[19.9955,50.035182],[19.995499,50.035204],[19.995468,50.035204],[19.995465,50.035286],[19.995506,50.035291],[19.995497,50.035291],[19.995496,50.035315],[19.995464,50.035315],[19.995461,50.035395],[19.995504,50.035396],[19.995504,50.035401],[19.995492,50.035401],[19.995491,50.035423],[19.995459,50.035422],[19.995456,50.035514],[19.995499,50.035519],[19.995488,50.035519],[19.995487,50.035542],[19.995455,50.035542],[19.995453,50.035572],[19.995297,50.035569]]]}},{"type":"Feature","id":"w159333350","properties":{"type":"apartments","address":"Gliniana 1","residential":true,"residents_est":21,"h3_10":"8a1e2e682b47fff","h3_11":"8b1e2e682b41fff"},"geometry":{"type":"Polygon","coordinates":[[[19.996734,50.035582],[19.996735,50.035444],[19.996892,50.035444],[19.996892,50.035582],[19.996734,50.035582]]]}},{"type":"Feature","id":"w159333352","properties":{"type":"apartments","levels":5.0,"address":"Kozia 9","residential":true,"residents_est":45,"h3_10":"8a1e2e682b4ffff","h3_11":"8b1e2e682b49fff"},"geometry":{"type":"Polygon","coordinates":[[[19.998322,50.035023],[19.998362,50.034867],[19.998666,50.034899],[19.998626,50.035055],[19.998322,50.035023]]]}},{"type":"Feature","id":"w159333358","properties":{"type":"apartments","levels":4.0,"address":"Gliniana 13","residential":true,"residents_est":34,"h3_10":"8a1e2e682b77fff","h3_11":"8b1e2e682b73fff"},"geometry":{"type":"Polygon","coordinates":[[[19.994675,50.035476],[19.994689,50.035207],[19.994854,50.035211],[19.99485,50.035275],[19.994878,50.035275],[19.994877,50.035305],[19.994849,50.035305],[19.994844,50.035393],[19.994872,50.035394],[19.994871,50.035424],[19.994842,50.035423],[19.994839,50.03548],[19.994675,50.035476]]]}},{"type":"Feature","id":"w159333359","properties":{"type":"yes","address":"Gliniana 1A","residential":true,"residents_est":2,"h3_10":"8a1e2e682b47fff","h3_11":"8b1e2e682b41fff"},"geometry":{"type":"Polygon","coordinates":[[[19.996501,50.035574],[19.996507,50.035472],[19.996512,50.035472],[19.996511,50.035483],[19.996647,50.035482],[19.996641,50.035577],[19.996501,50.035574]]]}},{"type":"Feature","id":"w159333361","properties":{"type":"yes","address":"Kozia 19","residential":true,"residents_est":2,"h3_10":"8a1e2e682b5ffff","h3_11":"8b1e2e682b58fff"},"geometry":{"type":"Polygon","coordinates":[[[19.996345,50.034433],[19.996372,50.034353],[19.996487,50.034369],[19.996459,50.034449],[19.996345,50.034433]]]}},{"type":"Feature","id":"w159333366","properties":{"type":"yes","address":"Grochowa 38","residential":true,"residents_est":20,"h3_10":"8a1e2e682b47fff","h3_11":"8b1e2e682b43fff"},"geometry":{"type":"Polygon","coordinates":[[[19.996066,50.034929],[19.996066,50.034854],[19.996093,50.034854],[19.996093,50.034842],[19.996195,50.034842],[19.996195,50.034855],[19.996403,50.034856],[19.996404,50.034845],[19.996507,50.034845],[19.996507,50.034857],[19.996532,50.034857],[19.996531,50.034931],[19.996524,50.034931],[19.996524,50.034971],[19.99634,50.034971],[19.99634,50.034966],[19.996071,50.03497],[19.996071,50.034929],[19.996066,50.034929]]]}},{"type":"Feature","id":"w159333368","properties":{"type":"apartments","address":"Gliniana 11","residential":true,"residents_est":50,"h3_10":"8a1e2e682b57fff","h3_11":"8b1e2e682b55fff"},"geometry":{"type":"Polygon","coordinates":[[[19.994745,50.035103],[19.994764,50.03476],[19.994922,50.034764],[19.994903,50.035106],[19.994745,50.035103]]]}},{"type":"Feature","id":"w159333370","properties":{"type":"house","levels":2.0,"address":"Grochowa 42","residential":true,"residents_est":7,"h3_10":"8a1e2e682b5ffff","h3_11":"8b1e2e682b5dfff"},"geometry":{"type":"Polygon","coordinates":[[[19.996701,50.0345],[19.996704,50.034433],[19.996926,50.034438],[19.996921,50.034532],[19.996793,50.03453],[19.996795,50.0345],[19.996701,50.0345]]]}},{"type":"Feature","id":"w159333376","properties":{"type":"yes","address":"Gliniana 16","residential":true,"residents_est":35,"h3_10":"8a1e2e682b77fff","h3_11":"8b1e2e682b70fff"},"geometry":{"type":"Polygon","coordinates":[[[19.994089,50.036192],[19.994147,50.035812],[19.994118,50.035811],[19.994125,50.035765],[19.994279,50.035775],[19.994283,50.035747],[19.994366,50.035753],[19.994347,50.035878],[19.994372,50.03588],[19.99437,50.035894],[19.994367,50.035913],[19.994342,50.035911],[19.994323,50.03604],[19.994348,50.036041],[19.994343,50.036075],[19.994318,50.036073],[19.994298,50.036206],[19.994089,50.036192]]]}},{"type":"Feature","id":"w159333393","properties":{"type":"sports_hall","levels":1.0,"address":"Grochowa 15","residential":false,"residents_est":0,"h3_10":"8a1e2e682b6ffff","h3_11":"8b1e2e682b6dfff"},"geometry":{"type":"Polygon","coordinates":[[[19.997299,50.036574],[19.997475,50.036572],[19.99748,50.036787],[19.997612,50.036786],[19.997612,50.036779],[19.997673,50.036778],[19.997674,50.036785],[19.997721,50.036785],[19.997719,50.036571],[19.997976,50.036568],[19.997983,50.036872],[19.997306,50.036879],[19.997299,50.036574]]]}},{"type":"Feature","id":"w159333394","properties":{"type":"yes","address":"Gliniana 15","residential":true,"residents_est":48,"h3_10":"8a1e2e682b77fff","h3_11":"8b1e2e682b72fff"},"geometry":{"type":"Polygon","coordinates":[[[19.993441,50.035456],[19.993447,50.035354],[19.994119,50.035366],[19.994224,50.035302],[19.994234,50.035142],[19.994403,50.035147],[19.994399,50.035201],[19.994415,50.035201],[19.994412,50.035235],[19.994397,50.035234],[19.99439,50.03535],[19.994292,50.035408],[19.9943,50.035414],[19.994266,50.035435],[19.994256,50.035428],[19.994178,50.035474],[19.994064,50.035471],[19.994064,50.035481],[19.994015,50.03548],[19.994015,50.03547],[19.993841,50.035466],[19.99384,50.035474],[19.993795,50.035473],[19.993795,50.035465],[19.993619,50.03546],[19.993608,50.03546],[19.993608,50.035469],[19.993559,50.035468],[19.993559,50.035459],[19.993441,50.035456]]]}},{"type":"Feature","id":"w162591224","properties":{"type":"yes","address":"Kacza 31","residential":true,"residents_est":2,"h3_10":"8a1e2e682b37fff","h3_11":"8b1e2e682b36fff"},"geometry":{"type":"Polygon","coordinates":[[[19.98841,50.035976],[19.988507,50.035928],[19.98857,50.03598],[19.988473,50.036028],[19.98841,50.035976]]]}},{"type":"Feature","id":"w162591227","properties":{"type":"yes","address":"Gliniana 12","residential":true,"residents_est":3,"h3_10":"8a1e2e682b77fff","h3_11":"8b1e2e682b71fff"},"geometry":{"type":"Polygon","coordinates":[[[19.995125,50.035937],[19.995128,50.035846],[19.995269,50.035845],[19.995266,50.03594],[19.995217,50.035939],[19.995216,50.035958],[19.995144,50.035957],[19.995144,50.035937],[19.995125,50.035937]]]}},{"type":"Feature","id":"w162591234","properties":{"type":"yes","address":"Iłowa 1","residential":true,"residents_est":3,"h3_10":"8a1e2e682b2ffff","h3_11":"8b1e2e682b2cfff"},"geometry":{"type":"Polygon","coordinates":[[[19.992152,50.036575],[19.992284,50.036525],[19.992359,50.036607],[19.992232,50.036663],[19.992152,50.036575]]]}},{"type":"Feature","id":"w162591242","properties":{"type":"yes","address":"Żeńców 49","residential":true,"residents_est":2,"h3_10":"8a1e2e682b0ffff","h3_11":"8b1e2e682b0cfff"},"geometry":{"type":"Polygon","coordinates":[[[19.992404,50.035508],[19.992525,50.03549],[19.992557,50.035579],[19.992435,50.035597],[19.992404,50.035508]]]}},{"type":"Feature","id":"w162591253","properties":{"type":"yes","address":"Gliniana 5","residential":true,"residents_est":3,"h3_10":"8a1e2e682b47fff","h3_11":"8b1e2e682b40fff"},"geometry":{"type":"Polygon","coordinates":[[[19.995938,50.035547],[19.995945,50.035453],[19.996085,50.035458],[19.996078,50.035552],[19.995938,50.035547]]]}},{"type":"Feature","id":"w162591256","properties":{"type":"yes","address":"Kacza 33","residential":true,"residents_est":3,"h3_10":"8a1e2e682b37fff","h3_11":"8b1e2e682b36fff"},"geometry":{"type":"Polygon","coordinates":[[[19.98856,50.035879],[19.988669,50.035827],[19.988761,50.035906],[19.98872,50.035926],[19.988732,50.035936],[19.9887,50.035953],[19.988687,50.035943],[19.988655,50.035959],[19.988595,50.035909],[19.988591,50.035911],[19.988585,50.035905],[19.988589,50.035903],[19.98856,50.035879]]]}},{"type":"Feature","id":"w162591259","properties":{"type":"yes","address":"Grochowa 26g","residential":true,"residents_est":3,"h3_10":"8a1e2e682b67fff","h3_11":"8b1e2e682b62fff"},"geometry":{"type":"Polygon","coordinates":[[[19.995046,50.03625],[19.995058,50.036142],[19.995091,50.036144],[19.995087,50.036181],[19.99523,50.036183],[19.995221,50.036258],[19.99515,50.036255],[19.995151,50.03625],[19.995046,50.03625]]]}},{"type":"Feature","id":"w162591260","properties":{"type":"yes","address":"Źródlana 38","residential":true,"residents_est":2,"h3_10":"8a1e2e682b27fff","h3_11":"8b1e2e682b25fff"},"geometry":{"type":"Polygon","coordinates":[[[19.990993,50.037048],[19.991003,50.037042],[19.991014,50.037049],[19.991021,50.037044],[19.990997,50.037029],[19.991034,50.037005],[19.991075,50.037034],[19.991088,50.037026],[19.99111,50.03704],[19.991097,50.037049],[19.991194,50.037109],[19.991141,50.037143],[19.990993,50.037048]]]}},{"type":"Feature","id":"w162591266","properties":{"type":"yes","address":"Iłowa 3","residential":true,"residents_est":2,"h3_10":"8a1e2e682b2ffff","h3_11":"8b1e2e682b2cfff"},"geometry":{"type":"Polygon","coordinates":[[[19.99204,50.036376],[19.99217,50.03633],[19.992235,50.036407],[19.99209,50.036458],[19.992058,50.036421],[19.992073,50.036415],[19.99204,50.036376]]]}},{"type":"Feature","id":"w162591270","properties":{"type":"yes","address":"Kacza 40","residential":true,"residents_est":2,"h3_10":"8a1e2e682b0ffff","h3_11":"8b1e2e682b0cfff"},"geometry":{"type":"Polygon","coordinates":[[[19.991992,50.035301],[19.992106,50.035272],[19.992149,50.035342],[19.992036,50.035371],[19.991992,50.035301]]]}},{"type":"Feature","id":"w162591287","properties":{"type":"yes","address":"Gliniana 6","residential":true,"residents_est":2,"h3_10":"8a1e2e682b67fff","h3_11":"8b1e2e682b63fff"},"geometry":{"type":"Polygon","coordinates":[[[19.996014,50.035989],[19.99602,50.035908],[19.996077,50.03591],[19.996078,50.0359],[19.996135,50.035902],[19.996128,50.035993],[19.996014,50.035989]]]}},{"type":"Feature","id":"w162591307","properties":{"type":"yes","residential":true,"residents_est":2,"h3_10":"8a1e2e682b6ffff","h3_11":"8b1e2e682b6efff"},"geometry":{"type":"Polygon","coordinates":[[[19.996373,50.036106],[19.996486,50.036105],[19.996488,50.036189],[19.996375,50.03619],[19.996373,50.036106]]]}},{"type":"Feature","id":"w162591341","properties":{"type":"yes","address":"Źródlana 35","residential":true,"residents_est":2,"h3_10":"8a1e2e682b27fff","h3_11":"8b1e2e682b24fff"},"geometry":{"type":"Polygon","coordinates":[[[19.990333,50.036991],[19.990444,50.036946],[19.990536,50.03704],[19.990485,50.037061],[19.990472,50.037047],[19.990413,50.037072],[19.990333,50.036991]]]}},{"type":"Feature","id":"w162591357","properties":{"type":"yes","address":"Żeńców 47","residential":true,"residents_est":2,"h3_10":"8a1e2e682b2ffff","h3_11":"8b1e2e682b2afff"},"geometry":{"type":"Polygon","coordinates":[[[19.992121,50.035586],[19.99225,50.035551],[19.992295,50.03562],[19.992165,50.035654],[19.992121,50.035586]]]}},{"type":"Feature","id":"w162591361","properties":{"type":"yes","residential":true,"residents_est":2,"h3_10":"8a1e2e682b27fff","h3_11":"8b1e2e682b24fff"},"geometry":{"type":"Polygon","coordinates":[[[19.989973,50.036759],[19.990075,50.036719],[19.99016,50.036808],[19.990058,50.036848],[19.989973,50.036759]]]}},{"type":"Feature","id":"w162591368","properties":{"type":"yes","address":"Żeńców 54","residential":true,"residents_est":4,"h3_10":"8a1e2e682b2ffff","h3_11":"8b1e2e682b2afff"},"geometry":{"type":"Polygon","coordinates":[[[19.992288,50.03588],[19.992354,50.035863],[19.992328,50.035823],[19.992443,50.035792],[19.992475,50.035841],[19.992489,50.035837],[19.992505,50.035861],[19.99249,50.035866],[19.99251,50.035896],[19.99233,50.035945],[19.992288,50.03588]]]}},{"type":"Feature","id":"w162591379","properties":{"type":"yes","address":"Źródlana 43","residential":true,"residents_est":2,"h3_10":"8a1e2e682b27fff","h3_11":"8b1e2e682b25fff"},"geometry":{"type":"Polygon","coordinates":[[[19.990971,50.036736],[19.991066,50.036699],[19.991115,50.03675],[19.991134,50.036743],[19.991166,50.036778],[19.991129,50.036793],[19.991136,50.0368],[19.991061,50.03683],[19.990971,50.036736]]]}},{"type":"Feature","id":"w162591387","properties":{"type":"yes","address":"Żeńców 43","residential":true,"residents_est":3,"h3_10":"8a1e2e682b07fff","h3_11":"8b1e2e682b05fff"},"geometry":{"type":"Polygon","coordinates":[[[19.99155,50.03575],[19.9917,50.035698],[19.991771,50.035782],[19.991621,50.035835],[19.99155,50.03575]]]}},{"type":"Feature","id":"w162591391","properties":{"type":"yes","address":"Żeńców 45","residential":true,"residents_est":3,"h3_10":"8a1e2e682b2ffff","h3_11":"8b1e2e682b2afff"},"geometry":{"type":"Polygon","coordinates":[[[19.991809,50.035625],[19.991934,50.035588],[19.992015,50.035703],[19.991956,50.03572],[19.991951,50.035712],[19.991925,50.03572],[19.99193,50.035727],[19.991889,50.035739],[19.991809,50.035625]]]}},{"type":"Feature","id":"w162591396","properties":{"type":"yes","residential":true,"residents_est":2,"h3_10":"8a1e2e682b27fff","h3_11":"8b1e2e682b25fff"},"geometry":{"type":"Polygon","coordinates":[[[19.990663,50.03688],[19.990714,50.036859],[19.990726,50.036871],[19.990787,50.036847],[19.990852,50.036914],[19.990796,50.036936],[19.990784,50.036923],[19.990727,50.036946],[19.990663,50.03688]]]}},{"type":"Feature","id":"w162591398","properties":{"type":"yes","address":"Kozia 14","residential":true,"residents_est":3,"h3_10":"8a1e2e682a67fff","h3_11":"8b1e2e682a64fff"},"geometry":{"type":"Polygon","coordinates":[[[19.997395,50.034285],[19.997423,50.034185],[19.997558,50.0342],[19.99753,50.034301],[19.997395,50.034285]]]}},{"type":"Feature","id":"w162591399","properties":{"type":"yes","address":"Iłowa 4","residential":true,"residents_est":3,"h3_10":"8a1e2e682b27fff","h3_11":"8b1e2e682b21fff"},"geometry":{"type":"Polygon","coordinates":[[[19.991519,50.036474],[19.991665,50.036424],[19.991708,50.036477],[19.991665,50.036492],[19.991683,50.036514],[19.991693,50.03651],[19.99172,50.036543],[19.991587,50.036588],[19.991547,50.036538],[19.991566,50.036531],[19.991519,50.036474]]]}},{"type":"Feature","id":"w162591404","properties":{"type":"yes","address":"Żeńców 36","residential":true,"residents_est":2,"h3_10":"8a1e2e682b27fff","h3_11":"8b1e2e682b24fff"},"geometry":{"type":"Polygon","coordinates":[[[19.990302,50.036648],[19.990349,50.036629],[19.990342,50.036622],[19.990393,50.036601],[19.990468,50.036678],[19.990371,50.036718],[19.990302,50.036648]]]}},{"type":"Feature","id":"w162591444","properties":{"type":"yes","address":"Żeńców 58","residential":true,"residents_est":3,"h3_10":"8a1e2e682b2ffff","h3_11":"8b1e2e682b2bfff"},"geometry":{"type":"Polygon","coordinates":[[[19.992657,50.035834],[19.992664,50.035748],[19.992722,50.03575],[19.992724,50.035735],[19.992834,50.035745],[19.992828,50.035828],[19.99273,50.035825],[19.992729,50.035836],[19.992657,50.035834]]]}},{"type":"Feature","id":"w162591446","properties":{"type":"yes","address":"Żeńców 37","residential":true,"residents_est":2,"h3_10":"8a1e2e682b27fff","h3_11":"8b1e2e682b23fff"},"geometry":{"type":"Polygon","coordinates":[[[19.990713,50.036055],[19.990833,50.036011],[19.990901,50.036087],[19.990858,50.036103],[19.99087,50.036116],[19.990829,50.036131],[19.990816,50.036117],[19.990779,50.03613],[19.990713,50.036055]]]}},{"type":"Feature","id":"w162591456","properties":{"type":"yes","address":"Źródlana 45","residential":true,"residents_est":3,"h3_10":"8a1e2e682b27fff","h3_11":"8b1e2e682b21fff"},"geometry":{"type":"Polygon","coordinates":[[[19.991185,50.036657],[19.991309,50.036607],[19.99139,50.03669],[19.991265,50.03674],[19.991185,50.036657]]]}},{"type":"Feature","id":"w162591460","properties":{"type":"yes","residential":true,"residents_est":2,"h3_10":"8a1e2e682b27fff","h3_11":"8b1e2e682b20fff"},"geometry":{"type":"Polygon","coordinates":[[[19.990633,50.03652],[19.990729,50.036482],[19.990801,50.036558],[19.990726,50.036588],[19.990701,50.036561],[19.99068,50.036569],[19.990633,50.03652]]]}},{"type":"Feature","id":"w162591475","properties":{"type":"yes","residential":true,"residents_est":1,"h3_10":"8a1e2e682a77fff","h3_11":"8b1e2e682a74fff"},"geometry":{"type":"Polygon","coordinates":[[[19.996163,50.03352],[19.996196,50.033456],[19.996294,50.033477],[19.996261,50.033541],[19.996163,50.03352]]]}},{"type":"Feature","id":"w162591495","properties":{"type":"yes","address":"Kacza 34","residential":true,"residents_est":2,"h3_10":"8a1e2e682b27fff","h3_11":"8b1e2e682b22fff"},"geometry":{"type":"Polygon","coordinates":[[[19.98993,50.035997],[19.990087,50.035954],[19.990135,50.036027],[19.989978,50.03607],[19.98993,50.035997]]]}},{"type":"Feature","id":"w162591527","properties":{"type":"yes","residential":true,"residents_est":3,"h3_10":"8a1e2e682b67fff","h3_11":"8b1e2e682b64fff"},"geometry":{"type":"Polygon","coordinates":[[[19.995113,50.036867],[19.995123,50.036781],[19.995156,50.036783],[19.995159,50.036762],[19.995228,50.036765],[19.995227,50.03678],[19.995266,50.036781],[19.995259,50.036873],[19.995113,50.036867]]]}},{"type":"Feature","id":"w162591547","properties":{"type":"yes","address":"Źródlana 41","residential":true,"residents_est":3,"h3_10":"8a1e2e682b27fff","h3_11":"8b1e2e682b25fff"},"geometry":{"type":"Polygon","coordinates":[[[19.99086,50.03678],[19.990971,50.036736],[19.991051,50.036821],[19.990976,50.036851],[19.990984,50.03686],[19.99095,50.036874],[19.99086,50.03678]]]}},{"type":"Feature","id":"w162591570","properties":{"type":"yes","address":"Kacza 38","residential":true,"residents_est":2,"h3_10":"8a1e2e682b07fff","h3_11":"8b1e2e682b01fff"},"geometry":{"type":"Polygon","coordinates":[[[19.991724,50.035381],[19.991797,50.035358],[19.991784,50.035341],[19.991844,50.035322],[19.991909,50.035409],[19.991777,50.035451],[19.991724,50.035381]]]}},{"type":"Feature","id":"w162591581","properties":{"type":"detached","levels":1.0,"address":"Grochowa 40","residential":true,"residents_est":2,"h3_10":"8a1e2e682b5ffff","h3_11":"8b1e2e682b5dfff"},"geometry":{"type":"Polygon","coordinates":[[[19.996762,50.034717],[19.996768,50.034626],[19.996915,50.034631],[19.99691,50.034721],[19.996762,50.034717]]]}},{"type":"Feature","id":"w162591598","properties":{"type":"yes","residential":true,"residents_est":2,"h3_10":"8a1e2e682b67fff","h3_11":"8b1e2e682b62fff"},"geometry":{"type":"Polygon","coordinates":[[[19.995551,50.036284],[19.995564,50.036183],[19.995681,50.036189],[19.99567,50.036277],[19.99559,50.036273],[19.995589,50.036286],[19.995551,50.036284]]]}},{"type":"Feature","id":"w162591636","properties":{"type":"yes","address":"Grochowa 22","residential":true,"residents_est":3,"h3_10":"8a1e2e682b6ffff","h3_11":"8b1e2e682b6cfff"},"geometry":{"type":"Polygon","coordinates":[[[19.996675,50.036399],[19.996859,50.036396],[19.996864,50.036476],[19.996779,50.036479],[19.99678,50.036489],[19.99668,50.036491],[19.996675,50.036399]]]}},{"type":"Feature","id":"w162591640","properties":{"type":"yes","address":"Grochowa 26c","residential":true,"residents_est":2,"h3_10":"8a1e2e682b67fff","h3_11":"8b1e2e682b63fff"},"geometry":{"type":"Polygon","coordinates":[[[19.996112,50.036194],[19.996118,50.036109],[19.996237,50.036112],[19.996231,50.036198],[19.996112,50.036194]]]}},{"type":"Feature","id":"w162591645","properties":{"type":"yes","address":"Żeńców 35D","residential":true,"residents_est":3,"h3_10":"8a1e2e682b27fff","h3_11":"8b1e2e682b22fff"},"geometry":{"type":"Polygon","coordinates":[[[19.990346,50.036165],[19.990397,50.036145],[19.990409,50.036157],[19.990483,50.036128],[19.99056,50.036209],[19.990474,50.036242],[19.990464,50.036231],[19.990422,50.036247],[19.990346,50.036165]]]}},{"type":"Feature","id":"w162591656","properties":{"type":"yes","residential":true,"residents_est":2,"h3_10":"8a1e2e682b5ffff","h3_11":"8b1e2e682b5dfff"},"geometry":{"type":"Polygon","coordinates":[[[19.996497,50.034702],[19.996502,50.034589],[19.996594,50.03459],[19.996589,50.034704],[19.996497,50.034702]]]}},{"type":"Feature","id":"w162591677","properties":{"type":"yes","address":"Kacza 46","residential":true,"residents_est":2,"h3_10":"8a1e2e682b0ffff","h3_11":"8b1e2e682b08fff"},"geometry":{"type":"Polygon","coordinates":[[[19.99294,50.035121],[19.99296,50.03512],[19.992952,50.035068],[19.993078,50.035061],[19.993082,50.035096],[19.993096,50.035096],[19.993101,50.035134],[19.99309,50.035135],[19.993094,50.035168],[19.992948,50.035176],[19.99294,50.035121]]]}},{"type":"Feature","id":"w162591683","properties":{"type":"yes","residential":true,"residents_est":1,"h3_10":"8a1e2e682b67fff","h3_11":"8b1e2e682b61fff"},"geometry":{"type":"Polygon","coordinates":[[[19.99635,50.03666],[19.996357,50.036564],[19.996496,50.036656],[19.99635,50.03666]]]}},{"type":"Feature","id":"w162591700","properties":{"type":"yes","address":"Grochowa 26d","residential":true,"residents_est":3,"h3_10":"8a1e2e682b67fff","h3_11":"8b1e2e682b63fff"},"geometry":{"type":"Polygon","coordinates":[[[19.995882,50.036256],[19.995885,50.036224],[19.995905,50.036225],[19.995912,50.036167],[19.996024,50.036173],[19.996017,50.03623],[19.99604,50.036231],[19.996036,50.036265],[19.996014,50.036264],[19.996011,50.03629],[19.9959,50.036285],[19.995903,50.036257],[19.995882,50.036256]]]}},{"type":"Feature","id":"w162591702","properties":{"type":"yes","residential":true,"residents_est":2,"h3_10":"8a1e2e682b27fff","h3_11":"8b1e2e682b22fff"},"geometry":{"type":"Polygon","coordinates":[[[19.990089,50.036291],[19.990139,50.036271],[19.990126,50.036257],[19.990182,50.036235],[19.99027,50.036328],[19.990216,50.036351],[19.990205,50.03634],[19.990157,50.03636],[19.990089,50.036291]]]}},{"type":"Feature","id":"w162591710","properties":{"type":"yes","address":"Kozia 30","name":"Czarna Krowa","residential":false,"residents_est":0,"h3_10":"8a1e2e682a07fff","h3_11":"8b1e2e682a05fff"},"geometry":{"type":"Polygon","coordinates":[[[19.993599,50.032933],[19.993635,50.032869],[19.99391,50.032933],[19.993874,50.032996],[19.993827,50.032985],[19.993812,50.033012],[19.993718,50.03299],[19.993732,50.032964],[19.993599,50.032933]]]}},{"type":"Feature","id":"w162591716","properties":{"type":"yes","address":"Żeńców 53","residential":true,"residents_est":3,"h3_10":"8a1e2e682b0ffff","h3_11":"8b1e2e682b0dfff"},"geometry":{"type":"Polygon","coordinates":[[[19.99292,50.035406],[19.993074,50.035398],[19.993082,50.035462],[19.993001,50.035466],[19.993007,50.035516],[19.992933,50.035519],[19.99292,50.035406]]]}},{"type":"Feature","id":"w162591723","properties":{"type":"yes","address":"Motyla 31","residential":true,"residents_est":2,"h3_10":"8a1e2e682b67fff","h3_11":"8b1e2e682b65fff"},"geometry":{"type":"Polygon","coordinates":[[[19.996163,50.036903],[19.996168,50.036816],[19.996284,50.036819],[19.996279,50.036906],[19.996163,50.036903]]]}},{"type":"Feature","id":"w162591738","properties":{"type":"yes","address":"Żeńców 38","residential":true,"residents_est":2,"h3_10":"8a1e2e682b27fff","h3_11":"8b1e2e682b20fff"},"geometry":{"type":"Polygon","coordinates":[[[19.990393,50.036601],[19.99044,50.036583],[19.990448,50.036591],[19.990494,50.036572],[19.990561,50.03664],[19.990468,50.036678],[19.990393,50.036601]]]}},{"type":"Feature","id":"w162591753","properties":{"type":"yes","address":"Grochowa 28","residential":true,"residents_est":2,"h3_10":"8a1e2e682b6ffff","h3_11":"8b1e2e682b6efff"},"geometry":{"type":"Polygon","coordinates":[[[19.996537,50.035972],[19.996539,50.035882],[19.996602,50.035882],[19.996601,50.035892],[19.996673,50.035893],[19.996672,50.035938],[19.996664,50.035938],[19.996663,50.035971],[19.996636,50.03597],[19.996636,50.035989],[19.996581,50.035988],[19.996581,50.035973],[19.996537,50.035972]]]}},{"type":"Feature","id":"w162591760","properties":{"type":"yes","address":"Grochowa 26h","residential":true,"residents_est":3,"h3_10":"8a1e2e682b67fff","h3_11":"8b1e2e682b62fff"},"geometry":{"type":"Polygon","coordinates":[[[19.994871,50.036242],[19.99488,50.036166],[19.995021,50.036177],[19.995025,50.036141],[19.995058,50.036142],[19.995046,50.03625],[19.995012,50.036248],[19.995014,50.036244],[19.994871,50.036242]]]}},{"type":"Feature","id":"w162591783","properties":{"type":"yes","address":"Żeńców 48","residential":true,"residents_est":3,"h3_10":"8a1e2e682b27fff","h3_11":"8b1e2e682b23fff"},"geometry":{"type":"Polygon","coordinates":[[[19.991245,50.036175],[19.99141,50.03612],[19.991473,50.036199],[19.991309,50.036254],[19.991245,50.036175]]]}},{"type":"Feature","id":"w162591791","properties":{"type":"yes","address":"Grochowa 24","residential":true,"residents_est":3,"h3_10":"8a1e2e682b6ffff","h3_11":"8b1e2e682b6efff"},"geometry":{"type":"Polygon","coordinates":[[[19.99667,50.036252],[19.996852,50.036247],[19.996855,50.036287],[19.996874,50.036287],[19.996876,50.036311],[19.996857,50.036311],[19.996859,50.036337],[19.996676,50.036342],[19.99667,50.036252]]]}},{"type":"Feature","id":"w162591799","properties":{"type":"yes","address":"Kacza 44","residential":true,"residents_est":2,"h3_10":"8a1e2e682b0ffff","h3_11":"8b1e2e682b08fff"},"geometry":{"type":"Polygon","coordinates":[[[19.992607,50.035139],[19.992709,50.035132],[19.992724,50.03522],[19.992621,50.035227],[19.992607,50.035139]]]}},{"type":"Feature","id":"w162591807","properties":{"type":"house","address":"Kacza 36b","residential":true,"residents_est":5,"h3_10":"8a1e2e682b07fff","h3_11":"8b1e2e682b05fff"},"geometry":{"type":"Polygon","coordinates":[[[19.991063,50.035531],[19.991073,50.035539],[19.991142,50.035517],[19.991134,50.035508],[19.991188,50.03549],[19.991264,50.035583],[19.991219,50.035597],[19.991229,50.03561],[19.99119,50.035623],[19.991182,50.035612],[19.991142,50.035624],[19.991148,50.035636],[19.991063,50.035531]]]}},{"type":"Feature","id":"w162591817","properties":{"type":"yes","residential":true,"residents_est":3,"h3_10":"8a1e2e682b47fff","h3_11":"8b1e2e682b44fff"},"geometry":{"type":"Polygon","coordinates":[[[19.995588,50.03598],[19.995603,50.035887],[19.995789,50.035899],[19.995775,50.035992],[19.995588,50.03598]]]}},{"type":"Feature","id":"w162591827","properties":{"type":"yes","residential":true,"residents_est":1,"h3_10":"8a1e2e682a0ffff","h3_11":"8b1e2e682a0cfff"},"geometry":{"type":"Polygon","coordinates":[[[19.994773,50.03301],[19.994787,50.032966],[19.99495,50.032988],[19.994935,50.033032],[19.994773,50.03301]]]}},{"type":"Feature","id":"w162591831","properties":{"type":"yes","address":"Żeńców 51","residential":true,"residents_est":2,"h3_10":"8a1e2e682b0ffff","h3_11":"8b1e2e682b0dfff"},"geometry":{"type":"Polygon","coordinates":[[[19.992697,50.035454],[19.992761,50.035452],[19.992759,50.035436],[19.992822,50.035434],[19.992833,50.035535],[19.992707,50.035538],[19.992697,50.035454]]]}},{"type":"Feature","id":"w162591844","properties":{"type":"yes","address":"Żeńców 35","residential":true,"residents_est":3,"h3_10":"8a1e2e682b27fff","h3_11":"8b1e2e682b26fff"},"geometry":{"type":"Polygon","coordinates":[[[19.989663,50.036444],[19.989721,50.036423],[19.989717,50.036417],[19.989823,50.036377],[19.989865,50.036424],[19.989829,50.036438],[19.989856,50.036467],[19.989727,50.036515],[19.989663,50.036444]]]}},{"type":"Feature","id":"w162591849","properties":{"type":"yes","address":"Żeńców 41","residential":true,"residents_est":4,"h3_10":"8a1e2e682b07fff","h3_11":"8b1e2e682b05fff"},"geometry":{"type":"Polygon","coordinates":[[[19.99128,50.035834],[19.991318,50.035822],[19.991294,50.03579],[19.99141,50.03575],[19.991497,50.035856],[19.99145,50.035872],[19.991443,50.035863],[19.99142,50.035871],[19.99144,50.035895],[19.991353,50.035924],[19.99128,50.035834]]]}},{"type":"Feature","id":"w162591865","properties":{"type":"yes","residential":true,"residents_est":3,"h3_10":"8a1e2e682b07fff","h3_11":"8b1e2e682b01fff"},"geometry":{"type":"Polygon","coordinates":[[[19.99131,50.035408],[19.991314,50.035406],[19.991328,50.035424],[19.991373,50.035409],[19.991355,50.035387],[19.991486,50.035344],[19.991526,50.035395],[19.991512,50.035399],[19.991542,50.035437],[19.991374,50.035492],[19.99131,50.035408]]]}},{"type":"Feature","id":"w162591870","properties":{"type":"yes","address":"Motyla 25","residential":true,"residents_est":2,"h3_10":"8a1e2e682b67fff","h3_11":"8b1e2e682b64fff"},"geometry":{"type":"Polygon","coordinates":[[[19.995449,50.036884],[19.995454,50.036791],[19.995579,50.036794],[19.995573,50.036886],[19.995449,50.036884]]]}},{"type":"Feature","id":"w162591872","properties":{"type":"yes","address":"Iłowa 1a","residential":true,"residents_est":4,"h3_10":"8a1e2e682b2ffff","h3_11":"8b1e2e682b2dfff"},"geometry":{"type":"Polygon","coordinates":[[[19.992602,50.036363],[19.992614,50.03627],[19.992674,50.036273],[19.992677,50.036251],[19.99274,50.036254],[19.992737,50.036277],[19.992799,50.03628],[19.992787,50.036373],[19.992735,50.03637],[19.992732,50.036392],[19.992669,50.036388],[19.992672,50.036366],[19.992602,50.036363]]]}},{"type":"Feature","id":"w162591881","properties":{"type":"yes","address":"Kacza 32","residential":true,"residents_est":3,"h3_10":"8a1e2e682b37fff","h3_11":"8b1e2e682b34fff"},"geometry":{"type":"Polygon","coordinates":[[[19.988931,50.036154],[19.989067,50.036102],[19.98914,50.03618],[19.989003,50.036232],[19.988931,50.036154]]]}},{"type":"Feature","id":"w162591891","properties":{"type":"semidetached_house","residential":true,"residents_est":5,"h3_10":"8a1e2e682a2ffff","h3_11":"8b1e2e682a2afff"},"geometry":{"type":"Polygon","coordinates":[[[19.994642,50.033318],[19.994676,50.033225],[19.994808,50.033245],[19.994774,50.033338],[19.994642,50.033318]]]}},{"type":"Feature","id":"w162591919","properties":{"type":"yes","address":"Grochowa 26","residential":true,"residents_est":2,"h3_10":"8a1e2e682b6ffff","h3_11":"8b1e2e682b6efff"},"geometry":{"type":"Polygon","coordinates":[[[19.996701,50.036103],[19.996842,50.036101],[19.996846,50.036188],[19.996705,50.036191],[19.996701,50.036103]]]}},{"type":"Feature","id":"w162591931","properties":{"type":"yes","address":"Motyla 29","residential":true,"residents_est":3,"h3_10":"8a1e2e682b67fff","h3_11":"8b1e2e682b65fff"},"geometry":{"type":"Polygon","coordinates":[[[19.995849,50.036893],[19.995856,50.03677],[19.995882,50.03677],[19.995881,50.036784],[19.995936,50.036785],[19.995937,50.036773],[19.99603,50.036775],[19.996029,50.036803],[19.996015,50.036803],[19.996011,50.036883],[19.995938,50.036882],[19.995937,50.036895],[19.995849,50.036893]]]}},{"type":"Feature","id":"w162591982","properties":{"type":"yes","residential":true,"residents_est":4,"h3_10":"8a1e2e682a77fff","h3_11":"8b1e2e682a74fff"},"geometry":{"type":"Polygon","coordinates":[[[19.996015,50.033713],[19.996047,50.033632],[19.996107,50.033642],[19.996117,50.033614],[19.996147,50.033619],[19.996154,50.033601],[19.996226,50.033613],[19.996176,50.033739],[19.996015,50.033713]]]}},{"type":"Feature","id":"w162591998","properties":{"type":"yes","address":"Żeńców 39","residential":true,"residents_est":5,"h3_10":"8a1e2e682b07fff","h3_11":"8b1e2e682b05fff"},"geometry":{"type":"Polygon","coordinates":[[[19.990977,50.035882],[19.991083,50.035849],[19.99106,50.035818],[19.991137,50.035794],[19.991177,50.035849],[19.991195,50.035851],[19.991208,50.035868],[19.991201,50.035878],[19.99122,50.035905],[19.991143,50.035929],[19.991134,50.035916],[19.991105,50.035925],[19.991159,50.035998],[19.991082,50.036022],[19.990977,50.035882]]]}},{"type":"Feature","id":"w162592000","properties":{"type":"yes","residential":true,"residents_est":19,"h3_10":"8a1e2e682a0ffff","h3_11":"8b1e2e682a0dfff"},"geometry":{"type":"Polygon","coordinates":[[[19.995089,50.033044],[19.995111,50.032987],[19.995401,50.033029],[19.995433,50.032932],[19.995508,50.032942],[19.995552,50.032955],[19.995583,50.032977],[19.995599,50.033005],[19.995597,50.03303],[19.995616,50.033033],[19.99561,50.033054],[19.995635,50.033056],[19.995601,50.033154],[19.995507,50.033142],[19.995516,50.033103],[19.995089,50.033044]]]}},{"type":"Feature","id":"w162592016","properties":{"type":"yes","address":"Żeńców 60","residential":true,"residents_est":3,"h3_10":"8a1e2e682b2ffff","h3_11":"8b1e2e682b2bfff"},"geometry":{"type":"Polygon","coordinates":[[[19.992913,50.03581],[19.992915,50.035767],[19.99294,50.035767],[19.992942,50.035743],[19.993006,50.035744],[19.993005,50.035761],[19.993059,50.035762],[19.993054,50.035832],[19.993029,50.035831],[19.993025,50.03589],[19.992933,50.035887],[19.992936,50.035828],[19.992921,50.035823],[19.992913,50.03581]]]}},{"type":"Feature","id":"w162592024","properties":{"type":"yes","address":"Żeńców 44","residential":true,"residents_est":3,"h3_10":"8a1e2e682b27fff","h3_11":"8b1e2e682b23fff"},"geometry":{"type":"Polygon","coordinates":[[[19.990895,50.036346],[19.990938,50.036331],[19.990926,50.036317],[19.991021,50.036282],[19.99104,50.036304],[19.991054,50.036298],[19.99108,50.036328],[19.991065,50.036334],[19.991096,50.036371],[19.991,50.036404],[19.990982,50.036383],[19.990939,50.036398],[19.990895,50.036346]]]}},{"type":"Feature","id":"w162592036","properties":{"type":"apartments","levels":3.0,"address":"Kacza 34a","residential":true,"residents_est":18,"h3_10":"8a1e2e682b37fff","h3_11":"8b1e2e682b35fff"},"geometry":{"type":"Polygon","coordinates":[[[19.989457,50.036166],[19.989469,50.036177],[19.98956,50.036143],[19.989549,50.03613],[19.989635,50.036099],[19.989646,50.036112],[19.989734,50.03608],[19.989725,50.036067],[19.989811,50.036165],[19.989544,50.036263],[19.989457,50.036166]]]}},{"type":"Feature","id":"w341157994","properties":{"type":"yes","residential":false,"residents_est":0,"h3_10":"8a1e2e682b37fff","h3_11":"8b1e2e682b36fff"},"geometry":{"type":"Polygon","coordinates":[[[19.988583,50.035831],[19.988639,50.035805],[19.988665,50.035828],[19.98861,50.035855],[19.988583,50.035831]]]}},{"type":"Feature","id":"w341158453","properties":{"type":"yes","residential":true,"residents_est":2,"h3_10":"8a1e2e682b37fff","h3_11":"8b1e2e682b36fff"},"geometry":{"type":"Polygon","coordinates":[[[19.988325,50.035905],[19.988409,50.035863],[19.988495,50.035934],[19.98841,50.035976],[19.988325,50.035905]]]}},{"type":"Feature","id":"w341158675","properties":{"type":"yes","residential":false,"residents_est":0,"h3_10":"8a1e2e682b37fff","h3_11":"8b1e2e682b30fff"},"geometry":{"type":"Polygon","coordinates":[[[19.989055,50.035795],[19.989113,50.035761],[19.989121,50.035767],[19.989115,50.03577],[19.989138,50.035785],[19.989089,50.035819],[19.989055,50.035795]]]}},{"type":"Feature","id":"w341158744","properties":{"type":"yes","address":"Mariana Batki 34","residential":true,"residents_est":3,"h3_10":"8a1e2e682b37fff","h3_11":"8b1e2e682b32fff"},"geometry":{"type":"Polygon","coordinates":[[[19.988946,50.035241],[19.98907,50.035158],[19.989152,50.035211],[19.989083,50.035256],[19.989075,50.035251],[19.989058,50.035263],[19.989065,50.035268],[19.989028,50.035292],[19.988946,50.035241]]]}},{"type":"Feature","id":"w341158750","properties":{"type":"yes","address":"Mariana Batki 32","residential":true,"residents_est":3,"h3_10":"8a1e2e682b37fff","h3_11":"8b1e2e682b32fff"},"geometry":{"type":"Polygon","coordinates":[[[19.988606,50.035419],[19.988663,50.035387],[19.988665,50.035364],[19.988808,50.03537],[19.988861,50.035408],[19.988805,50.035439],[19.988803,50.035464],[19.988658,50.035458],[19.988606,50.035419]]]}},{"type":"Feature","id":"w341158778","properties":{"type":"yes","address":"Kacza 35","residential":true,"residents_est":4,"h3_10":"8a1e2e682b37fff","h3_11":"8b1e2e682b30fff"},"geometry":{"type":"Polygon","coordinates":[[[19.989099,50.03581],[19.989139,50.035785],[19.989117,50.03577],[19.989121,50.035767],[19.989165,50.035743],[19.989185,50.035757],[19.989229,50.035732],[19.989332,50.035805],[19.989286,50.035832],[19.989303,50.035844],[19.989264,50.035866],[19.989246,50.035854],[19.989201,50.03588],[19.989099,50.03581]]]}},{"type":"Feature","id":"w341212723","properties":{"type":"yes","address":"Gliniana 3","residential":true,"residents_est":3,"h3_10":"8a1e2e682b47fff","h3_11":"8b1e2e682b40fff"},"geometry":{"type":"Polygon","coordinates":[[[19.99621,50.035554],[19.996217,50.035461],[19.996302,50.035464],[19.996304,50.035443],[19.996396,50.035446],[19.996388,50.035537],[19.996306,50.035534],[19.996303,50.035569],[19.996266,50.035568],[19.996267,50.035556],[19.99621,50.035554]]]}},{"type":"Feature","id":"w341212756","properties":{"type":"yes","residential":false,"residents_est":0,"h3_10":"8a1e2e682b47fff","h3_11":"8b1e2e682b40fff"},"geometry":{"type":"Polygon","coordinates":[[[19.996159,50.035547],[19.996166,50.035459],[19.996217,50.035461],[19.99621,50.035549],[19.996159,50.035547]]]}},{"type":"Feature","id":"w341212784","properties":{"type":"service","residential":false,"residents_est":0,"h3_10":"8a1e2e682b6ffff","h3_11":"8b1e2e682b69fff"},"geometry":{"type":"Polygon","coordinates":[[[19.997878,50.036254],[19.997953,50.036253],[19.997954,50.036298],[19.997878,50.036299],[19.997878,50.036254]]]}},{"type":"Feature","id":"w341212827","properties":{"type":"semidetached_house","levels":1.0,"address":"Grochowa 36","residential":true,"residents_est":2,"h3_10":"8a1e2e682b4ffff","h3_11":"8b1e2e682b4efff"},"geometry":{"type":"Polygon","coordinates":[[[19.996741,50.035014],[19.996743,50.034933],[19.996903,50.034933],[19.996903,50.035015],[19.996741,50.035014]]]}},{"type":"Feature","id":"w341212831","properties":{"type":"outbuilding","levels":1.0,"residential":false,"residents_est":0,"h3_10":"8a1e2e682b6ffff","h3_11":"8b1e2e682b6cfff"},"geometry":{"type":"Polygon","coordinates":[[[19.997326,50.036533],[19.997474,50.036531],[19.997475,50.036572],[19.997327,50.036573],[19.997326,50.036533]]]}},{"type":"Feature","id":"w341212842","properties":{"type":"yes","residential":false,"residents_est":0,"h3_10":"8a1e2e682b5ffff","h3_11":"8b1e2e682b58fff"},"geometry":{"type":"Polygon","coordinates":[[[19.996335,50.034461],[19.996345,50.034433],[19.99641,50.034442],[19.996401,50.03447],[19.996335,50.034461]]]}},{"type":"Feature","id":"w341212852","properties":{"type":"yes","residential":false,"residents_est":0,"h3_10":"8a1e2e682b5ffff","h3_11":"8b1e2e682b58fff"},"geometry":{"type":"Polygon","coordinates":[[[19.996468,50.034424],[19.996487,50.034369],[19.996541,50.034377],[19.996522,50.034431],[19.996468,50.034424]]]}},{"type":"Feature","id":"w341212859","properties":{"type":"semidetached_house","residential":false,"residents_est":0,"h3_10":"8a1e2e682a2ffff","h3_11":"8b1e2e682a2afff"},"geometry":{"type":"Polygon","coordinates":[[[19.994741,50.033235],[19.994765,50.033172],[19.994832,50.033182],[19.994808,50.033245],[19.994741,50.033235]]]}},{"type":"Feature","id":"w341212863","properties":{"type":"yes","residential":true,"residents_est":1,"h3_10":"8a1e2e682b5ffff","h3_11":"8b1e2e682b5dfff"},"geometry":{"type":"Polygon","coordinates":[[[19.996481,50.034523],[19.996486,50.034476],[19.996624,50.034482],[19.996619,50.034529],[19.996481,50.034523]]]}},{"type":"Feature","id":"w341212864","properties":{"type":"yes","residential":false,"residents_est":0,"h3_10":"8a1e2e682b47fff","h3_11":"8b1e2e682b40fff"},"geometry":{"type":"Polygon","coordinates":[[[19.996077,50.035457],[19.996078,50.035445],[19.996131,50.035446],[19.996126,50.035517],[19.996081,50.035515],[19.996085,50.035458],[19.996077,50.035457]]]}},{"type":"Feature","id":"w341212875","properties":{"type":"yes","residential":true,"residents_est":2,"h3_10":"8a1e2e682a67fff","h3_11":"8b1e2e682a64fff"},"geometry":{"type":"Polygon","coordinates":[[[19.997252,50.034246],[19.997277,50.034156],[19.997376,50.034168],[19.997369,50.03419],[19.997419,50.034195],[19.99741,50.034227],[19.997361,50.034221],[19.997351,50.034257],[19.997252,50.034246]]]}},{"type":"Feature","id":"w341212877","properties":{"type":"yes","levels":1.0,"residential":true,"residents_est":1,"h3_10":"8a1e2e682b6ffff","h3_11":"8b1e2e682b6dfff"},"geometry":{"type":"Polygon","coordinates":[[[19.997755,50.03657],[19.997755,50.036461],[19.997798,50.036431],[19.997796,50.036215],[19.99784,50.036215],[19.997841,50.036442],[19.997797,50.036472],[19.997799,50.036569],[19.997755,50.03657]]]}},{"type":"Feature","id":"w465424331","properties":{"type":"detached","address":"Kozia 26A","residential":true,"residents_est":10,"h3_10":"8a1e2e682a2ffff","h3_11":"8b1e2e682a28fff"},"geometry":{"type":"Polygon","coordinates":[[[19.99459,50.033489],[19.994622,50.033404],[19.994613,50.033402],[19.994615,50.033398],[19.994742,50.033418],[19.994733,50.03344],[19.994763,50.033445],[19.994767,50.033433],[19.994776,50.033435],[19.994772,50.033446],[19.994827,50.033456],[19.994833,50.033443],[19.994919,50.033457],[19.994924,50.033446],[19.994934,50.033448],[19.994897,50.033544],[19.994736,50.033516],[19.99474,50.033504],[19.994711,50.0335],[19.994708,50.033508],[19.99459,50.033489]]]}},{"type":"Feature","id":"w482288176","properties":{"type":"school","levels":4.0,"address":"Grochowa 19","name":"Specjalny Ośrodek Szkolno-Wychowawczy dla Niesłyszączych im J. Korczaka","residential":false,"residents_est":0,"h3_10":"8a1e2e682b6ffff","h3_11":"8b1e2e682b69fff"},"geometry":{"type":"Polygon","coordinates":[[[19.997708,50.035957],[19.997971,50.035954],[19.997972,50.036025],[19.997913,50.036026],[19.997918,50.036213],[19.997715,50.036216],[19.997708,50.035957]]]}},{"type":"Feature","id":"w482288701","properties":{"type":"yes","address":"Grochowa 21","name":"Szkolne Schronisko Młodzieżowe","residential":true,"residents_est":29,"h3_10":"8a1e2e682b4ffff","h3_11":"8b1e2e682b4cfff"},"geometry":{"type":"Polygon","coordinates":[[[19.997199,50.035127],[19.997361,50.035126],[19.997371,50.03561],[19.997209,50.035611],[19.997199,50.035127]]]}},{"type":"Feature","id":"w627600528","properties":{"type":"residential","address":"Kozia 8","residential":true,"residents_est":11,"h3_10":"8a1e2e682a67fff","h3_11":"8b1e2e682a65fff"},"geometry":{"type":"Polygon","coordinates":[[[19.998502,50.034336],[19.998539,50.0342],[19.998622,50.034209],[19.998609,50.034259],[19.998635,50.034262],[19.998627,50.034292],[19.998643,50.034293],[19.998634,50.034329],[19.998618,50.034327],[19.998612,50.034347],[19.998502,50.034336]]]}},{"type":"Feature","id":"w627600532","properties":{"type":"apartments","address":"Kozia 12","residential":true,"residents_est":22,"h3_10":"8a1e2e682a67fff","h3_11":"8b1e2e682a64fff"},"geometry":{"type":"Polygon","coordinates":[[[19.997697,50.034246],[19.997726,50.034129],[19.997852,50.034143],[19.997857,50.034123],[19.997948,50.034132],[19.997921,50.034242],[19.997832,50.034232],[19.997835,50.034218],[19.997798,50.034214],[19.997788,50.034255],[19.997697,50.034246]]]}},{"type":"Feature","id":"w630291246","properties":{"type":"residential","address":"Kozia 8A","residential":true,"residents_est":11,"h3_10":"8a1e2e682a67fff","h3_11":"8b1e2e682a65fff"},"geometry":{"type":"Polygon","coordinates":[[[19.998539,50.0342],[19.99857,50.034064],[19.998681,50.034076],[19.998674,50.034106],[19.99869,50.034108],[19.998682,50.034143],[19.998665,50.034142],[19.998658,50.034167],[19.998633,50.034165],[19.998622,50.034209],[19.998539,50.0342]]]}},{"type":"Feature","id":"w703404022","properties":{"type":"yes","residential":false,"residents_est":0,"h3_10":"8a1e2e682a5ffff","h3_11":"8b1e2e682a59fff"},"geometry":{"type":"Polygon","coordinates":[[[19.999674,50.031632],[19.999731,50.031627],[19.999743,50.031687],[19.999686,50.031691],[19.999674,50.031632]]]}},{"type":"Feature","id":"w703404039","properties":{"type":"yes","residential":false,"residents_est":0,"h3_10":"8a1e2e682a6ffff","h3_11":"8b1e2e682a6bfff"},"geometry":{"type":"Polygon","coordinates":[[[20.000143,50.033252],[20.000188,50.033248],[20.000196,50.033291],[20.000151,50.033294],[20.000143,50.033252]]]}},{"type":"Feature","id":"w703404142","properties":{"type":"yes","residential":false,"residents_est":0,"h3_10":"8a1e2e682b07fff","h3_11":"8b1e2e682b05fff"},"geometry":{"type":"Polygon","coordinates":[[[19.991265,50.035536],[19.991325,50.035514],[19.991365,50.035561],[19.991305,50.035582],[19.991265,50.035536]]]}},{"type":"Feature","id":"w703404143","properties":{"type":"yes","residential":false,"residents_est":0,"h3_10":"8a1e2e682b07fff","h3_11":"8b1e2e682b05fff"},"geometry":{"type":"Polygon","coordinates":[[[19.991401,50.03563],[19.991451,50.035613],[19.991499,50.035672],[19.99145,50.035689],[19.991401,50.03563]]]}},{"type":"Feature","id":"w703404144","properties":{"type":"yes","residential":false,"residents_est":0,"h3_10":"8a1e2e682b07fff","h3_11":"8b1e2e682b05fff"},"geometry":{"type":"Polygon","coordinates":[[[19.991488,50.0356],[19.991538,50.035583],[19.991572,50.035623],[19.991522,50.03564],[19.991488,50.0356]]]}},{"type":"Feature","id":"w703404145","properties":{"type":"yes","residential":false,"residents_est":0,"h3_10":"8a1e2e682b07fff","h3_11":"8b1e2e682b01fff"},"geometry":{"type":"Polygon","coordinates":[[[19.991531,50.035506],[19.991543,50.03551],[19.991556,50.035506],[19.99155,50.035499],[19.991615,50.035476],[19.991649,50.035516],[19.991565,50.035547],[19.991531,50.035506]]]}},{"type":"Feature","id":"w703404146","properties":{"type":"yes","residential":true,"residents_est":1,"h3_10":"8a1e2e682b07fff","h3_11":"8b1e2e682b01fff"},"geometry":{"type":"Polygon","coordinates":[[[19.991645,50.035385],[19.991711,50.035365],[19.991777,50.035451],[19.991812,50.03544],[19.991819,50.035449],[19.991718,50.035481],[19.991645,50.035385]]]}},{"type":"Feature","id":"w703404148","properties":{"type":"yes","residential":false,"residents_est":0,"h3_10":"8a1e2e682b2ffff","h3_11":"8b1e2e682b2afff"},"geometry":{"type":"Polygon","coordinates":[[[19.992075,50.035598],[19.992121,50.035586],[19.992159,50.035646],[19.992113,50.035658],[19.992075,50.035598]]]}},{"type":"Feature","id":"w703404150","properties":{"type":"yes","residential":false,"residents_est":0,"h3_10":"8a1e2e682b0ffff","h3_11":"8b1e2e682b0cfff"},"geometry":{"type":"Polygon","coordinates":[[[19.992527,50.035493],[19.992568,50.035487],[19.992588,50.035545],[19.992547,50.035551],[19.992527,50.035493]]]}},{"type":"Feature","id":"w703404151","properties":{"type":"yes","residential":false,"residents_est":0,"h3_10":"8a1e2e682b0ffff","h3_11":"8b1e2e682b0cfff"},"geometry":{"type":"Polygon","coordinates":[[[19.992192,50.035313],[19.992244,50.035301],[19.992271,50.035351],[19.992219,50.035363],[19.992192,50.035313]]]}},{"type":"Feature","id":"w703404152","properties":{"type":"yes","residential":false,"residents_est":0,"h3_10":"8a1e2e682b0ffff","h3_11":"8b1e2e682b0cfff"},"geometry":{"type":"Polygon","coordinates":[[[19.992267,50.035385],[19.992331,50.035374],[19.992346,50.03541],[19.992282,50.035421],[19.992267,50.035385]]]}},{"type":"Feature","id":"w703404154","properties":{"type":"yes","residential":false,"residents_est":0,"h3_10":"8a1e2e682b0ffff","h3_11":"8b1e2e682b0cfff"},"geometry":{"type":"Polygon","coordinates":[[[19.99253,50.03532],[19.99256,50.035317],[19.992578,50.035382],[19.992548,50.035386],[19.99253,50.03532]]]}},{"type":"Feature","id":"w703404155","properties":{"type":"yes","residential":false,"residents_est":0,"h3_10":"8a1e2e682b0ffff","h3_11":"8b1e2e682b0cfff"},"geometry":{"type":"Polygon","coordinates":[[[19.992506,50.035271],[19.992574,50.035262],[19.992587,50.035304],[19.992519,50.035313],[19.992506,50.035271]]]}},{"type":"Feature","id":"w703404156","properties":{"type":"yes","residential":true,"residents_est":2,"h3_10":"8a1e2e682b0ffff","h3_11":"8b1e2e682b0cfff"},"geometry":{"type":"Polygon","coordinates":[[[19.992331,50.03522],[19.992456,50.035195],[19.992494,50.035266],[19.992409,50.035282],[19.992415,50.035293],[19.992375,50.035301],[19.992331,50.03522]]]}},{"type":"Feature","id":"w703404158","properties":{"type":"yes","residential":false,"residents_est":0,"h3_10":"8a1e2e682b0ffff","h3_11":"8b1e2e682b08fff"},"geometry":{"type":"Polygon","coordinates":[[[19.992791,50.035076],[19.992862,50.035072],[19.992871,50.035136],[19.992801,50.035141],[19.992791,50.035076]]]}},{"type":"Feature","id":"w703404160","properties":{"type":"yes","residential":false,"residents_est":0,"h3_10":"8a1e2e682b0ffff","h3_11":"8b1e2e682b0dfff"},"geometry":{"type":"Polygon","coordinates":[[[19.993086,50.035295],[19.993171,50.035291],[19.993176,50.035334],[19.993091,50.035338],[19.993086,50.035295]]]}},{"type":"Feature","id":"w703404161","properties":{"type":"yes","residential":false,"residents_est":0,"h3_10":"8a1e2e682b0ffff","h3_11":"8b1e2e682b0dfff"},"geometry":{"type":"Polygon","coordinates":[[[19.993096,50.035217],[19.993182,50.035213],[19.993188,50.035258],[19.993102,50.035262],[19.993096,50.035217]]]}},{"type":"Feature","id":"w703404162","properties":{"type":"yes","residential":true,"residents_est":1,"h3_10":"8a1e2e682b0ffff","h3_11":"8b1e2e682b0dfff"},"geometry":{"type":"Polygon","coordinates":[[[19.992948,50.035176],[19.993094,50.035168],[19.993101,50.035212],[19.992954,50.03522],[19.992948,50.035176]]]}},{"type":"Feature","id":"w703404163","properties":{"type":"yes","residential":false,"residents_est":0,"h3_10":"8a1e2e682b0ffff","h3_11":"8b1e2e682b0dfff"},"geometry":{"type":"Polygon","coordinates":[[[19.992925,50.035365],[19.993054,50.035359],[19.993058,50.035398],[19.99293,50.035404],[19.992925,50.035365]]]}},{"type":"Feature","id":"w703404164","properties":{"type":"garages","residential":false,"residents_est":0,"h3_10":"8a1e2e682b47fff","h3_11":"8b1e2e682b40fff"},"geometry":{"type":"Polygon","coordinates":[[[19.995802,50.035422],[19.995809,50.035179],[19.995886,50.035179],[19.995879,50.035423],[19.995802,50.035422]]]}},{"type":"Feature","id":"w703404169","properties":{"type":"yes","residential":true,"residents_est":2,"h3_10":"8a1e2e682b2ffff","h3_11":"8b1e2e682b28fff"},"geometry":{"type":"Polygon","coordinates":[[[19.992255,50.036311],[19.992323,50.036289],[19.992343,50.036315],[19.992363,50.036309],[19.992376,50.036327],[19.992358,50.036333],[19.992372,50.036351],[19.992302,50.036373],[19.992255,50.036311]]]}},{"type":"Feature","id":"w703404177","properties":{"type":"yes","residential":false,"residents_est":0,"h3_10":"8a1e2e682b67fff","h3_11":"8b1e2e682b66fff"},"geometry":{"type":"Polygon","coordinates":[[[19.994559,50.036581],[19.994563,50.036546],[19.994631,50.036548],[19.994628,50.036584],[19.994559,50.036581]]]}},{"type":"Feature","id":"w703404181","properties":{"type":"yes","residential":false,"residents_est":0,"h3_10":"8a1e2e682b67fff","h3_11":"8b1e2e682b66fff"},"geometry":{"type":"Polygon","coordinates":[[[19.994883,50.036698],[19.99489,50.036644],[19.994946,50.036647],[19.994939,50.036701],[19.994883,50.036698]]]}},{"type":"Feature","id":"w703404182","properties":{"type":"yes","residential":true,"residents_est":3,"h3_10":"8a1e2e682b67fff","h3_11":"8b1e2e682b64fff"},"geometry":{"type":"Polygon","coordinates":[[[19.994918,50.036855],[19.994927,50.036764],[19.995123,50.036773],[19.995113,50.036867],[19.994918,50.036855]]]}},{"type":"Feature","id":"w703404183","properties":{"type":"yes","residential":false,"residents_est":0,"h3_10":"8a1e2e682b67fff","h3_11":"8b1e2e682b60fff"},"geometry":{"type":"Polygon","coordinates":[[[19.995351,50.036641],[19.995353,50.036592],[19.995403,50.036594],[19.9954,50.036642],[19.995351,50.036641]]]}},{"type":"Feature","id":"w703404184","properties":{"type":"yes","residential":false,"residents_est":0,"h3_10":"8a1e2e682b67fff","h3_11":"8b1e2e682b60fff"},"geometry":{"type":"Polygon","coordinates":[[[19.995524,50.036583],[19.995527,50.036555],[19.9956,50.036558],[19.995597,50.036587],[19.995524,50.036583]]]}},{"type":"Feature","id":"w703404187","properties":{"type":"yes","residential":false,"residents_est":0,"h3_10":"8a1e2e682b67fff","h3_11":"8b1e2e682b60fff"},"geometry":{"type":"Polygon","coordinates":[[[19.99551,50.03669],[19.995514,50.036632],[19.995594,50.036636],[19.99559,50.036693],[19.99551,50.03669]]]}},{"type":"Feature","id":"w703404188","properties":{"type":"yes","residential":false,"residents_est":0,"h3_10":"8a1e2e682b67fff","h3_11":"8b1e2e682b64fff"},"geometry":{"type":"Polygon","coordinates":[[[19.995506,50.036739],[19.995509,50.036702],[19.995581,50.036704],[19.995578,50.036741],[19.995506,50.036739]]]}},{"type":"Feature","id":"w703404190","properties":{"type":"yes","residential":false,"residents_est":0,"h3_10":"8a1e2e682b67fff","h3_11":"8b1e2e682b65fff"},"geometry":{"type":"Polygon","coordinates":[[[19.996081,50.036713],[19.996084,50.036663],[19.996143,50.036665],[19.996139,50.036715],[19.996081,50.036713]]]}},{"type":"Feature","id":"w703404191","properties":{"type":"yes","residential":false,"residents_est":0,"h3_10":"8a1e2e682b67fff","h3_11":"8b1e2e682b65fff"},"geometry":{"type":"Polygon","coordinates":[[[19.996015,50.036767],[19.996017,50.036704],[19.996081,50.036705],[19.996078,50.036768],[19.996015,50.036767]]]}},{"type":"Feature","id":"w703404192","properties":{"type":"yes","residential":true,"residents_est":2,"h3_10":"8a1e2e682b67fff","h3_11":"8b1e2e682b65fff"},"geometry":{"type":"Polygon","coordinates":[[[19.996281,50.036889],[19.996287,50.036792],[19.996421,50.036796],[19.996415,50.036892],[19.996281,50.036889]]]}},{"type":"Feature","id":"w703404194","properties":{"type":"yes","residential":true,"residents_est":2,"h3_10":"8a1e2e682b67fff","h3_11":"8b1e2e682b61fff"},"geometry":{"type":"Polygon","coordinates":[[[19.996357,50.036532],[19.996496,50.036531],[19.996498,50.036653],[19.996358,50.036558],[19.996357,50.036532]]]}},{"type":"Feature","id":"w703404195","properties":{"type":"yes","residential":false,"residents_est":0,"h3_10":"8a1e2e682b6ffff","h3_11":"8b1e2e682b6efff"},"geometry":{"type":"Polygon","coordinates":[[[19.996664,50.036104],[19.996701,50.036103],[19.996703,50.036161],[19.996667,50.036161],[19.996664,50.036104]]]}},{"type":"Feature","id":"w703404197","properties":{"type":"yes","residential":true,"residents_est":2,"h3_10":"8a1e2e682b6ffff","h3_11":"8b1e2e682b6efff"},"geometry":{"type":"Polygon","coordinates":[[[19.996486,50.036105],[19.996599,50.036105],[19.996599,50.036188],[19.996488,50.036189],[19.996486,50.036105]]]}},{"type":"Feature","id":"w703404201","properties":{"type":"yes","residential":true,"residents_est":1,"h3_10":"8a1e2e682b67fff","h3_11":"8b1e2e682b63fff"},"geometry":{"type":"Polygon","coordinates":[[[19.995815,50.036348],[19.995822,50.036282],[19.995877,50.036284],[19.995876,50.036291],[19.995909,50.036293],[19.995904,50.036352],[19.995815,50.036348]]]}},{"type":"Feature","id":"w703404202","properties":{"type":"yes","residential":true,"residents_est":1,"h3_10":"8a1e2e682b67fff","h3_11":"8b1e2e682b63fff"},"geometry":{"type":"Polygon","coordinates":[[[19.995763,50.03631],[19.995774,50.036212],[19.995827,50.036215],[19.995818,50.036313],[19.995763,50.03631]]]}},{"type":"Feature","id":"w703404203","properties":{"type":"yes","residential":false,"residents_est":0,"h3_10":"8a1e2e682b67fff","h3_11":"8b1e2e682b60fff"},"geometry":{"type":"Polygon","coordinates":[[[19.995758,50.036351],[19.995763,50.03631],[19.995818,50.036313],[19.995814,50.036354],[19.995758,50.036351]]]}},{"type":"Feature","id":"w703404204","properties":{"type":"yes","residential":true,"residents_est":1,"h3_10":"8a1e2e682b67fff","h3_11":"8b1e2e682b63fff"},"geometry":{"type":"Polygon","coordinates":[[[19.995693,50.036289],[19.995702,50.036209],[19.995774,50.036212],[19.995765,50.036292],[19.995693,50.036289]]]}},{"type":"Feature","id":"w703404205","properties":{"type":"yes","residential":false,"residents_est":0,"h3_10":"8a1e2e682b67fff","h3_11":"8b1e2e682b60fff"},"geometry":{"type":"Polygon","coordinates":[[[19.995673,50.036347],[19.995679,50.036289],[19.995765,50.036292],[19.995758,50.036351],[19.995673,50.036347]]]}},{"type":"Feature","id":"w703404206","properties":{"type":"yes","residential":true,"residents_est":1,"h3_10":"8a1e2e682b67fff","h3_11":"8b1e2e682b60fff"},"geometry":{"type":"Polygon","coordinates":[[[19.995544,50.036341],[19.995551,50.036284],[19.995679,50.036289],[19.995673,50.036347],[19.995544,50.036341]]]}},{"type":"Feature","id":"w703404207","properties":{"type":"yes","address":"Grochowa 26f","residential":true,"residents_est":4,"h3_10":"8a1e2e682b67fff","h3_11":"8b1e2e682b62fff"},"geometry":{"type":"Polygon","coordinates":[[[19.995341,50.036208],[19.99535,50.036144],[19.995355,50.03615],[19.995394,50.036152],[19.995395,50.036146],[19.995402,50.036147],[19.995401,50.036153],[19.995493,50.036152],[19.995489,50.036179],[19.995564,50.036179],[19.995552,50.036276],[19.995491,50.036268],[19.99549,50.036275],[19.995446,50.036272],[19.995446,50.036267],[19.995379,50.036262],[19.995383,50.03623],[19.995367,50.036229],[19.995369,50.036209],[19.995341,50.036208]]]}},{"type":"Feature","id":"w703404208","properties":{"type":"yes","residential":false,"residents_est":0,"h3_10":"8a1e2e682b67fff","h3_11":"8b1e2e682b66fff"},"geometry":{"type":"Polygon","coordinates":[[[19.994921,50.036307],[19.994926,50.036274],[19.99504,50.036281],[19.995035,50.036314],[19.994921,50.036307]]]}},{"type":"Feature","id":"w703404221","properties":{"type":"school","levels":5.0,"residential":false,"residents_est":0,"h3_10":"8a1e2e682b6ffff","h3_11":"8b1e2e682b6bfff"},"geometry":{"type":"Polygon","coordinates":[[[19.997717,50.035475],[19.997877,50.035474],[19.997889,50.035955],[19.997729,50.035957],[19.997717,50.035475]]]}},{"type":"Feature","id":"w703404325","properties":{"type":"yes","residential":true,"residents_est":1,"h3_10":"8a1e2e682b27fff","h3_11":"8b1e2e682b24fff"},"geometry":{"type":"Polygon","coordinates":[[[19.990262,50.03702],[19.990333,50.036991],[19.990413,50.037072],[19.990341,50.037101],[19.990262,50.03702]]]}},{"type":"Feature","id":"w703404327","properties":{"type":"yes","residential":true,"residents_est":2,"h3_10":"8a1e2e682b27fff","h3_11":"8b1e2e682b24fff"},"geometry":{"type":"Polygon","coordinates":[[[19.990574,50.036931],[19.99063,50.036908],[19.99062,50.036897],[19.990663,50.03688],[19.990727,50.036946],[19.990686,50.036963],[19.990696,50.036973],[19.990637,50.036997],[19.990574,50.036931]]]}},{"type":"Feature","id":"w703404328","properties":{"type":"yes","residential":false,"residents_est":0,"h3_10":"8a1e2e682b27fff","h3_11":"8b1e2e682b21fff"},"geometry":{"type":"Polygon","coordinates":[[[19.991035,50.036566],[19.991084,50.036547],[19.991139,50.036605],[19.99109,50.036624],[19.991035,50.036566]]]}},{"type":"Feature","id":"w703404329","properties":{"type":"yes","residential":false,"residents_est":0,"h3_10":"8a1e2e682b37fff","h3_11":"8b1e2e682b31fff"},"geometry":{"type":"Polygon","coordinates":[[[19.989988,50.035951],[19.990071,50.035928],[19.990087,50.035954],[19.990004,50.035976],[19.989988,50.035951]]]}},{"type":"Feature","id":"w703404330","properties":{"type":"yes","residential":true,"residents_est":1,"h3_10":"8a1e2e682b27fff","h3_11":"8b1e2e682b26fff"},"geometry":{"type":"Polygon","coordinates":[[[19.989912,50.03634],[19.989971,50.036315],[19.990065,50.036409],[19.990007,50.036434],[19.989912,50.03634]]]}},{"type":"Feature","id":"w703404331","properties":{"type":"yes","residential":true,"residents_est":2,"h3_10":"8a1e2e682b27fff","h3_11":"8b1e2e682b26fff"},"geometry":{"type":"Polygon","coordinates":[[[19.989997,50.036341],[19.990055,50.036318],[19.990046,50.036308],[19.990089,50.036291],[19.990157,50.03636],[19.990112,50.036378],[19.99012,50.036387],[19.990065,50.036409],[19.989997,50.036341]]]}},{"type":"Feature","id":"w703404332","properties":{"type":"yes","residential":false,"residents_est":0,"h3_10":"8a1e2e682b27fff","h3_11":"8b1e2e682b22fff"},"geometry":{"type":"Polygon","coordinates":[[[19.990319,50.036282],[19.990368,50.036263],[19.990411,50.03631],[19.990363,50.036328],[19.990319,50.036282]]]}},{"type":"Feature","id":"w703404333","properties":{"type":"yes","residential":true,"residents_est":1,"h3_10":"8a1e2e682b27fff","h3_11":"8b1e2e682b23fff"},"geometry":{"type":"Polygon","coordinates":[[[19.990632,50.036083],[19.990713,50.036055],[19.990756,50.036106],[19.990676,50.036135],[19.990632,50.036083]]]}},{"type":"Feature","id":"w703404335","properties":{"type":"yes","residential":true,"residents_est":2,"h3_10":"8a1e2e682b27fff","h3_11":"8b1e2e682b20fff"},"geometry":{"type":"Polygon","coordinates":[[[19.990728,50.03648],[19.990817,50.036444],[19.990848,50.036449],[19.990908,50.036514],[19.9908,50.036556],[19.990728,50.03648]]]}},{"type":"Feature","id":"w703404336","properties":{"type":"yes","residential":false,"residents_est":0,"h3_10":"8a1e2e682b27fff","h3_11":"8b1e2e682b26fff"},"geometry":{"type":"Polygon","coordinates":[[[19.990068,50.036603],[19.990145,50.036573],[19.990176,50.036607],[19.9901,50.036637],[19.990068,50.036603]]]}},{"type":"Feature","id":"w703404337","properties":{"type":"yes","residential":true,"residents_est":2,"h3_10":"8a1e2e682b27fff","h3_11":"8b1e2e682b24fff"},"geometry":{"type":"Polygon","coordinates":[[[19.990075,50.036719],[19.990086,50.036714],[19.990094,50.036722],[19.990149,50.036701],[19.99014,50.036691],[19.990166,50.036681],[19.990172,50.036688],[19.990183,50.036684],[19.990176,50.036676],[19.990184,50.036673],[19.990271,50.036764],[19.99016,50.036808],[19.990075,50.036719]]]}},{"type":"Feature","id":"w709690607","properties":{"type":"yes","residential":true,"residents_est":1,"h3_10":"8a1e2e682b6ffff","h3_11":"8b1e2e682b6cfff"},"geometry":{"type":"Polygon","coordinates":[[[19.996882,50.036542],[19.996964,50.03654],[19.996969,50.036621],[19.996886,50.036623],[19.996882,50.036542]]]}},{"type":"Feature","id":"w709690609","properties":{"type":"yes","residential":false,"residents_est":0,"h3_10":"8a1e2e682b67fff","h3_11":"8b1e2e682b61fff"},"geometry":{"type":"Polygon","coordinates":[[[19.996668,50.036546],[19.996694,50.036545],[19.996698,50.036626],[19.996671,50.036627],[19.996668,50.036546]]]}},{"type":"Feature","id":"w709690610","properties":{"type":"yes","residential":true,"residents_est":3,"h3_10":"8a1e2e682b6ffff","h3_11":"8b1e2e682b6cfff"},"geometry":{"type":"Polygon","coordinates":[[[19.996694,50.036545],[19.996865,50.036542],[19.996868,50.036623],[19.996698,50.036626],[19.996694,50.036545]]]}},{"type":"Feature","id":"w758801570","properties":{"type":"retail","address":"Gliniana 14","residential":false,"residents_est":0,"h3_10":"8a1e2e682b77fff","h3_11":"8b1e2e682b75fff"},"geometry":{"type":"Polygon","coordinates":[[[19.994505,50.035961],[19.994515,50.035896],[19.994565,50.035899],[19.994568,50.035878],[19.994521,50.035875],[19.994531,50.035798],[19.994701,50.035808],[19.994678,50.035971],[19.994505,50.035961]]]}},{"type":"Feature","id":"w758801571","properties":{"type":"house","address":"Gliniana 12A","residential":true,"residents_est":5,"h3_10":"8a1e2e682b77fff","h3_11":"8b1e2e682b71fff"},"geometry":{"type":"Polygon","coordinates":[[[19.994905,50.035952],[19.994916,50.035833],[19.994979,50.035836],[19.994978,50.035852],[19.995032,50.035855],[19.995022,50.035957],[19.994905,50.035952]]]}},{"type":"Feature","id":"w758801572","properties":{"type":"house","residential":true,"residents_est":2,"h3_10":"8a1e2e682b77fff","h3_11":"8b1e2e682b75fff"},"geometry":{"type":"Polygon","coordinates":[[[19.994553,50.036093],[19.994563,50.036034],[19.994665,50.03604],[19.994656,50.036099],[19.994553,50.036093]]]}},{"type":"Feature","id":"w850619689","properties":{"type":"house","address":"Kacza 39g","residential":true,"residents_est":4,"h3_10":"8a1e2e682b17fff","h3_11":"8b1e2e682b15fff"},"geometry":{"type":"Polygon","coordinates":[[[19.989589,50.035045],[19.9897,50.034987],[19.989762,50.035035],[19.989625,50.035108],[19.989592,50.035082],[19.989618,50.035069],[19.989589,50.035045]]]}},{"type":"Feature","id":"w850619690","properties":{"type":"house","address":"Kacza 39f","residential":true,"residents_est":5,"h3_10":"8a1e2e682b17fff","h3_11":"8b1e2e682b15fff"},"geometry":{"type":"Polygon","coordinates":[[[19.989641,50.035099],[19.989762,50.035035],[19.989854,50.035108],[19.989757,50.035159],[19.989698,50.035112],[19.989673,50.035125],[19.989641,50.035099]]]}},{"type":"Feature","id":"w850619691","properties":{"type":"house","address":"Kacza 39e","residential":true,"residents_est":5,"h3_10":"8a1e2e682b17fff","h3_11":"8b1e2e682b15fff"},"geometry":{"type":"Polygon","coordinates":[[[19.989788,50.035182],[19.989883,50.03513],[19.989977,50.035202],[19.989858,50.035267],[19.989825,50.035242],[19.989849,50.035228],[19.989788,50.035182]]]}},{"type":"Feature","id":"w850619692","properties":{"type":"house","address":"Kacza 39d","residential":true,"residents_est":4,"h3_10":"8a1e2e682b37fff","h3_11":"8b1e2e682b33fff"},"geometry":{"type":"Polygon","coordinates":[[[19.989843,50.035276],[19.989977,50.035202],[19.990041,50.035249],[19.989931,50.03531],[19.989901,50.035287],[19.989876,50.035301],[19.989843,50.035276]]]}},{"type":"Feature","id":"w850619693","properties":{"type":"house","address":"Kacza 39c","residential":true,"residents_est":4,"h3_10":"8a1e2e682b07fff","h3_11":"8b1e2e682b06fff"},"geometry":{"type":"Polygon","coordinates":[[[19.989961,50.035333],[19.99007,50.035272],[19.990133,50.035319],[19.989997,50.035394],[19.989965,50.035369],[19.989991,50.035355],[19.989961,50.035333]]]}},{"type":"Feature","id":"w850619694","properties":{"type":"house","address":"Kacza 39b","residential":true,"residents_est":4,"h3_10":"8a1e2e682b07fff","h3_11":"8b1e2e682b06fff"},"geometry":{"type":"Polygon","coordinates":[[[19.989997,50.035394],[19.990133,50.035319],[19.990195,50.035367],[19.990086,50.035427],[19.990056,50.035405],[19.99003,50.035419],[19.989997,50.035394]]]}},{"type":"Feature","id":"w850619695","properties":{"type":"house","address":"Kacza 37f","residential":true,"residents_est":4,"h3_10":"8a1e2e682b37fff","h3_11":"8b1e2e682b33fff"},"geometry":{"type":"Polygon","coordinates":[[[19.989303,50.035236],[19.989413,50.035176],[19.989442,50.035198],[19.989467,50.035184],[19.989501,50.035209],[19.989366,50.035283],[19.989303,50.035236]]]}},{"type":"Feature","id":"w850619696","properties":{"type":"house","address":"Kacza 37e","residential":true,"residents_est":4,"h3_10":"8a1e2e682b37fff","h3_11":"8b1e2e682b33fff"},"geometry":{"type":"Polygon","coordinates":[[[19.989366,50.035283],[19.989486,50.035217],[19.98952,50.035243],[19.989494,50.035257],[19.989544,50.035294],[19.98945,50.035346],[19.989366,50.035283]]]}},{"type":"Feature","id":"w850619697","properties":{"type":"house","address":"Kacza 37d","residential":true,"residents_est":4,"h3_10":"8a1e2e682b37fff","h3_11":"8b1e2e682b33fff"},"geometry":{"type":"Polygon","coordinates":[[[19.989479,50.03537],[19.989575,50.035316],[19.989624,50.035353],[19.989647,50.035341],[19.989681,50.035366],[19.989562,50.035432],[19.989479,50.03537]]]}},{"type":"Feature","id":"w850619698","properties":{"type":"house","address":"Kacza 37c","residential":true,"residents_est":4,"h3_10":"8a1e2e682b37fff","h3_11":"8b1e2e682b33fff"},"geometry":{"type":"Polygon","coordinates":[[[19.989562,50.035432],[19.989696,50.035357],[19.98973,50.035382],[19.989704,50.035397],[19.989733,50.035419],[19.989625,50.035479],[19.989562,50.035432]]]}},{"type":"Feature","id":"w901297731","properties":{"type":"yes","address":"Kozia 10B","residential":true,"residents_est":3,"h3_10":"8a1e2e682a67fff","h3_11":"8b1e2e682a60fff"},"geometry":{"type":"Polygon","coordinates":[[[19.998056,50.03418],[19.998086,50.034064],[19.998211,50.034078],[19.998183,50.034193],[19.998056,50.03418]]]}},{"type":"Feature","id":"w901297732","properties":{"type":"yes","address":"Kozia 10A","residential":true,"residents_est":2,"h3_10":"8a1e2e682a67fff","h3_11":"8b1e2e682a65fff"},"geometry":{"type":"Polygon","coordinates":[[[19.998221,50.034198],[19.998251,50.034082],[19.998352,50.034093],[19.998323,50.034209],[19.998221,50.034198]]]}},{"type":"Feature","id":"w901297733","properties":{"type":"garage","residential":false,"residents_est":0,"h3_10":"8a1e2e682a67fff","h3_11":"8b1e2e682a65fff"},"geometry":{"type":"Polygon","coordinates":[[[19.99803,50.034284],[19.998041,50.034233],[19.998097,50.034238],[19.998085,50.03429],[19.99803,50.034284]]]}},{"type":"Feature","id":"w901297734","properties":{"type":"garage","residential":false,"residents_est":0,"h3_10":"8a1e2e682a67fff","h3_11":"8b1e2e682a65fff"},"geometry":{"type":"Polygon","coordinates":[[[19.998235,50.034307],[19.998249,50.034255],[19.998309,50.034262],[19.998295,50.034313],[19.998235,50.034307]]]}},{"type":"Feature","id":"w937783256","properties":{"type":"house","address":"Kacza 39","residential":true,"residents_est":5,"h3_10":"8a1e2e682b07fff","h3_11":"8b1e2e682b06fff"},"geometry":{"type":"Polygon","coordinates":[[[19.990153,50.035511],[19.990288,50.035437],[19.990379,50.035506],[19.990244,50.035547],[19.990211,50.035522],[19.990186,50.035536],[19.990153,50.035511]]]}},{"type":"Feature","id":"w937783257","properties":{"type":"house","address":"Kacza 39a","residential":true,"residents_est":4,"h3_10":"8a1e2e682b07fff","h3_11":"8b1e2e682b06fff"},"geometry":{"type":"Polygon","coordinates":[[[19.990117,50.03545],[19.990226,50.03539],[19.990288,50.035437],[19.990153,50.035511],[19.990121,50.035487],[19.990146,50.035472],[19.990117,50.03545]]]}},{"type":"Feature","id":"w937783258","properties":{"type":"house","address":"Kacza 37","residential":true,"residents_est":5,"h3_10":"8a1e2e682b37fff","h3_11":"8b1e2e682b31fff"},"geometry":{"type":"Polygon","coordinates":[[[19.989781,50.035597],[19.98989,50.035538],[19.98992,50.03556],[19.989945,50.035546],[19.989979,50.035571],[19.989915,50.035606],[19.98995,50.035633],[19.989862,50.035659],[19.989781,50.035597]]]}},{"type":"Feature","id":"w937783259","properties":{"type":"house","address":"Kacza 37a","residential":true,"residents_est":4,"h3_10":"8a1e2e682b37fff","h3_11":"8b1e2e682b33fff"},"geometry":{"type":"Polygon","coordinates":[[[19.989718,50.035549],[19.989853,50.035476],[19.989886,50.035501],[19.989861,50.035515],[19.98989,50.035538],[19.989781,50.035597],[19.989718,50.035549]]]}},{"type":"Feature","id":"w937783260","properties":{"type":"house","address":"Kacza 37b","residential":true,"residents_est":4,"h3_10":"8a1e2e682b37fff","h3_11":"8b1e2e682b33fff"},"geometry":{"type":"Polygon","coordinates":[[[19.989655,50.035502],[19.989764,50.035442],[19.989794,50.035465],[19.98982,50.035451],[19.989853,50.035476],[19.989718,50.035549],[19.989655,50.035502]]]}},{"type":"Feature","id":"w989390157","properties":{"type":"house","residential":true,"residents_est":5,"h3_10":"8a1e2e682b67fff","h3_11":"8b1e2e682b66fff"},"geometry":{"type":"Polygon","coordinates":[[[19.994639,50.036407],[19.99465,50.036332],[19.99481,50.036342],[19.994796,50.03643],[19.99474,50.036426],[19.994742,50.036414],[19.994639,50.036407]]]}},{"type":"Feature","id":"w992306575","properties":{"type":"yes","address":"Kozia 10","residential":true,"residents_est":2,"h3_10":"8a1e2e682a67fff","h3_11":"8b1e2e682a65fff"},"geometry":{"type":"Polygon","coordinates":[[[19.998323,50.034209],[19.998352,50.034093],[19.998453,50.034103],[19.998423,50.034219],[19.998323,50.034209]]]}},{"type":"Feature","id":"w992306576","properties":{"type":"garage","residential":false,"residents_est":0,"h3_10":"8a1e2e682a67fff","h3_11":"8b1e2e682a65fff"},"geometry":{"type":"Polygon","coordinates":[[[19.998295,50.034313],[19.998309,50.034262],[19.998369,50.034268],[19.998356,50.034319],[19.998295,50.034313]]]}},{"type":"Feature","id":"w1000334405","properties":{"type":"house","address":"Motyla 27","residential":true,"residents_est":7,"h3_10":"8a1e2e682b67fff","h3_11":"8b1e2e682b65fff"},"geometry":{"type":"Polygon","coordinates":[[[19.995677,50.036798],[19.995679,50.036768],[19.995775,50.03677],[19.995775,50.036782],[19.995828,50.036783],[19.995829,50.036769],[19.995856,50.03677],[19.995849,50.036893],[19.995764,50.036891],[19.995765,50.036878],[19.995691,50.036876],[19.995696,50.036799],[19.995677,50.036798]]]}},{"type":"Feature","id":"w1046502198","properties":{"type":"yes","name":"Tężnia solankowa","residential":true,"residents_est":1,"h3_10":"8a1e2e682a47fff","h3_11":"8b1e2e682a45fff"},"geometry":{"type":"Polygon","coordinates":[[[19.998696,50.033221],[19.99873,50.033218],[19.998773,50.033397],[19.998784,50.033396],[19.998791,50.033427],[19.998736,50.033433],[19.998729,50.033401],[19.99874,50.0334],[19.998696,50.033221]]]}},{"type":"Feature","id":"w1076818349","properties":{"type":"retail","residential":false,"residents_est":0,"h3_10":"8a1e2e682a2ffff","h3_11":"8b1e2e682a2afff"},"geometry":{"type":"Polygon","coordinates":[[[19.994674,50.033087],[19.994688,50.033046],[19.994873,50.033072],[19.994858,50.033113],[19.994674,50.033087]]]}},{"type":"Feature","id":"w1093471265","properties":{"type":"yes","residential":true,"residents_est":3,"h3_10":"8a1e2e682adffff","h3_11":"8b1e2e682ad8fff"},"geometry":{"type":"Polygon","coordinates":[[[19.996212,50.029055],[19.996509,50.02902],[19.996525,50.029075],[19.996229,50.029111],[19.996212,50.029055]]]}},{"type":"Feature","id":"w1093471266","properties":{"type":"yes","residential":true,"residents_est":3,"h3_10":"8a1e2e682adffff","h3_11":"8b1e2e682ad8fff"},"geometry":{"type":"Polygon","coordinates":[[[19.995927,50.029082],[19.996201,50.029053],[19.996217,50.029114],[19.995943,50.029144],[19.995927,50.029082]]]}},{"type":"Feature","id":"w1106353933","properties":{"type":"yes","residential":false,"residents_est":0,"h3_10":"8a1e2e682b37fff","h3_11":"8b1e2e682b31fff"},"geometry":{"type":"Polygon","coordinates":[[[19.989965,50.035701],[19.990035,50.035682],[19.990053,50.035709],[19.989983,50.035728],[19.989965,50.035701]]]}},{"type":"Feature","id":"w1106588382","properties":{"type":"house","address":"Gliniana 20","residential":true,"residents_est":7,"h3_10":"8a1e2e682b77fff","h3_11":"8b1e2e682b76fff"},"geometry":{"type":"Polygon","coordinates":[[[19.993214,50.035857],[19.993217,50.035788],[19.993294,50.035789],[19.993296,50.035754],[19.993418,50.035756],[19.993413,50.035868],[19.993214,50.035857]]]}},{"type":"Feature","id":"w1179803163","properties":{"type":"yes","residential":true,"residents_est":2,"h3_10":"8a1e2e682a07fff","h3_11":"8b1e2e682a00fff"},"geometry":{"type":"Polygon","coordinates":[[[19.99347,50.032934],[19.993521,50.032838],[19.993604,50.032856],[19.993553,50.032952],[19.99347,50.032934]]]}},{"type":"Feature","id":"w1331735904","properties":{"type":"school","address":"Grochowa 21","name":"Szkoła Podstawowa","residential":false,"residents_est":0,"h3_10":"8a1e2e682b4ffff","h3_11":"8b1e2e682b4afff"},"geometry":{"type":"Polygon","coordinates":[[[19.997219,50.034656],[19.997236,50.034656],[19.997234,50.034569],[19.997318,50.034569],[19.997316,50.034477],[19.997463,50.034476],[19.997464,50.034494],[19.997631,50.034493],[19.997632,50.034512],[19.997799,50.034511],[19.997799,50.034529],[19.997933,50.034528],[19.997935,50.034601],[19.997834,50.034602],[19.997834,50.034629],[19.997901,50.034629],[19.997904,50.034758],[19.997937,50.034758],[19.997949,50.035327],[19.997803,50.035328],[19.997799,50.035147],[19.997866,50.035147],[19.997866,50.035112],[19.997799,50.035112],[19.997796,50.035004],[19.997428,50.035008],[19.997427,50.034996],[19.997227,50.034998],[19.997219,50.034656]]]}},{"type":"Feature","id":"w1331737587","properties":{"type":"garage","levels":1.0,"residential":false,"residents_est":0,"h3_10":"8a1e2e682b4ffff","h3_11":"8b1e2e682b4efff"},"geometry":{"type":"Polygon","coordinates":[[[19.996703,50.035155],[19.996704,50.035096],[19.996851,50.035097],[19.996851,50.035156],[19.996703,50.035155]]]}},{"type":"Feature","id":"w1433851953","properties":{"type":"yes","residential":true,"residents_est":1,"h3_10":"8a1e2e682a2ffff","h3_11":"8b1e2e682a29fff"},"geometry":{"type":"Polygon","coordinates":[[[19.995772,50.033489],[19.995801,50.033431],[19.995925,50.033456],[19.995897,50.033514],[19.995772,50.033489]]]}}]}