{"type":"FeatureCollection","features":[{"type":"Feature","id":"w80433645","properties":{"type":"residential","address":"Górka Narodowa 118","residential":true,"residents_est":10,"h3_10":"8a1e2e6a6b17fff","h3_11":"8b1e2e6a6b14fff"},"geometry":{"type":"Polygon","coordinates":[[[19.955881,50.106561],[19.955991,50.106484],[19.956172,50.10659],[19.956062,50.106667],[19.955881,50.106561]]]}},{"type":"Feature","id":"w80433648","properties":{"type":"residential","address":"Witkowicka 42A","residential":true,"residents_est":10,"h3_10":"8a1e2e6a6b27fff","h3_11":"8b1e2e6a6b26fff"},"geometry":{"type":"Polygon","coordinates":[[[19.956501,50.10822],[19.956556,50.108153],[19.956617,50.108174],[19.956662,50.108121],[19.95677,50.108158],[19.956653,50.108299],[19.956549,50.108264],[19.956567,50.108243],[19.956501,50.10822]]]}},{"type":"Feature","id":"w80433650","properties":{"type":"yes","residential":true,"residents_est":1,"h3_10":"8a1e2e6a6ba7fff","h3_11":"8b1e2e6a6ba1fff"},"geometry":{"type":"Polygon","coordinates":[[[19.955565,50.105663],[19.955663,50.105597],[19.955726,50.105635],[19.955628,50.105701],[19.955565,50.105663]]]}},{"type":"Feature","id":"w80433658","properties":{"type":"residential","address":"Witkowicka 44","residential":true,"residents_est":17,"h3_10":"8a1e2e6a6b27fff","h3_11":"8b1e2e6a6b20fff"},"geometry":{"type":"Polygon","coordinates":[[[19.956823,50.108204],[19.956954,50.108057],[19.956968,50.108062],[19.95699,50.108038],[19.957105,50.108081],[19.957084,50.108105],[19.957155,50.108131],[19.957041,50.108258],[19.956962,50.108229],[19.956944,50.108249],[19.956823,50.108204]]]}},{"type":"Feature","id":"w80433661","properties":{"type":"residential","address":"Górka Narodowa 126A","residential":true,"residents_est":9,"h3_10":"8a1e2e6a6b07fff","h3_11":"8b1e2e6a6b05fff"},"geometry":{"type":"Polygon","coordinates":[[[19.957843,50.107522],[19.95797,50.107509],[19.957978,50.107502],[19.958,50.107499],[19.95801,50.107504],[19.958032,50.107502],[19.95804,50.107533],[19.95805,50.107538],[19.958053,50.107552],[19.958047,50.107559],[19.958053,50.10759],[19.958003,50.1076],[19.957984,50.107592],[19.957957,50.107594],[19.957967,50.107634],[19.957873,50.107644],[19.957843,50.107522]]]}},{"type":"Feature","id":"w80433662","properties":{"type":"garages","residential":false,"residents_est":0,"h3_10":"8a1e2e6a6ba7fff","h3_11":"8b1e2e6a6ba5fff"},"geometry":{"type":"Polygon","coordinates":[[[19.955218,50.106166],[19.955449,50.106009],[19.955506,50.106043],[19.955275,50.1062],[19.955218,50.106166]]]}},{"type":"Feature","id":"w80433669","properties":{"type":"yes","residential":true,"residents_est":19,"h3_10":"8a1e2e6a6b17fff","h3_11":"8b1e2e6a6b12fff"},"geometry":{"type":"Polygon","coordinates":[[[19.955481,50.10589],[19.955597,50.105809],[19.956209,50.106175],[19.956092,50.106256],[19.955481,50.10589]]]}},{"type":"Feature","id":"w80433671","properties":{"type":"yes","address":"Górka Narodowa 116","residential":true,"residents_est":8,"h3_10":"8a1e2e6a6b17fff","h3_11":"8b1e2e6a6b15fff"},"geometry":{"type":"Polygon","coordinates":[[[19.956294,50.106679],[19.956402,50.106602],[19.956496,50.106657],[19.956519,50.106641],[19.956694,50.106749],[19.956578,50.106828],[19.956402,50.106719],[19.956384,50.106732],[19.956294,50.106679]]]}},{"type":"Feature","id":"w80433672","properties":{"type":"yes","address":"Górka Narodowa 112","residential":true,"residents_est":2,"h3_10":"8a1e2e6a6ba7fff","h3_11":"8b1e2e6a6ba5fff"},"geometry":{"type":"Polygon","coordinates":[[[19.954935,50.105806],[19.955086,50.105788],[19.955088,50.105793],[19.955127,50.105789],[19.955143,50.105842],[19.955103,50.105847],[19.955107,50.105863],[19.954957,50.105881],[19.954935,50.105806]]]}},{"type":"Feature","id":"w80433674","properties":{"type":"residential","address":"Witkowicka 50","residential":true,"residents_est":7,"h3_10":"8a1e2e6a6b2ffff","h3_11":"8b1e2e6a6b2dfff"},"geometry":{"type":"Polygon","coordinates":[[[19.958987,50.10809],[19.959145,50.10806],[19.959193,50.108166],[19.959036,50.108196],[19.958987,50.10809]]]}},{"type":"Feature","id":"w80433677","properties":{"type":"residential","address":"Górka Narodowa 118A","residential":true,"residents_est":10,"h3_10":"8a1e2e6a6b17fff","h3_11":"8b1e2e6a6b16fff"},"geometry":{"type":"Polygon","coordinates":[[[19.955453,50.106312],[19.955563,50.106234],[19.955746,50.106339],[19.955636,50.106417],[19.955453,50.106312]]]}},{"type":"Feature","id":"w80433682","properties":{"type":"yes","residential":true,"residents_est":3,"h3_10":"8a1e2e6a6ba7fff","h3_11":"8b1e2e6a6ba5fff"},"geometry":{"type":"Polygon","coordinates":[[[19.955191,50.105914],[19.955465,50.105729],[19.955537,50.105774],[19.955262,50.105958],[19.955191,50.105914]]]}},{"type":"Feature","id":"w80433685","properties":{"type":"apartments","levels":11.0,"address":"Aleja 29 Listopada 193","residential":true,"residents_est":119,"h3_10":"8a1e2e6a6acffff","h3_11":"8b1e2e6a6acafff"},"geometry":{"type":"Polygon","coordinates":[[[19.963789,50.101085],[19.963797,50.101084],[19.963793,50.101027],[19.963902,50.101024],[19.963903,50.101031],[19.963938,50.10103],[19.963936,50.101002],[19.964031,50.101],[19.96404,50.101163],[19.964133,50.101161],[19.964131,50.101123],[19.964212,50.101122],[19.964213,50.101139],[19.964407,50.101134],[19.964414,50.101259],[19.964321,50.101261],[19.964322,50.101273],[19.964046,50.10128],[19.964046,50.101267],[19.963994,50.101269],[19.963994,50.101255],[19.96395,50.101256],[19.963949,50.101239],[19.963924,50.10124],[19.963925,50.10125],[19.963806,50.101252],[19.963803,50.101199],[19.963795,50.101199],[19.963789,50.101085]]]}},{"type":"Feature","id":"w80433688","properties":{"type":"school","residential":false,"residents_est":0,"h3_10":"8a1e2e6a6b17fff","h3_11":"8b1e2e6a6b11fff"},"geometry":{"type":"Polygon","coordinates":[[[19.956354,50.106094],[19.956514,50.105984],[19.956861,50.106198],[19.956992,50.106105],[19.956917,50.10606],[19.957079,50.105949],[19.957347,50.10611],[19.957189,50.106221],[19.957042,50.106136],[19.956885,50.106247],[19.957032,50.106337],[19.95693,50.106403],[19.956803,50.106328],[19.956852,50.106295],[19.956527,50.106102],[19.956454,50.106154],[19.956354,50.106094]]]}},{"type":"Feature","id":"w80433690","properties":{"type":"yes","residential":true,"residents_est":10,"h3_10":"8a1e2e6a6b1ffff","h3_11":"8b1e2e6a6b18fff"},"geometry":{"type":"Polygon","coordinates":[[[19.957605,50.105881],[19.957711,50.105806],[19.958077,50.106024],[19.958004,50.106077],[19.957921,50.106028],[19.957887,50.106052],[19.957605,50.105881]]]}},{"type":"Feature","id":"w80433694","properties":{"type":"yes","residential":true,"residents_est":22,"h3_10":"8a1e2e6a6baffff","h3_11":"8b1e2e6a6badfff"},"geometry":{"type":"Polygon","coordinates":[[[19.95673,50.105337],[19.956835,50.105264],[19.957076,50.105411],[19.957003,50.105462],[19.957245,50.105605],[19.957176,50.105655],[19.957424,50.105802],[19.957283,50.105901],[19.957195,50.105848],[19.957232,50.105822],[19.957073,50.105727],[19.957108,50.105704],[19.957014,50.105649],[19.957052,50.105625],[19.956902,50.105534],[19.95694,50.105506],[19.956856,50.105456],[19.956892,50.105431],[19.95673,50.105337]]]}},{"type":"Feature","id":"w126822292","properties":{"type":"residential","levels":5.0,"address":"Kuźnicy Kołłątajowskiej 16B","residential":true,"residents_est":40,"h3_10":"8a1e2e6a6a9ffff","h3_11":"8b1e2e6a6a9bfff"},"geometry":{"type":"Polygon","coordinates":[[[19.958423,50.100532],[19.958672,50.100523],[19.958698,50.100839],[19.958449,50.100848],[19.958423,50.100532]]]}},{"type":"Feature","id":"w126822293","properties":{"type":"residential","levels":5.0,"address":"Kuźnicy Kołłątajowskiej 16C","residential":true,"residents_est":40,"h3_10":"8a1e2e6a6a9ffff","h3_11":"8b1e2e6a6a9bfff"},"geometry":{"type":"Polygon","coordinates":[[[19.957928,50.100552],[19.958177,50.100543],[19.958204,50.100859],[19.957955,50.100868],[19.957928,50.100552]]]}},{"type":"Feature","id":"w126822294","properties":{"type":"residential","levels":5.0,"address":"Kuźnicy Kołłątajowskiej 16D","residential":true,"residents_est":40,"h3_10":"8a1e2e6a6a9ffff","h3_11":"8b1e2e6a6a9afff"},"geometry":{"type":"Polygon","coordinates":[[[19.957436,50.100566],[19.957685,50.100558],[19.957712,50.100874],[19.957462,50.100883],[19.957436,50.100566]]]}},{"type":"Feature","id":"w126822301","properties":{"type":"residential","levels":9.0,"address":"Kuźnicy Kołłątajowskiej 16","residential":true,"residents_est":251,"h3_10":"8a1e2e6a6a8ffff","h3_11":"8b1e2e6a6a8afff"},"geometry":{"type":"Polygon","coordinates":[[[19.957958,50.101062],[19.957984,50.101061],[19.957982,50.101039],[19.958187,50.101033],[19.958186,50.101018],[19.958361,50.101012],[19.958362,50.101028],[19.958395,50.101027],[19.958394,50.101011],[19.95844,50.10101],[19.958441,50.101026],[19.958484,50.101024],[19.958483,50.101008],[19.958523,50.101007],[19.958524,50.101026],[19.958567,50.101025],[19.958576,50.101135],[19.958605,50.101135],[19.958607,50.101169],[19.958579,50.10117],[19.958582,50.101218],[19.958611,50.101217],[19.958614,50.101253],[19.958585,50.101254],[19.958587,50.101282],[19.958578,50.101282],[19.958581,50.101316],[19.958619,50.101314],[19.958618,50.1013],[19.958853,50.101293],[19.958876,50.101307],[19.958981,50.101304],[19.958979,50.101275],[19.958958,50.101276],[19.958954,50.101227],[19.958975,50.101227],[19.95897,50.101172],[19.958948,50.101173],[19.958944,50.101125],[19.958967,50.101124],[19.958958,50.10101],[19.959,50.101009],[19.958998,50.100984],[19.959043,50.100982],[19.959045,50.101008],[19.959116,50.101005],[19.959114,50.10098],[19.959156,50.100978],[19.959158,50.101004],[19.959196,50.101003],[19.959205,50.101116],[19.959227,50.101116],[19.959231,50.101164],[19.959209,50.101164],[19.959213,50.101219],[19.959235,50.101218],[19.959239,50.101267],[19.959217,50.101268],[19.959219,50.101296],[19.959241,50.101296],[19.959243,50.101322],[19.959221,50.101323],[19.959226,50.10139],[19.959164,50.101392],[19.959165,50.101404],[19.959126,50.101405],[19.959127,50.101421],[19.958618,50.101437],[19.958617,50.101428],[19.958571,50.10143],[19.958566,50.101375],[19.95853,50.101376],[19.958528,50.101363],[19.958426,50.101366],[19.958424,50.10134],[19.9584,50.101341],[19.958398,50.101308],[19.958374,50.101309],[19.958371,50.101281],[19.958395,50.10128],[19.95839,50.101205],[19.958413,50.101204],[19.958409,50.101147],[19.957991,50.10116],[19.95799,50.101143],[19.957964,50.101143],[19.957962,50.101116],[19.957988,50.101115],[19.957986,50.101087],[19.95796,50.101088],[19.957958,50.101062]]]}},{"type":"Feature","id":"w126829725","properties":{"type":"house","levels":2.0,"address":"Stefana Banacha 7","residential":true,"residents_est":7,"h3_10":"8a1e2e6a6adffff","h3_11":"8b1e2e6a6adcfff"},"geometry":{"type":"Polygon","coordinates":[[[19.962085,50.101208],[19.962211,50.101204],[19.962232,50.101497],[19.962106,50.101501],[19.962085,50.101208]]]}},{"type":"Feature","id":"w133226867","properties":{"type":"hotel","address":"Belwederczyków 3","name":"Noclegi Czarna Perła","residential":false,"residents_est":0,"h3_10":"8a1e2e6a6b5ffff","h3_11":"8b1e2e6a6b5dfff"},"geometry":{"type":"Polygon","coordinates":[[[19.96351,50.106295],[19.963694,50.106285],[19.963742,50.106651],[19.963558,50.106661],[19.96351,50.106295]]]}},{"type":"Feature","id":"w199191408","properties":{"type":"apartments","address":"Belwederczyków 5","residential":true,"residents_est":47,"h3_10":"8a1e2e6a6b5ffff","h3_11":"8b1e2e6a6b5dfff"},"geometry":{"type":"Polygon","coordinates":[[[19.962997,50.106265],[19.963249,50.106259],[19.963273,50.106629],[19.963021,50.106635],[19.962997,50.106265]]]}},{"type":"Feature","id":"w199191600","properties":{"type":"apartments","address":"Belwederczyków 7","residential":true,"residents_est":47,"h3_10":"8a1e2e6a6b5ffff","h3_11":"8b1e2e6a6b58fff"},"geometry":{"type":"Polygon","coordinates":[[[19.962963,50.10574],[19.963214,50.105734],[19.963238,50.106105],[19.962986,50.106112],[19.962963,50.10574]]]}},{"type":"Feature","id":"w229389122","properties":{"type":"yes","residential":false,"residents_est":0,"h3_10":"8a1e2e6a6af7fff","h3_11":"8b1e2e6a6af6fff"},"geometry":{"type":"Polygon","coordinates":[[[19.959941,50.102291],[19.960052,50.10229],[19.960052,50.102322],[19.959942,50.102323],[19.959941,50.102291]]]}},{"type":"Feature","id":"w229389129","properties":{"type":"yes","residential":true,"residents_est":2,"h3_10":"8a1e2e6a6af7fff","h3_11":"8b1e2e6a6af6fff"},"geometry":{"type":"Polygon","coordinates":[[[19.959798,50.102229],[19.959902,50.102227],[19.959912,50.102441],[19.959807,50.102443],[19.959798,50.102229]]]}},{"type":"Feature","id":"w229389139","properties":{"type":"house","levels":2.0,"address":"Stefana Banacha 20","residential":true,"residents_est":4,"h3_10":"8a1e2e6a6a8ffff","h3_11":"8b1e2e6a6a8dfff"},"geometry":{"type":"Polygon","coordinates":[[[19.959921,50.102088],[19.960107,50.102078],[19.96012,50.102173],[19.959934,50.102183],[19.959921,50.102088]]]}},{"type":"Feature","id":"w229389144","properties":{"type":"yes","address":"Belwederczyków 19","residential":true,"residents_est":2,"h3_10":"8a1e2e6a6b77fff","h3_11":"8b1e2e6a6b73fff"},"geometry":{"type":"Polygon","coordinates":[[[19.961154,50.106938],[19.961359,50.106932],[19.961361,50.107044],[19.961161,50.107051],[19.961154,50.106938]]]}},{"type":"Feature","id":"w229389152","properties":{"type":"yes","address":"Witkowicka 58B","residential":true,"residents_est":2,"h3_10":"8a1e2e6a6b77fff","h3_11":"8b1e2e6a6b74fff"},"geometry":{"type":"Polygon","coordinates":[[[19.960617,50.107771],[19.960621,50.107626],[19.960778,50.107629],[19.960772,50.107773],[19.960617,50.107771]]]}},{"type":"Feature","id":"w229389169","properties":{"type":"garage","residential":false,"residents_est":0,"h3_10":"8a1e2e6a6b57fff","h3_11":"8b1e2e6a6b55fff"},"geometry":{"type":"Polygon","coordinates":[[[19.96177,50.106882],[19.961911,50.106879],[19.961915,50.106952],[19.961774,50.106955],[19.96177,50.106882]]]}},{"type":"Feature","id":"w229389180","properties":{"type":"garage","residential":false,"residents_est":0,"h3_10":"8a1e2e6a6b67fff","h3_11":"8b1e2e6a6b62fff"},"geometry":{"type":"Polygon","coordinates":[[[19.961596,50.107883],[19.961737,50.107878],[19.961745,50.107959],[19.961604,50.107965],[19.961596,50.107883]]]}},{"type":"Feature","id":"w229389205","properties":{"type":"yes","residential":true,"residents_est":1,"h3_10":"8a1e2e6a6ac7fff","h3_11":"8b1e2e6a6ac5fff"},"geometry":{"type":"Polygon","coordinates":[[[19.962444,50.102237],[19.962617,50.102232],[19.962622,50.102305],[19.962449,50.10231],[19.962444,50.102237]]]}},{"type":"Feature","id":"w229389206","properties":{"type":"yes","residential":true,"residents_est":1,"h3_10":"8a1e2e6a6ac7fff","h3_11":"8b1e2e6a6ac0fff"},"geometry":{"type":"Polygon","coordinates":[[[19.962514,50.102117],[19.962609,50.102114],[19.962617,50.102232],[19.962544,50.102234],[19.962541,50.102176],[19.962519,50.102176],[19.962514,50.102117]]]}},{"type":"Feature","id":"w229389210","properties":{"type":"house","levels":2.0,"address":"Stefana Banacha 6","residential":true,"residents_est":5,"h3_10":"8a1e2e6a6ac7fff","h3_11":"8b1e2e6a6ac0fff"},"geometry":{"type":"Polygon","coordinates":[[[19.962126,50.102047],[19.962358,50.10204],[19.962365,50.102145],[19.962254,50.102148],[19.962255,50.102163],[19.962134,50.102167],[19.962126,50.102047]]]}},{"type":"Feature","id":"w229389212","properties":{"type":"yes","address":"Belwederczyków 8","name":"Serwis samochodowy Marek Orłowski","residential":true,"residents_est":7,"h3_10":"8a1e2e6a6b47fff","h3_11":"8b1e2e6a6b43fff"},"geometry":{"type":"Polygon","coordinates":[[[19.963021,50.1069],[19.96312,50.106894],[19.963122,50.106907],[19.963269,50.106898],[19.963289,50.107022],[19.963043,50.107038],[19.963021,50.1069]]]}},{"type":"Feature","id":"w229389230","properties":{"type":"house","levels":2.0,"address":"Stefana Banacha 22","residential":true,"residents_est":2,"h3_10":"8a1e2e6a6aaffff","h3_11":"8b1e2e6a6aa8fff"},"geometry":{"type":"Polygon","coordinates":[[[19.959105,50.102664],[19.959239,50.102662],[19.959241,50.102745],[19.959109,50.102747],[19.959105,50.102664]]]}},{"type":"Feature","id":"w229389239","properties":{"type":"yes","address":"Aleja 29 Listopada 214","residential":true,"residents_est":20,"h3_10":"8a1e2e6a6a67fff","h3_11":"8b1e2e6a6a66fff"},"geometry":{"type":"Polygon","coordinates":[[[19.963555,50.105779],[19.963639,50.105715],[19.964048,50.105691],[19.96413,50.105755],[19.964136,50.105803],[19.964074,50.105882],[19.963666,50.105906],[19.963567,50.105858],[19.963555,50.105779]]]}},{"type":"Feature","id":"w229389245","properties":{"type":"yes","address":"Aleja 29 Listopada 222","residential":true,"residents_est":2,"h3_10":"8a1e2e6a6b4ffff","h3_11":"8b1e2e6a6b4dfff"},"geometry":{"type":"Polygon","coordinates":[[[19.964308,50.107064],[19.964497,50.107059],[19.964502,50.107142],[19.964436,50.107144],[19.964436,50.107155],[19.964379,50.107156],[19.964379,50.107145],[19.964313,50.107147],[19.964308,50.107064]]]}},{"type":"Feature","id":"w229389249","properties":{"type":"yes","address":"Aleja 29 Listopada 224","residential":true,"residents_est":2,"h3_10":"8a1e2e6a6b6ffff","h3_11":"8b1e2e6a6b6bfff"},"geometry":{"type":"Polygon","coordinates":[[[19.964165,50.107498],[19.964256,50.107496],[19.964255,50.107483],[19.964317,50.107481],[19.964318,50.107495],[19.964405,50.107493],[19.964411,50.107584],[19.964171,50.10759],[19.964165,50.107498]]]}},{"type":"Feature","id":"w229389257","properties":{"type":"yes","address":"Belwederczyków 18","residential":true,"residents_est":10,"h3_10":"8a1e2e6a6b77fff","h3_11":"8b1e2e6a6b71fff"},"geometry":{"type":"Polygon","coordinates":[[[19.961505,50.107617],[19.961572,50.107614],[19.961564,50.10754],[19.961695,50.107533],[19.961704,50.107608],[19.96176,50.107606],[19.961771,50.107697],[19.961719,50.1077],[19.961731,50.107799],[19.961595,50.107805],[19.961584,50.107708],[19.961516,50.107712],[19.961505,50.107617]]]}},{"type":"Feature","id":"w229389259","properties":{"type":"yes","address":"Arsenał 2","residential":true,"residents_est":3,"h3_10":"8a1e2e6a6b57fff","h3_11":"8b1e2e6a6b51fff"},"geometry":{"type":"Polygon","coordinates":[[[19.96178,50.106574],[19.961834,50.106572],[19.961832,50.106546],[19.961973,50.106543],[19.961975,50.10659],[19.961986,50.10659],[19.961991,50.106652],[19.961966,50.106653],[19.961968,50.106683],[19.961786,50.106687],[19.96178,50.106574]]]}},{"type":"Feature","id":"w229442534","properties":{"type":"yes","residential":true,"residents_est":1,"h3_10":"8a1e2e6a6b27fff","h3_11":"8b1e2e6a6b25fff"},"geometry":{"type":"Polygon","coordinates":[[[19.957504,50.108574],[19.95754,50.108508],[19.957642,50.108531],[19.957606,50.108597],[19.957504,50.108574]]]}},{"type":"Feature","id":"w229442544","properties":{"type":"yes","address":"Urodzajna 5","residential":true,"residents_est":2,"h3_10":"8a1e2e6a6b67fff","h3_11":"8b1e2e6a6b61fff"},"geometry":{"type":"Polygon","coordinates":[[[19.962832,50.108304],[19.963021,50.108297],[19.963028,50.108381],[19.962839,50.108388],[19.962832,50.108304]]]}},{"type":"Feature","id":"w229442545","properties":{"type":"residential","address":"Górka Narodowa 126E","residential":true,"residents_est":7,"h3_10":"8a1e2e6a6b2ffff","h3_11":"8b1e2e6a6b2bfff"},"geometry":{"type":"Polygon","coordinates":[[[19.959378,50.107398],[19.959394,50.107386],[19.959414,50.107384],[19.95943,50.107393],[19.959519,50.107383],[19.959522,50.107395],[19.959581,50.107389],[19.959601,50.107397],[19.959604,50.107413],[19.95959,50.107423],[19.9596,50.107463],[19.9594,50.107484],[19.959378,50.107398]]]}},{"type":"Feature","id":"w229442552","properties":{"type":"yes","address":"Urodzajna 9","residential":true,"residents_est":1,"h3_10":"8a1e2e6a6b67fff","h3_11":"8b1e2e6a6b63fff"},"geometry":{"type":"Polygon","coordinates":[[[19.96278,50.10793],[19.962916,50.107927],[19.962921,50.108027],[19.962785,50.10803],[19.96278,50.10793]]]}},{"type":"Feature","id":"w229442557","properties":{"type":"yes","address":"Urodzajna 3","residential":true,"residents_est":2,"h3_10":"8a1e2e6a6b67fff","h3_11":"8b1e2e6a6b65fff"},"geometry":{"type":"Polygon","coordinates":[[[19.962871,50.108661],[19.96304,50.108659],[19.963043,50.108754],[19.962874,50.108756],[19.962871,50.108661]]]}},{"type":"Feature","id":"w229442560","properties":{"type":"yes","residential":true,"residents_est":1,"h3_10":"8a1e2e6a6b67fff","h3_11":"8b1e2e6a6b66fff"},"geometry":{"type":"Polygon","coordinates":[[[19.961459,50.108325],[19.961534,50.10832],[19.96155,50.108477],[19.961475,50.108481],[19.961459,50.108325]]]}},{"type":"Feature","id":"w229442568","properties":{"type":"industrial","address":"Witkowicka 54","name":"Stacja Kontroli Pojazdów","residential":false,"residents_est":0,"h3_10":"8a1e2e6a6b2ffff","h3_11":"8b1e2e6a6b2dfff"},"geometry":{"type":"Polygon","coordinates":[[[19.959558,50.108068],[19.959659,50.108052],[19.959679,50.108106],[19.959703,50.108102],[19.959738,50.108193],[19.959592,50.108216],[19.959558,50.108125],[19.959578,50.108122],[19.959558,50.108068]]]}},{"type":"Feature","id":"w229442574","properties":{"type":"residential","address":"Witkowicka 67","residential":true,"residents_est":9,"h3_10":"8a1e2e6a6b27fff","h3_11":"8b1e2e6a6b24fff"},"geometry":{"type":"Polygon","coordinates":[[[19.95664,50.108693],[19.95671,50.108598],[19.95679,50.108623],[19.95682,50.108583],[19.956906,50.108609],[19.9568,50.108742],[19.95664,50.108693]]]}},{"type":"Feature","id":"w229442576","properties":{"type":"yes","address":"Witkowicka 66","residential":true,"residents_est":3,"h3_10":"8a1e2e6a6b67fff","h3_11":"8b1e2e6a6b64fff"},"geometry":{"type":"Polygon","coordinates":[[[19.961603,50.108714],[19.961844,50.108708],[19.96185,50.108816],[19.961742,50.108819],[19.961743,50.108828],[19.961609,50.108831],[19.961603,50.108714]]]}},{"type":"Feature","id":"w229446443","properties":{"type":"yes","residential":true,"residents_est":1,"h3_10":"8a1e2e6a6b2ffff","h3_11":"8b1e2e6a6b2dfff"},"geometry":{"type":"Polygon","coordinates":[[[19.959391,50.108457],[19.959403,50.108386],[19.959501,50.108393],[19.959488,50.108464],[19.959391,50.108457]]]}},{"type":"Feature","id":"w323421857","properties":{"type":"greenhouse","residential":false,"residents_est":0,"h3_10":"8a1e2e6a6b6ffff","h3_11":"8b1e2e6a6b6dfff"},"geometry":{"type":"Polygon","coordinates":[[[19.964187,50.108365],[19.964626,50.108353],[19.964631,50.108434],[19.964192,50.108445],[19.964187,50.108365]]]}},{"type":"Feature","id":"w323421891","properties":{"type":"greenhouse","residential":false,"residents_est":0,"h3_10":"8a1e2e6a6b6ffff","h3_11":"8b1e2e6a6b6dfff"},"geometry":{"type":"Polygon","coordinates":[[[19.964184,50.108289],[19.964621,50.108278],[19.964625,50.108342],[19.964547,50.108345],[19.964546,50.108332],[19.964188,50.108342],[19.964184,50.108289]]]}},{"type":"Feature","id":"w355553419","properties":{"type":"shed","residential":false,"residents_est":0,"h3_10":"8a1e2e6a6a9ffff","h3_11":"8b1e2e6a6a98fff"},"geometry":{"type":"Polygon","coordinates":[[[19.957804,50.100957],[19.95785,50.100955],[19.957856,50.101034],[19.95781,50.101036],[19.957804,50.100957]]]}},{"type":"Feature","id":"w396995968","properties":{"type":"house","levels":2.0,"address":"Stefana Banacha 1","residential":true,"residents_est":4,"h3_10":"8a1e2e6a6ac7fff","h3_11":"8b1e2e6a6ac3fff"},"geometry":{"type":"Polygon","coordinates":[[[19.962871,50.101443],[19.962909,50.101443],[19.962905,50.101362],[19.963038,50.101359],[19.963044,50.101478],[19.962979,50.101479],[19.962981,50.101511],[19.962875,50.101513],[19.962871,50.101443]]]}},{"type":"Feature","id":"w396995970","properties":{"type":"house","levels":4.0,"address":"Stefana Banacha 5","residential":true,"residents_est":10,"h3_10":"8a1e2e6a6adffff","h3_11":"8b1e2e6a6adcfff"},"geometry":{"type":"Polygon","coordinates":[[[19.962346,50.101367],[19.962532,50.101361],[19.962539,50.101487],[19.962351,50.101492],[19.962346,50.101367]]]}},{"type":"Feature","id":"w396995972","properties":{"type":"house","levels":2.0,"address":"Stefana Banacha 9","residential":true,"residents_est":3,"h3_10":"8a1e2e6a6ad7fff","h3_11":"8b1e2e6a6ad1fff"},"geometry":{"type":"Polygon","coordinates":[[[19.961772,50.101396],[19.961917,50.101395],[19.96192,50.101507],[19.961776,50.101508],[19.961772,50.101396]]]}},{"type":"Feature","id":"w396995974","properties":{"type":"house","levels":2.0,"address":"Stefana Banacha 13","residential":true,"residents_est":3,"h3_10":"8a1e2e6a6ad7fff","h3_11":"8b1e2e6a6ad5fff"},"geometry":{"type":"Polygon","coordinates":[[[19.961415,50.101462],[19.961546,50.101461],[19.961548,50.101548],[19.961418,50.101549],[19.961415,50.101462]]]}},{"type":"Feature","id":"w396995976","properties":{"type":"house","levels":4.0,"address":"Stefana Banacha 19","residential":true,"residents_est":7,"h3_10":"8a1e2e6a6ad7fff","h3_11":"8b1e2e6a6ad4fff"},"geometry":{"type":"Polygon","coordinates":[[[19.960926,50.101509],[19.961049,50.101507],[19.961056,50.101643],[19.960936,50.101645],[19.960926,50.101509]]]}},{"type":"Feature","id":"w396995988","properties":{"type":"house","levels":1.0,"address":"Stanisława Kostki Potockiego 9B","residential":true,"residents_est":2,"h3_10":"8a1e2e6a6ad7fff","h3_11":"8b1e2e6a6ad3fff"},"geometry":{"type":"Polygon","coordinates":[[[19.961656,50.100822],[19.961743,50.100819],[19.961749,50.100915],[19.96182,50.100913],[19.961824,50.100982],[19.961667,50.100986],[19.961656,50.100822]]]}},{"type":"Feature","id":"w527987683","properties":{"type":"residential","levels":5.0,"address":"Stefana Banacha 29","residential":true,"residents_est":56,"h3_10":"8a1e2e6a6a8ffff","h3_11":"8b1e2e6a6a89fff"},"geometry":{"type":"Polygon","coordinates":[[[19.959611,50.101686],[19.959788,50.101682],[19.959771,50.101471],[19.95969,50.101472],[19.959681,50.101357],[19.959941,50.101351],[19.959976,50.101799],[19.959618,50.10181],[19.959611,50.101686]]]}},{"type":"Feature","id":"w585498130","properties":{"type":"apartments","levels":5.0,"address":"Stefana Banacha 37","residential":true,"residents_est":38,"h3_10":"8a1e2e6a6a9ffff","h3_11":"8b1e2e6a6a9cfff"},"geometry":{"type":"Polygon","coordinates":[[[19.957583,50.101224],[19.957739,50.101199],[19.95776,50.101253],[19.957826,50.101243],[19.957936,50.101528],[19.957715,50.101563],[19.957583,50.101224]]]}},{"type":"Feature","id":"w585498131","properties":{"type":"apartments","levels":5.0,"address":"Stefana Banacha 35","residential":true,"residents_est":40,"h3_10":"8a1e2e6a6a87fff","h3_11":"8b1e2e6a6a83fff"},"geometry":{"type":"Polygon","coordinates":[[[19.957735,50.101608],[19.957955,50.101574],[19.95808,50.101924],[19.957854,50.101942],[19.957735,50.101608]]]}},{"type":"Feature","id":"w585498132","properties":{"type":"apartments","levels":5.0,"address":"Stefana Banacha 33","residential":true,"residents_est":39,"h3_10":"8a1e2e6a6a8ffff","h3_11":"8b1e2e6a6a8efff"},"geometry":{"type":"Polygon","coordinates":[[[19.958363,50.101557],[19.958521,50.101545],[19.958531,50.101602],[19.958599,50.101597],[19.958656,50.101894],[19.958433,50.101912],[19.958363,50.101557]]]}},{"type":"Feature","id":"w585498133","properties":{"type":"apartments","levels":5.0,"address":"Stefana Banacha 31","residential":true,"residents_est":50,"h3_10":"8a1e2e6a6a8ffff","h3_11":"8b1e2e6a6a88fff"},"geometry":{"type":"Polygon","coordinates":[[[19.958704,50.101755],[19.959029,50.101732],[19.959006,50.101597],[19.959164,50.101587],[19.959173,50.101641],[19.959241,50.101636],[19.959278,50.101844],[19.958733,50.101888],[19.958704,50.101755]]]}},{"type":"Feature","id":"w588043453","properties":{"type":"yes","levels":3.0,"address":"Stefana Banacha 17","residential":true,"residents_est":2,"h3_10":"8a1e2e6a6ad7fff","h3_11":"8b1e2e6a6ad5fff"},"geometry":{"type":"Polygon","coordinates":[[[19.961049,50.101507],[19.961164,50.101506],[19.96117,50.101635],[19.961056,50.101638],[19.961049,50.101507]]]}},{"type":"Feature","id":"w588045276","properties":{"type":"yes","address":"Stefana Banacha 19A","residential":true,"residents_est":1,"h3_10":"8a1e2e6a6ad7fff","h3_11":"8b1e2e6a6ad2fff"},"geometry":{"type":"Polygon","coordinates":[[[19.960852,50.100825],[19.96093,50.100823],[19.960936,50.100921],[19.960858,50.100923],[19.960852,50.100825]]]}},{"type":"Feature","id":"w592451788","properties":{"type":"residential","address":"Górka Narodowa 124","residential":true,"residents_est":11,"h3_10":"8a1e2e6a6b07fff","h3_11":"8b1e2e6a6b04fff"},"geometry":{"type":"Polygon","coordinates":[[[19.957339,50.107367],[19.957456,50.107354],[19.957453,50.107341],[19.957547,50.10733],[19.957568,50.107408],[19.957556,50.10741],[19.957572,50.10747],[19.957372,50.107493],[19.957359,50.107444],[19.957387,50.107441],[19.957377,50.107405],[19.957351,50.107408],[19.957339,50.107367]]]}},{"type":"Feature","id":"w662188971","properties":{"type":"construction","address":"Górka Narodowa 108G","residential":false,"residents_est":0,"h3_10":"8a1e2e6a6ba7fff","h3_11":"8b1e2e6a6ba1fff"},"geometry":{"type":"Polygon","coordinates":[[[19.95532,50.105434],[19.955467,50.105417],[19.955501,50.105535],[19.955398,50.105547],[19.955402,50.105559],[19.955357,50.105564],[19.95532,50.105434]]]}},{"type":"Feature","id":"w662188972","properties":{"type":"construction","address":"Górka Narodowa 108E","residential":false,"residents_est":0,"h3_10":"8a1e2e6a6ba7fff","h3_11":"8b1e2e6a6ba3fff"},"geometry":{"type":"Polygon","coordinates":[[[19.955013,50.105455],[19.955165,50.105437],[19.955203,50.105569],[19.955157,50.105574],[19.955153,50.105561],[19.955047,50.105573],[19.955013,50.105455]]]}},{"type":"Feature","id":"w662188973","properties":{"type":"construction","address":"Górka Narodowa 108D","residential":false,"residents_est":0,"h3_10":"8a1e2e6a6ba7fff","h3_11":"8b1e2e6a6ba0fff"},"geometry":{"type":"Polygon","coordinates":[[[19.954873,50.105485],[19.955017,50.105468],[19.955055,50.105599],[19.95501,50.105605],[19.955006,50.105591],[19.954907,50.105603],[19.954873,50.105485]]]}},{"type":"Feature","id":"w662188974","properties":{"type":"construction","address":"Górka Narodowa 108F","residential":false,"residents_est":0,"h3_10":"8a1e2e6a6ba7fff","h3_11":"8b1e2e6a6ba1fff"},"geometry":{"type":"Polygon","coordinates":[[[19.955165,50.105437],[19.955315,50.105419],[19.955349,50.105537],[19.955247,50.10555],[19.955251,50.105563],[19.955203,50.105569],[19.955165,50.105437]]]}},{"type":"Feature","id":"w662188975","properties":{"type":"construction","address":"Górka Narodowa 108C","residential":false,"residents_est":0,"h3_10":"8a1e2e6a6ba7fff","h3_11":"8b1e2e6a6ba0fff"},"geometry":{"type":"Polygon","coordinates":[[[19.954566,50.105518],[19.954714,50.105501],[19.954748,50.105621],[19.954647,50.105633],[19.95465,50.105646],[19.954601,50.105651],[19.954566,50.105518]]]}},{"type":"Feature","id":"w662188977","properties":{"type":"construction","address":"Górka Narodowa 108B","residential":false,"residents_est":0,"h3_10":"8a1e2e6a6ba7fff","h3_11":"8b1e2e6a6ba0fff"},"geometry":{"type":"Polygon","coordinates":[[[19.954412,50.105521],[19.954562,50.105503],[19.954595,50.105626],[19.954495,50.105636],[19.954498,50.10565],[19.954449,50.105655],[19.954412,50.105521]]]}},{"type":"Feature","id":"w662188979","properties":{"type":"construction","address":"Górka Narodowa 108A","residential":false,"residents_est":0,"h3_10":"8a1e2e6a6ba7fff","h3_11":"8b1e2e6a6ba6fff"},"geometry":{"type":"Polygon","coordinates":[[[19.95426,50.105539],[19.954412,50.105521],[19.954449,50.105655],[19.954401,50.105661],[19.954397,50.105648],[19.954296,50.105659],[19.95426,50.105539]]]}},{"type":"Feature","id":"w662188981","properties":{"type":"construction","address":"Górka Narodowa 108","residential":false,"residents_est":0,"h3_10":"8a1e2e6a6ba7fff","h3_11":"8b1e2e6a6ba6fff"},"geometry":{"type":"Polygon","coordinates":[[[19.95412,50.105569],[19.954264,50.105552],[19.954304,50.105685],[19.954255,50.105691],[19.954251,50.105678],[19.954151,50.105689],[19.95412,50.105569]]]}},{"type":"Feature","id":"w706379920","properties":{"type":"yes","residential":true,"residents_est":1,"h3_10":"8a1e2e6a6ba7fff","h3_11":"8b1e2e6a6ba5fff"},"geometry":{"type":"Polygon","coordinates":[[[19.955123,50.10595],[19.955183,50.10591],[19.955262,50.105958],[19.955205,50.105998],[19.955123,50.10595]]]}},{"type":"Feature","id":"w706379921","properties":{"type":"construction","address":"Górka Narodowa 114","residential":false,"residents_est":0,"h3_10":"8a1e2e6a6ba7fff","h3_11":"8b1e2e6a6ba5fff"},"geometry":{"type":"Polygon","coordinates":[[[19.954636,50.106006],[19.954887,50.105971],[19.954894,50.105978],[19.954808,50.106038],[19.954846,50.106061],[19.954839,50.106073],[19.954777,50.106081],[19.954636,50.106006]]]}},{"type":"Feature","id":"w706379940","properties":{"type":"residential","address":"Górka Narodowa 122F","residential":true,"residents_est":5,"h3_10":"8a1e2e6a6b0ffff","h3_11":"8b1e2e6a6b08fff"},"geometry":{"type":"Polygon","coordinates":[[[19.959457,50.10689],[19.959594,50.106875],[19.959618,50.106963],[19.959481,50.106978],[19.959457,50.10689]]]}},{"type":"Feature","id":"w706379945","properties":{"type":"yes","address":"Belwederczyków 6E","residential":true,"residents_est":3,"h3_10":"8a1e2e6a6b6ffff","h3_11":"8b1e2e6a6b6afff"},"geometry":{"type":"Polygon","coordinates":[[[19.963726,50.107626],[19.963813,50.107624],[19.963812,50.1076],[19.963836,50.1076],[19.963835,50.107579],[19.963959,50.107576],[19.96396,50.107605],[19.963999,50.107605],[19.964002,50.107674],[19.963972,50.107675],[19.963973,50.107707],[19.963729,50.107706],[19.963726,50.107626]]]}},{"type":"Feature","id":"w706379946","properties":{"type":"yes","address":"Belwederczyków 6F","residential":true,"residents_est":2,"h3_10":"8a1e2e6a6b6ffff","h3_11":"8b1e2e6a6b68fff"},"geometry":{"type":"Polygon","coordinates":[[[19.963731,50.107777],[19.963906,50.107774],[19.96391,50.107853],[19.963886,50.107854],[19.963887,50.107888],[19.963758,50.107891],[19.963757,50.107857],[19.963734,50.107857],[19.963731,50.107777]]]}},{"type":"Feature","id":"w706379947","properties":{"type":"residential","address":"Witkowicka 68M","residential":true,"residents_est":5,"h3_10":"8a1e2e6a6b47fff","h3_11":"8b1e2e6a6b46fff"},"geometry":{"type":"Polygon","coordinates":[[[19.961863,50.107119],[19.961973,50.107116],[19.961975,50.107139],[19.96202,50.107138],[19.962024,50.107193],[19.961868,50.107198],[19.961863,50.107119]]]}},{"type":"Feature","id":"w706379948","properties":{"type":"residential","address":"Witkowicka 68L","residential":true,"residents_est":4,"h3_10":"8a1e2e6a6b47fff","h3_11":"8b1e2e6a6b46fff"},"geometry":{"type":"Polygon","coordinates":[[[19.961868,50.107198],[19.962024,50.107193],[19.962028,50.107249],[19.961982,50.10725],[19.961983,50.107273],[19.961873,50.107276],[19.961868,50.107198]]]}},{"type":"Feature","id":"w706379949","properties":{"type":"residential","address":"Witkowicka 68K","residential":true,"residents_est":5,"h3_10":"8a1e2e6a6b47fff","h3_11":"8b1e2e6a6b44fff"},"geometry":{"type":"Polygon","coordinates":[[[19.961886,50.107366],[19.962036,50.10736],[19.962045,50.107461],[19.961958,50.107464],[19.961955,50.107427],[19.961892,50.107429],[19.961886,50.107366]]]}},{"type":"Feature","id":"w706379950","properties":{"type":"residential","address":"Witkowicka 70R","residential":true,"residents_est":5,"h3_10":"8a1e2e6a6b47fff","h3_11":"8b1e2e6a6b40fff"},"geometry":{"type":"Polygon","coordinates":[[[19.962176,50.107059],[19.962221,50.107058],[19.962219,50.107035],[19.962329,50.107031],[19.962336,50.107109],[19.962181,50.107115],[19.962176,50.107059]]]}},{"type":"Feature","id":"w706379951","properties":{"type":"residential","address":"Witkowicka 70P","residential":true,"residents_est":4,"h3_10":"8a1e2e6a6b47fff","h3_11":"8b1e2e6a6b40fff"},"geometry":{"type":"Polygon","coordinates":[[[19.962181,50.107115],[19.962336,50.107109],[19.962343,50.107187],[19.962233,50.107191],[19.962231,50.107169],[19.962186,50.107171],[19.962181,50.107115]]]}},{"type":"Feature","id":"w706379952","properties":{"type":"yes","address":"Witkowicka 62B","residential":true,"residents_est":1,"h3_10":"8a1e2e6a6b77fff","h3_11":"8b1e2e6a6b70fff"},"geometry":{"type":"Polygon","coordinates":[[[19.96096,50.107392],[19.961074,50.107389],[19.961079,50.107472],[19.960965,50.107475],[19.96096,50.107392]]]}},{"type":"Feature","id":"w706379953","properties":{"type":"yes","address":"Urodzajna 7","residential":true,"residents_est":1,"h3_10":"8a1e2e6a6b67fff","h3_11":"8b1e2e6a6b63fff"},"geometry":{"type":"Polygon","coordinates":[[[19.962638,50.107933],[19.96278,50.10793],[19.962785,50.10803],[19.962643,50.108033],[19.962638,50.107933]]]}},{"type":"Feature","id":"w706379954","properties":{"type":"residential","address":"Witkowicka 68G","residential":true,"residents_est":5,"h3_10":"8a1e2e6a6b67fff","h3_11":"8b1e2e6a6b62fff"},"geometry":{"type":"Polygon","coordinates":[[[19.961933,50.10798],[19.962043,50.107976],[19.962045,50.107998],[19.962091,50.107996],[19.962096,50.108052],[19.961941,50.108058],[19.961933,50.10798]]]}},{"type":"Feature","id":"w706379955","properties":{"type":"residential","address":"Witkowicka 68F","residential":true,"residents_est":4,"h3_10":"8a1e2e6a6b67fff","h3_11":"8b1e2e6a6b60fff"},"geometry":{"type":"Polygon","coordinates":[[[19.961941,50.108058],[19.962096,50.108052],[19.962101,50.108107],[19.962056,50.108109],[19.962058,50.108131],[19.961948,50.108135],[19.961941,50.108058]]]}},{"type":"Feature","id":"w706379956","properties":{"type":"residential","address":"Witkowicka 70G","residential":true,"residents_est":5,"h3_10":"8a1e2e6a6b67fff","h3_11":"8b1e2e6a6b60fff"},"geometry":{"type":"Polygon","coordinates":[[[19.962266,50.108125],[19.962315,50.108123],[19.962313,50.108102],[19.96244,50.108098],[19.962443,50.108129],[19.962433,50.10813],[19.962438,50.108181],[19.962272,50.108187],[19.962266,50.108125]]]}},{"type":"Feature","id":"w706379957","properties":{"type":"residential","address":"Witkowicka 70F","residential":true,"residents_est":5,"h3_10":"8a1e2e6a6b67fff","h3_11":"8b1e2e6a6b60fff"},"geometry":{"type":"Polygon","coordinates":[[[19.962272,50.108187],[19.962438,50.108181],[19.962442,50.108221],[19.962451,50.10822],[19.962454,50.108261],[19.962327,50.108266],[19.962325,50.108245],[19.962277,50.108246],[19.962272,50.108187]]]}},{"type":"Feature","id":"w706379958","properties":{"type":"residential","address":"Witkowicka 68E","residential":true,"residents_est":5,"h3_10":"8a1e2e6a6b67fff","h3_11":"8b1e2e6a6b60fff"},"geometry":{"type":"Polygon","coordinates":[[[19.961941,50.108245],[19.962068,50.10824],[19.96207,50.108262],[19.96212,50.10826],[19.962125,50.108322],[19.961958,50.108328],[19.961956,50.108302],[19.961946,50.108303],[19.961941,50.108245]]]}},{"type":"Feature","id":"w706379959","properties":{"type":"residential","address":"Witkowicka 68D","residential":true,"residents_est":5,"h3_10":"8a1e2e6a6b67fff","h3_11":"8b1e2e6a6b60fff"},"geometry":{"type":"Polygon","coordinates":[[[19.96195,50.108351],[19.96196,50.10835],[19.961958,50.108328],[19.962125,50.108322],[19.96213,50.108382],[19.962081,50.108383],[19.962083,50.108405],[19.961955,50.108409],[19.96195,50.108351]]]}},{"type":"Feature","id":"w706379960","properties":{"type":"residential","address":"Witkowicka 68C","residential":true,"residents_est":5,"h3_10":"8a1e2e6a6b67fff","h3_11":"8b1e2e6a6b64fff"},"geometry":{"type":"Polygon","coordinates":[[[19.96197,50.108515],[19.962091,50.108512],[19.962093,50.108534],[19.962142,50.108533],[19.962145,50.108592],[19.961984,50.108596],[19.961981,50.108569],[19.961973,50.10857],[19.96197,50.108515]]]}},{"type":"Feature","id":"w706379961","properties":{"type":"residential","address":"Witkowicka 68B","residential":true,"residents_est":5,"h3_10":"8a1e2e6a6b67fff","h3_11":"8b1e2e6a6b64fff"},"geometry":{"type":"Polygon","coordinates":[[[19.961975,50.108621],[19.961985,50.108621],[19.961984,50.108596],[19.962145,50.108592],[19.962148,50.108651],[19.9621,50.108652],[19.962102,50.108673],[19.961978,50.108676],[19.961975,50.108621]]]}},{"type":"Feature","id":"w706379962","properties":{"type":"residential","address":"Witkowicka 70E","residential":true,"residents_est":5,"h3_10":"8a1e2e6a6b67fff","h3_11":"8b1e2e6a6b60fff"},"geometry":{"type":"Polygon","coordinates":[[[19.96229,50.108397],[19.962338,50.108396],[19.962336,50.108374],[19.962464,50.10837],[19.962467,50.108401],[19.962457,50.108402],[19.962462,50.108452],[19.962295,50.108458],[19.96229,50.108397]]]}},{"type":"Feature","id":"w706379963","properties":{"type":"residential","address":"Witkowicka 70D","residential":true,"residents_est":5,"h3_10":"8a1e2e6a6b67fff","h3_11":"8b1e2e6a6b65fff"},"geometry":{"type":"Polygon","coordinates":[[[19.962295,50.108458],[19.962462,50.108452],[19.962466,50.108503],[19.962474,50.108503],[19.962477,50.108534],[19.962351,50.108539],[19.962349,50.108517],[19.9623,50.108519],[19.962295,50.108458]]]}},{"type":"Feature","id":"w706379964","properties":{"type":"residential","address":"Witkowicka 70C","residential":true,"residents_est":5,"h3_10":"8a1e2e6a6b67fff","h3_11":"8b1e2e6a6b65fff"},"geometry":{"type":"Polygon","coordinates":[[[19.962315,50.108672],[19.962363,50.10867],[19.962361,50.108649],[19.962485,50.108644],[19.962488,50.108672],[19.962478,50.108673],[19.962482,50.108725],[19.962321,50.108731],[19.962315,50.108672]]]}},{"type":"Feature","id":"w706379966","properties":{"type":"residential","address":"Witkowicka 68A","residential":true,"residents_est":5,"h3_10":"8a1e2e6a6b67fff","h3_11":"8b1e2e6a6b64fff"},"geometry":{"type":"Polygon","coordinates":[[[19.961988,50.108768],[19.96216,50.108764],[19.962164,50.108845],[19.962002,50.108849],[19.962,50.108822],[19.961991,50.108823],[19.961988,50.108768]]]}},{"type":"Feature","id":"w713642597","properties":{"type":"yes","residential":true,"residents_est":1,"h3_10":"8a1e2e6a6b17fff","h3_11":"8b1e2e6a6b11fff"},"geometry":{"type":"Polygon","coordinates":[[[19.957104,50.106226],[19.957146,50.106197],[19.9573,50.10628],[19.957256,50.10631],[19.957104,50.106226]]]}},{"type":"Feature","id":"w713642599","properties":{"type":"residential","address":"Górka Narodowa 128","residential":true,"residents_est":11,"h3_10":"8a1e2e6a6b2ffff","h3_11":"8b1e2e6a6b2efff"},"geometry":{"type":"Polygon","coordinates":[[[19.958033,50.107883],[19.958053,50.107881],[19.958046,50.107852],[19.958126,50.107844],[19.958123,50.107828],[19.958242,50.107816],[19.958264,50.107911],[19.958278,50.10791],[19.958296,50.10799],[19.958202,50.107999],[19.958187,50.107937],[19.95807,50.107949],[19.958063,50.107921],[19.958042,50.107923],[19.958033,50.107883]]]}},{"type":"Feature","id":"w713642600","properties":{"type":"residential","address":"Górka Narodowa 122A","residential":true,"residents_est":9,"h3_10":"8a1e2e6a6b07fff","h3_11":"8b1e2e6a6b00fff"},"geometry":{"type":"Polygon","coordinates":[[[19.957457,50.107141],[19.957476,50.107139],[19.95747,50.107118],[19.957579,50.107106],[19.957576,50.107095],[19.957728,50.107079],[19.957746,50.107151],[19.95766,50.10716],[19.957663,50.107171],[19.957601,50.107178],[19.957604,50.10719],[19.957473,50.107204],[19.957457,50.107141]]]}},{"type":"Feature","id":"w713642601","properties":{"type":"residential","residential":true,"residents_est":6,"h3_10":"8a1e2e6a6b07fff","h3_11":"8b1e2e6a6b00fff"},"geometry":{"type":"Polygon","coordinates":[[[19.957431,50.106947],[19.957614,50.106926],[19.957635,50.107002],[19.957451,50.107023],[19.957431,50.106947]]]}},{"type":"Feature","id":"w713642602","properties":{"type":"yes","address":"Witkowicka 69","residential":true,"residents_est":2,"h3_10":"8a1e2e6a6b27fff","h3_11":"8b1e2e6a6b25fff"},"geometry":{"type":"Polygon","coordinates":[[[19.957656,50.108501],[19.957705,50.108409],[19.957885,50.108448],[19.957836,50.108541],[19.957656,50.108501]]]}},{"type":"Feature","id":"w713642603","properties":{"type":"residential","address":"Górka Narodowa 124A","residential":true,"residents_est":8,"h3_10":"8a1e2e6a6b07fff","h3_11":"8b1e2e6a6b05fff"},"geometry":{"type":"Polygon","coordinates":[[[19.957802,50.107343],[19.957929,50.107328],[19.957925,50.107314],[19.958031,50.107303],[19.958057,50.107397],[19.95796,50.107408],[19.957963,50.107418],[19.95792,50.107423],[19.957917,50.107414],[19.957841,50.107422],[19.957828,50.107377],[19.957812,50.107379],[19.957802,50.107343]]]}},{"type":"Feature","id":"w713642604","properties":{"type":"residential","address":"Górka Narodowa 97","residential":true,"residents_est":15,"h3_10":"8a1e2e6a6b27fff","h3_11":"8b1e2e6a6b23fff"},"geometry":{"type":"Polygon","coordinates":[[[19.957259,50.108029],[19.957408,50.107912],[19.957506,50.107963],[19.95754,50.107937],[19.957636,50.107987],[19.957544,50.10806],[19.957508,50.108041],[19.957418,50.108112],[19.957259,50.108029]]]}},{"type":"Feature","id":"w734915251","properties":{"type":"service","residential":false,"residents_est":0,"h3_10":"8a1e2e6a6b17fff","h3_11":"8b1e2e6a6b15fff"},"geometry":{"type":"Polygon","coordinates":[[[19.956747,50.106914],[19.956794,50.10688],[19.956845,50.106912],[19.956799,50.106944],[19.956747,50.106914]]]}},{"type":"Feature","id":"w751518381","properties":{"type":"residential","address":"Górka Narodowa 120K","residential":true,"residents_est":5,"h3_10":"8a1e2e6a6b0ffff","h3_11":"8b1e2e6a6b0efff"},"geometry":{"type":"Polygon","coordinates":[[[19.958375,50.106587],[19.95851,50.106571],[19.958535,50.106664],[19.958401,50.106679],[19.958375,50.106587]]]}},{"type":"Feature","id":"w751518383","properties":{"type":"garage","residential":false,"residents_est":0,"h3_10":"8a1e2e6a6b07fff","h3_11":"8b1e2e6a6b03fff"},"geometry":{"type":"Polygon","coordinates":[[[19.957946,50.10665],[19.958042,50.10664],[19.958059,50.106701],[19.957963,50.106712],[19.957946,50.10665]]]}},{"type":"Feature","id":"w751518384","properties":{"type":"residential","address":"Górka Narodowa 120M","residential":true,"residents_est":9,"h3_10":"8a1e2e6a6b07fff","h3_11":"8b1e2e6a6b03fff"},"geometry":{"type":"Polygon","coordinates":[[[19.957658,50.106674],[19.957926,50.106643],[19.957948,50.106724],[19.957888,50.10673],[19.957891,50.106738],[19.957768,50.106752],[19.957766,50.106743],[19.95768,50.106753],[19.957658,50.106674]]]}},{"type":"Feature","id":"w837368507","properties":{"type":"residential","address":"Górka Narodowa 122G","residential":true,"residents_est":6,"h3_10":"8a1e2e6a6b0ffff","h3_11":"8b1e2e6a6b09fff"},"geometry":{"type":"Polygon","coordinates":[[[19.959865,50.106831],[19.959954,50.106821],[19.959958,50.106834],[19.960007,50.106829],[19.960031,50.106924],[19.95996,50.106931],[19.959962,50.10694],[19.959944,50.106942],[19.959923,50.106944],[19.959921,50.106935],[19.959893,50.106938],[19.959865,50.106831]]]}},{"type":"Feature","id":"w837368508","properties":{"type":"residential","address":"Górka Narodowa 124E","residential":true,"residents_est":8,"h3_10":"8a1e2e6a6b0ffff","h3_11":"8b1e2e6a6b0dfff"},"geometry":{"type":"Polygon","coordinates":[[[19.959511,50.107121],[19.959611,50.107111],[19.95962,50.107147],[19.959656,50.107143],[19.959653,50.107133],[19.959709,50.107127],[19.959717,50.107157],[19.959739,50.107155],[19.959754,50.107211],[19.95954,50.107233],[19.959511,50.107121]]]}},{"type":"Feature","id":"w837405936","properties":{"type":"warehouse","address":"Aleja 29 Listopada 218","residential":false,"residents_est":0,"h3_10":"8a1e2e6a6b4ffff","h3_11":"8b1e2e6a6b48fff"},"geometry":{"type":"Polygon","coordinates":[[[19.96426,50.106765],[19.964601,50.106751],[19.964619,50.106938],[19.964279,50.106952],[19.96426,50.106765]]]}},{"type":"Feature","id":"w837405945","properties":{"type":"residential","address":"Witkowicka 70J","residential":true,"residents_est":5,"h3_10":"8a1e2e6a6b67fff","h3_11":"8b1e2e6a6b63fff"},"geometry":{"type":"Polygon","coordinates":[[[19.962245,50.107859],[19.96229,50.107858],[19.962288,50.107836],[19.962398,50.107832],[19.962405,50.107909],[19.96225,50.107915],[19.962245,50.107859]]]}},{"type":"Feature","id":"w837405946","properties":{"type":"residential","address":"Witkowicka 70H","residential":true,"residents_est":5,"h3_10":"8a1e2e6a6b67fff","h3_11":"8b1e2e6a6b63fff"},"geometry":{"type":"Polygon","coordinates":[[[19.96225,50.107915],[19.962405,50.107909],[19.962412,50.107986],[19.962302,50.10799],[19.9623,50.107969],[19.962255,50.107971],[19.96225,50.107915]]]}},{"type":"Feature","id":"w837405947","properties":{"type":"residential","address":"Witkowicka 70L","residential":true,"residents_est":4,"h3_10":"8a1e2e6a6b47fff","h3_11":"8b1e2e6a6b44fff"},"geometry":{"type":"Polygon","coordinates":[[[19.962222,50.10759],[19.962267,50.107588],[19.962265,50.107566],[19.962376,50.107562],[19.962382,50.10764],[19.962227,50.107646],[19.962222,50.10759]]]}},{"type":"Feature","id":"w837405948","properties":{"type":"residential","address":"Witkowicka 70K","residential":true,"residents_est":4,"h3_10":"8a1e2e6a6b47fff","h3_11":"8b1e2e6a6b44fff"},"geometry":{"type":"Polygon","coordinates":[[[19.962227,50.107646],[19.962382,50.10764],[19.962389,50.107718],[19.962279,50.107722],[19.962277,50.1077],[19.962232,50.107701],[19.962227,50.107646]]]}},{"type":"Feature","id":"w837405949","properties":{"type":"residential","address":"Witkowicka 68H","residential":true,"residents_est":5,"h3_10":"8a1e2e6a6b67fff","h3_11":"8b1e2e6a6b62fff"},"geometry":{"type":"Polygon","coordinates":[[[19.961921,50.107773],[19.962071,50.107768],[19.96208,50.107868],[19.961992,50.107871],[19.961989,50.107834],[19.961926,50.107836],[19.961921,50.107773]]]}},{"type":"Feature","id":"w837405950","properties":{"type":"residential","address":"Witkowicka 68J","residential":true,"residents_est":5,"h3_10":"8a1e2e6a6b47fff","h3_11":"8b1e2e6a6b44fff"},"geometry":{"type":"Polygon","coordinates":[[[19.961904,50.107569],[19.962053,50.107564],[19.962062,50.107665],[19.961975,50.107668],[19.961972,50.10763],[19.961909,50.107633],[19.961904,50.107569]]]}},{"type":"Feature","id":"w837405951","properties":{"type":"residential","address":"Witkowicka 70M","residential":true,"residents_est":4,"h3_10":"8a1e2e6a6b47fff","h3_11":"8b1e2e6a6b44fff"},"geometry":{"type":"Polygon","coordinates":[[[19.962202,50.107366],[19.962357,50.10736],[19.962364,50.107439],[19.962255,50.107443],[19.962253,50.10742],[19.962207,50.107422],[19.962202,50.107366]]]}},{"type":"Feature","id":"w837405952","properties":{"type":"residential","address":"Witkowicka 70N","residential":true,"residents_est":4,"h3_10":"8a1e2e6a6b47fff","h3_11":"8b1e2e6a6b44fff"},"geometry":{"type":"Polygon","coordinates":[[[19.962197,50.10731],[19.962243,50.107309],[19.962241,50.107287],[19.96235,50.107283],[19.962357,50.10736],[19.962202,50.107366],[19.962197,50.10731]]]}},{"type":"Feature","id":"w837405953","properties":{"type":"yes","address":"Belwederczyków 20","residential":true,"residents_est":2,"h3_10":"8a1e2e6a6b77fff","h3_11":"8b1e2e6a6b71fff"},"geometry":{"type":"Polygon","coordinates":[[[19.961202,50.107384],[19.961365,50.107381],[19.961367,50.107518],[19.961208,50.107521],[19.961202,50.107384]]]}},{"type":"Feature","id":"w897004442","properties":{"type":"apartments","levels":6.0,"address":"Stefana Banacha 45B","residential":true,"residents_est":73,"h3_10":"8a1e2e6a6a97fff","h3_11":"8b1e2e6a6a96fff"},"geometry":{"type":"Polygon","coordinates":[[[19.955147,50.10082],[19.955371,50.100813],[19.955391,50.101072],[19.955683,50.101063],[19.955692,50.101184],[19.955176,50.1012],[19.955147,50.10082]]]}},{"type":"Feature","id":"w897004443","properties":{"type":"apartments","levels":6.0,"address":"Stefana Banacha 45A","residential":true,"residents_est":39,"h3_10":"8a1e2e6a6a97fff","h3_11":"8b1e2e6a6a92fff"},"geometry":{"type":"Polygon","coordinates":[[[19.955803,50.10082],[19.95604,50.100964],[19.956056,50.101173],[19.955831,50.10118],[19.955803,50.10082]]]}},{"type":"Feature","id":"w897010654","properties":{"type":"apartments","levels":6.0,"address":"Stefana Banacha 47","residential":true,"residents_est":51,"h3_10":"8a1e2e6a6ab7fff","h3_11":"8b1e2e6a6ab2fff"},"geometry":{"type":"Polygon","coordinates":[[[19.955087,50.102068],[19.955132,50.102066],[19.955126,50.10201],[19.955165,50.102008],[19.955159,50.101953],[19.955202,50.101951],[19.955183,50.101791],[19.955392,50.101782],[19.955431,50.102109],[19.955094,50.102125],[19.955087,50.102068]]]}},{"type":"Feature","id":"w905461259","properties":{"type":"apartments","address":"Aleja 29 Listopada 201","residential":true,"residents_est":65,"h3_10":"8a1e2e6a6aeffff","h3_11":"8b1e2e6a6ae9fff"},"geometry":{"type":"Polygon","coordinates":[[[19.96439,50.102779],[19.965012,50.102708],[19.965081,50.102996],[19.964955,50.10301],[19.964917,50.102864],[19.964826,50.102874],[19.964824,50.102863],[19.964654,50.102881],[19.964658,50.102895],[19.964574,50.102904],[19.964618,50.103048],[19.964476,50.103065],[19.96439,50.102779]]]}},{"type":"Feature","id":"w992280815","properties":{"type":"apartments","levels":6.0,"address":"Stefana Banacha 41","residential":true,"residents_est":51,"h3_10":"8a1e2e6a6ab7fff","h3_11":"8b1e2e6a6ab3fff"},"geometry":{"type":"Polygon","coordinates":[[[19.955839,50.10176],[19.956049,50.10175],[19.956067,50.101908],[19.956108,50.101906],[19.956115,50.101963],[19.956156,50.101961],[19.956162,50.102018],[19.956203,50.102016],[19.95621,50.102072],[19.955876,50.102088],[19.955839,50.10176]]]}},{"type":"Feature","id":"w992280816","properties":{"type":"apartments","levels":6.0,"address":"Stefana Banacha 45","residential":true,"residents_est":50,"h3_10":"8a1e2e6a6a97fff","h3_11":"8b1e2e6a6a94fff"},"geometry":{"type":"Polygon","coordinates":[[[19.95579,50.101322],[19.955996,50.101312],[19.956013,50.10147],[19.956058,50.101468],[19.956064,50.101524],[19.956105,50.101522],[19.956111,50.101578],[19.956155,50.101576],[19.956161,50.101633],[19.955826,50.101648],[19.95579,50.101322]]]}},{"type":"Feature","id":"w992280817","properties":{"type":"apartments","levels":6.0,"address":"Stefana Banacha 43","residential":true,"residents_est":31,"h3_10":"8a1e2e6a6a97fff","h3_11":"8b1e2e6a6a95fff"},"geometry":{"type":"Polygon","coordinates":[[[19.95633,50.101296],[19.956401,50.101292],[19.956407,50.101357],[19.95645,50.101355],[19.956457,50.101419],[19.956501,50.101417],[19.956508,50.101484],[19.956551,50.101482],[19.956558,50.101548],[19.956601,50.101546],[19.956608,50.101612],[19.956368,50.101623],[19.95633,50.101296]]]}},{"type":"Feature","id":"w992280818","properties":{"type":"apartments","levels":6.0,"address":"Stefana Banacha 39","residential":true,"residents_est":51,"h3_10":"8a1e2e6a6a87fff","h3_11":"8b1e2e6a6a86fff"},"geometry":{"type":"Polygon","coordinates":[[[19.956411,50.102005],[19.956453,50.102003],[19.956447,50.101948],[19.956488,50.101946],[19.956482,50.101888],[19.95652,50.101886],[19.956502,50.101728],[19.956715,50.101718],[19.956752,50.102045],[19.956418,50.102061],[19.956411,50.102005]]]}},{"type":"Feature","id":"w995648579","properties":{"type":"residential","levels":6.0,"address":"Stefana Banacha 23","residential":true,"residents_est":48,"h3_10":"8a1e2e6a6ad7fff","h3_11":"8b1e2e6a6ad4fff"},"geometry":{"type":"Polygon","coordinates":[[[19.960453,50.101372],[19.960658,50.101367],[19.960675,50.101762],[19.960477,50.101766],[19.960453,50.101372]]]}},{"type":"Feature","id":"w995648580","properties":{"type":"residential","levels":6.0,"address":"Stefana Banacha 25","residential":true,"residents_est":50,"h3_10":"8a1e2e6a6ad7fff","h3_11":"8b1e2e6a6ad2fff"},"geometry":{"type":"Polygon","coordinates":[[[19.960431,50.10076],[19.960633,50.100756],[19.96065,50.101163],[19.960449,50.101166],[19.960431,50.10076]]]}},{"type":"Feature","id":"w1049554518","properties":{"type":"outbuilding","levels":1.0,"residential":false,"residents_est":0,"h3_10":"8a1e2e6a6adffff","h3_11":"8b1e2e6a6adafff"},"geometry":{"type":"Polygon","coordinates":[[[19.962561,50.100489],[19.962732,50.100476],[19.962741,50.100523],[19.96257,50.100536],[19.962561,50.100489]]]}},{"type":"Feature","id":"w1049554538","properties":{"type":"residential","levels":2.0,"address":"Górka Narodowa 122","residential":true,"residents_est":5,"h3_10":"8a1e2e6a6b07fff","h3_11":"8b1e2e6a6b06fff"},"geometry":{"type":"Polygon","coordinates":[[[19.957039,50.107161],[19.957304,50.107138],[19.957324,50.107217],[19.957062,50.10725],[19.957039,50.107161]]]}},{"type":"Feature","id":"w1049554546","properties":{"type":"outbuilding","levels":1.0,"residential":false,"residents_est":0,"h3_10":"8a1e2e6a6adffff","h3_11":"8b1e2e6a6adcfff"},"geometry":{"type":"Polygon","coordinates":[[[19.962286,50.10116],[19.962392,50.101158],[19.962392,50.101243],[19.962291,50.101246],[19.962286,50.10116]]]}},{"type":"Feature","id":"w1049554554","properties":{"type":"garage","levels":1.0,"residential":false,"residents_est":0,"h3_10":"8a1e2e6a6adffff","h3_11":"8b1e2e6a6addfff"},"geometry":{"type":"Polygon","coordinates":[[[19.962833,50.101147],[19.962948,50.101147],[19.962951,50.101222],[19.962836,50.101223],[19.962833,50.101147]]]}},{"type":"Feature","id":"w1049554639","properties":{"type":"outbuilding","levels":1.0,"residential":false,"residents_est":0,"h3_10":"8a1e2e6a6adffff","h3_11":"8b1e2e6a6adafff"},"geometry":{"type":"Polygon","coordinates":[[[19.962545,50.100348],[19.962626,50.100345],[19.962632,50.100412],[19.96255,50.100414],[19.962545,50.100348]]]}},{"type":"Feature","id":"w1049554743","properties":{"type":"warehouse","levels":1.0,"residential":false,"residents_est":0,"h3_10":"8a1e2e6a6a67fff","h3_11":"8b1e2e6a6a64fff"},"geometry":{"type":"Polygon","coordinates":[[[19.964382,50.106114],[19.964491,50.106111],[19.964507,50.106416],[19.964399,50.106418],[19.964382,50.106114]]]}},{"type":"Feature","id":"w1061376363","properties":{"type":"apartments","address":"Stefana Banacha 10A","residential":true,"residents_est":51,"h3_10":"8a1e2e6a6ae7fff","h3_11":"8b1e2e6a6ae4fff"},"geometry":{"type":"Polygon","coordinates":[[[19.961874,50.103314],[19.962102,50.103304],[19.962148,50.10374],[19.961919,50.10375],[19.961874,50.103314]]]}},{"type":"Feature","id":"w1061376364","properties":{"type":"apartments","address":"Stefana Banacha 10","residential":true,"residents_est":51,"h3_10":"8a1e2e6a6ae7fff","h3_11":"8b1e2e6a6ae2fff"},"geometry":{"type":"Polygon","coordinates":[[[19.961822,50.102633],[19.96205,50.102623],[19.962095,50.10306],[19.961867,50.10307],[19.961822,50.102633]]]}},{"type":"Feature","id":"w1159188053","properties":{"type":"yes","address":"Witkowicka 74E","residential":true,"residents_est":3,"h3_10":"8a1e2e6a6b6ffff","h3_11":"8b1e2e6a6b6cfff"},"geometry":{"type":"Polygon","coordinates":[[[19.963241,50.108373],[19.963307,50.10837],[19.963299,50.108299],[19.963454,50.108291],[19.963458,50.108327],[19.963487,50.108326],[19.963497,50.108402],[19.963465,50.108403],[19.963469,50.108438],[19.96325,50.108449],[19.963241,50.108373]]]}},{"type":"Feature","id":"w1183923830","properties":{"type":"residential","address":"Górka Narodowa 120E","residential":true,"residents_est":5,"h3_10":"8a1e2e6a6b0ffff","h3_11":"8b1e2e6a6b08fff"},"geometry":{"type":"Polygon","coordinates":[[[19.959322,50.106732],[19.959421,50.106721],[19.959419,50.106713],[19.959474,50.106707],[19.959498,50.106794],[19.959344,50.106812],[19.959322,50.106732]]]}},{"type":"Feature","id":"w1183923831","properties":{"type":"residential","address":"Górka Narodowa 120EA","residential":true,"residents_est":6,"h3_10":"8a1e2e6a6b0ffff","h3_11":"8b1e2e6a6b08fff"},"geometry":{"type":"Polygon","coordinates":[[[19.959474,50.106707],[19.95963,50.106694],[19.959654,50.106775],[19.959498,50.106794],[19.959474,50.106707]]]}},{"type":"Feature","id":"w1239377037","properties":{"type":"transportation","address":"Papierni Prądnickich 1","name":"Górka Narodowa P+R","residential":false,"residents_est":0,"h3_10":"8a1e2e6a6a77fff","h3_11":"8b1e2e6a6a72fff"},"geometry":{"type":"Polygon","coordinates":[[[19.96274,50.104617],[19.963095,50.104606],[19.963114,50.104845],[19.962758,50.104857],[19.96274,50.104617]]]}},{"type":"Feature","id":"w1239377040","properties":{"type":"yes","residential":false,"residents_est":0,"h3_10":"8a1e2e6a6a97fff","h3_11":"8b1e2e6a6a96fff"},"geometry":{"type":"Polygon","coordinates":[[[19.955408,50.101326],[19.95573,50.101312],[19.955732,50.101327],[19.95541,50.101341],[19.955408,50.101326]]]}},{"type":"Feature","id":"w1272036178","properties":{"type":"apartments","address":"Papierni Prądnickich 48B","residential":true,"residents_est":43,"h3_10":"8a1e2e6a6b57fff","h3_11":"8b1e2e6a6b54fff"},"geometry":{"type":"Polygon","coordinates":[[[19.960641,50.106667],[19.960863,50.106659],[19.960895,50.107044],[19.960673,50.107051],[19.960641,50.106667]]]}},{"type":"Feature","id":"w1272036179","properties":{"type":"apartments","address":"Papierni Prądnickich 48A","residential":true,"residents_est":44,"h3_10":"8a1e2e6a6b57fff","h3_11":"8b1e2e6a6b56fff"},"geometry":{"type":"Polygon","coordinates":[[[19.960607,50.106246],[19.960831,50.106239],[19.960861,50.106623],[19.960638,50.10663],[19.960607,50.106246]]]}},{"type":"Feature","id":"w1272036180","properties":{"type":"construction","address":"Papierni Prądnickich 48","residential":false,"residents_est":0,"h3_10":"8a1e2e6a6b57fff","h3_11":"8b1e2e6a6b52fff"},"geometry":{"type":"Polygon","coordinates":[[[19.960566,50.105745],[19.960789,50.105738],[19.96082,50.106123],[19.960597,50.10613],[19.960566,50.105745]]]}},{"type":"Feature","id":"w1272482496","properties":{"type":"apartments","address":"Stefana Banacha 28","residential":true,"residents_est":66,"h3_10":"8a1e2e6a6aa7fff","h3_11":"8b1e2e6a6aa2fff"},"geometry":{"type":"Polygon","coordinates":[[[19.956556,50.102902],[19.956557,50.102782],[19.95687,50.102785],[19.956852,50.102716],[19.956857,50.102473],[19.95708,50.102472],[19.957071,50.102906],[19.956556,50.102902]]]}},{"type":"Feature","id":"w1272482497","properties":{"type":"apartments","address":"Stefana Banacha 30","residential":true,"residents_est":49,"h3_10":"8a1e2e6a6ab7fff","h3_11":"8b1e2e6a6ab5fff"},"geometry":{"type":"Polygon","coordinates":[[[19.956131,50.102936],[19.956132,50.102908],[19.956149,50.102908],[19.95615,50.102881],[19.956139,50.102881],[19.95614,50.102851],[19.956157,50.102851],[19.956158,50.102828],[19.956149,50.102828],[19.956149,50.10281],[19.95615,50.102793],[19.956159,50.102793],[19.956166,50.102526],[19.956397,50.102529],[19.956385,50.102939],[19.956131,50.102936]]]}},{"type":"Feature","id":"w1272482499","properties":{"type":"apartments","address":"Stefana Banacha 32","residential":true,"residents_est":66,"h3_10":"8a1e2e6a6ab7fff","h3_11":"8b1e2e6a6ab4fff"},"geometry":{"type":"Polygon","coordinates":[[[19.955177,50.103042],[19.955179,50.102924],[19.955492,50.102927],[19.955473,50.102856],[19.955479,50.102613],[19.955703,50.102613],[19.955696,50.103047],[19.955177,50.103042]]]}},{"type":"Feature","id":"w1276571597","properties":{"type":"shed","residential":false,"residents_est":0,"h3_10":"8a1e2e6a6adffff","h3_11":"8b1e2e6a6adafff"},"geometry":{"type":"Polygon","coordinates":[[[19.962735,50.100643],[19.96281,50.100641],[19.962817,50.100719],[19.962737,50.100723],[19.962735,50.100643]]]}},{"type":"Feature","id":"w1276571622","properties":{"type":"garage","residential":false,"residents_est":0,"h3_10":"8a1e2e6a6ad7fff","h3_11":"8b1e2e6a6ad1fff"},"geometry":{"type":"Polygon","coordinates":[[[19.96172,50.101169],[19.96172,50.101105],[19.961822,50.101105],[19.961822,50.101171],[19.96172,50.101169]]]}},{"type":"Feature","id":"w1276764474","properties":{"type":"garage","residential":false,"residents_est":0,"h3_10":"8a1e2e6a6ad7fff","h3_11":"8b1e2e6a6ad5fff"},"geometry":{"type":"Polygon","coordinates":[[[19.961164,50.101506],[19.961222,50.101505],[19.961227,50.101602],[19.961169,50.101603],[19.961164,50.101506]]]}},{"type":"Feature","id":"w1276764475","properties":{"type":"garage","residential":false,"residents_est":0,"h3_10":"8a1e2e6a6ad7fff","h3_11":"8b1e2e6a6ad4fff"},"geometry":{"type":"Polygon","coordinates":[[[19.960936,50.101645],[19.961012,50.101644],[19.961016,50.101695],[19.960939,50.101696],[19.960936,50.101645]]]}},{"type":"Feature","id":"w1276764476","properties":{"type":"shed","residential":false,"residents_est":0,"h3_10":"8a1e2e6a6ad7fff","h3_11":"8b1e2e6a6ad0fff"},"geometry":{"type":"Polygon","coordinates":[[[19.961029,50.101028],[19.961108,50.101026],[19.96111,50.101078],[19.961031,50.101079],[19.961029,50.101028]]]}},{"type":"Feature","id":"w1276764477","properties":{"type":"shed","residential":false,"residents_est":0,"h3_10":"8a1e2e6a6ad7fff","h3_11":"8b1e2e6a6ad0fff"},"geometry":{"type":"Polygon","coordinates":[[[19.960869,50.101122],[19.960922,50.101121],[19.960925,50.10118],[19.960872,50.101181],[19.960869,50.101122]]]}},{"type":"Feature","id":"w1277673558","properties":{"type":"yes","residential":false,"residents_est":0,"h3_10":"8a1e2e6a6b4ffff","h3_11":"8b1e2e6a6b4efff"},"geometry":{"type":"Polygon","coordinates":[[[19.963411,50.106642],[19.963472,50.106641],[19.963473,50.106681],[19.963413,50.106682],[19.963411,50.106642]]]}},{"type":"Feature","id":"w1277673581","properties":{"type":"garages","residential":false,"residents_est":0,"h3_10":"8a1e2e6a6b17fff","h3_11":"8b1e2e6a6b10fff"},"geometry":{"type":"Polygon","coordinates":[[[19.956017,50.106348],[19.956061,50.10631],[19.956166,50.106359],[19.956122,50.106398],[19.956017,50.106348]]]}},{"type":"Feature","id":"w1277673582","properties":{"type":"garages","residential":false,"residents_est":0,"h3_10":"8a1e2e6a6b17fff","h3_11":"8b1e2e6a6b10fff"},"geometry":{"type":"Polygon","coordinates":[[[19.956265,50.106457],[19.956316,50.106423],[19.956439,50.1065],[19.956388,50.106534],[19.956265,50.106457]]]}},{"type":"Feature","id":"w1277788099","properties":{"type":"yes","residential":true,"residents_est":2,"h3_10":"8a1e2e6a6b5ffff","h3_11":"8b1e2e6a6b5efff"},"geometry":{"type":"Polygon","coordinates":[[[19.962114,50.106012],[19.962216,50.10601],[19.962218,50.106054],[19.962293,50.106052],[19.962297,50.106123],[19.962121,50.106127],[19.962114,50.106012]]]}},{"type":"Feature","id":"w1277788100","properties":{"type":"yes","residential":true,"residents_est":1,"h3_10":"8a1e2e6a6b5ffff","h3_11":"8b1e2e6a6b5efff"},"geometry":{"type":"Polygon","coordinates":[[[19.962139,50.106127],[19.962248,50.106124],[19.962252,50.106197],[19.962143,50.1062],[19.962139,50.106127]]]}},{"type":"Feature","id":"w1277788101","properties":{"type":"residential","address":"Arsenał 3","residential":true,"residents_est":10,"h3_10":"8a1e2e6a6b57fff","h3_11":"8b1e2e6a6b51fff"},"geometry":{"type":"Polygon","coordinates":[[[19.96212,50.106345],[19.962225,50.106343],[19.962225,50.106332],[19.962339,50.106329],[19.962345,50.106451],[19.962125,50.106455],[19.96212,50.106345]]]}},{"type":"Feature","id":"w1277788102","properties":{"type":"garage","residential":false,"residents_est":0,"h3_10":"8a1e2e6a6b5ffff","h3_11":"8b1e2e6a6b5cfff"},"geometry":{"type":"Polygon","coordinates":[[[19.962217,50.106454],[19.962345,50.106451],[19.96235,50.106555],[19.962221,50.106557],[19.962217,50.106454]]]}},{"type":"Feature","id":"w1277788122","properties":{"type":"garage","residential":false,"residents_est":0,"h3_10":"8a1e2e6a6b57fff","h3_11":"8b1e2e6a6b55fff"},"geometry":{"type":"Polygon","coordinates":[[[19.961147,50.106754],[19.961356,50.106753],[19.961357,50.106847],[19.96115,50.10685],[19.961147,50.106754]]]}},{"type":"Feature","id":"w1277788129","properties":{"type":"residential","address":"Belwederczyków 21","residential":true,"residents_est":6,"h3_10":"8a1e2e6a6b57fff","h3_11":"8b1e2e6a6b50fff"},"geometry":{"type":"Polygon","coordinates":[[[19.961116,50.10653],[19.961217,50.106527],[19.961227,50.106663],[19.961127,50.106667],[19.961116,50.10653]]]}},{"type":"Feature","id":"w1277788130","properties":{"type":"residential","address":"Belwederczyków 21A","residential":true,"residents_est":5,"h3_10":"8a1e2e6a6b57fff","h3_11":"8b1e2e6a6b50fff"},"geometry":{"type":"Polygon","coordinates":[[[19.961217,50.106527],[19.961317,50.106524],[19.961327,50.10666],[19.961227,50.106663],[19.961217,50.106527]]]}},{"type":"Feature","id":"w1277788133","properties":{"type":"shed","residential":false,"residents_est":0,"h3_10":"8a1e2e6a6b57fff","h3_11":"8b1e2e6a6b54fff"},"geometry":{"type":"Polygon","coordinates":[[[19.961094,50.106684],[19.961186,50.106681],[19.961192,50.106751],[19.961099,50.106754],[19.961094,50.106684]]]}},{"type":"Feature","id":"w1277788156","properties":{"type":"residential","address":"Witkowicka 36E","residential":true,"residents_est":5,"h3_10":"8a1e2e6a6b37fff","h3_11":"8b1e2e6a6b34fff"},"geometry":{"type":"Polygon","coordinates":[[[19.955122,50.107752],[19.955129,50.107679],[19.95528,50.107685],[19.955278,50.107711],[19.955289,50.107712],[19.955285,50.107758],[19.955122,50.107752]]]}},{"type":"Feature","id":"w1277788157","properties":{"type":"residential","address":"Witkowicka 36D","residential":true,"residents_est":5,"h3_10":"8a1e2e6a6b37fff","h3_11":"8b1e2e6a6b34fff"},"geometry":{"type":"Polygon","coordinates":[[[19.955115,50.107823],[19.955122,50.107752],[19.955285,50.107758],[19.95528,50.107804],[19.955269,50.107803],[19.955266,50.107829],[19.955115,50.107823]]]}},{"type":"Feature","id":"w1277788158","properties":{"type":"residential","address":"Witkowicka 36G","residential":true,"residents_est":5,"h3_10":"8a1e2e6a6b37fff","h3_11":"8b1e2e6a6b34fff"},"geometry":{"type":"Polygon","coordinates":[[[19.955427,50.107758],[19.955434,50.107685],[19.955586,50.107691],[19.955583,50.107717],[19.955595,50.107718],[19.95559,50.107764],[19.955427,50.107758]]]}},{"type":"Feature","id":"w1277788159","properties":{"type":"residential","address":"Witkowicka 36F","residential":true,"residents_est":5,"h3_10":"8a1e2e6a6b37fff","h3_11":"8b1e2e6a6b34fff"},"geometry":{"type":"Polygon","coordinates":[[[19.955421,50.107829],[19.955427,50.107758],[19.95559,50.107764],[19.955586,50.10781],[19.955574,50.107809],[19.955572,50.107835],[19.955421,50.107829]]]}},{"type":"Feature","id":"w1277788160","properties":{"type":"residential","address":"Witkowicka 36J","residential":true,"residents_est":5,"h3_10":"8a1e2e6a6b37fff","h3_11":"8b1e2e6a6b34fff"},"geometry":{"type":"Polygon","coordinates":[[[19.955731,50.10777],[19.955738,50.107698],[19.95589,50.107704],[19.955887,50.10773],[19.955899,50.10773],[19.955894,50.107777],[19.955731,50.10777]]]}},{"type":"Feature","id":"w1277788161","properties":{"type":"residential","address":"Witkowicka 36H","residential":true,"residents_est":5,"h3_10":"8a1e2e6a6b37fff","h3_11":"8b1e2e6a6b34fff"},"geometry":{"type":"Polygon","coordinates":[[[19.955725,50.107842],[19.955731,50.10777],[19.955894,50.107777],[19.95589,50.107822],[19.955878,50.107822],[19.955876,50.107848],[19.955725,50.107842]]]}},{"type":"Feature","id":"w1277788162","properties":{"type":"residential","address":"Witkowicka 36K","residential":true,"residents_est":5,"h3_10":"8a1e2e6a6b37fff","h3_11":"8b1e2e6a6b34fff"},"geometry":{"type":"Polygon","coordinates":[[[19.955521,50.108038],[19.955528,50.107966],[19.955679,50.107972],[19.955677,50.107998],[19.955688,50.107998],[19.955684,50.108045],[19.955521,50.108038]]]}},{"type":"Feature","id":"w1277788165","properties":{"type":"residential","address":"Witkowicka 36M","residential":true,"residents_est":5,"h3_10":"8a1e2e6a6b37fff","h3_11":"8b1e2e6a6b34fff"},"geometry":{"type":"Polygon","coordinates":[[[19.955227,50.108023],[19.955232,50.107977],[19.955243,50.107978],[19.955246,50.107952],[19.955396,50.107958],[19.95539,50.108029],[19.955227,50.108023]]]}},{"type":"Feature","id":"w1277843081","properties":{"type":"residential","residential":true,"residents_est":13,"h3_10":"8a1e2e6a6b2ffff","h3_11":"8b1e2e6a6b29fff"},"geometry":{"type":"Polygon","coordinates":[[[19.959864,50.107901],[19.960086,50.107875],[19.960126,50.108015],[19.959904,50.108041],[19.959864,50.107901]]]}},{"type":"Feature","id":"w1277843087","properties":{"type":"construction","address":"Witkowicka 62AB","residential":false,"residents_est":0,"h3_10":"8a1e2e6a6b77fff","h3_11":"8b1e2e6a6b75fff"},"geometry":{"type":"Polygon","coordinates":[[[19.96099,50.107719],[19.961084,50.107715],[19.961095,50.10784],[19.961001,50.107844],[19.96099,50.107719]]]}},{"type":"Feature","id":"w1277843088","properties":{"type":"construction","address":"Witkowicka 62AA","residential":false,"residents_est":0,"h3_10":"8a1e2e6a6b77fff","h3_11":"8b1e2e6a6b75fff"},"geometry":{"type":"Polygon","coordinates":[[[19.961005,50.107889],[19.9611,50.107885],[19.961111,50.10801],[19.961016,50.108014],[19.961005,50.107889]]]}},{"type":"Feature","id":"w1278319994","properties":{"type":"residential","address":"Górka Narodowa 120L","residential":true,"residents_est":6,"h3_10":"8a1e2e6a6b07fff","h3_11":"8b1e2e6a6b03fff"},"geometry":{"type":"Polygon","coordinates":[[[19.958233,50.106604],[19.958375,50.106587],[19.958401,50.106679],[19.958259,50.106696],[19.958233,50.106604]]]}},{"type":"Feature","id":"w1278319995","properties":{"type":"garage","residential":false,"residents_est":0,"h3_10":"8a1e2e6a6b07fff","h3_11":"8b1e2e6a6b00fff"},"geometry":{"type":"Polygon","coordinates":[[[19.957616,50.106931],[19.957701,50.106923],[19.957717,50.106989],[19.957632,50.106998],[19.957616,50.106931]]]}},{"type":"Feature","id":"w1278319996","properties":{"type":"residential","address":"Górka Narodowa 122B","residential":true,"residents_est":8,"h3_10":"8a1e2e6a6b07fff","h3_11":"8b1e2e6a6b01fff"},"geometry":{"type":"Polygon","coordinates":[[[19.95799,50.107077],[19.958034,50.107072],[19.958026,50.107044],[19.958102,50.107035],[19.958104,50.107042],[19.958152,50.107037],[19.958153,50.107041],[19.958233,50.107031],[19.958254,50.107109],[19.958122,50.107124],[19.958124,50.107132],[19.958009,50.107145],[19.95799,50.107077]]]}},{"type":"Feature","id":"w1278319997","properties":{"type":"residential","address":"Górka Narodowa 122C","residential":true,"residents_est":7,"h3_10":"8a1e2e6a6b07fff","h3_11":"8b1e2e6a6b01fff"},"geometry":{"type":"Polygon","coordinates":[[[19.95843,50.107003],[19.958485,50.106997],[19.958483,50.106989],[19.958559,50.10698],[19.958562,50.10699],[19.958614,50.106984],[19.958637,50.107066],[19.958454,50.107087],[19.95843,50.107003]]]}},{"type":"Feature","id":"w1278319998","properties":{"type":"garage","residential":false,"residents_est":0,"h3_10":"8a1e2e6a6b07fff","h3_11":"8b1e2e6a6b01fff"},"geometry":{"type":"Polygon","coordinates":[[[19.958616,50.106989],[19.958694,50.106981],[19.958713,50.107052],[19.958635,50.107061],[19.958616,50.106989]]]}},{"type":"Feature","id":"w1278319999","properties":{"type":"residential","address":"Górka Narodowa 122D","residential":true,"residents_est":5,"h3_10":"8a1e2e6a6b0ffff","h3_11":"8b1e2e6a6b0cfff"},"geometry":{"type":"Polygon","coordinates":[[[19.958878,50.106952],[19.958959,50.106943],[19.958955,50.106928],[19.959013,50.106923],[19.959039,50.107021],[19.95899,50.107028],[19.958992,50.107035],[19.958903,50.107045],[19.958878,50.106952]]]}},{"type":"Feature","id":"w1278320000","properties":{"type":"residential","address":"Górka Narodowa 122E","residential":true,"residents_est":6,"h3_10":"8a1e2e6a6b0ffff","h3_11":"8b1e2e6a6b0cfff"},"geometry":{"type":"Polygon","coordinates":[[[19.959013,50.106923],[19.959067,50.106917],[19.95907,50.106928],[19.959155,50.106919],[19.95918,50.107014],[19.959087,50.107025],[19.959084,50.107016],[19.959039,50.107021],[19.959013,50.106923]]]}},{"type":"Feature","id":"w1278320001","properties":{"type":"garage","residential":false,"residents_est":0,"h3_10":"8a1e2e6a6b0ffff","h3_11":"8b1e2e6a6b08fff"},"geometry":{"type":"Polygon","coordinates":[[[19.9596,50.106897],[19.959686,50.106887],[19.959702,50.106948],[19.959616,50.106958],[19.9596,50.106897]]]}},{"type":"Feature","id":"w1278320002","properties":{"type":"residential","address":"Górka Narodowa 122H","residential":true,"residents_est":6,"h3_10":"8a1e2e6a6b0ffff","h3_11":"8b1e2e6a6b09fff"},"geometry":{"type":"Polygon","coordinates":[[[19.960007,50.106829],[19.960056,50.106824],[19.960053,50.106812],[19.96014,50.106803],[19.960167,50.106907],[19.960141,50.10691],[19.960144,50.106921],[19.960103,50.106925],[19.960101,50.106916],[19.960031,50.106924],[19.960007,50.106829]]]}},{"type":"Feature","id":"w1278320003","properties":{"type":"residential","address":"Górka Narodowa 120F","residential":true,"residents_est":11,"h3_10":"8a1e2e6a6b0ffff","h3_11":"8b1e2e6a6b0bfff"},"geometry":{"type":"Polygon","coordinates":[[[19.959796,50.106572],[19.959857,50.106565],[19.959851,50.106544],[19.959973,50.10653],[19.960021,50.106701],[19.959838,50.106721],[19.95982,50.106657],[19.959879,50.106651],[19.959867,50.106604],[19.959807,50.106611],[19.959796,50.106572]]]}},{"type":"Feature","id":"w1278320004","properties":{"type":"residential","address":"Górka Narodowa 120C","residential":true,"residents_est":4,"h3_10":"8a1e2e6a6b0ffff","h3_11":"8b1e2e6a6b0efff"},"geometry":{"type":"Polygon","coordinates":[[[19.958802,50.106799],[19.958894,50.106789],[19.958897,50.106797],[19.958942,50.106792],[19.958958,50.106852],[19.958821,50.106867],[19.958802,50.106799]]]}},{"type":"Feature","id":"w1278320005","properties":{"type":"residential","address":"Górka Narodowa 120D","residential":true,"residents_est":4,"h3_10":"8a1e2e6a6b0ffff","h3_11":"8b1e2e6a6b0efff"},"geometry":{"type":"Polygon","coordinates":[[[19.958942,50.106792],[19.958985,50.106787],[19.958982,50.106779],[19.959078,50.106767],[19.959098,50.106836],[19.958958,50.106852],[19.958942,50.106792]]]}},{"type":"Feature","id":"w1278457189","properties":{"type":"residential","address":"Górka Narodowa 126F","residential":true,"residents_est":6,"h3_10":"8a1e2e6a6b77fff","h3_11":"8b1e2e6a6b76fff"},"geometry":{"type":"Polygon","coordinates":[[[19.959839,50.107347],[19.959998,50.10733],[19.96002,50.107418],[19.959861,50.107435],[19.959839,50.107347]]]}},{"type":"Feature","id":"w1278457227","properties":{"type":"construction","address":"Górka Narodowa 85A","residential":false,"residents_est":0,"h3_10":"8a1e2e6a6b37fff","h3_11":"8b1e2e6a6b32fff"},"geometry":{"type":"Polygon","coordinates":[[[19.955776,50.107076],[19.955889,50.106989],[19.955979,50.107038],[19.955865,50.107124],[19.955776,50.107076]]]}},{"type":"Feature","id":"w1278457228","properties":{"type":"construction","address":"Górka Narodowa 85","residential":false,"residents_est":0,"h3_10":"8a1e2e6a6b37fff","h3_11":"8b1e2e6a6b32fff"},"geometry":{"type":"Polygon","coordinates":[[[19.955686,50.107027],[19.955799,50.106941],[19.955889,50.106989],[19.955776,50.107076],[19.955686,50.107027]]]}},{"type":"Feature","id":"w1278457229","properties":{"type":"construction","address":"Górka Narodowa 85B","residential":false,"residents_est":0,"h3_10":"8a1e2e6a6b37fff","h3_11":"8b1e2e6a6b32fff"},"geometry":{"type":"Polygon","coordinates":[[[19.955589,50.107145],[19.955647,50.107079],[19.9558,50.107135],[19.955742,50.1072],[19.955589,50.107145]]]}},{"type":"Feature","id":"w1278457230","properties":{"type":"construction","address":"Górka Narodowa 85C","residential":false,"residents_est":0,"h3_10":"8a1e2e6a6b37fff","h3_11":"8b1e2e6a6b32fff"},"geometry":{"type":"Polygon","coordinates":[[[19.955531,50.10721],[19.955589,50.107145],[19.955742,50.1072],[19.955685,50.107266],[19.955531,50.10721]]]}},{"type":"Feature","id":"w1278484144","properties":{"type":"yes","residential":true,"residents_est":1,"h3_10":"8a1e2e6a6aaffff","h3_11":"8b1e2e6a6aa8fff"},"geometry":{"type":"Polygon","coordinates":[[[19.959015,50.102748],[19.959241,50.102745],[19.959244,50.102797],[19.959017,50.102801],[19.959015,50.102748]]]}},{"type":"Feature","id":"w1278484145","properties":{"type":"carport","residential":false,"residents_est":0,"h3_10":"8a1e2e6a6aaffff","h3_11":"8b1e2e6a6aa8fff"},"geometry":{"type":"Polygon","coordinates":[[[19.959029,50.102673],[19.959106,50.102672],[19.959108,50.102725],[19.959031,50.102726],[19.959029,50.102673]]]}},{"type":"Feature","id":"w1278484146","properties":{"type":"shed","residential":false,"residents_est":0,"h3_10":"8a1e2e6a6aaffff","h3_11":"8b1e2e6a6aa8fff"},"geometry":{"type":"Polygon","coordinates":[[[19.959124,50.1028],[19.959235,50.102798],[19.959237,50.102835],[19.959125,50.102837],[19.959124,50.1028]]]}},{"type":"Feature","id":"w1278484147","properties":{"type":"shed","residential":false,"residents_est":0,"h3_10":"8a1e2e6a6aaffff","h3_11":"8b1e2e6a6aadfff"},"geometry":{"type":"Polygon","coordinates":[[[19.959377,50.103097],[19.959509,50.103095],[19.959511,50.103151],[19.959379,50.103153],[19.959377,50.103097]]]}},{"type":"Feature","id":"w1278484148","properties":{"type":"shed","residential":false,"residents_est":0,"h3_10":"8a1e2e6a6a1ffff","h3_11":"8b1e2e6a6a1afff"},"geometry":{"type":"Polygon","coordinates":[[[19.959686,50.102961],[19.959761,50.102955],[19.959766,50.102983],[19.959691,50.102988],[19.959686,50.102961]]]}},{"type":"Feature","id":"w1278484149","properties":{"type":"shed","residential":false,"residents_est":0,"h3_10":"8a1e2e6a6aaffff","h3_11":"8b1e2e6a6aabfff"},"geometry":{"type":"Polygon","coordinates":[[[19.959581,50.102463],[19.959658,50.102459],[19.959662,50.102489],[19.959585,50.102494],[19.959581,50.102463]]]}},{"type":"Feature","id":"w1278495793","properties":{"type":"carport","residential":false,"residents_est":0,"h3_10":"8a1e2e6a6b2ffff","h3_11":"8b1e2e6a6b2efff"},"geometry":{"type":"Polygon","coordinates":[[[19.958202,50.107999],[19.958296,50.10799],[19.958306,50.108028],[19.95821,50.108037],[19.958202,50.107999]]]}},{"type":"Feature","id":"w1278495794","properties":{"type":"residential","address":"Górka Narodowa 128A","residential":true,"residents_est":9,"h3_10":"8a1e2e6a6b2ffff","h3_11":"8b1e2e6a6b2efff"},"geometry":{"type":"Polygon","coordinates":[[[19.958399,50.107894],[19.958449,50.107889],[19.958431,50.107822],[19.958573,50.107807],[19.958606,50.107933],[19.958414,50.107953],[19.958399,50.107894]]]}},{"type":"Feature","id":"w1278495795","properties":{"type":"carport","residential":false,"residents_est":0,"h3_10":"8a1e2e6a6b2ffff","h3_11":"8b1e2e6a6b2dfff"},"geometry":{"type":"Polygon","coordinates":[[[19.959145,50.10806],[19.959189,50.108052],[19.959222,50.108127],[19.959179,50.108135],[19.959145,50.10806]]]}},{"type":"Feature","id":"w1278495810","properties":{"type":"shed","residential":false,"residents_est":0,"h3_10":"8a1e2e6a6b2ffff","h3_11":"8b1e2e6a6b2efff"},"geometry":{"type":"Polygon","coordinates":[[[19.958378,50.108021],[19.958428,50.108015],[19.958439,50.108054],[19.958389,50.10806],[19.958378,50.108021]]]}},{"type":"Feature","id":"w1295428135","properties":{"type":"residential","address":"Witkowicka 54","residential":true,"residents_est":9,"h3_10":"8a1e2e6a6b2ffff","h3_11":"8b1e2e6a6b29fff"},"geometry":{"type":"Polygon","coordinates":[[[19.959459,50.107944],[19.959613,50.107921],[19.959659,50.108052],[19.959504,50.108075],[19.959459,50.107944]]]}},{"type":"Feature","id":"w1295428136","properties":{"type":"yes","residential":false,"residents_est":0,"h3_10":"8a1e2e6a6b2ffff","h3_11":"8b1e2e6a6b2dfff"},"geometry":{"type":"Polygon","coordinates":[[[19.95941,50.108063],[19.959479,50.108053],[19.959493,50.108095],[19.959425,50.108104],[19.95941,50.108063]]]}},{"type":"Feature","id":"w1297654128","properties":{"type":"shed","residential":false,"residents_est":0,"h3_10":"8a1e2e6a6b67fff","h3_11":"8b1e2e6a6b66fff"},"geometry":{"type":"Polygon","coordinates":[[[19.961537,50.108354],[19.961607,50.108351],[19.961621,50.108479],[19.96155,50.108482],[19.961537,50.108354]]]}},{"type":"Feature","id":"w1297654145","properties":{"type":"greenhouse","residential":false,"residents_est":0,"h3_10":"8a1e2e6a6b77fff","h3_11":"8b1e2e6a6b70fff"},"geometry":{"type":"Polygon","coordinates":[[[19.960971,50.107585],[19.961015,50.107584],[19.961018,50.107627],[19.960973,50.107628],[19.960971,50.107585]]]}},{"type":"Feature","id":"w1297654159","properties":{"type":"carport","residential":false,"residents_est":0,"h3_10":"8a1e2e6a6b77fff","h3_11":"8b1e2e6a6b70fff"},"geometry":{"type":"Polygon","coordinates":[[[19.960965,50.107475],[19.961079,50.107472],[19.961081,50.1075],[19.960967,50.107502],[19.960965,50.107475]]]}},{"type":"Feature","id":"w1300583370","properties":{"type":"yes","residential":true,"residents_est":2,"h3_10":"8a1e2e6a6b4ffff","h3_11":"8b1e2e6a6b48fff"},"geometry":{"type":"Polygon","coordinates":[[[19.964126,50.106846],[19.964267,50.10684],[19.964279,50.106952],[19.964137,50.106958],[19.964126,50.106846]]]}},{"type":"Feature","id":"w1300744282","properties":{"type":"residential","address":"Witkowicka 74F","residential":true,"residents_est":4,"h3_10":"8a1e2e6a6b67fff","h3_11":"8b1e2e6a6b61fff"},"geometry":{"type":"Polygon","coordinates":[[[19.96321,50.108075],[19.963321,50.108078],[19.963331,50.108176],[19.96322,50.108174],[19.96321,50.108075]]]}},{"type":"Feature","id":"w1300744283","properties":{"type":"residential","address":"Witkowicka 74H","residential":true,"residents_est":4,"h3_10":"8a1e2e6a6b6ffff","h3_11":"8b1e2e6a6b6cfff"},"geometry":{"type":"Polygon","coordinates":[[[19.963428,50.108074],[19.963473,50.108072],[19.963472,50.108065],[19.963531,50.108063],[19.963541,50.108159],[19.963498,50.108161],[19.963499,50.108169],[19.963438,50.108171],[19.963428,50.108074]]]}},{"type":"Feature","id":"w1300744284","properties":{"type":"residential","address":"Witkowicka 74G","residential":true,"residents_est":4,"h3_10":"8a1e2e6a6b6ffff","h3_11":"8b1e2e6a6b6cfff"},"geometry":{"type":"Polygon","coordinates":[[[19.963321,50.108078],[19.963428,50.108074],[19.963438,50.108171],[19.963331,50.108176],[19.963321,50.108078]]]}},{"type":"Feature","id":"w1300744306","properties":{"type":"residential","address":"Witkowicka 74L","residential":true,"residents_est":4,"h3_10":"8a1e2e6a6b6ffff","h3_11":"8b1e2e6a6b6efff"},"geometry":{"type":"Polygon","coordinates":[[[19.963407,50.107838],[19.96351,50.107827],[19.963518,50.107924],[19.963475,50.107926],[19.963476,50.107934],[19.963415,50.107936],[19.963407,50.107838]]]}},{"type":"Feature","id":"w1300744307","properties":{"type":"residential","address":"Witkowicka 74K","residential":true,"residents_est":4,"h3_10":"8a1e2e6a6b6ffff","h3_11":"8b1e2e6a6b6efff"},"geometry":{"type":"Polygon","coordinates":[[[19.963299,50.107841],[19.963407,50.107838],[19.963415,50.107936],[19.963307,50.107939],[19.963299,50.107841]]]}},{"type":"Feature","id":"w1300744308","properties":{"type":"residential","address":"Witkowicka 74J","residential":true,"residents_est":4,"h3_10":"8a1e2e6a6b6ffff","h3_11":"8b1e2e6a6b6efff"},"geometry":{"type":"Polygon","coordinates":[[[19.963189,50.107838],[19.963299,50.107841],[19.963307,50.107939],[19.963197,50.107937],[19.963189,50.107838]]]}},{"type":"Feature","id":"w1300744334","properties":{"type":"carport","residential":false,"residents_est":0,"h3_10":"8a1e2e6a6b47fff","h3_11":"8b1e2e6a6b41fff"},"geometry":{"type":"Polygon","coordinates":[[[19.963266,50.106878],[19.963359,50.106872],[19.963384,50.107032],[19.963292,50.107038],[19.963266,50.106878]]]}},{"type":"Feature","id":"w1300994757","properties":{"type":"residential","address":"Belwederczyków 6","residential":true,"residents_est":4,"h3_10":"8a1e2e6a6b4ffff","h3_11":"8b1e2e6a6b4cfff"},"geometry":{"type":"Polygon","coordinates":[[[19.963668,50.107168],[19.963765,50.107166],[19.96377,50.107265],[19.963673,50.107267],[19.963668,50.107168]]]}},{"type":"Feature","id":"w1300994758","properties":{"type":"residential","address":"Belwederczyków 6A","residential":true,"residents_est":4,"h3_10":"8a1e2e6a6b4ffff","h3_11":"8b1e2e6a6b4cfff"},"geometry":{"type":"Polygon","coordinates":[[[19.963765,50.107166],[19.963862,50.107164],[19.963867,50.107263],[19.96377,50.107265],[19.963765,50.107166]]]}},{"type":"Feature","id":"w1300994759","properties":{"type":"residential","address":"Belwederczyków 6B","residential":true,"residents_est":4,"h3_10":"8a1e2e6a6b4ffff","h3_11":"8b1e2e6a6b4cfff"},"geometry":{"type":"Polygon","coordinates":[[[19.963862,50.107164],[19.96396,50.107162],[19.963965,50.107261],[19.963867,50.107263],[19.963862,50.107164]]]}},{"type":"Feature","id":"w1300994760","properties":{"type":"residential","address":"Belwederczyków 6C","residential":true,"residents_est":4,"h3_10":"8a1e2e6a6b4ffff","h3_11":"8b1e2e6a6b4cfff"},"geometry":{"type":"Polygon","coordinates":[[[19.96396,50.107162],[19.964058,50.10716],[19.964063,50.107259],[19.963965,50.107261],[19.96396,50.107162]]]}},{"type":"Feature","id":"w1300994769","properties":{"type":"greenhouse","residential":false,"residents_est":0,"h3_10":"8a1e2e6a6b6ffff","h3_11":"8b1e2e6a6b6dfff"},"geometry":{"type":"Polygon","coordinates":[[[19.964237,50.10811],[19.964524,50.108096],[19.964532,50.108161],[19.964245,50.108175],[19.964237,50.10811]]]}},{"type":"Feature","id":"w1300994770","properties":{"type":"greenhouse","residential":false,"residents_est":0,"h3_10":"8a1e2e6a6b6ffff","h3_11":"8b1e2e6a6b6dfff"},"geometry":{"type":"Polygon","coordinates":[[[19.964227,50.108021],[19.964514,50.108007],[19.964522,50.108072],[19.964235,50.108086],[19.964227,50.108021]]]}},{"type":"Feature","id":"w1312396662","properties":{"type":"apartments","address":"Fryderyka Schillinga 10","residential":true,"residents_est":37,"h3_10":"8a1e2e6a6b9ffff","h3_11":"8b1e2e6a6b9cfff"},"geometry":{"type":"Polygon","coordinates":[[[19.954998,50.103833],[19.95533,50.103794],[19.955388,50.104007],[19.955058,50.104044],[19.954998,50.103833]]]}},{"type":"Feature","id":"w1312396663","properties":{"type":"apartments","address":"Fryderyka Schillinga 12","residential":true,"residents_est":37,"h3_10":"8a1e2e6a6b9ffff","h3_11":"8b1e2e6a6b9dfff"},"geometry":{"type":"Polygon","coordinates":[[[19.955672,50.103754],[19.956004,50.103716],[19.956063,50.103928],[19.955731,50.103966],[19.955672,50.103754]]]}},{"type":"Feature","id":"w1431475744","properties":{"type":"construction","address":"Stefana Banacha 12","residential":false,"residents_est":0,"h3_10":"8a1e2e6a6af7fff","h3_11":"8b1e2e6a6af0fff"},"geometry":{"type":"Polygon","coordinates":[[[19.960486,50.102445],[19.960931,50.102429],[19.960943,50.102564],[19.960498,50.10258],[19.960486,50.102445]]]}},{"type":"Feature","id":"w1431475745","properties":{"type":"construction","address":"Stefana Banacha 12","residential":false,"residents_est":0,"h3_10":"8a1e2e6a6af7fff","h3_11":"8b1e2e6a6af0fff"},"geometry":{"type":"Polygon","coordinates":[[[19.960455,50.102094],[19.960666,50.102086],[19.960691,50.102372],[19.960481,50.10238],[19.960455,50.102094]]]}},{"type":"Feature","id":"w1431475746","properties":{"type":"construction","address":"Stefana Banacha 12","residential":false,"residents_est":0,"h3_10":"8a1e2e6a6af7fff","h3_11":"8b1e2e6a6af3fff"},"geometry":{"type":"Polygon","coordinates":[[[19.960922,50.102075],[19.961132,50.102067],[19.961157,50.102353],[19.960947,50.102361],[19.960922,50.102075]]]}},{"type":"Feature","id":"w1431475747","properties":{"type":"construction","address":"Stefana Banacha 8","residential":false,"residents_est":0,"h3_10":"8a1e2e6a6ac7fff","h3_11":"8b1e2e6a6ac4fff"},"geometry":{"type":"Polygon","coordinates":[[[19.961697,50.102414],[19.961722,50.102128],[19.961735,50.102098],[19.961766,50.102073],[19.96181,50.102056],[19.96191,50.102054],[19.961952,50.102066],[19.96198,50.10209],[19.961996,50.102122],[19.962068,50.102396],[19.962066,50.102408],[19.962048,50.102425],[19.96203,50.102429],[19.961745,50.102441],[19.961709,50.102435],[19.961697,50.102414]]]}},{"type":"Feature","id":"w1433528380","properties":{"type":"transportation","levels":2.0,"name":"K1","residential":false,"residents_est":0,"h3_10":"8a1e2e6a6a77fff","h3_11":"8b1e2e6a6a70fff"},"geometry":{"type":"Polygon","coordinates":[[[19.963053,50.105059],[19.96313,50.105057],[19.963134,50.10512],[19.963058,50.105122],[19.963053,50.105059]]]}},{"type":"Feature","id":"w1433528381","properties":{"type":"transportation","levels":2.0,"name":"K3","residential":false,"residents_est":0,"h3_10":"8a1e2e6a6a77fff","h3_11":"8b1e2e6a6a72fff"},"geometry":{"type":"Polygon","coordinates":[[[19.963002,50.104432],[19.963077,50.10443],[19.96308,50.104494],[19.963005,50.104496],[19.963002,50.104432]]]}},{"type":"Feature","id":"w1434396016","properties":{"type":"construction","residential":false,"residents_est":0,"h3_10":"8a1e2e6a6b4ffff","h3_11":"8b1e2e6a6b4efff"},"geometry":{"type":"Polygon","coordinates":[[[19.963667,50.10691],[19.964045,50.106901],[19.96405,50.106986],[19.963672,50.106995],[19.963667,50.10691]]]}},{"type":"Feature","id":"w1434396017","properties":{"type":"construction","residential":false,"residents_est":0,"h3_10":"8a1e2e6a6b6ffff","h3_11":"8b1e2e6a6b6afff"},"geometry":{"type":"Polygon","coordinates":[[[19.963696,50.107417],[19.964074,50.107408],[19.96408,50.1075],[19.963701,50.107509],[19.963696,50.107417]]]}},{"type":"Feature","id":"w1445850549","properties":{"type":"service","residential":false,"residents_est":0,"h3_10":"8a1e2e6a6a97fff","h3_11":"8b1e2e6a6a90fff"},"geometry":{"type":"Polygon","coordinates":[[[19.956174,50.101191],[19.956274,50.101189],[19.956275,50.101216],[19.956175,50.101218],[19.956174,50.101191]]]}},{"type":"Feature","id":"w1446758930","properties":{"type":"construction","address":"Fryderyka Schillinga 2","residential":false,"residents_est":0,"h3_10":"8a1e2e6a6b9ffff","h3_11":"8b1e2e6a6b9efff"},"geometry":{"type":"Polygon","coordinates":[[[19.954806,50.103208],[19.955026,50.103183],[19.955135,50.103593],[19.95492,50.103613],[19.954806,50.103208]]]}},{"type":"Feature","id":"w1446758931","properties":{"type":"construction","address":"Fryderyka Schillinga 4","residential":false,"residents_est":0,"h3_10":"8a1e2e6a6b9ffff","h3_11":"8b1e2e6a6b98fff"},"geometry":{"type":"Polygon","coordinates":[[[19.955268,50.103573],[19.95527,50.103456],[19.955583,50.103459],[19.955565,50.103387],[19.95557,50.103144],[19.955794,50.103144],[19.955787,50.103578],[19.955268,50.103573]]]}},{"type":"Feature","id":"w1465799598","properties":{"type":"construction","address":"Górka Narodowa 57","residential":false,"residents_est":0,"h3_10":"8a1e2e6a6bb7fff","h3_11":"8b1e2e6a6bb4fff"},"geometry":{"type":"Polygon","coordinates":[[[19.95258,50.105273],[19.952702,50.105127],[19.952843,50.105176],[19.952708,50.105336],[19.952633,50.10531],[19.952645,50.105295],[19.95258,50.105273]]]}},{"type":"Feature","id":"w1467381594","properties":{"type":"construction","residential":false,"residents_est":0,"h3_10":"8a1e2e6a6b0ffff","h3_11":"8b1e2e6a6b0cfff"},"geometry":{"type":"Polygon","coordinates":[[[19.959269,50.107147],[19.959404,50.107133],[19.959438,50.107269],[19.959303,50.107283],[19.959269,50.107147]]]}},{"type":"Feature","id":"w1467381595","properties":{"type":"construction","residential":false,"residents_est":0,"h3_10":"8a1e2e6a6b0ffff","h3_11":"8b1e2e6a6b0cfff"},"geometry":{"type":"Polygon","coordinates":[[[19.959055,50.107169],[19.95919,50.107155],[19.959225,50.107292],[19.95909,50.107306],[19.959055,50.107169]]]}},{"type":"Feature","id":"w1467381596","properties":{"type":"construction","residential":false,"residents_est":0,"h3_10":"8a1e2e6a6b0ffff","h3_11":"8b1e2e6a6b0cfff"},"geometry":{"type":"Polygon","coordinates":[[[19.958816,50.107193],[19.958951,50.107179],[19.958986,50.107316],[19.958851,50.10733],[19.958816,50.107193]]]}},{"type":"Feature","id":"w1467381597","properties":{"type":"construction","residential":false,"residents_est":0,"h3_10":"8a1e2e6a6b2ffff","h3_11":"8b1e2e6a6b2afff"},"geometry":{"type":"Polygon","coordinates":[[[19.958601,50.107217],[19.958737,50.107203],[19.958771,50.10734],[19.958636,50.107354],[19.958601,50.107217]]]}},{"type":"Feature","id":"w1467381598","properties":{"type":"construction","residential":false,"residents_est":0,"h3_10":"8a1e2e6a6b77fff","h3_11":"8b1e2e6a6b76fff"},"geometry":{"type":"Polygon","coordinates":[[[19.960146,50.10731],[19.960269,50.107298],[19.9603,50.10743],[19.960178,50.107442],[19.960146,50.10731]]]}},{"type":"Feature","id":"w1467381599","properties":{"type":"carport","residential":false,"residents_est":0,"h3_10":"8a1e2e6a6b2ffff","h3_11":"8b1e2e6a6b2efff"},"geometry":{"type":"Polygon","coordinates":[[[19.958414,50.107953],[19.958517,50.107942],[19.958531,50.107994],[19.958427,50.108005],[19.958414,50.107953]]]}}]}