{"type":"FeatureCollection","features":[{"type":"Feature","id":"w337429050","properties":{"type":"detached","levels":1.0,"address":"Modrzewiowa 30c","residential":true,"residents_est":1,"h3_10":"8a1e2e698d6ffff","h3_11":"8b1e2e698d6efff"},"geometry":{"type":"Polygon","coordinates":[[[20.008435,49.997694],[20.008488,49.997681],[20.008481,49.997669],[20.008524,49.997658],[20.008532,49.997671],[20.008565,49.997663],[20.008604,49.997728],[20.008583,49.997733],[20.008598,49.997758],[20.008526,49.997776],[20.008509,49.997748],[20.008473,49.997757],[20.008435,49.997694]]]}},{"type":"Feature","id":"w337429064","properties":{"type":"house","levels":1.0,"address":"Modrzewiowa 59a","residential":true,"residents_est":2,"h3_10":"8a1e2e698d6ffff","h3_11":"8b1e2e698d6bfff"},"geometry":{"type":"Polygon","coordinates":[[[20.008921,49.997132],[20.009074,49.99709],[20.009138,49.997187],[20.009087,49.997202],[20.009105,49.99723],[20.009057,49.997243],[20.009038,49.997214],[20.008984,49.997229],[20.008921,49.997132]]]}},{"type":"Feature","id":"w337429126","properties":{"type":"detached","levels":1.0,"address":"Modrzewiowa 34","residential":true,"residents_est":2,"h3_10":"8a1e2e698d67fff","h3_11":"8b1e2e698d60fff"},"geometry":{"type":"Polygon","coordinates":[[[20.007254,49.998022],[20.007297,49.99801],[20.0073,49.998015],[20.00732,49.998009],[20.007316,49.998004],[20.007397,49.997981],[20.007411,49.998002],[20.00743,49.997997],[20.007425,49.997991],[20.007498,49.997971],[20.007546,49.998041],[20.007355,49.998095],[20.007348,49.998084],[20.007305,49.998097],[20.007254,49.998022]]]}},{"type":"Feature","id":"w337429395","properties":{"type":"yes","residential":true,"residents_est":2,"h3_10":"8a1e2e698d4ffff","h3_11":"8b1e2e698d4dfff"},"geometry":{"type":"Polygon","coordinates":[[[20.009928,49.996783],[20.010044,49.996757],[20.010116,49.996889],[20.01,49.996915],[20.009928,49.996783]]]}},{"type":"Feature","id":"w337429488","properties":{"type":"yes","address":"Modrzewiowa 30b","residential":true,"residents_est":1,"h3_10":"8a1e2e698d67fff","h3_11":"8b1e2e698d61fff"},"geometry":{"type":"Polygon","coordinates":[[[20.008054,49.99784],[20.008174,49.997808],[20.008202,49.997851],[20.008081,49.997883],[20.008054,49.99784]]]}},{"type":"Feature","id":"w337429579","properties":{"type":"yes","address":"Antoniego Hoborskiego 20","residential":true,"residents_est":1,"h3_10":"8a1e2e698d27fff","h3_11":"8b1e2e698d26fff"},"geometry":{"type":"Polygon","coordinates":[[[20.001699,49.997991],[20.001721,49.997963],[20.001742,49.997968],[20.001786,49.997911],[20.00191,49.997952],[20.001855,49.998024],[20.00177,49.997998],[20.001759,49.99801],[20.001699,49.997991]]]}},{"type":"Feature","id":"w337429664","properties":{"type":"yes","residential":true,"residents_est":1,"h3_10":"8a1e2e698d27fff","h3_11":"8b1e2e698d20fff"},"geometry":{"type":"Polygon","coordinates":[[[20.002154,49.9979],[20.002201,49.997844],[20.002282,49.997872],[20.002234,49.997928],[20.002154,49.9979]]]}},{"type":"Feature","id":"w337429709","properties":{"type":"yes","residential":true,"residents_est":2,"h3_10":"8a1e2e698d27fff","h3_11":"8b1e2e698d20fff"},"geometry":{"type":"Polygon","coordinates":[[[20.001981,49.998064],[20.002011,49.998025],[20.002036,49.998033],[20.002104,49.997944],[20.002208,49.997976],[20.00211,49.998105],[20.001981,49.998064]]]}},{"type":"Feature","id":"w337429810","properties":{"type":"detached","levels":2.0,"address":"Modrzewiowa 34a","residential":true,"residents_est":3,"h3_10":"8a1e2e698d67fff","h3_11":"8b1e2e698d61fff"},"geometry":{"type":"Polygon","coordinates":[[[20.007611,49.997948],[20.007714,49.99792],[20.007729,49.997941],[20.007828,49.997915],[20.007866,49.997977],[20.007664,49.998032],[20.007611,49.997948]]]}},{"type":"Feature","id":"w337472286","properties":{"type":"yes","address":"Koszutki 21a","residential":true,"residents_est":2,"h3_10":"8a1e2e698ca7fff","h3_11":"8b1e2e698ca1fff"},"geometry":{"type":"Polygon","coordinates":[[[20.002699,49.993005],[20.002717,49.992963],[20.002725,49.992964],[20.002738,49.992935],[20.00273,49.992933],[20.002747,49.992893],[20.002862,49.992913],[20.002847,49.992949],[20.002867,49.992953],[20.002835,49.993029],[20.002699,49.993005]]]}},{"type":"Feature","id":"w337472300","properties":{"type":"yes","address":"Romana Żelazowskiego 35e","residential":true,"residents_est":1,"h3_10":"8a1e2e698c97fff","h3_11":"8b1e2e698c92fff"},"geometry":{"type":"Polygon","coordinates":[[[20.000748,49.99047],[20.000754,49.990447],[20.000766,49.990448],[20.000774,49.990414],[20.000831,49.99042],[20.000835,49.990407],[20.000882,49.990412],[20.000858,49.990515],[20.000752,49.990505],[20.00076,49.990471],[20.000748,49.99047]]]}},{"type":"Feature","id":"w337472341","properties":{"type":"yes","address":"Koszutki 12a","residential":true,"residents_est":2,"h3_10":"8a1e2e698c87fff","h3_11":"8b1e2e698c85fff"},"geometry":{"type":"Polygon","coordinates":[[[20.002574,49.992064],[20.00258,49.992034],[20.002596,49.992035],[20.002603,49.992001],[20.002755,49.992013],[20.00274,49.992087],[20.002696,49.992083],[20.002691,49.992098],[20.002586,49.99209],[20.002591,49.992066],[20.002574,49.992064]]]}},{"type":"Feature","id":"w337472423","properties":{"type":"yes","address":"Koszutki 21","residential":true,"residents_est":2,"h3_10":"8a1e2e698ca7fff","h3_11":"8b1e2e698ca1fff"},"geometry":{"type":"Polygon","coordinates":[[[20.00288,49.992721],[20.002905,49.992663],[20.002886,49.99266],[20.00291,49.992609],[20.002961,49.992619],[20.002992,49.992607],[20.003007,49.992627],[20.00306,49.992636],[20.003027,49.992714],[20.00301,49.992711],[20.002997,49.992742],[20.00288,49.992721]]]}},{"type":"Feature","id":"w337472460","properties":{"type":"yes","address":"Romana Żelazowskiego 35b","residential":true,"residents_est":2,"h3_10":"8a1e2e698c97fff","h3_11":"8b1e2e698c92fff"},"geometry":{"type":"Polygon","coordinates":[[[20.000545,49.990705],[20.000558,49.990675],[20.000549,49.990665],[20.000555,49.99065],[20.00057,49.990645],[20.000582,49.990617],[20.000701,49.990638],[20.000696,49.99065],[20.000781,49.990664],[20.000754,49.99073],[20.000669,49.990716],[20.000665,49.990726],[20.000545,49.990705]]]}},{"type":"Feature","id":"w337472462","properties":{"type":"yes","residential":true,"residents_est":2,"h3_10":"8a1e2e698cd7fff","h3_11":"8b1e2e698cd0fff"},"geometry":{"type":"Polygon","coordinates":[[[20.00594,49.990872],[20.006008,49.990742],[20.006139,49.990771],[20.006071,49.9909],[20.00594,49.990872]]]}},{"type":"Feature","id":"w337472476","properties":{"type":"yes","address":"Barycka 5a","residential":true,"residents_est":2,"h3_10":"8a1e2e698c9ffff","h3_11":"8b1e2e698c9afff"},"geometry":{"type":"Polygon","coordinates":[[[20.002157,49.990282],[20.002162,49.990268],[20.002174,49.99026],[20.002189,49.990263],[20.002195,49.990246],[20.002179,49.990243],[20.002194,49.990208],[20.00228,49.990221],[20.002278,49.990229],[20.002335,49.99024],[20.002294,49.990338],[20.002169,49.990318],[20.002181,49.990286],[20.002157,49.990282]]]}},{"type":"Feature","id":"w337472478","properties":{"type":"yes","address":"Romana Żelazowskiego 35","residential":true,"residents_est":2,"h3_10":"8a1e2e698c97fff","h3_11":"8b1e2e698c96fff"},"geometry":{"type":"Polygon","coordinates":[[[20.000204,49.990908],[20.000215,49.99088],[20.000206,49.990869],[20.00021,49.990858],[20.000227,49.990851],[20.000238,49.990825],[20.000342,49.990843],[20.000346,49.990834],[20.000395,49.990844],[20.000364,49.990923],[20.000363,49.990916],[20.000319,49.990908],[20.000312,49.990926],[20.000204,49.990908]]]}},{"type":"Feature","id":"w337472491","properties":{"type":"yes","address":"Romana Żelazowskiego 35a","residential":true,"residents_est":2,"h3_10":"8a1e2e698c97fff","h3_11":"8b1e2e698c96fff"},"geometry":{"type":"Polygon","coordinates":[[[20.000484,49.990918],[20.000517,49.99084],[20.000611,49.990857],[20.000608,49.990864],[20.000713,49.990882],[20.000702,49.990907],[20.000714,49.990917],[20.000706,49.99093],[20.000688,49.990936],[20.000675,49.990963],[20.000568,49.990944],[20.000575,49.990927],[20.00049,49.990912],[20.000484,49.990918]]]}},{"type":"Feature","id":"w337472545","properties":{"type":"yes","address":"Koszutki 12","residential":true,"residents_est":2,"h3_10":"8a1e2e698c87fff","h3_11":"8b1e2e698c84fff"},"geometry":{"type":"Polygon","coordinates":[[[20.002171,49.992052],[20.002174,49.992037],[20.002189,49.99203],[20.002194,49.992009],[20.002181,49.991999],[20.002187,49.991973],[20.002334,49.991985],[20.002332,49.991994],[20.002382,49.991998],[20.00237,49.992064],[20.00232,49.99206],[20.002318,49.992069],[20.002222,49.992058],[20.002207,49.992065],[20.002185,49.992063],[20.002171,49.992052]]]}},{"type":"Feature","id":"w337472555","properties":{"type":"yes","address":"Koszutki 19E","residential":true,"residents_est":1,"h3_10":"8a1e2e698ca7fff","h3_11":"8b1e2e698ca0fff"},"geometry":{"type":"Polygon","coordinates":[[[20.002181,49.992876],[20.002193,49.99284],[20.002183,49.992839],[20.00219,49.992818],[20.002328,49.992837],[20.002326,49.992845],[20.002332,49.992846],[20.002322,49.992877],[20.002314,49.992876],[20.002308,49.992894],[20.002261,49.992888],[20.00226,49.992892],[20.002181,49.992876]]]}},{"type":"Feature","id":"w337472559","properties":{"type":"yes","address":"Koszutki 19K","residential":true,"residents_est":1,"h3_10":"8a1e2e698d8ffff","h3_11":"8b1e2e698d8bfff"},"geometry":{"type":"Polygon","coordinates":[[[20.001986,49.993502],[20.001999,49.993466],[20.001989,49.993465],[20.001996,49.993444],[20.002132,49.993463],[20.002129,49.99347],[20.002136,49.993471],[20.002113,49.99352],[20.001986,49.993502]]]}},{"type":"Feature","id":"w337472560","properties":{"type":"yes","address":"Koszutki 19G","residential":true,"residents_est":1,"h3_10":"8a1e2e698ca7fff","h3_11":"8b1e2e698ca0fff"},"geometry":{"type":"Polygon","coordinates":[[[20.002118,49.993079],[20.00213,49.993043],[20.00212,49.993042],[20.002127,49.993021],[20.002264,49.993041],[20.002262,49.993048],[20.002269,49.993049],[20.002258,49.99308],[20.002251,49.993079],[20.002245,49.993097],[20.002157,49.993089],[20.002158,49.993085],[20.002118,49.993079]]]}},{"type":"Feature","id":"w337472561","properties":{"type":"yes","address":"Koszutki 19A","residential":true,"residents_est":1,"h3_10":"8a1e2e698ca7fff","h3_11":"8b1e2e698ca3fff"},"geometry":{"type":"Polygon","coordinates":[[[20.002317,49.992474],[20.002329,49.992438],[20.002319,49.992437],[20.002326,49.992416],[20.002463,49.992436],[20.00246,49.992443],[20.002468,49.992444],[20.002443,49.992492],[20.002396,49.992486],[20.002395,49.99249],[20.002317,49.992474]]]}},{"type":"Feature","id":"w337472562","properties":{"type":"yes","address":"Koszutki 19I","residential":true,"residents_est":1,"h3_10":"8a1e2e698ca7fff","h3_11":"8b1e2e698ca4fff"},"geometry":{"type":"Polygon","coordinates":[[[20.002056,49.993294],[20.002069,49.993257],[20.002059,49.993256],[20.002066,49.993236],[20.002202,49.993255],[20.002199,49.993262],[20.002206,49.993263],[20.002196,49.993294],[20.002189,49.993293],[20.002183,49.993311],[20.002056,49.993294]]]}},{"type":"Feature","id":"w337472581","properties":{"type":"yes","residential":false,"residents_est":0,"h3_10":"8a1e2e698cd7fff","h3_11":"8b1e2e698cd3fff"},"geometry":{"type":"Polygon","coordinates":[[[20.006132,49.990648],[20.006145,49.99061],[20.006234,49.990623],[20.006219,49.99066],[20.006132,49.990648]]]}},{"type":"Feature","id":"w337472705","properties":{"type":"yes","address":"Antoniego Hoborskiego 13","residential":true,"residents_est":1,"h3_10":"8a1e2e698daffff","h3_11":"8b1e2e698dacfff"},"geometry":{"type":"Polygon","coordinates":[[[20.001388,49.995415],[20.001433,49.995334],[20.001578,49.995367],[20.001533,49.995449],[20.001388,49.995415]]]}},{"type":"Feature","id":"w337472774","properties":{"type":"yes","residential":true,"residents_est":2,"h3_10":"8a1e2e698c9ffff","h3_11":"8b1e2e698c9bfff"},"geometry":{"type":"Polygon","coordinates":[[[20.003084,49.990236],[20.003142,49.990077],[20.003253,49.990096],[20.003195,49.990253],[20.003084,49.990236]]]}},{"type":"Feature","id":"w337472785","properties":{"type":"yes","residential":true,"residents_est":1,"h3_10":"8a1e2e698c8ffff","h3_11":"8b1e2e698c8bfff"},"geometry":{"type":"Polygon","coordinates":[[[20.004817,49.990975],[20.004868,49.990864],[20.004961,49.990882],[20.00491,49.990993],[20.004817,49.990975]]]}},{"type":"Feature","id":"w337472855","properties":{"type":"yes","residential":true,"residents_est":1,"h3_10":"8a1e2e698cd7fff","h3_11":"8b1e2e698cd1fff"},"geometry":{"type":"Polygon","coordinates":[[[20.006887,49.991131],[20.006946,49.99102],[20.007054,49.991043],[20.006996,49.991154],[20.006887,49.991131]]]}},{"type":"Feature","id":"w337472919","properties":{"type":"yes","residential":true,"residents_est":1,"h3_10":"8a1e2e698cdffff","h3_11":"8b1e2e698cdcfff"},"geometry":{"type":"Polygon","coordinates":[[[20.007684,49.991058],[20.007753,49.990937],[20.007854,49.990961],[20.007785,49.991082],[20.007684,49.991058]]]}},{"type":"Feature","id":"w337472924","properties":{"type":"yes","address":"Barycka 21","residential":true,"residents_est":1,"h3_10":"8a1e2e698cdffff","h3_11":"8b1e2e698cddfff"},"geometry":{"type":"Polygon","coordinates":[[[20.007937,49.991118],[20.007978,49.991045],[20.008108,49.991076],[20.008066,49.991149],[20.007937,49.991118]]]}},{"type":"Feature","id":"w337472930","properties":{"type":"outbuilding","levels":1.0,"residential":false,"residents_est":0,"h3_10":"8a1e2e698daffff","h3_11":"8b1e2e698dacfff"},"geometry":{"type":"Polygon","coordinates":[[[20.001088,49.995397],[20.001187,49.995261],[20.001277,49.995288],[20.001178,49.995424],[20.001088,49.995397]]]}},{"type":"Feature","id":"w337473019","properties":{"type":"yes","residential":true,"residents_est":1,"h3_10":"8a1e2e698c9ffff","h3_11":"8b1e2e698c9bfff"},"geometry":{"type":"Polygon","coordinates":[[[20.003402,49.990184],[20.003433,49.990088],[20.003523,49.990101],[20.003493,49.990196],[20.003402,49.990184]]]}},{"type":"Feature","id":"w337473057","properties":{"type":"yes","residential":true,"residents_est":1,"h3_10":"8a1e2e698c87fff","h3_11":"8b1e2e698c85fff"},"geometry":{"type":"Polygon","coordinates":[[[20.003123,49.992082],[20.003133,49.992029],[20.003231,49.992037],[20.00322,49.99209],[20.003123,49.992082]]]}},{"type":"Feature","id":"w337473145","properties":{"type":"yes","address":"Barycka 15","residential":true,"residents_est":2,"h3_10":"8a1e2e698cd7fff","h3_11":"8b1e2e698cd2fff"},"geometry":{"type":"Polygon","coordinates":[[[20.005715,49.990688],[20.005755,49.990609],[20.005809,49.99062],[20.005816,49.990602],[20.00586,49.990611],[20.005851,49.990628],[20.005902,49.990639],[20.005851,49.99074],[20.005808,49.990731],[20.005819,49.99071],[20.005715,49.990688]]]}},{"type":"Feature","id":"w337473168","properties":{"type":"yes","address":"Antoniego Hoborskiego 15","residential":true,"residents_est":1,"h3_10":"8a1e2e698d1ffff","h3_11":"8b1e2e698d1efff"},"geometry":{"type":"Polygon","coordinates":[[[20.0021,49.995587],[20.00215,49.995521],[20.002246,49.995552],[20.002196,49.995617],[20.0021,49.995587]]]}},{"type":"Feature","id":"w337473337","properties":{"type":"yes","address":"Barycka 17","residential":true,"residents_est":2,"h3_10":"8a1e2e698cd7fff","h3_11":"8b1e2e698cd1fff"},"geometry":{"type":"Polygon","coordinates":[[[20.006649,49.990985],[20.006685,49.990918],[20.006716,49.990925],[20.00673,49.990899],[20.006875,49.990932],[20.006828,49.991025],[20.006649,49.990985]]]}},{"type":"Feature","id":"w337473624","properties":{"type":"yes","residential":true,"residents_est":1,"h3_10":"8a1e2e698c97fff","h3_11":"8b1e2e698c90fff"},"geometry":{"type":"Polygon","coordinates":[[[20.000864,49.991185],[20.000906,49.99107],[20.000974,49.991081],[20.000969,49.991094],[20.001032,49.991104],[20.001007,49.991169],[20.000945,49.991159],[20.000931,49.991197],[20.000864,49.991185]]]}},{"type":"Feature","id":"w337473756","properties":{"type":"yes","address":"Romana Żelazowskiego 31","residential":true,"residents_est":1,"h3_10":"8a1e2e698c97fff","h3_11":"8b1e2e698c96fff"},"geometry":{"type":"Polygon","coordinates":[[[20.000629,49.991118],[20.000648,49.991036],[20.000789,49.99105],[20.00077,49.991132],[20.000629,49.991118]]]}},{"type":"Feature","id":"w337473762","properties":{"type":"yes","address":"Koszutki 14","residential":true,"residents_est":2,"h3_10":"8a1e2e698c87fff","h3_11":"8b1e2e698c85fff"},"geometry":{"type":"Polygon","coordinates":[[[20.002893,49.992196],[20.0029,49.992086],[20.003029,49.992089],[20.003022,49.992199],[20.002893,49.992196]]]}},{"type":"Feature","id":"w338126733","properties":{"type":"yes","address":"Szczegów 23","residential":true,"residents_est":1,"h3_10":"8a1e2e698d9ffff","h3_11":"8b1e2e698d9dfff"},"geometry":{"type":"Polygon","coordinates":[[[20.000735,49.993417],[20.000741,49.993416],[20.000735,49.993398],[20.000783,49.993391],[20.000781,49.993387],[20.000864,49.993381],[20.000875,49.993417],[20.000885,49.993416],[20.000893,49.993436],[20.000754,49.993454],[20.000752,49.993448],[20.000745,49.993449],[20.000735,49.993417]]]}},{"type":"Feature","id":"w338126736","properties":{"type":"yes","address":"Szczegów 25a","residential":true,"residents_est":1,"h3_10":"8a1e2e698d9ffff","h3_11":"8b1e2e698d9dfff"},"geometry":{"type":"Polygon","coordinates":[[[20.000851,49.993647],[20.000858,49.993646],[20.000856,49.993639],[20.000994,49.99362],[20.001001,49.99364],[20.000991,49.993642],[20.001002,49.993677],[20.000962,49.993683],[20.000963,49.993687],[20.000874,49.993695],[20.000851,49.993647]]]}},{"type":"Feature","id":"w338126739","properties":{"type":"yes","address":"Koszutki 19J","residential":true,"residents_est":1,"h3_10":"8a1e2e698d8ffff","h3_11":"8b1e2e698d8bfff"},"geometry":{"type":"Polygon","coordinates":[[[20.001996,49.993444],[20.002002,49.993424],[20.002012,49.993426],[20.002024,49.993389],[20.002105,49.993396],[20.002103,49.9934],[20.002151,49.993407],[20.002141,49.993457],[20.002134,49.993456],[20.002132,49.993463],[20.001996,49.993444]]]}},{"type":"Feature","id":"w338126740","properties":{"type":"yes","address":"Koszutki 19","residential":true,"residents_est":1,"h3_10":"8a1e2e698ca7fff","h3_11":"8b1e2e698ca3fff"},"geometry":{"type":"Polygon","coordinates":[[[20.002326,49.992416],[20.002333,49.992396],[20.002344,49.992397],[20.002356,49.992361],[20.002437,49.992369],[20.002435,49.992373],[20.002482,49.99238],[20.002472,49.99243],[20.002465,49.992429],[20.002463,49.992436],[20.002326,49.992416]]]}},{"type":"Feature","id":"w338126741","properties":{"type":"yes","address":"Koszutki 19F","residential":true,"residents_est":1,"h3_10":"8a1e2e698ca7fff","h3_11":"8b1e2e698ca0fff"},"geometry":{"type":"Polygon","coordinates":[[[20.002127,49.993021],[20.002134,49.993001],[20.002144,49.993003],[20.002156,49.992966],[20.002284,49.992984],[20.002277,49.993003],[20.002284,49.993004],[20.002273,49.993035],[20.002267,49.993034],[20.002264,49.993041],[20.002127,49.993021]]]}},{"type":"Feature","id":"w338126742","properties":{"type":"yes","address":"Koszutki 19H","residential":true,"residents_est":1,"h3_10":"8a1e2e698ca7fff","h3_11":"8b1e2e698ca4fff"},"geometry":{"type":"Polygon","coordinates":[[[20.002066,49.993236],[20.002073,49.993216],[20.002082,49.993217],[20.002094,49.993181],[20.002135,49.993186],[20.002136,49.993182],[20.002221,49.993198],[20.002215,49.993216],[20.002222,49.993218],[20.002211,49.993249],[20.002204,49.993248],[20.002202,49.993255],[20.002066,49.993236]]]}},{"type":"Feature","id":"w338126743","properties":{"type":"yes","address":"Koszutki 19D","residential":true,"residents_est":1,"h3_10":"8a1e2e698ca7fff","h3_11":"8b1e2e698ca0fff"},"geometry":{"type":"Polygon","coordinates":[[[20.00219,49.992818],[20.002197,49.992798],[20.002207,49.992799],[20.002219,49.992763],[20.002301,49.99277],[20.002299,49.992775],[20.002347,49.992781],[20.002337,49.992832],[20.00233,49.992831],[20.002328,49.992837],[20.00219,49.992818]]]}},{"type":"Feature","id":"w338126745","properties":{"type":"yes","address":"Szczegów 23a","residential":true,"residents_est":1,"h3_10":"8a1e2e698d9ffff","h3_11":"8b1e2e698d9dfff"},"geometry":{"type":"Polygon","coordinates":[[[20.000749,49.993462],[20.000756,49.993461],[20.000754,49.993454],[20.000893,49.993436],[20.000899,49.993456],[20.000889,49.993457],[20.000901,49.993494],[20.000773,49.993511],[20.000767,49.993493],[20.00076,49.993494],[20.000749,49.993462]]]}},{"type":"Feature","id":"w338126746","properties":{"type":"yes","address":"Szczegów 25","residential":true,"residents_est":1,"h3_10":"8a1e2e698d9ffff","h3_11":"8b1e2e698d9dfff"},"geometry":{"type":"Polygon","coordinates":[[[20.000836,49.993601],[20.000843,49.993601],[20.000837,49.993582],[20.000922,49.993566],[20.000924,49.99357],[20.000965,49.993564],[20.000977,49.993601],[20.000987,49.9936],[20.000994,49.99362],[20.000856,49.993639],[20.000854,49.993633],[20.000847,49.993634],[20.000836,49.993601]]]}},{"type":"Feature","id":"w338127005","properties":{"type":"yes","residential":false,"residents_est":0,"h3_10":"8a1e2e698d9ffff","h3_11":"8b1e2e698d9dfff"},"geometry":{"type":"Polygon","coordinates":[[[20.000429,49.99363],[20.000502,49.993619],[20.000513,49.993649],[20.000439,49.99366],[20.000429,49.99363]]]}},{"type":"Feature","id":"w338127076","properties":{"type":"yes","residential":true,"residents_est":1,"h3_10":"8a1e2e698c87fff","h3_11":"8b1e2e698c85fff"},"geometry":{"type":"Polygon","coordinates":[[[20.0029,49.992086],[20.002907,49.992009],[20.003033,49.992014],[20.003029,49.992089],[20.0029,49.992086]]]}},{"type":"Feature","id":"w338127094","properties":{"type":"yes","residential":false,"residents_est":0,"h3_10":"8a1e2e698d1ffff","h3_11":"8b1e2e698d1afff"},"geometry":{"type":"Polygon","coordinates":[[[20.002351,49.995545],[20.00238,49.995513],[20.002441,49.995536],[20.002412,49.995568],[20.002351,49.995545]]]}},{"type":"Feature","id":"w338127170","properties":{"type":"yes","address":"Antoniego Hoborskiego 7","residential":true,"residents_est":1,"h3_10":"8a1e2e698da7fff","h3_11":"8b1e2e698da3fff"},"geometry":{"type":"Polygon","coordinates":[[[20.000148,49.995194],[20.00018,49.995118],[20.000319,49.995142],[20.000287,49.995218],[20.000148,49.995194]]]}},{"type":"Feature","id":"w338127235","properties":{"type":"yes","residential":false,"residents_est":0,"h3_10":"8a1e2e698d8ffff","h3_11":"8b1e2e698d8bfff"},"geometry":{"type":"Polygon","coordinates":[[[20.002162,49.993782],[20.002179,49.993737],[20.002251,49.993749],[20.002233,49.993795],[20.002162,49.993782]]]}},{"type":"Feature","id":"w338127376","properties":{"type":"yes","residential":true,"residents_est":1,"h3_10":"8a1e2e698da7fff","h3_11":"8b1e2e698da1fff"},"geometry":{"type":"Polygon","coordinates":[[[20.000378,49.99526],[20.000426,49.995158],[20.000534,49.995179],[20.000486,49.995281],[20.000378,49.99526]]]}},{"type":"Feature","id":"w338127597","properties":{"type":"yes","address":"Szczegów 33","residential":true,"residents_est":2,"h3_10":"8a1e2e698d8ffff","h3_11":"8b1e2e698d89fff"},"geometry":{"type":"Polygon","coordinates":[[[20.002426,49.993821],[20.002453,49.993749],[20.002553,49.993765],[20.002571,49.993713],[20.002628,49.993721],[20.002609,49.993774],[20.002624,49.993776],[20.002597,49.993847],[20.002426,49.993821]]]}},{"type":"Feature","id":"w708561687","properties":{"type":"yes","address":"Modrzewiowa 43G","residential":true,"residents_est":2,"h3_10":"8a1e2e698c6ffff","h3_11":"8b1e2e698c6dfff"},"geometry":{"type":"Polygon","coordinates":[[[20.011507,49.995277],[20.011623,49.99524],[20.011631,49.995251],[20.01171,49.995236],[20.011733,49.995289],[20.011668,49.995301],[20.011678,49.995315],[20.011563,49.995351],[20.011507,49.995277]]]}},{"type":"Feature","id":"w708561688","properties":{"type":"yes","residential":false,"residents_est":0,"h3_10":"8a1e2e698c6ffff","h3_11":"8b1e2e698c69fff"},"geometry":{"type":"Polygon","coordinates":[[[20.011988,49.994992],[20.012043,49.994983],[20.01207,49.995054],[20.012015,49.995063],[20.011988,49.994992]]]}},{"type":"Feature","id":"w708561710","properties":{"type":"yes","residential":false,"residents_est":0,"h3_10":"8a1e2e698d27fff","h3_11":"8b1e2e698d20fff"},"geometry":{"type":"Polygon","coordinates":[[[20.002263,49.997943],[20.002299,49.997895],[20.002336,49.997907],[20.002301,49.997955],[20.002263,49.997943]]]}},{"type":"Feature","id":"w708561711","properties":{"type":"yes","address":"Antoniego Hoborskiego 14e","residential":true,"residents_est":1,"h3_10":"8a1e2e698d07fff","h3_11":"8b1e2e698d00fff"},"geometry":{"type":"Polygon","coordinates":[[[20.002513,49.996895],[20.002534,49.996867],[20.002521,49.996863],[20.002562,49.996808],[20.002647,49.996829],[20.002645,49.996834],[20.002691,49.996848],[20.002658,49.996879],[20.002662,49.996886],[20.00265,49.996903],[20.002637,49.996898],[20.002615,49.996927],[20.002513,49.996895]]]}},{"type":"Feature","id":"w708561712","properties":{"type":"yes","address":"Antoniego Hoborskiego 14a","residential":true,"residents_est":1,"h3_10":"8a1e2e698d07fff","h3_11":"8b1e2e698d03fff"},"geometry":{"type":"Polygon","coordinates":[[[20.003149,49.996622],[20.003176,49.996595],[20.003169,49.996592],[20.003237,49.99652],[20.003332,49.996558],[20.003308,49.996583],[20.00332,49.996594],[20.003305,49.99661],[20.003285,49.996614],[20.003272,49.996609],[20.003229,49.996654],[20.003149,49.996622]]]}},{"type":"Feature","id":"w708561713","properties":{"type":"yes","address":"Antoniego Hoborskiego 14c","residential":true,"residents_est":1,"h3_10":"8a1e2e698d07fff","h3_11":"8b1e2e698d01fff"},"geometry":{"type":"Polygon","coordinates":[[[20.003132,49.997077],[20.003153,49.997049],[20.003139,49.997045],[20.003172,49.997013],[20.003168,49.997006],[20.00318,49.996989],[20.003267,49.997011],[20.003265,49.997015],[20.003308,49.997029],[20.003269,49.997084],[20.003254,49.997079],[20.003234,49.997108],[20.003132,49.997077]]]}},{"type":"Feature","id":"w708561714","properties":{"type":"yes","address":"Antoniego Hoborskiego 18","residential":true,"residents_est":1,"h3_10":"8a1e2e698d2ffff","h3_11":"8b1e2e698d2afff"},"geometry":{"type":"Polygon","coordinates":[[[20.003483,49.997186],[20.003504,49.997158],[20.00349,49.997153],[20.003523,49.997123],[20.003518,49.997116],[20.00353,49.997099],[20.003616,49.997121],[20.003614,49.997125],[20.003656,49.997138],[20.003618,49.997191],[20.003604,49.997187],[20.003583,49.997216],[20.003483,49.997186]]]}},{"type":"Feature","id":"w708561715","properties":{"type":"yes","address":"Antoniego Hoborskiego 16a","residential":true,"residents_est":1,"h3_10":"8a1e2e698d0ffff","h3_11":"8b1e2e698d0cfff"},"geometry":{"type":"Polygon","coordinates":[[[20.003727,49.996982],[20.003768,49.996936],[20.003757,49.996932],[20.003753,49.996923],[20.003767,49.996907],[20.003786,49.996906],[20.00381,49.996881],[20.003904,49.996917],[20.00384,49.996987],[20.003832,49.996984],[20.003806,49.997012],[20.003727,49.996982]]]}},{"type":"Feature","id":"w708561716","properties":{"type":"yes","address":"Antoniego Hoborskiego 14b","residential":true,"residents_est":1,"h3_10":"8a1e2e698d0ffff","h3_11":"8b1e2e698d0efff"},"geometry":{"type":"Polygon","coordinates":[[[20.003469,49.996729],[20.003514,49.996684],[20.003504,49.996681],[20.0035,49.99667],[20.003516,49.996654],[20.003535,49.996653],[20.00356,49.996628],[20.003654,49.996668],[20.003584,49.996738],[20.003576,49.996735],[20.003549,49.996761],[20.003469,49.996729]]]}},{"type":"Feature","id":"w708561717","properties":{"type":"yes","address":"Antoniego Hoborskiego 16","residential":true,"residents_est":2,"h3_10":"8a1e2e698d0ffff","h3_11":"8b1e2e698d0cfff"},"geometry":{"type":"Polygon","coordinates":[[[20.003863,49.996748],[20.003893,49.996716],[20.003903,49.996719],[20.003955,49.996662],[20.003987,49.996674],[20.003994,49.996666],[20.004033,49.996681],[20.004026,49.996688],[20.004058,49.996701],[20.003975,49.996791],[20.003863,49.996748]]]}},{"type":"Feature","id":"w708561719","properties":{"type":"yes","residential":true,"residents_est":2,"h3_10":"8a1e2e698d0ffff","h3_11":"8b1e2e698d0bfff"},"geometry":{"type":"Polygon","coordinates":[[[20.004363,49.99623],[20.004409,49.996185],[20.00439,49.996177],[20.004462,49.996106],[20.004499,49.996122],[20.004507,49.996114],[20.004559,49.996136],[20.004551,49.996144],[20.004585,49.996158],[20.004511,49.996223],[20.004517,49.996226],[20.0045,49.996224],[20.004455,49.996269],[20.004363,49.99623]]]}},{"type":"Feature","id":"w708561720","properties":{"type":"yes","address":"Koszutki 53","residential":true,"residents_est":1,"h3_10":"8a1e2e698c0ffff","h3_11":"8b1e2e698c0cfff"},"geometry":{"type":"Polygon","coordinates":[[[20.006357,49.994263],[20.006429,49.994176],[20.006527,49.99421],[20.006455,49.994296],[20.006357,49.994263]]]}},{"type":"Feature","id":"w708561721","properties":{"type":"yes","address":"Koszutki 55","residential":true,"residents_est":1,"h3_10":"8a1e2e698c0ffff","h3_11":"8b1e2e698c0cfff"},"geometry":{"type":"Polygon","coordinates":[[[20.006675,49.994338],[20.006748,49.994253],[20.006843,49.994287],[20.006771,49.994373],[20.006675,49.994338]]]}},{"type":"Feature","id":"w708561722","properties":{"type":"yes","address":"Koszutki 51","residential":true,"residents_est":1,"h3_10":"8a1e2e698c0ffff","h3_11":"8b1e2e698c08fff"},"geometry":{"type":"Polygon","coordinates":[[[20.006532,49.99402],[20.006556,49.993993],[20.006541,49.993987],[20.006612,49.993905],[20.00671,49.99394],[20.006615,49.99405],[20.006532,49.99402]]]}},{"type":"Feature","id":"w708561723","properties":{"type":"yes","address":"Koszutki 49","residential":true,"residents_est":1,"h3_10":"8a1e2e698c0ffff","h3_11":"8b1e2e698c0bfff"},"geometry":{"type":"Polygon","coordinates":[[[20.00676,49.993755],[20.006831,49.993673],[20.006926,49.993708],[20.006901,49.993737],[20.006906,49.993739],[20.006857,49.993789],[20.00676,49.993755]]]}},{"type":"Feature","id":"w708561724","properties":{"type":"yes","address":"Koszutki 57","residential":true,"residents_est":2,"h3_10":"8a1e2e698c0ffff","h3_11":"8b1e2e698c08fff"},"geometry":{"type":"Polygon","coordinates":[[[20.006929,49.994053],[20.007023,49.993944],[20.007122,49.993978],[20.007051,49.994061],[20.007035,49.994056],[20.007011,49.994083],[20.006929,49.994053]]]}},{"type":"Feature","id":"w708561725","properties":{"type":"yes","address":"Koszutki 59","residential":true,"residents_est":1,"h3_10":"8a1e2e698c0ffff","h3_11":"8b1e2e698c0bfff"},"geometry":{"type":"Polygon","coordinates":[[[20.00715,49.993788],[20.007175,49.993757],[20.00717,49.993755],[20.007218,49.993704],[20.007316,49.993738],[20.007248,49.993821],[20.00715,49.993788]]]}},{"type":"Feature","id":"w708561726","properties":{"type":"yes","address":"Koszutki 47","residential":true,"residents_est":1,"h3_10":"8a1e2e698c0ffff","h3_11":"8b1e2e698c0bfff"},"geometry":{"type":"Polygon","coordinates":[[[20.006976,49.993509],[20.007051,49.993428],[20.007146,49.993465],[20.007118,49.993495],[20.007123,49.993497],[20.007071,49.993545],[20.006976,49.993509]]]}},{"type":"Feature","id":"w708561727","properties":{"type":"yes","address":"Koszutki 61","residential":true,"residents_est":1,"h3_10":"8a1e2e698c0ffff","h3_11":"8b1e2e698c0bfff"},"geometry":{"type":"Polygon","coordinates":[[[20.007362,49.993521],[20.00739,49.993492],[20.007385,49.99349],[20.007438,49.993441],[20.007532,49.993479],[20.007456,49.993559],[20.007362,49.993521]]]}},{"type":"Feature","id":"w708561728","properties":{"type":"yes","address":"Koszutki 45","residential":true,"residents_est":1,"h3_10":"8a1e2e698ce7fff","h3_11":"8b1e2e698ce5fff"},"geometry":{"type":"Polygon","coordinates":[[[20.007166,49.99329],[20.007245,49.993205],[20.00734,49.993242],[20.007261,49.993327],[20.007166,49.99329]]]}},{"type":"Feature","id":"w708561729","properties":{"type":"yes","address":"Koszutki 63","residential":true,"residents_est":1,"h3_10":"8a1e2e698ce7fff","h3_11":"8b1e2e698ce5fff"},"geometry":{"type":"Polygon","coordinates":[[[20.007559,49.993322],[20.007633,49.993235],[20.00773,49.99327],[20.007657,49.993356],[20.007559,49.993322]]]}},{"type":"Feature","id":"w708561730","properties":{"type":"yes","address":"Koszutki 79a","residential":true,"residents_est":2,"h3_10":"8a1e2e698c57fff","h3_11":"8b1e2e698c50fff"},"geometry":{"type":"Polygon","coordinates":[[[20.008513,49.993779],[20.008587,49.993624],[20.008689,49.993644],[20.008642,49.993757],[20.008616,49.993752],[20.008622,49.993739],[20.00859,49.993732],[20.008563,49.993788],[20.008513,49.993779]]]}},{"type":"Feature","id":"w708561731","properties":{"type":"yes","address":"Koszutki 79","residential":true,"residents_est":1,"h3_10":"8a1e2e698c57fff","h3_11":"8b1e2e698c50fff"},"geometry":{"type":"Polygon","coordinates":[[[20.008426,49.993714],[20.00846,49.993642],[20.008467,49.993644],[20.008486,49.993604],[20.008587,49.993624],[20.008513,49.993779],[20.008464,49.993769],[20.00849,49.993713],[20.008459,49.993707],[20.008453,49.993719],[20.008426,49.993714]]]}},{"type":"Feature","id":"w708561732","properties":{"type":"detached","residential":true,"residents_est":3,"h3_10":"8a1e2e698c4ffff","h3_11":"8b1e2e698c4dfff"},"geometry":{"type":"Polygon","coordinates":[[[20.012071,49.994385],[20.012089,49.994359],[20.012075,49.994355],[20.012108,49.994314],[20.012101,49.994304],[20.012114,49.994285],[20.012127,49.99428],[20.012162,49.99429],[20.012165,49.994299],[20.012227,49.994318],[20.012233,49.994311],[20.01224,49.994313],[20.012189,49.994387],[20.012175,49.994383],[20.012157,49.994409],[20.012071,49.994385]]]}},{"type":"Feature","id":"w708561734","properties":{"type":"yes","residential":true,"residents_est":1,"h3_10":"8a1e2e698cd7fff","h3_11":"8b1e2e698cd1fff"},"geometry":{"type":"Polygon","coordinates":[[[20.006826,49.991032],[20.006875,49.990932],[20.006932,49.990944],[20.006882,49.991043],[20.006826,49.991032]]]}},{"type":"Feature","id":"w708561735","properties":{"type":"yes","residential":false,"residents_est":0,"h3_10":"8a1e2e698cd7fff","h3_11":"8b1e2e698cd2fff"},"geometry":{"type":"Polygon","coordinates":[[[20.005934,49.990779],[20.005959,49.990732],[20.006008,49.990742],[20.005982,49.990789],[20.005934,49.990779]]]}},{"type":"Feature","id":"w708561736","properties":{"type":"yes","residential":false,"residents_est":0,"h3_10":"8a1e2e698cd7fff","h3_11":"8b1e2e698cd0fff"},"geometry":{"type":"Polygon","coordinates":[[[20.005896,49.990862],[20.00592,49.990817],[20.005963,49.990827],[20.00594,49.990872],[20.005896,49.990862]]]}},{"type":"Feature","id":"w708561737","properties":{"type":"yes","residential":false,"residents_est":0,"h3_10":"8a1e2e698cd7fff","h3_11":"8b1e2e698cd3fff"},"geometry":{"type":"Polygon","coordinates":[[[20.006145,49.99061],[20.006156,49.990577],[20.006223,49.990587],[20.006211,49.990618],[20.006145,49.99061]]]}},{"type":"Feature","id":"w708561739","properties":{"type":"yes","residential":true,"residents_est":2,"h3_10":"8a1e2e698cd7fff","h3_11":"8b1e2e698cd6fff"},"geometry":{"type":"Polygon","coordinates":[[[20.005186,49.99085],[20.005222,49.990767],[20.005304,49.990783],[20.005265,49.990865],[20.005186,49.99085]]]}},{"type":"Feature","id":"w708561740","properties":{"type":"yes","address":"Koszutki 16","residential":true,"residents_est":1,"h3_10":"8a1e2e698c8ffff","h3_11":"8b1e2e698c8dfff"},"geometry":{"type":"Polygon","coordinates":[[[20.004353,49.991969],[20.004383,49.99185],[20.004453,49.991858],[20.004455,49.99185],[20.004508,49.991856],[20.004475,49.991987],[20.004353,49.991969]]]}},{"type":"Feature","id":"w708561741","properties":{"type":"yes","address":"Koszutki 16a","residential":true,"residents_est":2,"h3_10":"8a1e2e698c8ffff","h3_11":"8b1e2e698c8dfff"},"geometry":{"type":"Polygon","coordinates":[[[20.004475,49.991987],[20.004508,49.991856],[20.004561,49.991862],[20.00456,49.991869],[20.00463,49.991876],[20.0046,49.991996],[20.004475,49.991987]]]}},{"type":"Feature","id":"w708561743","properties":{"type":"yes","address":"Koszutki 23","residential":true,"residents_est":1,"h3_10":"8a1e2e698caffff","h3_11":"8b1e2e698cacfff"},"geometry":{"type":"Polygon","coordinates":[[[20.003321,49.992703],[20.003344,49.992646],[20.003459,49.992666],[20.003435,49.992723],[20.003321,49.992703]]]}},{"type":"Feature","id":"w708561744","properties":{"type":"yes","address":"Koszutki 23a","residential":true,"residents_est":1,"h3_10":"8a1e2e698caffff","h3_11":"8b1e2e698cacfff"},"geometry":{"type":"Polygon","coordinates":[[[20.003298,49.99276],[20.003321,49.992703],[20.003435,49.992723],[20.003412,49.99278],[20.003298,49.99276]]]}},{"type":"Feature","id":"w708561745","properties":{"type":"yes","address":"Koszutki 23n","residential":true,"residents_est":1,"h3_10":"8a1e2e698caffff","h3_11":"8b1e2e698cacfff"},"geometry":{"type":"Polygon","coordinates":[[[20.003548,49.992748],[20.003572,49.992692],[20.003686,49.992711],[20.003663,49.992768],[20.003548,49.992748]]]}},{"type":"Feature","id":"w708561746","properties":{"type":"yes","address":"Koszutki 23m","residential":true,"residents_est":1,"h3_10":"8a1e2e698caffff","h3_11":"8b1e2e698cacfff"},"geometry":{"type":"Polygon","coordinates":[[[20.003524,49.992805],[20.003548,49.992748],[20.003663,49.992768],[20.003639,49.992825],[20.003524,49.992805]]]}},{"type":"Feature","id":"w708561747","properties":{"type":"yes","address":"Koszutki 23b","residential":true,"residents_est":1,"h3_10":"8a1e2e698caffff","h3_11":"8b1e2e698cacfff"},"geometry":{"type":"Polygon","coordinates":[[[20.003193,49.992914],[20.003216,49.992857],[20.00333,49.992877],[20.003307,49.992934],[20.003193,49.992914]]]}},{"type":"Feature","id":"w708561748","properties":{"type":"yes","address":"Koszutki 23c","residential":true,"residents_est":1,"h3_10":"8a1e2e698ca7fff","h3_11":"8b1e2e698ca1fff"},"geometry":{"type":"Polygon","coordinates":[[[20.003169,49.992971],[20.003193,49.992914],[20.003307,49.992934],[20.003283,49.99299],[20.003169,49.992971]]]}},{"type":"Feature","id":"w708561749","properties":{"type":"yes","address":"Koszutki 23l","residential":true,"residents_est":1,"h3_10":"8a1e2e698caffff","h3_11":"8b1e2e698cacfff"},"geometry":{"type":"Polygon","coordinates":[[[20.003421,49.992953],[20.003445,49.992897],[20.003559,49.992916],[20.003536,49.992973],[20.003421,49.992953]]]}},{"type":"Feature","id":"w708561750","properties":{"type":"yes","address":"Koszutki 23k","residential":true,"residents_est":1,"h3_10":"8a1e2e698caffff","h3_11":"8b1e2e698cacfff"},"geometry":{"type":"Polygon","coordinates":[[[20.003398,49.99301],[20.003421,49.992953],[20.003536,49.992973],[20.003512,49.99303],[20.003398,49.99301]]]}},{"type":"Feature","id":"w708561751","properties":{"type":"yes","address":"Koszutki 23j","residential":true,"residents_est":1,"h3_10":"8a1e2e698c17fff","h3_11":"8b1e2e698c12fff"},"geometry":{"type":"Polygon","coordinates":[[[20.003272,49.993161],[20.003296,49.993104],[20.00341,49.993124],[20.003386,49.993181],[20.003272,49.993161]]]}},{"type":"Feature","id":"w708561752","properties":{"type":"yes","address":"Koszutki 23h","residential":true,"residents_est":1,"h3_10":"8a1e2e698c17fff","h3_11":"8b1e2e698c12fff"},"geometry":{"type":"Polygon","coordinates":[[[20.003248,49.993218],[20.003272,49.993161],[20.003386,49.993181],[20.003363,49.993237],[20.003248,49.993218]]]}},{"type":"Feature","id":"w708561753","properties":{"type":"yes","address":"Koszutki 23d","residential":true,"residents_est":1,"h3_10":"8a1e2e698c17fff","h3_11":"8b1e2e698c12fff"},"geometry":{"type":"Polygon","coordinates":[[[20.003016,49.993212],[20.003039,49.993155],[20.003154,49.993175],[20.00313,49.993232],[20.003016,49.993212]]]}},{"type":"Feature","id":"w708561754","properties":{"type":"yes","address":"Koszutki 23g","residential":true,"residents_est":1,"h3_10":"8a1e2e698c17fff","h3_11":"8b1e2e698c12fff"},"geometry":{"type":"Polygon","coordinates":[[[20.003162,49.993375],[20.003186,49.993318],[20.003299,49.993338],[20.003276,49.993394],[20.003162,49.993375]]]}},{"type":"Feature","id":"w708561755","properties":{"type":"yes","address":"Koszutki 23f","residential":true,"residents_est":1,"h3_10":"8a1e2e698c17fff","h3_11":"8b1e2e698c12fff"},"geometry":{"type":"Polygon","coordinates":[[[20.003139,49.993431],[20.003162,49.993375],[20.003276,49.993394],[20.003253,49.993451],[20.003139,49.993431]]]}},{"type":"Feature","id":"w708561756","properties":{"type":"yes","address":"Koszutki 23e","residential":true,"residents_est":1,"h3_10":"8a1e2e698c17fff","h3_11":"8b1e2e698c12fff"},"geometry":{"type":"Polygon","coordinates":[[[20.002906,49.993384],[20.002936,49.993311],[20.003026,49.993327],[20.002995,49.9934],[20.002906,49.993384]]]}},{"type":"Feature","id":"w708561757","properties":{"type":"yes","residential":true,"residents_est":2,"h3_10":"8a1e2e698ca7fff","h3_11":"8b1e2e698ca5fff"},"geometry":{"type":"Polygon","coordinates":[[[20.00261,49.993305],[20.002624,49.993274],[20.002616,49.993272],[20.002628,49.993245],[20.002616,49.993239],[20.00263,49.993241],[20.002651,49.993196],[20.002695,49.993206],[20.002698,49.993198],[20.002743,49.993205],[20.002739,49.993213],[20.002785,49.993222],[20.002751,49.993297],[20.002733,49.993293],[20.002718,49.993325],[20.00261,49.993305]]]}},{"type":"Feature","id":"w708561758","properties":{"type":"yes","address":"Szczegów 19","residential":true,"residents_est":1,"h3_10":"8a1e2e698d9ffff","h3_11":"8b1e2e698d98fff"},"geometry":{"type":"Polygon","coordinates":[[[20.000317,49.993215],[20.000323,49.993215],[20.000322,49.993188],[20.000379,49.993187],[20.00038,49.993181],[20.000412,49.99318],[20.000415,49.993271],[20.000354,49.993276],[20.000325,49.993272],[20.000317,49.993215]]]}},{"type":"Feature","id":"w708561759","properties":{"type":"yes","address":"Szczegów 19a","residential":true,"residents_est":1,"h3_10":"8a1e2e698d9ffff","h3_11":"8b1e2e698d98fff"},"geometry":{"type":"Polygon","coordinates":[[[20.000412,49.99318],[20.000444,49.99318],[20.000445,49.993187],[20.000501,49.993186],[20.00051,49.993238],[20.000503,49.993238],[20.000504,49.99327],[20.000426,49.993275],[20.000415,49.993271],[20.000412,49.99318]]]}},{"type":"Feature","id":"w708561760","properties":{"type":"yes","address":"Szczegów 21","residential":true,"residents_est":1,"h3_10":"8a1e2e698d9ffff","h3_11":"8b1e2e698d98fff"},"geometry":{"type":"Polygon","coordinates":[[[20.000618,49.993234],[20.000681,49.993193],[20.000686,49.993197],[20.000718,49.993179],[20.000755,49.993207],[20.000763,49.993203],[20.000784,49.993218],[20.000677,49.993277],[20.000665,49.993275],[20.000632,49.993251],[20.000637,49.993248],[20.000618,49.993234]]]}},{"type":"Feature","id":"w708561761","properties":{"type":"yes","address":"Szczegów 21a","residential":true,"residents_est":1,"h3_10":"8a1e2e698d9ffff","h3_11":"8b1e2e698d98fff"},"geometry":{"type":"Polygon","coordinates":[[[20.000677,49.993277],[20.000784,49.993218],[20.000805,49.993234],[20.000797,49.993239],[20.000834,49.993267],[20.000802,49.993284],[20.000806,49.993288],[20.000735,49.993321],[20.000678,49.993285],[20.000683,49.993282],[20.000677,49.993277]]]}},{"type":"Feature","id":"w708561762","properties":{"type":"yes","residential":false,"residents_est":0,"h3_10":"8a1e2e698d8ffff","h3_11":"8b1e2e698d8bfff"},"geometry":{"type":"Polygon","coordinates":[[[20.001925,49.99353],[20.001938,49.993499],[20.002011,49.993509],[20.001998,49.99354],[20.001925,49.99353]]]}},{"type":"Feature","id":"w708561763","properties":{"type":"yes","address":"Koszutki 15f","residential":true,"residents_est":1,"h3_10":"8a1e2e698ca7fff","h3_11":"8b1e2e698ca4fff"},"geometry":{"type":"Polygon","coordinates":[[[20.001483,49.993206],[20.001496,49.993147],[20.001613,49.993158],[20.0016,49.993217],[20.001483,49.993206]]]}},{"type":"Feature","id":"w708561764","properties":{"type":"yes","address":"Koszutki 15d","residential":true,"residents_est":1,"h3_10":"8a1e2e698ca7fff","h3_11":"8b1e2e698ca6fff"},"geometry":{"type":"Polygon","coordinates":[[[20.001538,49.992993],[20.001551,49.992935],[20.001669,49.992946],[20.001655,49.993004],[20.001538,49.992993]]]}},{"type":"Feature","id":"w708561765","properties":{"type":"yes","address":"Koszutki 15e","residential":true,"residents_est":1,"h3_10":"8a1e2e698ca7fff","h3_11":"8b1e2e698ca6fff"},"geometry":{"type":"Polygon","coordinates":[[[20.001524,49.993051],[20.001538,49.992993],[20.001655,49.993004],[20.001642,49.993062],[20.001524,49.993051]]]}},{"type":"Feature","id":"w708561766","properties":{"type":"yes","address":"Koszutki 15b","residential":true,"residents_est":1,"h3_10":"8a1e2e698ca7fff","h3_11":"8b1e2e698ca6fff"},"geometry":{"type":"Polygon","coordinates":[[[20.001598,49.99277],[20.001611,49.992711],[20.001728,49.992722],[20.001715,49.992781],[20.001598,49.99277]]]}},{"type":"Feature","id":"w708561767","properties":{"type":"yes","address":"Koszutki 15c","residential":true,"residents_est":1,"h3_10":"8a1e2e698ca7fff","h3_11":"8b1e2e698ca6fff"},"geometry":{"type":"Polygon","coordinates":[[[20.001585,49.992828],[20.001598,49.99277],[20.001715,49.992781],[20.001702,49.992839],[20.001585,49.992828]]]}},{"type":"Feature","id":"w708561768","properties":{"type":"yes","address":"Koszutki 15","residential":true,"residents_est":1,"h3_10":"8a1e2e698ca7fff","h3_11":"8b1e2e698ca2fff"},"geometry":{"type":"Polygon","coordinates":[[[20.001701,49.99238],[20.001714,49.992321],[20.001831,49.992332],[20.001818,49.992391],[20.001701,49.99238]]]}},{"type":"Feature","id":"w708561769","properties":{"type":"yes","address":"Koszutki 15a","residential":true,"residents_est":1,"h3_10":"8a1e2e698ca7fff","h3_11":"8b1e2e698ca2fff"},"geometry":{"type":"Polygon","coordinates":[[[20.001688,49.992438],[20.001701,49.99238],[20.001818,49.992391],[20.001805,49.992449],[20.001688,49.992438]]]}},{"type":"Feature","id":"w708561770","properties":{"type":"yes","address":"Koszutki 10a","residential":true,"residents_est":1,"h3_10":"8a1e2e698cb7fff","h3_11":"8b1e2e698cb1fff"},"geometry":{"type":"Polygon","coordinates":[[[20.001566,49.992045],[20.001592,49.99197],[20.001625,49.991975],[20.001635,49.991947],[20.001749,49.991963],[20.001717,49.99206],[20.001566,49.992045]]]}},{"type":"Feature","id":"w708561771","properties":{"type":"yes","residential":true,"residents_est":2,"h3_10":"8a1e2e698db7fff","h3_11":"8b1e2e698db6fff"},"geometry":{"type":"Polygon","coordinates":[[[19.997598,49.994802],[19.99764,49.994649],[19.997776,49.994665],[19.997733,49.994817],[19.997598,49.994802]]]}},{"type":"Feature","id":"w708561772","properties":{"type":"yes","address":"Antoniego Hoborskiego 3","residential":true,"residents_est":2,"h3_10":"8a1e2e698db7fff","h3_11":"8b1e2e698db4fff"},"geometry":{"type":"Polygon","coordinates":[[[19.997961,49.994844],[19.99799,49.994763],[19.998168,49.994789],[19.998141,49.994871],[19.998075,49.994861],[19.998069,49.994879],[19.998022,49.994873],[19.998028,49.994854],[19.997961,49.994844]]]}},{"type":"Feature","id":"w708561773","properties":{"type":"yes","residential":true,"residents_est":1,"h3_10":"8a1e2e698db7fff","h3_11":"8b1e2e698db6fff"},"geometry":{"type":"Polygon","coordinates":[[[19.997315,49.994756],[19.99735,49.994683],[19.997414,49.994697],[19.99738,49.994769],[19.997315,49.994756]]]}},{"type":"Feature","id":"w708561786","properties":{"type":"yes","residential":true,"residents_est":1,"h3_10":"8a1e2e698c97fff","h3_11":"8b1e2e698c92fff"},"geometry":{"type":"Polygon","coordinates":[[[20.00077,49.990795],[20.000795,49.990737],[20.000907,49.990757],[20.000882,49.990815],[20.00077,49.990795]]]}},{"type":"Feature","id":"w712544710","properties":{"type":"detached","levels":1.0,"address":"Modrzewiowa 43E","residential":true,"residents_est":1,"h3_10":"8a1e2e698c6ffff","h3_11":"8b1e2e698c69fff"},"geometry":{"type":"Polygon","coordinates":[[[20.01211,49.995142],[20.012255,49.995116],[20.012288,49.995188],[20.012142,49.995215],[20.01211,49.995142]]]}},{"type":"Feature","id":"w762880586","properties":{"type":"detached","levels":1.0,"address":"Modrzewiowa 45B","residential":true,"residents_est":2,"h3_10":"8a1e2e698c6ffff","h3_11":"8b1e2e698c6dfff"},"geometry":{"type":"Polygon","coordinates":[[[20.01159,49.995498],[20.011669,49.995491],[20.011673,49.995512],[20.011842,49.995498],[20.01186,49.995587],[20.011681,49.995601],[20.011675,49.99557],[20.011606,49.995575],[20.01159,49.995498]]]}},{"type":"Feature","id":"w866751407","properties":{"type":"yes","residential":false,"residents_est":0,"h3_10":"8a1e2e698d6ffff","h3_11":"8b1e2e698d6cfff"},"geometry":{"type":"Polygon","coordinates":[[[20.008385,49.997876],[20.008433,49.997863],[20.008439,49.997872],[20.008451,49.997869],[20.008474,49.997902],[20.008415,49.997919],[20.008385,49.997876]]]}},{"type":"Feature","id":"w866751408","properties":{"type":"yes","residential":false,"residents_est":0,"h3_10":"8a1e2e698d6ffff","h3_11":"8b1e2e698d6efff"},"geometry":{"type":"Polygon","coordinates":[[[20.008295,49.997647],[20.008371,49.997627],[20.008394,49.99766],[20.008317,49.997682],[20.008295,49.997647]]]}},{"type":"Feature","id":"w866781717","properties":{"type":"house","levels":1.0,"address":"Modrzewiowa 59","residential":true,"residents_est":2,"h3_10":"8a1e2e698d6ffff","h3_11":"8b1e2e698d6bfff"},"geometry":{"type":"Polygon","coordinates":[[[20.009074,49.99709],[20.009227,49.997048],[20.009291,49.997146],[20.009237,49.99716],[20.009257,49.997189],[20.009208,49.997202],[20.009189,49.997173],[20.009138,49.997187],[20.009074,49.99709]]]}},{"type":"Feature","id":"w866801069","properties":{"type":"terrace","levels":1.0,"address":"Modrzewiowa 55A","residential":true,"residents_est":5,"h3_10":"8a1e2e698d4ffff","h3_11":"8b1e2e698d4bfff"},"geometry":{"type":"Polygon","coordinates":[[[20.009373,49.996365],[20.009945,49.996216],[20.009995,49.996294],[20.009925,49.996313],[20.009919,49.996303],[20.009865,49.996317],[20.009871,49.996327],[20.009746,49.99636],[20.00974,49.99635],[20.009722,49.996354],[20.009705,49.996359],[20.009711,49.996369],[20.009594,49.9964],[20.009588,49.99639],[20.009554,49.996399],[20.00956,49.996409],[20.009445,49.996439],[20.009438,49.996428],[20.009416,49.996434],[20.009373,49.996365]]]}},{"type":"Feature","id":"w866801076","properties":{"type":"terrace","levels":1.0,"address":"Modrzewiowa 55","residential":true,"residents_est":5,"h3_10":"8a1e2e698d4ffff","h3_11":"8b1e2e698d49fff"},"geometry":{"type":"Polygon","coordinates":[[[20.00946,49.996523],[20.010032,49.996372],[20.010083,49.996451],[20.010022,49.996467],[20.010016,49.996457],[20.00998,49.996467],[20.009986,49.996477],[20.009861,49.99651],[20.009855,49.9965],[20.009803,49.996513],[20.009809,49.996523],[20.009683,49.996556],[20.009676,49.996546],[20.009641,49.996555],[20.009648,49.996566],[20.009532,49.996596],[20.009525,49.996586],[20.009504,49.996592],[20.00946,49.996523]]]}},{"type":"Feature","id":"w866801083","properties":{"type":"terrace","levels":1.0,"address":"Modrzewiowa 55B","residential":true,"residents_est":5,"h3_10":"8a1e2e698d4ffff","h3_11":"8b1e2e698d4bfff"},"geometry":{"type":"Polygon","coordinates":[[[20.009288,49.996223],[20.009866,49.996072],[20.009909,49.996139],[20.00985,49.996154],[20.009844,49.996144],[20.009754,49.996168],[20.00976,49.996178],[20.009655,49.996205],[20.009649,49.996195],[20.009566,49.996217],[20.009573,49.996227],[20.009468,49.996254],[20.009461,49.996244],[20.009379,49.996265],[20.009385,49.996275],[20.00933,49.99629],[20.009288,49.996223]]]}},{"type":"Feature","id":"w866801089","properties":{"type":"terrace","levels":1.0,"address":"Modrzewiowa 59E","residential":true,"residents_est":4,"h3_10":"8a1e2e698d4ffff","h3_11":"8b1e2e698d4efff"},"geometry":{"type":"Polygon","coordinates":[[[20.00849,49.996431],[20.008833,49.996341],[20.008883,49.99642],[20.008823,49.996436],[20.008817,49.996426],[20.0088,49.99643],[20.008782,49.996435],[20.008788,49.996445],[20.008663,49.996478],[20.008657,49.996468],[20.00863,49.996475],[20.008604,49.996482],[20.00861,49.996492],[20.008539,49.99651],[20.00849,49.996431]]]}},{"type":"Feature","id":"w866801093","properties":{"type":"terrace","levels":1.0,"address":"Modrzewiowa 59D","residential":true,"residents_est":3,"h3_10":"8a1e2e698d4ffff","h3_11":"8b1e2e698d4efff"},"geometry":{"type":"Polygon","coordinates":[[[20.008591,49.996588],[20.008935,49.996499],[20.008985,49.996578],[20.008924,49.996594],[20.008917,49.996584],[20.008899,49.996588],[20.008881,49.996593],[20.008887,49.996603],[20.008763,49.996635],[20.008757,49.996625],[20.008729,49.996632],[20.008703,49.996639],[20.008709,49.996649],[20.00864,49.996667],[20.008591,49.996588]]]}},{"type":"Feature","id":"w866801097","properties":{"type":"terrace","levels":1.0,"address":"Modrzewiowa 59C","residential":true,"residents_est":3,"h3_10":"8a1e2e698d4ffff","h3_11":"8b1e2e698d4cfff"},"geometry":{"type":"Polygon","coordinates":[[[20.00869,49.996747],[20.009034,49.996657],[20.009084,49.996736],[20.009023,49.996752],[20.009017,49.996742],[20.009,49.996746],[20.008981,49.996751],[20.008987,49.996761],[20.008863,49.996794],[20.008856,49.996784],[20.008829,49.996791],[20.008803,49.996798],[20.008809,49.996808],[20.00874,49.996826],[20.00869,49.996747]]]}},{"type":"Feature","id":"w866801187","properties":{"type":"service","levels":1.0,"residential":false,"residents_est":0,"h3_10":"8a1e2e698d4ffff","h3_11":"8b1e2e698d4afff"},"geometry":{"type":"Polygon","coordinates":[[[20.009249,49.99609],[20.009372,49.996068],[20.009391,49.996111],[20.009268,49.996133],[20.009249,49.99609]]]}},{"type":"Feature","id":"w866801209","properties":{"type":"yes","address":"Antoniego Hoborskiego 14","residential":true,"residents_est":1,"h3_10":"8a1e2e698d07fff","h3_11":"8b1e2e698d03fff"},"geometry":{"type":"Polygon","coordinates":[[[20.002832,49.996463],[20.002912,49.996375],[20.002943,49.996387],[20.002949,49.99638],[20.002987,49.996394],[20.002981,49.996401],[20.003011,49.996412],[20.002958,49.996471],[20.002968,49.996474],[20.00294,49.996504],[20.002832,49.996463]]]}},{"type":"Feature","id":"w875888468","properties":{"type":"yes","address":"Koszutki 7","residential":true,"residents_est":1,"h3_10":"8a1e2e698cb7fff","h3_11":"8b1e2e698cb6fff"},"geometry":{"type":"Polygon","coordinates":[[[20.000079,49.992222],[20.00008,49.992194],[20.000094,49.992195],[20.000095,49.99216],[20.000222,49.992161],[20.00022,49.992224],[20.000079,49.992222]]]}},{"type":"Feature","id":"w875888469","properties":{"type":"yes","address":"Koszutki 7a","residential":true,"residents_est":1,"h3_10":"8a1e2e698cb7fff","h3_11":"8b1e2e698cb6fff"},"geometry":{"type":"Polygon","coordinates":[[[20.000079,49.992252],[20.000079,49.992222],[20.00022,49.992224],[20.000219,49.992287],[20.000091,49.992286],[20.000092,49.992252],[20.000079,49.992252]]]}},{"type":"Feature","id":"w875888486","properties":{"type":"yes","address":"Antoniego Hoborskiego 14f","residential":true,"residents_est":1,"h3_10":"8a1e2e698d07fff","h3_11":"8b1e2e698d03fff"},"geometry":{"type":"Polygon","coordinates":[[[20.002681,49.996647],[20.002706,49.996618],[20.002697,49.996615],[20.002762,49.996542],[20.00286,49.996579],[20.002838,49.996604],[20.002845,49.996617],[20.00283,49.996633],[20.002803,49.996632],[20.002763,49.996677],[20.002681,49.996647]]]}},{"type":"Feature","id":"w875888487","properties":{"type":"yes","address":"Antoniego Hoborskiego 14d","residential":true,"residents_est":2,"h3_10":"8a1e2e698d07fff","h3_11":"8b1e2e698d00fff"},"geometry":{"type":"Polygon","coordinates":[[[20.002812,49.996983],[20.002832,49.996954],[20.002818,49.99695],[20.002857,49.996895],[20.002901,49.996907],[20.002904,49.996903],[20.002988,49.996932],[20.002977,49.996949],[20.002965,49.996952],[20.002957,49.996964],[20.002961,49.996971],[20.002949,49.996988],[20.002936,49.996985],[20.002916,49.997013],[20.002812,49.996983]]]}},{"type":"Feature","id":"w1194888984","properties":{"type":"house","levels":2.0,"residential":true,"residents_est":4,"h3_10":"8a1e2e698c6ffff","h3_11":"8b1e2e698c69fff"},"geometry":{"type":"Polygon","coordinates":[[[20.011799,49.995168],[20.011997,49.995132],[20.012029,49.995206],[20.011929,49.995224],[20.011935,49.995237],[20.011837,49.995255],[20.011799,49.995168]]]}},{"type":"Feature","id":"w1194889023","properties":{"type":"house","levels":2.0,"residential":true,"residents_est":6,"h3_10":"8a1e2e698d0ffff","h3_11":"8b1e2e698d0afff"},"geometry":{"type":"Polygon","coordinates":[[[20.003843,49.996045],[20.00395,49.995919],[20.004131,49.995983],[20.004024,49.996109],[20.003843,49.996045]]]}},{"type":"Feature","id":"w1196519121","properties":{"type":"detached","address":"Koszutki 107","residential":true,"residents_est":4,"h3_10":"8a1e2e698c4ffff","h3_11":"8b1e2e698c49fff"},"geometry":{"type":"Polygon","coordinates":[[[20.012245,49.994133],[20.012264,49.994106],[20.012245,49.994101],[20.012302,49.99402],[20.012439,49.994059],[20.012382,49.99414],[20.012368,49.994136],[20.012349,49.994163],[20.012245,49.994133]]]}},{"type":"Feature","id":"w1311638750","properties":{"type":"yes","address":"Koszutki 7B","residential":true,"residents_est":1,"h3_10":"8a1e2e698cb7fff","h3_11":"8b1e2e698cb4fff"},"geometry":{"type":"Polygon","coordinates":[[[20.000068,49.992423],[20.000069,49.992395],[20.000083,49.992395],[20.000084,49.99236],[20.000211,49.992362],[20.000209,49.992424],[20.000068,49.992423]]]}},{"type":"Feature","id":"w1311638751","properties":{"type":"yes","address":"Koszutki 7C","residential":true,"residents_est":1,"h3_10":"8a1e2e698cb7fff","h3_11":"8b1e2e698cb4fff"},"geometry":{"type":"Polygon","coordinates":[[[20.000067,49.992452],[20.000068,49.992423],[20.000209,49.992424],[20.000207,49.992488],[20.00008,49.992486],[20.000081,49.992452],[20.000067,49.992452]]]}},{"type":"Feature","id":"w1311638752","properties":{"type":"yes","address":"Koszutki 9","residential":true,"residents_est":2,"h3_10":"8a1e2e698cb7fff","h3_11":"8b1e2e698cb4fff"},"geometry":{"type":"Polygon","coordinates":[[[20.000355,49.992334],[20.00036,49.992232],[20.000369,49.992232],[20.000369,49.992221],[20.000438,49.992221],[20.000437,49.992234],[20.000563,49.992236],[20.000559,49.992338],[20.000433,49.992336],[20.000432,49.992349],[20.000366,49.992349],[20.000367,49.992334],[20.000355,49.992334]]]}},{"type":"Feature","id":"w1311638757","properties":{"type":"yes","residential":false,"residents_est":0,"h3_10":"8a1e2e698ca7fff","h3_11":"8b1e2e698ca6fff"},"geometry":{"type":"Polygon","coordinates":[[[20.001351,49.992906],[20.001361,49.992858],[20.001442,49.992865],[20.001433,49.992913],[20.001351,49.992906]]]}},{"type":"Feature","id":"w1311638760","properties":{"type":"yes","residential":false,"residents_est":0,"h3_10":"8a1e2e698d9ffff","h3_11":"8b1e2e698d99fff"},"geometry":{"type":"Polygon","coordinates":[[[20.00129,49.993201],[20.001304,49.993151],[20.00135,49.993156],[20.001335,49.993206],[20.00129,49.993201]]]}},{"type":"Feature","id":"w1311638761","properties":{"type":"yes","residential":false,"residents_est":0,"h3_10":"8a1e2e698d9ffff","h3_11":"8b1e2e698d99fff"},"geometry":{"type":"Polygon","coordinates":[[[20.001256,49.993336],[20.001316,49.993293],[20.001349,49.993313],[20.001289,49.993355],[20.001256,49.993336]]]}},{"type":"Feature","id":"w1311638762","properties":{"type":"yes","residential":false,"residents_est":0,"h3_10":"8a1e2e698d9ffff","h3_11":"8b1e2e698d9bfff"},"geometry":{"type":"Polygon","coordinates":[[[20.00073,49.992959],[20.000731,49.992917],[20.000819,49.992918],[20.000818,49.99296],[20.00073,49.992959]]]}},{"type":"Feature","id":"w1311638764","properties":{"type":"yes","residential":false,"residents_est":0,"h3_10":"8a1e2e698d9ffff","h3_11":"8b1e2e698d9bfff"},"geometry":{"type":"Polygon","coordinates":[[[20.000768,49.992812],[20.000834,49.992812],[20.000834,49.992855],[20.000768,49.992855],[20.000768,49.992812]]]}},{"type":"Feature","id":"w1311638765","properties":{"type":"yes","residential":false,"residents_est":0,"h3_10":"8a1e2e698d9ffff","h3_11":"8b1e2e698d9bfff"},"geometry":{"type":"Polygon","coordinates":[[[20.000754,49.992655],[20.000761,49.992612],[20.000836,49.992616],[20.000829,49.992659],[20.000754,49.992655]]]}},{"type":"Feature","id":"w1311638768","properties":{"type":"yes","residential":false,"residents_est":0,"h3_10":"8a1e2e698cb7fff","h3_11":"8b1e2e698cb5fff"},"geometry":{"type":"Polygon","coordinates":[[[20.000805,49.992464],[20.000809,49.992433],[20.000874,49.992435],[20.000871,49.992466],[20.000805,49.992464]]]}},{"type":"Feature","id":"w1311638769","properties":{"type":"yes","residential":false,"residents_est":0,"h3_10":"8a1e2e698cb7fff","h3_11":"8b1e2e698cb5fff"},"geometry":{"type":"Polygon","coordinates":[[[20.000809,49.992392],[20.000818,49.992344],[20.00089,49.992349],[20.000881,49.992397],[20.000809,49.992392]]]}},{"type":"Feature","id":"w1311638770","properties":{"type":"yes","residential":false,"residents_est":0,"h3_10":"8a1e2e698cb7fff","h3_11":"8b1e2e698cb0fff"},"geometry":{"type":"Polygon","coordinates":[[[20.000765,49.992272],[20.000773,49.99224],[20.000844,49.992247],[20.000836,49.992279],[20.000765,49.992272]]]}},{"type":"Feature","id":"w1311638771","properties":{"type":"yes","residential":false,"residents_est":0,"h3_10":"8a1e2e698cb7fff","h3_11":"8b1e2e698cb0fff"},"geometry":{"type":"Polygon","coordinates":[[[20.00077,49.9922],[20.000779,49.992167],[20.000842,49.992174],[20.000834,49.992207],[20.00077,49.9922]]]}},{"type":"Feature","id":"w1311638774","properties":{"type":"yes","residential":true,"residents_est":1,"h3_10":"8a1e2e698d9ffff","h3_11":"8b1e2e698d9bfff"},"geometry":{"type":"Polygon","coordinates":[[[20.000645,49.993059],[20.000646,49.992996],[20.000771,49.992997],[20.00077,49.99306],[20.000645,49.993059]]]}},{"type":"Feature","id":"w1311638775","properties":{"type":"yes","residential":false,"residents_est":0,"h3_10":"8a1e2e698ca7fff","h3_11":"8b1e2e698ca6fff"},"geometry":{"type":"Polygon","coordinates":[[[20.001395,49.99274],[20.001401,49.992703],[20.001475,49.992708],[20.001469,49.992745],[20.001395,49.99274]]]}},{"type":"Feature","id":"w1311638776","properties":{"type":"yes","residential":false,"residents_est":0,"h3_10":"8a1e2e698ca7fff","h3_11":"8b1e2e698ca6fff"},"geometry":{"type":"Polygon","coordinates":[[[20.00142,49.992628],[20.00143,49.992583],[20.001485,49.992587],[20.001475,49.992633],[20.00142,49.992628]]]}},{"type":"Feature","id":"w1311638777","properties":{"type":"yes","residential":false,"residents_est":0,"h3_10":"8a1e2e698ca7fff","h3_11":"8b1e2e698ca6fff"},"geometry":{"type":"Polygon","coordinates":[[[20.001612,49.992701],[20.001624,49.992646],[20.001697,49.992653],[20.001685,49.992707],[20.001612,49.992701]]]}},{"type":"Feature","id":"w1311638778","properties":{"type":"yes","residential":false,"residents_est":0,"h3_10":"8a1e2e698cb7fff","h3_11":"8b1e2e698cb1fff"},"geometry":{"type":"Polygon","coordinates":[[[20.001514,49.992342],[20.001516,49.992264],[20.001554,49.992265],[20.001553,49.992342],[20.001514,49.992342]]]}},{"type":"Feature","id":"w1311638779","properties":{"type":"yes","residential":false,"residents_est":0,"h3_10":"8a1e2e698ca7fff","h3_11":"8b1e2e698ca2fff"},"geometry":{"type":"Polygon","coordinates":[[[20.001454,49.992463],[20.001467,49.992413],[20.001538,49.99242],[20.001525,49.992471],[20.001454,49.992463]]]}},{"type":"Feature","id":"w1311638780","properties":{"type":"yes","residential":false,"residents_est":0,"h3_10":"8a1e2e698ca7fff","h3_11":"8b1e2e698ca2fff"},"geometry":{"type":"Polygon","coordinates":[[[20.001719,49.992309],[20.001735,49.992263],[20.001807,49.992273],[20.001792,49.992319],[20.001719,49.992309]]]}},{"type":"Feature","id":"w1311638781","properties":{"type":"yes","residential":false,"residents_est":0,"h3_10":"8a1e2e698c87fff","h3_11":"8b1e2e698c84fff"},"geometry":{"type":"Polygon","coordinates":[[[20.001933,49.992119],[20.001942,49.992091],[20.002008,49.992099],[20.001998,49.992128],[20.001933,49.992119]]]}},{"type":"Feature","id":"w1311638784","properties":{"type":"yes","residential":false,"residents_est":0,"h3_10":"8a1e2e698ca7fff","h3_11":"8b1e2e698ca4fff"},"geometry":{"type":"Polygon","coordinates":[[[20.002047,49.993169],[20.002056,49.993139],[20.002141,49.99315],[20.002132,49.99318],[20.002047,49.993169]]]}},{"type":"Feature","id":"w1311638788","properties":{"type":"yes","residential":false,"residents_est":0,"h3_10":"8a1e2e698ca7fff","h3_11":"8b1e2e698ca0fff"},"geometry":{"type":"Polygon","coordinates":[[[20.0021,49.992901],[20.00211,49.992874],[20.002219,49.992891],[20.002209,49.992917],[20.0021,49.992901]]]}},{"type":"Feature","id":"w1311638791","properties":{"type":"yes","residential":false,"residents_est":0,"h3_10":"8a1e2e698ca7fff","h3_11":"8b1e2e698ca3fff"},"geometry":{"type":"Polygon","coordinates":[[[20.002327,49.992543],[20.002338,49.99251],[20.00242,49.992521],[20.002409,49.992554],[20.002327,49.992543]]]}},{"type":"Feature","id":"w1311638793","properties":{"type":"yes","residential":false,"residents_est":0,"h3_10":"8a1e2e698ca7fff","h3_11":"8b1e2e698ca0fff"},"geometry":{"type":"Polygon","coordinates":[[[20.002233,49.992695],[20.002244,49.992666],[20.002318,49.992678],[20.002307,49.992707],[20.002233,49.992695]]]}},{"type":"Feature","id":"w1311638796","properties":{"type":"yes","residential":false,"residents_est":0,"h3_10":"8a1e2e698c17fff","h3_11":"8b1e2e698c12fff"},"geometry":{"type":"Polygon","coordinates":[[[20.003333,49.993101],[20.003346,49.993065],[20.003432,49.993077],[20.003419,49.993114],[20.003333,49.993101]]]}},{"type":"Feature","id":"w1311638797","properties":{"type":"yes","residential":false,"residents_est":0,"h3_10":"8a1e2e698c17fff","h3_11":"8b1e2e698c12fff"},"geometry":{"type":"Polygon","coordinates":[[[20.003136,49.993115],[20.003155,49.99307],[20.003207,49.993079],[20.003188,49.993124],[20.003136,49.993115]]]}},{"type":"Feature","id":"w1311638799","properties":{"type":"yes","residential":false,"residents_est":0,"h3_10":"8a1e2e698d8ffff","h3_11":"8b1e2e698d8bfff"},"geometry":{"type":"Polygon","coordinates":[[[20.00234,49.993526],[20.002363,49.993484],[20.002432,49.9935],[20.00241,49.993541],[20.00234,49.993526]]]}},{"type":"Feature","id":"w1311638806","properties":{"type":"yes","address":"Koszutki 41A","residential":true,"residents_est":3,"h3_10":"8a1e2e698c1ffff","h3_11":"8b1e2e698c19fff"},"geometry":{"type":"Polygon","coordinates":[[[20.00619,49.993403],[20.00625,49.993335],[20.006255,49.993337],[20.006359,49.993211],[20.006457,49.993247],[20.006342,49.993369],[20.006349,49.993372],[20.00629,49.993439],[20.00619,49.993403]]]}},{"type":"Feature","id":"w1311638807","properties":{"type":"yes","address":"Koszutki 43A","residential":true,"residents_est":3,"h3_10":"8a1e2e698c0ffff","h3_11":"8b1e2e698c0afff"},"geometry":{"type":"Polygon","coordinates":[[[20.006497,49.993512],[20.006612,49.993389],[20.006606,49.993387],[20.006665,49.99332],[20.006764,49.993356],[20.006649,49.993478],[20.006656,49.99348],[20.006596,49.993548],[20.006497,49.993512]]]}},{"type":"Feature","id":"w1311638808","properties":{"type":"yes","address":"Koszutki 43C","residential":true,"residents_est":3,"h3_10":"8a1e2e698c0ffff","h3_11":"8b1e2e698c0efff"},"geometry":{"type":"Polygon","coordinates":[[[20.006053,49.994024],[20.006168,49.993902],[20.006162,49.993899],[20.006221,49.993832],[20.00632,49.993868],[20.006205,49.99399],[20.006212,49.993993],[20.006152,49.994061],[20.006053,49.994024]]]}},{"type":"Feature","id":"w1311638809","properties":{"type":"yes","address":"Koszutki 41C","residential":true,"residents_est":2,"h3_10":"8a1e2e698c0ffff","h3_11":"8b1e2e698c0efff"},"geometry":{"type":"Polygon","coordinates":[[[20.005747,49.993913],[20.005861,49.99379],[20.005855,49.993788],[20.005915,49.993721],[20.006014,49.993757],[20.005899,49.993879],[20.005906,49.993881],[20.005846,49.993949],[20.005747,49.993913]]]}},{"type":"Feature","id":"w1311638813","properties":{"type":"yes","address":"Koszutki 79c","residential":true,"residents_est":2,"h3_10":"8a1e2e698c57fff","h3_11":"8b1e2e698c51fff"},"geometry":{"type":"Polygon","coordinates":[[[20.009294,49.993548],[20.009326,49.993468],[20.009497,49.993497],[20.009471,49.99356],[20.009417,49.99355],[20.009404,49.993582],[20.009337,49.99357],[20.009343,49.993556],[20.009294,49.993548]]]}},{"type":"Feature","id":"w1311638814","properties":{"type":"yes","address":"Koszutki 79b","residential":true,"residents_est":1,"h3_10":"8a1e2e698c57fff","h3_11":"8b1e2e698c53fff"},"geometry":{"type":"Polygon","coordinates":[[[20.008789,49.993455],[20.008818,49.993384],[20.008987,49.993412],[20.008961,49.993475],[20.00891,49.993467],[20.008907,49.993475],[20.008789,49.993455]]]}},{"type":"Feature","id":"w1311767826","properties":{"type":"yes","address":"Koszutki 10","residential":true,"residents_est":2,"h3_10":"8a1e2e698cb7fff","h3_11":"8b1e2e698cb1fff"},"geometry":{"type":"Polygon","coordinates":[[[20.001318,49.992022],[20.001344,49.991945],[20.001379,49.99195],[20.001388,49.991922],[20.001501,49.991938],[20.00147,49.992036],[20.001376,49.992022],[20.001373,49.99203],[20.001318,49.992022]]]}},{"type":"Feature","id":"w1311767827","properties":{"type":"yes","residential":false,"residents_est":0,"h3_10":"8a1e2e698c97fff","h3_11":"8b1e2e698c94fff"},"geometry":{"type":"Polygon","coordinates":[[[20.000678,49.991176],[20.000687,49.991138],[20.000718,49.991141],[20.000721,49.991127],[20.00077,49.991132],[20.000758,49.991184],[20.000678,49.991176]]]}},{"type":"Feature","id":"w1311767836","properties":{"type":"yes","residential":false,"residents_est":0,"h3_10":"8a1e2e698c9ffff","h3_11":"8b1e2e698c9afff"},"geometry":{"type":"Polygon","coordinates":[[[20.002444,49.990186],[20.002451,49.990163],[20.002536,49.990174],[20.002528,49.990197],[20.002444,49.990186]]]}},{"type":"Feature","id":"w1311767841","properties":{"type":"yes","address":"Barycka 5D","residential":true,"residents_est":1,"h3_10":"8a1e2e698c9ffff","h3_11":"8b1e2e698c9afff"},"geometry":{"type":"Polygon","coordinates":[[[20.002695,49.990342],[20.00272,49.990274],[20.00286,49.990295],[20.002847,49.99033],[20.002867,49.990333],[20.002855,49.990366],[20.002695,49.990342]]]}},{"type":"Feature","id":"w1311767842","properties":{"type":"yes","address":"Barycka 5E","residential":true,"residents_est":1,"h3_10":"8a1e2e698c9ffff","h3_11":"8b1e2e698c9afff"},"geometry":{"type":"Polygon","coordinates":[[[20.00267,49.990411],[20.002695,49.990342],[20.002855,49.990366],[20.002843,49.990399],[20.002824,49.990396],[20.002811,49.990432],[20.00267,49.990411]]]}},{"type":"Feature","id":"w1311963578","properties":{"type":"yes","residential":false,"residents_est":0,"h3_10":"8a1e2e698da7fff","h3_11":"8b1e2e698da1fff"},"geometry":{"type":"Polygon","coordinates":[[[20.000424,49.995309],[20.000442,49.995272],[20.000517,49.995287],[20.0005,49.995324],[20.000424,49.995309]]]}},{"type":"Feature","id":"w1311963579","properties":{"type":"yes","residential":true,"residents_est":1,"h3_10":"8a1e2e698da7fff","h3_11":"8b1e2e698da3fff"},"geometry":{"type":"Polygon","coordinates":[[[20.000392,49.995121],[20.000414,49.995069],[20.000528,49.995089],[20.000507,49.995141],[20.000392,49.995121]]]}},{"type":"Feature","id":"w1311963580","properties":{"type":"yes","residential":false,"residents_est":0,"h3_10":"8a1e2e698daffff","h3_11":"8b1e2e698daefff"},"geometry":{"type":"Polygon","coordinates":[[[20.000735,49.995088],[20.00075,49.99506],[20.000857,49.995083],[20.000842,49.995112],[20.000735,49.995088]]]}},{"type":"Feature","id":"w1311963582","properties":{"type":"yes","residential":false,"residents_est":0,"h3_10":"8a1e2e698daffff","h3_11":"8b1e2e698daefff"},"geometry":{"type":"Polygon","coordinates":[[[20.000419,49.995044],[20.00043,49.995008],[20.000531,49.995021],[20.00052,49.995056],[20.000419,49.995044]]]}},{"type":"Feature","id":"w1311963583","properties":{"type":"yes","residential":false,"residents_est":0,"h3_10":"8a1e2e698da7fff","h3_11":"8b1e2e698da3fff"},"geometry":{"type":"Polygon","coordinates":[[[20.000094,49.995184],[20.000111,49.995146],[20.000164,49.995156],[20.000148,49.995194],[20.000094,49.995184]]]}},{"type":"Feature","id":"w1311963585","properties":{"type":"yes","residential":false,"residents_est":0,"h3_10":"8a1e2e698da7fff","h3_11":"8b1e2e698da3fff"},"geometry":{"type":"Polygon","coordinates":[[[20.000135,49.995224],[20.000148,49.995194],[20.000211,49.995205],[20.000198,49.995235],[20.000135,49.995224]]]}},{"type":"Feature","id":"w1311963586","properties":{"type":"yes","residential":true,"residents_est":0,"h3_10":"8a1e2e698da7fff","h3_11":"8b1e2e698da3fff"},"geometry":{"type":"Polygon","coordinates":[[[20.00018,49.995118],[20.000196,49.995081],[20.000324,49.995103],[20.000308,49.99514],[20.00018,49.995118]]]}},{"type":"Feature","id":"w1311963587","properties":{"type":"yes","residential":false,"residents_est":0,"h3_10":"8a1e2e698da7fff","h3_11":"8b1e2e698da3fff"},"geometry":{"type":"Polygon","coordinates":[[[19.999924,49.995156],[19.99996,49.995078],[20.000009,49.995088],[19.999973,49.995165],[19.999924,49.995156]]]}},{"type":"Feature","id":"w1311963588","properties":{"type":"yes","residential":false,"residents_est":0,"h3_10":"8a1e2e698da7fff","h3_11":"8b1e2e698da3fff"},"geometry":{"type":"Polygon","coordinates":[[[19.999956,49.995198],[19.999973,49.995165],[20.000073,49.995187],[20.000056,49.995219],[19.999956,49.995198]]]}},{"type":"Feature","id":"w1311963627","properties":{"type":"yes","residential":false,"residents_est":0,"h3_10":"8a1e2e698cb7fff","h3_11":"8b1e2e698cb2fff"},"geometry":{"type":"Polygon","coordinates":[[[20.000223,49.991787],[20.000231,49.991752],[20.000341,49.991763],[20.000333,49.991797],[20.000223,49.991787]]]}},{"type":"Feature","id":"w1313003560","properties":{"type":"yes","residential":false,"residents_est":0,"h3_10":"8a1e2e698cf7fff","h3_11":"8b1e2e698cf6fff"},"geometry":{"type":"Polygon","coordinates":[[[20.004965,49.991931],[20.004984,49.991876],[20.005062,49.991887],[20.005043,49.991942],[20.004965,49.991931]]]}},{"type":"Feature","id":"w1313003561","properties":{"type":"yes","residential":true,"residents_est":1,"h3_10":"8a1e2e698cf7fff","h3_11":"8b1e2e698cf6fff"},"geometry":{"type":"Polygon","coordinates":[[[20.004757,49.992017],[20.004787,49.99192],[20.004907,49.991936],[20.004878,49.992032],[20.004757,49.992017]]]}},{"type":"Feature","id":"w1313003564","properties":{"type":"yes","residential":true,"residents_est":1,"h3_10":"8a1e2e698caffff","h3_11":"8b1e2e698caafff"},"geometry":{"type":"Polygon","coordinates":[[[20.00322,49.99209],[20.003238,49.99202],[20.003349,49.992031],[20.003332,49.992101],[20.00322,49.99209]]]}}]}