{"type":"FeatureCollection","features":[{"type":"Feature","id":"w232084188","properties":{"type":"yes","address":"Księcia Józefa 118","residential":true,"residents_est":2,"h3_10":"8a1e05b4d527fff","h3_11":"8b1e05b4d526fff"},"geometry":{"type":"Polygon","coordinates":[[[19.848112,50.043692],[19.848135,50.043619],[19.848185,50.043625],[19.848188,50.043615],[19.84826,50.043624],[19.848237,50.043706],[19.848112,50.043692]]]}},{"type":"Feature","id":"w233372009","properties":{"type":"yes","residential":true,"residents_est":2,"h3_10":"8a1e05b4d4d7fff","h3_11":"8b1e05b4d4d4fff"},"geometry":{"type":"Polygon","coordinates":[[[19.852417,50.036938],[19.852445,50.036888],[19.852437,50.036886],[19.852459,50.036844],[19.852509,50.036855],[19.852485,50.036898],[19.852549,50.036913],[19.852526,50.036954],[19.85248,50.036943],[19.852475,50.036952],[19.852417,50.036938]]]}},{"type":"Feature","id":"w233372350","properties":{"type":"yes","address":"Falista 48b","residential":true,"residents_est":5,"h3_10":"8a1e05b4d4f7fff","h3_11":"8b1e05b4d4f4fff"},"geometry":{"type":"Polygon","coordinates":[[[19.852047,50.03796],[19.852088,50.037898],[19.852145,50.037913],[19.85215,50.037905],[19.852279,50.03794],[19.852275,50.037946],[19.852327,50.03796],[19.852282,50.038028],[19.85223,50.038014],[19.852227,50.038019],[19.852098,50.037984],[19.852104,50.037975],[19.852047,50.03796]]]}},{"type":"Feature","id":"w233374023","properties":{"type":"yes","residential":true,"residents_est":4,"h3_10":"8a1e05b4d4f7fff","h3_11":"8b1e05b4d4f2fff"},"geometry":{"type":"Polygon","coordinates":[[[19.852184,50.037407],[19.852274,50.037274],[19.852378,50.037303],[19.852287,50.037436],[19.852184,50.037407]]]}},{"type":"Feature","id":"w233374134","properties":{"type":"yes","residential":true,"residents_est":2,"h3_10":"8a1e05b4d4d7fff","h3_11":"8b1e05b4d4d6fff"},"geometry":{"type":"Polygon","coordinates":[[[19.852532,50.036685],[19.85259,50.03659],[19.852682,50.036615],[19.85263,50.036694],[19.852594,50.036684],[19.852585,50.036699],[19.852532,50.036685]]]}},{"type":"Feature","id":"w233374841","properties":{"type":"yes","address":"Falista 42","residential":true,"residents_est":1,"h3_10":"8a1e05b4d4d7fff","h3_11":"8b1e05b4d4d0fff"},"geometry":{"type":"Polygon","coordinates":[[[19.852672,50.036724],[19.852716,50.036658],[19.852794,50.036679],[19.85275,50.036745],[19.852672,50.036724]]]}},{"type":"Feature","id":"w233376707","properties":{"type":"yes","address":"Falista 40","residential":true,"residents_est":3,"h3_10":"8a1e05b4d4d7fff","h3_11":"8b1e05b4d4d6fff"},"geometry":{"type":"Polygon","coordinates":[[[19.852442,50.036642],[19.852491,50.036564],[19.85259,50.03659],[19.852532,50.036685],[19.852491,50.036673],[19.8525,50.036657],[19.852442,50.036642]]]}},{"type":"Feature","id":"w233377330","properties":{"type":"yes","address":"Falista 44","residential":true,"residents_est":4,"h3_10":"8a1e05b4d4f7fff","h3_11":"8b1e05b4d4f2fff"},"geometry":{"type":"Polygon","coordinates":[[[19.852226,50.037147],[19.852257,50.037086],[19.85227,50.037089],[19.852296,50.037038],[19.852427,50.037066],[19.852399,50.037121],[19.852372,50.037115],[19.852342,50.037172],[19.852226,50.037147]]]}},{"type":"Feature","id":"w428854809","properties":{"type":"yes","address":"Krzewowa 100E","residential":true,"residents_est":2,"h3_10":"8a1e05b4d4d7fff","h3_11":"8b1e05b4d4d3fff"},"geometry":{"type":"Polygon","coordinates":[[[19.853146,50.036401],[19.853166,50.036372],[19.853314,50.036414],[19.853273,50.036475],[19.853151,50.036441],[19.853173,50.036409],[19.853146,50.036401]]]}},{"type":"Feature","id":"w428854810","properties":{"type":"yes","address":"Krzewowa 100C","residential":true,"residents_est":3,"h3_10":"8a1e05b4d4d7fff","h3_11":"8b1e05b4d4d3fff"},"geometry":{"type":"Polygon","coordinates":[[[19.853347,50.036105],[19.853367,50.036075],[19.853516,50.036117],[19.853474,50.036179],[19.853352,50.036144],[19.853374,50.036112],[19.853347,50.036105]]]}},{"type":"Feature","id":"w428854811","properties":{"type":"yes","address":"Krzewowa 78","residential":true,"residents_est":6,"h3_10":"8a1e05b4d4f7fff","h3_11":"8b1e05b4d4f1fff"},"geometry":{"type":"Polygon","coordinates":[[[19.852993,50.037856],[19.853056,50.037777],[19.853011,50.037762],[19.853053,50.037709],[19.853218,50.037765],[19.853113,50.037896],[19.852993,50.037856]]]}},{"type":"Feature","id":"w677927387","properties":{"type":"yes","address":"Krzewowa 58A","residential":true,"residents_est":4,"h3_10":"8a1e05b4d4dffff","h3_11":"8b1e05b4d4ddfff"},"geometry":{"type":"Polygon","coordinates":[[[19.855178,50.036481],[19.855242,50.036394],[19.855252,50.036397],[19.855274,50.036368],[19.855379,50.0364],[19.855357,50.036429],[19.855365,50.036431],[19.855301,50.036518],[19.855178,50.036481]]]}},{"type":"Feature","id":"w677927389","properties":{"type":"yes","address":"Krzewowa 60B","residential":true,"residents_est":4,"h3_10":"8a1e05b4d4c7fff","h3_11":"8b1e05b4d4c3fff"},"geometry":{"type":"Polygon","coordinates":[[[19.854562,50.036904],[19.854655,50.036786],[19.854713,50.036804],[19.854709,50.036809],[19.854754,50.036817],[19.85466,50.036936],[19.854562,50.036904]]]}},{"type":"Feature","id":"w677927391","properties":{"type":"yes","address":"Krzewowa 58B","residential":true,"residents_est":3,"h3_10":"8a1e05b4d4dffff","h3_11":"8b1e05b4d4ddfff"},"geometry":{"type":"Polygon","coordinates":[[[19.85501,50.036737],[19.855088,50.036636],[19.855183,50.036666],[19.855104,50.036767],[19.85501,50.036737]]]}},{"type":"Feature","id":"w677927392","properties":{"type":"yes","address":"Krzewowa 58","residential":true,"residents_est":4,"h3_10":"8a1e05b4d4dffff","h3_11":"8b1e05b4d4d9fff"},"geometry":{"type":"Polygon","coordinates":[[[19.855368,50.036211],[19.855438,50.036126],[19.855448,50.036129],[19.855471,50.036101],[19.855573,50.036137],[19.85555,50.036165],[19.855557,50.036167],[19.855487,50.036252],[19.855368,50.036211]]]}},{"type":"Feature","id":"w677927393","properties":{"type":"yes","address":"Krzewowa 56","residential":true,"residents_est":7,"h3_10":"8a1e05b4d4dffff","h3_11":"8b1e05b4d4d9fff"},"geometry":{"type":"Polygon","coordinates":[[[19.855536,50.036343],[19.855651,50.036206],[19.855806,50.036259],[19.855691,50.036397],[19.855536,50.036343]]]}},{"type":"Feature","id":"w703326237","properties":{"type":"yes","residential":false,"residents_est":0,"h3_10":"8a1e05b4d4d7fff","h3_11":"8b1e05b4d4d2fff"},"geometry":{"type":"Polygon","coordinates":[[[19.852618,50.03645],[19.85265,50.036418],[19.852728,50.036443],[19.852702,50.036476],[19.852618,50.03645]]]}},{"type":"Feature","id":"w703326238","properties":{"type":"yes","address":"Krzewowa 100B","residential":true,"residents_est":2,"h3_10":"8a1e05b4d4d7fff","h3_11":"8b1e05b4d4d3fff"},"geometry":{"type":"Polygon","coordinates":[[[19.853367,50.036075],[19.853387,50.036046],[19.853414,50.036054],[19.853435,50.036022],[19.853557,50.036056],[19.853516,50.036117],[19.853367,50.036075]]]}},{"type":"Feature","id":"w703326239","properties":{"type":"yes","address":"Krzewowa 100D","residential":true,"residents_est":3,"h3_10":"8a1e05b4d4d7fff","h3_11":"8b1e05b4d4d3fff"},"geometry":{"type":"Polygon","coordinates":[[[19.853166,50.036372],[19.853186,50.036342],[19.853212,50.03635],[19.853234,50.036318],[19.853356,50.036352],[19.853314,50.036414],[19.853166,50.036372]]]}},{"type":"Feature","id":"w718819986","properties":{"type":"yes","residential":false,"residents_est":0,"h3_10":"8a1e05b4d4f7fff","h3_11":"8b1e05b4d4f6fff"},"geometry":{"type":"Polygon","coordinates":[[[19.851746,50.037789],[19.85179,50.037705],[19.851842,50.037716],[19.851798,50.0378],[19.851746,50.037789]]]}},{"type":"Feature","id":"w895228486","properties":{"type":"yes","address":"Krzewowa 56B","residential":true,"residents_est":5,"h3_10":"8a1e05b4d4c7fff","h3_11":"8b1e05b4d4c1fff"},"geometry":{"type":"Polygon","coordinates":[[[19.85475,50.037346],[19.854834,50.037251],[19.854847,50.037255],[19.854867,50.037233],[19.854854,50.037228],[19.854882,50.037197],[19.854978,50.037233],[19.854968,50.037233],[19.854946,50.037258],[19.854953,50.037261],[19.854846,50.037381],[19.85475,50.037346]]]}},{"type":"Feature","id":"w895228487","properties":{"type":"yes","address":"Krzewowa 74","residential":true,"residents_est":4,"h3_10":"8a1e05b4d4d7fff","h3_11":"8b1e05b4d4d1fff"},"geometry":{"type":"Polygon","coordinates":[[[19.853858,50.036815],[19.853978,50.036648],[19.854063,50.036673],[19.853943,50.03684],[19.853858,50.036815]]]}},{"type":"Feature","id":"w989449883","properties":{"type":"yes","address":"Krzewowa 56A","residential":true,"residents_est":4,"h3_10":"8a1e05b4d4c7fff","h3_11":"8b1e05b4d4c3fff"},"geometry":{"type":"Polygon","coordinates":[[[19.854984,50.037085],[19.855092,50.036954],[19.855196,50.03699],[19.855088,50.03712],[19.854984,50.037085]]]}},{"type":"Feature","id":"w1039863697","properties":{"type":"detached","levels":2.0,"address":"Krzewowa 56","residential":true,"residents_est":9,"h3_10":"8a1e05b4d4c7fff","h3_11":"8b1e05b4d4c4fff"},"geometry":{"type":"Polygon","coordinates":[[[19.854246,50.037851],[19.854371,50.037717],[19.854472,50.037756],[19.854347,50.03789],[19.854246,50.037851]]]}},{"type":"Feature","id":"w1255725754","properties":{"type":"yes","address":"Krzewowa 76","residential":true,"residents_est":3,"h3_10":"8a1e05b4d4c7fff","h3_11":"8b1e05b4d4c6fff"},"geometry":{"type":"Polygon","coordinates":[[[19.853283,50.037361],[19.853319,50.037305],[19.853499,50.037354],[19.853462,50.03741],[19.853283,50.037361]]]}},{"type":"Feature","id":"w1255725755","properties":{"type":"yes","address":"Krzewowa 74B","residential":true,"residents_est":8,"h3_10":"8a1e05b4d4d7fff","h3_11":"8b1e05b4d4d5fff"},"geometry":{"type":"Polygon","coordinates":[[[19.853506,50.037038],[19.853591,50.036921],[19.853839,50.036996],[19.853784,50.037072],[19.853689,50.037043],[19.853659,50.037084],[19.853506,50.037038]]]}}]}