{"type":"FeatureCollection","features":[{"type":"Feature","id":"w155654457","properties":{"type":"yes","residential":true,"residents_est":2,"h3_10":"8a1e2e68e107fff","h3_11":"8b1e2e68e100fff"},"geometry":{"type":"Polygon","coordinates":[[[20.050617,50.030595],[20.050637,50.030514],[20.050828,50.030502],[20.050842,50.030587],[20.050664,50.030593],[20.05066,50.030599],[20.050617,50.030595]]]}},{"type":"Feature","id":"w155654504","properties":{"type":"yes","residential":true,"residents_est":1,"h3_10":"8a1e2e68e10ffff","h3_11":"8b1e2e68e109fff"},"geometry":{"type":"Polygon","coordinates":[[[20.052839,50.029992],[20.052974,50.029987],[20.052984,50.030101],[20.052849,50.030106],[20.052839,50.029992]]]}},{"type":"Feature","id":"w155654575","properties":{"type":"yes","residential":true,"residents_est":11,"h3_10":"8a1e2e68e027fff","h3_11":"8b1e2e68e021fff"},"geometry":{"type":"Polygon","coordinates":[[[20.052691,50.028879],[20.053319,50.028858],[20.053324,50.028936],[20.052695,50.028958],[20.052691,50.028879]]]}},{"type":"Feature","id":"w155654607","properties":{"type":"yes","residential":true,"residents_est":15,"h3_10":"8a1e2e68e027fff","h3_11":"8b1e2e68e024fff"},"geometry":{"type":"Polygon","coordinates":[[[20.052174,50.029484],[20.052303,50.029479],[20.052295,50.029391],[20.052351,50.029389],[20.052354,50.029427],[20.052391,50.029426],[20.052419,50.029756],[20.052198,50.029764],[20.052174,50.029484]]]}},{"type":"Feature","id":"w155654618","properties":{"type":"yes","residential":true,"residents_est":45,"h3_10":"8a1e2e68e187fff","h3_11":"8b1e2e68e180fff"},"geometry":{"type":"Polygon","coordinates":[[[20.047456,50.027794],[20.048285,50.027767],[20.048305,50.028016],[20.047476,50.028043],[20.047456,50.027794]]]}},{"type":"Feature","id":"w155654678","properties":{"type":"yes","residential":true,"residents_est":38,"h3_10":"8a1e2e68e187fff","h3_11":"8b1e2e68e184fff"},"geometry":{"type":"Polygon","coordinates":[[[20.047436,50.028267],[20.048152,50.028242],[20.048173,50.028483],[20.047455,50.028508],[20.047436,50.028267]]]}},{"type":"Feature","id":"w155654724","properties":{"type":"yes","address":"Mariana Domagały 21","residential":true,"residents_est":7,"h3_10":"8a1e2e68e037fff","h3_11":"8b1e2e68e034fff"},"geometry":{"type":"Polygon","coordinates":[[[20.050593,50.028786],[20.050871,50.028709],[20.050936,50.028812],[20.050658,50.028886],[20.050593,50.028786]]]}},{"type":"Feature","id":"w155654867","properties":{"type":"yes","residential":true,"residents_est":24,"h3_10":"8a1e2e68e027fff","h3_11":"8b1e2e68e025fff"},"geometry":{"type":"Polygon","coordinates":[[[20.052705,50.029073],[20.053336,50.029048],[20.053351,50.029226],[20.052722,50.029252],[20.052705,50.029073]]]}},{"type":"Feature","id":"w155654960","properties":{"type":"yes","address":"Mariana Domagały 11","residential":true,"residents_est":49,"h3_10":"8a1e2e68e137fff","h3_11":"8b1e2e68e132fff"},"geometry":{"type":"Polygon","coordinates":[[[20.048163,50.030428],[20.049055,50.030401],[20.049073,50.030652],[20.048184,50.030683],[20.048163,50.030428]]]}},{"type":"Feature","id":"w155654972","properties":{"type":"yes","address":"Mariana Domagały 1A","residential":true,"residents_est":22,"h3_10":"8a1e2e68e107fff","h3_11":"8b1e2e68e102fff"},"geometry":{"type":"Polygon","coordinates":[[[20.049823,50.030151],[20.050418,50.030131],[20.050431,50.030295],[20.049837,50.030317],[20.049823,50.030151]]]}},{"type":"Feature","id":"w155655013","properties":{"type":"yes","residential":true,"residents_est":258,"h3_10":"8a1e2e68e127fff","h3_11":"8b1e2e68e124fff"},"geometry":{"type":"Polygon","coordinates":[[[20.0492,50.031335],[20.050254,50.031302],[20.05034,50.03243],[20.049286,50.032463],[20.0492,50.031335]]]}},{"type":"Feature","id":"w155655020","properties":{"type":"yes","address":"Mariana Domagały 19","residential":true,"residents_est":40,"h3_10":"8a1e2e68e197fff","h3_11":"8b1e2e68e195fff"},"geometry":{"type":"Polygon","coordinates":[[[20.046439,50.027291],[20.046699,50.027281],[20.046762,50.027991],[20.046502,50.028001],[20.046439,50.027291]]]}},{"type":"Feature","id":"w155655074","properties":{"type":"yes","residential":true,"residents_est":56,"h3_10":"8a1e2e68e027fff","h3_11":"8b1e2e68e023fff"},"geometry":{"type":"Polygon","coordinates":[[[20.052653,50.02848],[20.053822,50.028442],[20.053843,50.028661],[20.052666,50.0287],[20.052653,50.02848]]]}},{"type":"Feature","id":"w155655093","properties":{"type":"yes","address":"Mariana Domagały 23A","residential":true,"residents_est":25,"h3_10":"8a1e2e68e037fff","h3_11":"8b1e2e68e032fff"},"geometry":{"type":"Polygon","coordinates":[[[20.050567,50.027755],[20.050828,50.027748],[20.050863,50.028183],[20.050601,50.028192],[20.050567,50.027755]]]}},{"type":"Feature","id":"w155655156","properties":{"type":"yes","residential":true,"residents_est":71,"h3_10":"8a1e2e68e117fff","h3_11":"8b1e2e68e114fff"},"geometry":{"type":"Polygon","coordinates":[[[20.047607,50.029852],[20.049457,50.029786],[20.049473,50.029975],[20.049299,50.029981],[20.049297,50.029956],[20.047763,50.030012],[20.047775,50.030142],[20.047629,50.030146],[20.047607,50.029852]]]}},{"type":"Feature","id":"w155655177","properties":{"type":"yes","residential":true,"residents_est":27,"h3_10":"8a1e2e68e137fff","h3_11":"8b1e2e68e131fff"},"geometry":{"type":"Polygon","coordinates":[[[20.049471,50.030817],[20.050144,50.030794],[20.05016,50.030978],[20.049488,50.031003],[20.049471,50.030817]]]}},{"type":"Feature","id":"w155655213","properties":{"type":"yes","residential":true,"residents_est":7,"h3_10":"8a1e2e68e1a7fff","h3_11":"8b1e2e68e1a0fff"},"geometry":{"type":"Polygon","coordinates":[[[20.047503,50.028799],[20.047664,50.028791],[20.047691,50.029001],[20.047529,50.029009],[20.047503,50.028799]]]}},{"type":"Feature","id":"w155655231","properties":{"type":"yes","residential":true,"residents_est":24,"h3_10":"8a1e2e68e027fff","h3_11":"8b1e2e68e025fff"},"geometry":{"type":"Polygon","coordinates":[[[20.052774,50.029476],[20.052794,50.029476],[20.052791,50.029437],[20.052964,50.029431],[20.052962,50.029415],[20.053009,50.029413],[20.053011,50.02943],[20.053732,50.029405],[20.053743,50.029519],[20.052801,50.029554],[20.052796,50.029497],[20.052776,50.029497],[20.052774,50.029476]]]}},{"type":"Feature","id":"w155655256","properties":{"type":"yes","address":"Mariana Domagały 1","residential":true,"residents_est":23,"h3_10":"8a1e2e68e10ffff","h3_11":"8b1e2e68e10efff"},"geometry":{"type":"Polygon","coordinates":[[[20.051252,50.02994],[20.051424,50.029933],[20.051428,50.029989],[20.051399,50.029989],[20.051404,50.030039],[20.051432,50.030038],[20.051459,50.030371],[20.05143,50.030372],[20.051434,50.03042],[20.051463,50.030418],[20.051475,50.030586],[20.051309,50.030591],[20.051252,50.02994]]]}},{"type":"Feature","id":"w155655403","properties":{"type":"yes","address":"Mariana Domagały 13","residential":true,"residents_est":54,"h3_10":"8a1e2e68e117fff","h3_11":"8b1e2e68e110fff"},"geometry":{"type":"Polygon","coordinates":[[[20.047984,50.029606],[20.049701,50.02955],[20.049713,50.029688],[20.048616,50.029726],[20.048622,50.02978],[20.048451,50.029787],[20.048447,50.029731],[20.047997,50.029748],[20.047984,50.029606]]]}},{"type":"Feature","id":"w155655488","properties":{"type":"yes","address":"Mariana Domagały 3","residential":true,"residents_est":9,"h3_10":"8a1e2e68e12ffff","h3_11":"8b1e2e68e12afff"},"geometry":{"type":"Polygon","coordinates":[[[20.051165,50.030733],[20.051336,50.030727],[20.051342,50.030793],[20.051364,50.030792],[20.05137,50.030851],[20.05136,50.030852],[20.051366,50.030918],[20.051398,50.030916],[20.051401,50.030954],[20.051232,50.03096],[20.05123,50.030924],[20.051196,50.030923],[20.051165,50.030733]]]}},{"type":"Feature","id":"w155655504","properties":{"type":"yes","address":"Mariana Domagały 17","residential":true,"residents_est":34,"h3_10":"8a1e2e68e11ffff","h3_11":"8b1e2e68e11efff"},"geometry":{"type":"Polygon","coordinates":[[[20.049695,50.02949],[20.050056,50.029475],[20.050022,50.029038],[20.050199,50.029031],[20.050252,50.029693],[20.050081,50.029697],[20.05007,50.029587],[20.049705,50.029601],[20.049695,50.02949]]]}},{"type":"Feature","id":"w229682466","properties":{"type":"yes","residential":true,"residents_est":12,"h3_10":"8a1e2e68e0dffff","h3_11":"8b1e2e68e0dcfff"},"geometry":{"type":"Polygon","coordinates":[[[20.054877,50.024541],[20.055136,50.02453],[20.055135,50.024509],[20.055169,50.024508],[20.055173,50.02453],[20.055386,50.024522],[20.055398,50.024629],[20.05519,50.024638],[20.05519,50.024648],[20.055099,50.024652],[20.055099,50.024642],[20.054891,50.02465],[20.054877,50.024541]]]}},{"type":"Feature","id":"w229685898","properties":{"type":"office","levels":2.0,"residential":false,"residents_est":0,"h3_10":"8a1e2e68e14ffff","h3_11":"8b1e2e68e148fff"},"geometry":{"type":"Polygon","coordinates":[[[20.057147,50.030026],[20.057249,50.030022],[20.05727,50.030351],[20.05717,50.030353],[20.057147,50.030026]]]}},{"type":"Feature","id":"w229685901","properties":{"type":"yes","residential":true,"residents_est":7,"h3_10":"8a1e2e68e067fff","h3_11":"8b1e2e68e064fff"},"geometry":{"type":"Polygon","coordinates":[[[20.057107,50.029472],[20.057208,50.029469],[20.05723,50.029797],[20.057131,50.029799],[20.057107,50.029472]]]}},{"type":"Feature","id":"w229685902","properties":{"type":"yes","residential":true,"residents_est":7,"h3_10":"8a1e2e68e14ffff","h3_11":"8b1e2e68e14cfff"},"geometry":{"type":"Polygon","coordinates":[[[20.057176,50.030427],[20.057276,50.030424],[20.0573,50.030751],[20.057199,50.030755],[20.057176,50.030427]]]}},{"type":"Feature","id":"w229685904","properties":{"type":"yes","residential":true,"residents_est":7,"h3_10":"8a1e2e68e16ffff","h3_11":"8b1e2e68e169fff"},"geometry":{"type":"Polygon","coordinates":[[[20.057215,50.03098],[20.057315,50.030978],[20.057339,50.031306],[20.057238,50.031309],[20.057215,50.03098]]]}},{"type":"Feature","id":"w229685906","properties":{"type":"industrial","residential":false,"residents_est":0,"h3_10":"8a1e2e68e14ffff","h3_11":"8b1e2e68e148fff"},"geometry":{"type":"Polygon","coordinates":[[[20.057246,50.029986],[20.058259,50.029956],[20.058288,50.030357],[20.057273,50.030386],[20.057246,50.029986]]]}},{"type":"Feature","id":"w229685907","properties":{"type":"yes","residential":true,"residents_est":89,"h3_10":"8a1e2e68e14ffff","h3_11":"8b1e2e68e14dfff"},"geometry":{"type":"Polygon","coordinates":[[[20.057273,50.030386],[20.058288,50.030357],[20.058318,50.030758],[20.057302,50.030789],[20.057273,50.030386]]]}},{"type":"Feature","id":"w229685908","properties":{"type":"yes","residential":true,"residents_est":89,"h3_10":"8a1e2e68e16ffff","h3_11":"8b1e2e68e169fff"},"geometry":{"type":"Polygon","coordinates":[[[20.057313,50.03094],[20.058327,50.030911],[20.058356,50.031311],[20.057341,50.031342],[20.057313,50.03094]]]}},{"type":"Feature","id":"w229685909","properties":{"type":"yes","residential":true,"residents_est":88,"h3_10":"8a1e2e68e14ffff","h3_11":"8b1e2e68e14bfff"},"geometry":{"type":"Polygon","coordinates":[[[20.057208,50.029432],[20.058218,50.029402],[20.058245,50.029803],[20.057236,50.029832],[20.057208,50.029432]]]}},{"type":"Feature","id":"w229688823","properties":{"type":"yes","residential":true,"residents_est":29,"h3_10":"8a1e2e68e067fff","h3_11":"8b1e2e68e066fff"},"geometry":{"type":"Polygon","coordinates":[[[20.056885,50.029037],[20.057487,50.029017],[20.057505,50.029241],[20.056903,50.02926],[20.056885,50.029037]]]}},{"type":"Feature","id":"w229688825","properties":{"type":"yes","residential":true,"residents_est":127,"h3_10":"8a1e2e68e02ffff","h3_11":"8b1e2e68e02dfff"},"geometry":{"type":"Polygon","coordinates":[[[20.054376,50.029016],[20.05616,50.02895],[20.056189,50.029278],[20.054405,50.029344],[20.054376,50.029016]]]}},{"type":"Feature","id":"r3079607","properties":{"type":"yes","residential":true,"residents_est":818,"h3_10":"8a1e2e68e147fff","h3_11":"8b1e2e68e140fff"},"geometry":{"type":"Polygon","coordinates":[[[20.054431,50.02961],[20.056214,50.029548],[20.056405,50.031762],[20.054627,50.031825],[20.054431,50.02961]],[[20.054771,50.031557],[20.054782,50.031682],[20.056221,50.031631],[20.05621,50.031505],[20.054771,50.031557]]]}},{"type":"Feature","id":"w229766634","properties":{"type":"yes","residential":true,"residents_est":2,"h3_10":"8a1e2e68e11ffff","h3_11":"8b1e2e68e11bfff"},"geometry":{"type":"Polygon","coordinates":[[[20.050948,50.028884],[20.051031,50.028881],[20.051049,50.029098],[20.050964,50.029101],[20.050948,50.028884]]]}},{"type":"Feature","id":"w229766635","properties":{"type":"yes","residential":true,"residents_est":1,"h3_10":"8a1e2e68e11ffff","h3_11":"8b1e2e68e11bfff"},"geometry":{"type":"Polygon","coordinates":[[[20.051118,50.028883],[20.051203,50.02888],[20.051211,50.028984],[20.051126,50.028986],[20.051118,50.028883]]]}},{"type":"Feature","id":"w229766637","properties":{"type":"yes","address":"Mariana Domagały 13","residential":true,"residents_est":42,"h3_10":"8a1e2e68e1affff","h3_11":"8b1e2e68e1adfff"},"geometry":{"type":"Polygon","coordinates":[[[20.049623,50.028678],[20.049865,50.02867],[20.049935,50.029479],[20.049695,50.02949],[20.049623,50.028678]]]}},{"type":"Feature","id":"w229766638","properties":{"type":"yes","residential":true,"residents_est":8,"h3_10":"8a1e2e68e1a7fff","h3_11":"8b1e2e68e1a5fff"},"geometry":{"type":"Polygon","coordinates":[[[20.047668,50.029131],[20.047843,50.029125],[20.047862,50.029343],[20.047684,50.02935],[20.047668,50.029131]]]}},{"type":"Feature","id":"w229766639","properties":{"type":"yes","address":"Mariana Domagały 15A","residential":false,"residents_est":0,"h3_10":"8a1e2e68e107fff","h3_11":"8b1e2e68e102fff"},"geometry":{"type":"Polygon","coordinates":[[[20.049973,50.029868],[20.050058,50.029865],[20.050062,50.029923],[20.049977,50.029925],[20.049973,50.029868]]]}},{"type":"Feature","id":"w229766642","properties":{"type":"yes","residential":true,"residents_est":0,"h3_10":"8a1e2e68e1affff","h3_11":"8b1e2e68e1aefff"},"geometry":{"type":"Polygon","coordinates":[[[20.048686,50.028606],[20.048861,50.028598],[20.048864,50.028649],[20.04869,50.028656],[20.048686,50.028606]]]}},{"type":"Feature","id":"w229766647","properties":{"type":"yes","residential":true,"residents_est":1,"h3_10":"8a1e2e68e037fff","h3_11":"8b1e2e68e034fff"},"geometry":{"type":"Polygon","coordinates":[[[20.051096,50.02872],[20.051186,50.028716],[20.051192,50.028773],[20.051102,50.028776],[20.051096,50.02872]]]}},{"type":"Feature","id":"w229766648","properties":{"type":"yes","residential":false,"residents_est":0,"h3_10":"8a1e2e68e117fff","h3_11":"8b1e2e68e114fff"},"geometry":{"type":"Polygon","coordinates":[[[20.048551,50.029986],[20.048718,50.02998],[20.04872,50.030006],[20.048553,50.030012],[20.048551,50.029986]]]}},{"type":"Feature","id":"w229766650","properties":{"type":"yes","address":"Mariana Domagały 23","residential":true,"residents_est":9,"h3_10":"8a1e2e68e037fff","h3_11":"8b1e2e68e032fff"},"geometry":{"type":"Polygon","coordinates":[[[20.051033,50.027861],[20.051223,50.027853],[20.051244,50.028064],[20.051054,50.028071],[20.051033,50.027861]]]}},{"type":"Feature","id":"w229766651","properties":{"type":"yes","residential":true,"residents_est":0,"h3_10":"8a1e2e68e1affff","h3_11":"8b1e2e68e1aefff"},"geometry":{"type":"Polygon","coordinates":[[[20.048861,50.028598],[20.048965,50.02859],[20.048974,50.028644],[20.048864,50.028649],[20.048861,50.028598]]]}},{"type":"Feature","id":"w229766652","properties":{"type":"yes","residential":true,"residents_est":3,"h3_10":"8a1e2e68e1a7fff","h3_11":"8b1e2e68e1a5fff"},"geometry":{"type":"Polygon","coordinates":[[[20.047533,50.029349],[20.047804,50.029352],[20.047796,50.029456],[20.047542,50.02946],[20.047533,50.029349]]]}},{"type":"Feature","id":"w229766655","properties":{"type":"yes","residential":true,"residents_est":3,"h3_10":"8a1e2e68e117fff","h3_11":"8b1e2e68e116fff"},"geometry":{"type":"Polygon","coordinates":[[[20.047997,50.029748],[20.048447,50.029731],[20.048451,50.029787],[20.048263,50.029795],[20.048261,50.029783],[20.048191,50.029787],[20.048192,50.029794],[20.048001,50.029801],[20.047997,50.029748]]]}},{"type":"Feature","id":"w229766656","properties":{"type":"yes","residential":false,"residents_est":0,"h3_10":"8a1e2e68e037fff","h3_11":"8b1e2e68e034fff"},"geometry":{"type":"Polygon","coordinates":[[[20.051073,50.028654],[20.051134,50.028651],[20.051146,50.028642],[20.051166,50.028642],[20.051183,50.028651],[20.051184,50.028664],[20.05117,50.028674],[20.051075,50.028677],[20.051073,50.028654]]]}},{"type":"Feature","id":"w229766657","properties":{"type":"yes","residential":true,"residents_est":1,"h3_10":"8a1e2e68e11ffff","h3_11":"8b1e2e68e11bfff"},"geometry":{"type":"Polygon","coordinates":[[[20.051102,50.028776],[20.051192,50.028773],[20.051197,50.028824],[20.051205,50.028824],[20.051208,50.02888],[20.051113,50.028883],[20.051102,50.028776]]]}},{"type":"Feature","id":"w229768876","properties":{"type":"yes","residential":true,"residents_est":0,"h3_10":"8a1e2e68e107fff","h3_11":"8b1e2e68e101fff"},"geometry":{"type":"Polygon","coordinates":[[[20.050827,50.030492],[20.050919,50.030487],[20.050932,50.030573],[20.050925,50.030573],[20.050927,50.030586],[20.050843,50.030595],[20.050827,50.030492]]]}},{"type":"Feature","id":"w229768877","properties":{"type":"yes","residential":true,"residents_est":2,"h3_10":"8a1e2e68e107fff","h3_11":"8b1e2e68e105fff"},"geometry":{"type":"Polygon","coordinates":[[[20.050888,50.030766],[20.050937,50.030764],[20.05093,50.030692],[20.051049,50.03069],[20.051055,50.03076],[20.051009,50.030762],[20.051015,50.030824],[20.051065,50.030822],[20.051068,50.030856],[20.050946,50.030861],[20.050943,50.030831],[20.050895,50.030833],[20.050888,50.030766]]]}},{"type":"Feature","id":"w229768883","properties":{"type":"yes","address":"Mariana Domagały 1B","residential":true,"residents_est":13,"h3_10":"8a1e2e68e107fff","h3_11":"8b1e2e68e103fff"},"geometry":{"type":"Polygon","coordinates":[[[20.050717,50.030125],[20.051267,50.030105],[20.051276,50.030213],[20.050727,50.030231],[20.050717,50.030125]]]}},{"type":"Feature","id":"w229768884","properties":{"type":"yes","address":"Mariana Domagały 5","residential":true,"residents_est":30,"h3_10":"8a1e2e68e137fff","h3_11":"8b1e2e68e133fff"},"geometry":{"type":"Polygon","coordinates":[[[20.049158,50.03015],[20.049329,50.030144],[20.049399,50.030956],[20.049229,50.030962],[20.049158,50.03015]]]}},{"type":"Feature","id":"w229768885","properties":{"type":"yes","address":"Mariana Domagały 9","residential":true,"residents_est":2,"h3_10":"8a1e2e68e117fff","h3_11":"8b1e2e68e115fff"},"geometry":{"type":"Polygon","coordinates":[[[20.049335,50.030214],[20.049504,50.030208],[20.049506,50.030239],[20.04953,50.030239],[20.049535,50.030298],[20.049343,50.030305],[20.049335,50.030214]]]}},{"type":"Feature","id":"w229768886","properties":{"type":"yes","residential":true,"residents_est":27,"h3_10":"8a1e2e68e107fff","h3_11":"8b1e2e68e105fff"},"geometry":{"type":"Polygon","coordinates":[[[20.050259,50.030706],[20.05068,50.030688],[20.050691,50.0308],[20.050677,50.0308],[20.050683,50.030865],[20.050733,50.030863],[20.050745,50.030976],[20.050286,50.030994],[20.050259,50.030706]]]}},{"type":"Feature","id":"w266522036","properties":{"type":"yes","residential":true,"residents_est":47,"h3_10":"8a1e2e68e0cffff","h3_11":"8b1e2e68e0cbfff"},"geometry":{"type":"Polygon","coordinates":[[[20.057193,50.024464],[20.058145,50.024423],[20.058168,50.024648],[20.057216,50.024689],[20.057193,50.024464]]]}},{"type":"Feature","id":"w271649001","properties":{"type":"yes","address":"Mariana Domagały 15A","residential":true,"residents_est":1,"h3_10":"8a1e2e68e107fff","h3_11":"8b1e2e68e102fff"},"geometry":{"type":"Polygon","coordinates":[[[20.050058,50.029865],[20.050271,50.029858],[20.050275,50.029916],[20.050062,50.029923],[20.050058,50.029865]]]}},{"type":"Feature","id":"w271649003","properties":{"type":"commercial","levels":1.0,"address":"Mariana Domagały 23","residential":false,"residents_est":0,"h3_10":"8a1e2e68e037fff","h3_11":"8b1e2e68e030fff"},"geometry":{"type":"Polygon","coordinates":[[[20.051054,50.028071],[20.051244,50.028064],[20.051282,50.028371],[20.051084,50.028378],[20.051054,50.028071]]]}},{"type":"Feature","id":"w271649005","properties":{"type":"yes","address":"Mariana Domagały 5","residential":true,"residents_est":13,"h3_10":"8a1e2e68e107fff","h3_11":"8b1e2e68e106fff"},"geometry":{"type":"Polygon","coordinates":[[[20.049343,50.030305],[20.049535,50.030298],[20.049552,50.030498],[20.049588,50.030497],[20.049597,50.030595],[20.049368,50.030603],[20.049343,50.030305]]]}},{"type":"Feature","id":"w337813922","properties":{"type":"yes","residential":false,"residents_est":0,"h3_10":"8a1e2e68e12ffff","h3_11":"8b1e2e68e12bfff"},"geometry":{"type":"Polygon","coordinates":[[[20.052224,50.030842],[20.052319,50.030842],[20.05232,50.030891],[20.052225,50.030892],[20.052224,50.030842]]]}},{"type":"Feature","id":"w340462059","properties":{"type":"yes","address":"Mariana Domagały 25","name":"GoKarting Center","residential":true,"residents_est":97,"h3_10":"8a1e2e68e18ffff","h3_11":"8b1e2e68e18afff"},"geometry":{"type":"Polygon","coordinates":[[[20.049066,50.027094],[20.050249,50.027052],[20.050279,50.027432],[20.049101,50.027473],[20.049066,50.027094]]]}},{"type":"Feature","id":"w340462073","properties":{"type":"yes","residential":true,"residents_est":2,"h3_10":"8a1e2e68e1b7fff","h3_11":"8b1e2e68e1b1fff"},"geometry":{"type":"Polygon","coordinates":[[[20.046651,50.028331],[20.046731,50.028328],[20.046746,50.028541],[20.046667,50.028543],[20.046651,50.028331]]]}},{"type":"Feature","id":"w340462236","properties":{"type":"yes","residential":true,"residents_est":7,"h3_10":"8a1e2e68e187fff","h3_11":"8b1e2e68e182fff"},"geometry":{"type":"Polygon","coordinates":[[[20.047453,50.0274],[20.047798,50.027389],[20.047803,50.027444],[20.047712,50.027447],[20.047716,50.027505],[20.04746,50.027513],[20.047453,50.0274]]]}},{"type":"Feature","id":"w340462248","properties":{"type":"yes","residential":true,"residents_est":14,"h3_10":"8a1e2e68e18ffff","h3_11":"8b1e2e68e18bfff"},"geometry":{"type":"Polygon","coordinates":[[[20.050249,50.027052],[20.050593,50.02704],[20.050607,50.027207],[20.050355,50.027216],[20.05036,50.027269],[20.050303,50.027326],[20.050272,50.027327],[20.050249,50.027052]]]}},{"type":"Feature","id":"w340462258","properties":{"type":"yes","residential":true,"residents_est":3,"h3_10":"8a1e2e68e197fff","h3_11":"8b1e2e68e195fff"},"geometry":{"type":"Polygon","coordinates":[[[20.046738,50.027469],[20.046833,50.027465],[20.046836,50.027494],[20.04687,50.027493],[20.046873,50.027524],[20.046837,50.027526],[20.046857,50.02772],[20.046763,50.027724],[20.046738,50.027469]]]}},{"type":"Feature","id":"w346072937","properties":{"type":"yes","address":"Mariana Domagały 13","residential":true,"residents_est":374,"h3_10":"8a1e2e68e1a7fff","h3_11":"8b1e2e68e1a5fff"},"geometry":{"type":"Polygon","coordinates":[[[20.04762,50.029628],[20.047671,50.029626],[20.047662,50.029506],[20.047875,50.029499],[20.047801,50.028691],[20.049619,50.02862],[20.049701,50.02955],[20.047984,50.029606],[20.047979,50.029556],[20.047886,50.029559],[20.04789,50.029597],[20.047899,50.029596],[20.047907,50.029683],[20.047627,50.029694],[20.04762,50.029628]]]}},{"type":"Feature","id":"w480218995","properties":{"type":"yes","name":"Bufet u Tomiego","residential":false,"residents_est":0,"h3_10":"8a1e2e68e16ffff","h3_11":"8b1e2e68e16cfff"},"geometry":{"type":"Polygon","coordinates":[[[20.056277,50.031591],[20.056421,50.031586],[20.056419,50.031638],[20.056279,50.031646],[20.056277,50.031591]]]}},{"type":"Feature","id":"w618089588","properties":{"type":"residential","levels":5.0,"address":"Mariana Domagały 45B","residential":true,"residents_est":44,"h3_10":"8a1e2e68e09ffff","h3_11":"8b1e2e68e09afff"},"geometry":{"type":"Polygon","coordinates":[[[20.049898,50.023673],[20.049977,50.023672],[20.049977,50.023655],[20.05028,50.023651],[20.050281,50.023669],[20.050438,50.023667],[20.050438,50.023648],[20.050591,50.023646],[20.050594,50.023769],[20.049901,50.023777],[20.049898,50.023673]]]}},{"type":"Feature","id":"w649103867","properties":{"type":"apartments","levels":5.0,"address":"Mariana Domagały 31A","residential":true,"residents_est":42,"h3_10":"8a1e2e68e0a7fff","h3_11":"8b1e2e68e0a3fff"},"geometry":{"type":"Polygon","coordinates":[[[20.050283,50.025839],[20.050384,50.025835],[20.050382,50.025818],[20.050511,50.025813],[20.050525,50.025966],[20.050536,50.025965],[20.05054,50.026015],[20.05053,50.026015],[20.050544,50.026166],[20.050413,50.026171],[20.050411,50.026154],[20.050313,50.026158],[20.050283,50.025839]]]}},{"type":"Feature","id":"w649103868","properties":{"type":"apartments","address":"Mariana Domagały 31B","residential":true,"residents_est":24,"h3_10":"8a1e2e68e0a7fff","h3_11":"8b1e2e68e0a2fff"},"geometry":{"type":"Polygon","coordinates":[[[20.049845,50.025841],[20.050083,50.025831],[20.050088,50.02588],[20.05008,50.02588],[20.050095,50.026032],[20.049963,50.026038],[20.049961,50.026021],[20.049864,50.026025],[20.049845,50.025841]]]}},{"type":"Feature","id":"w649103869","properties":{"type":"apartments","levels":5.0,"address":"Mariana Domagały 31C","residential":true,"residents_est":25,"h3_10":"8a1e2e68e0a7fff","h3_11":"8b1e2e68e0a2fff"},"geometry":{"type":"Polygon","coordinates":[[[20.049415,50.025855],[20.049542,50.02585],[20.049544,50.025866],[20.049648,50.025862],[20.049664,50.026049],[20.049425,50.026058],[20.049421,50.026006],[20.049429,50.026005],[20.049415,50.025855]]]}},{"type":"Feature","id":"w649103870","properties":{"type":"apartments","levels":5.0,"address":"Mariana Domagały 31D","residential":true,"residents_est":24,"h3_10":"8a1e2e68e0b7fff","h3_11":"8b1e2e68e0b5fff"},"geometry":{"type":"Polygon","coordinates":[[[20.0487,50.025901],[20.0488,50.025897],[20.048798,50.02588],[20.048925,50.025875],[20.048938,50.026026],[20.048948,50.026025],[20.048952,50.026075],[20.048716,50.026083],[20.0487,50.025901]]]}},{"type":"Feature","id":"w649103871","properties":{"type":"apartments","levels":5.0,"address":"Mariana Domagały 31E","residential":true,"residents_est":24,"h3_10":"8a1e2e68e0b7fff","h3_11":"8b1e2e68e0b4fff"},"geometry":{"type":"Polygon","coordinates":[[[20.048257,50.025901],[20.048493,50.025892],[20.048511,50.026076],[20.048412,50.02608],[20.048413,50.026095],[20.048285,50.0261],[20.048271,50.02595],[20.048262,50.02595],[20.048257,50.025901]]]}},{"type":"Feature","id":"w649103872","properties":{"type":"apartments","address":"Mariana Domagały 31F","residential":true,"residents_est":42,"h3_10":"8a1e2e68e0b7fff","h3_11":"8b1e2e68e0b4fff"},"geometry":{"type":"Polygon","coordinates":[[[20.047832,50.025918],[20.04796,50.025913],[20.047961,50.025928],[20.04806,50.025925],[20.048089,50.026243],[20.04799,50.026247],[20.047991,50.026263],[20.047864,50.026267],[20.04785,50.026117],[20.047841,50.026117],[20.047837,50.026068],[20.047845,50.026068],[20.047832,50.025918]]]}},{"type":"Feature","id":"w649103873","properties":{"type":"apartments","levels":5.0,"address":"Mariana Domagały 29F","residential":true,"residents_est":24,"h3_10":"8a1e2e68e19ffff","h3_11":"8b1e2e68e19afff"},"geometry":{"type":"Polygon","coordinates":[[[20.047867,50.026401],[20.048103,50.026392],[20.04812,50.026575],[20.048019,50.026579],[20.048021,50.026595],[20.047894,50.026601],[20.04788,50.02645],[20.047872,50.02645],[20.047867,50.026401]]]}},{"type":"Feature","id":"w649103874","properties":{"type":"apartments","address":"Mariana Domagały 29E","residential":true,"residents_est":24,"h3_10":"8a1e2e68e19ffff","h3_11":"8b1e2e68e19bfff"},"geometry":{"type":"Polygon","coordinates":[[[20.048313,50.0264],[20.048412,50.026396],[20.04841,50.02638],[20.048538,50.026375],[20.048552,50.026526],[20.048561,50.026525],[20.048565,50.026575],[20.04833,50.026584],[20.048313,50.0264]]]}},{"type":"Feature","id":"w649103875","properties":{"type":"apartments","address":"Mariana Domagały 29D","residential":true,"residents_est":42,"h3_10":"8a1e2e68e19ffff","h3_11":"8b1e2e68e19bfff"},"geometry":{"type":"Polygon","coordinates":[[[20.04873,50.026233],[20.048829,50.026229],[20.048828,50.026213],[20.048956,50.026208],[20.048971,50.026359],[20.048979,50.026358],[20.048983,50.026407],[20.048974,50.026407],[20.048989,50.026558],[20.048859,50.026564],[20.048857,50.026547],[20.04876,50.026551],[20.04873,50.026233]]]}},{"type":"Feature","id":"w649103876","properties":{"type":"apartments","address":"Mariana Domagały 29C","residential":true,"residents_est":43,"h3_10":"8a1e2e68e0a7fff","h3_11":"8b1e2e68e0a6fff"},"geometry":{"type":"Polygon","coordinates":[[[20.049445,50.026187],[20.049578,50.026182],[20.049579,50.026199],[20.049677,50.026195],[20.049708,50.026516],[20.049607,50.02652],[20.049608,50.026535],[20.049479,50.02654],[20.049465,50.02639],[20.049457,50.02639],[20.049452,50.026338],[20.049459,50.026338],[20.049445,50.026187]]]}},{"type":"Feature","id":"w649103877","properties":{"type":"apartments","address":"Mariana Domagały 29B","residential":true,"residents_est":25,"h3_10":"8a1e2e68e0a7fff","h3_11":"8b1e2e68e0a0fff"},"geometry":{"type":"Polygon","coordinates":[[[20.049891,50.026321],[20.050023,50.026316],[20.050025,50.026332],[20.050122,50.026328],[20.05014,50.026514],[20.049903,50.026523],[20.049898,50.026474],[20.049906,50.026474],[20.049891,50.026321]]]}},{"type":"Feature","id":"w649103878","properties":{"type":"apartments","levels":5.0,"address":"Mariana Domagały 29A","residential":true,"residents_est":24,"h3_10":"8a1e2e68e0a7fff","h3_11":"8b1e2e68e0a1fff"},"geometry":{"type":"Polygon","coordinates":[[[20.050328,50.026306],[20.050564,50.026297],[20.050569,50.026347],[20.05056,50.026347],[20.050574,50.026497],[20.050446,50.026502],[20.050445,50.026486],[20.050345,50.02649],[20.050328,50.026306]]]}},{"type":"Feature","id":"w684027462","properties":{"type":"apartments","address":"Mariana Domagały 27C","residential":true,"residents_est":25,"h3_10":"8a1e2e68e0a7fff","h3_11":"8b1e2e68e0a4fff"},"geometry":{"type":"Polygon","coordinates":[[[20.049473,50.026678],[20.049705,50.026669],[20.049722,50.026871],[20.04959,50.026876],[20.049589,50.02686],[20.049489,50.026864],[20.049473,50.026678]]]}},{"type":"Feature","id":"w684027463","properties":{"type":"apartments","address":"Mariana Domagały 27B","residential":true,"residents_est":24,"h3_10":"8a1e2e68e0a7fff","h3_11":"8b1e2e68e0a4fff"},"geometry":{"type":"Polygon","coordinates":[[[20.04992,50.026689],[20.050151,50.026681],[20.050169,50.026883],[20.050038,50.026888],[20.050037,50.026872],[20.049937,50.026875],[20.04992,50.026689]]]}},{"type":"Feature","id":"w684027464","properties":{"type":"apartments","levels":5.0,"address":"Mariana Domagały 27A","residential":true,"residents_est":25,"h3_10":"8a1e2e68e0a7fff","h3_11":"8b1e2e68e0a5fff"},"geometry":{"type":"Polygon","coordinates":[[[20.050366,50.026732],[20.050597,50.026723],[20.050614,50.02691],[20.050515,50.026914],[20.050516,50.02693],[20.050385,50.026935],[20.050366,50.026732]]]}},{"type":"Feature","id":"w684027465","properties":{"type":"apartments","levels":5.0,"address":"Mariana Domagały 27","residential":true,"residents_est":25,"h3_10":"8a1e2e68e017fff","h3_11":"8b1e2e68e012fff"},"geometry":{"type":"Polygon","coordinates":[[[20.05086,50.026636],[20.051092,50.026628],[20.051108,50.026813],[20.051008,50.026817],[20.05101,50.026832],[20.050877,50.026837],[20.05086,50.026636]]]}},{"type":"Feature","id":"w684027466","properties":{"type":"apartments","levels":5.0,"address":"Mariana Domagały 29","residential":true,"residents_est":43,"h3_10":"8a1e2e68e0a7fff","h3_11":"8b1e2e68e0a1fff"},"geometry":{"type":"Polygon","coordinates":[[[20.050864,50.026134],[20.050995,50.026129],[20.050997,50.026144],[20.051097,50.026141],[20.051126,50.026461],[20.051027,50.026465],[20.051028,50.026481],[20.050896,50.026486],[20.050864,50.026134]]]}},{"type":"Feature","id":"w684027467","properties":{"type":"apartments","levels":5.0,"address":"Mariana Domagały 31","residential":true,"residents_est":43,"h3_10":"8a1e2e68e087fff","h3_11":"8b1e2e68e085fff"},"geometry":{"type":"Polygon","coordinates":[[[20.050819,50.025651],[20.050951,50.025646],[20.050953,50.025661],[20.051052,50.025658],[20.051081,50.025978],[20.050982,50.025982],[20.050984,50.025998],[20.050851,50.026003],[20.050819,50.025651]]]}},{"type":"Feature","id":"w684027468","properties":{"type":"apartments","address":"Mariana Domagały 33B","residential":true,"residents_est":25,"h3_10":"8a1e2e68e087fff","h3_11":"8b1e2e68e086fff"},"geometry":{"type":"Polygon","coordinates":[[[20.049613,50.025435],[20.049713,50.025431],[20.049712,50.025414],[20.049843,50.02541],[20.049861,50.025612],[20.04963,50.025621],[20.049613,50.025435]]]}},{"type":"Feature","id":"w684027469","properties":{"type":"apartments","levels":5.0,"address":"Mariana Domagały 33C","residential":true,"residents_est":25,"h3_10":"8a1e2e68e0b7fff","h3_11":"8b1e2e68e0b1fff"},"geometry":{"type":"Polygon","coordinates":[[[20.049152,50.025452],[20.049251,50.025449],[20.049249,50.025432],[20.049382,50.025427],[20.049401,50.02563],[20.049169,50.025639],[20.049152,50.025452]]]}},{"type":"Feature","id":"w684027470","properties":{"type":"apartments","levels":5.0,"address":"Mariana Domagały 33D","residential":true,"residents_est":24,"h3_10":"8a1e2e68e0b7fff","h3_11":"8b1e2e68e0b0fff"},"geometry":{"type":"Polygon","coordinates":[[[20.048695,50.025454],[20.048828,50.025449],[20.048829,50.025465],[20.048928,50.025461],[20.048945,50.025647],[20.048714,50.025656],[20.048695,50.025454]]]}},{"type":"Feature","id":"w684027471","properties":{"type":"apartments","levels":5.0,"address":"Mariana Domagały 33E","residential":true,"residents_est":43,"h3_10":"8a1e2e68e0b7fff","h3_11":"8b1e2e68e0b0fff"},"geometry":{"type":"Polygon","coordinates":[[[20.048235,50.025405],[20.048367,50.025401],[20.048368,50.025417],[20.048468,50.025413],[20.048497,50.025734],[20.048397,50.025737],[20.048399,50.025753],[20.048267,50.025758],[20.048235,50.025405]]]}},{"type":"Feature","id":"w684027472","properties":{"type":"apartments","levels":5.0,"address":"Mariana Domagały 33F","residential":true,"residents_est":43,"h3_10":"8a1e2e68e0b7fff","h3_11":"8b1e2e68e0b6fff"},"geometry":{"type":"Polygon","coordinates":[[[20.047749,50.025441],[20.047848,50.025437],[20.047847,50.025421],[20.047979,50.025416],[20.048011,50.025768],[20.047879,50.025773],[20.047877,50.025757],[20.047778,50.025761],[20.047749,50.025441]]]}},{"type":"Feature","id":"w783094875","properties":{"type":"kindergarten","levels":2.0,"address":"Mariana Domagały 27E","residential":false,"residents_est":0,"h3_10":"8a1e2e68e19ffff","h3_11":"8b1e2e68e19efff"},"geometry":{"type":"Polygon","coordinates":[[[20.047547,50.026901],[20.047564,50.026815],[20.047598,50.026788],[20.047633,50.026783],[20.04779,50.026796],[20.047786,50.026814],[20.047822,50.026817],[20.047831,50.026823],[20.047826,50.026849],[20.047848,50.026851],[20.047841,50.026885],[20.047819,50.026883],[20.047809,50.026928],[20.047756,50.026924],[20.047754,50.026936],[20.047692,50.02693],[20.047695,50.026914],[20.047547,50.026901]]]}},{"type":"Feature","id":"w783094876","properties":{"type":"commercial","address":"Mariana Domagały 27D","residential":false,"residents_est":0,"h3_10":"8a1e2e68e19ffff","h3_11":"8b1e2e68e198fff"},"geometry":{"type":"Polygon","coordinates":[[[20.048419,50.02689],[20.048739,50.02688],[20.048745,50.026988],[20.048425,50.026999],[20.048419,50.02689]]]}},{"type":"Feature","id":"w802029830","properties":{"type":"apartments","levels":5.0,"address":"Mariana Domagały 41B","residential":true,"residents_est":45,"h3_10":"8a1e2e68e097fff","h3_11":"8b1e2e68e093fff"},"geometry":{"type":"Polygon","coordinates":[[[20.048613,50.024124],[20.049343,50.024117],[20.049346,50.02423],[20.048616,50.024237],[20.048613,50.024124]]]}},{"type":"Feature","id":"w802029831","properties":{"type":"apartments","levels":5.0,"address":"Mariana Domagały 41A","residential":true,"residents_est":32,"h3_10":"8a1e2e68e09ffff","h3_11":"8b1e2e68e09efff"},"geometry":{"type":"Polygon","coordinates":[[[20.049578,50.024116],[20.050091,50.024111],[20.050095,50.024225],[20.04958,50.024229],[20.049578,50.024116]]]}},{"type":"Feature","id":"w1089881878","properties":{"type":"apartments","levels":5.0,"address":"Mariana Domagały 41","residential":true,"residents_est":45,"h3_10":"8a1e2e68e09ffff","h3_11":"8b1e2e68e098fff"},"geometry":{"type":"Polygon","coordinates":[[[20.050091,50.024111],[20.050821,50.024104],[20.050824,50.024218],[20.050095,50.024225],[20.050091,50.024111]]]}},{"type":"Feature","id":"w1089881879","properties":{"type":"apartments","levels":5.0,"address":"Mariana Domagały 41C","residential":true,"residents_est":30,"h3_10":"8a1e2e68e097fff","h3_11":"8b1e2e68e092fff"},"geometry":{"type":"Polygon","coordinates":[[[20.048121,50.024128],[20.048613,50.024124],[20.048616,50.024237],[20.048123,50.024242],[20.048121,50.024128]]]}},{"type":"Feature","id":"w1095545423","properties":{"type":"outbuilding","levels":1.0,"residential":false,"residents_est":0,"h3_10":"8a1e2e68e18ffff","h3_11":"8b1e2e68e18cfff"},"geometry":{"type":"Polygon","coordinates":[[[20.04912,50.027728],[20.04941,50.027717],[20.049416,50.027777],[20.049125,50.027788],[20.04912,50.027728]]]}},{"type":"Feature","id":"w1095545424","properties":{"type":"office","levels":1.0,"residential":false,"residents_est":0,"h3_10":"8a1e2e68e167fff","h3_11":"8b1e2e68e160fff"},"geometry":{"type":"Polygon","coordinates":[[[20.055197,50.031549],[20.055383,50.031542],[20.055393,50.031658],[20.055207,50.031665],[20.055197,50.031549]]]}},{"type":"Feature","id":"w1095545426","properties":{"type":"outbuilding","levels":1.0,"residential":false,"residents_est":0,"h3_10":"8a1e2e68e1a7fff","h3_11":"8b1e2e68e1a0fff"},"geometry":{"type":"Polygon","coordinates":[[[20.047529,50.029009],[20.047648,50.029003],[20.047654,50.029052],[20.047535,50.029059],[20.047529,50.029009]]]}},{"type":"Feature","id":"w1095545429","properties":{"type":"outbuilding","levels":1.0,"residential":false,"residents_est":0,"h3_10":"8a1e2e68e1b7fff","h3_11":"8b1e2e68e1b1fff"},"geometry":{"type":"Polygon","coordinates":[[[20.046882,50.02832],[20.047061,50.028311],[20.047087,50.028522],[20.046908,50.028531],[20.046882,50.02832]]]}},{"type":"Feature","id":"w1095545430","properties":{"type":"outbuilding","levels":1.0,"residential":false,"residents_est":0,"h3_10":"8a1e2e68e1b7fff","h3_11":"8b1e2e68e1b1fff"},"geometry":{"type":"Polygon","coordinates":[[[20.046543,50.028309],[20.046646,50.028305],[20.046651,50.028369],[20.046548,50.028372],[20.046543,50.028309]]]}},{"type":"Feature","id":"w1095545439","properties":{"type":"warehouse","levels":1.0,"residential":false,"residents_est":0,"h3_10":"8a1e2e68e107fff","h3_11":"8b1e2e68e106fff"},"geometry":{"type":"Polygon","coordinates":[[[20.049863,50.030444],[20.050209,50.030438],[20.050214,50.030537],[20.049866,50.030543],[20.049863,50.030444]]]}},{"type":"Feature","id":"w1095545440","properties":{"type":"warehouse","levels":1.0,"residential":false,"residents_est":0,"h3_10":"8a1e2e68e1affff","h3_11":"8b1e2e68e1abfff"},"geometry":{"type":"Polygon","coordinates":[[[20.049139,50.027964],[20.050156,50.027928],[20.050197,50.028413],[20.050151,50.028415],[20.050099,50.028385],[20.050096,50.028362],[20.050027,50.028365],[20.050032,50.028419],[20.04934,50.028444],[20.049337,50.02839],[20.049266,50.028392],[20.049267,50.028415],[20.049222,50.028448],[20.04918,50.02845],[20.049139,50.027964]]]}},{"type":"Feature","id":"w1192620908","properties":{"type":"apartments","levels":5.0,"address":"Mariana Domagały 39","residential":true,"residents_est":42,"h3_10":"8a1e2e68e09ffff","h3_11":"8b1e2e68e09dfff"},"geometry":{"type":"Polygon","coordinates":[[[20.050637,50.024731],[20.050641,50.02444],[20.050845,50.024442],[20.050845,50.024462],[20.0509,50.024462],[20.0509,50.024498],[20.05097,50.024498],[20.050983,50.024642],[20.050841,50.024645],[20.05084,50.024697],[20.050734,50.024696],[20.050733,50.024732],[20.050637,50.024731]]]}},{"type":"Feature","id":"w1192620909","properties":{"type":"apartments","levels":5.0,"address":"Mariana Domagały 39","residential":true,"residents_est":39,"h3_10":"8a1e2e68e09ffff","h3_11":"8b1e2e68e09cfff"},"geometry":{"type":"Polygon","coordinates":[[[20.050077,50.024822],[20.050082,50.024436],[20.050274,50.024437],[20.050267,50.024801],[20.050077,50.024822]]]}},{"type":"Feature","id":"w1248862037","properties":{"type":"commercial","address":"Mariana Domagały 29AA","name":"Nude Studio","residential":false,"residents_est":0,"h3_10":"8a1e2e68e0a7fff","h3_11":"8b1e2e68e0a5fff"},"geometry":{"type":"Polygon","coordinates":[[[20.050446,50.026595],[20.050503,50.026593],[20.050506,50.026636],[20.050449,50.026638],[20.050446,50.026595]]]}},{"type":"Feature","id":"w1248862038","properties":{"type":"office","levels":1.0,"residential":false,"residents_est":0,"h3_10":"8a1e2e68e017fff","h3_11":"8b1e2e68e012fff"},"geometry":{"type":"Polygon","coordinates":[[[20.05127,50.026767],[20.051356,50.026764],[20.051361,50.026831],[20.051275,50.026833],[20.05127,50.026767]]]}},{"type":"Feature","id":"w1251947053","properties":{"type":"roof","residential":false,"residents_est":0,"h3_10":"8a1e2e68e09ffff","h3_11":"8b1e2e68e098fff"},"geometry":{"type":"Polygon","coordinates":[[[20.050878,50.024184],[20.050968,50.024181],[20.050973,50.024236],[20.050883,50.024239],[20.050878,50.024184]]]}},{"type":"Feature","id":"w1253556252","properties":{"type":"construction","levels":5.0,"address":"Mariana Domagały 39A","residential":false,"residents_est":0,"h3_10":"8a1e2e68e097fff","h3_11":"8b1e2e68e090fff"},"geometry":{"type":"Polygon","coordinates":[[[20.048934,50.024453],[20.049212,50.024456],[20.049204,50.024923],[20.048935,50.024927],[20.048934,50.024453]]]}},{"type":"Feature","id":"w1253556253","properties":{"type":"construction","levels":5.0,"address":"Mariana Domagały 39A","residential":false,"residents_est":0,"h3_10":"8a1e2e68e097fff","h3_11":"8b1e2e68e091fff"},"geometry":{"type":"Polygon","coordinates":[[[20.049498,50.024448],[20.049776,50.02445],[20.049756,50.024861],[20.049499,50.024862],[20.049498,50.024448]]]}}]}