{"type":"FeatureCollection","features":[{"type":"Feature","id":"w190292260","properties":{"type":"garages","residential":false,"residents_est":0,"h3_10":"8a1e05b6d69ffff","h3_11":"8b1e05b6d69bfff"},"geometry":{"type":"Polygon","coordinates":[[[19.845967,50.087019],[19.846038,50.087005],[19.846187,50.087314],[19.846116,50.087328],[19.845967,50.087019]]]}},{"type":"Feature","id":"w190292283","properties":{"type":"yes","residential":true,"residents_est":0,"h3_10":"8a1e05b6d69ffff","h3_11":"8b1e05b6d69afff"},"geometry":{"type":"Polygon","coordinates":[[[19.845146,50.087153],[19.845206,50.087141],[19.845248,50.087221],[19.845188,50.087234],[19.845146,50.087153]]]}},{"type":"Feature","id":"w231208123","properties":{"type":"yes","address":"Piotra Brzezińskiego 26","residential":true,"residents_est":2,"h3_10":"8a1e05b6d69ffff","h3_11":"8b1e05b6d69dfff"},"geometry":{"type":"Polygon","coordinates":[[[19.845728,50.087818],[19.84585,50.087792],[19.845954,50.088001],[19.845875,50.088017],[19.845862,50.087993],[19.845895,50.087985],[19.845884,50.087963],[19.845851,50.08797],[19.845843,50.087955],[19.845802,50.087963],[19.845728,50.087818]]]}},{"type":"Feature","id":"w231208125","properties":{"type":"apartments","levels":4.0,"address":"Wincentego Weryhy-Darowskiego 19","residential":true,"residents_est":10,"h3_10":"8a1e05b6d69ffff","h3_11":"8b1e05b6d699fff"},"geometry":{"type":"Polygon","coordinates":[[[19.846519,50.087416],[19.846696,50.087382],[19.84676,50.08752],[19.846547,50.087561],[19.846519,50.0875],[19.846526,50.087499],[19.84652,50.087486],[19.846529,50.08747],[19.846543,50.087467],[19.846519,50.087416]]]}},{"type":"Feature","id":"w231208128","properties":{"type":"yes","address":"Piotra Brzezińskiego 21","residential":true,"residents_est":1,"h3_10":"8a1e05b6d687fff","h3_11":"8b1e05b6d680fff"},"geometry":{"type":"Polygon","coordinates":[[[19.845383,50.08861],[19.845431,50.088602],[19.845451,50.08861],[19.845505,50.088601],[19.845532,50.088668],[19.84552,50.088681],[19.845534,50.088716],[19.845495,50.088722],[19.845474,50.088715],[19.845428,50.088722],[19.845383,50.08861]]]}},{"type":"Feature","id":"w231208136","properties":{"type":"yes","address":"Piotra Brzezińskiego 32","residential":true,"residents_est":1,"h3_10":"8a1e05b6d687fff","h3_11":"8b1e05b6d683fff"},"geometry":{"type":"Polygon","coordinates":[[[19.845751,50.088408],[19.84579,50.0884],[19.8458,50.088386],[19.845824,50.088382],[19.845848,50.088394],[19.845886,50.088387],[19.845946,50.088503],[19.845836,50.088526],[19.845809,50.088473],[19.845786,50.088478],[19.845751,50.088408]]]}},{"type":"Feature","id":"w231208137","properties":{"type":"yes","address":"Piotra Brzezińskiego 21a","residential":true,"residents_est":1,"h3_10":"8a1e05b6d687fff","h3_11":"8b1e05b6d685fff"},"geometry":{"type":"Polygon","coordinates":[[[19.845515,50.088818],[19.845559,50.088811],[19.845548,50.088784],[19.845636,50.088769],[19.845647,50.088797],[19.845673,50.088794],[19.8457,50.088856],[19.845644,50.088865],[19.845648,50.088876],[19.845607,50.088882],[19.845603,50.088872],[19.845541,50.088882],[19.845515,50.088818]]]}},{"type":"Feature","id":"w231208139","properties":{"type":"yes","address":"Piotra Brzezińskiego 36","residential":true,"residents_est":1,"h3_10":"8a1e05b6d687fff","h3_11":"8b1e05b6d685fff"},"geometry":{"type":"Polygon","coordinates":[[[19.846024,50.088919],[19.846091,50.088901],[19.846097,50.088905],[19.846139,50.088896],[19.846177,50.08897],[19.846139,50.088978],[19.846148,50.088994],[19.84607,50.089011],[19.846024,50.088919]]]}},{"type":"Feature","id":"w231208146","properties":{"type":"apartments","levels":4.0,"address":"Wincentego Weryhy-Darowskiego 25","residential":true,"residents_est":9,"h3_10":"8a1e05b6d69ffff","h3_11":"8b1e05b6d69bfff"},"geometry":{"type":"Polygon","coordinates":[[[19.846302,50.087033],[19.846514,50.086992],[19.846578,50.087129],[19.846401,50.087163],[19.846377,50.087113],[19.846351,50.087113],[19.846338,50.087092],[19.846331,50.087094],[19.846302,50.087033]]]}},{"type":"Feature","id":"w231208149","properties":{"type":"apartments","levels":4.0,"address":"Wincentego Weryhy-Darowskiego 18","residential":true,"residents_est":18,"h3_10":"8a1e05b6d68ffff","h3_11":"8b1e05b6d68bfff"},"geometry":{"type":"Polygon","coordinates":[[[19.847745,50.088068],[19.847759,50.088042],[19.847773,50.088045],[19.847792,50.088008],[19.847837,50.08802],[19.847867,50.087963],[19.847837,50.087903],[19.847857,50.087899],[19.84785,50.087885],[19.847875,50.087846],[19.847974,50.087825],[19.84809,50.088057],[19.847773,50.088122],[19.847745,50.088068]]]}},{"type":"Feature","id":"w231208151","properties":{"type":"yes","address":"Piotra Brzezińskiego 35","residential":true,"residents_est":2,"h3_10":"8a1e05b6d78ffff","h3_11":"8b1e05b6d78afff"},"geometry":{"type":"Polygon","coordinates":[[[19.844209,50.09056],[19.84425,50.090533],[19.844304,50.090567],[19.844358,50.090533],[19.844528,50.090636],[19.844434,50.090698],[19.844209,50.09056]]]}},{"type":"Feature","id":"w231208156","properties":{"type":"apartments","levels":4.0,"address":"Wincentego Weryhy-Darowskiego 20","residential":true,"residents_est":16,"h3_10":"8a1e05b6d68ffff","h3_11":"8b1e05b6d689fff"},"geometry":{"type":"Polygon","coordinates":[[[19.847727,50.088209],[19.847938,50.088165],[19.848063,50.088413],[19.847908,50.088445],[19.847883,50.088394],[19.847843,50.088402],[19.847828,50.088372],[19.847867,50.088364],[19.847844,50.088317],[19.847824,50.088321],[19.847798,50.08827],[19.847758,50.088278],[19.847727,50.088209]]]}},{"type":"Feature","id":"w231208219","properties":{"type":"yes","residential":true,"residents_est":1,"h3_10":"8a1e05b6d687fff","h3_11":"8b1e05b6d683fff"},"geometry":{"type":"Polygon","coordinates":[[[19.845856,50.088058],[19.845971,50.088039],[19.845994,50.088097],[19.845879,50.088116],[19.845856,50.088058]]]}},{"type":"Feature","id":"w231208221","properties":{"type":"yes","address":"Piotra Brzezińskiego 9","residential":true,"residents_est":1,"h3_10":"8a1e05b6d69ffff","h3_11":"8b1e05b6d69afff"},"geometry":{"type":"Polygon","coordinates":[[[19.845083,50.087028],[19.845217,50.087],[19.845252,50.087074],[19.845117,50.087101],[19.845083,50.087028]]]}},{"type":"Feature","id":"w231208257","properties":{"type":"yes","residential":true,"residents_est":6,"h3_10":"8a1e05b6d787fff","h3_11":"8b1e05b6d784fff"},"geometry":{"type":"Polygon","coordinates":[[[19.842134,50.091504],[19.842184,50.091428],[19.842599,50.091538],[19.842551,50.091618],[19.842134,50.091504]]]}},{"type":"Feature","id":"w231208276","properties":{"type":"yes","residential":true,"residents_est":2,"h3_10":"8a1e05b6d787fff","h3_11":"8b1e05b6d784fff"},"geometry":{"type":"Polygon","coordinates":[[[19.842552,50.091618],[19.842599,50.091538],[19.842799,50.091591],[19.842751,50.091668],[19.842552,50.091618]]]}},{"type":"Feature","id":"w231208292","properties":{"type":"yes","residential":true,"residents_est":0,"h3_10":"8a1e05b6d787fff","h3_11":"8b1e05b6d780fff"},"geometry":{"type":"Polygon","coordinates":[[[19.842748,50.091225],[19.842762,50.091182],[19.842891,50.091199],[19.842877,50.091243],[19.842748,50.091225]]]}},{"type":"Feature","id":"w231208296","properties":{"type":"yes","address":"Piotra Brzezińskiego 39","residential":true,"residents_est":2,"h3_10":"8a1e05b6d787fff","h3_11":"8b1e05b6d781fff"},"geometry":{"type":"Polygon","coordinates":[[[19.843425,50.091261],[19.84362,50.091142],[19.843715,50.0912],[19.84352,50.091323],[19.843425,50.091261]]]}},{"type":"Feature","id":"w231208297","properties":{"type":"yes","residential":true,"residents_est":0,"h3_10":"8a1e05b6d787fff","h3_11":"8b1e05b6d781fff"},"geometry":{"type":"Polygon","coordinates":[[[19.843826,50.091287],[19.843911,50.091231],[19.843972,50.09127],[19.843888,50.091325],[19.843826,50.091287]]]}},{"type":"Feature","id":"w231208331","properties":{"type":"yes","residential":true,"residents_est":1,"h3_10":"8a1e05b6d687fff","h3_11":"8b1e05b6d681fff"},"geometry":{"type":"Polygon","coordinates":[[[19.845902,50.088699],[19.846018,50.088673],[19.846051,50.088733],[19.845935,50.08876],[19.845902,50.088699]]]}},{"type":"Feature","id":"w231208376","properties":{"type":"yes","residential":true,"residents_est":1,"h3_10":"8a1e05b6d78ffff","h3_11":"8b1e05b6d78bfff"},"geometry":{"type":"Polygon","coordinates":[[[19.844834,50.090628],[19.844845,50.090608],[19.844935,50.090555],[19.845006,50.090605],[19.844895,50.090671],[19.844834,50.090628]]]}},{"type":"Feature","id":"w231208416","properties":{"type":"yes","address":"Piotra Brzezińskiego 28","residential":true,"residents_est":1,"h3_10":"8a1e05b6d69ffff","h3_11":"8b1e05b6d69cfff"},"geometry":{"type":"Polygon","coordinates":[[[19.84539,50.087686],[19.845531,50.087655],[19.845577,50.087747],[19.845436,50.087778],[19.84539,50.087686]]]}},{"type":"Feature","id":"w231208436","properties":{"type":"yes","address":"Piotra Brzezińskiego 24","residential":true,"residents_est":1,"h3_10":"8a1e05b6d69ffff","h3_11":"8b1e05b6d69afff"},"geometry":{"type":"Polygon","coordinates":[[[19.845429,50.087224],[19.845562,50.0872],[19.845607,50.087298],[19.845561,50.087306],[19.845553,50.08729],[19.845464,50.087306],[19.845429,50.087224]]]}},{"type":"Feature","id":"w231208471","properties":{"type":"yes","residential":true,"residents_est":1,"h3_10":"8a1e05b6d687fff","h3_11":"8b1e05b6d681fff"},"geometry":{"type":"Polygon","coordinates":[[[19.845935,50.08876],[19.846051,50.088733],[19.846084,50.088794],[19.846076,50.088807],[19.846057,50.088812],[19.846035,50.088805],[19.845969,50.088821],[19.845935,50.08876]]]}},{"type":"Feature","id":"w231208474","properties":{"type":"yes","residential":true,"residents_est":1,"h3_10":"8a1e05b6d78ffff","h3_11":"8b1e05b6d78efff"},"geometry":{"type":"Polygon","coordinates":[[[19.844036,50.090694],[19.84419,50.090629],[19.844233,50.09067],[19.844084,50.09074],[19.844036,50.090694]]]}},{"type":"Feature","id":"w231208497","properties":{"type":"yes","residential":false,"residents_est":0,"h3_10":"8a1e05b6d78ffff","h3_11":"8b1e05b6d788fff"},"geometry":{"type":"Polygon","coordinates":[[[19.844722,50.09062],[19.84477,50.09059],[19.844818,50.090621],[19.84477,50.090652],[19.844722,50.09062]]]}},{"type":"Feature","id":"w231208503","properties":{"type":"house","address":"Piotra Brzezińskiego 42","residential":true,"residents_est":2,"h3_10":"8a1e05b6d7affff","h3_11":"8b1e05b6d7a8fff"},"geometry":{"type":"Polygon","coordinates":[[[19.844589,50.091832],[19.844601,50.091731],[19.844737,50.091735],[19.844728,50.091816],[19.844715,50.091815],[19.844712,50.091841],[19.844589,50.091832]]]}},{"type":"Feature","id":"w231208508","properties":{"type":"apartments","levels":4.0,"address":"Wincentego Weryhy-Darowskiego 23","residential":true,"residents_est":8,"h3_10":"8a1e05b6d69ffff","h3_11":"8b1e05b6d69bfff"},"geometry":{"type":"Polygon","coordinates":[[[19.846385,50.087217],[19.846423,50.08721],[19.846401,50.087163],[19.84656,50.087132],[19.84662,50.087259],[19.84646,50.08729],[19.846437,50.08724],[19.8464,50.087247],[19.846385,50.087217]]]}},{"type":"Feature","id":"w231208509","properties":{"type":"apartments","levels":4.0,"address":"Wincentego Weryhy-Darowskiego 21","residential":true,"residents_est":7,"h3_10":"8a1e05b6d69ffff","h3_11":"8b1e05b6d699fff"},"geometry":{"type":"Polygon","coordinates":[[[19.846445,50.087346],[19.846483,50.087339],[19.84646,50.08729],[19.84662,50.087259],[19.846678,50.087386],[19.846519,50.087416],[19.846497,50.087369],[19.84646,50.087376],[19.846445,50.087346]]]}},{"type":"Feature","id":"w231208523","properties":{"type":"yes","address":"Piotra Brzezińskiego 37","residential":true,"residents_est":2,"h3_10":"8a1e05b6d78ffff","h3_11":"8b1e05b6d78efff"},"geometry":{"type":"Polygon","coordinates":[[[19.844072,50.090745],[19.84415,50.090709],[19.84417,50.090724],[19.844243,50.090682],[19.844356,50.090751],[19.844227,50.090838],[19.844072,50.090745]]]}},{"type":"Feature","id":"w231208532","properties":{"type":"apartments","levels":4.0,"address":"Wincentego Weryhy-Darowskiego 17","residential":true,"residents_est":7,"h3_10":"8a1e05b6d68ffff","h3_11":"8b1e05b6d68bfff"},"geometry":{"type":"Polygon","coordinates":[[[19.847084,50.087757],[19.847234,50.087729],[19.84726,50.087777],[19.8473,50.08777],[19.847314,50.087799],[19.847274,50.087807],[19.847298,50.08786],[19.847148,50.087888],[19.847084,50.087757]]]}},{"type":"Feature","id":"w231208541","properties":{"type":"yes","address":"Piotra Brzezińskiego 34","residential":true,"residents_est":1,"h3_10":"8a1e05b6d687fff","h3_11":"8b1e05b6d681fff"},"geometry":{"type":"Polygon","coordinates":[[[19.845869,50.088637],[19.845936,50.088622],[19.845945,50.08861],[19.845963,50.088606],[19.845984,50.088611],[19.846018,50.088673],[19.845902,50.088699],[19.845869,50.088637]]]}},{"type":"Feature","id":"w231208557","properties":{"type":"yes","residential":true,"residents_est":22,"h3_10":"8a1e05b6d787fff","h3_11":"8b1e05b6d780fff"},"geometry":{"type":"Polygon","coordinates":[[[19.84293,50.091453],[19.842986,50.091259],[19.843007,50.09126],[19.843066,50.090967],[19.843334,50.090987],[19.843319,50.091048],[19.843233,50.091041],[19.843222,50.091095],[19.843307,50.091104],[19.843253,50.091335],[19.843179,50.091329],[19.8431,50.091582],[19.842961,50.091564],[19.842979,50.09151],[19.842992,50.09151],[19.843007,50.091462],[19.84293,50.091453]]]}},{"type":"Feature","id":"w321743745","properties":{"type":"yes","address":"Akacjowa 13","residential":true,"residents_est":1,"h3_10":"8a1e05b6d737fff","h3_11":"8b1e05b6d732fff"},"geometry":{"type":"Polygon","coordinates":[[[19.843478,50.093825],[19.843553,50.093816],[19.843555,50.093825],[19.843608,50.093819],[19.843609,50.09381],[19.843629,50.093883],[19.843498,50.093897],[19.843478,50.093825]]]}},{"type":"Feature","id":"w321743752","properties":{"type":"yes","address":"Osiedle Sarni Stok 40","residential":true,"residents_est":2,"h3_10":"8a1e05b6d72ffff","h3_11":"8b1e05b6d72afff"},"geometry":{"type":"Polygon","coordinates":[[[19.846582,50.09405],[19.846604,50.094009],[19.846617,50.094012],[19.846677,50.093898],[19.84673,50.09391],[19.84672,50.09393],[19.846798,50.093947],[19.846745,50.094046],[19.846697,50.094036],[19.846678,50.094071],[19.846582,50.09405]]]}},{"type":"Feature","id":"w321743754","properties":{"type":"yes","address":"Prosta 15","residential":true,"residents_est":1,"h3_10":"8a1e05b6d737fff","h3_11":"8b1e05b6d736fff"},"geometry":{"type":"Polygon","coordinates":[[[19.84278,50.094094],[19.842786,50.094093],[19.842782,50.094082],[19.84279,50.094092],[19.842841,50.094086],[19.842837,50.094075],[19.842904,50.094066],[19.842937,50.094168],[19.842809,50.094185],[19.84278,50.094094]]]}},{"type":"Feature","id":"w321743758","properties":{"type":"yes","address":"Akacjowa 19","residential":true,"residents_est":1,"h3_10":"8a1e05b6d717fff","h3_11":"8b1e05b6d715fff"},"geometry":{"type":"Polygon","coordinates":[[[19.844389,50.093553],[19.844518,50.093533],[19.84452,50.093541],[19.844606,50.093532],[19.844624,50.093602],[19.844407,50.093621],[19.844389,50.093553]]]}},{"type":"Feature","id":"w321743776","properties":{"type":"yes","address":"Akacjowa 14","residential":true,"residents_est":1,"h3_10":"8a1e05b6d717fff","h3_11":"8b1e05b6d714fff"},"geometry":{"type":"Polygon","coordinates":[[[19.843724,50.093247],[19.843855,50.093239],[19.843874,50.093315],[19.843745,50.093328],[19.843724,50.093247]]]}},{"type":"Feature","id":"w321743782","properties":{"type":"yes","address":"Osiedle Sarni Stok 42","residential":true,"residents_est":2,"h3_10":"8a1e05b6d70ffff","h3_11":"8b1e05b6d70cfff"},"geometry":{"type":"Polygon","coordinates":[[[19.846965,50.093754],[19.847036,50.093708],[19.847092,50.093745],[19.847123,50.093725],[19.847229,50.093792],[19.847188,50.093819],[19.847198,50.093825],[19.847151,50.093856],[19.847141,50.09385],[19.8471,50.093877],[19.846994,50.093809],[19.847022,50.093791],[19.846965,50.093754]]]}},{"type":"Feature","id":"w321743788","properties":{"type":"house","levels":2.0,"address":"Osiedle Sarni Stok 33","residential":true,"residents_est":3,"h3_10":"8a1e05b6d72ffff","h3_11":"8b1e05b6d729fff"},"geometry":{"type":"Polygon","coordinates":[[[19.84752,50.09445],[19.847541,50.094436],[19.847541,50.094424],[19.847564,50.094409],[19.847581,50.094411],[19.847624,50.094384],[19.847755,50.094469],[19.847685,50.094513],[19.847638,50.094484],[19.847594,50.094513],[19.847543,50.094481],[19.847556,50.094472],[19.84752,50.09445]]]}},{"type":"Feature","id":"w321743807","properties":{"type":"yes","address":"Osiedle Sarni Stok 7","residential":true,"residents_est":2,"h3_10":"8a1e05b6d72ffff","h3_11":"8b1e05b6d72dfff"},"geometry":{"type":"Polygon","coordinates":[[[19.847168,50.094835],[19.847343,50.094809],[19.847361,50.094859],[19.847413,50.094851],[19.847434,50.094909],[19.847379,50.094917],[19.847373,50.094901],[19.847202,50.094927],[19.847168,50.094835]]]}},{"type":"Feature","id":"w321743810","properties":{"type":"yes","address":"Osiedle Sarni Stok 52","residential":true,"residents_est":6,"h3_10":"8a1e05b6d71ffff","h3_11":"8b1e05b6d71efff"},"geometry":{"type":"Polygon","coordinates":[[[19.844741,50.092742],[19.844811,50.092666],[19.844927,50.09271],[19.844948,50.092687],[19.845041,50.092723],[19.845021,50.092746],[19.845091,50.092773],[19.845021,50.092849],[19.844949,50.092822],[19.844927,50.092845],[19.844835,50.092809],[19.844856,50.092786],[19.844741,50.092742]]]}},{"type":"Feature","id":"w321743831","properties":{"type":"house","levels":2.0,"address":"Osiedle Sarni Stok 44A","residential":true,"residents_est":3,"h3_10":"8a1e05b6d777fff","h3_11":"8b1e05b6d776fff"},"geometry":{"type":"Polygon","coordinates":[[[19.8476,50.094059],[19.847711,50.094016],[19.847834,50.094147],[19.847799,50.09416],[19.847786,50.094176],[19.847757,50.094177],[19.847723,50.09419],[19.8476,50.094059]]]}},{"type":"Feature","id":"w321743832","properties":{"type":"yes","address":"Osiedle Sarni Stok 32","residential":true,"residents_est":2,"h3_10":"8a1e05b6d72ffff","h3_11":"8b1e05b6d728fff"},"geometry":{"type":"Polygon","coordinates":[[[19.84701,50.094481],[19.847099,50.094437],[19.84711,50.094446],[19.847217,50.094392],[19.847295,50.094457],[19.847215,50.094497],[19.847222,50.094503],[19.84722,50.094513],[19.847181,50.094523],[19.847235,50.094568],[19.84716,50.094606],[19.84701,50.094481]]]}},{"type":"Feature","id":"w321743837","properties":{"type":"yes","address":"Osiedle Sarni Stok 28","residential":true,"residents_est":1,"h3_10":"8a1e05b6d707fff","h3_11":"8b1e05b6d705fff"},"geometry":{"type":"Polygon","coordinates":[[[19.845795,50.09416],[19.845855,50.09416],[19.845855,50.094131],[19.845918,50.094131],[19.845919,50.09415],[19.845969,50.09415],[19.84597,50.094174],[19.845987,50.094174],[19.845988,50.094207],[19.845963,50.094207],[19.845963,50.094235],[19.845859,50.094236],[19.845859,50.094215],[19.845796,50.094215],[19.845795,50.09416]]]}},{"type":"Feature","id":"w321743841","properties":{"type":"yes","address":"Osiedle Sarni Stok 17","residential":true,"residents_est":1,"h3_10":"8a1e05b6d707fff","h3_11":"8b1e05b6d704fff"},"geometry":{"type":"Polygon","coordinates":[[[19.844945,50.093992],[19.844952,50.093901],[19.84501,50.093903],[19.845024,50.093894],[19.845051,50.093895],[19.845064,50.093905],[19.845118,50.093906],[19.845111,50.093997],[19.845056,50.093995],[19.845054,50.094015],[19.845001,50.094013],[19.845001,50.094008],[19.844976,50.094007],[19.844977,50.093993],[19.844945,50.093992]]]}},{"type":"Feature","id":"w321743843","properties":{"type":"yes","address":"Osiedle Sarni Stok 19","residential":true,"residents_est":2,"h3_10":"8a1e05b6d707fff","h3_11":"8b1e05b6d700fff"},"geometry":{"type":"Polygon","coordinates":[[[19.845385,50.093807],[19.845402,50.093726],[19.845427,50.093728],[19.845437,50.093679],[19.845559,50.093693],[19.845554,50.093714],[19.845616,50.093719],[19.845596,50.093819],[19.84554,50.093814],[19.845536,50.093831],[19.845443,50.093823],[19.845445,50.093812],[19.845385,50.093807]]]}},{"type":"Feature","id":"w321743849","properties":{"type":"yes","address":"Akacjowa 11","residential":true,"residents_est":2,"h3_10":"8a1e05b6d737fff","h3_11":"8b1e05b6d732fff"},"geometry":{"type":"Polygon","coordinates":[[[19.843553,50.093623],[19.843699,50.093606],[19.843714,50.093659],[19.843746,50.093655],[19.843737,50.093623],[19.843818,50.093613],[19.843839,50.09369],[19.843758,50.0937],[19.843761,50.093708],[19.843715,50.093713],[19.843711,50.093699],[19.843682,50.093702],[19.843689,50.093726],[19.843586,50.093738],[19.843553,50.093623]]]}},{"type":"Feature","id":"w321743853","properties":{"type":"yes","address":"Osiedle Sarni Stok 5","residential":true,"residents_est":2,"h3_10":"8a1e05b6d72ffff","h3_11":"8b1e05b6d72cfff"},"geometry":{"type":"Polygon","coordinates":[[[19.846537,50.094976],[19.846583,50.094969],[19.84663,50.094923],[19.846608,50.094863],[19.846696,50.09485],[19.846719,50.094913],[19.846727,50.094912],[19.846763,50.095007],[19.846685,50.095019],[19.846687,50.095025],[19.846674,50.095038],[19.846637,50.095044],[19.846614,50.095031],[19.846561,50.095039],[19.846537,50.094976]]]}},{"type":"Feature","id":"w321743858","properties":{"type":"yes","address":"Osiedle Sarni Stok 16","residential":true,"residents_est":1,"h3_10":"8a1e05b6d707fff","h3_11":"8b1e05b6d704fff"},"geometry":{"type":"Polygon","coordinates":[[[19.844971,50.09414],[19.84499,50.09414],[19.84499,50.094115],[19.845056,50.094115],[19.845056,50.094105],[19.845111,50.094105],[19.845111,50.094136],[19.845132,50.094136],[19.845132,50.094197],[19.845091,50.094197],[19.845091,50.094251],[19.845021,50.094251],[19.845021,50.094195],[19.844988,50.094195],[19.844988,50.094178],[19.844971,50.094178],[19.844971,50.09414]]]}},{"type":"Feature","id":"w321743866","properties":{"type":"yes","address":"Osiedle Sarni Stok 38","residential":true,"residents_est":2,"h3_10":"8a1e05b6d72ffff","h3_11":"8b1e05b6d72efff"},"geometry":{"type":"Polygon","coordinates":[[[19.846292,50.094404],[19.846344,50.094395],[19.846362,50.094379],[19.846391,50.094375],[19.846399,50.094377],[19.846406,50.094394],[19.846462,50.094384],[19.846488,50.094446],[19.846548,50.094435],[19.846573,50.094496],[19.846507,50.094507],[19.846501,50.094493],[19.846424,50.094507],[19.846421,50.094497],[19.846371,50.094506],[19.846349,50.094451],[19.846314,50.094457],[19.846292,50.094404]]]}},{"type":"Feature","id":"w321743876","properties":{"type":"yes","address":"Osiedle Sarni Stok 50","residential":true,"residents_est":2,"h3_10":"8a1e05b6d707fff","h3_11":"8b1e05b6d702fff"},"geometry":{"type":"Polygon","coordinates":[[[19.845186,50.093361],[19.84519,50.093348],[19.845207,50.09334],[19.845211,50.093331],[19.845256,50.093336],[19.845263,50.093316],[19.845277,50.093318],[19.845279,50.093312],[19.845391,50.093333],[19.845377,50.093379],[19.84541,50.093384],[19.845383,50.093468],[19.845293,50.093457],[19.845304,50.09342],[19.845187,50.093405],[19.845197,50.093372],[19.845186,50.093361]]]}},{"type":"Feature","id":"w321743878","properties":{"type":"yes","address":"Osiedle Sarni Stok 25","residential":true,"residents_est":2,"h3_10":"8a1e05b6d727fff","h3_11":"8b1e05b6d721fff"},"geometry":{"type":"Polygon","coordinates":[[[19.845853,50.0947],[19.845993,50.094686],[19.845991,50.094678],[19.846067,50.09467],[19.84608,50.094724],[19.846067,50.094725],[19.846071,50.094744],[19.846099,50.094752],[19.846103,50.094768],[19.846089,50.09478],[19.846065,50.094783],[19.846044,50.094769],[19.845998,50.094773],[19.845995,50.09476],[19.845925,50.094767],[19.845928,50.09478],[19.845874,50.094786],[19.845853,50.0947]]]}},{"type":"Feature","id":"w321743885","properties":{"type":"yes","address":"Osiedle Sarni Stok 27","residential":true,"residents_est":1,"h3_10":"8a1e05b6d707fff","h3_11":"8b1e05b6d705fff"},"geometry":{"type":"Polygon","coordinates":[[[19.84578,50.094316],[19.845827,50.094314],[19.845826,50.094305],[19.84588,50.094303],[19.845881,50.094312],[19.845926,50.09431],[19.845929,50.094347],[19.845953,50.094355],[19.845954,50.094367],[19.845931,50.094377],[19.845931,50.094382],[19.845907,50.094383],[19.845911,50.094429],[19.845823,50.094433],[19.84582,50.0944],[19.845843,50.094399],[19.845841,50.094385],[19.845786,50.094387],[19.84578,50.094316]]]}},{"type":"Feature","id":"w321743886","properties":{"type":"yes","address":"Osiedle Sarni Stok 45","residential":true,"residents_est":6,"h3_10":"8a1e05b6d70ffff","h3_11":"8b1e05b6d70cfff"},"geometry":{"type":"Polygon","coordinates":[[[19.8467,50.093504],[19.846768,50.093461],[19.846848,50.093513],[19.846864,50.093503],[19.846889,50.093519],[19.846897,50.093513],[19.846925,50.093514],[19.846946,50.093527],[19.846945,50.093545],[19.846938,50.09355],[19.847031,50.093611],[19.846931,50.093675],[19.84692,50.093668],[19.846858,50.093707],[19.846773,50.093652],[19.846837,50.093611],[19.846821,50.093601],[19.846818,50.093581],[19.846833,50.093571],[19.846781,50.093537],[19.846766,50.093547],[19.8467,50.093504]]]}},{"type":"Feature","id":"w321743889","properties":{"type":"yes","address":"Osiedle Sarni Stok 6","residential":true,"residents_est":2,"h3_10":"8a1e05b6d72ffff","h3_11":"8b1e05b6d72cfff"},"geometry":{"type":"Polygon","coordinates":[[[19.846831,50.09485],[19.846894,50.09484],[19.846891,50.094834],[19.846905,50.09482],[19.846927,50.094817],[19.846947,50.094825],[19.846957,50.094854],[19.846988,50.094849],[19.846991,50.094857],[19.847069,50.094845],[19.847096,50.094919],[19.84702,50.094931],[19.847025,50.094943],[19.846995,50.094948],[19.846998,50.094955],[19.846938,50.094964],[19.846929,50.094938],[19.846868,50.094947],[19.846839,50.094884],[19.846843,50.094883],[19.846831,50.09485]]]}},{"type":"Feature","id":"w321744019","properties":{"type":"yes","address":"Akacjowa 15A","residential":true,"residents_est":2,"h3_10":"8a1e05b6d737fff","h3_11":"8b1e05b6d733fff"},"geometry":{"type":"Polygon","coordinates":[[[19.844123,50.093916],[19.844285,50.0939],[19.844309,50.093999],[19.844146,50.094015],[19.844123,50.093916]]]}},{"type":"Feature","id":"w321744132","properties":{"type":"yes","address":"Osiedle Sarni Stok 35","residential":true,"residents_est":1,"h3_10":"8a1e05b6d72ffff","h3_11":"8b1e05b6d72bfff"},"geometry":{"type":"Polygon","coordinates":[[[19.847015,50.094193],[19.847093,50.094142],[19.847189,50.094202],[19.84718,50.094208],[19.847215,50.09423],[19.847155,50.094269],[19.84712,50.094247],[19.84711,50.094254],[19.847015,50.094193]]]}},{"type":"Feature","id":"w321744158","properties":{"type":"yes","residential":true,"residents_est":0,"h3_10":"8a1e05b6d737fff","h3_11":"8b1e05b6d736fff"},"geometry":{"type":"Polygon","coordinates":[[[19.843174,50.09423],[19.843242,50.094218],[19.843276,50.094302],[19.843208,50.094313],[19.843174,50.09423]]]}},{"type":"Feature","id":"w321744178","properties":{"type":"yes","address":"Akacjowa 17","residential":true,"residents_est":1,"h3_10":"8a1e05b6d737fff","h3_11":"8b1e05b6d733fff"},"geometry":{"type":"Polygon","coordinates":[[[19.843959,50.093587],[19.844125,50.093571],[19.844147,50.093666],[19.843981,50.093682],[19.843959,50.093587]]]}},{"type":"Feature","id":"w321744179","properties":{"type":"yes","address":"Osiedle Sarni Stok 49","residential":true,"residents_est":2,"h3_10":"8a1e05b6d707fff","h3_11":"8b1e05b6d703fff"},"geometry":{"type":"Polygon","coordinates":[[[19.845493,50.09348],[19.845507,50.093437],[19.845494,50.093436],[19.845512,50.093382],[19.845525,50.093384],[19.845538,50.093342],[19.845733,50.093368],[19.845718,50.093411],[19.845732,50.093412],[19.845714,50.093467],[19.845699,50.093465],[19.845685,50.093507],[19.845493,50.09348]]]}},{"type":"Feature","id":"w321744232","properties":{"type":"house","levels":2.0,"address":"Osiedle Sarni Stok 44B","residential":true,"residents_est":9,"h3_10":"8a1e05b6d777fff","h3_11":"8b1e05b6d776fff"},"geometry":{"type":"Polygon","coordinates":[[[19.847833,50.094298],[19.847938,50.094229],[19.847928,50.094222],[19.848084,50.094121],[19.848301,50.094257],[19.848146,50.094358],[19.848021,50.094279],[19.847911,50.094351],[19.847833,50.094298]]]}},{"type":"Feature","id":"w321744252","properties":{"type":"yes","address":"Akacjowa 15","residential":true,"residents_est":1,"h3_10":"8a1e05b6d737fff","h3_11":"8b1e05b6d730fff"},"geometry":{"type":"Polygon","coordinates":[[[19.843691,50.09395],[19.843857,50.093932],[19.843867,50.093973],[19.843835,50.093976],[19.843854,50.094047],[19.84372,50.094062],[19.843691,50.09395]]]}},{"type":"Feature","id":"w321744360","properties":{"type":"yes","address":"Osiedle Sarni Stok 20","residential":true,"residents_est":1,"h3_10":"8a1e05b6d707fff","h3_11":"8b1e05b6d704fff"},"geometry":{"type":"Polygon","coordinates":[[[19.845408,50.094036],[19.84542,50.093913],[19.845564,50.093919],[19.845556,50.094002],[19.845523,50.094001],[19.84552,50.09404],[19.845408,50.094036]]]}},{"type":"Feature","id":"w321744376","properties":{"type":"yes","address":"Akacjowa 16","residential":true,"residents_est":2,"h3_10":"8a1e05b6d717fff","h3_11":"8b1e05b6d715fff"},"geometry":{"type":"Polygon","coordinates":[[[19.844255,50.093211],[19.844481,50.093189],[19.844498,50.093263],[19.844341,50.093278],[19.844339,50.09327],[19.844271,50.093276],[19.844255,50.093211]]]}},{"type":"Feature","id":"w321744463","properties":{"type":"house","levels":2.0,"address":"Osiedle Sarni Stok 8","residential":true,"residents_est":7,"h3_10":"8a1e05b6d72ffff","h3_11":"8b1e05b6d72dfff"},"geometry":{"type":"Polygon","coordinates":[[[19.847516,50.094804],[19.847525,50.094795],[19.847585,50.094785],[19.8476,50.094792],[19.847605,50.094806],[19.847633,50.094801],[19.847604,50.094722],[19.847613,50.094712],[19.847689,50.094701],[19.847703,50.094707],[19.847743,50.094816],[19.847734,50.094825],[19.847748,50.094863],[19.847763,50.094869],[19.847791,50.094947],[19.847781,50.094958],[19.847698,50.09497],[19.847684,50.094963],[19.847667,50.094917],[19.847598,50.094928],[19.847539,50.094904],[19.847518,50.094848],[19.847528,50.094838],[19.847516,50.094804]]]}},{"type":"Feature","id":"w321744488","properties":{"type":"yes","address":"Osiedle Sarni Stok 30","residential":true,"residents_est":2,"h3_10":"8a1e05b6d72ffff","h3_11":"8b1e05b6d728fff"},"geometry":{"type":"Polygon","coordinates":[[[19.846683,50.094556],[19.846855,50.094527],[19.846869,50.094562],[19.846843,50.094566],[19.84685,50.094585],[19.846961,50.094566],[19.846984,50.094621],[19.846728,50.094665],[19.846683,50.094556]]]}},{"type":"Feature","id":"w321744526","properties":{"type":"yes","address":"Lipowa 24","residential":true,"residents_est":1,"h3_10":"8a1e05b6d707fff","h3_11":"8b1e05b6d706fff"},"geometry":{"type":"Polygon","coordinates":[[[19.844475,50.093725],[19.844554,50.093723],[19.844552,50.093702],[19.844647,50.093698],[19.844654,50.09378],[19.844619,50.093781],[19.844621,50.093801],[19.844481,50.093806],[19.844475,50.093725]]]}},{"type":"Feature","id":"w321744554","properties":{"type":"yes","address":"Akacjowa 9","residential":true,"residents_est":2,"h3_10":"8a1e05b6d737fff","h3_11":"8b1e05b6d732fff"},"geometry":{"type":"Polygon","coordinates":[[[19.843234,50.09365],[19.843379,50.093641],[19.843388,50.093698],[19.843431,50.093695],[19.843436,50.093733],[19.843329,50.09374],[19.843333,50.093762],[19.843253,50.093768],[19.843234,50.09365]]]}},{"type":"Feature","id":"w321744561","properties":{"type":"yes","residential":false,"residents_est":0,"h3_10":"8a1e05b6d737fff","h3_11":"8b1e05b6d736fff"},"geometry":{"type":"Polygon","coordinates":[[[19.84325,50.094111],[19.843295,50.094106],[19.843314,50.094167],[19.843268,50.094172],[19.84325,50.094111]]]}},{"type":"Feature","id":"w431258473","properties":{"type":"yes","address":"Osiedle Sarni Stok 44","residential":true,"residents_est":6,"h3_10":"8a1e05b6d70ffff","h3_11":"8b1e05b6d70dfff"},"geometry":{"type":"Polygon","coordinates":[[[19.847246,50.093906],[19.847374,50.09383],[19.847443,50.093875],[19.847487,50.093847],[19.847599,50.093918],[19.847427,50.094022],[19.847246,50.093906]]]}},{"type":"Feature","id":"w706413671","properties":{"type":"yes","residential":false,"residents_est":0,"h3_10":"8a1e05b6d7a7fff","h3_11":"8b1e05b6d7a3fff"},"geometry":{"type":"Polygon","coordinates":[[[19.843099,50.091771],[19.843151,50.091729],[19.843185,50.091747],[19.843134,50.091789],[19.843099,50.091771]]]}},{"type":"Feature","id":"w706413672","properties":{"type":"yes","residential":false,"residents_est":0,"h3_10":"8a1e05b6d787fff","h3_11":"8b1e05b6d780fff"},"geometry":{"type":"Polygon","coordinates":[[[19.84265,50.09131],[19.842673,50.091275],[19.84275,50.091297],[19.842726,50.091332],[19.84265,50.09131]]]}},{"type":"Feature","id":"w706413673","properties":{"type":"yes","residential":false,"residents_est":0,"h3_10":"8a1e05b6d787fff","h3_11":"8b1e05b6d784fff"},"geometry":{"type":"Polygon","coordinates":[[[19.842634,50.091371],[19.842664,50.091322],[19.842728,50.09134],[19.842697,50.091388],[19.842634,50.091371]]]}},{"type":"Feature","id":"w706413674","properties":{"type":"yes","residential":false,"residents_est":0,"h3_10":"8a1e05b6d79ffff","h3_11":"8b1e05b6d79dfff"},"geometry":{"type":"Polygon","coordinates":[[[19.843753,50.090569],[19.843794,50.090557],[19.843817,50.090588],[19.843784,50.090599],[19.843819,50.090647],[19.843812,50.090649],[19.843753,50.090569]]]}},{"type":"Feature","id":"w706413675","properties":{"type":"transformer_tower","residential":false,"residents_est":0,"h3_10":"8a1e05b6d787fff","h3_11":"8b1e05b6d781fff"},"geometry":{"type":"Polygon","coordinates":[[[19.843899,50.091175],[19.84393,50.091157],[19.843991,50.091196],[19.843955,50.091216],[19.843899,50.091175]]]}},{"type":"Feature","id":"w792860758","properties":{"type":"yes","residential":false,"residents_est":0,"h3_10":"8a1e05b6d737fff","h3_11":"8b1e05b6d732fff"},"geometry":{"type":"Polygon","coordinates":[[[19.843264,50.093782],[19.843335,50.093774],[19.843348,50.093819],[19.843276,50.093827],[19.843264,50.093782]]]}},{"type":"Feature","id":"w792860759","properties":{"type":"yes","residential":true,"residents_est":0,"h3_10":"8a1e05b6d737fff","h3_11":"8b1e05b6d732fff"},"geometry":{"type":"Polygon","coordinates":[[[19.843603,50.093788],[19.843716,50.093774],[19.843726,50.09382],[19.843615,50.093834],[19.843603,50.093788]]]}},{"type":"Feature","id":"w792860762","properties":{"type":"yes","address":"Osiedle Sarni Stok 15","residential":true,"residents_est":1,"h3_10":"8a1e05b6d727fff","h3_11":"8b1e05b6d722fff"},"geometry":{"type":"Polygon","coordinates":[[[19.845027,50.094353],[19.845149,50.094342],[19.845157,50.094375],[19.845173,50.094374],[19.845181,50.094409],[19.845165,50.09441],[19.845179,50.094468],[19.845058,50.09448],[19.845043,50.094419],[19.845049,50.094418],[19.845044,50.0944],[19.845038,50.094401],[19.845027,50.094353]]]}},{"type":"Feature","id":"w792860763","properties":{"type":"yes","residential":false,"residents_est":0,"h3_10":"8a1e05b6d717fff","h3_11":"8b1e05b6d714fff"},"geometry":{"type":"Polygon","coordinates":[[[19.84369,50.093301],[19.843708,50.093285],[19.843733,50.093283],[19.843747,50.093337],[19.843701,50.093342],[19.84369,50.093301]]]}},{"type":"Feature","id":"w792860766","properties":{"type":"yes","address":"Lipowa 30","residential":true,"residents_est":1,"h3_10":"8a1e05b6d717fff","h3_11":"8b1e05b6d712fff"},"geometry":{"type":"Polygon","coordinates":[[[19.843534,50.092625],[19.843644,50.092613],[19.843685,50.092777],[19.84368,50.092778],[19.843677,50.092768],[19.843579,50.092779],[19.843581,50.092788],[19.843575,50.092789],[19.843534,50.092625]]]}},{"type":"Feature","id":"w792860767","properties":{"type":"yes","residential":false,"residents_est":0,"h3_10":"8a1e05b6d7affff","h3_11":"8b1e05b6d7adfff"},"geometry":{"type":"Polygon","coordinates":[[[19.844532,50.092431],[19.844586,50.092423],[19.844606,50.092478],[19.844552,50.092486],[19.844532,50.092431]]]}},{"type":"Feature","id":"w794469826","properties":{"type":"yes","residential":true,"residents_est":1,"h3_10":"8a1e05b6d737fff","h3_11":"8b1e05b6d736fff"},"geometry":{"type":"Polygon","coordinates":[[[19.843284,50.094042],[19.843375,50.09403],[19.843403,50.094117],[19.843313,50.094129],[19.843284,50.094042]]]}},{"type":"Feature","id":"w794469828","properties":{"type":"yes","address":"Prosta 13","residential":true,"residents_est":2,"h3_10":"8a1e05b6d737fff","h3_11":"8b1e05b6d736fff"},"geometry":{"type":"Polygon","coordinates":[[[19.842884,50.094224],[19.843107,50.094193],[19.843145,50.094307],[19.842922,50.094337],[19.842884,50.094224]]]}},{"type":"Feature","id":"w906180732","properties":{"type":"farm_auxiliary","levels":1.0,"residential":false,"residents_est":0,"h3_10":"8a1e05b6d7b7fff","h3_11":"8b1e05b6d7b4fff"},"geometry":{"type":"Polygon","coordinates":[[[19.840598,50.091934],[19.840658,50.091854],[19.840721,50.091874],[19.840661,50.091954],[19.840598,50.091934]]]}},{"type":"Feature","id":"w906180733","properties":{"type":"farm_auxiliary","levels":1.0,"residential":false,"residents_est":0,"h3_10":"8a1e05b6d78ffff","h3_11":"8b1e05b6d78afff"},"geometry":{"type":"Polygon","coordinates":[[[19.844392,50.090553],[19.844443,50.09052],[19.84455,50.090587],[19.844502,50.09062],[19.844392,50.090553]]]}},{"type":"Feature","id":"w1076631658","properties":{"type":"yes","residential":false,"residents_est":0,"h3_10":"8a1e05b6d7a7fff","h3_11":"8b1e05b6d7a2fff"},"geometry":{"type":"Polygon","coordinates":[[[19.842568,50.091927],[19.842616,50.091855],[19.842708,50.09188],[19.842661,50.091952],[19.842568,50.091927]]]}},{"type":"Feature","id":"w1246878846","properties":{"type":"yes","residential":true,"residents_est":2,"h3_10":"8a1e05b6d69ffff","h3_11":"8b1e05b6d69cfff"},"geometry":{"type":"Polygon","coordinates":[[[19.84551,50.087953],[19.84566,50.087921],[19.845709,50.088017],[19.845689,50.088022],[19.845705,50.088051],[19.845599,50.088074],[19.845582,50.088041],[19.845558,50.088046],[19.84551,50.087953]]]}},{"type":"Feature","id":"w1246878847","properties":{"type":"construction","residential":false,"residents_est":0,"h3_10":"8a1e05b6d687fff","h3_11":"8b1e05b6d683fff"},"geometry":{"type":"Polygon","coordinates":[[[19.84562,50.088167],[19.845769,50.088136],[19.845818,50.088232],[19.845799,50.088236],[19.845814,50.088266],[19.845709,50.088288],[19.845692,50.088255],[19.845667,50.08826],[19.84562,50.088167]]]}},{"type":"Feature","id":"w1268472171","properties":{"type":"garages","residential":false,"residents_est":0,"h3_10":"8a1e05b6d69ffff","h3_11":"8b1e05b6d69bfff"},"geometry":{"type":"Polygon","coordinates":[[[19.846016,50.086956],[19.846135,50.086933],[19.846156,50.086977],[19.846038,50.087001],[19.846016,50.086956]]]}},{"type":"Feature","id":"w1364560060","properties":{"type":"yes","residential":true,"residents_est":1,"h3_10":"8a1e05b6d687fff","h3_11":"8b1e05b6d682fff"},"geometry":{"type":"Polygon","coordinates":[[[19.845236,50.088198],[19.845366,50.088168],[19.845406,50.088237],[19.845277,50.088268],[19.845236,50.088198]]]}},{"type":"Feature","id":"w1493158501","properties":{"type":"yes","residential":false,"residents_est":0,"h3_10":"8a1e05b6d777fff","h3_11":"8b1e05b6d770fff"},"geometry":{"type":"Polygon","coordinates":[[[19.848833,50.094245],[19.848888,50.094243],[19.848896,50.09431],[19.84884,50.094312],[19.848833,50.094245]]]}},{"type":"Feature","id":"w1503337032","properties":{"type":"yes","address":"Kamienna 31","residential":true,"residents_est":11,"h3_10":"8a1e05b6d7b7fff","h3_11":"8b1e05b6d7b4fff"},"geometry":{"type":"Polygon","coordinates":[[[19.84073,50.092212],[19.840948,50.091874],[19.841124,50.091924],[19.840907,50.09226],[19.84073,50.092212]]]}},{"type":"Feature","id":"w1546237965","properties":{"type":"yes","residential":true,"residents_est":8,"h3_10":"8a1e05b6d72ffff","h3_11":"8b1e05b6d728fff"},"geometry":{"type":"Polygon","coordinates":[[[19.846596,50.09437],[19.846787,50.094308],[19.846776,50.094294],[19.846866,50.094265],[19.846886,50.094289],[19.846956,50.094267],[19.84701,50.094336],[19.846931,50.094362],[19.846942,50.094376],[19.846879,50.094397],[19.846899,50.094422],[19.846794,50.094456],[19.846783,50.094442],[19.84668,50.094476],[19.846596,50.09437]]]}}]}