{"type":"FeatureCollection","features":[{"type":"Feature","id":"w132356895","properties":{"type":"yes","address":"Gromadzka 52","residential":true,"residents_est":8,"h3_10":"8a1e2e682917fff","h3_11":"8b1e2e682910fff"},"geometry":{"type":"Polygon","coordinates":[[[19.976854,50.037083],[19.977194,50.037054],[19.977219,50.037179],[19.976879,50.037208],[19.976854,50.037083]]]}},{"type":"Feature","id":"w132356896","properties":{"type":"yes","address":"Gromadzka 52A","residential":true,"residents_est":3,"h3_10":"8a1e2e682917fff","h3_11":"8b1e2e682911fff"},"geometry":{"type":"Polygon","coordinates":[[[19.977425,50.037167],[19.977447,50.037078],[19.97778,50.037112],[19.977757,50.037201],[19.977425,50.037167]]]}},{"type":"Feature","id":"w132356917","properties":{"type":"yes","residential":true,"residents_est":37,"h3_10":"8a1e2e6829affff","h3_11":"8b1e2e6829adfff"},"geometry":{"type":"Polygon","coordinates":[[[19.977576,50.036752],[19.977941,50.036452],[19.97771,50.036335],[19.97787,50.036204],[19.978268,50.036407],[19.977902,50.036707],[19.978106,50.03681],[19.977948,50.03694],[19.977576,50.036752]]]}},{"type":"Feature","id":"w132356918","properties":{"type":"yes","address":"Gromadzka 52","name":"CitoNet","residential":true,"residents_est":22,"h3_10":"8a1e2e682907fff","h3_11":"8b1e2e682905fff"},"geometry":{"type":"Polygon","coordinates":[[[19.97863,50.038332],[19.97863,50.038209],[19.978784,50.038209],[19.978784,50.038195],[19.978743,50.038195],[19.978743,50.038123],[19.97896,50.038122],[19.97896,50.038248],[19.978918,50.038248],[19.978918,50.038411],[19.97894,50.038411],[19.978939,50.038594],[19.978744,50.038594],[19.978744,50.038539],[19.978786,50.038539],[19.978786,50.038507],[19.978631,50.038508],[19.97863,50.038411],[19.978651,50.038411],[19.978651,50.038332],[19.97863,50.038332]]]}},{"type":"Feature","id":"w132356920","properties":{"type":"yes","residential":true,"residents_est":14,"h3_10":"8a1e2e6829affff","h3_11":"8b1e2e6829aefff"},"geometry":{"type":"Polygon","coordinates":[[[19.976657,50.036193],[19.976791,50.036085],[19.977228,50.036313],[19.977092,50.036421],[19.976657,50.036193]]]}},{"type":"Feature","id":"w132356921","properties":{"type":"yes","residential":true,"residents_est":26,"h3_10":"8a1e2e682907fff","h3_11":"8b1e2e682902fff"},"geometry":{"type":"Polygon","coordinates":[[[19.977286,50.037383],[19.977404,50.037262],[19.978085,50.037537],[19.978128,50.037495],[19.97824,50.037536],[19.978165,50.037613],[19.978227,50.037638],[19.978204,50.037663],[19.978187,50.037656],[19.978121,50.037718],[19.977286,50.037383]]]}},{"type":"Feature","id":"w132356930","properties":{"type":"warehouse","residential":false,"residents_est":0,"h3_10":"8a1e2e682837fff","h3_11":"8b1e2e682834fff"},"geometry":{"type":"Polygon","coordinates":[[[19.978175,50.036126],[19.97838,50.03596],[19.978349,50.035933],[19.978402,50.035889],[19.978547,50.035825],[19.97865,50.035743],[19.978605,50.035721],[19.97876,50.035654],[19.978858,50.035576],[19.978822,50.035553],[19.978963,50.035491],[19.979018,50.035446],[19.979564,50.035727],[19.979502,50.035829],[19.979458,50.035813],[19.979351,50.035898],[19.979292,50.035997],[19.979248,50.035981],[19.978983,50.036196],[19.978916,50.036162],[19.978708,50.036329],[19.978631,50.036361],[19.978175,50.036126]]]}},{"type":"Feature","id":"w132356933","properties":{"type":"yes","residential":true,"residents_est":26,"h3_10":"8a1e2e682927fff","h3_11":"8b1e2e682921fff"},"geometry":{"type":"Polygon","coordinates":[[[19.978664,50.038972],[19.979334,50.038969],[19.979334,50.038979],[19.979363,50.038979],[19.979363,50.039002],[19.979336,50.039002],[19.979338,50.039183],[19.978666,50.039186],[19.978664,50.038972]]]}},{"type":"Feature","id":"w148526071","properties":{"type":"yes","residential":true,"residents_est":14,"h3_10":"8a1e2e682997fff","h3_11":"8b1e2e682992fff"},"geometry":{"type":"Polygon","coordinates":[[[19.974124,50.03413],[19.974721,50.033691],[19.974818,50.033745],[19.974223,50.034188],[19.974124,50.03413]]]}},{"type":"Feature","id":"w151550034","properties":{"type":"apartments","levels":3.0,"address":"Prokocimska 2C","residential":true,"residents_est":10,"h3_10":"8a1e2e68299ffff","h3_11":"8b1e2e68299afff"},"geometry":{"type":"Polygon","coordinates":[[[19.975547,50.033884],[19.975627,50.033825],[19.97562,50.03382],[19.975689,50.033768],[19.975698,50.033772],[19.97578,50.033713],[19.975904,50.033784],[19.975674,50.033955],[19.975547,50.033884]]]}},{"type":"Feature","id":"w151550055","properties":{"type":"yes","address":"Prokocimska 2B","name":"Przedsiębiorstwo Napraw i Utrzymania Infrastruktury Kolejowej w Krakowie Sp. z o. o.","residential":true,"residents_est":3,"h3_10":"8a1e2e682997fff","h3_11":"8b1e2e682993fff"},"geometry":{"type":"Polygon","coordinates":[[[19.97507,50.03425],[19.975141,50.034197],[19.975131,50.034192],[19.975181,50.034154],[19.975192,50.03416],[19.975265,50.034107],[19.975377,50.034172],[19.975183,50.034314],[19.97507,50.03425]]]}},{"type":"Feature","id":"w151550058","properties":{"type":"yes","residential":false,"residents_est":0,"h3_10":"8a1e2e682997fff","h3_11":"8b1e2e682993fff"},"geometry":{"type":"Polygon","coordinates":[[[19.974746,50.034297],[19.974802,50.034255],[19.974869,50.034293],[19.974813,50.034334],[19.974746,50.034297]]]}},{"type":"Feature","id":"w151550078","properties":{"type":"retail","levels":1.0,"residential":false,"residents_est":0,"h3_10":"8a1e2e682997fff","h3_11":"8b1e2e682996fff"},"geometry":{"type":"Polygon","coordinates":[[[19.973681,50.034551],[19.973682,50.034538],[19.973733,50.034497],[19.973756,50.034495],[19.97382,50.03453],[19.973818,50.034543],[19.973765,50.034584],[19.973744,50.034585],[19.973681,50.034551]]]}},{"type":"Feature","id":"w155010832","properties":{"type":"commercial","name":"ELTE Group","residential":false,"residents_est":0,"h3_10":"8a1e2e682937fff","h3_11":"8b1e2e682936fff"},"geometry":{"type":"Polygon","coordinates":[[[19.976012,50.03856],[19.976051,50.038287],[19.976256,50.038299],[19.976249,50.038348],[19.976281,50.03835],[19.976273,50.038414],[19.97624,50.038412],[19.976218,50.038572],[19.976012,50.03856]]]}},{"type":"Feature","id":"w159326461","properties":{"type":"yes","residential":false,"residents_est":0,"h3_10":"8a1e2e682897fff","h3_11":"8b1e2e682895fff"},"geometry":{"type":"Polygon","coordinates":[[[19.976912,50.032597],[19.977088,50.032373],[19.977511,50.032069],[19.977433,50.032034],[19.978071,50.031572],[19.978309,50.031697],[19.977239,50.032498],[19.977265,50.03251],[19.977197,50.032569],[19.977295,50.032621],[19.977154,50.032729],[19.976912,50.032597]]]}},{"type":"Feature","id":"w159480215","properties":{"type":"yes","residential":false,"residents_est":0,"h3_10":"8a1e2e682997fff","h3_11":"8b1e2e682992fff"},"geometry":{"type":"Polygon","coordinates":[[[19.973946,50.034324],[19.973982,50.034295],[19.974025,50.034318],[19.973989,50.034346],[19.973946,50.034324]]]}},{"type":"Feature","id":"w159653789","properties":{"type":"industrial","levels":1.0,"residential":false,"residents_est":0,"h3_10":"8a1e2e682827fff","h3_11":"8b1e2e682825fff"},"geometry":{"type":"Polygon","coordinates":[[[19.980644,50.036764],[19.980653,50.036489],[19.981751,50.036505],[19.981741,50.03678],[19.980644,50.036764]]]}},{"type":"Feature","id":"w159653790","properties":{"type":"yes","residential":true,"residents_est":14,"h3_10":"8a1e2e68281ffff","h3_11":"8b1e2e68281efff"},"geometry":{"type":"Polygon","coordinates":[[[19.980692,50.034598],[19.98073,50.034143],[19.980897,50.034149],[19.98086,50.034604],[19.980692,50.034598]]]}},{"type":"Feature","id":"w159653791","properties":{"type":"yes","residential":true,"residents_est":1,"h3_10":"8a1e2e682817fff","h3_11":"8b1e2e682815fff"},"geometry":{"type":"Polygon","coordinates":[[[19.979795,50.034769],[19.97984,50.034708],[19.980002,50.034758],[19.979955,50.034819],[19.979795,50.034769]]]}},{"type":"Feature","id":"w159653792","properties":{"type":"yes","residential":true,"residents_est":11,"h3_10":"8a1e2e68281ffff","h3_11":"8b1e2e68281efff"},"geometry":{"type":"Polygon","coordinates":[[[19.980406,50.034587],[19.980448,50.034094],[19.980576,50.034098],[19.980534,50.034593],[19.980406,50.034587]]]}},{"type":"Feature","id":"w159653793","properties":{"type":"yes","residential":true,"residents_est":1,"h3_10":"8a1e2e682807fff","h3_11":"8b1e2e682802fff"},"geometry":{"type":"Polygon","coordinates":[[[19.980287,50.035068],[19.980384,50.034985],[19.980439,50.035011],[19.980338,50.035093],[19.980287,50.035068]]]}},{"type":"Feature","id":"w159653795","properties":{"type":"yes","residential":true,"residents_est":2,"h3_10":"8a1e2e6828affff","h3_11":"8b1e2e6828a9fff"},"geometry":{"type":"Polygon","coordinates":[[[19.980478,50.03363],[19.980485,50.033545],[19.980731,50.033553],[19.980724,50.033638],[19.980478,50.03363]]]}},{"type":"Feature","id":"w159653797","properties":{"type":"yes","residential":true,"residents_est":1,"h3_10":"8a1e2e682907fff","h3_11":"8b1e2e682902fff"},"geometry":{"type":"Polygon","coordinates":[[[19.978233,50.037462],[19.978318,50.037396],[19.978382,50.037429],[19.978297,50.037496],[19.978233,50.037462]]]}},{"type":"Feature","id":"w159653803","properties":{"type":"yes","residential":true,"residents_est":2,"h3_10":"8a1e2e68298ffff","h3_11":"8b1e2e682988fff"},"geometry":{"type":"Polygon","coordinates":[[[19.977852,50.034952],[19.977898,50.034852],[19.978126,50.034894],[19.978083,50.034995],[19.977852,50.034952]]]}},{"type":"Feature","id":"w159653804","properties":{"type":"yes","residential":true,"residents_est":1,"h3_10":"8a1e2e6829affff","h3_11":"8b1e2e6829acfff"},"geometry":{"type":"Polygon","coordinates":[[[19.976853,50.036542],[19.976959,50.036464],[19.977082,50.036534],[19.976976,50.036612],[19.976853,50.036542]]]}},{"type":"Feature","id":"w159653805","properties":{"type":"yes","residential":true,"residents_est":1,"h3_10":"8a1e2e6829affff","h3_11":"8b1e2e6829acfff"},"geometry":{"type":"Polygon","coordinates":[[[19.976778,50.036478],[19.976867,50.036415],[19.976959,50.036464],[19.97687,50.03653],[19.976778,50.036478]]]}},{"type":"Feature","id":"w159653809","properties":{"type":"yes","residential":true,"residents_est":1,"h3_10":"8a1e2e682837fff","h3_11":"8b1e2e682831fff"},"geometry":{"type":"Polygon","coordinates":[[[19.979605,50.035569],[19.979671,50.035515],[19.979782,50.03557],[19.979716,50.035624],[19.979605,50.035569]]]}},{"type":"Feature","id":"w159653810","properties":{"type":"yes","residential":true,"residents_est":1,"h3_10":"8a1e2e6828affff","h3_11":"8b1e2e6828adfff"},"geometry":{"type":"Polygon","coordinates":[[[19.980583,50.033924],[19.980593,50.033837],[19.980711,50.033842],[19.980702,50.033929],[19.980583,50.033924]]]}},{"type":"Feature","id":"w159653813","properties":{"type":"yes","address":"Gromadzka 69","residential":true,"residents_est":1,"h3_10":"8a1e2e682937fff","h3_11":"8b1e2e682930fff"},"geometry":{"type":"Polygon","coordinates":[[[19.976759,50.038406],[19.97689,50.038402],[19.976925,50.038515],[19.976796,50.038532],[19.976759,50.038406]]]}},{"type":"Feature","id":"w159653816","properties":{"type":"yes","address":"Gromadzka 85","residential":true,"residents_est":1,"h3_10":"8a1e2e682917fff","h3_11":"8b1e2e682916fff"},"geometry":{"type":"Polygon","coordinates":[[[19.976454,50.037008],[19.976579,50.036994],[19.976604,50.037082],[19.97646,50.037099],[19.976457,50.037091],[19.976476,50.037089],[19.976454,50.037008]]]}},{"type":"Feature","id":"w159653819","properties":{"type":"yes","residential":true,"residents_est":108,"h3_10":"8a1e2e68295ffff","h3_11":"8b1e2e68295cfff"},"geometry":{"type":"Polygon","coordinates":[[[19.983297,50.037564],[19.983322,50.036982],[19.983412,50.036957],[19.98416,50.036969],[19.984246,50.036997],[19.98424,50.037134],[19.984324,50.037135],[19.984308,50.037559],[19.984268,50.037581],[19.983297,50.037564]]]}},{"type":"Feature","id":"w159653820","properties":{"type":"yes","residential":true,"residents_est":11,"h3_10":"8a1e2e682957fff","h3_11":"8b1e2e682952fff"},"geometry":{"type":"Polygon","coordinates":[[[19.982001,50.037105],[19.982016,50.036667],[19.982149,50.03667],[19.982135,50.037108],[19.982001,50.037105]]]}},{"type":"Feature","id":"w159653823","properties":{"type":"yes","residential":true,"residents_est":6,"h3_10":"8a1e2e6828affff","h3_11":"8b1e2e6828acfff"},"geometry":{"type":"Polygon","coordinates":[[[19.979573,50.033903],[19.97989,50.03369],[19.979973,50.033741],[19.97966,50.033952],[19.979573,50.033903]]]}},{"type":"Feature","id":"w159653824","properties":{"type":"yes","residential":false,"residents_est":0,"h3_10":"8a1e2e682917fff","h3_11":"8b1e2e682916fff"},"geometry":{"type":"Polygon","coordinates":[[[19.976124,50.037232],[19.976128,50.037153],[19.976168,50.037153],[19.976166,50.037233],[19.976124,50.037232]]]}},{"type":"Feature","id":"w159653827","properties":{"type":"yes","residential":true,"residents_est":2,"h3_10":"8a1e2e6828affff","h3_11":"8b1e2e6828adfff"},"geometry":{"type":"Polygon","coordinates":[[[19.980459,50.033874],[19.980478,50.03363],[19.980585,50.033634],[19.980564,50.033877],[19.980459,50.033874]]]}},{"type":"Feature","id":"w159653830","properties":{"type":"yes","address":"Gromadzka 67a","residential":true,"residents_est":1,"h3_10":"8a1e2e682937fff","h3_11":"8b1e2e682934fff"},"geometry":{"type":"Polygon","coordinates":[[[19.976797,50.038532],[19.976925,50.038515],[19.976957,50.038618],[19.976829,50.038635],[19.976797,50.038532]]]}},{"type":"Feature","id":"w159653840","properties":{"type":"yes","residential":true,"residents_est":2,"h3_10":"8a1e2e682837fff","h3_11":"8b1e2e682831fff"},"geometry":{"type":"Polygon","coordinates":[[[19.980065,50.03579],[19.980295,50.035616],[19.980381,50.035663],[19.980152,50.035837],[19.980065,50.03579]]]}},{"type":"Feature","id":"w159653842","properties":{"type":"yes","residential":true,"residents_est":35,"h3_10":"8a1e2e68290ffff","h3_11":"8b1e2e682909fff"},"geometry":{"type":"Polygon","coordinates":[[[19.980463,50.037389],[19.980467,50.03728],[19.982257,50.037306],[19.982253,50.037416],[19.980463,50.037389]]]}},{"type":"Feature","id":"w159653846","properties":{"type":"yes","residential":true,"residents_est":1,"h3_10":"8a1e2e682907fff","h3_11":"8b1e2e682902fff"},"geometry":{"type":"Polygon","coordinates":[[[19.978085,50.037435],[19.978212,50.037338],[19.978311,50.037392],[19.978184,50.037489],[19.978085,50.037435]]]}},{"type":"Feature","id":"w159653847","properties":{"type":"service","levels":1.0,"residential":false,"residents_est":0,"h3_10":"8a1e2e682967fff","h3_11":"8b1e2e682966fff"},"geometry":{"type":"Polygon","coordinates":[[[19.982294,50.039126],[19.982297,50.039067],[19.982468,50.039069],[19.982466,50.039128],[19.982294,50.039126]]]}},{"type":"Feature","id":"w159653850","properties":{"type":"yes","address":"Gromadzka 93","residential":true,"residents_est":2,"h3_10":"8a1e2e6829a7fff","h3_11":"8b1e2e6829a1fff"},"geometry":{"type":"Polygon","coordinates":[[[19.976242,50.036407],[19.976382,50.036393],[19.976422,50.036559],[19.976284,50.036573],[19.976242,50.036407]]]}},{"type":"Feature","id":"w159653851","properties":{"type":"service","levels":1.0,"residential":false,"residents_est":0,"h3_10":"8a1e2e682957fff","h3_11":"8b1e2e682955fff"},"geometry":{"type":"Polygon","coordinates":[[[19.982515,50.037433],[19.98252,50.037372],[19.982626,50.037375],[19.982621,50.037437],[19.982515,50.037433]]]}},{"type":"Feature","id":"w159653867","properties":{"type":"yes","address":"Gromadzka 91","residential":true,"residents_est":2,"h3_10":"8a1e2e6829a7fff","h3_11":"8b1e2e6829a5fff"},"geometry":{"type":"Polygon","coordinates":[[[19.976284,50.036573],[19.976422,50.036559],[19.976477,50.036687],[19.976357,50.036708],[19.976342,50.036671],[19.976314,50.036677],[19.976299,50.036644],[19.976327,50.036639],[19.976313,50.036607],[19.976292,50.036611],[19.976284,50.036573]]]}},{"type":"Feature","id":"w159653870","properties":{"type":"yes","residential":true,"residents_est":6,"h3_10":"8a1e2e682807fff","h3_11":"8b1e2e682802fff"},"geometry":{"type":"Polygon","coordinates":[[[19.980362,50.034929],[19.980579,50.034745],[19.980639,50.034775],[19.980762,50.034672],[19.980808,50.034694],[19.980464,50.034978],[19.980362,50.034929]]]}},{"type":"Feature","id":"w159653874","properties":{"type":"yes","residential":true,"residents_est":1,"h3_10":"8a1e2e6829a7fff","h3_11":"8b1e2e6829a1fff"},"geometry":{"type":"Polygon","coordinates":[[[19.9767,50.036455],[19.976806,50.036379],[19.976867,50.036415],[19.976762,50.036489],[19.9767,50.036455]]]}},{"type":"Feature","id":"w159653888","properties":{"type":"yes","residential":true,"residents_est":10,"h3_10":"8a1e2e6828f7fff","h3_11":"8b1e2e6828f2fff"},"geometry":{"type":"Polygon","coordinates":[[[19.981416,50.033005],[19.981423,50.0328],[19.981711,50.032807],[19.981705,50.032912],[19.981698,50.032912],[19.981697,50.032943],[19.981692,50.032943],[19.981688,50.033011],[19.981416,50.033005]]]}},{"type":"Feature","id":"w159653893","properties":{"type":"yes","address":"Gromadzka 67","residential":true,"residents_est":1,"h3_10":"8a1e2e682937fff","h3_11":"8b1e2e682935fff"},"geometry":{"type":"Polygon","coordinates":[[[19.976829,50.038635],[19.976957,50.038618],[19.976989,50.038724],[19.976862,50.038741],[19.976829,50.038635]]]}},{"type":"Feature","id":"w159653895","properties":{"type":"house","address":"Wodna 40","residential":true,"residents_est":3,"h3_10":"8a1e2e682917fff","h3_11":"8b1e2e682914fff"},"geometry":{"type":"Polygon","coordinates":[[[19.976513,50.037437],[19.976692,50.037427],[19.976701,50.037518],[19.976529,50.037528],[19.976513,50.037437]]]}},{"type":"Feature","id":"w159653898","properties":{"type":"industrial","levels":1.0,"residential":false,"residents_est":0,"h3_10":"8a1e2e68290ffff","h3_11":"8b1e2e68290bfff"},"geometry":{"type":"Polygon","coordinates":[[[19.98064,50.037164],[19.98064,50.03689],[19.981743,50.036905],[19.981732,50.037179],[19.98064,50.037164]]]}},{"type":"Feature","id":"w159653901","properties":{"type":"yes","address":"Saska 12","residential":true,"residents_est":24,"h3_10":"8a1e2e682947fff","h3_11":"8b1e2e682940fff"},"geometry":{"type":"Polygon","coordinates":[[[19.983283,50.037774],[19.983288,50.037645],[19.984304,50.037662],[19.984298,50.037791],[19.983283,50.037774]]]}},{"type":"Feature","id":"w159653906","properties":{"type":"yes","address":"Wodna 37","residential":true,"residents_est":2,"h3_10":"8a1e2e682917fff","h3_11":"8b1e2e682916fff"},"geometry":{"type":"Polygon","coordinates":[[[19.97634,50.037283],[19.976348,50.037189],[19.97655,50.037196],[19.976543,50.03729],[19.97634,50.037283]]]}},{"type":"Feature","id":"w159653909","properties":{"type":"yes","residential":true,"residents_est":2,"h3_10":"8a1e2e682947fff","h3_11":"8b1e2e682941fff"},"geometry":{"type":"Polygon","coordinates":[[[19.984385,50.037692],[19.984539,50.03769],[19.984543,50.037821],[19.984388,50.037822],[19.984385,50.037692]]]}},{"type":"Feature","id":"w159653911","properties":{"type":"yes","address":"Gromadzka 75","residential":true,"residents_est":1,"h3_10":"8a1e2e682937fff","h3_11":"8b1e2e682932fff"},"geometry":{"type":"Polygon","coordinates":[[[19.976576,50.03793],[19.976791,50.037909],[19.976808,50.037992],[19.976599,50.038015],[19.976576,50.03793]]]}},{"type":"Feature","id":"w159653912","properties":{"type":"yes","residential":true,"residents_est":9,"h3_10":"8a1e2e682827fff","h3_11":"8b1e2e682822fff"},"geometry":{"type":"Polygon","coordinates":[[[19.979892,50.035999],[19.979976,50.035933],[19.980415,50.036168],[19.98033,50.036233],[19.979892,50.035999]]]}},{"type":"Feature","id":"w159653924","properties":{"type":"yes","residential":true,"residents_est":2,"h3_10":"8a1e2e682837fff","h3_11":"8b1e2e682832fff"},"geometry":{"type":"Polygon","coordinates":[[[19.979071,50.035259],[19.979157,50.035188],[19.979241,50.035229],[19.979283,50.035194],[19.97934,50.035223],[19.979211,50.035328],[19.979071,50.035259]]]}},{"type":"Feature","id":"w159653926","properties":{"type":"yes","residential":false,"residents_est":0,"h3_10":"8a1e2e6828affff","h3_11":"8b1e2e6828adfff"},"geometry":{"type":"Polygon","coordinates":[[[19.9803,50.03381],[19.980356,50.033767],[19.980396,50.03379],[19.980342,50.033831],[19.9803,50.03381]]]}},{"type":"Feature","id":"w159653928","properties":{"type":"yes","name":"Elikart M Tor gokartowy","residential":true,"residents_est":21,"h3_10":"8a1e2e682817fff","h3_11":"8b1e2e682811fff"},"geometry":{"type":"Polygon","coordinates":[[[19.979544,50.034616],[19.979645,50.034469],[19.980414,50.034702],[19.980356,50.034782],[19.980245,50.034748],[19.980239,50.034756],[19.980125,50.034721],[19.98008,50.034782],[19.979544,50.034616]]]}},{"type":"Feature","id":"w159653957","properties":{"type":"yes","residential":true,"residents_est":2,"h3_10":"8a1e2e68281ffff","h3_11":"8b1e2e68281efff"},"geometry":{"type":"Polygon","coordinates":[[[19.980805,50.034146],[19.980812,50.034057],[19.981018,50.034065],[19.981009,50.034153],[19.980805,50.034146]]]}},{"type":"Feature","id":"w159653959","properties":{"type":"yes","residential":true,"residents_est":3,"h3_10":"8a1e2e6828affff","h3_11":"8b1e2e6828adfff"},"geometry":{"type":"Polygon","coordinates":[[[19.979992,50.033721],[19.98008,50.033654],[19.980282,50.033765],[19.980311,50.033742],[19.980356,50.033767],[19.980236,50.033856],[19.979992,50.033721]]]}},{"type":"Feature","id":"w159653962","properties":{"type":"yes","residential":true,"residents_est":36,"h3_10":"8a1e2e68281ffff","h3_11":"8b1e2e68281afff"},"geometry":{"type":"Polygon","coordinates":[[[19.9809,50.034061],[19.980951,50.033407],[19.981203,50.033415],[19.981195,50.033516],[19.981255,50.033515],[19.981216,50.034069],[19.9809,50.034061]]]}},{"type":"Feature","id":"w159653964","properties":{"type":"yes","address":"Gromadzka 66e","residential":true,"residents_est":13,"h3_10":"8a1e2e6828affff","h3_11":"8b1e2e6828a9fff"},"geometry":{"type":"Polygon","coordinates":[[[19.980373,50.033428],[19.98039,50.033231],[19.980753,50.033244],[19.980739,50.033439],[19.980373,50.033428]]]}},{"type":"Feature","id":"w159653969","properties":{"type":"yes","residential":true,"residents_est":30,"h3_10":"8a1e2e6828f7fff","h3_11":"8b1e2e6828f6fff"},"geometry":{"type":"Polygon","coordinates":[[[19.980889,50.03342],[19.980912,50.033053],[19.980985,50.033055],[19.980992,50.032972],[19.981019,50.032961],[19.981304,50.032971],[19.981271,50.033416],[19.980951,50.033407],[19.98095,50.033421],[19.980889,50.03342]]]}},{"type":"Feature","id":"w162591188","properties":{"type":"yes","residential":true,"residents_est":1,"h3_10":"8a1e2e682867fff","h3_11":"8b1e2e682865fff"},"geometry":{"type":"Polygon","coordinates":[[[19.986294,50.036955],[19.986392,50.036903],[19.986487,50.036974],[19.986395,50.037025],[19.986294,50.036955]]]}},{"type":"Feature","id":"w162591194","properties":{"type":"yes","residential":true,"residents_est":2,"h3_10":"8a1e2e68286ffff","h3_11":"8b1e2e68286afff"},"geometry":{"type":"Polygon","coordinates":[[[19.986985,50.035707],[19.987132,50.035632],[19.987243,50.035723],[19.987103,50.035799],[19.986985,50.035707]]]}},{"type":"Feature","id":"w162591222","properties":{"type":"church","name":"Kościół pw. Przenajświętszej Trójcy","residential":false,"residents_est":0,"h3_10":"8a1e2e682847fff","h3_11":"8b1e2e682841fff"},"geometry":{"type":"Polygon","coordinates":[[[19.986728,50.035513],[19.986736,50.03549],[19.986787,50.035444],[19.986848,50.035413],[19.986886,50.035402],[19.986949,50.03539],[19.986994,50.03539],[19.987034,50.035399],[19.98706,50.035421],[19.987061,50.035447],[19.987051,50.035466],[19.987011,50.035502],[19.986955,50.035532],[19.986886,50.035554],[19.986803,50.035562],[19.986771,50.035556],[19.986775,50.03555],[19.986799,50.035555],[19.986795,50.03553],[19.986788,50.035533],[19.986769,50.035513],[19.986776,50.03551],[19.986743,50.035497],[19.986738,50.035513],[19.986728,50.035513]]]}},{"type":"Feature","id":"w162591226","properties":{"type":"yes","residential":true,"residents_est":1,"h3_10":"8a1e2e682867fff","h3_11":"8b1e2e682861fff"},"geometry":{"type":"Polygon","coordinates":[[[19.986431,50.036609],[19.986548,50.036545],[19.986591,50.036577],[19.986578,50.036584],[19.986618,50.036614],[19.986514,50.036672],[19.986431,50.036609]]]}},{"type":"Feature","id":"w162591237","properties":{"type":"yes","residential":true,"residents_est":2,"h3_10":"8a1e2e68286ffff","h3_11":"8b1e2e68286cfff"},"geometry":{"type":"Polygon","coordinates":[[[19.986969,50.036587],[19.987061,50.036541],[19.987135,50.036603],[19.987149,50.036596],[19.987127,50.036583],[19.987144,50.036575],[19.98715,50.03658],[19.987145,50.036583],[19.987229,50.036652],[19.987143,50.036695],[19.987132,50.036686],[19.987106,50.036699],[19.986969,50.036587]]]}},{"type":"Feature","id":"w162591269","properties":{"type":"yes","residential":true,"residents_est":2,"h3_10":"8a1e2e68286ffff","h3_11":"8b1e2e68286bfff"},"geometry":{"type":"Polygon","coordinates":[[[19.987505,50.035622],[19.987529,50.035505],[19.987684,50.035518],[19.987658,50.035643],[19.987597,50.035638],[19.987592,50.035662],[19.987521,50.035656],[19.987527,50.035624],[19.987505,50.035622]]]}},{"type":"Feature","id":"w162591306","properties":{"type":"house","residential":true,"residents_est":2,"h3_10":"8a1e2e68286ffff","h3_11":"8b1e2e68286efff"},"geometry":{"type":"Polygon","coordinates":[[[19.986542,50.036018],[19.986591,50.035994],[19.986613,50.036012],[19.986673,50.035982],[19.986758,50.036053],[19.986649,50.036107],[19.986542,50.036018]]]}},{"type":"Feature","id":"w162591308","properties":{"type":"yes","residential":true,"residents_est":2,"h3_10":"8a1e2e68286ffff","h3_11":"8b1e2e682869fff"},"geometry":{"type":"Polygon","coordinates":[[[19.987961,50.036137],[19.98809,50.036077],[19.988199,50.036176],[19.98812,50.036212],[19.988108,50.036201],[19.988058,50.036224],[19.987961,50.036137]]]}},{"type":"Feature","id":"w162591348","properties":{"type":"house","residential":true,"residents_est":2,"h3_10":"8a1e2e68286ffff","h3_11":"8b1e2e68286efff"},"geometry":{"type":"Polygon","coordinates":[[[19.986385,50.036183],[19.98643,50.036161],[19.986423,50.036155],[19.986475,50.036129],[19.98654,50.036183],[19.986554,50.036177],[19.986586,50.036204],[19.986476,50.036259],[19.986385,50.036183]]]}},{"type":"Feature","id":"w162591394","properties":{"type":"yes","residential":true,"residents_est":1,"h3_10":"8a1e2e68284ffff","h3_11":"8b1e2e68284dfff"},"geometry":{"type":"Polygon","coordinates":[[[19.988119,50.03515],[19.988185,50.035115],[19.988264,50.035178],[19.988172,50.03522],[19.988136,50.035192],[19.988162,50.035184],[19.988119,50.03515]]]}},{"type":"Feature","id":"w162591438","properties":{"type":"house","residential":true,"residents_est":2,"h3_10":"8a1e2e682867fff","h3_11":"8b1e2e682864fff"},"geometry":{"type":"Polygon","coordinates":[[[19.985119,50.03677],[19.985245,50.036715],[19.985325,50.036795],[19.985197,50.036848],[19.985119,50.03677]]]}},{"type":"Feature","id":"w162591441","properties":{"type":"yes","address":"Kacza 8","residential":true,"residents_est":1,"h3_10":"8a1e2e68286ffff","h3_11":"8b1e2e68286cfff"},"geometry":{"type":"Polygon","coordinates":[[[19.987322,50.036475],[19.987425,50.036422],[19.987506,50.036489],[19.987499,50.036492],[19.987483,50.036479],[19.987468,50.036487],[19.987501,50.036513],[19.98742,50.036555],[19.987322,50.036475]]]}},{"type":"Feature","id":"w162591447","properties":{"type":"yes","residential":true,"residents_est":1,"h3_10":"8a1e2e68286ffff","h3_11":"8b1e2e682868fff"},"geometry":{"type":"Polygon","coordinates":[[[19.987416,50.036044],[19.987536,50.035979],[19.987619,50.036042],[19.98758,50.036063],[19.987595,50.036074],[19.987563,50.036091],[19.98755,50.036081],[19.987499,50.036108],[19.987416,50.036044]]]}},{"type":"Feature","id":"w162591464","properties":{"type":"yes","address":"Kacza 29","residential":true,"residents_est":1,"h3_10":"8a1e2e68286ffff","h3_11":"8b1e2e682869fff"},"geometry":{"type":"Polygon","coordinates":[[[19.98815,50.03604],[19.988283,50.035976],[19.988382,50.036062],[19.988346,50.036079],[19.988353,50.036086],[19.988305,50.036109],[19.988297,50.036102],[19.988249,50.036125],[19.98815,50.03604]]]}},{"type":"Feature","id":"w162591470","properties":{"type":"yes","residential":true,"residents_est":2,"h3_10":"8a1e2e68294ffff","h3_11":"8b1e2e68294bfff"},"geometry":{"type":"Polygon","coordinates":[[[19.985785,50.03725],[19.985835,50.037224],[19.98585,50.037236],[19.985906,50.037206],[19.985897,50.037199],[19.985966,50.037162],[19.986072,50.037245],[19.98604,50.037262],[19.986031,50.037256],[19.985932,50.037309],[19.985904,50.037287],[19.985862,50.03731],[19.985785,50.03725]]]}},{"type":"Feature","id":"w162591479","properties":{"type":"house","residential":true,"residents_est":3,"h3_10":"8a1e2e68286ffff","h3_11":"8b1e2e68286efff"},"geometry":{"type":"Polygon","coordinates":[[[19.986673,50.035982],[19.986782,50.035928],[19.986865,50.035997],[19.986891,50.035984],[19.986922,50.03601],[19.986838,50.036052],[19.986809,50.036028],[19.986758,50.036053],[19.986673,50.035982]]]}},{"type":"Feature","id":"w162591507","properties":{"type":"yes","residential":true,"residents_est":1,"h3_10":"8a1e2e682867fff","h3_11":"8b1e2e682860fff"},"geometry":{"type":"Polygon","coordinates":[[[19.98562,50.036528],[19.985684,50.036494],[19.985694,50.036502],[19.98575,50.036473],[19.98583,50.036535],[19.985711,50.036599],[19.98562,50.036528]]]}},{"type":"Feature","id":"w162591514","properties":{"type":"yes","residential":true,"residents_est":1,"h3_10":"8a1e2e68296ffff","h3_11":"8b1e2e682969fff"},"geometry":{"type":"Polygon","coordinates":[[[19.985962,50.038605],[19.986082,50.038558],[19.986159,50.038639],[19.986038,50.038686],[19.985962,50.038605]]]}},{"type":"Feature","id":"w162591538","properties":{"type":"yes","residential":true,"residents_est":1,"h3_10":"8a1e2e68294ffff","h3_11":"8b1e2e682948fff"},"geometry":{"type":"Polygon","coordinates":[[[19.985458,50.037466],[19.985576,50.037415],[19.98567,50.037505],[19.985551,50.037556],[19.985458,50.037466]]]}},{"type":"Feature","id":"w162591646","properties":{"type":"yes","residential":true,"residents_est":1,"h3_10":"8a1e2e68286ffff","h3_11":"8b1e2e682868fff"},"geometry":{"type":"Polygon","coordinates":[[[19.987342,50.035986],[19.987465,50.035919],[19.987536,50.035979],[19.987416,50.036044],[19.987342,50.035986]]]}},{"type":"Feature","id":"w162591727","properties":{"type":"yes","address":"Mariana Batki 29","residential":true,"residents_est":1,"h3_10":"8a1e2e68286ffff","h3_11":"8b1e2e68286bfff"},"geometry":{"type":"Polygon","coordinates":[[[19.987787,50.035617],[19.987826,50.035537],[19.987993,50.03557],[19.98796,50.035653],[19.98788,50.03564],[19.987889,50.035618],[19.987861,50.035614],[19.987855,50.035628],[19.987787,50.035617]]]}},{"type":"Feature","id":"w162591825","properties":{"type":"yes","residential":true,"residents_est":1,"h3_10":"8a1e2e68286ffff","h3_11":"8b1e2e68286cfff"},"geometry":{"type":"Polygon","coordinates":[[[19.987208,50.036516],[19.987268,50.036485],[19.987281,50.036496],[19.987322,50.036475],[19.98742,50.036555],[19.987323,50.036604],[19.98728,50.036569],[19.987265,50.036577],[19.987243,50.036559],[19.987254,50.036554],[19.987208,50.036516]]]}},{"type":"Feature","id":"w162591841","properties":{"type":"yes","residential":true,"residents_est":1,"h3_10":"8a1e2e68294ffff","h3_11":"8b1e2e68294afff"},"geometry":{"type":"Polygon","coordinates":[[[19.985215,50.037226],[19.985338,50.037175],[19.985388,50.037224],[19.985357,50.037237],[19.985412,50.037291],[19.985311,50.037333],[19.985253,50.037276],[19.985262,50.037272],[19.985215,50.037226]]]}},{"type":"Feature","id":"w162591847","properties":{"type":"house","residential":true,"residents_est":3,"h3_10":"8a1e2e682867fff","h3_11":"8b1e2e682861fff"},"geometry":{"type":"Polygon","coordinates":[[[19.98628,50.03623],[19.986332,50.036206],[19.98634,50.036212],[19.986389,50.036187],[19.986476,50.036259],[19.986358,50.03632],[19.986301,50.036271],[19.986321,50.036263],[19.98628,50.03623]]]}},{"type":"Feature","id":"w162591884","properties":{"type":"yes","residential":true,"residents_est":1,"h3_10":"8a1e2e682867fff","h3_11":"8b1e2e682861fff"},"geometry":{"type":"Polygon","coordinates":[[[19.986301,50.03649],[19.98641,50.036431],[19.986427,50.036443],[19.986439,50.036436],[19.9865,50.036482],[19.986378,50.036549],[19.986345,50.036524],[19.98633,50.036532],[19.986302,50.036511],[19.986317,50.036502],[19.986301,50.03649]]]}},{"type":"Feature","id":"w162591942","properties":{"type":"yes","residential":true,"residents_est":1,"h3_10":"8a1e2e68286ffff","h3_11":"8b1e2e68286efff"},"geometry":{"type":"Polygon","coordinates":[[[19.986897,50.036186],[19.987012,50.036125],[19.987057,50.03616],[19.987072,50.036153],[19.987128,50.036198],[19.987019,50.036257],[19.986967,50.036215],[19.986946,50.036226],[19.986897,50.036186]]]}},{"type":"Feature","id":"w162591943","properties":{"type":"yes","residential":true,"residents_est":1,"h3_10":"8a1e2e68286ffff","h3_11":"8b1e2e682868fff"},"geometry":{"type":"Polygon","coordinates":[[[19.987068,50.036231],[19.987182,50.036169],[19.987269,50.036238],[19.987153,50.036298],[19.987068,50.036231]]]}},{"type":"Feature","id":"w162591992","properties":{"type":"yes","address":"Mariana Batki 28","residential":true,"residents_est":1,"h3_10":"8a1e2e68284ffff","h3_11":"8b1e2e68284dfff"},"geometry":{"type":"Polygon","coordinates":[[[19.988255,50.035256],[19.9884,50.035159],[19.988462,50.035198],[19.988338,50.03528],[19.988314,50.035265],[19.988293,50.03528],[19.988255,50.035256]]]}},{"type":"Feature","id":"w162592010","properties":{"type":"yes","residential":true,"residents_est":3,"h3_10":"8a1e2e68294ffff","h3_11":"8b1e2e68294dfff"},"geometry":{"type":"Polygon","coordinates":[[[19.985729,50.037928],[19.985769,50.037908],[19.98576,50.0379],[19.985766,50.037876],[19.985777,50.03787],[19.985762,50.037857],[19.985836,50.037821],[19.985888,50.037864],[19.985997,50.037811],[19.986059,50.037864],[19.985801,50.037989],[19.985729,50.037928]]]}},{"type":"Feature","id":"w162592013","properties":{"type":"yes","residential":true,"residents_est":2,"h3_10":"8a1e2e68296ffff","h3_11":"8b1e2e68296bfff"},"geometry":{"type":"Polygon","coordinates":[[[19.985306,50.038097],[19.985377,50.038062],[19.985395,50.038078],[19.98548,50.038036],[19.985555,50.038099],[19.985514,50.038119],[19.985525,50.038129],[19.985458,50.038163],[19.985452,50.038158],[19.985424,50.038172],[19.985414,50.038162],[19.985395,50.038172],[19.985306,50.038097]]]}},{"type":"Feature","id":"w162592018","properties":{"type":"yes","residential":true,"residents_est":2,"h3_10":"8a1e2e682867fff","h3_11":"8b1e2e682864fff"},"geometry":{"type":"Polygon","coordinates":[[[19.985352,50.036668],[19.985474,50.036616],[19.985503,50.036641],[19.985515,50.036636],[19.985574,50.036686],[19.98555,50.036698],[19.985596,50.036738],[19.985505,50.036782],[19.985458,50.036742],[19.985445,50.036748],[19.985352,50.036668]]]}},{"type":"Feature","id":"w162592020","properties":{"type":"yes","address":"Mariana Batki 26a","residential":true,"residents_est":1,"h3_10":"8a1e2e68284ffff","h3_11":"8b1e2e682849fff"},"geometry":{"type":"Polygon","coordinates":[[[19.988127,50.035013],[19.988127,50.034999],[19.988149,50.034984],[19.988129,50.034972],[19.988211,50.034917],[19.988298,50.03497],[19.988285,50.034979],[19.988346,50.035017],[19.988285,50.035057],[19.98823,50.035023],[19.988197,50.035044],[19.988163,50.035024],[19.988145,50.035024],[19.988127,50.035013]]]}},{"type":"Feature","id":"r2174147","properties":{"type":"convent","residential":false,"residents_est":0,"h3_10":"8a1e2e682847fff","h3_11":"8b1e2e682841fff"},"geometry":{"type":"Polygon","coordinates":[[[19.986493,50.035254],[19.986776,50.035137],[19.986952,50.035323],[19.98667,50.035437],[19.986493,50.035254]],[[19.986629,50.035275],[19.986702,50.035349],[19.986815,50.035303],[19.986742,50.035229],[19.986629,50.035275]]]}},{"type":"Feature","id":"r2174146","properties":{"type":"convent","residential":false,"residents_est":0,"h3_10":"8a1e2e682847fff","h3_11":"8b1e2e682843fff"},"geometry":{"type":"Polygon","coordinates":[[[19.986251,50.035011],[19.986535,50.034897],[19.986713,50.035078],[19.986431,50.035195],[19.986251,50.035011]],[[19.98639,50.035032],[19.98646,50.035104],[19.986577,50.035057],[19.986507,50.034985],[19.98639,50.035032]]]}},{"type":"Feature","id":"w341157600","properties":{"type":"yes","address":"Żołnierska 29a","residential":true,"residents_est":1,"h3_10":"8a1e2e682877fff","h3_11":"8b1e2e682876fff"},"geometry":{"type":"Polygon","coordinates":[[[19.983797,50.035806],[19.983898,50.035732],[19.983977,50.035776],[19.983962,50.035787],[19.983999,50.035808],[19.9839,50.03588],[19.983855,50.035854],[19.983871,50.035843],[19.983797,50.035806]]]}},{"type":"Feature","id":"w341157601","properties":{"type":"yes","residential":true,"residents_est":66,"h3_10":"8a1e2e6829affff","h3_11":"8b1e2e6829a8fff"},"geometry":{"type":"Polygon","coordinates":[[[19.976902,50.036143],[19.977703,50.035503],[19.978051,50.035687],[19.977249,50.036324],[19.976902,50.036143]]]}},{"type":"Feature","id":"w341157604","properties":{"type":"yes","residential":true,"residents_est":9,"h3_10":"8a1e2e6829affff","h3_11":"8b1e2e6829a8fff"},"geometry":{"type":"Polygon","coordinates":[[[19.977092,50.036421],[19.977228,50.036313],[19.977249,50.036324],[19.977612,50.036037],[19.977676,50.036071],[19.977182,50.036469],[19.977092,50.036421]]]}},{"type":"Feature","id":"w341157606","properties":{"type":"yes","address":"Gromadzka 89","residential":true,"residents_est":1,"h3_10":"8a1e2e6829a7fff","h3_11":"8b1e2e6829a5fff"},"geometry":{"type":"Polygon","coordinates":[[[19.976292,50.036773],[19.97638,50.036755],[19.976357,50.036708],[19.976477,50.036687],[19.976501,50.036736],[19.976485,50.036739],[19.976508,50.036786],[19.976324,50.036822],[19.976314,50.036799],[19.976306,50.036801],[19.976292,50.036773]]]}},{"type":"Feature","id":"w341157610","properties":{"type":"yes","residential":true,"residents_est":10,"h3_10":"8a1e2e682817fff","h3_11":"8b1e2e682815fff"},"geometry":{"type":"Polygon","coordinates":[[[19.979521,50.034786],[19.979581,50.034705],[19.980037,50.034844],[19.979987,50.034917],[19.980048,50.034935],[19.98002,50.034977],[19.979797,50.034912],[19.979824,50.034873],[19.979521,50.034786]]]}},{"type":"Feature","id":"w341157615","properties":{"type":"yes","residential":true,"residents_est":35,"h3_10":"8a1e2e6829affff","h3_11":"8b1e2e6829aafff"},"geometry":{"type":"Polygon","coordinates":[[[19.976587,50.035985],[19.977088,50.035581],[19.977331,50.035394],[19.977526,50.035497],[19.976785,50.036089],[19.976587,50.035985]]]}},{"type":"Feature","id":"w341157860","properties":{"type":"yes","address":"Żołnierska 29","residential":true,"residents_est":1,"h3_10":"8a1e2e682877fff","h3_11":"8b1e2e682874fff"},"geometry":{"type":"Polygon","coordinates":[[[19.983485,50.036108],[19.983655,50.035983],[19.983718,50.036018],[19.983548,50.036143],[19.983485,50.036108]]]}},{"type":"Feature","id":"w341157873","properties":{"type":"yes","residential":false,"residents_est":0,"h3_10":"8a1e2e682937fff","h3_11":"8b1e2e682932fff"},"geometry":{"type":"Polygon","coordinates":[[[19.976444,50.038],[19.97649,50.037998],[19.976493,50.038044],[19.976447,50.038047],[19.976444,50.038]]]}},{"type":"Feature","id":"w341157934","properties":{"type":"yes","residential":false,"residents_est":0,"h3_10":"8a1e2e68286ffff","h3_11":"8b1e2e682869fff"},"geometry":{"type":"Polygon","coordinates":[[[19.987791,50.036038],[19.987865,50.036003],[19.987901,50.036035],[19.987828,50.03607],[19.987791,50.036038]]]}},{"type":"Feature","id":"w341157969","properties":{"type":"yes","residential":true,"residents_est":1,"h3_10":"8a1e2e682937fff","h3_11":"8b1e2e682936fff"},"geometry":{"type":"Polygon","coordinates":[[[19.976024,50.038201],[19.97603,50.038147],[19.976187,50.038154],[19.97618,50.038208],[19.976024,50.038201]]]}},{"type":"Feature","id":"w341157977","properties":{"type":"yes","residential":false,"residents_est":0,"h3_10":"8a1e2e682937fff","h3_11":"8b1e2e682932fff"},"geometry":{"type":"Polygon","coordinates":[[[19.976688,50.038006],[19.976808,50.037992],[19.976814,50.038027],[19.976694,50.038035],[19.976688,50.038006]]]}},{"type":"Feature","id":"w341158131","properties":{"type":"yes","residential":true,"residents_est":1,"h3_10":"8a1e2e6829affff","h3_11":"8b1e2e6829aafff"},"geometry":{"type":"Polygon","coordinates":[[[19.977046,50.03556],[19.977269,50.035382],[19.977315,50.035406],[19.977088,50.035581],[19.977046,50.03556]]]}},{"type":"Feature","id":"w341158192","properties":{"type":"yes","residential":true,"residents_est":20,"h3_10":"8a1e2e6829affff","h3_11":"8b1e2e6829aafff"},"geometry":{"type":"Polygon","coordinates":[[[19.976791,50.036085],[19.977526,50.035497],[19.977638,50.035555],[19.976902,50.036143],[19.976791,50.036085]]]}},{"type":"Feature","id":"w341158213","properties":{"type":"yes","residential":true,"residents_est":0,"h3_10":"8a1e2e68292ffff","h3_11":"8b1e2e68292cfff"},"geometry":{"type":"Polygon","coordinates":[[[19.979961,50.039103],[19.979962,50.039044],[19.980062,50.039046],[19.980061,50.039104],[19.979961,50.039103]]]}},{"type":"Feature","id":"w341158223","properties":{"type":"yes","residential":true,"residents_est":1,"h3_10":"8a1e2e68286ffff","h3_11":"8b1e2e68286afff"},"geometry":{"type":"Polygon","coordinates":[[[19.987232,50.03588],[19.987526,50.035725],[19.987546,50.035761],[19.987266,50.035907],[19.987232,50.03588]]]}},{"type":"Feature","id":"w341158228","properties":{"type":"yes","residential":false,"residents_est":0,"h3_10":"8a1e2e68286ffff","h3_11":"8b1e2e682869fff"},"geometry":{"type":"Polygon","coordinates":[[[19.987969,50.036279],[19.988011,50.036258],[19.988061,50.0363],[19.988018,50.036321],[19.987969,50.036279]]]}},{"type":"Feature","id":"w341158274","properties":{"type":"yes","residential":true,"residents_est":1,"h3_10":"8a1e2e682927fff","h3_11":"8b1e2e682920fff"},"geometry":{"type":"Polygon","coordinates":[[[19.978225,50.038909],[19.97841,50.038908],[19.978411,50.038973],[19.978226,50.038974],[19.978225,50.038909]]]}},{"type":"Feature","id":"w341158300","properties":{"type":"yes","residential":true,"residents_est":1,"h3_10":"8a1e2e6829a7fff","h3_11":"8b1e2e6829a1fff"},"geometry":{"type":"Polygon","coordinates":[[[19.976299,50.036211],[19.976391,50.036146],[19.976485,50.0362],[19.976393,50.036266],[19.976299,50.036211]]]}},{"type":"Feature","id":"w341158306","properties":{"type":"yes","address":"Żołnierska 31","residential":true,"residents_est":1,"h3_10":"8a1e2e68282ffff","h3_11":"8b1e2e682829fff"},"geometry":{"type":"Polygon","coordinates":[[[19.983182,50.035992],[19.983289,50.035925],[19.983401,50.036],[19.983295,50.036066],[19.983182,50.035992]]]}},{"type":"Feature","id":"w341158311","properties":{"type":"yes","residential":true,"residents_est":1,"h3_10":"8a1e2e682937fff","h3_11":"8b1e2e682932fff"},"geometry":{"type":"Polygon","coordinates":[[[19.976329,50.03801],[19.976335,50.037934],[19.976412,50.037931],[19.976416,50.038009],[19.976329,50.03801]]]}},{"type":"Feature","id":"w341158319","properties":{"type":"yes","address":"Gromadzka 67b","residential":false,"residents_est":0,"h3_10":"8a1e2e682937fff","h3_11":"8b1e2e682935fff"},"geometry":{"type":"Polygon","coordinates":[[[19.976862,50.038741],[19.976989,50.038724],[19.977,50.038759],[19.976872,50.038775],[19.976862,50.038741]]]}},{"type":"Feature","id":"w341158330","properties":{"type":"yes","residential":false,"residents_est":0,"h3_10":"8a1e2e682877fff","h3_11":"8b1e2e682876fff"},"geometry":{"type":"Polygon","coordinates":[[[19.98342,50.03575],[19.983474,50.035705],[19.983535,50.035736],[19.983481,50.035781],[19.98342,50.03575]]]}},{"type":"Feature","id":"w341158333","properties":{"type":"yes","residential":false,"residents_est":0,"h3_10":"8a1e2e682937fff","h3_11":"8b1e2e682932fff"},"geometry":{"type":"Polygon","coordinates":[[[19.976518,50.037851],[19.976562,50.037846],[19.976574,50.037889],[19.97653,50.037894],[19.976518,50.037851]]]}},{"type":"Feature","id":"w341158359","properties":{"type":"yes","residential":false,"residents_est":0,"h3_10":"8a1e2e682917fff","h3_11":"8b1e2e682912fff"},"geometry":{"type":"Polygon","coordinates":[[[19.976863,50.036713],[19.9769,50.036664],[19.976947,50.036678],[19.976911,50.036727],[19.976863,50.036713]]]}},{"type":"Feature","id":"w341158382","properties":{"type":"yes","residential":false,"residents_est":0,"h3_10":"8a1e2e682917fff","h3_11":"8b1e2e682914fff"},"geometry":{"type":"Polygon","coordinates":[[[19.976559,50.037611],[19.976623,50.037612],[19.976628,50.037642],[19.976563,50.037646],[19.976559,50.037611]]]}},{"type":"Feature","id":"w341158388","properties":{"type":"yes","residential":true,"residents_est":1,"h3_10":"8a1e2e682927fff","h3_11":"8b1e2e682921fff"},"geometry":{"type":"Polygon","coordinates":[[[19.97909,50.038917],[19.979253,50.038916],[19.979253,50.038969],[19.979091,50.03897],[19.97909,50.038917]]]}},{"type":"Feature","id":"w341158415","properties":{"type":"yes","residential":true,"residents_est":1,"h3_10":"8a1e2e68292ffff","h3_11":"8b1e2e68292cfff"},"geometry":{"type":"Polygon","coordinates":[[[19.979642,50.038856],[19.979729,50.038854],[19.979732,50.038924],[19.979644,50.038925],[19.979642,50.038856]]]}},{"type":"Feature","id":"w341158423","properties":{"type":"yes","residential":true,"residents_est":1,"h3_10":"8a1e2e6828e7fff","h3_11":"8b1e2e6828e1fff"},"geometry":{"type":"Polygon","coordinates":[[[19.98386,50.033777],[19.98387,50.033715],[19.983983,50.033722],[19.983973,50.033784],[19.98386,50.033777]]]}},{"type":"Feature","id":"w341158425","properties":{"type":"yes","residential":false,"residents_est":0,"h3_10":"8a1e2e682927fff","h3_11":"8b1e2e682926fff"},"geometry":{"type":"Polygon","coordinates":[[[19.977552,50.03902],[19.977552,50.038976],[19.977633,50.038976],[19.977635,50.03902],[19.977552,50.03902]]]}},{"type":"Feature","id":"w341158432","properties":{"type":"yes","residential":true,"residents_est":1,"h3_10":"8a1e2e68292ffff","h3_11":"8b1e2e68292dfff"},"geometry":{"type":"Polygon","coordinates":[[[19.980061,50.039104],[19.980062,50.039046],[19.980207,50.039047],[19.980206,50.039106],[19.980061,50.039104]]]}},{"type":"Feature","id":"w341158451","properties":{"type":"yes","residential":false,"residents_est":0,"h3_10":"8a1e2e68286ffff","h3_11":"8b1e2e68286bfff"},"geometry":{"type":"Polygon","coordinates":[[[19.987784,50.035853],[19.987835,50.035825],[19.987886,50.035863],[19.987835,50.035891],[19.987784,50.035853]]]}},{"type":"Feature","id":"w341158458","properties":{"type":"yes","residential":true,"residents_est":3,"h3_10":"8a1e2e6829affff","h3_11":"8b1e2e6829adfff"},"geometry":{"type":"Polygon","coordinates":[[[19.977647,50.036377],[19.9777,50.036333],[19.977933,50.036451],[19.977775,50.036581],[19.977704,50.036468],[19.977751,50.036429],[19.977647,50.036377]]]}},{"type":"Feature","id":"w341158474","properties":{"type":"yes","residential":true,"residents_est":1,"h3_10":"8a1e2e6829a7fff","h3_11":"8b1e2e6829a1fff"},"geometry":{"type":"Polygon","coordinates":[[[19.97649,50.036322],[19.976578,50.036255],[19.976708,50.036325],[19.97662,50.036393],[19.97649,50.036322]]]}},{"type":"Feature","id":"w341158484","properties":{"type":"yes","residential":true,"residents_est":6,"h3_10":"8a1e2e68281ffff","h3_11":"8b1e2e68281efff"},"geometry":{"type":"Polygon","coordinates":[[[19.980874,50.03444],[19.980897,50.034149],[19.98101,50.034153],[19.980986,50.034443],[19.980874,50.03444]]]}},{"type":"Feature","id":"w341158498","properties":{"type":"yes","residential":false,"residents_est":0,"h3_10":"8a1e2e682937fff","h3_11":"8b1e2e682934fff"},"geometry":{"type":"Polygon","coordinates":[[[19.976761,50.038546],[19.976801,50.038544],[19.976817,50.038599],[19.976777,50.038604],[19.976761,50.038546]]]}},{"type":"Feature","id":"w341158506","properties":{"type":"yes","residential":true,"residents_est":1,"h3_10":"8a1e2e68286ffff","h3_11":"8b1e2e68286afff"},"geometry":{"type":"Polygon","coordinates":[[[19.986927,50.035739],[19.986985,50.035707],[19.987074,50.035776],[19.987015,50.035808],[19.986927,50.035739]]]}},{"type":"Feature","id":"w341158520","properties":{"type":"yes","residential":false,"residents_est":0,"h3_10":"8a1e2e682937fff","h3_11":"8b1e2e682934fff"},"geometry":{"type":"Polygon","coordinates":[[[19.976574,50.038456],[19.976575,50.038413],[19.97667,50.038412],[19.976669,50.038457],[19.976574,50.038456]]]}},{"type":"Feature","id":"w341158531","properties":{"type":"yes","residential":true,"residents_est":1,"h3_10":"8a1e2e6829affff","h3_11":"8b1e2e6829aafff"},"geometry":{"type":"Polygon","coordinates":[[[19.976687,50.035833],[19.97687,50.035688],[19.976922,50.035715],[19.976741,50.035861],[19.976687,50.035833]]]}},{"type":"Feature","id":"w341158542","properties":{"type":"yes","address":"Gromadzka 79","residential":false,"residents_est":0,"h3_10":"8a1e2e682917fff","h3_11":"8b1e2e682914fff"},"geometry":{"type":"Polygon","coordinates":[[[19.976623,50.037612],[19.976715,50.037606],[19.976726,50.037651],[19.97663,50.037656],[19.976623,50.037612]]]}},{"type":"Feature","id":"w341158544","properties":{"type":"yes","residential":false,"residents_est":0,"h3_10":"8a1e2e682927fff","h3_11":"8b1e2e682920fff"},"geometry":{"type":"Polygon","coordinates":[[[19.978566,50.038943],[19.978714,50.038942],[19.978714,50.038972],[19.978566,50.038972],[19.978566,50.038943]]]}},{"type":"Feature","id":"w341158549","properties":{"type":"yes","residential":true,"residents_est":7,"h3_10":"8a1e2e6829affff","h3_11":"8b1e2e6829abfff"},"geometry":{"type":"Polygon","coordinates":[[[19.977612,50.036037],[19.978094,50.035654],[19.978156,50.035683],[19.977676,50.036071],[19.977612,50.036037]]]}},{"type":"Feature","id":"w341158601","properties":{"type":"yes","residential":false,"residents_est":0,"h3_10":"8a1e2e682937fff","h3_11":"8b1e2e682934fff"},"geometry":{"type":"Polygon","coordinates":[[[19.976486,50.038454],[19.976489,50.038413],[19.976575,50.038413],[19.976574,50.038456],[19.976486,50.038454]]]}},{"type":"Feature","id":"w341158610","properties":{"type":"yes","residential":true,"residents_est":1,"h3_10":"8a1e2e6829affff","h3_11":"8b1e2e6829aafff"},"geometry":{"type":"Polygon","coordinates":[[[19.976879,50.035692],[19.977046,50.03556],[19.977088,50.035581],[19.976922,50.035715],[19.976879,50.035692]]]}},{"type":"Feature","id":"w341158618","properties":{"type":"yes","residential":true,"residents_est":1,"h3_10":"8a1e2e68286ffff","h3_11":"8b1e2e68286afff"},"geometry":{"type":"Polygon","coordinates":[[[19.987155,50.035771],[19.987243,50.035723],[19.987324,50.035784],[19.987313,50.03579],[19.987335,50.035807],[19.987258,50.035849],[19.987155,50.035771]]]}},{"type":"Feature","id":"w341158619","properties":{"type":"yes","residential":true,"residents_est":1,"h3_10":"8a1e2e68281ffff","h3_11":"8b1e2e68281efff"},"geometry":{"type":"Polygon","coordinates":[[[19.980455,50.034075],[19.980458,50.034041],[19.980496,50.034042],[19.980497,50.034031],[19.980589,50.034036],[19.980582,50.034083],[19.980455,50.034075]]]}},{"type":"Feature","id":"w341158622","properties":{"type":"yes","residential":true,"residents_est":1,"h3_10":"8a1e2e68284ffff","h3_11":"8b1e2e682849fff"},"geometry":{"type":"Polygon","coordinates":[[[19.988285,50.034979],[19.988358,50.034931],[19.988424,50.034973],[19.988352,50.035019],[19.988285,50.034979]]]}},{"type":"Feature","id":"w341158638","properties":{"type":"yes","residential":true,"residents_est":20,"h3_10":"8a1e2e682927fff","h3_11":"8b1e2e682920fff"},"geometry":{"type":"Polygon","coordinates":[[[19.977716,50.038976],[19.978223,50.038974],[19.978225,50.039192],[19.977718,50.039195],[19.977716,50.038976]]]}},{"type":"Feature","id":"w341158655","properties":{"type":"yes","residential":true,"residents_est":2,"h3_10":"8a1e2e682817fff","h3_11":"8b1e2e682811fff"},"geometry":{"type":"Polygon","coordinates":[[[19.98008,50.034782],[19.980125,50.034721],[19.980239,50.034756],[19.980245,50.034748],[19.980356,50.034782],[19.980304,50.034851],[19.98008,50.034782]]]}},{"type":"Feature","id":"w341158664","properties":{"type":"yes","residential":true,"residents_est":1,"h3_10":"8a1e2e682937fff","h3_11":"8b1e2e682936fff"},"geometry":{"type":"Polygon","coordinates":[[[19.976039,50.038125],[19.976043,50.038089],[19.976278,50.038099],[19.976275,50.038135],[19.976039,50.038125]]]}},{"type":"Feature","id":"w341158694","properties":{"type":"service","levels":1.0,"residential":false,"residents_est":0,"h3_10":"8a1e2e6829affff","h3_11":"8b1e2e6829abfff"},"geometry":{"type":"Polygon","coordinates":[[[19.977854,50.035559],[19.977882,50.035537],[19.977949,50.035572],[19.977921,50.035594],[19.977854,50.035559]]]}},{"type":"Feature","id":"w341158696","properties":{"type":"yes","address":"Gromadzka 81","residential":true,"residents_est":1,"h3_10":"8a1e2e682917fff","h3_11":"8b1e2e682914fff"},"geometry":{"type":"Polygon","coordinates":[[[19.976623,50.037612],[19.976625,50.037522],[19.976701,50.037518],[19.976715,50.037606],[19.976623,50.037612]]]}},{"type":"Feature","id":"w341158703","properties":{"type":"yes","residential":false,"residents_est":0,"h3_10":"8a1e2e68298ffff","h3_11":"8b1e2e68298cfff"},"geometry":{"type":"Polygon","coordinates":[[[19.977269,50.035382],[19.977312,50.035348],[19.977371,50.035379],[19.977344,50.035401],[19.97733,50.035393],[19.977315,50.035406],[19.977269,50.035382]]]}},{"type":"Feature","id":"w341158718","properties":{"type":"yes","residential":false,"residents_est":0,"h3_10":"8a1e2e682937fff","h3_11":"8b1e2e682934fff"},"geometry":{"type":"Polygon","coordinates":[[[19.976644,50.038528],[19.976793,50.038523],[19.976801,50.038544],[19.976645,50.038552],[19.976644,50.038528]]]}},{"type":"Feature","id":"w341158721","properties":{"type":"yes","residential":true,"residents_est":17,"h3_10":"8a1e2e682927fff","h3_11":"8b1e2e682920fff"},"geometry":{"type":"Polygon","coordinates":[[[19.978223,50.038974],[19.978664,50.038972],[19.978666,50.039186],[19.978225,50.039188],[19.978223,50.038974]]]}},{"type":"Feature","id":"w393357732","properties":{"type":"yes","residential":true,"residents_est":6,"h3_10":"8a1e2e682997fff","h3_11":"8b1e2e682990fff"},"geometry":{"type":"Polygon","coordinates":[[[19.974433,50.034385],[19.974462,50.034364],[19.974499,50.034384],[19.974518,50.03437],[19.974542,50.034382],[19.974522,50.034398],[19.974551,50.034413],[19.974492,50.034459],[19.974436,50.034429],[19.974435,50.034412],[19.974454,50.034397],[19.974433,50.034385]]]}},{"type":"Feature","id":"w393381607","properties":{"type":"industrial","address":"Prokocimska 6","name":"WER Kraków","residential":false,"residents_est":0,"h3_10":"8a1e2e682897fff","h3_11":"8b1e2e682891fff"},"geometry":{"type":"Polygon","coordinates":[[[19.977017,50.032854],[19.977325,50.032626],[19.977234,50.032577],[19.97728,50.032537],[19.977263,50.032528],[19.977289,50.032511],[19.977305,50.032518],[19.977314,50.032514],[19.977278,50.032494],[19.978676,50.031464],[19.978731,50.031496],[19.978775,50.031465],[19.978806,50.031484],[19.978767,50.031515],[19.978804,50.031538],[19.97791,50.032197],[19.978166,50.03234],[19.977275,50.032997],[19.977017,50.032854]]]}},{"type":"Feature","id":"w506212026","properties":{"type":"apartments","levels":5.0,"address":"Seweryna Goszczyńskiego 5B","residential":true,"residents_est":24,"h3_10":"8a1e2e68296ffff","h3_11":"8b1e2e682969fff"},"geometry":{"type":"Polygon","coordinates":[[[19.985238,50.038609],[19.985382,50.038552],[19.985458,50.038631],[19.985468,50.038627],[19.985642,50.03881],[19.985495,50.038868],[19.985253,50.038616],[19.985247,50.038618],[19.985238,50.038609]]]}},{"type":"Feature","id":"w506212027","properties":{"type":"apartments","levels":5.0,"address":"Seweryna Goszczyńskiego 5A","residential":true,"residents_est":23,"h3_10":"8a1e2e68296ffff","h3_11":"8b1e2e68296dfff"},"geometry":{"type":"Polygon","coordinates":[[[19.985528,50.038903],[19.985691,50.038873],[19.985777,50.039068],[19.985788,50.039066],[19.985832,50.039167],[19.985665,50.039197],[19.98554,50.038912],[19.985533,50.038913],[19.985528,50.038903]]]}},{"type":"Feature","id":"w674141271","properties":{"type":"yes","address":"Żołnierska 55","residential":true,"residents_est":7,"h3_10":"8a1e2e682817fff","h3_11":"8b1e2e682810fff"},"geometry":{"type":"Polygon","coordinates":[[[19.979135,50.034544],[19.97943,50.034331],[19.979528,50.034385],[19.979233,50.034599],[19.979135,50.034544]]]}},{"type":"Feature","id":"w694598308","properties":{"type":"yes","residential":true,"residents_est":1,"h3_10":"8a1e2e682827fff","h3_11":"8b1e2e682822fff"},"geometry":{"type":"Polygon","coordinates":[[[19.980489,50.036167],[19.980652,50.036043],[19.980711,50.036076],[19.980548,50.036199],[19.980489,50.036167]]]}},{"type":"Feature","id":"w694598311","properties":{"type":"service","residential":false,"residents_est":0,"h3_10":"8a1e2e682907fff","h3_11":"8b1e2e682900fff"},"geometry":{"type":"Polygon","coordinates":[[[19.978752,50.037758],[19.978821,50.037718],[19.978891,50.037767],[19.978821,50.037807],[19.978752,50.037758]]]}},{"type":"Feature","id":"w694598312","properties":{"type":"yes","residential":false,"residents_est":0,"h3_10":"8a1e2e682937fff","h3_11":"8b1e2e682933fff"},"geometry":{"type":"Polygon","coordinates":[[[19.977095,50.037949],[19.977165,50.037943],[19.977171,50.037972],[19.977101,50.037978],[19.977095,50.037949]]]}},{"type":"Feature","id":"w694598313","properties":{"type":"yes","residential":true,"residents_est":55,"h3_10":"8a1e2e682907fff","h3_11":"8b1e2e682905fff"},"geometry":{"type":"Polygon","coordinates":[[[19.97874,50.038594],[19.978939,50.038594],[19.97894,50.038411],[19.978918,50.038411],[19.978918,50.038248],[19.97896,50.038248],[19.978961,50.03812],[19.979315,50.038123],[19.979315,50.038246],[19.979369,50.038246],[19.979369,50.038441],[19.979494,50.038441],[19.979497,50.038708],[19.978741,50.038708],[19.97874,50.038594]]]}},{"type":"Feature","id":"w703373646","properties":{"type":"yes","residential":false,"residents_est":0,"h3_10":"8a1e2e682897fff","h3_11":"8b1e2e682890fff"},"geometry":{"type":"Polygon","coordinates":[[[19.977331,50.032069],[19.977369,50.032041],[19.977446,50.032086],[19.977409,50.032113],[19.977331,50.032069]]]}},{"type":"Feature","id":"w703373647","properties":{"type":"yes","residential":true,"residents_est":1,"h3_10":"8a1e2e682897fff","h3_11":"8b1e2e682896fff"},"geometry":{"type":"Polygon","coordinates":[[[19.976324,50.031864],[19.976521,50.031755],[19.976575,50.031795],[19.976378,50.031904],[19.976324,50.031864]]]}},{"type":"Feature","id":"w703373653","properties":{"type":"yes","residential":false,"residents_est":0,"h3_10":"8a1e2e682997fff","h3_11":"8b1e2e682990fff"},"geometry":{"type":"Polygon","coordinates":[[[19.974492,50.034459],[19.974543,50.03442],[19.974592,50.034447],[19.974539,50.034486],[19.974492,50.034459]]]}},{"type":"Feature","id":"w703373655","properties":{"type":"yes","residential":true,"residents_est":1,"h3_10":"8a1e2e68299ffff","h3_11":"8b1e2e68299afff"},"geometry":{"type":"Polygon","coordinates":[[[19.97578,50.033713],[19.975825,50.033679],[19.975949,50.033748],[19.975903,50.033782],[19.97578,50.033713]]]}},{"type":"Feature","id":"w703373656","properties":{"type":"yes","residential":true,"residents_est":1,"h3_10":"8a1e2e6828b7fff","h3_11":"8b1e2e6828b4fff"},"geometry":{"type":"Polygon","coordinates":[[[19.97617,50.033575],[19.976295,50.033487],[19.976381,50.033538],[19.976255,50.033626],[19.97617,50.033575]]]}},{"type":"Feature","id":"w703404347","properties":{"type":"yes","residential":false,"residents_est":0,"h3_10":"8a1e2e68286ffff","h3_11":"8b1e2e68286dfff"},"geometry":{"type":"Polygon","coordinates":[[[19.988082,50.036536],[19.988139,50.036505],[19.98819,50.036549],[19.988132,50.036577],[19.988082,50.036536]]]}},{"type":"Feature","id":"w703404349","properties":{"type":"garage","residential":false,"residents_est":0,"h3_10":"8a1e2e68286ffff","h3_11":"8b1e2e68286dfff"},"geometry":{"type":"Polygon","coordinates":[[[19.987975,50.036531],[19.988035,50.036501],[19.988074,50.036533],[19.988014,50.036563],[19.987975,50.036531]]]}},{"type":"Feature","id":"w703404411","properties":{"type":"yes","residential":false,"residents_est":0,"h3_10":"8a1e2e68286ffff","h3_11":"8b1e2e68286cfff"},"geometry":{"type":"Polygon","coordinates":[[[19.987208,50.036364],[19.987248,50.036342],[19.987284,50.03637],[19.987245,50.036392],[19.987208,50.036364]]]}},{"type":"Feature","id":"w703404441","properties":{"type":"yes","residential":false,"residents_est":0,"h3_10":"8a1e2e68294ffff","h3_11":"8b1e2e68294cfff"},"geometry":{"type":"Polygon","coordinates":[[[19.985162,50.03805],[19.985196,50.038031],[19.98524,50.038066],[19.985203,50.038084],[19.985162,50.03805]]]}},{"type":"Feature","id":"w703404442","properties":{"type":"yes","residential":true,"residents_est":1,"h3_10":"8a1e2e68296ffff","h3_11":"8b1e2e68296bfff"},"geometry":{"type":"Polygon","coordinates":[[[19.985225,50.038121],[19.985296,50.038089],[19.985356,50.03814],[19.985282,50.038173],[19.985225,50.038121]]]}},{"type":"Feature","id":"w703404446","properties":{"type":"yes","residential":true,"residents_est":1,"h3_10":"8a1e2e68294ffff","h3_11":"8b1e2e68294bfff"},"geometry":{"type":"Polygon","coordinates":[[[19.98551,50.037268],[19.985618,50.037223],[19.985666,50.03727],[19.985558,50.037315],[19.98551,50.037268]]]}},{"type":"Feature","id":"w703404447","properties":{"type":"yes","residential":true,"residents_est":1,"h3_10":"8a1e2e68294ffff","h3_11":"8b1e2e68294bfff"},"geometry":{"type":"Polygon","coordinates":[[[19.985691,50.037338],[19.985743,50.037311],[19.985825,50.037378],[19.985773,50.037405],[19.985691,50.037338]]]}},{"type":"Feature","id":"w703404451","properties":{"type":"yes","address":"Kacza 9C","residential":true,"residents_est":2,"h3_10":"8a1e2e682867fff","h3_11":"8b1e2e682865fff"},"geometry":{"type":"Polygon","coordinates":[[[19.985642,50.036848],[19.985754,50.036789],[19.985785,50.036813],[19.985876,50.036765],[19.985837,50.036735],[19.985939,50.03668],[19.986009,50.036735],[19.985906,50.036789],[19.985898,50.036783],[19.985808,50.03683],[19.985815,50.036836],[19.985703,50.036896],[19.985642,50.036848]]]}},{"type":"Feature","id":"w703404452","properties":{"type":"yes","residential":false,"residents_est":0,"h3_10":"8a1e2e682867fff","h3_11":"8b1e2e682860fff"},"geometry":{"type":"Polygon","coordinates":[[[19.985587,50.036546],[19.98562,50.036528],[19.985678,50.036574],[19.985646,50.036591],[19.985587,50.036546]]]}},{"type":"Feature","id":"w703404453","properties":{"type":"yes","residential":false,"residents_est":0,"h3_10":"8a1e2e68294ffff","h3_11":"8b1e2e68294afff"},"geometry":{"type":"Polygon","coordinates":[[[19.985006,50.037076],[19.985079,50.037041],[19.98511,50.037068],[19.985038,50.037103],[19.985006,50.037076]]]}},{"type":"Feature","id":"w703404454","properties":{"type":"yes","residential":true,"residents_est":1,"h3_10":"8a1e2e68294ffff","h3_11":"8b1e2e68294afff"},"geometry":{"type":"Polygon","coordinates":[[[19.984931,50.037011],[19.985039,50.036958],[19.985088,50.037],[19.985052,50.037018],[19.985079,50.037041],[19.985017,50.03707],[19.984975,50.037035],[19.984964,50.03704],[19.984931,50.037011]]]}},{"type":"Feature","id":"w703404455","properties":{"type":"house","residential":true,"residents_est":2,"h3_10":"8a1e2e68295ffff","h3_11":"8b1e2e682959fff"},"geometry":{"type":"Polygon","coordinates":[[[19.984755,50.036866],[19.984865,50.036812],[19.984949,50.036882],[19.984839,50.036936],[19.984755,50.036866]]]}},{"type":"Feature","id":"w703404460","properties":{"type":"yes","residential":false,"residents_est":0,"h3_10":"8a1e2e6829b7fff","h3_11":"8b1e2e6829b2fff"},"geometry":{"type":"Polygon","coordinates":[[[19.973788,50.035232],[19.973842,50.035192],[19.973884,50.035216],[19.973829,50.035256],[19.973788,50.035232]]]}},{"type":"Feature","id":"w703404469","properties":{"type":"yes","residential":true,"residents_est":1,"h3_10":"8a1e2e6829a7fff","h3_11":"8b1e2e6829a6fff"},"geometry":{"type":"Polygon","coordinates":[[[19.974706,50.036291],[19.974854,50.036182],[19.974912,50.036217],[19.97476,50.036319],[19.974706,50.036291]]]}},{"type":"Feature","id":"w703404473","properties":{"type":"yes","address":"Gromadzka 87","residential":true,"residents_est":1,"h3_10":"8a1e2e6829a7fff","h3_11":"8b1e2e6829a5fff"},"geometry":{"type":"Polygon","coordinates":[[[19.976289,50.03683],[19.976502,50.036788],[19.97654,50.036868],[19.976413,50.036867],[19.97631,50.036874],[19.976289,50.03683]]]}},{"type":"Feature","id":"w705422360","properties":{"type":"yes","residential":false,"residents_est":0,"h3_10":"8a1e2e682937fff","h3_11":"8b1e2e682934fff"},"geometry":{"type":"Polygon","coordinates":[[[19.976241,50.03859],[19.976252,50.038519],[19.976311,50.038521],[19.9763,50.038594],[19.976241,50.03859]]]}},{"type":"Feature","id":"w705422369","properties":{"type":"yes","residential":true,"residents_est":1,"h3_10":"8a1e2e682927fff","h3_11":"8b1e2e682924fff"},"geometry":{"type":"Polygon","coordinates":[[[19.977641,50.039352],[19.977643,50.039309],[19.977759,50.039309],[19.977758,50.039352],[19.977858,50.039354],[19.977857,50.039412],[19.977725,50.039411],[19.977724,50.039352],[19.977641,50.039352]]]}},{"type":"Feature","id":"w709532647","properties":{"type":"yes","residential":false,"residents_est":0,"h3_10":"8a1e2e682917fff","h3_11":"8b1e2e682914fff"},"geometry":{"type":"Polygon","coordinates":[[[19.976554,50.037573],[19.976624,50.037569],[19.976623,50.037612],[19.976559,50.037611],[19.976554,50.037573]]]}},{"type":"Feature","id":"w709532648","properties":{"type":"yes","residential":false,"residents_est":0,"h3_10":"8a1e2e682937fff","h3_11":"8b1e2e682932fff"},"geometry":{"type":"Polygon","coordinates":[[[19.976329,50.038034],[19.976331,50.038011],[19.976416,50.038009],[19.976418,50.038032],[19.976329,50.038034]]]}},{"type":"Feature","id":"w709898981","properties":{"type":"yes","residential":true,"residents_est":1,"h3_10":"8a1e2e68281ffff","h3_11":"8b1e2e68281cfff"},"geometry":{"type":"Polygon","coordinates":[[[19.98086,50.034604],[19.980874,50.03444],[19.980922,50.034442],[19.980907,50.034605],[19.98086,50.034604]]]}},{"type":"Feature","id":"w709898982","properties":{"type":"yes","residential":true,"residents_est":1,"h3_10":"8a1e2e6828affff","h3_11":"8b1e2e6828a8fff"},"geometry":{"type":"Polygon","coordinates":[[[19.979914,50.033654],[19.979982,50.033602],[19.98008,50.033654],[19.979992,50.033721],[19.979919,50.033679],[19.979936,50.033666],[19.979914,50.033654]]]}},{"type":"Feature","id":"w709898983","properties":{"type":"yes","residential":false,"residents_est":0,"h3_10":"8a1e2e6828affff","h3_11":"8b1e2e6828adfff"},"geometry":{"type":"Polygon","coordinates":[[[19.980455,50.033918],[19.980459,50.033874],[19.980564,50.033877],[19.980561,50.033921],[19.980455,50.033918]]]}},{"type":"Feature","id":"w709898984","properties":{"type":"service","residential":false,"residents_est":0,"h3_10":"8a1e2e6828affff","h3_11":"8b1e2e6828adfff"},"geometry":{"type":"Polygon","coordinates":[[[19.9802,50.033667],[19.980206,50.033593],[19.98037,50.033599],[19.980364,50.033672],[19.9802,50.033667]]]}},{"type":"Feature","id":"w709898985","properties":{"type":"yes","residential":true,"residents_est":1,"h3_10":"8a1e2e6828affff","h3_11":"8b1e2e6828a9fff"},"geometry":{"type":"Polygon","coordinates":[[[19.980581,50.033683],[19.980585,50.033634],[19.980724,50.033638],[19.980721,50.033686],[19.980581,50.033683]]]}},{"type":"Feature","id":"w709898986","properties":{"type":"yes","residential":false,"residents_est":0,"h3_10":"8a1e2e6828f7fff","h3_11":"8b1e2e6828f4fff"},"geometry":{"type":"Polygon","coordinates":[[[19.981199,50.033464],[19.981203,50.033415],[19.981268,50.033416],[19.981263,50.033466],[19.981199,50.033464]]]}},{"type":"Feature","id":"w709898987","properties":{"type":"yes","residential":true,"residents_est":1,"h3_10":"8a1e2e68281ffff","h3_11":"8b1e2e68281efff"},"geometry":{"type":"Polygon","coordinates":[[[19.980986,50.034443],[19.981005,50.03423],[19.981044,50.034231],[19.981031,50.034444],[19.980986,50.034443]]]}},{"type":"Feature","id":"w758799110","properties":{"type":"house","address":"Żeńców 1A","residential":true,"residents_est":2,"h3_10":"8a1e2e68296ffff","h3_11":"8b1e2e68296bfff"},"geometry":{"type":"Polygon","coordinates":[[[19.985503,50.038254],[19.985599,50.038234],[19.985633,50.038304],[19.985539,50.038324],[19.985503,50.038254]]]}},{"type":"Feature","id":"w772504022","properties":{"type":"yes","levels":1.0,"residential":false,"residents_est":0,"h3_10":"8a1e2e682997fff","h3_11":"8b1e2e682990fff"},"geometry":{"type":"Polygon","coordinates":[[[19.974288,50.034787],[19.974555,50.03459],[19.974583,50.034604],[19.974336,50.034785],[19.974481,50.034866],[19.974459,50.034882],[19.974288,50.034787]]]}},{"type":"Feature","id":"w772860966","properties":{"type":"train_station","levels":2.0,"address":"Plac Braci Dudzińskich 1","name":"Dworzec PKP Kraków Płaszów","residential":false,"residents_est":0,"h3_10":"8a1e2e682997fff","h3_11":"8b1e2e682990fff"},"geometry":{"type":"Polygon","coordinates":[[[19.974336,50.034785],[19.974583,50.034604],[19.974589,50.034607],[19.974674,50.034545],[19.974809,50.034621],[19.974481,50.034866],[19.974336,50.034785]]]}},{"type":"Feature","id":"w875434580","properties":{"type":"apartments","address":"Żołnierska 6","residential":true,"residents_est":47,"h3_10":"8a1e2e68294ffff","h3_11":"8b1e2e68294efff"},"geometry":{"type":"Polygon","coordinates":[[[19.984718,50.037754],[19.984756,50.037737],[19.984747,50.037728],[19.984823,50.037697],[19.984833,50.037706],[19.984873,50.037689],[19.984881,50.037696],[19.984955,50.037665],[19.984914,50.037624],[19.984899,50.03763],[19.984873,50.037605],[19.984886,50.037599],[19.984823,50.037537],[19.984836,50.037532],[19.984766,50.037463],[19.984925,50.037397],[19.985155,50.037625],[19.985141,50.037631],[19.985178,50.037667],[19.985111,50.037694],[19.985142,50.037725],[19.985092,50.037745],[19.985103,50.037756],[19.984823,50.037872],[19.984775,50.037824],[19.984786,50.037819],[19.984718,50.037754]]]}},{"type":"Feature","id":"w889329135","properties":{"type":"industrial","address":"Gromadzka 103","residential":false,"residents_est":0,"h3_10":"8a1e2e68298ffff","h3_11":"8b1e2e68298dfff"},"geometry":{"type":"Polygon","coordinates":[[[19.977811,50.035298],[19.978414,50.034827],[19.978842,50.035053],[19.978239,50.035524],[19.977811,50.035298]]]}},{"type":"Feature","id":"w903455899","properties":{"type":"apartments","levels":6.0,"address":"Seweryna Goszczyńskiego 3","residential":true,"residents_est":31,"h3_10":"8a1e2e68296ffff","h3_11":"8b1e2e682968fff"},"geometry":{"type":"Polygon","coordinates":[[[19.984888,50.038688],[19.985017,50.038685],[19.985146,50.038994],[19.984905,50.039],[19.984888,50.038688]]]}},{"type":"Feature","id":"w903461269","properties":{"type":"apartments","levels":6.0,"address":"Saska 12F","residential":true,"residents_est":75,"h3_10":"8a1e2e682947fff","h3_11":"8b1e2e682940fff"},"geometry":{"type":"Polygon","coordinates":[[[19.983357,50.038017],[19.98336,50.037847],[19.983568,50.037849],[19.983567,50.037927],[19.984321,50.037933],[19.98432,50.037995],[19.984352,50.037995],[19.984351,50.038066],[19.984183,50.038065],[19.984183,50.038056],[19.983378,50.038049],[19.983379,50.038018],[19.983357,50.038017]]]}},{"type":"Feature","id":"w993711610","properties":{"type":"house","address":"Żołnierska 17A","residential":true,"residents_est":4,"h3_10":"8a1e2e68294ffff","h3_11":"8b1e2e68294afff"},"geometry":{"type":"Polygon","coordinates":[[[19.985183,50.037119],[19.985206,50.037107],[19.985199,50.037102],[19.985351,50.037023],[19.985337,50.037012],[19.985401,50.036979],[19.985481,50.037043],[19.985242,50.037166],[19.985183,50.037119]]]}},{"type":"Feature","id":"w1038786177","properties":{"type":"outbuilding","levels":1.0,"residential":false,"residents_est":0,"h3_10":"8a1e2e682927fff","h3_11":"8b1e2e682922fff"},"geometry":{"type":"Polygon","coordinates":[[[19.977945,50.038568],[19.978134,50.038557],[19.978143,50.03864],[19.977954,50.038653],[19.977945,50.038568]]]}},{"type":"Feature","id":"w1038786186","properties":{"type":"detached","levels":2.0,"residential":true,"residents_est":2,"h3_10":"8a1e2e682867fff","h3_11":"8b1e2e682861fff"},"geometry":{"type":"Polygon","coordinates":[[[19.986111,50.036367],[19.986198,50.03632],[19.986292,50.036391],[19.986206,50.036438],[19.986111,50.036367]]]}},{"type":"Feature","id":"w1039022506","properties":{"type":"industrial","levels":1.0,"residential":false,"residents_est":0,"h3_10":"8a1e2e682837fff","h3_11":"8b1e2e682833fff"},"geometry":{"type":"Polygon","coordinates":[[[19.979211,50.035328],[19.97934,50.035223],[19.979676,50.035394],[19.979546,50.0355],[19.979211,50.035328]]]}},{"type":"Feature","id":"w1060091323","properties":{"type":"commercial","levels":6.0,"address":"Saska 25C","name":"25C","residential":false,"residents_est":0,"h3_10":"8a1e2e682977fff","h3_11":"8b1e2e682973fff"},"geometry":{"type":"Polygon","coordinates":[[[19.981575,50.037766],[19.981579,50.03761],[19.982318,50.037617],[19.982314,50.037774],[19.9822,50.037773],[19.982197,50.037905],[19.982312,50.037906],[19.982308,50.038062],[19.981614,50.038055],[19.981618,50.037902],[19.981728,50.037903],[19.981729,50.037845],[19.981646,50.037844],[19.981646,50.037837],[19.981671,50.037838],[19.981673,50.037767],[19.981575,50.037766]]]}},{"type":"Feature","id":"w1060091324","properties":{"type":"commercial","levels":6.0,"address":"Saska 25D","name":"25D","residential":false,"residents_est":0,"h3_10":"8a1e2e68290ffff","h3_11":"8b1e2e68290dfff"},"geometry":{"type":"Polygon","coordinates":[[[19.98055,50.038087],[19.980553,50.037893],[19.980668,50.037894],[19.980671,50.03776],[19.980556,50.037759],[19.98056,50.037601],[19.9813,50.037607],[19.981296,50.037765],[19.981205,50.037764],[19.981204,50.037827],[19.981228,50.037827],[19.981228,50.037834],[19.981137,50.037833],[19.981136,50.037897],[19.98125,50.037898],[19.981246,50.038056],[19.980678,50.038051],[19.980677,50.038088],[19.98055,50.038087]]]}},{"type":"Feature","id":"w1070716574","properties":{"type":"yes","residential":false,"residents_est":0,"h3_10":"8a1e2e682847fff","h3_11":"8b1e2e682842fff"},"geometry":{"type":"Polygon","coordinates":[[[19.985495,50.035035],[19.985566,50.035012],[19.985583,50.035035],[19.985512,50.035057],[19.985495,50.035035]]]}},{"type":"Feature","id":"w1123313654","properties":{"type":"apartments","levels":6.0,"address":"Saska 12E","residential":true,"residents_est":77,"h3_10":"8a1e2e682947fff","h3_11":"8b1e2e682945fff"},"geometry":{"type":"Polygon","coordinates":[[[19.983356,50.038345],[19.98336,50.038183],[19.983561,50.038184],[19.983559,50.038255],[19.984323,50.038261],[19.984324,50.038322],[19.98438,50.038322],[19.984378,50.038398],[19.984209,50.038397],[19.98421,50.038388],[19.983376,50.038381],[19.983377,50.038345],[19.983356,50.038345]]]}},{"type":"Feature","id":"w1216991417","properties":{"type":"industrial","residential":false,"residents_est":0,"h3_10":"8a1e2e68289ffff","h3_11":"8b1e2e68289cfff"},"geometry":{"type":"Polygon","coordinates":[[[19.97791,50.032197],[19.97846,50.031792],[19.978704,50.031947],[19.978166,50.03234],[19.97791,50.032197]]]}},{"type":"Feature","id":"w1250501840","properties":{"type":"service","residential":false,"residents_est":0,"h3_10":"8a1e2e682967fff","h3_11":"8b1e2e682962fff"},"geometry":{"type":"Polygon","coordinates":[[[19.983167,50.03874],[19.983169,50.038682],[19.983207,50.038683],[19.983205,50.03874],[19.983167,50.03874]]]}},{"type":"Feature","id":"w1250907718","properties":{"type":"apartments","levels":6.0,"address":"Saska 12D","residential":true,"residents_est":76,"h3_10":"8a1e2e682967fff","h3_11":"8b1e2e682963fff"},"geometry":{"type":"Polygon","coordinates":[[[19.983348,50.038672],[19.983352,50.038511],[19.983548,50.038512],[19.983546,50.038582],[19.984317,50.038589],[19.984316,50.038648],[19.984368,50.038648],[19.984367,50.038726],[19.984195,50.038724],[19.984195,50.038714],[19.983369,50.038707],[19.98337,50.038672],[19.983348,50.038672]]]}},{"type":"Feature","id":"w1250907719","properties":{"type":"apartments","levels":6.0,"address":"Saska 12C","residential":true,"residents_est":74,"h3_10":"8a1e2e682967fff","h3_11":"8b1e2e682961fff"},"geometry":{"type":"Polygon","coordinates":[[[19.98334,50.039006],[19.983343,50.038837],[19.983542,50.038838],[19.983542,50.038918],[19.984292,50.038924],[19.984292,50.038957],[19.984355,50.038957],[19.984354,50.039054],[19.984195,50.039052],[19.984195,50.039043],[19.98336,50.039037],[19.983361,50.039006],[19.98334,50.039006]]]}},{"type":"Feature","id":"w1278607368","properties":{"type":"service","residential":false,"residents_est":0,"h3_10":"8a1e2e682907fff","h3_11":"8b1e2e682900fff"},"geometry":{"type":"Polygon","coordinates":[[[19.978839,50.03782],[19.978925,50.037819],[19.978925,50.037848],[19.978839,50.037848],[19.978839,50.03782]]]}},{"type":"Feature","id":"w1313706688","properties":{"type":"residential","address":"Żołnierska 27C","residential":true,"residents_est":7,"h3_10":"8a1e2e682877fff","h3_11":"8b1e2e682875fff"},"geometry":{"type":"Polygon","coordinates":[[[19.984277,50.036111],[19.984344,50.036055],[19.98435,50.036059],[19.984377,50.036039],[19.98437,50.036036],[19.984409,50.036008],[19.98452,50.036071],[19.984382,50.036172],[19.984277,50.036111]]]}},{"type":"Feature","id":"w1313706689","properties":{"type":"residential","address":"Żołnierska 27E","residential":true,"residents_est":8,"h3_10":"8a1e2e682877fff","h3_11":"8b1e2e682875fff"},"geometry":{"type":"Polygon","coordinates":[[[19.984474,50.035969],[19.984507,50.035945],[19.984501,50.035941],[19.984573,50.035897],[19.984567,50.035893],[19.984605,50.035866],[19.984727,50.035935],[19.984589,50.036035],[19.984474,50.035969]]]}},{"type":"Feature","id":"w1313706690","properties":{"type":"residential","address":"Żołnierska 27G","residential":true,"residents_est":8,"h3_10":"8a1e2e682877fff","h3_11":"8b1e2e682871fff"},"geometry":{"type":"Polygon","coordinates":[[[19.984669,50.035827],[19.984732,50.035773],[19.984742,50.035774],[19.984769,50.035755],[19.984762,50.035752],[19.984801,50.035723],[19.984923,50.035793],[19.984785,50.035893],[19.984669,50.035827]]]}},{"type":"Feature","id":"w1313706691","properties":{"type":"residential","address":"Żołnierska 27D","residential":true,"residents_est":7,"h3_10":"8a1e2e682877fff","h3_11":"8b1e2e682874fff"},"geometry":{"type":"Polygon","coordinates":[[[19.984034,50.035972],[19.984172,50.035872],[19.984283,50.035936],[19.984244,50.035964],[19.984238,50.03596],[19.984212,50.035979],[19.984218,50.035983],[19.984214,50.035986],[19.984139,50.036032],[19.984034,50.035972]]]}},{"type":"Feature","id":"w1313706692","properties":{"type":"residential","address":"Żołnierska 27F","residential":true,"residents_est":7,"h3_10":"8a1e2e682877fff","h3_11":"8b1e2e682870fff"},"geometry":{"type":"Polygon","coordinates":[[[19.98423,50.03583],[19.984368,50.03573],[19.984479,50.035793],[19.984441,50.035821],[19.984434,50.035818],[19.984408,50.035837],[19.984414,50.035841],[19.984375,50.035869],[19.984368,50.035866],[19.984335,50.03589],[19.98423,50.03583]]]}},{"type":"Feature","id":"w1313706693","properties":{"type":"residential","address":"Żołnierska 27H","residential":true,"residents_est":8,"h3_10":"8a1e2e682877fff","h3_11":"8b1e2e682870fff"},"geometry":{"type":"Polygon","coordinates":[[[19.984415,50.035682],[19.984554,50.035582],[19.984675,50.035651],[19.984636,50.03568],[19.98463,50.035676],[19.984604,50.035695],[19.98461,50.035699],[19.984571,50.035727],[19.984564,50.035724],[19.984531,50.035748],[19.984415,50.035682]]]}},{"type":"Feature","id":"w1313706694","properties":{"type":"residential","address":"Żołnierska 27J","residential":true,"residents_est":8,"h3_10":"8a1e2e682877fff","h3_11":"8b1e2e682873fff"},"geometry":{"type":"Polygon","coordinates":[[[19.984611,50.03554],[19.984749,50.03544],[19.984871,50.03551],[19.984833,50.035538],[19.984826,50.035534],[19.9848,50.035553],[19.984806,50.035557],[19.984767,50.035586],[19.98476,50.035582],[19.984727,50.035606],[19.984611,50.03554]]]}},{"type":"Feature","id":"w1331724908","properties":{"type":"yes","residential":false,"residents_est":0,"h3_10":"8a1e2e682877fff","h3_11":"8b1e2e682874fff"},"geometry":{"type":"Polygon","coordinates":[[[19.983833,50.036259],[19.983909,50.036204],[19.98395,50.036228],[19.983875,50.036283],[19.983833,50.036259]]]}},{"type":"Feature","id":"w1331724909","properties":{"type":"residential","address":"Żołnierska 27A","residential":true,"residents_est":7,"h3_10":"8a1e2e682877fff","h3_11":"8b1e2e682874fff"},"geometry":{"type":"Polygon","coordinates":[[[19.984056,50.036249],[19.984123,50.036192],[19.984129,50.036196],[19.984156,50.036177],[19.984149,50.036173],[19.984188,50.036145],[19.984299,50.036209],[19.984162,50.036309],[19.984056,50.036249]]]}},{"type":"Feature","id":"w1331724910","properties":{"type":"residential","address":"Żołnierska 27B","residential":true,"residents_est":7,"h3_10":"8a1e2e682877fff","h3_11":"8b1e2e682874fff"},"geometry":{"type":"Polygon","coordinates":[[[19.983831,50.03612],[19.983969,50.036019],[19.98408,50.036083],[19.984041,50.036112],[19.984035,50.036108],[19.984008,50.036127],[19.984014,50.036131],[19.983976,50.036159],[19.983969,50.036155],[19.983936,50.03618],[19.983831,50.03612]]]}},{"type":"Feature","id":"w1392647334","properties":{"type":"roof","residential":false,"residents_est":0,"h3_10":"8a1e2e682997fff","h3_11":"8b1e2e682991fff"},"geometry":{"type":"Polygon","coordinates":[[[19.975055,50.034467],[19.975123,50.034417],[19.975153,50.034434],[19.975085,50.034484],[19.975055,50.034467]]]}},{"type":"Feature","id":"w1392647340","properties":{"type":"roof","residential":false,"residents_est":0,"h3_10":"8a1e2e682997fff","h3_11":"8b1e2e682993fff"},"geometry":{"type":"Polygon","coordinates":[[[19.975007,50.034311],[19.975066,50.034269],[19.975198,50.034345],[19.975139,50.034387],[19.975007,50.034311]]]}},{"type":"Feature","id":"w1558325857","properties":{"type":"roof","residential":false,"residents_est":0,"h3_10":"8a1e2e682997fff","h3_11":"8b1e2e682995fff"},"geometry":{"type":"Polygon","coordinates":[[[19.973943,50.035479],[19.975784,50.034124],[19.975854,50.034162],[19.974012,50.035518],[19.973943,50.035479]]]}},{"type":"Feature","id":"w1558325858","properties":{"type":"roof","residential":false,"residents_est":0,"h3_10":"8a1e2e682997fff","h3_11":"8b1e2e682995fff"},"geometry":{"type":"Polygon","coordinates":[[[19.97413,50.035584],[19.975973,50.034229],[19.976042,50.034267],[19.974201,50.035622],[19.97413,50.035584]]]}},{"type":"Feature","id":"w1558325859","properties":{"type":"roof","residential":false,"residents_est":0,"h3_10":"8a1e2e682997fff","h3_11":"8b1e2e682995fff"},"geometry":{"type":"Polygon","coordinates":[[[19.97426,50.035657],[19.976102,50.034301],[19.976166,50.034337],[19.974322,50.035694],[19.97426,50.035657]]]}}]}