{"type":"FeatureCollection","features":[{"type":"Feature","id":"w337889872","properties":{"type":"yes","residential":true,"residents_est":12,"h3_10":"8a1e2e6f6167fff","h3_11":"8b1e2e6f6161fff"},"geometry":{"type":"Polygon","coordinates":[[[20.12623,50.067867],[20.126296,50.067712],[20.12638,50.067727],[20.126313,50.067882],[20.12623,50.067867]]]}},{"type":"Feature","id":"w337890048","properties":{"type":"yes","residential":true,"residents_est":58,"h3_10":"8a1e2e6f616ffff","h3_11":"8b1e2e6f616afff"},"geometry":{"type":"Polygon","coordinates":[[[20.126506,50.067042],[20.126793,50.066976],[20.12685,50.067076],[20.126563,50.067143],[20.126506,50.067042]]]}},{"type":"Feature","id":"w337890285","properties":{"type":"yes","residential":true,"residents_est":7,"h3_10":"8a1e2e6f6147fff","h3_11":"8b1e2e6f6141fff"},"geometry":{"type":"Polygon","coordinates":[[[20.126493,50.066853],[20.126607,50.066829],[20.126634,50.066882],[20.12652,50.066906],[20.126493,50.066853]]]}},{"type":"Feature","id":"w337890580","properties":{"type":"yes","residential":true,"residents_est":11,"h3_10":"8a1e2e6f616ffff","h3_11":"8b1e2e6f616bfff"},"geometry":{"type":"Polygon","coordinates":[[[20.127345,50.066981],[20.127368,50.066935],[20.127611,50.06699],[20.127588,50.067036],[20.127345,50.066981]]]}},{"type":"Feature","id":"w1359419057","properties":{"type":"industrial","address":"Igołomska 28h","residential":false,"residents_est":0,"h3_10":"8a1e2e6f6167fff","h3_11":"8b1e2e6f6161fff"},"geometry":{"type":"Polygon","coordinates":[[[20.1263,50.067683],[20.126344,50.067571],[20.126617,50.067582],[20.126615,50.067605],[20.12705,50.06762],[20.127,50.068109],[20.126836,50.068103],[20.126831,50.068148],[20.126781,50.068146],[20.126781,50.068155],[20.126509,50.068144],[20.126548,50.067715],[20.126323,50.067706],[20.126304,50.067697],[20.1263,50.067683]]]}}]}