{"type":"FeatureCollection","features":[{"type":"Feature","id":"w337889635","properties":{"type":"yes","residential":true,"residents_est":20,"h3_10":"8a1e2e6c6d37fff","h3_11":"8b1e2e6c6d30fff"},"geometry":{"type":"Polygon","coordinates":[[[20.192947,50.05185],[20.193065,50.051841],[20.193093,50.052011],[20.192981,50.05202],[20.192947,50.05185]]]}},{"type":"Feature","id":"w337889674","properties":{"type":"yes","residential":true,"residents_est":24,"h3_10":"8a1e2e6c6d2ffff","h3_11":"8b1e2e6c6d2cfff"},"geometry":{"type":"Polygon","coordinates":[[[20.195992,50.052383],[20.196073,50.052374],[20.196068,50.052354],[20.196174,50.052344],[20.196212,50.052504],[20.196156,50.052509],[20.196144,50.05246],[20.196103,50.052464],[20.196105,50.052474],[20.196016,50.052483],[20.195992,50.052383]]]}},{"type":"Feature","id":"w337890226","properties":{"type":"yes","residential":false,"residents_est":0,"h3_10":"8a1e2e6c6c27fff","h3_11":"8b1e2e6c6c24fff"},"geometry":{"type":"Polygon","coordinates":[[[20.196922,50.05047],[20.197006,50.050453],[20.197033,50.050506],[20.196949,50.050523],[20.196922,50.05047]]]}},{"type":"Feature","id":"w337890612","properties":{"type":"yes","residential":true,"residents_est":14,"h3_10":"8a1e2e6c6d37fff","h3_11":"8b1e2e6c6d32fff"},"geometry":{"type":"Polygon","coordinates":[[[20.192821,50.051624],[20.192844,50.051548],[20.192883,50.051553],[20.192898,50.051546],[20.192926,50.051549],[20.192936,50.051559],[20.192981,50.051564],[20.192978,50.051573],[20.193022,50.051579],[20.193006,50.051638],[20.19296,50.051632],[20.192957,50.051641],[20.192821,50.051624]]]}},{"type":"Feature","id":"w337890657","properties":{"type":"yes","residential":true,"residents_est":15,"h3_10":"8a1e2e6c6d37fff","h3_11":"8b1e2e6c6d36fff"},"geometry":{"type":"Polygon","coordinates":[[[20.192609,50.051907],[20.192643,50.05181],[20.192792,50.051832],[20.192759,50.051928],[20.192609,50.051907]]]}},{"type":"Feature","id":"w337890717","properties":{"type":"yes","residential":true,"residents_est":14,"h3_10":"8a1e2e6c6d37fff","h3_11":"8b1e2e6c6d34fff"},"geometry":{"type":"Polygon","coordinates":[[[20.192649,50.052267],[20.19266,50.052248],[20.192651,50.052236],[20.192658,50.052224],[20.192676,50.052218],[20.19269,50.052191],[20.192807,50.052218],[20.1928,50.05223],[20.192848,50.05224],[20.192813,50.052304],[20.192649,50.052267]]]}},{"type":"Feature","id":"w337890843","properties":{"type":"yes","residential":true,"residents_est":28,"h3_10":"8a1e2e6c6c4ffff","h3_11":"8b1e2e6c6c48fff"},"geometry":{"type":"Polygon","coordinates":[[[20.204219,50.048544],[20.20432,50.048543],[20.204319,50.048514],[20.204448,50.048513],[20.204449,50.048525],[20.204552,50.048524],[20.204554,50.048592],[20.20444,50.048593],[20.204442,50.048626],[20.20432,50.048631],[20.204318,50.048597],[20.20422,50.048598],[20.204219,50.048544]]]}},{"type":"Feature","id":"w721925151","properties":{"type":"yes","residential":false,"residents_est":0,"h3_10":"8a1e2e6c6d37fff","h3_11":"8b1e2e6c6d36fff"},"geometry":{"type":"Polygon","coordinates":[[[20.19277,50.051897],[20.192792,50.051832],[20.192847,50.05184],[20.192824,50.051905],[20.19277,50.051897]]]}},{"type":"Feature","id":"w721925152","properties":{"type":"yes","residential":false,"residents_est":0,"h3_10":"8a1e2e6c6d37fff","h3_11":"8b1e2e6c6d30fff"},"geometry":{"type":"Polygon","coordinates":[[[20.1929,50.051783],[20.193003,50.051777],[20.193008,50.051809],[20.192905,50.051815],[20.1929,50.051783]]]}},{"type":"Feature","id":"w721925154","properties":{"type":"yes","residential":false,"residents_est":0,"h3_10":"8a1e2e6c6d37fff","h3_11":"8b1e2e6c6d30fff"},"geometry":{"type":"Polygon","coordinates":[[[20.193074,50.05189],[20.193108,50.051887],[20.19313,50.052008],[20.193093,50.052011],[20.193074,50.05189]]]}},{"type":"Feature","id":"w721925155","properties":{"type":"yes","residential":false,"residents_est":0,"h3_10":"8a1e2e6c6d37fff","h3_11":"8b1e2e6c6d34fff"},"geometry":{"type":"Polygon","coordinates":[[[20.192981,50.05202],[20.193093,50.052011],[20.193098,50.052038],[20.192986,50.052047],[20.192981,50.05202]]]}}]}