{"type":"FeatureCollection","features":[{"type":"Feature","id":"w133422439","properties":{"type":"outbuilding","levels":1.0,"residential":false,"residents_est":0,"h3_10":"8a1e2e68c9a7fff","h3_11":"8b1e2e68c9a6fff"},"geometry":{"type":"Polygon","coordinates":[[[20.062448,50.05465],[20.0625,50.054643],[20.062508,50.05467],[20.062626,50.054653],[20.062643,50.054713],[20.062473,50.054736],[20.062448,50.05465]]]}},{"type":"Feature","id":"w133422444","properties":{"type":"service","levels":1.0,"residential":false,"residents_est":0,"h3_10":"8a1e2e68c987fff","h3_11":"8b1e2e68c982fff"},"geometry":{"type":"Polygon","coordinates":[[[20.062871,50.053198],[20.063084,50.053199],[20.063081,50.05325],[20.062871,50.053249],[20.062871,50.053198]]]}},{"type":"Feature","id":"w133422459","properties":{"type":"house","levels":1.0,"address":"Zakarnie 9b","residential":true,"residents_est":8,"h3_10":"8a1e2e68c9a7fff","h3_11":"8b1e2e68c9a6fff"},"geometry":{"type":"Polygon","coordinates":[[[20.06235,50.054884],[20.062539,50.054856],[20.062555,50.054894],[20.062589,50.05489],[20.062606,50.054931],[20.062382,50.054967],[20.06235,50.054884]]]}},{"type":"Feature","id":"w133422469","properties":{"type":"yes","levels":1.0,"address":"Zakarnie 17","residential":true,"residents_est":3,"h3_10":"8a1e2e68c98ffff","h3_11":"8b1e2e68c989fff"},"geometry":{"type":"Polygon","coordinates":[[[20.065595,50.053386],[20.065683,50.053318],[20.065799,50.053379],[20.065714,50.053449],[20.065595,50.053386]]]}},{"type":"Feature","id":"w133422491","properties":{"type":"house","levels":1.0,"address":"Zakarnie 15","residential":true,"residents_est":6,"h3_10":"8a1e2e68c9affff","h3_11":"8b1e2e68c9acfff"},"geometry":{"type":"Polygon","coordinates":[[[20.064564,50.054649],[20.064709,50.054644],[20.064715,50.054729],[20.064571,50.054735],[20.064564,50.054649]]]}},{"type":"Feature","id":"w133422497","properties":{"type":"house","levels":1.0,"address":"Zakarnie 6","residential":true,"residents_est":4,"h3_10":"8a1e2e68c987fff","h3_11":"8b1e2e68c980fff"},"geometry":{"type":"Polygon","coordinates":[[[20.063283,50.053533],[20.063314,50.053459],[20.063452,50.053486],[20.063431,50.053531],[20.063405,50.053527],[20.063393,50.053555],[20.063283,50.053533]]]}},{"type":"Feature","id":"w133422500","properties":{"type":"yes","levels":1.0,"address":"Żaglowa 32","residential":true,"residents_est":5,"h3_10":"8a1e2e68c92ffff","h3_11":"8b1e2e68c92efff"},"geometry":{"type":"Polygon","coordinates":[[[20.066466,50.056853],[20.066516,50.056771],[20.06655,50.056779],[20.066572,50.056743],[20.066715,50.056779],[20.066642,50.056898],[20.066466,50.056853]]]}},{"type":"Feature","id":"w133422517","properties":{"type":"outbuilding","levels":1.0,"residential":false,"residents_est":0,"h3_10":"8a1e2e68c987fff","h3_11":"8b1e2e68c980fff"},"geometry":{"type":"Polygon","coordinates":[[[20.063234,50.053675],[20.063257,50.053611],[20.063344,50.053624],[20.063323,50.053688],[20.063234,50.053675]]]}},{"type":"Feature","id":"w133422522","properties":{"type":"yes","levels":1.0,"address":"Longinusa Podbipięty 127","residential":true,"residents_est":5,"h3_10":"8a1e2e68c907fff","h3_11":"8b1e2e68c904fff"},"geometry":{"type":"Polygon","coordinates":[[[20.06564,50.056753],[20.065735,50.056661],[20.065759,50.056671],[20.065781,50.056664],[20.065817,50.05668],[20.065817,50.056695],[20.06584,50.056705],[20.065818,50.056727],[20.065841,50.056737],[20.065846,50.056732],[20.065903,50.056756],[20.065843,50.056815],[20.065763,50.056781],[20.065746,50.056798],[20.06564,50.056753]]]}},{"type":"Feature","id":"w133422539","properties":{"type":"yes","levels":1.0,"residential":true,"residents_est":2,"h3_10":"8a1e2e68c98ffff","h3_11":"8b1e2e68c98efff"},"geometry":{"type":"Polygon","coordinates":[[[20.064365,50.053165],[20.064379,50.053109],[20.064505,50.053123],[20.064491,50.053178],[20.064365,50.053165]]]}},{"type":"Feature","id":"w168959896","properties":{"type":"outbuilding","levels":1.0,"residential":false,"residents_est":0,"h3_10":"8a1e2e68c987fff","h3_11":"8b1e2e68c980fff"},"geometry":{"type":"Polygon","coordinates":[[[20.063028,50.053614],[20.063038,50.053542],[20.063133,50.053548],[20.063122,50.05362],[20.063028,50.053614]]]}},{"type":"Feature","id":"w219054686","properties":{"type":"yes","levels":1.0,"residential":false,"residents_est":0,"h3_10":"8a1e2e68c9a7fff","h3_11":"8b1e2e68c9a6fff"},"geometry":{"type":"Polygon","coordinates":[[[20.062608,50.054747],[20.062718,50.054733],[20.062728,50.054763],[20.062621,50.054781],[20.062608,50.054747]]]}},{"type":"Feature","id":"w219054730","properties":{"type":"outbuilding","levels":1.0,"residential":false,"residents_est":0,"h3_10":"8a1e2e68c987fff","h3_11":"8b1e2e68c980fff"},"geometry":{"type":"Polygon","coordinates":[[[20.06317,50.053666],[20.063183,50.053629],[20.063246,50.053639],[20.063234,50.053675],[20.06317,50.053666]]]}},{"type":"Feature","id":"w219172197","properties":{"type":"yes","levels":1.0,"address":"Zakarnie 12","residential":false,"residents_est":0,"h3_10":"8a1e2e68c91ffff","h3_11":"8b1e2e68c91bfff"},"geometry":{"type":"Polygon","coordinates":[[[20.066875,50.054857],[20.066948,50.054849],[20.066943,50.054831],[20.066979,50.054827],[20.066994,50.054883],[20.066887,50.054895],[20.066875,50.054857]]]}},{"type":"Feature","id":"w219172218","properties":{"type":"yes","levels":1.0,"residential":true,"residents_est":2,"h3_10":"8a1e2e68c94ffff","h3_11":"8b1e2e68c949fff"},"geometry":{"type":"Polygon","coordinates":[[[20.073224,50.055976],[20.07324,50.055925],[20.073404,50.055946],[20.073388,50.055998],[20.073224,50.055976]]]}},{"type":"Feature","id":"w219172219","properties":{"type":"outbuilding","levels":1.0,"residential":false,"residents_est":0,"h3_10":"8a1e2e68c90ffff","h3_11":"8b1e2e68c90afff"},"geometry":{"type":"Polygon","coordinates":[[[20.067026,50.055409],[20.067062,50.055408],[20.067063,50.055427],[20.067164,50.055423],[20.067168,50.055477],[20.06703,50.055482],[20.067026,50.055409]]]}},{"type":"Feature","id":"w219172240","properties":{"type":"outbuilding","levels":1.0,"residential":false,"residents_est":0,"h3_10":"8a1e2e68c92ffff","h3_11":"8b1e2e68c92bfff"},"geometry":{"type":"Polygon","coordinates":[[[20.067399,50.056502],[20.0676,50.056456],[20.06763,50.056512],[20.067425,50.056559],[20.067399,50.056502]]]}},{"type":"Feature","id":"w219172244","properties":{"type":"yes","levels":1.0,"address":"Stanisława Samostrzelnika 7","residential":true,"residents_est":2,"h3_10":"8a1e2e68c90ffff","h3_11":"8b1e2e68c90cfff"},"geometry":{"type":"Polygon","coordinates":[[[20.067518,50.056016],[20.06761,50.056003],[20.067636,50.056075],[20.067543,50.056089],[20.067518,50.056016]]]}},{"type":"Feature","id":"w219172249","properties":{"type":"yes","levels":1.0,"residential":false,"residents_est":0,"h3_10":"8a1e2e68c927fff","h3_11":"8b1e2e68c923fff"},"geometry":{"type":"Polygon","coordinates":[[[20.065644,50.057008],[20.065711,50.05693],[20.065757,50.056947],[20.065686,50.057023],[20.065644,50.057008]]]}},{"type":"Feature","id":"w219172253","properties":{"type":"yes","levels":1.0,"residential":true,"residents_est":5,"h3_10":"8a1e2e68c94ffff","h3_11":"8b1e2e68c94dfff"},"geometry":{"type":"Polygon","coordinates":[[[20.072665,50.056175],[20.07272,50.05601],[20.072849,50.056027],[20.072794,50.056192],[20.072665,50.056175]]]}},{"type":"Feature","id":"w219172254","properties":{"type":"outbuilding","levels":1.0,"residential":false,"residents_est":0,"h3_10":"8a1e2e68c90ffff","h3_11":"8b1e2e68c90efff"},"geometry":{"type":"Polygon","coordinates":[[[20.066714,50.055669],[20.066917,50.055659],[20.066925,50.055723],[20.066721,50.055731],[20.066714,50.055669]]]}},{"type":"Feature","id":"w219172259","properties":{"type":"yes","levels":1.0,"residential":true,"residents_est":8,"h3_10":"8a1e2e68c94ffff","h3_11":"8b1e2e68c94dfff"},"geometry":{"type":"Polygon","coordinates":[[[20.073159,50.056243],[20.073195,50.056135],[20.073528,50.05618],[20.073494,50.056288],[20.073159,50.056243]]]}},{"type":"Feature","id":"w219172262","properties":{"type":"outbuilding","levels":1.0,"address":"Zakarnie 8","residential":false,"residents_est":0,"h3_10":"8a1e2e68c90ffff","h3_11":"8b1e2e68c90efff"},"geometry":{"type":"Polygon","coordinates":[[[20.066613,50.055862],[20.066779,50.05583],[20.066806,50.055888],[20.06664,50.055921],[20.066613,50.055862]]]}},{"type":"Feature","id":"w219172289","properties":{"type":"residential","levels":1.0,"address":"Stanisława Samostrzelnika 6","residential":true,"residents_est":3,"h3_10":"8a1e2e68c90ffff","h3_11":"8b1e2e68c90cfff"},"geometry":{"type":"Polygon","coordinates":[[[20.067371,50.056296],[20.067478,50.056297],[20.067476,50.05636],[20.067371,50.056359],[20.067371,50.056296]]]}},{"type":"Feature","id":"w219172387","properties":{"type":"house","levels":2.0,"residential":true,"residents_est":15,"h3_10":"8a1e2e68c907fff","h3_11":"8b1e2e68c905fff"},"geometry":{"type":"Polygon","coordinates":[[[20.066038,50.056418],[20.066137,50.056354],[20.066148,50.056322],[20.066259,50.056336],[20.066242,50.056389],[20.06612,50.056469],[20.066038,50.056418]]]}},{"type":"Feature","id":"w219172406","properties":{"type":"house","levels":1.0,"address":"Zakarnie 10","residential":true,"residents_est":4,"h3_10":"8a1e2e68c91ffff","h3_11":"8b1e2e68c919fff"},"geometry":{"type":"Polygon","coordinates":[[[20.06699,50.055264],[20.067136,50.055254],[20.067146,50.055319],[20.067003,50.055328],[20.06699,50.055264]]]}},{"type":"Feature","id":"w219172411","properties":{"type":"yes","levels":1.0,"residential":true,"residents_est":3,"h3_10":"8a1e2e68c98ffff","h3_11":"8b1e2e68c98dfff"},"geometry":{"type":"Polygon","coordinates":[[[20.065681,50.05356],[20.065766,50.053521],[20.065751,50.053506],[20.065794,50.053485],[20.065872,50.053551],[20.065742,50.053613],[20.065681,50.05356]]]}},{"type":"Feature","id":"w337813843","properties":{"type":"yes","levels":1.0,"residential":true,"residents_est":1,"h3_10":"8a1e2e68c9b7fff","h3_11":"8b1e2e68c9b2fff"},"geometry":{"type":"Polygon","coordinates":[[[20.061531,50.053739],[20.061561,50.05365],[20.061624,50.053659],[20.061594,50.053748],[20.061531,50.053739]]]}},{"type":"Feature","id":"w337813849","properties":{"type":"yes","levels":1.0,"residential":true,"residents_est":0,"h3_10":"8a1e2e68c8a7fff","h3_11":"8b1e2e68c8a1fff"},"geometry":{"type":"Polygon","coordinates":[[[20.065903,50.052239],[20.065965,50.052237],[20.065966,50.052246],[20.066017,50.052245],[20.066021,50.052286],[20.065908,50.05229],[20.065903,50.052239]]]}},{"type":"Feature","id":"w337814103","properties":{"type":"yes","levels":1.0,"residential":true,"residents_est":1,"h3_10":"8a1e2e68c8a7fff","h3_11":"8b1e2e68c8a3fff"},"geometry":{"type":"Polygon","coordinates":[[[20.066023,50.051941],[20.066131,50.051932],[20.066142,50.051985],[20.066034,50.051995],[20.066023,50.051941]]]}},{"type":"Feature","id":"w337814232","properties":{"type":"yes","levels":1.0,"residential":true,"residents_est":3,"h3_10":"8a1e2e68c987fff","h3_11":"8b1e2e68c983fff"},"geometry":{"type":"Polygon","coordinates":[[[20.063782,50.053183],[20.063789,50.053102],[20.063928,50.053107],[20.063922,50.053187],[20.063876,50.053186],[20.063874,50.053203],[20.063835,50.053201],[20.063837,50.053185],[20.063782,50.053183]]]}},{"type":"Feature","id":"w504298987","properties":{"type":"house","levels":2.0,"address":"Longinusa Podbipięty 123","residential":true,"residents_est":8,"h3_10":"8a1e2e68c917fff","h3_11":"8b1e2e68c911fff"},"geometry":{"type":"Polygon","coordinates":[[[20.065307,50.055412],[20.065378,50.055387],[20.065408,50.055422],[20.065426,50.05542],[20.065445,50.055442],[20.065431,50.055447],[20.065461,50.055482],[20.065391,50.055508],[20.065307,50.055412]]]}},{"type":"Feature","id":"w504298988","properties":{"type":"house","levels":2.0,"address":"Longinusa Podbipięty 123b","residential":true,"residents_est":8,"h3_10":"8a1e2e68c917fff","h3_11":"8b1e2e68c911fff"},"geometry":{"type":"Polygon","coordinates":[[[20.065037,50.055449],[20.065107,50.055424],[20.065138,50.055459],[20.065149,50.055455],[20.065171,50.05548],[20.06516,50.055484],[20.065191,50.055519],[20.06512,50.055545],[20.065037,50.055449]]]}},{"type":"Feature","id":"w504298989","properties":{"type":"house","levels":2.0,"address":"Longinusa Podbipięty 123d","residential":true,"residents_est":8,"h3_10":"8a1e2e68c917fff","h3_11":"8b1e2e68c911fff"},"geometry":{"type":"Polygon","coordinates":[[[20.064765,50.055486],[20.064836,50.055461],[20.064867,50.055496],[20.064881,50.055491],[20.0649,50.055512],[20.064903,50.055516],[20.064888,50.055521],[20.064919,50.055557],[20.064849,50.055582],[20.064765,50.055486]]]}},{"type":"Feature","id":"w504298990","properties":{"type":"house","levels":2.0,"address":"Longinusa Podbipięty 123f","residential":true,"residents_est":8,"h3_10":"8a1e2e68c917fff","h3_11":"8b1e2e68c910fff"},"geometry":{"type":"Polygon","coordinates":[[[20.064495,50.055523],[20.064566,50.055498],[20.064596,50.055533],[20.064606,50.055529],[20.064628,50.055554],[20.064618,50.055558],[20.064648,50.055593],[20.064578,50.055618],[20.064495,50.055523]]]}},{"type":"Feature","id":"w723847570","properties":{"type":"yes","residential":false,"residents_est":0,"h3_10":"8a1e2e68c96ffff","h3_11":"8b1e2e68c96bfff"},"geometry":{"type":"Polygon","coordinates":[[[20.072719,50.056674],[20.072802,50.056652],[20.072809,50.056662],[20.0728,50.056665],[20.072814,50.056687],[20.072806,50.056702],[20.072744,50.056717],[20.072719,50.056674]]]}},{"type":"Feature","id":"w724078464","properties":{"type":"house","levels":2.0,"address":"Longinusa Podbipięty 123j","residential":true,"residents_est":8,"h3_10":"8a1e2e68c917fff","h3_11":"8b1e2e68c914fff"},"geometry":{"type":"Polygon","coordinates":[[[20.064153,50.055585],[20.064225,50.055559],[20.064308,50.055656],[20.064237,50.055681],[20.064206,50.055646],[20.064192,50.055651],[20.064177,50.055628],[20.064173,50.05563],[20.06417,50.055626],[20.064185,50.05562],[20.064153,50.055585]]]}},{"type":"Feature","id":"w724078465","properties":{"type":"house","levels":2.0,"address":"Longinusa Podbipięty 123h","residential":true,"residents_est":8,"h3_10":"8a1e2e68c917fff","h3_11":"8b1e2e68c910fff"},"geometry":{"type":"Polygon","coordinates":[[[20.064225,50.055559],[20.064294,50.055534],[20.064325,50.05557],[20.064336,50.055566],[20.064358,50.055591],[20.064347,50.055595],[20.064379,50.055631],[20.064308,50.055656],[20.064225,50.055559]]]}},{"type":"Feature","id":"w724078476","properties":{"type":"house","levels":2.0,"address":"Longinusa Podbipięty 123g","residential":true,"residents_est":8,"h3_10":"8a1e2e68c917fff","h3_11":"8b1e2e68c910fff"},"geometry":{"type":"Polygon","coordinates":[[[20.064425,50.055548],[20.064495,50.055523],[20.064578,50.055618],[20.064508,50.055644],[20.064477,50.055609],[20.064463,50.055614],[20.064448,50.055591],[20.064444,50.055593],[20.064441,50.055589],[20.064456,50.055583],[20.064425,50.055548]]]}},{"type":"Feature","id":"w724078477","properties":{"type":"house","levels":2.0,"address":"Longinusa Podbipięty 123e","residential":true,"residents_est":8,"h3_10":"8a1e2e68c917fff","h3_11":"8b1e2e68c910fff"},"geometry":{"type":"Polygon","coordinates":[[[20.064695,50.055511],[20.064765,50.055486],[20.064849,50.055582],[20.064779,50.055607],[20.064748,50.055572],[20.064737,50.055576],[20.064716,50.055551],[20.064726,50.055547],[20.064695,50.055511]]]}},{"type":"Feature","id":"w724078478","properties":{"type":"house","levels":2.0,"address":"Longinusa Podbipięty 123c","residential":true,"residents_est":8,"h3_10":"8a1e2e68c917fff","h3_11":"8b1e2e68c911fff"},"geometry":{"type":"Polygon","coordinates":[[[20.064967,50.055474],[20.065037,50.055449],[20.06512,50.055545],[20.06505,50.05557],[20.065019,50.055535],[20.065005,50.05554],[20.064986,50.055519],[20.064983,50.055515],[20.064997,50.055509],[20.064967,50.055474]]]}},{"type":"Feature","id":"w724078479","properties":{"type":"house","levels":2.0,"address":"Longinusa Podbipięty 123a","residential":true,"residents_est":8,"h3_10":"8a1e2e68c917fff","h3_11":"8b1e2e68c911fff"},"geometry":{"type":"Polygon","coordinates":[[[20.065237,50.055438],[20.065307,50.055412],[20.065391,50.055508],[20.065321,50.055533],[20.06529,50.055498],[20.065279,50.055502],[20.065257,50.055477],[20.065268,50.055473],[20.065237,50.055438]]]}},{"type":"Feature","id":"w724078482","properties":{"type":"yes","levels":1.0,"residential":false,"residents_est":0,"h3_10":"8a1e2e68c987fff","h3_11":"8b1e2e68c980fff"},"geometry":{"type":"Polygon","coordinates":[[[20.063542,50.053555],[20.063563,50.053521],[20.063618,50.053534],[20.063597,50.053568],[20.063542,50.053555]]]}},{"type":"Feature","id":"w724078483","properties":{"type":"yes","residential":false,"residents_est":0,"h3_10":"8a1e2e68c987fff","h3_11":"8b1e2e68c983fff"},"geometry":{"type":"Polygon","coordinates":[[[20.063707,50.053239],[20.06371,50.053208],[20.063794,50.053211],[20.06379,50.053244],[20.063707,50.053239]]]}},{"type":"Feature","id":"w724078485","properties":{"type":"yes","levels":1.0,"residential":false,"residents_est":0,"h3_10":"8a1e2e68c98ffff","h3_11":"8b1e2e68c98efff"},"geometry":{"type":"Polygon","coordinates":[[[20.064324,50.05316],[20.064338,50.053105],[20.064379,50.053109],[20.064365,50.053165],[20.064324,50.05316]]]}},{"type":"Feature","id":"w724078489","properties":{"type":"outbuilding","levels":1.0,"residential":false,"residents_est":0,"h3_10":"8a1e2e68c90ffff","h3_11":"8b1e2e68c90cfff"},"geometry":{"type":"Polygon","coordinates":[[[20.067476,50.05636],[20.067478,50.056297],[20.067536,50.056297],[20.067533,50.05636],[20.067476,50.05636]]]}},{"type":"Feature","id":"w724078493","properties":{"type":"yes","levels":1.0,"residential":true,"residents_est":1,"h3_10":"8a1e2e68c90ffff","h3_11":"8b1e2e68c90cfff"},"geometry":{"type":"Polygon","coordinates":[[[20.067439,50.056027],[20.067518,50.056016],[20.067543,50.056089],[20.067465,50.056099],[20.067439,50.056027]]]}},{"type":"Feature","id":"w724078494","properties":{"type":"yes","levels":1.0,"address":"Stanisława Samostrzelnika 5","residential":true,"residents_est":2,"h3_10":"8a1e2e68c90ffff","h3_11":"8b1e2e68c908fff"},"geometry":{"type":"Polygon","coordinates":[[[20.06761,50.056002],[20.067708,50.05599],[20.067731,50.056062],[20.067636,50.056075],[20.06761,50.056002]]]}},{"type":"Feature","id":"w724078495","properties":{"type":"yes","residential":false,"residents_est":0,"h3_10":"8a1e2e68c90ffff","h3_11":"8b1e2e68c90afff"},"geometry":{"type":"Polygon","coordinates":[[[20.067102,50.055392],[20.06716,50.055389],[20.067164,50.055423],[20.067106,50.055426],[20.067102,50.055392]]]}},{"type":"Feature","id":"w724078496","properties":{"type":"outbuilding","levels":1.0,"residential":false,"residents_est":0,"h3_10":"8a1e2e68c91ffff","h3_11":"8b1e2e68c919fff"},"geometry":{"type":"Polygon","coordinates":[[[20.066939,50.055268],[20.06699,50.055264],[20.067003,50.055328],[20.066949,50.055332],[20.066939,50.055268]]]}},{"type":"Feature","id":"w724078498","properties":{"type":"yes","levels":1.0,"residential":false,"residents_est":0,"h3_10":"8a1e2e68c91ffff","h3_11":"8b1e2e68c919fff"},"geometry":{"type":"Polygon","coordinates":[[[20.066855,50.05496],[20.066902,50.054963],[20.066903,50.055017],[20.066856,50.055016],[20.066855,50.05496]]]}},{"type":"Feature","id":"w964036395","properties":{"type":"service","residential":false,"residents_est":0,"h3_10":"8a1e2e68c997fff","h3_11":"8b1e2e68c994fff"},"geometry":{"type":"Polygon","coordinates":[[[20.061558,50.053329],[20.06157,50.053284],[20.061642,50.053291],[20.06163,50.053337],[20.061558,50.053329]]]}},{"type":"Feature","id":"w971014847","properties":{"type":"yes","residential":true,"residents_est":3,"h3_10":"8a1e2e68c917fff","h3_11":"8b1e2e68c914fff"},"geometry":{"type":"Polygon","coordinates":[[[20.064115,50.055723],[20.064187,50.055697],[20.064239,50.055757],[20.064166,50.055783],[20.064115,50.055723]]]}},{"type":"Feature","id":"w1038786383","properties":{"type":"detached","levels":1.0,"residential":false,"residents_est":0,"h3_10":"8a1e2e68c90ffff","h3_11":"8b1e2e68c90efff"},"geometry":{"type":"Polygon","coordinates":[[[20.067193,50.055776],[20.067313,50.055757],[20.067327,50.055792],[20.067207,50.055812],[20.067193,50.055776]]]}},{"type":"Feature","id":"w1076562156","properties":{"type":"residential","address":"Zakarnie 7G","residential":true,"residents_est":50,"h3_10":"8a1e2e68c937fff","h3_11":"8b1e2e68c936fff"},"geometry":{"type":"Polygon","coordinates":[[[20.063454,50.056734],[20.063466,50.056663],[20.063556,50.056667],[20.063557,50.056653],[20.063545,50.056652],[20.063549,50.056609],[20.063608,50.056611],[20.06361,50.056593],[20.063685,50.056596],[20.063683,50.056614],[20.063758,50.056616],[20.063751,50.056686],[20.063763,50.056691],[20.063682,50.056688],[20.063679,50.056724],[20.06356,50.05672],[20.063558,50.056735],[20.063454,50.056734]]]}},{"type":"Feature","id":"w1076562157","properties":{"type":"residential","address":"Zakarnie 7F","residential":true,"residents_est":42,"h3_10":"8a1e2e68c937fff","h3_11":"8b1e2e68c936fff"},"geometry":{"type":"Polygon","coordinates":[[[20.063474,50.056482],[20.063479,50.056418],[20.063571,50.056421],[20.063576,50.056365],[20.063701,50.056369],[20.063699,50.056396],[20.063756,50.056398],[20.063752,50.056455],[20.063711,50.056454],[20.063709,50.05648],[20.063574,50.056475],[20.063573,50.056485],[20.063474,50.056482]]]}},{"type":"Feature","id":"w1151414408","properties":{"type":"yes","address":"Zakarnie 7D","residential":true,"residents_est":12,"h3_10":"8a1e2e68c937fff","h3_11":"8b1e2e68c932fff"},"geometry":{"type":"Polygon","coordinates":[[[20.063599,50.056049],[20.063604,50.055963],[20.063906,50.05597],[20.063901,50.056056],[20.063599,50.056049]]]}},{"type":"Feature","id":"w1151414409","properties":{"type":"construction","address":"Zakarnie 7E","residential":false,"residents_est":0,"h3_10":"8a1e2e68c937fff","h3_11":"8b1e2e68c932fff"},"geometry":{"type":"Polygon","coordinates":[[[20.063492,50.056165],[20.063765,50.056165],[20.063765,50.056249],[20.063716,50.056249],[20.063716,50.056274],[20.063683,50.056274],[20.063683,50.056287],[20.063595,50.056287],[20.063595,50.056238],[20.063492,50.056238],[20.063492,50.056165]]]}},{"type":"Feature","id":"w1296398656","properties":{"type":"yes","residential":false,"residents_est":0,"h3_10":"8a1e2e68c937fff","h3_11":"8b1e2e68c934fff"},"geometry":{"type":"Polygon","coordinates":[[[20.064087,50.057044],[20.064121,50.056997],[20.0642,50.05702],[20.064166,50.057068],[20.064087,50.057044]]]}},{"type":"Feature","id":"w1296398657","properties":{"type":"yes","residential":true,"residents_est":9,"h3_10":"8a1e2e68c937fff","h3_11":"8b1e2e68c934fff"},"geometry":{"type":"Polygon","coordinates":[[[20.064065,50.056961],[20.06413,50.056871],[20.064198,50.056891],[20.064216,50.056868],[20.064294,50.056891],[20.0642,50.05702],[20.064121,50.056997],[20.064133,50.056981],[20.064065,50.056961]]]}},{"type":"Feature","id":"w1304287797","properties":{"type":"yes","residential":false,"residents_est":0,"h3_10":"8a1e2e68c90ffff","h3_11":"8b1e2e68c90cfff"},"geometry":{"type":"Polygon","coordinates":[[[20.067148,50.056256],[20.067171,50.056201],[20.067208,50.056208],[20.067185,50.056262],[20.067148,50.056256]]]}},{"type":"Feature","id":"w1342531504","properties":{"type":"house","levels":1.0,"address":"Zakarnie 6A","residential":true,"residents_est":5,"h3_10":"8a1e2e68c987fff","h3_11":"8b1e2e68c980fff"},"geometry":{"type":"Polygon","coordinates":[[[20.063151,50.053538],[20.063166,50.053506],[20.063187,50.05351],[20.06322,50.05344],[20.063314,50.053459],[20.063283,50.053533],[20.063249,50.053527],[20.063236,50.053556],[20.063151,50.053538]]]}},{"type":"Feature","id":"w1342531505","properties":{"type":"yes","residential":false,"residents_est":0,"h3_10":"8a1e2e68c9a7fff","h3_11":"8b1e2e68c9a6fff"},"geometry":{"type":"Polygon","coordinates":[[[20.062599,50.054719],[20.062731,50.054702],[20.062739,50.054731],[20.062608,50.054747],[20.062599,50.054719]]]}},{"type":"Feature","id":"w1342531506","properties":{"type":"yes","residential":false,"residents_est":0,"h3_10":"8a1e2e68c9a7fff","h3_11":"8b1e2e68c9a6fff"},"geometry":{"type":"Polygon","coordinates":[[[20.062635,50.054684],[20.062718,50.054672],[20.062727,50.054702],[20.062643,50.054713],[20.062635,50.054684]]]}}]}