{"type":"FeatureCollection","features":[{"type":"Feature","id":"w395846298","properties":{"type":"house","levels":2.0,"address":"Portowa 17a","residential":true,"residents_est":1,"h3_10":"8a1e2e6c655ffff","h3_11":"8b1e2e6c655afff"},"geometry":{"type":"Polygon","coordinates":[[[20.20203,50.042152],[20.202032,50.042099],[20.202054,50.042099],[20.202055,50.042066],[20.202102,50.042067],[20.202129,50.042056],[20.202148,50.042068],[20.202175,50.042069],[20.202169,50.042162],[20.202079,50.042168],[20.202072,50.042161],[20.202053,50.04216],[20.202054,50.042153],[20.20203,50.042152]]]}},{"type":"Feature","id":"w395846319","properties":{"type":"house","levels":2.0,"address":"Portowa 17","residential":true,"residents_est":1,"h3_10":"8a1e2e6c6477fff","h3_11":"8b1e2e6c6474fff"},"geometry":{"type":"Polygon","coordinates":[[[20.202735,50.041792],[20.202888,50.041781],[20.202901,50.041861],[20.202749,50.041871],[20.202735,50.041792]]]}},{"type":"Feature","id":"w395846427","properties":{"type":"outbuilding","levels":1.0,"residential":false,"residents_est":0,"h3_10":"8a1e2e6c655ffff","h3_11":"8b1e2e6c655bfff"},"geometry":{"type":"Polygon","coordinates":[[[20.202801,50.042081],[20.202968,50.042067],[20.202983,50.042139],[20.202817,50.042153],[20.202801,50.042081]]]}},{"type":"Feature","id":"w395846467","properties":{"type":"outbuilding","levels":1.0,"residential":false,"residents_est":0,"h3_10":"8a1e2e6c6477fff","h3_11":"8b1e2e6c6475fff"},"geometry":{"type":"Polygon","coordinates":[[[20.203547,50.041892],[20.203652,50.041875],[20.203692,50.041977],[20.203587,50.041994],[20.203547,50.041892]]]}},{"type":"Feature","id":"w395846567","properties":{"type":"house","levels":1.0,"address":"Portowa 21","residential":true,"residents_est":0,"h3_10":"8a1e2e6c642ffff","h3_11":"8b1e2e6c642dfff"},"geometry":{"type":"Polygon","coordinates":[[[20.201397,50.042156],[20.201553,50.042142],[20.201572,50.042234],[20.201514,50.042239],[20.201518,50.042255],[20.20148,50.042258],[20.201477,50.042242],[20.201417,50.042247],[20.201397,50.042156]]]}},{"type":"Feature","id":"w395846575","properties":{"type":"house","levels":1.0,"address":"Portowa 21c","residential":true,"residents_est":1,"h3_10":"8a1e2e6c642ffff","h3_11":"8b1e2e6c6428fff"},"geometry":{"type":"Polygon","coordinates":[[[20.201042,50.042107],[20.201045,50.042022],[20.201214,50.042025],[20.201211,50.042109],[20.201042,50.042107]]]}},{"type":"Feature","id":"w395846714","properties":{"type":"yes","residential":true,"residents_est":0,"h3_10":"8a1e2e6c642ffff","h3_11":"8b1e2e6c642dfff"},"geometry":{"type":"Polygon","coordinates":[[[20.201157,50.042321],[20.201182,50.042273],[20.201224,50.042282],[20.201228,50.042275],[20.201362,50.0423],[20.201335,50.042357],[20.201157,50.042321]]]}},{"type":"Feature","id":"w395846723","properties":{"type":"yes","residential":true,"residents_est":0,"h3_10":"8a1e2e6c6557fff","h3_11":"8b1e2e6c6552fff"},"geometry":{"type":"Polygon","coordinates":[[[20.200245,50.042693],[20.200491,50.042662],[20.200516,50.042741],[20.200269,50.042773],[20.200245,50.042693]]]}},{"type":"Feature","id":"w395846749","properties":{"type":"house","levels":2.0,"address":"Portowa 21b","residential":true,"residents_est":1,"h3_10":"8a1e2e6c642ffff","h3_11":"8b1e2e6c642dfff"},"geometry":{"type":"Polygon","coordinates":[[[20.201713,50.042093],[20.2019,50.042088],[20.201905,50.042183],[20.201718,50.042188],[20.201713,50.042093]]]}},{"type":"Feature","id":"w395846834","properties":{"type":"house","levels":1.0,"address":"Portowa 15a","residential":true,"residents_est":1,"h3_10":"8a1e2e6c6467fff","h3_11":"8b1e2e6c6462fff"},"geometry":{"type":"Polygon","coordinates":[[[20.204152,50.041851],[20.204327,50.041823],[20.20436,50.041905],[20.204184,50.041934],[20.204152,50.041851]]]}},{"type":"Feature","id":"w395846837","properties":{"type":"yes","residential":true,"residents_est":0,"h3_10":"8a1e2e6c6557fff","h3_11":"8b1e2e6c6552fff"},"geometry":{"type":"Polygon","coordinates":[[[20.200406,50.042608],[20.20057,50.042586],[20.200587,50.042639],[20.200423,50.042662],[20.200406,50.042608]]]}},{"type":"Feature","id":"w395846840","properties":{"type":"outbuilding","levels":1.0,"residential":false,"residents_est":0,"h3_10":"8a1e2e6c6477fff","h3_11":"8b1e2e6c6474fff"},"geometry":{"type":"Polygon","coordinates":[[[20.202524,50.041954],[20.202653,50.041944],[20.202677,50.042073],[20.202547,50.042083],[20.202524,50.041954]]]}},{"type":"Feature","id":"w395846916","properties":{"type":"house","levels":2.0,"address":"Portowa 21a","residential":true,"residents_est":1,"h3_10":"8a1e2e6c642ffff","h3_11":"8b1e2e6c642cfff"},"geometry":{"type":"Polygon","coordinates":[[[20.200682,50.042078],[20.200883,50.042076],[20.200885,50.042168],[20.20073,50.04217],[20.20073,50.042158],[20.200684,50.042158],[20.200682,50.042078]]]}},{"type":"Feature","id":"w395846937","properties":{"type":"house","levels":2.0,"address":"Portowa 2","residential":true,"residents_est":1,"h3_10":"8a1e2e6c6557fff","h3_11":"8b1e2e6c6552fff"},"geometry":{"type":"Polygon","coordinates":[[[20.20008,50.042511],[20.200252,50.042487],[20.200282,50.042576],[20.200234,50.042582],[20.200242,50.042604],[20.200118,50.042622],[20.20008,50.042511]]]}},{"type":"Feature","id":"w395846988","properties":{"type":"house","levels":1.0,"address":"Portowa 21D","residential":true,"residents_est":0,"h3_10":"8a1e2e6c642ffff","h3_11":"8b1e2e6c642efff"},"geometry":{"type":"Polygon","coordinates":[[[20.200486,50.041935],[20.200627,50.04193],[20.200629,50.041956],[20.200641,50.041961],[20.200642,50.041976],[20.200631,50.041982],[20.200633,50.042013],[20.200622,50.04202],[20.2006,50.042021],[20.20059,50.042014],[20.200553,50.042016],[20.200557,50.042066],[20.200496,50.042068],[20.200486,50.041935]]]}},{"type":"Feature","id":"w395847023","properties":{"type":"house","levels":1.0,"address":"Portowa 15","residential":true,"residents_est":0,"h3_10":"8a1e2e6c6467fff","h3_11":"8b1e2e6c6462fff"},"geometry":{"type":"Polygon","coordinates":[[[20.203852,50.041882],[20.203985,50.041864],[20.204011,50.041943],[20.203951,50.041951],[20.203956,50.041965],[20.203927,50.041969],[20.203922,50.041954],[20.203878,50.04196],[20.203852,50.041882]]]}},{"type":"Feature","id":"w395847078","properties":{"type":"yes","residential":true,"residents_est":0,"h3_10":"8a1e2e6c6537fff","h3_11":"8b1e2e6c6533fff"},"geometry":{"type":"Polygon","coordinates":[[[20.196049,50.043803],[20.196051,50.043776],[20.196077,50.043777],[20.196081,50.043726],[20.196054,50.043725],[20.196056,50.043694],[20.19616,50.043697],[20.196152,50.043806],[20.196049,50.043803]]]}},{"type":"Feature","id":"w396315385","properties":{"type":"house","levels":2.0,"address":"Portowa 15D","residential":true,"residents_est":1,"h3_10":"8a1e2e6c646ffff","h3_11":"8b1e2e6c646efff"},"geometry":{"type":"Polygon","coordinates":[[[20.205088,50.041726],[20.205196,50.041725],[20.205196,50.041703],[20.205261,50.041703],[20.205261,50.041725],[20.205299,50.041725],[20.2053,50.041794],[20.205226,50.041795],[20.205226,50.04184],[20.205144,50.041841],[20.205144,50.041795],[20.205089,50.041795],[20.205088,50.041726]]]}},{"type":"Feature","id":"w396315751","properties":{"type":"yes","residential":true,"residents_est":0,"h3_10":"8a1e2e6c646ffff","h3_11":"8b1e2e6c646cfff"},"geometry":{"type":"Polygon","coordinates":[[[20.205621,50.042061],[20.20575,50.042051],[20.205779,50.042209],[20.20565,50.042218],[20.205621,50.042061]]]}},{"type":"Feature","id":"w396315910","properties":{"type":"house","levels":2.0,"address":"Portowa 11a","residential":true,"residents_est":1,"h3_10":"8a1e2e6c646ffff","h3_11":"8b1e2e6c6469fff"},"geometry":{"type":"Polygon","coordinates":[[[20.206654,50.041989],[20.206826,50.041953],[20.206865,50.042032],[20.206692,50.042068],[20.206654,50.041989]]]}},{"type":"Feature","id":"w396316450","properties":{"type":"house","levels":2.0,"address":"Portowa 11","residential":true,"residents_est":1,"h3_10":"8a1e2e6c646ffff","h3_11":"8b1e2e6c646cfff"},"geometry":{"type":"Polygon","coordinates":[[[20.205861,50.042103],[20.206009,50.042093],[20.206022,50.042175],[20.205875,50.042184],[20.205861,50.042103]]]}},{"type":"Feature","id":"w396317093","properties":{"type":"house","levels":1.0,"address":"Portowa 9","residential":true,"residents_est":0,"h3_10":"8a1e2e6c646ffff","h3_11":"8b1e2e6c646dfff"},"geometry":{"type":"Polygon","coordinates":[[[20.206529,50.042429],[20.206539,50.042329],[20.206692,50.042335],[20.206682,50.042436],[20.206529,50.042429]]]}},{"type":"Feature","id":"w396317775","properties":{"type":"yes","residential":true,"residents_est":0,"h3_10":"8a1e2e6c6467fff","h3_11":"8b1e2e6c6461fff"},"geometry":{"type":"Polygon","coordinates":[[[20.204912,50.042155],[20.204932,50.042044],[20.20507,50.042054],[20.205064,50.042087],[20.205033,50.042085],[20.205019,50.042163],[20.204912,50.042155]]]}},{"type":"Feature","id":"w396318038","properties":{"type":"house","levels":2.0,"address":"Portowa 11b","residential":true,"residents_est":0,"h3_10":"8a1e2e6c646ffff","h3_11":"8b1e2e6c6468fff"},"geometry":{"type":"Polygon","coordinates":[[[20.206138,50.042091],[20.206279,50.04206],[20.206303,50.042106],[20.206287,50.042109],[20.206306,50.042145],[20.206181,50.042173],[20.206138,50.042091]]]}},{"type":"Feature","id":"w396319738","properties":{"type":"house","levels":1.0,"address":"Portowa 13","residential":true,"residents_est":0,"h3_10":"8a1e2e6c6467fff","h3_11":"8b1e2e6c6461fff"},"geometry":{"type":"Polygon","coordinates":[[[20.205179,50.042179],[20.205192,50.042133],[20.205324,50.042148],[20.205329,50.042131],[20.205367,50.042135],[20.205345,50.042211],[20.205206,50.042195],[20.205209,50.042183],[20.205179,50.042179]]]}},{"type":"Feature","id":"w709250577","properties":{"type":"house","levels":2.0,"address":"Portowa 2A","residential":true,"residents_est":1,"h3_10":"8a1e2e6c6557fff","h3_11":"8b1e2e6c6552fff"},"geometry":{"type":"Polygon","coordinates":[[[20.200684,50.042467],[20.200814,50.042449],[20.200874,50.042631],[20.200744,50.042648],[20.200723,50.042581],[20.200741,50.042578],[20.20072,50.042514],[20.200701,50.042517],[20.200684,50.042467]]]}},{"type":"Feature","id":"w1095548714","properties":{"type":"outbuilding","levels":1.0,"residential":false,"residents_est":0,"h3_10":"8a1e2e6c646ffff","h3_11":"8b1e2e6c6468fff"},"geometry":{"type":"Polygon","coordinates":[[[20.206333,50.042],[20.206422,50.041981],[20.206454,50.042042],[20.206366,50.042061],[20.206333,50.042]]]}},{"type":"Feature","id":"w1095548715","properties":{"type":"house","levels":2.0,"address":"Portowa 11J","residential":true,"residents_est":1,"h3_10":"8a1e2e6c646ffff","h3_11":"8b1e2e6c6468fff"},"geometry":{"type":"Polygon","coordinates":[[[20.206278,50.041821],[20.206389,50.04179],[20.206469,50.04191],[20.206358,50.041941],[20.206278,50.041821]]]}},{"type":"Feature","id":"w1095548725","properties":{"type":"outbuilding","levels":1.0,"residential":false,"residents_est":0,"h3_10":"8a1e2e6c646ffff","h3_11":"8b1e2e6c6469fff"},"geometry":{"type":"Polygon","coordinates":[[[20.206527,50.04192],[20.206611,50.041895],[20.206642,50.041939],[20.206558,50.041964],[20.206527,50.04192]]]}},{"type":"Feature","id":"w1095548726","properties":{"type":"house","levels":2.0,"address":"Portowa 9a","residential":true,"residents_est":1,"h3_10":"8a1e2e6c646ffff","h3_11":"8b1e2e6c646dfff"},"geometry":{"type":"Polygon","coordinates":[[[20.206809,50.042323],[20.206812,50.042297],[20.206821,50.042297],[20.206825,50.042256],[20.206896,50.042259],[20.206895,50.042268],[20.206966,50.042271],[20.206954,50.042384],[20.206899,50.042382],[20.206902,50.042359],[20.206815,50.042355],[20.206818,50.042323],[20.206809,50.042323]]]}},{"type":"Feature","id":"w1095548745","properties":{"type":"house","levels":2.0,"address":"Portowa 8","residential":true,"residents_est":0,"h3_10":"8a1e2e6c6427fff","h3_11":"8b1e2e6c6424fff"},"geometry":{"type":"Polygon","coordinates":[[[20.198968,50.042596],[20.198983,50.042595],[20.198982,50.042582],[20.199108,50.042579],[20.199112,50.042653],[20.199088,50.04267],[20.198973,50.042673],[20.198968,50.042596]]]}},{"type":"Feature","id":"w1095548746","properties":{"type":"house","levels":2.0,"address":"Portowa 8A","residential":true,"residents_est":0,"h3_10":"8a1e2e6c6427fff","h3_11":"8b1e2e6c6424fff"},"geometry":{"type":"Polygon","coordinates":[[[20.198828,50.042586],[20.198953,50.042583],[20.198953,50.042596],[20.198968,50.042596],[20.198973,50.042673],[20.198857,50.042676],[20.198832,50.04266],[20.198828,50.042586]]]}},{"type":"Feature","id":"w1120873698","properties":{"type":"yes","residential":false,"residents_est":0,"h3_10":"8a1e2e6c6477fff","h3_11":"8b1e2e6c6474fff"},"geometry":{"type":"Polygon","coordinates":[[[20.202518,50.041923],[20.202648,50.041913],[20.202653,50.041944],[20.202524,50.041954],[20.202518,50.041923]]]}},{"type":"Feature","id":"w1120873699","properties":{"type":"house","residential":false,"residents_est":0,"h3_10":"8a1e2e6c655ffff","h3_11":"8b1e2e6c655afff"},"geometry":{"type":"Polygon","coordinates":[[[20.202172,50.042126],[20.202175,50.042076],[20.202257,50.042079],[20.202254,50.042129],[20.202172,50.042126]]]}},{"type":"Feature","id":"w1120873760","properties":{"type":"yes","residential":false,"residents_est":0,"h3_10":"8a1e2e6c646ffff","h3_11":"8b1e2e6c646efff"},"geometry":{"type":"Polygon","coordinates":[[[20.205358,50.041852],[20.205429,50.04185],[20.205432,50.041885],[20.20536,50.041887],[20.205358,50.041852]]]}},{"type":"Feature","id":"w1120873762","properties":{"type":"yes","residential":false,"residents_est":0,"h3_10":"8a1e2e6c6467fff","h3_11":"8b1e2e6c6463fff"},"geometry":{"type":"Polygon","coordinates":[[[20.204445,50.04195],[20.204512,50.041934],[20.204533,50.041972],[20.204466,50.041987],[20.204445,50.04195]]]}},{"type":"Feature","id":"w1120873769","properties":{"type":"yes","residential":false,"residents_est":0,"h3_10":"8a1e2e6c642ffff","h3_11":"8b1e2e6c6429fff"},"geometry":{"type":"Polygon","coordinates":[[[20.201616,50.041814],[20.201689,50.04181],[20.201693,50.041836],[20.20162,50.04184],[20.201616,50.041814]]]}},{"type":"Feature","id":"w1213396094","properties":{"type":"yes","residential":true,"residents_est":0,"h3_10":"8a1e2e6c642ffff","h3_11":"8b1e2e6c6428fff"},"geometry":{"type":"Polygon","coordinates":[[[20.200798,50.041929],[20.200822,50.041928],[20.20082,50.041889],[20.200935,50.041887],[20.200937,50.041942],[20.200916,50.041942],[20.200917,50.041975],[20.2008,50.041976],[20.200798,50.041929]]]}},{"type":"Feature","id":"w1368354150","properties":{"type":"yes","residential":true,"residents_est":0,"h3_10":"8a1e2e6c6427fff","h3_11":"8b1e2e6c6424fff"},"geometry":{"type":"Polygon","coordinates":[[[20.199247,50.042487],[20.199459,50.042474],[20.199472,50.042563],[20.199261,50.042577],[20.199247,50.042487]]]}}]}