{"type":"FeatureCollection","features":[{"type":"Feature","id":"w385434580","properties":{"type":"yes","residential":true,"residents_est":2,"h3_10":"8a1e2e6e4d1ffff","h3_11":"8b1e2e6e4d1bfff"},"geometry":{"type":"Polygon","coordinates":[[[20.19759,50.121657],[20.197746,50.121645],[20.197761,50.121742],[20.197605,50.121758],[20.19759,50.121657]]]}},{"type":"Feature","id":"w385434605","properties":{"type":"yes","address":"Czulice 44","residential":true,"residents_est":2,"h3_10":"8a1e2e6e4d97fff","h3_11":"8b1e2e6e4d95fff"},"geometry":{"type":"Polygon","coordinates":[[[20.193123,50.120466],[20.19325,50.120438],[20.193313,50.120555],[20.193186,50.120584],[20.193123,50.120466]]]}},{"type":"Feature","id":"w385434638","properties":{"type":"yes","address":"Czulice 91","residential":true,"residents_est":2,"h3_10":"8a1e2e6e4c27fff","h3_11":"8b1e2e6e4c24fff"},"geometry":{"type":"Polygon","coordinates":[[[20.198224,50.12207],[20.198434,50.122039],[20.198468,50.122136],[20.198259,50.122167],[20.198224,50.12207]]]}},{"type":"Feature","id":"w385434850","properties":{"type":"yes","address":"Czulice 122","residential":true,"residents_est":1,"h3_10":"8a1e2e6e4c27fff","h3_11":"8b1e2e6e4c25fff"},"geometry":{"type":"Polygon","coordinates":[[[20.198877,50.12223],[20.199029,50.122213],[20.199056,50.122294],[20.198898,50.12231],[20.198877,50.12223]]]}},{"type":"Feature","id":"w385435137","properties":{"type":"yes","residential":true,"residents_est":2,"h3_10":"8a1e2e6e4db7fff","h3_11":"8b1e2e6e4db3fff"},"geometry":{"type":"Polygon","coordinates":[[[20.19282,50.120564],[20.192953,50.120552],[20.192981,50.120687],[20.192849,50.120698],[20.19282,50.120564]]]}},{"type":"Feature","id":"w385435194","properties":{"type":"yes","address":"Czulice 53","residential":true,"residents_est":1,"h3_10":"8a1e2e6e4d87fff","h3_11":"8b1e2e6e4d84fff"},"geometry":{"type":"Polygon","coordinates":[[[20.193908,50.121084],[20.194031,50.121067],[20.194065,50.121171],[20.193942,50.121188],[20.193908,50.121084]]]}},{"type":"Feature","id":"w385435428","properties":{"type":"yes","residential":true,"residents_est":1,"h3_10":"8a1e2e6e4d87fff","h3_11":"8b1e2e6e4d84fff"},"geometry":{"type":"Polygon","coordinates":[[[20.193681,50.121199],[20.193759,50.121188],[20.193798,50.1213],[20.19378,50.121303],[20.193787,50.121323],[20.193728,50.121332],[20.193681,50.121199]]]}},{"type":"Feature","id":"w385435521","properties":{"type":"yes","residential":true,"residents_est":1,"h3_10":"8a1e2e6e4c27fff","h3_11":"8b1e2e6e4c24fff"},"geometry":{"type":"Polygon","coordinates":[[[20.198231,50.122308],[20.198341,50.122289],[20.198332,50.122269],[20.198384,50.12226],[20.198421,50.122349],[20.19826,50.122377],[20.198231,50.122308]]]}},{"type":"Feature","id":"w385435585","properties":{"type":"yes","residential":true,"residents_est":2,"h3_10":"8a1e2e6e4c2ffff","h3_11":"8b1e2e6e4c2dfff"},"geometry":{"type":"Polygon","coordinates":[[[20.200961,50.121915],[20.201114,50.121835],[20.201179,50.121885],[20.201106,50.121923],[20.201219,50.122012],[20.201138,50.122055],[20.200961,50.121915]]]}},{"type":"Feature","id":"w385435725","properties":{"type":"yes","residential":true,"residents_est":0,"h3_10":"8a1e2e6e4d5ffff","h3_11":"8b1e2e6e4d5efff"},"geometry":{"type":"Polygon","coordinates":[[[20.201182,50.122064],[20.20127,50.122027],[20.201298,50.122054],[20.20129,50.122057],[20.20132,50.122087],[20.201239,50.122121],[20.201182,50.122064]]]}},{"type":"Feature","id":"w385435976","properties":{"type":"yes","address":"Czulice 78","residential":true,"residents_est":1,"h3_10":"8a1e2e6e4d1ffff","h3_11":"8b1e2e6e4d1bfff"},"geometry":{"type":"Polygon","coordinates":[[[20.197284,50.121653],[20.197394,50.121642],[20.197401,50.121671],[20.197426,50.121669],[20.197431,50.121691],[20.197404,50.121694],[20.197417,50.121747],[20.197309,50.121758],[20.197284,50.121653]]]}},{"type":"Feature","id":"w385435982","properties":{"type":"yes","address":"Czulice 14","residential":true,"residents_est":1,"h3_10":"8a1e2e6e4db7fff","h3_11":"8b1e2e6e4db1fff"},"geometry":{"type":"Polygon","coordinates":[[[20.193342,50.121178],[20.193437,50.121163],[20.19345,50.121195],[20.193472,50.121192],[20.193485,50.121223],[20.193459,50.121227],[20.193463,50.121237],[20.193371,50.121252],[20.193342,50.121178]]]}},{"type":"Feature","id":"w720006276","properties":{"type":"greenhouse","residential":false,"residents_est":0,"h3_10":"8a1e2e6e4d1ffff","h3_11":"8b1e2e6e4d1afff"},"geometry":{"type":"Polygon","coordinates":[[[20.196422,50.121657],[20.196636,50.121624],[20.19665,50.121663],[20.196437,50.121696],[20.196422,50.121657]]]}},{"type":"Feature","id":"w720006305","properties":{"type":"greenhouse","residential":false,"residents_est":0,"h3_10":"8a1e2e6e4d5ffff","h3_11":"8b1e2e6e4d5afff"},"geometry":{"type":"Polygon","coordinates":[[[20.201265,50.121899],[20.201392,50.121853],[20.201413,50.121877],[20.201287,50.121923],[20.201265,50.121899]]]}},{"type":"Feature","id":"w720006306","properties":{"type":"greenhouse","residential":false,"residents_est":0,"h3_10":"8a1e2e6e4d5ffff","h3_11":"8b1e2e6e4d5afff"},"geometry":{"type":"Polygon","coordinates":[[[20.201237,50.121811],[20.201522,50.121729],[20.201543,50.121759],[20.201258,50.121841],[20.201237,50.121811]]]}},{"type":"Feature","id":"w720006307","properties":{"type":"greenhouse","residential":false,"residents_est":0,"h3_10":"8a1e2e6e4d5ffff","h3_11":"8b1e2e6e4d5afff"},"geometry":{"type":"Polygon","coordinates":[[[20.201224,50.12176],[20.20154,50.121661],[20.201566,50.121696],[20.20125,50.121795],[20.201224,50.12176]]]}},{"type":"Feature","id":"w722681519","properties":{"type":"greenhouse","residential":false,"residents_est":0,"h3_10":"8a1e2e6e4d57fff","h3_11":"8b1e2e6e4d52fff"},"geometry":{"type":"Polygon","coordinates":[[[20.199713,50.122203],[20.199757,50.122197],[20.199783,50.122275],[20.199739,50.122281],[20.199713,50.122203]]]}},{"type":"Feature","id":"w722681520","properties":{"type":"greenhouse","residential":false,"residents_est":0,"h3_10":"8a1e2e6e4c27fff","h3_11":"8b1e2e6e4c25fff"},"geometry":{"type":"Polygon","coordinates":[[[20.199209,50.122174],[20.199253,50.122169],[20.199276,50.122238],[20.199232,50.122244],[20.199209,50.122174]]]}},{"type":"Feature","id":"w722681521","properties":{"type":"yes","residential":true,"residents_est":1,"h3_10":"8a1e2e6e4c27fff","h3_11":"8b1e2e6e4c25fff"},"geometry":{"type":"Polygon","coordinates":[[[20.199267,50.122161],[20.199355,50.122149],[20.199383,50.122236],[20.199295,50.122248],[20.199267,50.122161]]]}},{"type":"Feature","id":"w722681535","properties":{"type":"yes","residential":false,"residents_est":0,"h3_10":"8a1e2e6e4daffff","h3_11":"8b1e2e6e4daafff"},"geometry":{"type":"Polygon","coordinates":[[[20.195297,50.120972],[20.195355,50.120964],[20.195374,50.121024],[20.195315,50.121031],[20.195297,50.120972]]]}},{"type":"Feature","id":"w722681536","properties":{"type":"yes","residential":true,"residents_est":1,"h3_10":"8a1e2e6e4d8ffff","h3_11":"8b1e2e6e4d8cfff"},"geometry":{"type":"Polygon","coordinates":[[[20.19552,50.120755],[20.195617,50.120748],[20.195629,50.120811],[20.195531,50.120818],[20.19552,50.120755]]]}},{"type":"Feature","id":"w722681537","properties":{"type":"yes","residential":true,"residents_est":1,"h3_10":"8a1e2e6e4d8ffff","h3_11":"8b1e2e6e4d8cfff"},"geometry":{"type":"Polygon","coordinates":[[[20.19531,50.120745],[20.195458,50.120735],[20.195473,50.12082],[20.195325,50.12083],[20.19531,50.120745]]]}},{"type":"Feature","id":"w722681538","properties":{"type":"yes","residential":false,"residents_est":0,"h3_10":"8a1e2e6e4d87fff","h3_11":"8b1e2e6e4d81fff"},"geometry":{"type":"Polygon","coordinates":[[[20.194856,50.120514],[20.194948,50.120502],[20.194961,50.12054],[20.194869,50.120552],[20.194856,50.120514]]]}},{"type":"Feature","id":"w722681539","properties":{"type":"yes","residential":true,"residents_est":1,"h3_10":"8a1e2e6e4d87fff","h3_11":"8b1e2e6e4d81fff"},"geometry":{"type":"Polygon","coordinates":[[[20.194805,50.120646],[20.194861,50.120644],[20.194866,50.120658],[20.194911,50.120652],[20.194943,50.12075],[20.194842,50.120763],[20.194805,50.120646]]]}},{"type":"Feature","id":"w722681540","properties":{"type":"yes","residential":true,"residents_est":1,"h3_10":"8a1e2e6e4d87fff","h3_11":"8b1e2e6e4d81fff"},"geometry":{"type":"Polygon","coordinates":[[[20.194711,50.120679],[20.194756,50.120672],[20.194752,50.120659],[20.194805,50.120646],[20.194842,50.120763],[20.194741,50.120776],[20.194711,50.120679]]]}},{"type":"Feature","id":"w1267888210","properties":{"type":"yes","residential":true,"residents_est":0,"h3_10":"8a1e2e6e4daffff","h3_11":"8b1e2e6e4dabfff"},"geometry":{"type":"Polygon","coordinates":[[[20.195586,50.120948],[20.195696,50.120946],[20.195699,50.120995],[20.195589,50.120997],[20.195586,50.120948]]]}},{"type":"Feature","id":"w1267888211","properties":{"type":"yes","residential":true,"residents_est":1,"h3_10":"8a1e2e6e4d87fff","h3_11":"8b1e2e6e4d80fff"},"geometry":{"type":"Polygon","coordinates":[[[20.19388,50.120807],[20.193986,50.120797],[20.194015,50.120913],[20.193909,50.120924],[20.19388,50.120807]]]}},{"type":"Feature","id":"w1267888214","properties":{"type":"greenhouse","residential":false,"residents_est":0,"h3_10":"8a1e2e6e4c37fff","h3_11":"8b1e2e6e4c35fff"},"geometry":{"type":"Polygon","coordinates":[[[20.197625,50.121519],[20.197626,50.121486],[20.198076,50.121492],[20.198075,50.121526],[20.197625,50.121519]]]}},{"type":"Feature","id":"w1267888215","properties":{"type":"greenhouse","residential":false,"residents_est":0,"h3_10":"8a1e2e6e4c37fff","h3_11":"8b1e2e6e4c35fff"},"geometry":{"type":"Polygon","coordinates":[[[20.197647,50.121569],[20.197648,50.121536],[20.198098,50.121542],[20.198096,50.121576],[20.197647,50.121569]]]}},{"type":"Feature","id":"w1267888216","properties":{"type":"greenhouse","residential":false,"residents_est":0,"h3_10":"8a1e2e6e4c37fff","h3_11":"8b1e2e6e4c35fff"},"geometry":{"type":"Polygon","coordinates":[[[20.197582,50.121471],[20.197584,50.121438],[20.198033,50.121444],[20.198032,50.121478],[20.197582,50.121471]]]}},{"type":"Feature","id":"w1267888217","properties":{"type":"greenhouse","residential":false,"residents_est":0,"h3_10":"8a1e2e6e4c37fff","h3_11":"8b1e2e6e4c35fff"},"geometry":{"type":"Polygon","coordinates":[[[20.197569,50.121423],[20.19757,50.121389],[20.19802,50.121396],[20.198019,50.12143],[20.197569,50.121423]]]}}]}