{"type":"FeatureCollection","features":[{"type":"Feature","id":"w123768492","properties":{"type":"yes","residential":true,"residents_est":27,"h3_10":"8a1e2e6ab107fff","h3_11":"8b1e2e6ab104fff"},"geometry":{"type":"Polygon","coordinates":[[[20.085772,50.066925],[20.085802,50.066581],[20.085979,50.066587],[20.085948,50.066933],[20.085772,50.066925]]]}},{"type":"Feature","id":"w123768500","properties":{"type":"yes","residential":true,"residents_est":56,"h3_10":"8a1e2e6ab137fff","h3_11":"8b1e2e6ab133fff"},"geometry":{"type":"Polygon","coordinates":[[[20.084106,50.066523],[20.084113,50.066439],[20.084156,50.066441],[20.084159,50.066411],[20.085056,50.066441],[20.085056,50.066409],[20.085152,50.066413],[20.085147,50.066414],[20.085144,50.066444],[20.085188,50.066445],[20.085178,50.066561],[20.084106,50.066523]]]}},{"type":"Feature","id":"w219172279","properties":{"type":"yes","residential":false,"residents_est":0,"h3_10":"8a1e2e6ab057fff","h3_11":"8b1e2e6ab052fff"},"geometry":{"type":"Polygon","coordinates":[[[20.091473,50.062883],[20.091535,50.062861],[20.091558,50.06289],[20.091497,50.062911],[20.091473,50.062883]]]}},{"type":"Feature","id":"w219172367","properties":{"type":"yes","residential":true,"residents_est":50,"h3_10":"8a1e2e6ab0e7fff","h3_11":"8b1e2e6ab0e1fff"},"geometry":{"type":"Polygon","coordinates":[[[20.09125,50.062565],[20.09138,50.062519],[20.091345,50.062478],[20.091518,50.062417],[20.091553,50.062457],[20.091589,50.062444],[20.091754,50.062637],[20.091717,50.06265],[20.091752,50.06269],[20.09145,50.062798],[20.09125,50.062565]]]}},{"type":"Feature","id":"w245659962","properties":{"type":"yes","residential":true,"residents_est":2,"h3_10":"8a1e2e6ab087fff","h3_11":"8b1e2e6ab080fff"},"geometry":{"type":"Polygon","coordinates":[[[20.085853,50.061284],[20.08586,50.061172],[20.085952,50.061173],[20.085944,50.061287],[20.085853,50.061284]]]}},{"type":"Feature","id":"w245659963","properties":{"type":"yes","residential":true,"residents_est":2,"h3_10":"8a1e2e6ab0a7fff","h3_11":"8b1e2e6ab0a3fff"},"geometry":{"type":"Polygon","coordinates":[[[20.0858,50.062323],[20.085805,50.062213],[20.085896,50.062215],[20.08589,50.062325],[20.0858,50.062323]]]}},{"type":"Feature","id":"w245659964","properties":{"type":"yes","residential":true,"residents_est":2,"h3_10":"8a1e2e6ab09ffff","h3_11":"8b1e2e6ab09cfff"},"geometry":{"type":"Polygon","coordinates":[[[20.085883,50.060654],[20.085976,50.060653],[20.085976,50.060765],[20.085884,50.060765],[20.085883,50.060654]]]}},{"type":"Feature","id":"w245659965","properties":{"type":"yes","residential":true,"residents_est":2,"h3_10":"8a1e2e6ab087fff","h3_11":"8b1e2e6ab084fff"},"geometry":{"type":"Polygon","coordinates":[[[20.085825,50.061804],[20.08583,50.061694],[20.085921,50.061696],[20.085915,50.061806],[20.085825,50.061804]]]}},{"type":"Feature","id":"w245659966","properties":{"type":"yes","residential":true,"residents_est":22,"h3_10":"8a1e2e6ab0a7fff","h3_11":"8b1e2e6ab0a5fff"},"geometry":{"type":"Polygon","coordinates":[[[20.0856,50.062826],[20.085605,50.062714],[20.086032,50.062723],[20.086027,50.062835],[20.0856,50.062826]]]}},{"type":"Feature","id":"w245659967","properties":{"type":"yes","residential":true,"residents_est":16,"h3_10":"8a1e2e6ab0affff","h3_11":"8b1e2e6ab0abfff"},"geometry":{"type":"Polygon","coordinates":[[[20.087628,50.061645],[20.087633,50.061543],[20.087978,50.06155],[20.087973,50.061652],[20.087628,50.061645]]]}},{"type":"Feature","id":"w245659969","properties":{"type":"yes","residential":true,"residents_est":3,"h3_10":"8a1e2e6ab08ffff","h3_11":"8b1e2e6ab08cfff"},"geometry":{"type":"Polygon","coordinates":[[[20.087497,50.061427],[20.087507,50.061293],[20.08759,50.061296],[20.08758,50.06143],[20.087497,50.061427]]]}},{"type":"Feature","id":"w245659971","properties":{"type":"yes","residential":true,"residents_est":17,"h3_10":"8a1e2e6ab0a7fff","h3_11":"8b1e2e6ab0a4fff"},"geometry":{"type":"Polygon","coordinates":[[[20.085047,50.062816],[20.085053,50.062704],[20.085393,50.062711],[20.085387,50.062823],[20.085047,50.062816]]]}},{"type":"Feature","id":"w245659972","properties":{"type":"yes","residential":true,"residents_est":68,"h3_10":"8a1e2e6ab0affff","h3_11":"8b1e2e6ab0adfff"},"geometry":{"type":"Polygon","coordinates":[[[20.087466,50.062641],[20.087472,50.062524],[20.087686,50.062528],[20.08769,50.062426],[20.087472,50.062422],[20.087478,50.062305],[20.087698,50.062309],[20.087703,50.06221],[20.08748,50.062206],[20.087485,50.062092],[20.087841,50.062099],[20.087816,50.062647],[20.087466,50.062641]]]}},{"type":"Feature","id":"w603527966","properties":{"type":"service","residential":false,"residents_est":0,"h3_10":"8a1e2e6ab1b7fff","h3_11":"8b1e2e6ab1b2fff"},"geometry":{"type":"Polygon","coordinates":[[[20.0815,50.064101],[20.081501,50.064044],[20.08156,50.064044],[20.081559,50.064101],[20.0815,50.064101]]]}},{"type":"Feature","id":"w705990810","properties":{"type":"yes","residential":true,"residents_est":5,"h3_10":"8a1e2e6ab137fff","h3_11":"8b1e2e6ab132fff"},"geometry":{"type":"Polygon","coordinates":[[[20.084029,50.06667],[20.084035,50.066601],[20.0841,50.066603],[20.084106,50.066523],[20.084286,50.066529],[20.084276,50.06664],[20.08407,50.066633],[20.084067,50.066671],[20.084029,50.06667]]]}},{"type":"Feature","id":"w705990811","properties":{"type":"yes","residential":true,"residents_est":5,"h3_10":"8a1e2e6ab127fff","h3_11":"8b1e2e6ab122fff"},"geometry":{"type":"Polygon","coordinates":[[[20.085215,50.067505],[20.085222,50.067414],[20.085475,50.067422],[20.085468,50.067513],[20.085215,50.067505]]]}},{"type":"Feature","id":"w705990812","properties":{"type":"yes","residential":true,"residents_est":26,"h3_10":"8a1e2e6ab127fff","h3_11":"8b1e2e6ab120fff"},"geometry":{"type":"Polygon","coordinates":[[[20.085199,50.067728],[20.08521,50.067581],[20.085601,50.067594],[20.085589,50.06774],[20.085199,50.067728]]]}},{"type":"Feature","id":"w705990814","properties":{"type":"yes","residential":true,"residents_est":6,"h3_10":"8a1e2e6ab107fff","h3_11":"8b1e2e6ab105fff"},"geometry":{"type":"Polygon","coordinates":[[[20.086195,50.067107],[20.086207,50.066957],[20.086383,50.066963],[20.086371,50.067113],[20.086195,50.067107]]]}},{"type":"Feature","id":"w705990815","properties":{"type":"yes","residential":true,"residents_est":7,"h3_10":"8a1e2e6ab107fff","h3_11":"8b1e2e6ab105fff"},"geometry":{"type":"Polygon","coordinates":[[[20.086427,50.067115],[20.086437,50.066992],[20.08667,50.067],[20.08666,50.067123],[20.086427,50.067115]]]}},{"type":"Feature","id":"w705990817","properties":{"type":"yes","residential":true,"residents_est":34,"h3_10":"8a1e2e6ab12ffff","h3_11":"8b1e2e6ab12cfff"},"geometry":{"type":"Polygon","coordinates":[[[20.087016,50.067849],[20.087047,50.067478],[20.087235,50.067484],[20.087218,50.067682],[20.087201,50.067681],[20.08719,50.067794],[20.087338,50.067799],[20.087332,50.06786],[20.087016,50.067849]]]}},{"type":"Feature","id":"w705990818","properties":{"type":"yes","residential":true,"residents_est":138,"h3_10":"8a1e2e6ab12ffff","h3_11":"8b1e2e6ab12cfff"},"geometry":{"type":"Polygon","coordinates":[[[20.086751,50.068055],[20.086817,50.067159],[20.087323,50.067177],[20.087298,50.067486],[20.087047,50.067478],[20.086997,50.068065],[20.086751,50.068055]]]}},{"type":"Feature","id":"w705990822","properties":{"type":"yes","residential":false,"residents_est":0,"h3_10":"8a1e2e6ab127fff","h3_11":"8b1e2e6ab124fff"},"geometry":{"type":"Polygon","coordinates":[[[20.08551,50.068202],[20.085514,50.068145],[20.085586,50.068147],[20.085581,50.068205],[20.08551,50.068202]]]}},{"type":"Feature","id":"w723838437","properties":{"type":"yes","residential":true,"residents_est":1,"h3_10":"8a1e2e6ab0affff","h3_11":"8b1e2e6ab0aefff"},"geometry":{"type":"Polygon","coordinates":[[[20.086965,50.062062],[20.086971,50.062001],[20.087064,50.062005],[20.08706,50.062065],[20.086965,50.062062]]]}},{"type":"Feature","id":"w723838439","properties":{"type":"yes","residential":true,"residents_est":4,"h3_10":"8a1e2e6ab08ffff","h3_11":"8b1e2e6ab08efff"},"geometry":{"type":"Polygon","coordinates":[[[20.087017,50.06102],[20.08702,50.060961],[20.087111,50.060962],[20.087109,50.061022],[20.087017,50.06102]]]}},{"type":"Feature","id":"w723838440","properties":{"type":"yes","residential":true,"residents_est":20,"h3_10":"8a1e2e6ab09ffff","h3_11":"8b1e2e6ab098fff"},"geometry":{"type":"Polygon","coordinates":[[[20.085993,50.060241],[20.086007,50.06015],[20.086496,50.060184],[20.086483,50.060273],[20.085993,50.060241]]]}},{"type":"Feature","id":"w723838446","properties":{"type":"yes","residential":true,"residents_est":25,"h3_10":"8a1e2e6ab06ffff","h3_11":"8b1e2e6ab069fff"},"geometry":{"type":"Polygon","coordinates":[[[20.095164,50.064846],[20.095216,50.064702],[20.095585,50.064757],[20.095533,50.064901],[20.095164,50.064846]]]}},{"type":"Feature","id":"w1037935060","properties":{"type":"garages","levels":1.0,"residential":false,"residents_est":0,"h3_10":"8a1e2e6ab1a7fff","h3_11":"8b1e2e6ab1a3fff"},"geometry":{"type":"Polygon","coordinates":[[[20.083027,50.064721],[20.083033,50.064668],[20.084563,50.064739],[20.084557,50.064792],[20.083027,50.064721]]]}},{"type":"Feature","id":"w1296678890","properties":{"type":"industrial","address":"Dymarek 2L","name":"Walraven Sp. z o.o.","residential":false,"residents_est":0,"h3_10":"8a1e2e6ab047fff","h3_11":"8b1e2e6ab043fff"},"geometry":{"type":"Polygon","coordinates":[[[20.092584,50.063514],[20.092765,50.063051],[20.095524,50.063495],[20.095343,50.063958],[20.092584,50.063514]]]}},{"type":"Feature","id":"w1416900465","properties":{"type":"yes","residential":true,"residents_est":3,"h3_10":"8a1e2e6ab057fff","h3_11":"8b1e2e6ab053fff"},"geometry":{"type":"Polygon","coordinates":[[[20.092176,50.063034],[20.092197,50.063004],[20.092241,50.062988],[20.092292,50.062993],[20.092313,50.063003],[20.092329,50.063017],[20.092335,50.063034],[20.092323,50.063067],[20.092281,50.063087],[20.092254,50.06309],[20.092206,50.063079],[20.092178,50.063051],[20.092176,50.063034]]]}}]}