{"type":"FeatureCollection","features":[{"type":"Feature","id":"w80244201","properties":{"type":"yes","residential":true,"residents_est":17,"h3_10":"8a1e2e685717fff","h3_11":"8b1e2e685712fff"},"geometry":{"type":"Polygon","coordinates":[[[20.016853,50.057599],[20.016871,50.05738],[20.017069,50.057387],[20.01705,50.057606],[20.016853,50.057599]]]}},{"type":"Feature","id":"w80244203","properties":{"type":"yes","residential":true,"residents_est":41,"h3_10":"8a1e2e6857affff","h3_11":"8b1e2e6857aefff"},"geometry":{"type":"Polygon","coordinates":[[[20.016785,50.057052],[20.016806,50.056802],[20.017232,50.056817],[20.01721,50.057067],[20.016785,50.057052]]]}},{"type":"Feature","id":"w80244206","properties":{"type":"office","address":"Na Załęczu 3","residential":false,"residents_est":0,"h3_10":"8a1e2e685707fff","h3_11":"8b1e2e685702fff"},"geometry":{"type":"Polygon","coordinates":[[[20.017878,50.058344],[20.017886,50.058263],[20.017972,50.058265],[20.017974,50.05825],[20.018055,50.058252],[20.018054,50.058269],[20.018188,50.058273],[20.018191,50.058226],[20.018398,50.058232],[20.018336,50.058359],[20.017878,50.058344]]]}},{"type":"Feature","id":"w80244210","properties":{"type":"yes","address":"Władysława Siwka 15","residential":true,"residents_est":52,"h3_10":"8a1e2e68571ffff","h3_11":"8b1e2e68571afff"},"geometry":{"type":"Polygon","coordinates":[[[20.018529,50.057034],[20.01855,50.056806],[20.019147,50.056829],[20.019126,50.057056],[20.018529,50.057034]]]}},{"type":"Feature","id":"w80244214","properties":{"type":"yes","residential":true,"residents_est":25,"h3_10":"8a1e2e6857affff","h3_11":"8b1e2e6857a9fff"},"geometry":{"type":"Polygon","coordinates":[[[20.018502,50.056696],[20.018511,50.056586],[20.019099,50.056605],[20.019091,50.056714],[20.018502,50.056696]]]}},{"type":"Feature","id":"w80244216","properties":{"type":"yes","residential":true,"residents_est":22,"h3_10":"8a1e2e685717fff","h3_11":"8b1e2e685713fff"},"geometry":{"type":"Polygon","coordinates":[[[20.017477,50.057384],[20.017484,50.057303],[20.018187,50.057329],[20.01818,50.05741],[20.017477,50.057384]]]}},{"type":"Feature","id":"w80244218","properties":{"type":"yes","address":"Władysława Siwka 11","residential":true,"residents_est":63,"h3_10":"8a1e2e6857affff","h3_11":"8b1e2e6857adfff"},"geometry":{"type":"Polygon","coordinates":[[[20.017497,50.057064],[20.017516,50.056822],[20.018198,50.056843],[20.018179,50.057085],[20.017497,50.057064]]]}},{"type":"Feature","id":"w80244219","properties":{"type":"yes","residential":true,"residents_est":22,"h3_10":"8a1e2e6857affff","h3_11":"8b1e2e6857a8fff"},"geometry":{"type":"Polygon","coordinates":[[[20.017592,50.056673],[20.017598,50.056559],[20.018099,50.05657],[20.018093,50.056684],[20.017592,50.056673]]]}},{"type":"Feature","id":"w80244220","properties":{"type":"yes","residential":true,"residents_est":47,"h3_10":"8a1e2e685707fff","h3_11":"8b1e2e685703fff"},"geometry":{"type":"Polygon","coordinates":[[[20.018742,50.058284],[20.018888,50.057752],[20.019111,50.057777],[20.018965,50.058309],[20.018742,50.058284]]]}},{"type":"Feature","id":"w80244224","properties":{"type":"yes","address":"Władysława Siwka 17","residential":true,"residents_est":23,"h3_10":"8a1e2e685637fff","h3_11":"8b1e2e685635fff"},"geometry":{"type":"Polygon","coordinates":[[[20.019569,50.057073],[20.019589,50.056817],[20.019893,50.056827],[20.019887,50.056912],[20.019777,50.056909],[20.019763,50.057079],[20.019569,50.057073]]]}},{"type":"Feature","id":"w80244225","properties":{"type":"yes","residential":true,"residents_est":14,"h3_10":"8a1e2e685637fff","h3_11":"8b1e2e685635fff"},"geometry":{"type":"Polygon","coordinates":[[[20.019345,50.056773],[20.019352,50.056636],[20.01963,50.056642],[20.019623,50.056779],[20.019345,50.056773]]]}},{"type":"Feature","id":"w81026385","properties":{"type":"yes","residential":true,"residents_est":2,"h3_10":"8a1e2e68571ffff","h3_11":"8b1e2e68571dfff"},"geometry":{"type":"Polygon","coordinates":[[[20.019393,50.057716],[20.019443,50.057631],[20.019526,50.057651],[20.019475,50.057736],[20.019393,50.057716]]]}},{"type":"Feature","id":"w81026391","properties":{"type":"yes","residential":true,"residents_est":15,"h3_10":"8a1e2e68562ffff","h3_11":"8b1e2e68562cfff"},"geometry":{"type":"Polygon","coordinates":[[[20.021877,50.057284],[20.021879,50.057078],[20.022068,50.057079],[20.022067,50.057285],[20.021877,50.057284]]]}},{"type":"Feature","id":"w81026394","properties":{"type":"office","levels":2.0,"address":"Na Załęczu 2","name":"Urząd Miasta Krakowa Archiwum","residential":false,"residents_est":0,"h3_10":"8a1e2e685777fff","h3_11":"8b1e2e685776fff"},"geometry":{"type":"Polygon","coordinates":[[[20.020881,50.05901],[20.02094,50.059005],[20.020934,50.058972],[20.021524,50.058922],[20.021549,50.059043],[20.020961,50.059093],[20.020959,50.059084],[20.020897,50.059089],[20.020881,50.05901]]]}},{"type":"Feature","id":"w81026395","properties":{"type":"yes","residential":true,"residents_est":3,"h3_10":"8a1e2e68576ffff","h3_11":"8b1e2e685769fff"},"geometry":{"type":"Polygon","coordinates":[[[20.025794,50.059125],[20.025868,50.05909],[20.026022,50.059224],[20.025948,50.059259],[20.025794,50.059125]]]}},{"type":"Feature","id":"w81026396","properties":{"type":"yes","residential":true,"residents_est":20,"h3_10":"8a1e2e68574ffff","h3_11":"8b1e2e685748fff"},"geometry":{"type":"Polygon","coordinates":[[[20.025163,50.058263],[20.025491,50.058117],[20.02561,50.058227],[20.025282,50.058373],[20.025163,50.058263]]]}},{"type":"Feature","id":"w81026398","properties":{"type":"yes","residential":true,"residents_est":3,"h3_10":"8a1e2e685727fff","h3_11":"8b1e2e685726fff"},"geometry":{"type":"Polygon","coordinates":[[[20.017839,50.059858],[20.01793,50.059776],[20.018058,50.059818],[20.017976,50.059916],[20.017839,50.059858]]]}},{"type":"Feature","id":"w81026399","properties":{"type":"yes","residential":true,"residents_est":2,"h3_10":"8a1e2e685767fff","h3_11":"8b1e2e685765fff"},"geometry":{"type":"Polygon","coordinates":[[[20.023652,50.060114],[20.023657,50.06004],[20.023821,50.060044],[20.023816,50.060119],[20.023652,50.060114]]]}},{"type":"Feature","id":"w81026403","properties":{"type":"yes","residential":true,"residents_est":88,"h3_10":"8a1e2e68571ffff","h3_11":"8b1e2e685719fff"},"geometry":{"type":"Polygon","coordinates":[[[20.019437,50.057863],[20.019764,50.057302],[20.020123,50.057388],[20.019795,50.057949],[20.019437,50.057863]]]}},{"type":"Feature","id":"w81026406","properties":{"type":"service","residential":false,"residents_est":0,"h3_10":"8a1e2e685747fff","h3_11":"8b1e2e685743fff"},"geometry":{"type":"Polygon","coordinates":[[[20.02417,50.058165],[20.024172,50.058101],[20.024368,50.058103],[20.024366,50.058167],[20.02417,50.058165]]]}},{"type":"Feature","id":"w81026412","properties":{"type":"yes","residential":true,"residents_est":5,"h3_10":"8a1e2e68574ffff","h3_11":"8b1e2e68574cfff"},"geometry":{"type":"Polygon","coordinates":[[[20.024773,50.058532],[20.024975,50.058442],[20.025076,50.058535],[20.024874,50.058625],[20.024773,50.058532]]]}},{"type":"Feature","id":"w81026414","properties":{"type":"yes","address":"Sołtysowska 40","residential":true,"residents_est":2,"h3_10":"8a1e2e685767fff","h3_11":"8b1e2e685760fff"},"geometry":{"type":"Polygon","coordinates":[[[20.023541,50.059876],[20.023549,50.059778],[20.023681,50.059783],[20.023673,50.05988],[20.023541,50.059876]]]}},{"type":"Feature","id":"w81026415","properties":{"type":"yes","address":"Sołtysowska 36","residential":true,"residents_est":2,"h3_10":"8a1e2e685767fff","h3_11":"8b1e2e685765fff"},"geometry":{"type":"Polygon","coordinates":[[[20.023882,50.06015],[20.023899,50.060055],[20.024026,50.060065],[20.024009,50.060159],[20.023882,50.06015]]]}},{"type":"Feature","id":"w81026416","properties":{"type":"yes","residential":true,"residents_est":2,"h3_10":"8a1e2e68571ffff","h3_11":"8b1e2e68571dfff"},"geometry":{"type":"Polygon","coordinates":[[[20.019181,50.057768],[20.019234,50.057668],[20.019331,50.05769],[20.019278,50.057789],[20.019181,50.057768]]]}},{"type":"Feature","id":"w81026418","properties":{"type":"yes","residential":true,"residents_est":6,"h3_10":"8a1e2e68570ffff","h3_11":"8b1e2e68570afff"},"geometry":{"type":"Polygon","coordinates":[[[20.020133,50.058002],[20.020203,50.057869],[20.020406,50.057913],[20.020336,50.058046],[20.020133,50.058002]]]}},{"type":"Feature","id":"w81026424","properties":{"type":"yes","address":"Sołtysowska 1","residential":true,"residents_est":40,"h3_10":"8a1e2e68576ffff","h3_11":"8b1e2e68576efff"},"geometry":{"type":"Polygon","coordinates":[[[20.024395,50.05914],[20.024544,50.059076],[20.025061,50.059565],[20.024913,50.05963],[20.024395,50.05914]]]}},{"type":"Feature","id":"w81026425","properties":{"type":"industrial","levels":1.0,"address":"Ogłęczyzna 20","residential":false,"residents_est":0,"h3_10":"8a1e2e68574ffff","h3_11":"8b1e2e68574bfff"},"geometry":{"type":"Polygon","coordinates":[[[20.025621,50.0581],[20.02588,50.057992],[20.025915,50.058026],[20.026425,50.057796],[20.026582,50.057939],[20.025904,50.058245],[20.025824,50.058171],[20.025732,50.058209],[20.025621,50.0581]]]}},{"type":"Feature","id":"w81026427","properties":{"type":"yes","address":"Na Załęczu 1","residential":true,"residents_est":26,"h3_10":"8a1e2e68571ffff","h3_11":"8b1e2e68571dfff"},"geometry":{"type":"Polygon","coordinates":[[[20.019383,50.057966],[20.019433,50.057876],[20.01982,50.057961],[20.01985,50.057913],[20.020117,50.05798],[20.020059,50.058075],[20.0198,50.05801],[20.019773,50.058056],[20.019383,50.057966]]]}},{"type":"Feature","id":"w81026430","properties":{"type":"yes","residential":true,"residents_est":2,"h3_10":"8a1e2e685767fff","h3_11":"8b1e2e685765fff"},"geometry":{"type":"Polygon","coordinates":[[[20.023393,50.060096],[20.023398,50.060008],[20.023514,50.060011],[20.023508,50.060099],[20.023393,50.060096]]]}},{"type":"Feature","id":"w81026431","properties":{"type":"yes","residential":true,"residents_est":2,"h3_10":"8a1e2e685627fff","h3_11":"8b1e2e685626fff"},"geometry":{"type":"Polygon","coordinates":[[[20.019829,50.057212],[20.019856,50.057152],[20.02002,50.057182],[20.019993,50.057243],[20.019829,50.057212]]]}},{"type":"Feature","id":"w81026440","properties":{"type":"yes","residential":true,"residents_est":2,"h3_10":"8a1e2e68570ffff","h3_11":"8b1e2e685708fff"},"geometry":{"type":"Polygon","coordinates":[[[20.02071,50.058197],[20.020736,50.0581],[20.02084,50.058111],[20.020814,50.058208],[20.02071,50.058197]]]}},{"type":"Feature","id":"w81026443","properties":{"type":"yes","address":"Sołtysowska 38","residential":true,"residents_est":3,"h3_10":"8a1e2e685767fff","h3_11":"8b1e2e685761fff"},"geometry":{"type":"Polygon","coordinates":[[[20.023942,50.059891],[20.023961,50.059786],[20.024104,50.059798],[20.024084,50.059902],[20.023942,50.059891]]]}},{"type":"Feature","id":"w81026448","properties":{"type":"commercial","residential":false,"residents_est":0,"h3_10":"8a1e2e685777fff","h3_11":"8b1e2e685772fff"},"geometry":{"type":"Polygon","coordinates":[[[20.021487,50.058527],[20.021854,50.058493],[20.021879,50.058603],[20.021512,50.058637],[20.021487,50.058527]]]}},{"type":"Feature","id":"w81026455","properties":{"type":"yes","residential":true,"residents_est":119,"h3_10":"8a1e2e68575ffff","h3_11":"8b1e2e68575efff"},"geometry":{"type":"Polygon","coordinates":[[[20.022867,50.057682],[20.022877,50.05739],[20.023945,50.057406],[20.023935,50.057698],[20.022867,50.057682]]]}},{"type":"Feature","id":"w81026456","properties":{"type":"yes","residential":true,"residents_est":3,"h3_10":"8a1e2e68570ffff","h3_11":"8b1e2e68570efff"},"geometry":{"type":"Polygon","coordinates":[[[20.020062,50.058152],[20.020115,50.058051],[20.020273,50.058086],[20.02022,50.058186],[20.020062,50.058152]]]}},{"type":"Feature","id":"w81026458","properties":{"type":"yes","residential":true,"residents_est":16,"h3_10":"8a1e2e685727fff","h3_11":"8b1e2e685725fff"},"geometry":{"type":"Polygon","coordinates":[[[20.018423,50.060074],[20.018506,50.059968],[20.018656,50.060017],[20.018721,50.059935],[20.018812,50.059964],[20.018664,50.060152],[20.018423,50.060074]]]}},{"type":"Feature","id":"w81026464","properties":{"type":"yes","residential":true,"residents_est":64,"h3_10":"8a1e2e68570ffff","h3_11":"8b1e2e68570afff"},"geometry":{"type":"Polygon","coordinates":[[[20.01985,50.057913],[20.02016,50.057408],[20.020497,50.057493],[20.020328,50.057768],[20.020221,50.057741],[20.02008,50.057971],[20.01985,50.057913]]]}},{"type":"Feature","id":"w81026467","properties":{"type":"yes","residential":true,"residents_est":13,"h3_10":"8a1e2e68570ffff","h3_11":"8b1e2e68570afff"},"geometry":{"type":"Polygon","coordinates":[[[20.020401,50.057862],[20.020426,50.057763],[20.020557,50.057777],[20.020561,50.057762],[20.02073,50.057779],[20.020701,50.057893],[20.020401,50.057862]]]}},{"type":"Feature","id":"w81026473","properties":{"type":"yes","levels":2.0,"residential":true,"residents_est":78,"h3_10":"8a1e2e68562ffff","h3_11":"8b1e2e68562dfff"},"geometry":{"type":"Polygon","coordinates":[[[20.022491,50.057153],[20.022499,50.05687],[20.023949,50.056886],[20.023941,50.057169],[20.022491,50.057153]]]}},{"type":"Feature","id":"w81026476","properties":{"type":"yes","residential":true,"residents_est":92,"h3_10":"8a1e2e685747fff","h3_11":"8b1e2e685742fff"},"geometry":{"type":"Polygon","coordinates":[[[20.022963,50.058132],[20.022971,50.057876],[20.023911,50.057888],[20.023903,50.058145],[20.022963,50.058132]]]}},{"type":"Feature","id":"w81026477","properties":{"type":"yes","residential":true,"residents_est":4,"h3_10":"8a1e2e68570ffff","h3_11":"8b1e2e685708fff"},"geometry":{"type":"Polygon","coordinates":[[[20.020355,50.058164],[20.020376,50.058087],[20.02061,50.058113],[20.02059,50.05819],[20.020355,50.058164]]]}},{"type":"Feature","id":"w81026479","properties":{"type":"yes","residential":true,"residents_est":5,"h3_10":"8a1e2e685727fff","h3_11":"8b1e2e685724fff"},"geometry":{"type":"Polygon","coordinates":[[[20.018095,50.059898],[20.018153,50.05979],[20.018387,50.059842],[20.018329,50.059949],[20.018095,50.059898]]]}},{"type":"Feature","id":"w81026484","properties":{"type":"yes","residential":true,"residents_est":225,"h3_10":"8a1e2e68574ffff","h3_11":"8b1e2e68574dfff"},"geometry":{"type":"Polygon","coordinates":[[[20.025769,50.058464],[20.026467,50.058161],[20.027078,50.058702],[20.026295,50.059041],[20.025951,50.058731],[20.026118,50.058652],[20.026013,50.058572],[20.025929,50.058613],[20.025769,50.058464]]]}},{"type":"Feature","id":"w81026485","properties":{"type":"yes","residential":true,"residents_est":50,"h3_10":"8a1e2e68575ffff","h3_11":"8b1e2e68575dfff"},"geometry":{"type":"Polygon","coordinates":[[[20.024188,50.058018],[20.024212,50.05746],[20.024446,50.057465],[20.024422,50.058022],[20.024188,50.058018]]]}},{"type":"Feature","id":"w81026491","properties":{"type":"yes","levels":3.0,"residential":true,"residents_est":21,"h3_10":"8a1e2e685757fff","h3_11":"8b1e2e685753fff"},"geometry":{"type":"Polygon","coordinates":[[[20.022461,50.057688],[20.022464,50.05744],[20.02276,50.057442],[20.022758,50.057689],[20.022461,50.057688]]]}},{"type":"Feature","id":"w81050211","properties":{"type":"yes","residential":true,"residents_est":5,"h3_10":"8a1e2e68579ffff","h3_11":"8b1e2e685798fff"},"geometry":{"type":"Polygon","coordinates":[[[20.01659,50.054856],[20.016595,50.054773],[20.016891,50.05478],[20.016886,50.054863],[20.01659,50.054856]]]}},{"type":"Feature","id":"w81050214","properties":{"type":"yes","residential":true,"residents_est":18,"h3_10":"8a1e2e685687fff","h3_11":"8b1e2e685686fff"},"geometry":{"type":"Polygon","coordinates":[[[20.017865,50.053619],[20.017872,50.053525],[20.018373,50.053539],[20.018366,50.053634],[20.017865,50.053619]]]}},{"type":"Feature","id":"w81050219","properties":{"type":"yes","address":"Ciepłownicza 80","residential":true,"residents_est":48,"h3_10":"8a1e2e6856f7fff","h3_11":"8b1e2e6856f0fff"},"geometry":{"type":"Polygon","coordinates":[[[20.021587,50.05383],[20.021927,50.053376],[20.022153,50.053446],[20.021813,50.0539],[20.021587,50.05383]]]}},{"type":"Feature","id":"w81050221","properties":{"type":"yes","residential":true,"residents_est":2,"h3_10":"8a1e2e685687fff","h3_11":"8b1e2e685680fff"},"geometry":{"type":"Polygon","coordinates":[[[20.018446,50.053521],[20.018453,50.053393],[20.018555,50.053395],[20.018548,50.053523],[20.018446,50.053521]]]}},{"type":"Feature","id":"w81050225","properties":{"type":"yes","address":"Ciepłownicza 78","residential":true,"residents_est":137,"h3_10":"8a1e2e68568ffff","h3_11":"8b1e2e685689fff"},"geometry":{"type":"Polygon","coordinates":[[[20.020331,50.052996],[20.020459,50.052689],[20.021548,50.052876],[20.021421,50.053183],[20.020331,50.052996]]]}},{"type":"Feature","id":"w81050227","properties":{"type":"yes","residential":true,"residents_est":89,"h3_10":"8a1e2e685687fff","h3_11":"8b1e2e685684fff"},"geometry":{"type":"Polygon","coordinates":[[[20.018441,50.054038],[20.018467,50.053545],[20.01894,50.053556],[20.018914,50.054048],[20.018441,50.054038]]]}},{"type":"Feature","id":"w81050234","properties":{"type":"yes","address":"Ciepłownicza 29","residential":true,"residents_est":241,"h3_10":"8a1e2e685697fff","h3_11":"8b1e2e685694fff"},"geometry":{"type":"Polygon","coordinates":[[[20.016313,50.053529],[20.016382,50.052678],[20.016851,50.052696],[20.016841,50.052805],[20.017153,50.052815],[20.017094,50.053555],[20.016313,50.053529]]]}},{"type":"Feature","id":"w81050240","properties":{"type":"yes","residential":true,"residents_est":2,"h3_10":"8a1e2e6856b7fff","h3_11":"8b1e2e6856b1fff"},"geometry":{"type":"Polygon","coordinates":[[[20.017402,50.053882],[20.017411,50.053782],[20.017521,50.053787],[20.017512,50.053886],[20.017402,50.053882]]]}},{"type":"Feature","id":"w81050241","properties":{"type":"yes","address":"Ciepłownicza 37","name":"Kolporter Oddział Małopolski","residential":true,"residents_est":137,"h3_10":"8a1e2e6856affff","h3_11":"8b1e2e6856abfff"},"geometry":{"type":"Polygon","coordinates":[[[20.019905,50.054045],[20.020318,50.053494],[20.020846,50.053657],[20.020433,50.054209],[20.019905,50.054045]]]}},{"type":"Feature","id":"w81050253","properties":{"type":"yes","residential":true,"residents_est":28,"h3_10":"8a1e2e685617fff","h3_11":"8b1e2e685616fff"},"geometry":{"type":"Polygon","coordinates":[[[20.018822,50.055053],[20.018925,50.054963],[20.019456,50.055213],[20.019354,50.055303],[20.018822,50.055053]]]}},{"type":"Feature","id":"w81050260","properties":{"type":"yes","residential":true,"residents_est":3,"h3_10":"8a1e2e6856a7fff","h3_11":"8b1e2e6856a0fff"},"geometry":{"type":"Polygon","coordinates":[[[20.018031,50.054612],[20.018114,50.054547],[20.018256,50.054621],[20.018173,50.054686],[20.018031,50.054612]]]}},{"type":"Feature","id":"w81050265","properties":{"type":"yes","residential":true,"residents_est":29,"h3_10":"8a1e2e6856a7fff","h3_11":"8b1e2e6856a5fff"},"geometry":{"type":"Polygon","coordinates":[[[20.018193,50.054755],[20.018301,50.054662],[20.018824,50.054912],[20.018716,50.055005],[20.018193,50.054755]]]}},{"type":"Feature","id":"w81050266","properties":{"type":"yes","address":"Isep 9","residential":true,"residents_est":243,"h3_10":"8a1e2e68560ffff","h3_11":"8b1e2e68560efff"},"geometry":{"type":"Polygon","coordinates":[[[20.021039,50.055448],[20.022603,50.055397],[20.022604,50.055416],[20.022924,50.055406],[20.022983,50.055455],[20.022877,50.055585],[20.022618,50.055594],[20.022629,50.055728],[20.022507,50.055732],[20.022514,50.055823],[20.021428,50.055788],[20.021426,50.055768],[20.021065,50.055779],[20.021039,50.055448]]]}},{"type":"Feature","id":"w81050271","properties":{"type":"yes","residential":true,"residents_est":36,"h3_10":"8a1e2e6856b7fff","h3_11":"8b1e2e6856b1fff"},"geometry":{"type":"Polygon","coordinates":[[[20.017512,50.053886],[20.017522,50.053773],[20.018349,50.053803],[20.018339,50.053917],[20.017512,50.053886]]]}},{"type":"Feature","id":"w81050279","properties":{"type":"yes","residential":true,"residents_est":41,"h3_10":"8a1e2e685797fff","h3_11":"8b1e2e685793fff"},"geometry":{"type":"Polygon","coordinates":[[[20.01442,50.054981],[20.01443,50.054811],[20.015065,50.054827],[20.015055,50.054997],[20.01442,50.054981]]]}},{"type":"Feature","id":"w81050286","properties":{"type":"retail","levels":1.0,"address":"Ciepłownicza 39","name":"Klewa-Kraków","residential":false,"residents_est":0,"h3_10":"8a1e2e6856f7fff","h3_11":"8b1e2e6856f6fff"},"geometry":{"type":"Polygon","coordinates":[[[20.02073,50.054],[20.020901,50.053749],[20.021064,50.053795],[20.020968,50.053934],[20.021062,50.05396],[20.020987,50.054072],[20.02073,50.054]]]}},{"type":"Feature","id":"w119023788","properties":{"type":"yes","address":"Niepokalanej Marii Panny 1","residential":true,"residents_est":3,"h3_10":"8a1e2e68576ffff","h3_11":"8b1e2e68576cfff"},"geometry":{"type":"Polygon","coordinates":[[[20.02486,50.059892],[20.025019,50.059865],[20.025052,50.059946],[20.024893,50.059973],[20.02486,50.059892]]]}},{"type":"Feature","id":"w133422461","properties":{"type":"yes","residential":true,"residents_est":2,"h3_10":"8a1e2e68561ffff","h3_11":"8b1e2e685619fff"},"geometry":{"type":"Polygon","coordinates":[[[20.022164,50.055029],[20.022234,50.054949],[20.022329,50.054983],[20.022259,50.055064],[20.022164,50.055029]]]}},{"type":"Feature","id":"w161756865","properties":{"type":"yes","residential":true,"residents_est":5,"h3_10":"8a1e2e685627fff","h3_11":"8b1e2e685623fff"},"geometry":{"type":"Polygon","coordinates":[[[20.020775,50.056724],[20.020777,50.056634],[20.021085,50.056637],[20.021083,50.056727],[20.020775,50.056724]]]}},{"type":"Feature","id":"w161756866","properties":{"type":"yes","residential":true,"residents_est":2,"h3_10":"8a1e2e685787fff","h3_11":"8b1e2e685785fff"},"geometry":{"type":"Polygon","coordinates":[[[20.016864,50.056466],[20.017009,50.056435],[20.017048,50.05651],[20.016903,50.056541],[20.016864,50.056466]]]}},{"type":"Feature","id":"w161756867","properties":{"type":"yes","residential":true,"residents_est":33,"h3_10":"8a1e2e685627fff","h3_11":"8b1e2e685622fff"},"geometry":{"type":"Polygon","coordinates":[[[20.020291,50.056909],[20.020294,50.056782],[20.020968,50.056788],[20.020965,50.056916],[20.020291,50.056909]]]}},{"type":"Feature","id":"w161776181","properties":{"type":"office","name":"TriForium Office Park","residential":false,"residents_est":0,"h3_10":"8a1e2e685747fff","h3_11":"8b1e2e685741fff"},"geometry":{"type":"Polygon","coordinates":[[[20.024086,50.058865],[20.02466,50.058608],[20.024862,50.058794],[20.024288,50.059051],[20.024086,50.058865]]]}},{"type":"Feature","id":"w180344405","properties":{"type":"yes","address":"Niepokalanej Marii Panny 7","residential":true,"residents_est":4,"h3_10":"8a1e2e68576ffff","h3_11":"8b1e2e68576dfff"},"geometry":{"type":"Polygon","coordinates":[[[20.025685,50.059829],[20.025736,50.05981],[20.025731,50.059798],[20.025738,50.059783],[20.025776,50.059771],[20.025803,50.059776],[20.02581,50.059784],[20.02586,50.059765],[20.025929,50.059835],[20.025895,50.05985],[20.02591,50.059872],[20.025803,50.059914],[20.025782,50.05989],[20.025747,50.059901],[20.025685,50.059829]]]}},{"type":"Feature","id":"w180344416","properties":{"type":"yes","residential":true,"residents_est":2,"h3_10":"8a1e2e68576ffff","h3_11":"8b1e2e68576dfff"},"geometry":{"type":"Polygon","coordinates":[[[20.025546,50.059848],[20.025641,50.059838],[20.02567,50.059957],[20.025575,50.059966],[20.025546,50.059848]]]}},{"type":"Feature","id":"w214318759","properties":{"type":"yes","residential":true,"residents_est":1,"h3_10":"8a1e2e6856e7fff","h3_11":"8b1e2e6856e4fff"},"geometry":{"type":"Polygon","coordinates":[[[20.023111,50.055039],[20.023167,50.054967],[20.02323,50.054987],[20.023175,50.055059],[20.023111,50.055039]]]}},{"type":"Feature","id":"w214318760","properties":{"type":"yes","address":"Ciepłownicza 41","residential":true,"residents_est":19,"h3_10":"8a1e2e6856affff","h3_11":"8b1e2e6856adfff"},"geometry":{"type":"Polygon","coordinates":[[[20.020587,50.054737],[20.020772,50.054503],[20.020939,50.054557],[20.020754,50.054791],[20.020587,50.054737]]]}},{"type":"Feature","id":"w214318765","properties":{"type":"yes","residential":true,"residents_est":2,"h3_10":"8a1e2e6856e7fff","h3_11":"8b1e2e6856e0fff"},"geometry":{"type":"Polygon","coordinates":[[[20.023245,50.05478],[20.023304,50.054706],[20.0234,50.054737],[20.023341,50.054812],[20.023245,50.05478]]]}},{"type":"Feature","id":"w214318768","properties":{"type":"yes","address":"Cuplowa 3","residential":true,"residents_est":4,"h3_10":"8a1e2e6856e7fff","h3_11":"8b1e2e6856e5fff"},"geometry":{"type":"Polygon","coordinates":[[[20.023853,50.054946],[20.023879,50.054913],[20.02386,50.054907],[20.023927,50.054823],[20.024082,50.054874],[20.024018,50.054955],[20.02399,50.054945],[20.023961,50.054982],[20.023853,50.054946]]]}},{"type":"Feature","id":"w214318769","properties":{"type":"yes","address":"Wiklinowa 3B","residential":true,"residents_est":3,"h3_10":"8a1e2e685647fff","h3_11":"8b1e2e685643fff"},"geometry":{"type":"Polygon","coordinates":[[[20.026704,50.055773],[20.026802,50.055716],[20.026908,50.055792],[20.02681,50.055848],[20.026704,50.055773]]]}},{"type":"Feature","id":"w214318773","properties":{"type":"yes","address":"Isep 18","residential":true,"residents_est":4,"h3_10":"8a1e2e685657fff","h3_11":"8b1e2e685650fff"},"geometry":{"type":"Polygon","coordinates":[[[20.024793,50.05546],[20.02485,50.055356],[20.025022,50.055395],[20.024965,50.055499],[20.024793,50.05546]]]}},{"type":"Feature","id":"w214318774","properties":{"type":"yes","residential":true,"residents_est":3,"h3_10":"8a1e2e685657fff","h3_11":"8b1e2e685653fff"},"geometry":{"type":"Polygon","coordinates":[[[20.025068,50.054888],[20.025136,50.054778],[20.025257,50.054809],[20.025189,50.054919],[20.025068,50.054888]]]}},{"type":"Feature","id":"w214318775","properties":{"type":"yes","residential":true,"residents_est":2,"h3_10":"8a1e2e6856e7fff","h3_11":"8b1e2e6856e4fff"},"geometry":{"type":"Polygon","coordinates":[[[20.022981,50.054998],[20.023036,50.054926],[20.023167,50.054967],[20.023111,50.055039],[20.022981,50.054998]]]}},{"type":"Feature","id":"w214318776","properties":{"type":"yes","address":"Wiklinowa 12A","residential":true,"residents_est":5,"h3_10":"8a1e2e68565ffff","h3_11":"8b1e2e68565dfff"},"geometry":{"type":"Polygon","coordinates":[[[20.02667,50.055315],[20.026763,50.055189],[20.026916,50.055236],[20.026823,50.055362],[20.02667,50.055315]]]}},{"type":"Feature","id":"w214318780","properties":{"type":"yes","address":"Wiklinowa 5","residential":true,"residents_est":3,"h3_10":"8a1e2e68564ffff","h3_11":"8b1e2e68564efff"},"geometry":{"type":"Polygon","coordinates":[[[20.027013,50.055598],[20.027087,50.055537],[20.02724,50.055614],[20.027167,50.055675],[20.027013,50.055598]]]}},{"type":"Feature","id":"w214318782","properties":{"type":"yes","residential":true,"residents_est":1,"h3_10":"8a1e2e685657fff","h3_11":"8b1e2e685652fff"},"geometry":{"type":"Polygon","coordinates":[[[20.024558,50.055116],[20.024586,50.055073],[20.024719,50.055107],[20.024691,50.055151],[20.024558,50.055116]]]}},{"type":"Feature","id":"w214318790","properties":{"type":"yes","residential":true,"residents_est":2,"h3_10":"8a1e2e6856e7fff","h3_11":"8b1e2e6856e4fff"},"geometry":{"type":"Polygon","coordinates":[[[20.023193,50.054846],[20.023245,50.05478],[20.023367,50.05482],[20.023315,50.054886],[20.023193,50.054846]]]}},{"type":"Feature","id":"w214318791","properties":{"type":"yes","residential":true,"residents_est":12,"h3_10":"8a1e2e685657fff","h3_11":"8b1e2e685652fff"},"geometry":{"type":"Polygon","coordinates":[[[20.024586,50.055073],[20.024719,50.054862],[20.024852,50.054896],[20.024719,50.055107],[20.024586,50.055073]]]}},{"type":"Feature","id":"w214318793","properties":{"type":"yes","address":"Isep 16","residential":true,"residents_est":6,"h3_10":"8a1e2e685657fff","h3_11":"8b1e2e685650fff"},"geometry":{"type":"Polygon","coordinates":[[[20.024432,50.055315],[20.024558,50.055116],[20.024691,50.055151],[20.024566,50.05535],[20.024432,50.055315]]]}},{"type":"Feature","id":"w214318802","properties":{"type":"yes","residential":true,"residents_est":1,"h3_10":"8a1e2e685657fff","h3_11":"8b1e2e685652fff"},"geometry":{"type":"Polygon","coordinates":[[[20.024448,50.055099],[20.02449,50.055034],[20.024593,50.055061],[20.024552,50.055126],[20.024448,50.055099]]]}},{"type":"Feature","id":"w214318807","properties":{"type":"yes","residential":true,"residents_est":4,"h3_10":"8a1e2e6856effff","h3_11":"8b1e2e6856edfff"},"geometry":{"type":"Polygon","coordinates":[[[20.025213,50.05464],[20.025267,50.054549],[20.025302,50.054558],[20.025332,50.054508],[20.025435,50.054534],[20.025406,50.054583],[20.02543,50.054589],[20.025376,50.05468],[20.025213,50.05464]]]}},{"type":"Feature","id":"w215156196","properties":{"type":"yes","residential":true,"residents_est":2,"h3_10":"8a1e2e6856cffff","h3_11":"8b1e2e6856c9fff"},"geometry":{"type":"Polygon","coordinates":[[[20.025724,50.053026],[20.025896,50.053002],[20.025918,50.053068],[20.025747,50.053092],[20.025724,50.053026]]]}},{"type":"Feature","id":"w215156227","properties":{"type":"yes","residential":true,"residents_est":3,"h3_10":"8a1e2e6856cffff","h3_11":"8b1e2e6856c9fff"},"geometry":{"type":"Polygon","coordinates":[[[20.026112,50.053153],[20.026262,50.053131],[20.026265,50.053139],[20.026307,50.053133],[20.026334,50.053208],[20.026142,50.053236],[20.026112,50.053153]]]}},{"type":"Feature","id":"w215156229","properties":{"type":"yes","address":"Cuplowa 7","residential":true,"residents_est":3,"h3_10":"8a1e2e6856cffff","h3_11":"8b1e2e6856c8fff"},"geometry":{"type":"Polygon","coordinates":[[[20.02543,50.05322],[20.025562,50.053201],[20.0256,50.053306],[20.025467,50.053326],[20.02543,50.05322]]]}},{"type":"Feature","id":"w215156230","properties":{"type":"yes","residential":true,"residents_est":1,"h3_10":"8a1e2e6856cffff","h3_11":"8b1e2e6856ccfff"},"geometry":{"type":"Polygon","coordinates":[[[20.024892,50.053635],[20.02497,50.053618],[20.025012,50.053698],[20.024934,50.053715],[20.024892,50.053635]]]}},{"type":"Feature","id":"w215156239","properties":{"type":"yes","residential":false,"residents_est":0,"h3_10":"8a1e2e6856cffff","h3_11":"8b1e2e6856c8fff"},"geometry":{"type":"Polygon","coordinates":[[[20.025215,50.053126],[20.025283,50.053116],[20.025305,50.05318],[20.025237,50.05319],[20.025215,50.053126]]]}},{"type":"Feature","id":"w215156250","properties":{"type":"yes","residential":true,"residents_est":3,"h3_10":"8a1e2e6856effff","h3_11":"8b1e2e6856eafff"},"geometry":{"type":"Polygon","coordinates":[[[20.024687,50.053856],[20.024853,50.053841],[20.024881,50.05397],[20.024779,50.05398],[20.024765,50.053916],[20.024701,50.053922],[20.024687,50.053856]]]}},{"type":"Feature","id":"w215156267","properties":{"type":"yes","address":"Cuplowa 5","residential":true,"residents_est":4,"h3_10":"8a1e2e6856cffff","h3_11":"8b1e2e6856ccfff"},"geometry":{"type":"Polygon","coordinates":[[[20.024854,50.053487],[20.025073,50.053454],[20.025115,50.05357],[20.025044,50.053581],[20.025032,50.053548],[20.024947,50.053561],[20.024942,50.053548],[20.02488,50.053558],[20.024854,50.053487]]]}},{"type":"Feature","id":"w219054408","properties":{"type":"yes","address":"Wiklinowa 12","residential":true,"residents_est":3,"h3_10":"8a1e2e68565ffff","h3_11":"8b1e2e68565cfff"},"geometry":{"type":"Polygon","coordinates":[[[20.026045,50.05544],[20.026067,50.055405],[20.026061,50.055403],[20.026114,50.055321],[20.026246,50.055357],[20.026165,50.055472],[20.026045,50.05544]]]}},{"type":"Feature","id":"w219054409","properties":{"type":"yes","address":"Wiklinowa 12B","residential":true,"residents_est":2,"h3_10":"8a1e2e68565ffff","h3_11":"8b1e2e685659fff"},"geometry":{"type":"Polygon","coordinates":[[[20.026806,50.054907],[20.02687,50.054836],[20.026986,50.054879],[20.026923,50.05495],[20.026806,50.054907]]]}},{"type":"Feature","id":"w219054541","properties":{"type":"yes","address":"Wiklinowa 3","residential":true,"residents_est":2,"h3_10":"8a1e2e685647fff","h3_11":"8b1e2e685640fff"},"geometry":{"type":"Polygon","coordinates":[[[20.026328,50.055932],[20.026411,50.055885],[20.026508,50.055954],[20.026425,50.056002],[20.026328,50.055932]]]}},{"type":"Feature","id":"w219054792","properties":{"type":"yes","address":"Wiklinowa 3","residential":true,"residents_est":2,"h3_10":"8a1e2e685647fff","h3_11":"8b1e2e685640fff"},"geometry":{"type":"Polygon","coordinates":[[[20.026271,50.056066],[20.026361,50.056004],[20.026443,50.056053],[20.026353,50.056115],[20.026271,50.056066]]]}},{"type":"Feature","id":"w219054794","properties":{"type":"yes","residential":true,"residents_est":1,"h3_10":"8a1e2e685647fff","h3_11":"8b1e2e685640fff"},"geometry":{"type":"Polygon","coordinates":[[[20.026442,50.055992],[20.026508,50.055954],[20.026583,50.056008],[20.026517,50.056046],[20.026442,50.055992]]]}},{"type":"Feature","id":"w219054822","properties":{"type":"yes","address":"Wiklinowa 12B","residential":true,"residents_est":3,"h3_10":"8a1e2e68565ffff","h3_11":"8b1e2e685658fff"},"geometry":{"type":"Polygon","coordinates":[[[20.026697,50.054945],[20.02675,50.054886],[20.026923,50.05495],[20.02687,50.055009],[20.026697,50.054945]]]}},{"type":"Feature","id":"w237640394","properties":{"type":"service","residential":false,"residents_est":0,"h3_10":"8a1e2e685677fff","h3_11":"8b1e2e685671fff"},"geometry":{"type":"Polygon","coordinates":[[[20.025395,50.056316],[20.025464,50.056304],[20.025475,50.056331],[20.025407,50.056343],[20.025395,50.056316]]]}},{"type":"Feature","id":"w246367143","properties":{"type":"yes","residential":true,"residents_est":3,"h3_10":"8a1e2e6856b7fff","h3_11":"8b1e2e6856b6fff"},"geometry":{"type":"Polygon","coordinates":[[[20.016247,50.053783],[20.016254,50.053691],[20.016421,50.053697],[20.016414,50.053789],[20.016247,50.053783]]]}},{"type":"Feature","id":"w415286447","properties":{"type":"yes","residential":true,"residents_est":2,"h3_10":"8a1e2e6856effff","h3_11":"8b1e2e6856ebfff"},"geometry":{"type":"Polygon","coordinates":[[[20.025379,50.053877],[20.02549,50.053866],[20.025509,50.053939],[20.025397,50.053951],[20.025379,50.053877]]]}},{"type":"Feature","id":"w415286449","properties":{"type":"detached","address":"Cuplowa 3M","residential":true,"residents_est":6,"h3_10":"8a1e2e6856effff","h3_11":"8b1e2e6856ebfff"},"geometry":{"type":"Polygon","coordinates":[[[20.025555,50.053883],[20.02572,50.053866],[20.025742,50.053955],[20.025577,50.053971],[20.025555,50.053883]]]}},{"type":"Feature","id":"w442818364","properties":{"type":"yes","residential":true,"residents_est":61,"h3_10":"8a1e2e685627fff","h3_11":"8b1e2e685621fff"},"geometry":{"type":"Polygon","coordinates":[[[20.021266,50.057062],[20.021288,50.056744],[20.021787,50.056758],[20.021765,50.057076],[20.021266,50.057062]]]}},{"type":"Feature","id":"w785111223","properties":{"type":"house","levels":2.0,"address":"Osiedle 9","residential":true,"residents_est":4,"h3_10":"8a1e2e6857a7fff","h3_11":"8b1e2e6857a6fff"},"geometry":{"type":"Polygon","coordinates":[[[20.015001,50.057129],[20.015039,50.057054],[20.015167,50.05708],[20.01513,50.057155],[20.015001,50.057129]]]}},{"type":"Feature","id":"w785112149","properties":{"type":"house","levels":1.0,"address":"Osiedle 3","residential":true,"residents_est":3,"h3_10":"8a1e2e6857a7fff","h3_11":"8b1e2e6857a0fff"},"geometry":{"type":"Polygon","coordinates":[[[20.015843,50.057325],[20.015885,50.057243],[20.015942,50.057255],[20.01595,50.057238],[20.015988,50.057246],[20.015979,50.057262],[20.016045,50.057276],[20.016004,50.057358],[20.015843,50.057325]]]}},{"type":"Feature","id":"w906760752","properties":{"type":"yes","name":"Hala 3 - Urząd Miasta Krakowa Archiwum","residential":true,"residents_est":21,"h3_10":"8a1e2e685777fff","h3_11":"8b1e2e685770fff"},"geometry":{"type":"Polygon","coordinates":[[[20.021638,50.05892],[20.021855,50.058904],[20.021901,50.059151],[20.021684,50.059168],[20.021638,50.05892]]]}},{"type":"Feature","id":"w906760753","properties":{"type":"yes","residential":true,"residents_est":16,"h3_10":"8a1e2e685777fff","h3_11":"8b1e2e685774fff"},"geometry":{"type":"Polygon","coordinates":[[[20.021367,50.059167],[20.021442,50.059162],[20.021419,50.059054],[20.021539,50.059044],[20.021564,50.059151],[20.021679,50.059142],[20.021684,50.059168],[20.021889,50.059152],[20.021894,50.059177],[20.02152,50.059213],[20.02153,50.059254],[20.0214,50.059272],[20.02141,50.059185],[20.021368,50.059182],[20.021367,50.059167]]]}},{"type":"Feature","id":"w1038785952","properties":{"type":"outbuilding","levels":1.0,"residential":false,"residents_est":0,"h3_10":"8a1e2e685657fff","h3_11":"8b1e2e685652fff"},"geometry":{"type":"Polygon","coordinates":[[[20.024336,50.055],[20.024415,50.054877],[20.024485,50.054896],[20.024405,50.055019],[20.024336,50.055]]]}},{"type":"Feature","id":"w1038785953","properties":{"type":"service","levels":1.0,"residential":false,"residents_est":0,"h3_10":"8a1e2e685757fff","h3_11":"8b1e2e685750fff"},"geometry":{"type":"Polygon","coordinates":[[[20.02198,50.05802],[20.021986,50.05794],[20.022101,50.057943],[20.022096,50.058023],[20.02198,50.05802]]]}},{"type":"Feature","id":"w1038785954","properties":{"type":"outbuilding","levels":1.0,"residential":false,"residents_est":0,"h3_10":"8a1e2e68562ffff","h3_11":"8b1e2e68562efff"},"geometry":{"type":"Polygon","coordinates":[[[20.021932,50.056959],[20.021982,50.056886],[20.022059,50.056908],[20.02201,50.056981],[20.021932,50.056959]]]}},{"type":"Feature","id":"w1038785959","properties":{"type":"outbuilding","levels":1.0,"residential":false,"residents_est":0,"h3_10":"8a1e2e685787fff","h3_11":"8b1e2e685784fff"},"geometry":{"type":"Polygon","coordinates":[[[20.015742,50.056441],[20.015797,50.05644],[20.0158,50.056501],[20.015745,50.056502],[20.015742,50.056441]]]}},{"type":"Feature","id":"w1038785960","properties":{"type":"outbuilding","levels":1.0,"residential":false,"residents_est":0,"h3_10":"8a1e2e68574ffff","h3_11":"8b1e2e68574dfff"},"geometry":{"type":"Polygon","coordinates":[[[20.025787,50.058619],[20.025885,50.058575],[20.025919,50.058607],[20.025821,50.05865],[20.025787,50.058619]]]}},{"type":"Feature","id":"w1038785964","properties":{"type":"outbuilding","levels":1.0,"residential":false,"residents_est":0,"h3_10":"8a1e2e6857a7fff","h3_11":"8b1e2e6857a0fff"},"geometry":{"type":"Polygon","coordinates":[[[20.015688,50.056914],[20.015786,50.056913],[20.015789,50.056977],[20.015691,50.05696],[20.015688,50.056914]]]}},{"type":"Feature","id":"w1038785982","properties":{"type":"outbuilding","levels":1.0,"residential":false,"residents_est":0,"h3_10":"8a1e2e68571ffff","h3_11":"8b1e2e68571bfff"},"geometry":{"type":"Polygon","coordinates":[[[20.019651,50.057317],[20.019785,50.05719],[20.019815,50.057204],[20.019677,50.057328],[20.019651,50.057317]]]}},{"type":"Feature","id":"w1038785987","properties":{"type":"outbuilding","levels":1.0,"residential":false,"residents_est":0,"h3_10":"8a1e2e6857a7fff","h3_11":"8b1e2e6857a0fff"},"geometry":{"type":"Polygon","coordinates":[[[20.015713,50.057001],[20.015728,50.056966],[20.015961,50.057008],[20.015946,50.057043],[20.015713,50.057001]]]}},{"type":"Feature","id":"w1038786001","properties":{"type":"construction","levels":1.0,"residential":false,"residents_est":0,"h3_10":"8a1e2e6856e7fff","h3_11":"8b1e2e6856e4fff"},"geometry":{"type":"Polygon","coordinates":[[[20.022718,50.055044],[20.022941,50.054775],[20.023051,50.054813],[20.022827,50.055081],[20.022718,50.055044]]]}},{"type":"Feature","id":"w1038786006","properties":{"type":"outbuilding","levels":1.0,"residential":false,"residents_est":0,"h3_10":"8a1e2e6857a7fff","h3_11":"8b1e2e6857a3fff"},"geometry":{"type":"Polygon","coordinates":[[[20.016221,50.056768],[20.016253,50.056767],[20.016251,50.056706],[20.01628,50.056705],[20.016298,50.056776],[20.016222,50.056778],[20.016221,50.056768]]]}},{"type":"Feature","id":"w1038786007","properties":{"type":"detached","levels":1.0,"residential":true,"residents_est":2,"h3_10":"8a1e2e6857a7fff","h3_11":"8b1e2e6857a3fff"},"geometry":{"type":"Polygon","coordinates":[[[20.016103,50.05677],[20.01613,50.0567],[20.01625,50.056696],[20.016253,50.056767],[20.016103,50.05677]]]}},{"type":"Feature","id":"w1038786008","properties":{"type":"industrial","levels":2.0,"residential":false,"residents_est":0,"h3_10":"8a1e2e685787fff","h3_11":"8b1e2e685785fff"},"geometry":{"type":"Polygon","coordinates":[[[20.016315,50.056321],[20.016449,50.056318],[20.016454,50.056404],[20.016319,50.056407],[20.016315,50.056321]]]}},{"type":"Feature","id":"w1038786009","properties":{"type":"yes","levels":2.0,"residential":true,"residents_est":9,"h3_10":"8a1e2e685787fff","h3_11":"8b1e2e685784fff"},"geometry":{"type":"Polygon","coordinates":[[[20.016096,50.056366],[20.016167,50.056364],[20.016165,50.056335],[20.016222,50.056333],[20.01622,50.056317],[20.016315,50.056317],[20.016325,50.056506],[20.016288,50.056507],[20.016291,50.056542],[20.016234,50.056559],[20.016107,50.056559],[20.016096,50.056366]]]}},{"type":"Feature","id":"w1038786012","properties":{"type":"outbuilding","levels":1.0,"residential":false,"residents_est":0,"h3_10":"8a1e2e68574ffff","h3_11":"8b1e2e68574efff"},"geometry":{"type":"Polygon","coordinates":[[[20.024852,50.058424],[20.02493,50.058385],[20.024936,50.058389],[20.0251,50.058303],[20.025136,50.058331],[20.024889,50.058456],[20.024852,50.058424]]]}},{"type":"Feature","id":"w1038786013","properties":{"type":"outbuilding","levels":1.0,"residential":false,"residents_est":0,"h3_10":"8a1e2e685767fff","h3_11":"8b1e2e685765fff"},"geometry":{"type":"Polygon","coordinates":[[[20.023712,50.059942],[20.023713,50.059885],[20.023817,50.059883],[20.023815,50.059943],[20.023712,50.059942]]]}},{"type":"Feature","id":"w1038786015","properties":{"type":"outbuilding","levels":1.0,"residential":false,"residents_est":0,"h3_10":"8a1e2e685767fff","h3_11":"8b1e2e685765fff"},"geometry":{"type":"Polygon","coordinates":[[[20.023709,50.060037],[20.023712,50.059942],[20.023815,50.059943],[20.023813,50.060038],[20.023709,50.060037]]]}},{"type":"Feature","id":"w1038786016","properties":{"type":"outbuilding","levels":1.0,"residential":false,"residents_est":0,"h3_10":"8a1e2e6857a7fff","h3_11":"8b1e2e6857a3fff"},"geometry":{"type":"Polygon","coordinates":[[[20.016023,50.056893],[20.01602,50.056818],[20.016093,50.056817],[20.016097,50.056937],[20.016053,50.056939],[20.01605,50.056892],[20.016023,50.056893]]]}},{"type":"Feature","id":"w1038786017","properties":{"type":"detached","levels":1.0,"residential":false,"residents_est":0,"h3_10":"8a1e2e6857a7fff","h3_11":"8b1e2e6857a3fff"},"geometry":{"type":"Polygon","coordinates":[[[20.016093,50.056815],[20.016165,50.056813],[20.016172,50.056881],[20.016099,50.056883],[20.016093,50.056815]]]}},{"type":"Feature","id":"w1038786022","properties":{"type":"outbuilding","levels":1.0,"residential":false,"residents_est":0,"h3_10":"8a1e2e68569ffff","h3_11":"8b1e2e68569dfff"},"geometry":{"type":"Polygon","coordinates":[[[20.019245,50.052562],[20.019277,50.052531],[20.019427,50.052586],[20.019437,50.052575],[20.01952,50.052604],[20.019484,50.052646],[20.019245,50.052562]]]}},{"type":"Feature","id":"w1038786027","properties":{"type":"outbuilding","levels":1.0,"residential":false,"residents_est":0,"h3_10":"8a1e2e685647fff","h3_11":"8b1e2e685641fff"},"geometry":{"type":"Polygon","coordinates":[[[20.026639,50.056094],[20.026703,50.056057],[20.026758,50.056096],[20.026694,50.056133],[20.026639,50.056094]]]}},{"type":"Feature","id":"w1038786036","properties":{"type":"outbuilding","levels":1.0,"residential":false,"residents_est":0,"h3_10":"8a1e2e68562ffff","h3_11":"8b1e2e685628fff"},"geometry":{"type":"Polygon","coordinates":[[[20.022559,50.056631],[20.022772,50.056551],[20.022812,50.056595],[20.022599,50.056675],[20.022559,50.056631]]]}},{"type":"Feature","id":"w1038786039","properties":{"type":"yes","levels":1.0,"residential":true,"residents_est":2,"h3_10":"8a1e2e685607fff","h3_11":"8b1e2e685601fff"},"geometry":{"type":"Polygon","coordinates":[[[20.021684,50.056193],[20.021687,50.056136],[20.021991,50.056142],[20.02199,50.056199],[20.021684,50.056193]]]}},{"type":"Feature","id":"w1038786040","properties":{"type":"detached","levels":1.0,"address":"Cuplowa 23","residential":false,"residents_est":0,"h3_10":"8a1e2e6856cffff","h3_11":"8b1e2e6856c8fff"},"geometry":{"type":"Polygon","coordinates":[[[20.025469,50.052913],[20.025494,50.05291],[20.025491,50.052898],[20.025514,50.052895],[20.025518,50.052909],[20.02557,50.052902],[20.025582,50.052941],[20.02548,50.052955],[20.025469,50.052913]]]}},{"type":"Feature","id":"w1038786041","properties":{"type":"outbuilding","levels":1.0,"residential":false,"residents_est":0,"h3_10":"8a1e2e68565ffff","h3_11":"8b1e2e68565bfff"},"geometry":{"type":"Polygon","coordinates":[[[20.026882,50.054497],[20.026923,50.05445],[20.027096,50.054512],[20.027072,50.05454],[20.02709,50.054546],[20.027072,50.054568],[20.026882,50.054497]]]}},{"type":"Feature","id":"w1038786042","properties":{"type":"outbuilding","levels":1.0,"residential":false,"residents_est":0,"h3_10":"8a1e2e68565ffff","h3_11":"8b1e2e68565cfff"},"geometry":{"type":"Polygon","coordinates":[[[20.02646,50.055365],[20.026489,50.055319],[20.02659,50.055344],[20.026561,50.055391],[20.02646,50.055365]]]}},{"type":"Feature","id":"w1038786052","properties":{"type":"retail","levels":1.0,"residential":false,"residents_est":0,"h3_10":"8a1e2e685717fff","h3_11":"8b1e2e685713fff"},"geometry":{"type":"Polygon","coordinates":[[[20.017474,50.057664],[20.017478,50.05761],[20.017682,50.057617],[20.017677,50.057672],[20.017474,50.057664]]]}},{"type":"Feature","id":"w1038786061","properties":{"type":"detached","levels":1.0,"residential":true,"residents_est":2,"h3_10":"8a1e2e685787fff","h3_11":"8b1e2e685784fff"},"geometry":{"type":"Polygon","coordinates":[[[20.015797,50.05644],[20.01594,50.056437],[20.015944,50.056518],[20.015935,50.056519],[20.015936,50.056543],[20.015889,50.056544],[20.015888,50.05652],[20.015801,50.056521],[20.015797,50.05644]]]}},{"type":"Feature","id":"w1038786065","properties":{"type":"detached","levels":1.0,"residential":true,"residents_est":2,"h3_10":"8a1e2e685717fff","h3_11":"8b1e2e685716fff"},"geometry":{"type":"Polygon","coordinates":[[[20.01635,50.058014],[20.016367,50.057968],[20.01642,50.057976],[20.016426,50.05796],[20.016466,50.057965],[20.01646,50.057981],[20.016501,50.057986],[20.01648,50.058053],[20.016399,50.058042],[20.016405,50.058022],[20.01635,50.058014]]]}},{"type":"Feature","id":"w1038786066","properties":{"type":"detached","levels":1.0,"address":"Osiedle 2","residential":true,"residents_est":2,"h3_10":"8a1e2e6857a7fff","h3_11":"8b1e2e6857a5fff"},"geometry":{"type":"Polygon","coordinates":[[[20.016417,50.057656],[20.016452,50.057588],[20.016578,50.057617],[20.016544,50.057683],[20.016417,50.057656]]]}},{"type":"Feature","id":"w1038786067","properties":{"type":"detached","levels":1.0,"address":"Osiedle 4","residential":true,"residents_est":1,"h3_10":"8a1e2e6857a7fff","h3_11":"8b1e2e6857a5fff"},"geometry":{"type":"Polygon","coordinates":[[[20.016216,50.057603],[20.016227,50.057583],[20.016218,50.057581],[20.016236,50.057545],[20.016354,50.05757],[20.016325,50.057627],[20.016216,50.057603]]]}},{"type":"Feature","id":"w1038786068","properties":{"type":"detached","levels":1.0,"address":"Osiedle 1","residential":true,"residents_est":2,"h3_10":"8a1e2e6857a7fff","h3_11":"8b1e2e6857a5fff"},"geometry":{"type":"Polygon","coordinates":[[[20.016148,50.057385],[20.016183,50.057311],[20.016291,50.057333],[20.016256,50.057407],[20.016148,50.057385]]]}},{"type":"Feature","id":"w1038786071","properties":{"type":"detached","levels":1.0,"address":"Osiedle 6","residential":true,"residents_est":2,"h3_10":"8a1e2e6857a7fff","h3_11":"8b1e2e6857a4fff"},"geometry":{"type":"Polygon","coordinates":[[[20.015478,50.057681],[20.015502,50.05763],[20.015564,50.057643],[20.015571,50.057628],[20.015606,50.057635],[20.015599,50.05765],[20.015647,50.057659],[20.015623,50.057709],[20.015478,50.057681]]]}},{"type":"Feature","id":"w1038786076","properties":{"type":"detached","levels":1.0,"residential":true,"residents_est":4,"h3_10":"8a1e2e6857a7fff","h3_11":"8b1e2e6857a4fff"},"geometry":{"type":"Polygon","coordinates":[[[20.015119,50.057457],[20.015176,50.057328],[20.015315,50.057355],[20.015289,50.057412],[20.015283,50.057411],[20.015276,50.057424],[20.015282,50.057425],[20.015255,50.057482],[20.015119,50.057457]]]}},{"type":"Feature","id":"w1038786079","properties":{"type":"office","levels":2.0,"residential":false,"residents_est":0,"h3_10":"8a1e2e685617fff","h3_11":"8b1e2e685613fff"},"geometry":{"type":"Polygon","coordinates":[[[20.019778,50.054954],[20.019794,50.054815],[20.020183,50.054936],[20.020095,50.055053],[20.019778,50.054954]]]}},{"type":"Feature","id":"w1038786080","properties":{"type":"outbuilding","levels":1.0,"residential":false,"residents_est":0,"h3_10":"8a1e2e68569ffff","h3_11":"8b1e2e68569dfff"},"geometry":{"type":"Polygon","coordinates":[[[20.019302,50.052618],[20.019327,50.052591],[20.019402,50.052617],[20.019375,50.052646],[20.019302,50.052618]]]}},{"type":"Feature","id":"w1038786081","properties":{"type":"office","levels":2.0,"residential":false,"residents_est":0,"h3_10":"8a1e2e685617fff","h3_11":"8b1e2e685613fff"},"geometry":{"type":"Polygon","coordinates":[[[20.019794,50.054815],[20.019909,50.054663],[20.020066,50.054712],[20.019952,50.054864],[20.019794,50.054815]]]}},{"type":"Feature","id":"w1038786082","properties":{"type":"detached","levels":2.0,"residential":true,"residents_est":3,"h3_10":"8a1e2e68569ffff","h3_11":"8b1e2e685698fff"},"geometry":{"type":"Polygon","coordinates":[[[20.019046,50.052573],[20.019082,50.052533],[20.019132,50.052552],[20.019143,50.052541],[20.019181,50.052555],[20.01917,50.052567],[20.01921,50.052582],[20.019174,50.052621],[20.019046,50.052573]]]}},{"type":"Feature","id":"w1038786083","properties":{"type":"detached","levels":1.0,"residential":true,"residents_est":1,"h3_10":"8a1e2e68569ffff","h3_11":"8b1e2e685698fff"},"geometry":{"type":"Polygon","coordinates":[[[20.019156,50.052517],[20.019216,50.052457],[20.019311,50.052496],[20.019251,50.052556],[20.019156,50.052517]]]}},{"type":"Feature","id":"w1038786084","properties":{"type":"outbuilding","levels":1.0,"residential":false,"residents_est":0,"h3_10":"8a1e2e685787fff","h3_11":"8b1e2e685784fff"},"geometry":{"type":"Polygon","coordinates":[[[20.016039,50.056501],[20.016103,50.0565],[20.016107,50.056559],[20.016042,50.056561],[20.016039,50.056501]]]}},{"type":"Feature","id":"w1038786085","properties":{"type":"detached","levels":2.0,"address":"Osiedle 5","residential":true,"residents_est":4,"h3_10":"8a1e2e6857a7fff","h3_11":"8b1e2e6857a0fff"},"geometry":{"type":"Polygon","coordinates":[[[20.015658,50.057263],[20.015697,50.057184],[20.015819,50.057209],[20.01578,50.057287],[20.015658,50.057263]]]}},{"type":"Feature","id":"w1038786087","properties":{"type":"detached","levels":1.0,"residential":true,"residents_est":2,"h3_10":"8a1e2e6857a7fff","h3_11":"8b1e2e6857a2fff"},"geometry":{"type":"Polygon","coordinates":[[[20.015685,50.056831],[20.015805,50.056829],[20.015808,50.056912],[20.015688,50.056914],[20.015685,50.056831]]]}},{"type":"Feature","id":"w1038786088","properties":{"type":"detached","levels":1.0,"residential":true,"residents_est":2,"h3_10":"8a1e2e6857a7fff","h3_11":"8b1e2e6857a2fff"},"geometry":{"type":"Polygon","coordinates":[[[20.01576,50.056746],[20.015762,50.056667],[20.015924,50.056666],[20.015925,50.056745],[20.01576,50.056746]]]}},{"type":"Feature","id":"w1038786089","properties":{"type":"outbuilding","levels":1.0,"residential":false,"residents_est":0,"h3_10":"8a1e2e6857a7fff","h3_11":"8b1e2e6857a2fff"},"geometry":{"type":"Polygon","coordinates":[[[20.015576,50.056861],[20.015671,50.056861],[20.015671,50.056925],[20.015576,50.056925],[20.015576,50.056861]]]}},{"type":"Feature","id":"w1038786090","properties":{"type":"detached","levels":1.0,"residential":true,"residents_est":3,"h3_10":"8a1e2e6857a7fff","h3_11":"8b1e2e6857a2fff"},"geometry":{"type":"Polygon","coordinates":[[[20.01542,50.056719],[20.015618,50.056714],[20.015622,50.056792],[20.015545,50.056794],[20.015546,50.05681],[20.015498,50.056812],[20.015497,50.056795],[20.015425,50.056796],[20.01542,50.056719]]]}},{"type":"Feature","id":"w1038786091","properties":{"type":"outbuilding","levels":1.0,"residential":false,"residents_est":0,"h3_10":"8a1e2e685757fff","h3_11":"8b1e2e685750fff"},"geometry":{"type":"Polygon","coordinates":[[[20.02209,50.058105],[20.0221,50.05796],[20.022172,50.057963],[20.022161,50.058107],[20.02209,50.058105]]]}},{"type":"Feature","id":"w1038786092","properties":{"type":"outbuilding","levels":1.0,"residential":false,"residents_est":0,"h3_10":"8a1e2e68570ffff","h3_11":"8b1e2e685709fff"},"geometry":{"type":"Polygon","coordinates":[[[20.021421,50.058152],[20.021428,50.058067],[20.021511,50.058069],[20.02151,50.058101],[20.021534,50.058102],[20.021532,50.058126],[20.021506,50.058125],[20.021503,50.058155],[20.021421,50.058152]]]}},{"type":"Feature","id":"w1038786093","properties":{"type":"outbuilding","levels":1.0,"residential":false,"residents_est":0,"h3_10":"8a1e2e68569ffff","h3_11":"8b1e2e685698fff"},"geometry":{"type":"Polygon","coordinates":[[[20.018763,50.052413],[20.018796,50.052383],[20.018858,50.052412],[20.018825,50.052442],[20.018763,50.052413]]]}},{"type":"Feature","id":"w1038786094","properties":{"type":"outbuilding","levels":1.0,"residential":false,"residents_est":0,"h3_10":"8a1e2e68569ffff","h3_11":"8b1e2e685698fff"},"geometry":{"type":"Polygon","coordinates":[[[20.018796,50.052383],[20.018835,50.052348],[20.018898,50.052376],[20.018858,50.052412],[20.018796,50.052383]]]}},{"type":"Feature","id":"w1038786095","properties":{"type":"detached","levels":2.0,"residential":true,"residents_est":3,"h3_10":"8a1e2e6857a7fff","h3_11":"8b1e2e6857a0fff"},"geometry":{"type":"Polygon","coordinates":[[[20.015903,50.056998],[20.015911,50.056955],[20.01596,50.056962],[20.015964,50.056949],[20.016001,50.056954],[20.015997,50.056967],[20.016098,50.056984],[20.016085,50.057029],[20.015903,50.056998]]]}},{"type":"Feature","id":"w1038786096","properties":{"type":"outbuilding","levels":1.0,"residential":false,"residents_est":0,"h3_10":"8a1e2e6857a7fff","h3_11":"8b1e2e6857a3fff"},"geometry":{"type":"Polygon","coordinates":[[[20.016099,50.056883],[20.016172,50.056881],[20.016183,50.05698],[20.016105,50.056982],[20.016099,50.056883]]]}},{"type":"Feature","id":"w1038786098","properties":{"type":"detached","levels":2.0,"address":"Osiedle 4b","residential":true,"residents_est":6,"h3_10":"8a1e2e6857a7fff","h3_11":"8b1e2e6857a4fff"},"geometry":{"type":"Polygon","coordinates":[[[20.015802,50.05762],[20.015847,50.057528],[20.015917,50.057543],[20.01593,50.057517],[20.015986,50.057528],[20.01592,50.057661],[20.015838,50.057645],[20.015846,50.057629],[20.015802,50.05762]]]}},{"type":"Feature","id":"w1038786103","properties":{"type":"warehouse","levels":1.0,"residential":false,"residents_est":0,"h3_10":"8a1e2e685607fff","h3_11":"8b1e2e685600fff"},"geometry":{"type":"Polygon","coordinates":[[[20.021288,50.056254],[20.021301,50.056125],[20.021557,50.056135],[20.021544,50.056264],[20.021288,50.056254]]]}},{"type":"Feature","id":"w1038786105","properties":{"type":"outbuilding","levels":1.0,"residential":false,"residents_est":0,"h3_10":"8a1e2e685657fff","h3_11":"8b1e2e685652fff"},"geometry":{"type":"Polygon","coordinates":[[[20.024113,50.055074],[20.024172,50.054986],[20.024186,50.05499],[20.0242,50.05497],[20.024311,50.055002],[20.02428,50.055049],[20.024268,50.055045],[20.024228,50.055105],[20.024113,50.055074]]]}},{"type":"Feature","id":"w1038786127","properties":{"type":"outbuilding","levels":1.0,"residential":false,"residents_est":0,"h3_10":"8a1e2e68574ffff","h3_11":"8b1e2e685748fff"},"geometry":{"type":"Polygon","coordinates":[[[20.025328,50.058418],[20.025445,50.058366],[20.025482,50.0584],[20.025365,50.058453],[20.025328,50.058418]]]}},{"type":"Feature","id":"w1038786130","properties":{"type":"sports_hall","levels":2.0,"address":"Władysława Siwka 28","name":"Streetpark","residential":false,"residents_est":0,"h3_10":"8a1e2e685637fff","h3_11":"8b1e2e685633fff"},"geometry":{"type":"Polygon","coordinates":[[[20.01919,50.05623],[20.019192,50.056146],[20.019443,50.05615],[20.019444,50.056138],[20.019863,50.056144],[20.019864,50.056118],[20.020282,50.056124],[20.020283,50.056103],[20.020798,50.056112],[20.020793,50.056257],[20.01987,50.056242],[20.019861,50.056246],[20.01919,50.05623]]]}},{"type":"Feature","id":"w1038786131","properties":{"type":"warehouse","levels":1.0,"address":"Na Załęczu 3C","residential":false,"residents_est":0,"h3_10":"8a1e2e685717fff","h3_11":"8b1e2e685711fff"},"geometry":{"type":"Polygon","coordinates":[[[20.018226,50.058061],[20.018244,50.057992],[20.018281,50.057996],[20.018287,50.057985],[20.018358,50.057712],[20.018358,50.057701],[20.01832,50.057697],[20.018337,50.057628],[20.018558,50.057652],[20.018446,50.058085],[20.018226,50.058061]]]}},{"type":"Feature","id":"w1038786132","properties":{"type":"detached","levels":2.0,"residential":true,"residents_est":6,"h3_10":"8a1e2e6856effff","h3_11":"8b1e2e6856ebfff"},"geometry":{"type":"Polygon","coordinates":[[[20.025096,50.053906],[20.025291,50.053887],[20.02531,50.053966],[20.025116,50.053986],[20.025096,50.053906]]]}},{"type":"Feature","id":"w1038786136","properties":{"type":"detached","levels":2.0,"residential":true,"residents_est":9,"h3_10":"8a1e2e685647fff","h3_11":"8b1e2e685642fff"},"geometry":{"type":"Polygon","coordinates":[[[20.025376,50.055832],[20.025483,50.055654],[20.025588,50.05568],[20.025584,50.055686],[20.025571,50.055683],[20.025544,50.055729],[20.025618,50.055747],[20.025601,50.055777],[20.025623,50.055783],[20.0256,50.05582],[20.025476,50.05579],[20.025441,50.055849],[20.025376,50.055832]]]}},{"type":"Feature","id":"w1038786138","properties":{"type":"apartments","levels":3.0,"residential":true,"residents_est":13,"h3_10":"8a1e2e685657fff","h3_11":"8b1e2e685656fff"},"geometry":{"type":"Polygon","coordinates":[[[20.023796,50.055128],[20.023876,50.055051],[20.024089,50.055142],[20.024007,50.05522],[20.023882,50.055166],[20.023895,50.055154],[20.023868,50.055141],[20.023855,50.055154],[20.023796,50.055128]]]}},{"type":"Feature","id":"w1038786139","properties":{"type":"outbuilding","levels":1.0,"residential":false,"residents_est":0,"h3_10":"8a1e2e685647fff","h3_11":"8b1e2e685644fff"},"geometry":{"type":"Polygon","coordinates":[[[20.025273,50.056484],[20.025303,50.056477],[20.025616,50.056471],[20.025629,50.056479],[20.025627,50.056511],[20.025581,50.056513],[20.025582,50.056532],[20.025606,50.056547],[20.025605,50.056579],[20.025557,50.056593],[20.025553,50.056514],[20.025306,50.056518],[20.025308,50.056572],[20.025277,50.056572],[20.025273,50.056484]]]}},{"type":"Feature","id":"w1038786140","properties":{"type":"retail","levels":1.0,"residential":false,"residents_est":0,"h3_10":"8a1e2e6856f7fff","h3_11":"8b1e2e6856f5fff"},"geometry":{"type":"Polygon","coordinates":[[[20.021626,50.054375],[20.022003,50.053888],[20.022321,50.05399],[20.021943,50.054477],[20.021626,50.054375]]]}},{"type":"Feature","id":"w1038786141","properties":{"type":"retail","levels":1.0,"residential":false,"residents_est":0,"h3_10":"8a1e2e68561ffff","h3_11":"8b1e2e68561bfff"},"geometry":{"type":"Polygon","coordinates":[[[20.021546,50.054475],[20.021626,50.054375],[20.021943,50.054477],[20.021868,50.054578],[20.021735,50.054535],[20.021723,50.054541],[20.021737,50.054523],[20.021693,50.054508],[20.021679,50.054527],[20.021674,50.054525],[20.021679,50.054519],[20.021546,50.054475]]]}},{"type":"Feature","id":"w1038786142","properties":{"type":"warehouse","levels":1.0,"residential":false,"residents_est":0,"h3_10":"8a1e2e685627fff","h3_11":"8b1e2e685621fff"},"geometry":{"type":"Polygon","coordinates":[[[20.021171,50.057313],[20.021182,50.057128],[20.021585,50.05714],[20.021574,50.057325],[20.021171,50.057313]]]}},{"type":"Feature","id":"w1038786143","properties":{"type":"office","levels":2.0,"residential":false,"residents_est":0,"h3_10":"8a1e2e685627fff","h3_11":"8b1e2e685620fff"},"geometry":{"type":"Polygon","coordinates":[[[20.020885,50.057305],[20.02089,50.057251],[20.020982,50.057134],[20.021182,50.057141],[20.021171,50.057313],[20.020885,50.057305]]]}},{"type":"Feature","id":"w1038786144","properties":{"type":"yes","levels":1.0,"residential":true,"residents_est":8,"h3_10":"8a1e2e685657fff","h3_11":"8b1e2e685652fff"},"geometry":{"type":"Polygon","coordinates":[[[20.024115,50.054894],[20.024356,50.054544],[20.024555,50.054601],[20.024314,50.05495],[20.024115,50.054894]]]}},{"type":"Feature","id":"w1038786155","properties":{"type":"detached","levels":2.0,"residential":true,"residents_est":3,"h3_10":"8a1e2e685647fff","h3_11":"8b1e2e685643fff"},"geometry":{"type":"Polygon","coordinates":[[[20.026572,50.055871],[20.02664,50.05583],[20.02673,50.055891],[20.026662,50.055933],[20.026572,50.055871]]]}},{"type":"Feature","id":"w1038786156","properties":{"type":"detached","levels":2.0,"residential":true,"residents_est":3,"h3_10":"8a1e2e685647fff","h3_11":"8b1e2e685641fff"},"geometry":{"type":"Polygon","coordinates":[[[20.026789,50.056019],[20.026858,50.055977],[20.026947,50.056039],[20.026879,50.056081],[20.026789,50.056019]]]}},{"type":"Feature","id":"w1038786158","properties":{"type":"warehouse","levels":1.0,"residential":false,"residents_est":0,"h3_10":"8a1e2e68569ffff","h3_11":"8b1e2e68569dfff"},"geometry":{"type":"Polygon","coordinates":[[[20.018738,50.052753],[20.018903,50.052571],[20.019821,50.052915],[20.019659,50.053093],[20.019479,50.053025],[20.019425,50.053084],[20.018931,50.052899],[20.01898,50.052844],[20.018738,50.052753]]]}},{"type":"Feature","id":"w1038786159","properties":{"type":"office","levels":2.0,"residential":false,"residents_est":0,"h3_10":"8a1e2e68569ffff","h3_11":"8b1e2e68569cfff"},"geometry":{"type":"Polygon","coordinates":[[[20.0186,50.052821],[20.018681,50.052735],[20.01898,50.052844],[20.0189,50.052933],[20.0186,50.052821]]]}},{"type":"Feature","id":"w1038786163","properties":{"type":"detached","levels":2.0,"residential":true,"residents_est":9,"h3_10":"8a1e2e685727fff","h3_11":"8b1e2e685725fff"},"geometry":{"type":"Polygon","coordinates":[[[20.0188,50.06011],[20.018822,50.060075],[20.018811,50.060072],[20.018832,50.060039],[20.018842,50.060042],[20.018864,50.060007],[20.018956,50.06003],[20.018979,50.059992],[20.01907,50.060015],[20.019015,50.060103],[20.018967,50.060091],[20.018934,50.060144],[20.0188,50.06011]]]}},{"type":"Feature","id":"w1038786164","properties":{"type":"office","levels":2.0,"residential":false,"residents_est":0,"h3_10":"8a1e2e685677fff","h3_11":"8b1e2e685672fff"},"geometry":{"type":"Polygon","coordinates":[[[20.023961,50.05625],[20.02397,50.056158],[20.024188,50.056165],[20.02418,50.056257],[20.023961,50.05625]]]}},{"type":"Feature","id":"w1216833692","properties":{"type":"yes","residential":true,"residents_est":14,"h3_10":"8a1e2e685687fff","h3_11":"8b1e2e685681fff"},"geometry":{"type":"Polygon","coordinates":[[[20.019419,50.053597],[20.01954,50.053486],[20.019765,50.053587],[20.019644,50.053698],[20.019419,50.053597]]]}},{"type":"Feature","id":"w1216833693","properties":{"type":"yes","residential":true,"residents_est":33,"h3_10":"8a1e2e685687fff","h3_11":"8b1e2e685680fff"},"geometry":{"type":"Polygon","coordinates":[[[20.0187,50.053412],[20.018708,50.053266],[20.019292,50.053278],[20.019285,50.053425],[20.0187,50.053412]]]}},{"type":"Feature","id":"w1216833694","properties":{"type":"yes","residential":true,"residents_est":2,"h3_10":"8a1e2e685687fff","h3_11":"8b1e2e685680fff"},"geometry":{"type":"Polygon","coordinates":[[[20.01845,50.053359],[20.01846,50.053253],[20.018553,50.053257],[20.018543,50.053362],[20.01845,50.053359]]]}},{"type":"Feature","id":"w1216833698","properties":{"type":"yes","residential":true,"residents_est":5,"h3_10":"8a1e2e68561ffff","h3_11":"8b1e2e685619fff"},"geometry":{"type":"Polygon","coordinates":[[[20.022447,50.055009],[20.022602,50.054802],[20.022703,50.054833],[20.022548,50.05504],[20.022447,50.055009]]]}},{"type":"Feature","id":"w1216833699","properties":{"type":"yes","residential":true,"residents_est":15,"h3_10":"8a1e2e6856e7fff","h3_11":"8b1e2e6856e2fff"},"geometry":{"type":"Polygon","coordinates":[[[20.02281,50.054562],[20.02306,50.054256],[20.023159,50.05429],[20.02291,50.054595],[20.02281,50.054562]]]}},{"type":"Feature","id":"w1216833701","properties":{"type":"yes","residential":true,"residents_est":4,"h3_10":"8a1e2e68564ffff","h3_11":"8b1e2e68564efff"},"geometry":{"type":"Polygon","coordinates":[[[20.027164,50.055726],[20.027244,50.055673],[20.027439,50.055793],[20.027359,50.055847],[20.027164,50.055726]]]}},{"type":"Feature","id":"w1247602485","properties":{"type":"outbuilding","levels":1.0,"address":"Osiedle 7","residential":false,"residents_est":0,"h3_10":"8a1e2e6857a7fff","h3_11":"8b1e2e6857a6fff"},"geometry":{"type":"Polygon","coordinates":[[[20.015325,50.057114],[20.015357,50.057048],[20.015412,50.057059],[20.015452,50.056975],[20.015564,50.056998],[20.01549,50.057152],[20.015325,50.057114]]]}},{"type":"Feature","id":"w1247602486","properties":{"type":"yes","residential":true,"residents_est":27,"h3_10":"8a1e2e685697fff","h3_11":"8b1e2e685693fff"},"geometry":{"type":"Polygon","coordinates":[[[20.017614,50.052219],[20.017809,50.052089],[20.018096,50.052266],[20.0179,50.052396],[20.017614,50.052219]]]}},{"type":"Feature","id":"w1247602488","properties":{"type":"yes","residential":true,"residents_est":37,"h3_10":"8a1e2e6856d7fff","h3_11":"8b1e2e6856d4fff"},"geometry":{"type":"Polygon","coordinates":[[[20.021413,50.053212],[20.021515,50.052956],[20.021866,50.053016],[20.02176,50.053271],[20.021413,50.053212]]]}},{"type":"Feature","id":"r19104076","properties":{"type":"yes","address":"Władysława Siwka 6","residential":true,"residents_est":69,"h3_10":"8a1e2e6857b7fff","h3_11":"8b1e2e6857b4fff"},"geometry":{"type":"Polygon","coordinates":[[[20.013751,50.056588],[20.013973,50.056346],[20.014616,50.05637],[20.014633,50.056379],[20.014632,50.056388],[20.014273,50.056781],[20.014261,50.056786],[20.014245,50.056785],[20.013756,50.056599],[20.013751,50.056588]],[[20.013951,50.056561],[20.014208,50.056658],[20.014352,50.056501],[20.014355,50.056459],[20.014061,50.056448],[20.014048,50.056455],[20.013951,50.056561]]]}},{"type":"Feature","id":"w1429792762","properties":{"type":"yes","residential":false,"residents_est":0,"h3_10":"8a1e2e6857a7fff","h3_11":"8b1e2e6857a1fff"},"geometry":{"type":"Polygon","coordinates":[[[20.01644,50.057274],[20.01645,50.05723],[20.016524,50.057237],[20.016514,50.057281],[20.01644,50.057274]]]}},{"type":"Feature","id":"w1443579768","properties":{"type":"yes","residential":true,"residents_est":25,"h3_10":"8a1e2e6856affff","h3_11":"8b1e2e6856a9fff"},"geometry":{"type":"Polygon","coordinates":[[[20.020516,50.054275],[20.020665,50.05408],[20.020932,50.054164],[20.020784,50.054359],[20.020516,50.054275]]]}},{"type":"Feature","id":"w1481174412","properties":{"type":"warehouse","residential":false,"residents_est":0,"h3_10":"8a1e2e68579ffff","h3_11":"8b1e2e68579afff"},"geometry":{"type":"Polygon","coordinates":[[[20.01574,50.054662],[20.015778,50.054229],[20.015979,50.054238],[20.015984,50.0542],[20.016242,50.054211],[20.016208,50.054678],[20.01574,50.054662]]]}},{"type":"Feature","id":"w1481174414","properties":{"type":"yes","residential":true,"residents_est":2,"h3_10":"8a1e2e68561ffff","h3_11":"8b1e2e68561efff"},"geometry":{"type":"Polygon","coordinates":[[[20.020677,50.055141],[20.020677,50.055081],[20.020779,50.055081],[20.020779,50.055141],[20.020677,50.055141]]]}}]}