{"type":"FeatureCollection","features":[{"type":"Feature","id":"w79713953","properties":{"type":"church","address":"Półkole 9a","name":"Kościół pw. Świętego Stanisława Biskupa i Męczennika","residential":false,"residents_est":0,"h3_10":"8a1e2e68408ffff","h3_11":"8b1e2e684088fff"},"geometry":{"type":"Polygon","coordinates":[[[19.98317,50.060644],[19.983176,50.060584],[19.983222,50.060586],[19.983221,50.060559],[19.983265,50.060532],[19.983271,50.06048],[19.983396,50.060485],[19.983402,50.060433],[19.983616,50.060442],[19.983613,50.060494],[19.983647,50.060496],[19.983648,50.060489],[19.983759,50.060492],[19.983758,50.060501],[19.983778,50.060502],[19.983774,50.06055],[19.983813,50.060551],[19.983807,50.06067],[19.983802,50.06067],[19.983794,50.060731],[19.983756,50.060729],[19.983751,50.060775],[19.983729,50.060774],[19.983728,50.060783],[19.983617,50.060778],[19.983618,50.06077],[19.983585,50.060769],[19.983577,50.060821],[19.983365,50.060812],[19.983368,50.06076],[19.983242,50.060754],[19.983248,50.060703],[19.983211,50.060672],[19.983217,50.060646],[19.98317,50.060644]]]}},{"type":"Feature","id":"w79858314","properties":{"type":"apartments","address":"Aleja Pokoju 30","residential":true,"residents_est":103,"h3_10":"8a1e2e6840b7fff","h3_11":"8b1e2e6840b6fff"},"geometry":{"type":"Polygon","coordinates":[[[19.978545,50.061751],[19.978857,50.061091],[19.979094,50.061138],[19.978782,50.061797],[19.978545,50.061751]]]}},{"type":"Feature","id":"w79858320","properties":{"type":"yes","address":"Aleja Pokoju 32A","residential":true,"residents_est":1,"h3_10":"8a1e2e6840b7fff","h3_11":"8b1e2e6840b4fff"},"geometry":{"type":"Polygon","coordinates":[[[19.979556,50.061689],[19.979571,50.061557],[19.979657,50.061562],[19.979642,50.061693],[19.979556,50.061689]]]}},{"type":"Feature","id":"w79858321","properties":{"type":"yes","address":"Aleja Pokoju 32","residential":true,"residents_est":4,"h3_10":"8a1e2e6840b7fff","h3_11":"8b1e2e6840b4fff"},"geometry":{"type":"Polygon","coordinates":[[[19.979366,50.061602],[19.979388,50.061432],[19.979563,50.061442],[19.979541,50.061611],[19.979366,50.061602]]]}},{"type":"Feature","id":"w79864845","properties":{"type":"apartments","address":"Aleja Pokoju 45","residential":true,"residents_est":39,"h3_10":"8a1e2e684097fff","h3_11":"8b1e2e684096fff"},"geometry":{"type":"Polygon","coordinates":[[[19.97936,50.060488],[19.979394,50.060372],[19.979935,50.060438],[19.979902,50.060553],[19.97936,50.060488]]]}},{"type":"Feature","id":"w79864848","properties":{"type":"garages","address":"Widok 6A","residential":false,"residents_est":0,"h3_10":"8a1e2e684097fff","h3_11":"8b1e2e684093fff"},"geometry":{"type":"Polygon","coordinates":[[[19.980445,50.059828],[19.980481,50.059718],[19.980648,50.059741],[19.980611,50.059852],[19.980445,50.059828]]]}},{"type":"Feature","id":"w79864851","properties":{"type":"apartments","address":"Widok 2","residential":true,"residents_est":44,"h3_10":"8a1e2e684097fff","h3_11":"8b1e2e684095fff"},"geometry":{"type":"Polygon","coordinates":[[[19.980074,50.060816],[19.980165,50.060513],[19.980398,50.060542],[19.980308,50.060844],[19.980074,50.060816]]]}},{"type":"Feature","id":"w79864854","properties":{"type":"yes","address":"Widok 2A","residential":true,"residents_est":2,"h3_10":"8a1e2e684097fff","h3_11":"8b1e2e684092fff"},"geometry":{"type":"Polygon","coordinates":[[[19.979689,50.060192],[19.979701,50.060095],[19.979889,50.060107],[19.979879,50.060201],[19.979689,50.060192]]]}},{"type":"Feature","id":"w79864868","properties":{"type":"apartments","levels":4.0,"address":"Widok 6","residential":true,"residents_est":31,"h3_10":"8a1e2e684097fff","h3_11":"8b1e2e684093fff"},"geometry":{"type":"Polygon","coordinates":[[[19.97989,50.060003],[19.979931,50.059888],[19.980467,50.059967],[19.980427,50.060082],[19.97989,50.060003]]]}},{"type":"Feature","id":"w82500341","properties":{"type":"yes","address":"Aleja Pokoju 57","name":"Toyota","residential":true,"residents_est":90,"h3_10":"8a1e2e684057fff","h3_11":"8b1e2e684054fff"},"geometry":{"type":"Polygon","coordinates":[[[19.987021,50.063132],[19.98706,50.06311],[19.987136,50.063106],[19.987122,50.063089],[19.987114,50.063094],[19.987068,50.063066],[19.987053,50.063069],[19.987348,50.062953],[19.987336,50.062942],[19.987524,50.062848],[19.987548,50.062872],[19.98756,50.062867],[19.987708,50.062961],[19.987656,50.062995],[19.987863,50.063126],[19.987831,50.063146],[19.987961,50.063228],[19.987941,50.063242],[19.988026,50.063305],[19.988013,50.063314],[19.988036,50.063332],[19.987832,50.063466],[19.987866,50.063488],[19.987742,50.063563],[19.987719,50.06357],[19.987691,50.063569],[19.987326,50.063346],[19.987109,50.063205],[19.987091,50.06319],[19.987088,50.063174],[19.987077,50.063173],[19.987021,50.063132]]]}},{"type":"Feature","id":"w82500344","properties":{"type":"yes","address":"Aleja Pokoju 51","name":"PZU S.A. - Centrum Likwidacji Szkód","residential":true,"residents_est":15,"h3_10":"8a1e2e6840e7fff","h3_11":"8b1e2e6840e4fff"},"geometry":{"type":"Polygon","coordinates":[[[19.985793,50.062553],[19.985896,50.062512],[19.985904,50.062491],[19.985938,50.062496],[19.986032,50.062458],[19.986059,50.062408],[19.986095,50.062416],[19.986085,50.062433],[19.986095,50.062435],[19.986179,50.062402],[19.986237,50.062415],[19.986102,50.062672],[19.985968,50.062643],[19.985975,50.062627],[19.985882,50.062607],[19.985855,50.062618],[19.985793,50.062553]]]}},{"type":"Feature","id":"w82500370","properties":{"type":"yes","residential":false,"residents_est":0,"h3_10":"8a1e2e68400ffff","h3_11":"8b1e2e684009fff"},"geometry":{"type":"Polygon","coordinates":[[[19.986456,50.063197],[19.986503,50.063136],[19.986569,50.063159],[19.986522,50.063218],[19.986456,50.063197]]]}},{"type":"Feature","id":"w82500373","properties":{"type":"yes","residential":false,"residents_est":0,"h3_10":"8a1e2e68400ffff","h3_11":"8b1e2e684009fff"},"geometry":{"type":"Polygon","coordinates":[[[19.986649,50.063303],[19.986688,50.063267],[19.986773,50.063304],[19.986734,50.063341],[19.986649,50.063303]]]}},{"type":"Feature","id":"w82500391","properties":{"type":"yes","residential":true,"residents_est":2,"h3_10":"8a1e2e68401ffff","h3_11":"8b1e2e68401dfff"},"geometry":{"type":"Polygon","coordinates":[[[19.984602,50.062703],[19.984674,50.062674],[19.984817,50.062826],[19.984749,50.062853],[19.984602,50.062703]]]}},{"type":"Feature","id":"w82500393","properties":{"type":"yes","residential":true,"residents_est":2,"h3_10":"8a1e2e684057fff","h3_11":"8b1e2e684056fff"},"geometry":{"type":"Polygon","coordinates":[[[19.986954,50.062914],[19.987091,50.062834],[19.987185,50.062901],[19.987049,50.062981],[19.986954,50.062914]]]}},{"type":"Feature","id":"w82500397","properties":{"type":"yes","residential":true,"residents_est":1,"h3_10":"8a1e2e68400ffff","h3_11":"8b1e2e684009fff"},"geometry":{"type":"Polygon","coordinates":[[[19.986389,50.06332],[19.986442,50.06324],[19.986561,50.063274],[19.986508,50.063353],[19.986474,50.063344],[19.986467,50.063355],[19.986428,50.063346],[19.986436,50.063333],[19.986389,50.06332]]]}},{"type":"Feature","id":"w82500410","properties":{"type":"yes","residential":false,"residents_est":0,"h3_10":"8a1e2e68400ffff","h3_11":"8b1e2e684009fff"},"geometry":{"type":"Polygon","coordinates":[[[19.986615,50.063221],[19.986691,50.063154],[19.986724,50.063171],[19.986651,50.063236],[19.986615,50.063221]]]}},{"type":"Feature","id":"w82500411","properties":{"type":"yes","residential":false,"residents_est":0,"h3_10":"8a1e2e68400ffff","h3_11":"8b1e2e684009fff"},"geometry":{"type":"Polygon","coordinates":[[[19.986368,50.063373],[19.986388,50.063337],[19.9865,50.063363],[19.98648,50.063399],[19.986368,50.063373]]]}},{"type":"Feature","id":"w82500412","properties":{"type":"yes","residential":true,"residents_est":3,"h3_10":"8a1e2e68400ffff","h3_11":"8b1e2e684009fff"},"geometry":{"type":"Polygon","coordinates":[[[19.986559,50.063526],[19.98668,50.06335],[19.986716,50.06336],[19.986708,50.063372],[19.986797,50.063398],[19.986685,50.063562],[19.986559,50.063526]]]}},{"type":"Feature","id":"w82515604","properties":{"type":"yes","residential":true,"residents_est":2,"h3_10":"8a1e2e684127fff","h3_11":"8b1e2e684120fff"},"geometry":{"type":"Polygon","coordinates":[[[19.981338,50.067358],[19.981381,50.067309],[19.981678,50.067417],[19.981634,50.067466],[19.981338,50.067358]]]}},{"type":"Feature","id":"w82515607","properties":{"type":"yes","residential":true,"residents_est":12,"h3_10":"8a1e2e684107fff","h3_11":"8b1e2e684106fff"},"geometry":{"type":"Polygon","coordinates":[[[19.980767,50.06636],[19.980982,50.0661],[19.981133,50.066152],[19.980918,50.066411],[19.980767,50.06636]]]}},{"type":"Feature","id":"w82515615","properties":{"type":"yes","residential":true,"residents_est":3,"h3_10":"8a1e2e684127fff","h3_11":"8b1e2e684124fff"},"geometry":{"type":"Polygon","coordinates":[[[19.981012,50.067729],[19.981164,50.067558],[19.981255,50.067591],[19.981103,50.067763],[19.981012,50.067729]]]}},{"type":"Feature","id":"w82515616","properties":{"type":"yes","residential":true,"residents_est":17,"h3_10":"8a1e2e684127fff","h3_11":"8b1e2e684124fff"},"geometry":{"type":"Polygon","coordinates":[[[19.980822,50.067661],[19.981094,50.06735],[19.981258,50.067409],[19.980986,50.067721],[19.980822,50.067661]]]}},{"type":"Feature","id":"w82515624","properties":{"type":"yes","address":"Sierpowa 6","residential":true,"residents_est":8,"h3_10":"8a1e2e68405ffff","h3_11":"8b1e2e68405afff"},"geometry":{"type":"Polygon","coordinates":[[[19.989226,50.06206],[19.989542,50.062057],[19.989544,50.062162],[19.989228,50.062164],[19.989226,50.06206]]]}},{"type":"Feature","id":"w82515628","properties":{"type":"yes","residential":true,"residents_est":26,"h3_10":"8a1e2e684137fff","h3_11":"8b1e2e684134fff"},"geometry":{"type":"Polygon","coordinates":[[[19.979415,50.067067],[19.979624,50.066828],[19.979966,50.066952],[19.979757,50.067191],[19.979415,50.067067]]]}},{"type":"Feature","id":"w82515629","properties":{"type":"yes","residential":true,"residents_est":30,"h3_10":"8a1e2e684117fff","h3_11":"8b1e2e684114fff"},"geometry":{"type":"Polygon","coordinates":[[[19.979648,50.065717],[19.979767,50.065581],[19.98045,50.065827],[19.980332,50.065963],[19.979648,50.065717]]]}},{"type":"Feature","id":"w82515630","properties":{"type":"yes","residential":true,"residents_est":18,"h3_10":"8a1e2e684127fff","h3_11":"8b1e2e684120fff"},"geometry":{"type":"Polygon","coordinates":[[[19.981081,50.0672],[19.981163,50.067106],[19.98176,50.067323],[19.981678,50.067417],[19.981081,50.0672]]]}},{"type":"Feature","id":"w82515636","properties":{"type":"yes","residential":true,"residents_est":13,"h3_10":"8a1e2e684127fff","h3_11":"8b1e2e684124fff"},"geometry":{"type":"Polygon","coordinates":[[[19.980712,50.067543],[19.980932,50.067291],[19.981094,50.06735],[19.980874,50.067602],[19.980712,50.067543]]]}},{"type":"Feature","id":"w82515640","properties":{"type":"yes","residential":true,"residents_est":59,"h3_10":"8a1e2e684127fff","h3_11":"8b1e2e684126fff"},"geometry":{"type":"Polygon","coordinates":[[[19.980126,50.067594],[19.980664,50.066976],[19.980962,50.067083],[19.980424,50.067701],[19.980126,50.067594]]]}},{"type":"Feature","id":"w82515645","properties":{"type":"yes","residential":true,"residents_est":157,"h3_10":"8a1e2e684137fff","h3_11":"8b1e2e684136fff"},"geometry":{"type":"Polygon","coordinates":[[[19.978302,50.066926],[19.97839,50.066822],[19.978893,50.067],[19.979094,50.066764],[19.978588,50.066585],[19.978678,50.066479],[19.979184,50.066659],[19.979336,50.066481],[19.979406,50.066506],[19.979412,50.066499],[19.978839,50.066298],[19.978921,50.066202],[19.979494,50.066403],[19.979632,50.066241],[19.980141,50.06642],[19.979915,50.066685],[19.979955,50.066699],[19.979869,50.066799],[19.979434,50.066646],[19.979076,50.067065],[19.979505,50.067216],[19.979417,50.06732],[19.978302,50.066926]]]}},{"type":"Feature","id":"w82515646","properties":{"type":"yes","residential":true,"residents_est":4,"h3_10":"8a1e2e684127fff","h3_11":"8b1e2e684124fff"},"geometry":{"type":"Polygon","coordinates":[[[19.980613,50.067764],[19.980674,50.067684],[19.980981,50.067782],[19.98092,50.067861],[19.980613,50.067764]]]}},{"type":"Feature","id":"w82515647","properties":{"type":"yes","residential":true,"residents_est":57,"h3_10":"8a1e2e684107fff","h3_11":"8b1e2e684104fff"},"geometry":{"type":"Polygon","coordinates":[[[19.980785,50.066848],[19.981337,50.066219],[19.981623,50.066322],[19.981071,50.066951],[19.980785,50.066848]]]}},{"type":"Feature","id":"w82515650","properties":{"type":"yes","levels":2.0,"address":"Dąbska 10","residential":true,"residents_est":22,"h3_10":"8a1e2e68412ffff","h3_11":"8b1e2e68412cfff"},"geometry":{"type":"Polygon","coordinates":[[[19.982012,50.067406],[19.982129,50.067283],[19.982185,50.067305],[19.982538,50.066935],[19.982494,50.066917],[19.982563,50.066845],[19.982857,50.06696],[19.982788,50.067033],[19.9827,50.066998],[19.982346,50.067369],[19.982567,50.067456],[19.98245,50.067579],[19.982012,50.067406]]]}},{"type":"Feature","id":"w137271332","properties":{"type":"yes","address":"Zwycięstwa 1","residential":true,"residents_est":14,"h3_10":"8a1e2e684187fff","h3_11":"8b1e2e684186fff"},"geometry":{"type":"Polygon","coordinates":[[[19.978257,50.063429],[19.978285,50.063377],[19.978303,50.063381],[19.97834,50.063314],[19.978451,50.063338],[19.978449,50.063343],[19.978861,50.063431],[19.978807,50.063533],[19.978729,50.063516],[19.978735,50.063504],[19.978386,50.06343],[19.978373,50.063455],[19.978257,50.063429]]]}},{"type":"Feature","id":"w137271337","properties":{"type":"apartments","address":"Świtezianki 11","residential":true,"residents_est":41,"h3_10":"8a1e2e684187fff","h3_11":"8b1e2e684182fff"},"geometry":{"type":"Polygon","coordinates":[[[19.97852,50.063099],[19.978578,50.062981],[19.9791,50.063086],[19.979042,50.063204],[19.97852,50.063099]]]}},{"type":"Feature","id":"w137271345","properties":{"type":"yes","address":"Świtezianki 3","residential":true,"residents_est":12,"h3_10":"8a1e2e68419ffff","h3_11":"8b1e2e68419bfff"},"geometry":{"type":"Polygon","coordinates":[[[19.9797,50.062194],[19.979744,50.062097],[19.979849,50.062117],[19.979856,50.062103],[19.9799,50.062112],[19.979896,50.062125],[19.980012,50.062147],[19.980006,50.062162],[19.980034,50.062187],[19.98003,50.062193],[19.980055,50.062197],[19.980021,50.062272],[19.980041,50.062276],[19.980026,50.062305],[19.980008,50.062302],[19.979997,50.062341],[19.979985,50.062349],[19.979834,50.06232],[19.979868,50.062244],[19.979885,50.062241],[19.979864,50.062215],[19.979851,50.062222],[19.9797,50.062194]]]}},{"type":"Feature","id":"w137271348","properties":{"type":"apartments","address":"Świtezianki 5","residential":true,"residents_est":39,"h3_10":"8a1e2e68419ffff","h3_11":"8b1e2e684198fff"},"geometry":{"type":"Polygon","coordinates":[[[19.979275,50.062519],[19.979327,50.062406],[19.979856,50.062506],[19.979804,50.062619],[19.979275,50.062519]]]}},{"type":"Feature","id":"w137271352","properties":{"type":"apartments","address":"Świtezianki 9","residential":true,"residents_est":39,"h3_10":"8a1e2e68419ffff","h3_11":"8b1e2e68419cfff"},"geometry":{"type":"Polygon","coordinates":[[[19.978931,50.062815],[19.978984,50.062702],[19.979512,50.062804],[19.979459,50.062917],[19.978931,50.062815]]]}},{"type":"Feature","id":"w161279100","properties":{"type":"yes","residential":true,"residents_est":1,"h3_10":"8a1e2e684097fff","h3_11":"8b1e2e684091fff"},"geometry":{"type":"Polygon","coordinates":[[[19.981071,50.060289],[19.981086,50.060215],[19.981222,50.060225],[19.981204,50.060297],[19.981071,50.060289]]]}},{"type":"Feature","id":"w161279101","properties":{"type":"yes","address":"Widok 17","residential":true,"residents_est":2,"h3_10":"8a1e2e68409ffff","h3_11":"8b1e2e68409efff"},"geometry":{"type":"Polygon","coordinates":[[[19.981136,50.059897],[19.981152,50.059816],[19.981302,50.059828],[19.981286,50.05991],[19.981136,50.059897]]]}},{"type":"Feature","id":"w161279102","properties":{"type":"apartments","levels":11.0,"address":"Półkole 7","residential":true,"residents_est":46,"h3_10":"8a1e2e684087fff","h3_11":"8b1e2e684080fff"},"geometry":{"type":"Polygon","coordinates":[[[19.98166,50.061106],[19.981677,50.061051],[19.981685,50.061052],[19.981699,50.061008],[19.981692,50.061007],[19.981709,50.060956],[19.981793,50.060968],[19.98179,50.060975],[19.981854,50.060984],[19.981857,50.060977],[19.981941,50.060989],[19.981923,50.061042],[19.981911,50.061041],[19.981899,50.061082],[19.98191,50.061084],[19.981892,50.061138],[19.981807,50.061126],[19.98181,50.061119],[19.98166,50.061106]]]}},{"type":"Feature","id":"w161279103","properties":{"type":"yes","address":"Stanisława Jachowicza 1","residential":true,"residents_est":1,"h3_10":"8a1e2e68419ffff","h3_11":"8b1e2e68419bfff"},"geometry":{"type":"Polygon","coordinates":[[[19.979505,50.062027],[19.979524,50.061936],[19.979587,50.061939],[19.979572,50.062032],[19.979505,50.062027]]]}},{"type":"Feature","id":"w161279107","properties":{"type":"yes","residential":true,"residents_est":2,"h3_10":"8a1e2e68418ffff","h3_11":"8b1e2e68418bfff"},"geometry":{"type":"Polygon","coordinates":[[[19.981102,50.062871],[19.981226,50.06283],[19.981301,50.062924],[19.981178,50.062965],[19.981102,50.062871]]]}},{"type":"Feature","id":"w161279108","properties":{"type":"yes","residential":true,"residents_est":2,"h3_10":"8a1e2e684197fff","h3_11":"8b1e2e684196fff"},"geometry":{"type":"Polygon","coordinates":[[[19.976611,50.062852],[19.976687,50.06277],[19.976839,50.062828],[19.976764,50.06291],[19.976611,50.062852]]]}},{"type":"Feature","id":"w161279109","properties":{"type":"yes","residential":true,"residents_est":2,"h3_10":"8a1e2e684197fff","h3_11":"8b1e2e684196fff"},"geometry":{"type":"Polygon","coordinates":[[[19.976922,50.062973],[19.977008,50.062872],[19.977064,50.062891],[19.977055,50.062903],[19.977095,50.062917],[19.977103,50.062908],[19.977167,50.06293],[19.977085,50.063026],[19.976922,50.062973]]]}},{"type":"Feature","id":"w161279110","properties":{"type":"yes","residential":true,"residents_est":2,"h3_10":"8a1e2e684197fff","h3_11":"8b1e2e684195fff"},"geometry":{"type":"Polygon","coordinates":[[[19.977679,50.063211],[19.977742,50.063117],[19.977897,50.06316],[19.977835,50.063254],[19.977679,50.063211]]]}},{"type":"Feature","id":"w161279112","properties":{"type":"yes","address":"Półkole 2a","residential":true,"residents_est":1,"h3_10":"8a1e2e684087fff","h3_11":"8b1e2e684086fff"},"geometry":{"type":"Polygon","coordinates":[[[19.980931,50.060899],[19.980949,50.060817],[19.981073,50.060828],[19.981055,50.06091],[19.980931,50.060899]]]}},{"type":"Feature","id":"w161279113","properties":{"type":"yes","residential":true,"residents_est":2,"h3_10":"8a1e2e684197fff","h3_11":"8b1e2e684195fff"},"geometry":{"type":"Polygon","coordinates":[[[19.977968,50.063279],[19.978013,50.063191],[19.978178,50.063228],[19.978132,50.063315],[19.977968,50.063279]]]}},{"type":"Feature","id":"w161279120","properties":{"type":"yes","address":"Półkole 12","residential":true,"residents_est":2,"h3_10":"8a1e2e68409ffff","h3_11":"8b1e2e68409efff"},"geometry":{"type":"Polygon","coordinates":[[[19.981402,50.059943],[19.981423,50.059834],[19.981478,50.059838],[19.981481,50.059823],[19.981499,50.059812],[19.981533,50.059814],[19.981545,50.059828],[19.981557,50.059829],[19.981554,50.059844],[19.981592,50.059847],[19.981572,50.059935],[19.981555,50.059933],[19.981551,50.059955],[19.981402,50.059943]]]}},{"type":"Feature","id":"w161279121","properties":{"type":"yes","residential":true,"residents_est":16,"h3_10":"8a1e2e68418ffff","h3_11":"8b1e2e68418bfff"},"geometry":{"type":"Polygon","coordinates":[[[19.980765,50.063153],[19.981354,50.062994],[19.981322,50.062945],[19.981685,50.062842],[19.981723,50.062903],[19.981606,50.062934],[19.98162,50.062958],[19.981578,50.062969],[19.981592,50.06299],[19.981315,50.063065],[19.981309,50.063054],[19.980792,50.063194],[19.980765,50.063153]]]}},{"type":"Feature","id":"w161279122","properties":{"type":"yes","address":"Widok 11","residential":true,"residents_est":2,"h3_10":"8a1e2e68409ffff","h3_11":"8b1e2e68409efff"},"geometry":{"type":"Polygon","coordinates":[[[19.980956,50.060111],[19.980976,50.060011],[19.981108,50.060023],[19.981088,50.060122],[19.980956,50.060111]]]}},{"type":"Feature","id":"w161279123","properties":{"type":"apartments","levels":3.0,"residential":true,"residents_est":4,"h3_10":"8a1e2e68409ffff","h3_11":"8b1e2e68409afff"},"geometry":{"type":"Polygon","coordinates":[[[19.981338,50.059419],[19.981356,50.059328],[19.981476,50.059337],[19.981459,50.059428],[19.981338,50.059419]]]}},{"type":"Feature","id":"w161279124","properties":{"type":"yes","residential":true,"residents_est":2,"h3_10":"8a1e2e684197fff","h3_11":"8b1e2e684194fff"},"geometry":{"type":"Polygon","coordinates":[[[19.977513,50.063167],[19.977579,50.063073],[19.977742,50.063117],[19.977678,50.063212],[19.977623,50.063197],[19.977617,50.063206],[19.977564,50.063192],[19.97757,50.063183],[19.977513,50.063167]]]}},{"type":"Feature","id":"w161279129","properties":{"type":"yes","address":"Półkole 10","residential":true,"residents_est":1,"h3_10":"8a1e2e68409ffff","h3_11":"8b1e2e68409cfff"},"geometry":{"type":"Polygon","coordinates":[[[19.981363,50.060221],[19.981382,50.060136],[19.981526,50.060148],[19.981507,50.060234],[19.981363,50.060221]]]}},{"type":"Feature","id":"w161279130","properties":{"type":"presbytery","name":"Plebania","residential":false,"residents_est":0,"h3_10":"8a1e2e68408ffff","h3_11":"8b1e2e68408afff"},"geometry":{"type":"Polygon","coordinates":[[[19.98266,50.060442],[19.982711,50.06039],[19.982738,50.060401],[19.982776,50.060363],[19.982743,50.060349],[19.982798,50.060292],[19.982936,50.060347],[19.982792,50.060495],[19.98266,50.060442]]]}},{"type":"Feature","id":"w161279134","properties":{"type":"yes","residential":true,"residents_est":2,"h3_10":"8a1e2e68418ffff","h3_11":"8b1e2e684189fff"},"geometry":{"type":"Polygon","coordinates":[[[19.981606,50.063235],[19.981888,50.063187],[19.981914,50.06325],[19.981633,50.063299],[19.981606,50.063235]]]}},{"type":"Feature","id":"w161279136","properties":{"type":"detached","residential":true,"residents_est":3,"h3_10":"8a1e2e68409ffff","h3_11":"8b1e2e68409afff"},"geometry":{"type":"Polygon","coordinates":[[[19.981423,50.059727],[19.981441,50.059658],[19.981592,50.05967],[19.981588,50.059701],[19.9816,50.059702],[19.981593,50.059741],[19.981423,50.059727]]]}},{"type":"Feature","id":"w161279137","properties":{"type":"house","address":"Zwycięstwa 4a","residential":true,"residents_est":3,"h3_10":"8a1e2e684197fff","h3_11":"8b1e2e684191fff"},"geometry":{"type":"Polygon","coordinates":[[[19.978703,50.062762],[19.978827,50.062756],[19.978836,50.062848],[19.978715,50.062853],[19.978703,50.062762]]]}},{"type":"Feature","id":"w161279140","properties":{"type":"yes","address":"Widok 7","residential":true,"residents_est":2,"h3_10":"8a1e2e684097fff","h3_11":"8b1e2e684091fff"},"geometry":{"type":"Polygon","coordinates":[[[19.980868,50.060469],[19.980883,50.060396],[19.98103,50.060409],[19.981014,50.060482],[19.980959,50.060477],[19.980957,50.06049],[19.980902,50.060485],[19.980904,50.060472],[19.980868,50.060469]]]}},{"type":"Feature","id":"w161279144","properties":{"type":"yes","residential":true,"residents_est":2,"h3_10":"8a1e2e684197fff","h3_11":"8b1e2e684196fff"},"geometry":{"type":"Polygon","coordinates":[[[19.97676,50.062915],[19.976839,50.062828],[19.976997,50.062884],[19.976922,50.062973],[19.97676,50.062915]]]}},{"type":"Feature","id":"w161279145","properties":{"type":"yes","address":"Widok 5","residential":true,"residents_est":2,"h3_10":"8a1e2e684087fff","h3_11":"8b1e2e684082fff"},"geometry":{"type":"Polygon","coordinates":[[[19.980826,50.060682],[19.980843,50.060592],[19.981018,50.060605],[19.981001,50.060695],[19.980935,50.06069],[19.980933,50.060703],[19.98089,50.060699],[19.980892,50.060686],[19.980826,50.060682]]]}},{"type":"Feature","id":"w161279146","properties":{"type":"yes","address":"Zwycięstwa 12","residential":true,"residents_est":3,"h3_10":"8a1e2e684197fff","h3_11":"8b1e2e684196fff"},"geometry":{"type":"Polygon","coordinates":[[[19.977143,50.062753],[19.977227,50.062659],[19.977396,50.062722],[19.977314,50.062816],[19.977143,50.062753]]]}},{"type":"Feature","id":"w161279147","properties":{"type":"yes","address":"Widok 9","residential":true,"residents_est":2,"h3_10":"8a1e2e684097fff","h3_11":"8b1e2e684091fff"},"geometry":{"type":"Polygon","coordinates":[[[19.980898,50.060327],[19.980917,50.060227],[19.981012,50.060234],[19.981016,50.060209],[19.981086,50.060215],[19.981062,50.060328],[19.981041,50.060327],[19.981039,50.060337],[19.980898,50.060327]]]}},{"type":"Feature","id":"w161279148","properties":{"type":"yes","address":"Dąbska 1a","residential":true,"residents_est":11,"h3_10":"8a1e2e68418ffff","h3_11":"8b1e2e684188fff"},"geometry":{"type":"Polygon","coordinates":[[[19.980705,50.063002],[19.981102,50.062871],[19.981178,50.062965],[19.98078,50.063096],[19.980705,50.063002]]]}},{"type":"Feature","id":"w161279149","properties":{"type":"yes","address":"Widok 15","residential":true,"residents_est":2,"h3_10":"8a1e2e68409ffff","h3_11":"8b1e2e68409efff"},"geometry":{"type":"Polygon","coordinates":[[[19.980987,50.059885],[19.981003,50.059804],[19.981152,50.059816],[19.981136,50.059897],[19.980987,50.059885]]]}},{"type":"Feature","id":"w161279150","properties":{"type":"yes","address":"Widok 13","residential":true,"residents_est":2,"h3_10":"8a1e2e68409ffff","h3_11":"8b1e2e68409efff"},"geometry":{"type":"Polygon","coordinates":[[[19.981088,50.060122],[19.981108,50.060023],[19.981249,50.060034],[19.981227,50.060133],[19.981088,50.060122]]]}},{"type":"Feature","id":"w161279154","properties":{"type":"apartments","levels":11.0,"address":"Półkole 5","residential":true,"residents_est":46,"h3_10":"8a1e2e684087fff","h3_11":"8b1e2e684084fff"},"geometry":{"type":"Polygon","coordinates":[[[19.981267,50.061352],[19.981285,50.061299],[19.981293,50.0613],[19.981307,50.061258],[19.9813,50.061256],[19.981318,50.061203],[19.981402,50.061215],[19.981399,50.061222],[19.981464,50.061231],[19.981466,50.061224],[19.981549,50.061236],[19.981531,50.06129],[19.98152,50.061289],[19.981506,50.06133],[19.981518,50.061332],[19.9815,50.061385],[19.981415,50.061373],[19.981417,50.061366],[19.981354,50.061357],[19.981351,50.061364],[19.981267,50.061352]]]}},{"type":"Feature","id":"w161279156","properties":{"type":"yes","residential":true,"residents_est":2,"h3_10":"8a1e2e684197fff","h3_11":"8b1e2e684194fff"},"geometry":{"type":"Polygon","coordinates":[[[19.977203,50.063065],[19.977269,50.062979],[19.977421,50.063026],[19.977355,50.063112],[19.977203,50.063065]]]}},{"type":"Feature","id":"w161279163","properties":{"type":"yes","address":"Półkole 4","residential":true,"residents_est":1,"h3_10":"8a1e2e684087fff","h3_11":"8b1e2e684082fff"},"geometry":{"type":"Polygon","coordinates":[[[19.981171,50.060919],[19.981188,50.060836],[19.981313,50.060847],[19.981296,50.06093],[19.981171,50.060919]]]}},{"type":"Feature","id":"w161279164","properties":{"type":"yes","address":"Półkole 8","residential":true,"residents_est":2,"h3_10":"8a1e2e68409ffff","h3_11":"8b1e2e68409cfff"},"geometry":{"type":"Polygon","coordinates":[[[19.981318,50.060463],[19.981336,50.060376],[19.98151,50.060392],[19.98149,50.060478],[19.981318,50.060463]]]}},{"type":"Feature","id":"w161279166","properties":{"type":"yes","address":"Zwycięstwa 14","residential":true,"residents_est":2,"h3_10":"8a1e2e684197fff","h3_11":"8b1e2e684196fff"},"geometry":{"type":"Polygon","coordinates":[[[19.977,50.0627],[19.977075,50.062614],[19.977218,50.062668],[19.977143,50.062753],[19.977,50.0627]]]}},{"type":"Feature","id":"w161279167","properties":{"type":"yes","residential":true,"residents_est":2,"h3_10":"8a1e2e684197fff","h3_11":"8b1e2e684194fff"},"geometry":{"type":"Polygon","coordinates":[[[19.977355,50.063112],[19.977421,50.063026],[19.977579,50.063073],[19.977516,50.063162],[19.977355,50.063112]]]}},{"type":"Feature","id":"w161279168","properties":{"type":"yes","residential":true,"residents_est":2,"h3_10":"8a1e2e6840b7fff","h3_11":"8b1e2e6840b4fff"},"geometry":{"type":"Polygon","coordinates":[[[19.979389,50.061852],[19.979413,50.061742],[19.979576,50.061756],[19.979553,50.061866],[19.979389,50.061852]]]}},{"type":"Feature","id":"w161279170","properties":{"type":"yes","address":"Półkole 2","residential":true,"residents_est":1,"h3_10":"8a1e2e684087fff","h3_11":"8b1e2e684086fff"},"geometry":{"type":"Polygon","coordinates":[[[19.980803,50.060888],[19.980821,50.060806],[19.980949,50.060817],[19.980931,50.060899],[19.980803,50.060888]]]}},{"type":"Feature","id":"w161279175","properties":{"type":"yes","residential":true,"residents_est":1,"h3_10":"8a1e2e68419ffff","h3_11":"8b1e2e68419afff"},"geometry":{"type":"Polygon","coordinates":[[[19.979191,50.062002],[19.979204,50.061938],[19.979312,50.061946],[19.979314,50.061924],[19.979365,50.061926],[19.979343,50.062013],[19.979191,50.062002]]]}},{"type":"Feature","id":"w161279178","properties":{"type":"yes","address":"Zwycięstwa 8","residential":true,"residents_est":2,"h3_10":"8a1e2e684197fff","h3_11":"8b1e2e684190fff"},"geometry":{"type":"Polygon","coordinates":[[[19.977575,50.06288],[19.977638,50.062796],[19.977801,50.062846],[19.977739,50.06293],[19.977575,50.06288]]]}},{"type":"Feature","id":"w161279180","properties":{"type":"house","address":"Zwycięstwa 4b","residential":true,"residents_est":3,"h3_10":"8a1e2e684197fff","h3_11":"8b1e2e684191fff"},"geometry":{"type":"Polygon","coordinates":[[[19.978538,50.062808],[19.978551,50.062798],[19.978581,50.062797],[19.978579,50.062767],[19.978703,50.062762],[19.978715,50.062852],[19.978558,50.062859],[19.978555,50.06283],[19.97854,50.062821],[19.978538,50.062808]]]}},{"type":"Feature","id":"w161279182","properties":{"type":"yes","address":"Zwycięstwa 4","residential":true,"residents_est":1,"h3_10":"8a1e2e684197fff","h3_11":"8b1e2e684190fff"},"geometry":{"type":"Polygon","coordinates":[[[19.977898,50.062975],[19.977964,50.062882],[19.978073,50.062913],[19.978007,50.063008],[19.977898,50.062975]]]}},{"type":"Feature","id":"w161279183","properties":{"type":"yes","address":"Półkole 6","residential":true,"residents_est":2,"h3_10":"8a1e2e684087fff","h3_11":"8b1e2e684082fff"},"geometry":{"type":"Polygon","coordinates":[[[19.981275,50.060728],[19.981299,50.060617],[19.981454,50.060631],[19.981435,50.060724],[19.981375,50.060718],[19.981372,50.060737],[19.981275,50.060728]]]}},{"type":"Feature","id":"w161279184","properties":{"type":"yes","address":"Zwycięstwa 2b","residential":true,"residents_est":1,"h3_10":"8a1e2e684197fff","h3_11":"8b1e2e684195fff"},"geometry":{"type":"Polygon","coordinates":[[[19.978128,50.063039],[19.978178,50.062956],[19.978261,50.062976],[19.97821,50.06306],[19.978128,50.063039]]]}},{"type":"Feature","id":"w161279186","properties":{"type":"yes","address":"Zwycięstwa 10","residential":true,"residents_est":1,"h3_10":"8a1e2e684197fff","h3_11":"8b1e2e684190fff"},"geometry":{"type":"Polygon","coordinates":[[[19.97748,50.062863],[19.977552,50.06277],[19.977638,50.062796],[19.977568,50.06289],[19.97748,50.062863]]]}},{"type":"Feature","id":"w161279190","properties":{"type":"yes","address":"Zwycięstwa 2a","residential":true,"residents_est":1,"h3_10":"8a1e2e684197fff","h3_11":"8b1e2e684191fff"},"geometry":{"type":"Polygon","coordinates":[[[19.978217,50.063048],[19.978268,50.062963],[19.978345,50.062982],[19.978295,50.063066],[19.978217,50.063048]]]}},{"type":"Feature","id":"w161279191","properties":{"type":"yes","address":"Zwycięstwa 16","residential":true,"residents_est":2,"h3_10":"8a1e2e684197fff","h3_11":"8b1e2e684196fff"},"geometry":{"type":"Polygon","coordinates":[[[19.976854,50.062646],[19.976933,50.062561],[19.977075,50.062614],[19.977,50.0627],[19.976854,50.062646]]]}},{"type":"Feature","id":"w161279193","properties":{"type":"yes","address":"Zwycięstwa 2","residential":true,"residents_est":2,"h3_10":"8a1e2e684197fff","h3_11":"8b1e2e684191fff"},"geometry":{"type":"Polygon","coordinates":[[[19.978295,50.063066],[19.97835,50.062968],[19.978483,50.062998],[19.978429,50.063097],[19.978295,50.063066]]]}},{"type":"Feature","id":"w161279195","properties":{"type":"yes","address":"Zwycięstwa 4c","residential":true,"residents_est":2,"h3_10":"8a1e2e684197fff","h3_11":"8b1e2e684191fff"},"geometry":{"type":"Polygon","coordinates":[[[19.978007,50.063008],[19.978078,50.062898],[19.978195,50.062927],[19.978128,50.063039],[19.978007,50.063008]]]}},{"type":"Feature","id":"w161279200","properties":{"type":"yes","address":"Zwycięstwa 6","residential":true,"residents_est":2,"h3_10":"8a1e2e684197fff","h3_11":"8b1e2e684190fff"},"geometry":{"type":"Polygon","coordinates":[[[19.977739,50.06293],[19.977801,50.062846],[19.977874,50.062866],[19.977886,50.062847],[19.977971,50.062871],[19.977898,50.062975],[19.977739,50.06293]]]}},{"type":"Feature","id":"w170872105","properties":{"type":"service","name":"Pompownia wody \"Białucha\"","residential":false,"residents_est":0,"h3_10":"8a1e2e6840e7fff","h3_11":"8b1e2e6840e2fff"},"geometry":{"type":"Polygon","coordinates":[[[19.985678,50.061875],[19.985781,50.061842],[19.985834,50.06191],[19.98573,50.061943],[19.985678,50.061875]]]}},{"type":"Feature","id":"w170872107","properties":{"type":"service","residential":false,"residents_est":0,"h3_10":"8a1e2e6840e7fff","h3_11":"8b1e2e6840e2fff"},"geometry":{"type":"Polygon","coordinates":[[[19.986081,50.061794],[19.986158,50.06177],[19.986212,50.061841],[19.986135,50.061865],[19.986081,50.061794]]]}},{"type":"Feature","id":"w184336051","properties":{"type":"yes","address":"Półkole 1","residential":true,"residents_est":1,"h3_10":"8a1e2e684087fff","h3_11":"8b1e2e684086fff"},"geometry":{"type":"Polygon","coordinates":[[[19.980764,50.061135],[19.980782,50.061054],[19.980908,50.061064],[19.980889,50.061146],[19.980764,50.061135]]]}},{"type":"Feature","id":"w184336084","properties":{"type":"yes","address":"Półkole 3","residential":true,"residents_est":1,"h3_10":"8a1e2e684087fff","h3_11":"8b1e2e684086fff"},"geometry":{"type":"Polygon","coordinates":[[[19.980889,50.061146],[19.980908,50.061063],[19.981036,50.061074],[19.981017,50.061158],[19.980889,50.061146]]]}},{"type":"Feature","id":"w189431122","properties":{"type":"yes","residential":true,"residents_est":30,"h3_10":"8a1e2e68400ffff","h3_11":"8b1e2e68400afff"},"geometry":{"type":"Polygon","coordinates":[[[19.98497,50.062875],[19.985527,50.062656],[19.985587,50.062723],[19.985188,50.062877],[19.985332,50.063029],[19.985822,50.063134],[19.985785,50.063208],[19.985076,50.063054],[19.985117,50.062982],[19.985158,50.062991],[19.985088,50.062917],[19.98503,50.062939],[19.98497,50.062875]]]}},{"type":"Feature","id":"w236940145","properties":{"type":"residential","levels":3.0,"address":"Dąbska 19B","residential":true,"residents_est":5,"h3_10":"8a1e2e684177fff","h3_11":"8b1e2e684174fff"},"geometry":{"type":"Polygon","coordinates":[[[19.984508,50.066946],[19.984548,50.066935],[19.984541,50.066924],[19.984591,50.066911],[19.984598,50.066922],[19.984638,50.066912],[19.984697,50.067004],[19.984567,50.067038],[19.984508,50.066946]]]}},{"type":"Feature","id":"w288015991","properties":{"type":"hotel","levels":6.0,"residential":false,"residents_est":0,"h3_10":"8a1e2e684037fff","h3_11":"8b1e2e684034fff"},"geometry":{"type":"Polygon","coordinates":[[[19.981706,50.064068],[19.982208,50.064018],[19.982285,50.064338],[19.982261,50.064342],[19.982296,50.06447],[19.982317,50.06447],[19.982453,50.065032],[19.981861,50.065089],[19.981774,50.064517],[19.981845,50.064513],[19.981838,50.064473],[19.981808,50.064467],[19.981799,50.064451],[19.981802,50.064436],[19.98183,50.064422],[19.981824,50.064386],[19.981755,50.064391],[19.981706,50.064068]]]}},{"type":"Feature","id":"w306777882","properties":{"type":"yes","residential":true,"residents_est":1,"h3_10":"8a1e2e684147fff","h3_11":"8b1e2e684141fff"},"geometry":{"type":"Polygon","coordinates":[[[19.98717,50.066318],[19.987242,50.066302],[19.98731,50.066425],[19.987232,50.066443],[19.98717,50.066318]]]}},{"type":"Feature","id":"w306777883","properties":{"type":"yes","address":"Dąbska 25","residential":true,"residents_est":2,"h3_10":"8a1e2e684147fff","h3_11":"8b1e2e684141fff"},"geometry":{"type":"Polygon","coordinates":[[[19.987397,50.066297],[19.987445,50.066288],[19.98743,50.066255],[19.987508,50.06624],[19.987523,50.066274],[19.987567,50.066266],[19.987602,50.066344],[19.987432,50.066375],[19.987397,50.066297]]]}},{"type":"Feature","id":"w341306786","properties":{"type":"yes","residential":true,"residents_est":2,"h3_10":"8a1e2e68419ffff","h3_11":"8b1e2e68419bfff"},"geometry":{"type":"Polygon","coordinates":[[[19.979674,50.062253],[19.9797,50.062194],[19.979851,50.062222],[19.979864,50.062215],[19.979885,50.062241],[19.979868,50.062244],[19.979843,50.062297],[19.979736,50.062276],[19.97974,50.062267],[19.979674,50.062253]]]}},{"type":"Feature","id":"w341306813","properties":{"type":"yes","residential":true,"residents_est":1,"h3_10":"8a1e2e68419ffff","h3_11":"8b1e2e68419afff"},"geometry":{"type":"Polygon","coordinates":[[[19.979025,50.06199],[19.979038,50.061926],[19.979204,50.061938],[19.979191,50.062002],[19.979025,50.06199]]]}},{"type":"Feature","id":"w341306844","properties":{"type":"yes","residential":false,"residents_est":0,"h3_10":"8a1e2e68412ffff","h3_11":"8b1e2e68412dfff"},"geometry":{"type":"Polygon","coordinates":[[[19.983346,50.06735],[19.98336,50.067323],[19.983425,50.067337],[19.983411,50.067364],[19.983346,50.06735]]]}},{"type":"Feature","id":"w341306847","properties":{"type":"yes","residential":true,"residents_est":1,"h3_10":"8a1e2e684197fff","h3_11":"8b1e2e684195fff"},"geometry":{"type":"Polygon","coordinates":[[[19.977865,50.063361],[19.977896,50.063308],[19.977989,50.063329],[19.977956,50.063381],[19.977865,50.063361]]]}},{"type":"Feature","id":"w341306869","properties":{"type":"yes","address":"Dąbska 12","residential":true,"residents_est":2,"h3_10":"8a1e2e68412ffff","h3_11":"8b1e2e68412dfff"},"geometry":{"type":"Polygon","coordinates":[[[19.983291,50.067451],[19.983346,50.06735],[19.983447,50.067372],[19.98339,50.067475],[19.983291,50.067451]]]}},{"type":"Feature","id":"w341306871","properties":{"type":"apartments","levels":6.0,"address":"Dąbska 19","residential":true,"residents_est":101,"h3_10":"8a1e2e684177fff","h3_11":"8b1e2e684176fff"},"geometry":{"type":"Polygon","coordinates":[[[19.983881,50.066492],[19.98395,50.066482],[19.983956,50.066497],[19.983989,50.066508],[19.983998,50.066496],[19.984474,50.066654],[19.984146,50.067067],[19.984078,50.067051],[19.98403,50.066916],[19.984113,50.06681],[19.984146,50.066821],[19.984158,50.066805],[19.984125,50.066795],[19.984178,50.066728],[19.984192,50.066733],[19.984211,50.066708],[19.984169,50.066695],[19.984163,50.066704],[19.98408,50.066676],[19.984096,50.066656],[19.984072,50.066648],[19.984056,50.066668],[19.983929,50.066627],[19.983881,50.066492]]]}},{"type":"Feature","id":"w341306875","properties":{"type":"yes","address":"Dąbska 14","residential":true,"residents_est":1,"h3_10":"8a1e2e68412ffff","h3_11":"8b1e2e68412dfff"},"geometry":{"type":"Polygon","coordinates":[[[19.983532,50.067214],[19.98358,50.067126],[19.983681,50.067149],[19.983658,50.067193],[19.983635,50.067188],[19.983611,50.067232],[19.983532,50.067214]]]}},{"type":"Feature","id":"w341306881","properties":{"type":"yes","address":"Stanisława Jachowicza 1a","residential":true,"residents_est":1,"h3_10":"8a1e2e68419ffff","h3_11":"8b1e2e68419afff"},"geometry":{"type":"Polygon","coordinates":[[[19.979348,50.061997],[19.979365,50.061926],[19.979524,50.061936],[19.97951,50.062003],[19.979358,50.061992],[19.979348,50.061997]]]}},{"type":"Feature","id":"w341306883","properties":{"type":"detached","levels":1.0,"address":"Dąbska 14","residential":true,"residents_est":1,"h3_10":"8a1e2e68412ffff","h3_11":"8b1e2e68412dfff"},"geometry":{"type":"Polygon","coordinates":[[[19.983611,50.067232],[19.983635,50.067188],[19.983658,50.067193],[19.983681,50.067149],[19.983767,50.067169],[19.98372,50.067256],[19.983611,50.067232]]]}},{"type":"Feature","id":"w341327460","properties":{"type":"detached","residential":true,"residents_est":2,"h3_10":"8a1e2e68409ffff","h3_11":"8b1e2e68409afff"},"geometry":{"type":"Polygon","coordinates":[[[19.981441,50.059627],[19.981448,50.05959],[19.981516,50.059595],[19.981517,50.059587],[19.981588,50.059592],[19.98158,50.059632],[19.981597,50.059633],[19.981592,50.05967],[19.981445,50.059658],[19.98145,50.059628],[19.981441,50.059627]]]}},{"type":"Feature","id":"w341327466","properties":{"type":"yes","residential":true,"residents_est":2,"h3_10":"8a1e2e684077fff","h3_11":"8b1e2e684073fff"},"geometry":{"type":"Polygon","coordinates":[[[19.987827,50.063535],[19.987846,50.063513],[19.987832,50.063509],[19.987867,50.063488],[19.987832,50.063466],[19.987914,50.063413],[19.987994,50.063465],[19.987893,50.063583],[19.987886,50.06358],[19.987901,50.063563],[19.987827,50.063535]]]}},{"type":"Feature","id":"w341327484","properties":{"type":"yes","residential":true,"residents_est":2,"h3_10":"8a1e2e68409ffff","h3_11":"8b1e2e68409afff"},"geometry":{"type":"Polygon","coordinates":[[[19.981461,50.059421],[19.98148,50.059319],[19.981524,50.059322],[19.981528,50.059299],[19.981614,50.059304],[19.981606,50.059348],[19.981625,50.05935],[19.981615,50.0594],[19.981604,50.059399],[19.981596,50.05944],[19.981535,50.059435],[19.981536,50.059427],[19.981461,50.059421]]]}},{"type":"Feature","id":"w341327526","properties":{"type":"yes","residential":false,"residents_est":0,"h3_10":"8a1e2e684087fff","h3_11":"8b1e2e684082fff"},"geometry":{"type":"Polygon","coordinates":[[[19.981077,50.060745],[19.981083,50.060718],[19.981166,50.060725],[19.981159,50.060752],[19.981077,50.060745]]]}},{"type":"Feature","id":"w341327527","properties":{"type":"yes","residential":false,"residents_est":0,"h3_10":"8a1e2e684097fff","h3_11":"8b1e2e684091fff"},"geometry":{"type":"Polygon","coordinates":[[[19.981159,50.060371],[19.981172,50.060329],[19.981248,50.060335],[19.981237,50.060378],[19.981159,50.060371]]]}},{"type":"Feature","id":"w341327529","properties":{"type":"service","residential":false,"residents_est":0,"h3_10":"8a1e2e684097fff","h3_11":"8b1e2e684090fff"},"geometry":{"type":"Polygon","coordinates":[[[19.980105,50.06039],[19.980118,50.060347],[19.980185,50.060357],[19.980172,50.060401],[19.980105,50.06039]]]}},{"type":"Feature","id":"w341327588","properties":{"type":"yes","residential":false,"residents_est":0,"h3_10":"8a1e2e684097fff","h3_11":"8b1e2e684091fff"},"geometry":{"type":"Polygon","coordinates":[[[19.980917,50.060227],[19.980922,50.060203],[19.981016,50.060209],[19.981012,50.060234],[19.980917,50.060227]]]}},{"type":"Feature","id":"w341327605","properties":{"type":"yes","residential":false,"residents_est":0,"h3_10":"8a1e2e684097fff","h3_11":"8b1e2e684091fff"},"geometry":{"type":"Polygon","coordinates":[[[19.981011,50.060407],[19.981019,50.060364],[19.981097,50.060369],[19.981082,50.060436],[19.981026,50.060431],[19.98103,50.060409],[19.981011,50.060407]]]}},{"type":"Feature","id":"w341327614","properties":{"type":"yes","residential":true,"residents_est":1,"h3_10":"8a1e2e684097fff","h3_11":"8b1e2e684091fff"},"geometry":{"type":"Polygon","coordinates":[[[19.98082,50.060139],[19.980832,50.060079],[19.980941,50.060089],[19.980933,50.060148],[19.98082,50.060139]]]}},{"type":"Feature","id":"w341327625","properties":{"type":"yes","residential":false,"residents_est":0,"h3_10":"8a1e2e68409ffff","h3_11":"8b1e2e68409efff"},"geometry":{"type":"Polygon","coordinates":[[[19.981461,50.059836],[19.981473,50.059771],[19.981566,50.059779],[19.981557,50.059829],[19.981545,50.059828],[19.981533,50.059814],[19.981499,50.059812],[19.981481,50.059823],[19.981478,50.059838],[19.981461,50.059836]]]}},{"type":"Feature","id":"w451607242","properties":{"type":"yes","address":"Kosynierów 25","residential":true,"residents_est":2,"h3_10":"8a1e2e6841a7fff","h3_11":"8b1e2e6841a1fff"},"geometry":{"type":"Polygon","coordinates":[[[19.979142,50.064661],[19.979272,50.064542],[19.979393,50.064597],[19.97926,50.064716],[19.979142,50.064661]]]}},{"type":"Feature","id":"w451607243","properties":{"type":"yes","residential":true,"residents_est":3,"h3_10":"8a1e2e684017fff","h3_11":"8b1e2e684016fff"},"geometry":{"type":"Polygon","coordinates":[[[19.981642,50.062784],[19.982133,50.062649],[19.98216,50.062689],[19.981669,50.062824],[19.981642,50.062784]]]}},{"type":"Feature","id":"w451607244","properties":{"type":"yes","residential":true,"residents_est":2,"h3_10":"8a1e2e6841b7fff","h3_11":"8b1e2e6841b6fff"},"geometry":{"type":"Polygon","coordinates":[[[19.976584,50.063768],[19.976682,50.063684],[19.976779,50.06373],[19.97668,50.063814],[19.976584,50.063768]]]}},{"type":"Feature","id":"w451607245","properties":{"type":"yes","residential":true,"residents_est":1,"h3_10":"8a1e2e6841b7fff","h3_11":"8b1e2e6841b2fff"},"geometry":{"type":"Polygon","coordinates":[[[19.976682,50.063684],[19.976723,50.063648],[19.97682,50.063694],[19.976779,50.06373],[19.976682,50.063684]]]}},{"type":"Feature","id":"w451608345","properties":{"type":"retail","levels":1.0,"address":"Aleja Pokoju 46","name":"Decathlon","residential":false,"residents_est":0,"h3_10":"8a1e2e684147fff","h3_11":"8b1e2e684143fff"},"geometry":{"type":"Polygon","coordinates":[[[19.986333,50.065748],[19.987284,50.065555],[19.987329,50.065648],[19.987435,50.065627],[19.987575,50.065917],[19.986622,50.066105],[19.9865,50.065846],[19.986391,50.065866],[19.986333,50.065748]]]}},{"type":"Feature","id":"w483945020","properties":{"type":"apartments","levels":6.0,"address":"Dąbska 21","residential":true,"residents_est":67,"h3_10":"8a1e2e684177fff","h3_11":"8b1e2e684172fff"},"geometry":{"type":"Polygon","coordinates":[[[19.983863,50.066161],[19.984597,50.066155],[19.9846,50.066274],[19.984528,50.066275],[19.984528,50.066286],[19.984377,50.066287],[19.984377,50.066276],[19.984305,50.066277],[19.984306,50.066288],[19.984155,50.066289],[19.984155,50.066278],[19.984088,50.066279],[19.984088,50.066289],[19.983937,50.066291],[19.983937,50.06628],[19.983865,50.06628],[19.983863,50.066161]]]}},{"type":"Feature","id":"r18254685","properties":{"type":"apartments","levels":6.0,"address":"Dąbska 21A","residential":true,"residents_est":121,"h3_10":"8a1e2e684177fff","h3_11":"8b1e2e684173fff"},"geometry":{"type":"MultiPolygon","coordinates":[[[[19.984685,50.065934],[19.985484,50.065928],[19.985487,50.066047],[19.985413,50.066048],[19.985413,50.066059],[19.985337,50.06606],[19.985262,50.06606],[19.985262,50.066049],[19.985164,50.06605],[19.985164,50.066061],[19.985088,50.066062],[19.985013,50.066062],[19.985013,50.066051],[19.98491,50.066052],[19.98491,50.066063],[19.984759,50.066064],[19.984758,50.066053],[19.984687,50.066054],[19.984685,50.065934]]],[[[19.985568,50.065927],[19.98609,50.065923],[19.986092,50.066043],[19.98602,50.066043],[19.98602,50.066054],[19.98587,50.066055],[19.98587,50.066044],[19.985794,50.066045],[19.985794,50.066056],[19.985719,50.066057],[19.985643,50.066057],[19.985643,50.066046],[19.98557,50.066047],[19.985568,50.065927]]]]}},{"type":"Feature","id":"w487711324","properties":{"type":"apartments","levels":8.0,"address":"Dąbska 24","residential":true,"residents_est":158,"h3_10":"8a1e2e684167fff","h3_11":"8b1e2e684160fff"},"geometry":{"type":"Polygon","coordinates":[[[19.986173,50.067038],[19.986564,50.066886],[19.986661,50.066992],[19.986456,50.06707],[19.986648,50.067287],[19.986764,50.067253],[19.986872,50.067373],[19.986566,50.067488],[19.986173,50.067038]]]}},{"type":"Feature","id":"w490995294","properties":{"type":"yes","residential":true,"residents_est":11,"h3_10":"8a1e2e684127fff","h3_11":"8b1e2e684123fff"},"geometry":{"type":"Polygon","coordinates":[[[19.981235,50.067014],[19.981653,50.066539],[19.981718,50.066563],[19.98131,50.067039],[19.981235,50.067014]]]}},{"type":"Feature","id":"w533563663","properties":{"type":"apartments","address":"Dąbska 22A","residential":true,"residents_est":85,"h3_10":"8a1e2e684167fff","h3_11":"8b1e2e684166fff"},"geometry":{"type":"Polygon","coordinates":[[[19.985564,50.067171],[19.985759,50.067096],[19.986207,50.067605],[19.985915,50.067698],[19.98582,50.067579],[19.985915,50.067552],[19.98572,50.067333],[19.985564,50.067171]]]}},{"type":"Feature","id":"w542081664","properties":{"type":"apartments","levels":6.0,"address":"Dąbska 21B","residential":true,"residents_est":21,"h3_10":"8a1e2e684147fff","h3_11":"8b1e2e684146fff"},"geometry":{"type":"Polygon","coordinates":[[[19.986014,50.066351],[19.986042,50.066305],[19.98608,50.066221],[19.986282,50.066263],[19.986216,50.066392],[19.986014,50.066351]]]}},{"type":"Feature","id":"w583227593","properties":{"type":"apartments","levels":6.0,"address":"Dąbska 11A","residential":true,"residents_est":139,"h3_10":"8a1e2e684107fff","h3_11":"8b1e2e684101fff"},"geometry":{"type":"Polygon","coordinates":[[[19.981786,50.065987],[19.981804,50.065878],[19.981805,50.065895],[19.981868,50.065896],[19.981868,50.065886],[19.981957,50.065887],[19.981956,50.065882],[19.982225,50.065883],[19.982226,50.065854],[19.98236,50.065854],[19.982359,50.065906],[19.982334,50.065905],[19.982334,50.065979],[19.982391,50.06598],[19.982391,50.066015],[19.982759,50.066018],[19.98276,50.065994],[19.982797,50.065994],[19.982799,50.06589],[19.982773,50.06589],[19.982773,50.065827],[19.983004,50.065828],[19.983002,50.065868],[19.983022,50.065868],[19.983021,50.065918],[19.983046,50.06592],[19.983042,50.06603],[19.982997,50.066029],[19.982996,50.066083],[19.982975,50.066083],[19.982973,50.066173],[19.982839,50.066172],[19.982839,50.066163],[19.982776,50.066162],[19.982776,50.066134],[19.982704,50.066133],[19.982705,50.066106],[19.982503,50.066104],[19.982502,50.066131],[19.982384,50.06613],[19.982385,50.066082],[19.982348,50.066082],[19.982348,50.066051],[19.982324,50.066051],[19.982323,50.066032],[19.982274,50.066032],[19.982274,50.066023],[19.982206,50.066022],[19.982207,50.065999],[19.982079,50.065997],[19.98208,50.065971],[19.981964,50.065969],[19.981963,50.066001],[19.981851,50.066],[19.981851,50.066016],[19.981797,50.066016],[19.981796,50.06603],[19.981786,50.065987]]]}},{"type":"Feature","id":"w595925691","properties":{"type":"yes","address":"Nizinna 7","residential":true,"residents_est":2,"h3_10":"8a1e2e6841b7fff","h3_11":"8b1e2e6841b1fff"},"geometry":{"type":"Polygon","coordinates":[[[19.978071,50.063948],[19.978136,50.063889],[19.978163,50.0639],[19.978218,50.063851],[19.978312,50.063897],[19.978193,50.064001],[19.978071,50.063948]]]}},{"type":"Feature","id":"w596643297","properties":{"type":"yes","address":"Zwycięstwa 10a","residential":true,"residents_est":1,"h3_10":"8a1e2e684197fff","h3_11":"8b1e2e684190fff"},"geometry":{"type":"Polygon","coordinates":[[[19.977393,50.062836],[19.977463,50.062742],[19.977552,50.06277],[19.97748,50.062863],[19.977393,50.062836]]]}},{"type":"Feature","id":"w610899523","properties":{"type":"garages","residential":false,"residents_est":0,"h3_10":"8a1e2e684097fff","h3_11":"8b1e2e684096fff"},"geometry":{"type":"Polygon","coordinates":[[[19.97959,50.060138],[19.9796,50.060087],[19.979701,50.060095],[19.979691,50.060146],[19.97959,50.060138]]]}},{"type":"Feature","id":"w695495715","properties":{"type":"apartments","levels":11.0,"address":"Półkole 9","residential":true,"residents_est":46,"h3_10":"8a1e2e684087fff","h3_11":"8b1e2e684083fff"},"geometry":{"type":"Polygon","coordinates":[[[19.982052,50.060857],[19.982092,50.060759],[19.982085,50.060758],[19.982101,50.060708],[19.982186,50.060719],[19.982183,50.060727],[19.982247,50.060735],[19.98225,50.060728],[19.982333,50.06074],[19.982316,50.060794],[19.982304,50.060792],[19.982292,50.060833],[19.982302,50.060835],[19.982284,50.060889],[19.9822,50.060877],[19.982203,50.06087],[19.982139,50.060862],[19.982137,50.060869],[19.982052,50.060857]]]}},{"type":"Feature","id":"w695495716","properties":{"type":"yes","residential":true,"residents_est":2,"h3_10":"8a1e2e68411ffff","h3_11":"8b1e2e684119fff"},"geometry":{"type":"Polygon","coordinates":[[[19.982405,50.065078],[19.982463,50.065071],[19.982488,50.065159],[19.982429,50.065165],[19.982405,50.065078]]]}},{"type":"Feature","id":"w848814747","properties":{"type":"apartments","levels":4.0,"address":"Dąbska 11","residential":true,"residents_est":15,"h3_10":"8a1e2e684107fff","h3_11":"8b1e2e684100fff"},"geometry":{"type":"Polygon","coordinates":[[[19.981516,50.065914],[19.981537,50.065901],[19.981804,50.065878],[19.981786,50.065987],[19.981792,50.066029],[19.981696,50.06603],[19.981692,50.066007],[19.981641,50.066013],[19.981551,50.065959],[19.981518,50.065925],[19.981516,50.065914]]]}},{"type":"Feature","id":"w961008845","properties":{"type":"apartments","address":"Świtezianki 2","residential":true,"residents_est":60,"h3_10":"8a1e2e6840a7fff","h3_11":"8b1e2e6840a6fff"},"geometry":{"type":"Polygon","coordinates":[[[19.980568,50.062225],[19.980597,50.062073],[19.980649,50.062071],[19.980659,50.062041],[19.980606,50.062035],[19.980636,50.061866],[19.980653,50.061839],[19.980691,50.061837],[19.980934,50.061951],[19.980904,50.062123],[19.980919,50.062127],[19.980916,50.062143],[19.980812,50.062201],[19.980747,50.062193],[19.980656,50.062234],[19.980568,50.062225]]]}},{"type":"Feature","id":"w1038785907","properties":{"type":"garage","levels":1.0,"residential":false,"residents_est":0,"h3_10":"8a1e2e684017fff","h3_11":"8b1e2e684016fff"},"geometry":{"type":"Polygon","coordinates":[[[19.982184,50.062747],[19.982222,50.062735],[19.982209,50.062716],[19.98225,50.062703],[19.982238,50.062687],[19.982276,50.062675],[19.982337,50.06276],[19.982222,50.062799],[19.982184,50.062747]]]}},{"type":"Feature","id":"w1038785908","properties":{"type":"garage","levels":1.0,"residential":false,"residents_est":0,"h3_10":"8a1e2e684017fff","h3_11":"8b1e2e684012fff"},"geometry":{"type":"Polygon","coordinates":[[[19.982137,50.062535],[19.98222,50.062503],[19.982317,50.062587],[19.982259,50.062613],[19.982184,50.062545],[19.982137,50.062535]]]}},{"type":"Feature","id":"w1038785909","properties":{"type":"garage","levels":1.0,"residential":false,"residents_est":0,"h3_10":"8a1e2e6840a7fff","h3_11":"8b1e2e6840a5fff"},"geometry":{"type":"Polygon","coordinates":[[[19.981566,50.062676],[19.981642,50.06265],[19.981652,50.062663],[19.982161,50.062468],[19.98222,50.062503],[19.981687,50.062702],[19.981677,50.06269],[19.981597,50.062716],[19.981566,50.062676]]]}},{"type":"Feature","id":"w1038785913","properties":{"type":"garage","levels":1.0,"residential":false,"residents_est":0,"h3_10":"8a1e2e684017fff","h3_11":"8b1e2e684016fff"},"geometry":{"type":"Polygon","coordinates":[[[19.98172,50.062881],[19.982028,50.062793],[19.982062,50.062842],[19.981754,50.062931],[19.98172,50.062881]]]}},{"type":"Feature","id":"w1038785914","properties":{"type":"outbuilding","levels":1.0,"residential":false,"residents_est":0,"h3_10":"8a1e2e68409ffff","h3_11":"8b1e2e68409cfff"},"geometry":{"type":"Polygon","coordinates":[[[19.981369,50.060377],[19.981376,50.060347],[19.981486,50.060358],[19.981479,50.060387],[19.981369,50.060377]]]}},{"type":"Feature","id":"w1038785916","properties":{"type":"garage","levels":1.0,"residential":false,"residents_est":0,"h3_10":"8a1e2e684137fff","h3_11":"8b1e2e684133fff"},"geometry":{"type":"Polygon","coordinates":[[[19.980002,50.066085],[19.980043,50.066043],[19.980144,50.066085],[19.980102,50.066126],[19.980002,50.066085]]]}},{"type":"Feature","id":"w1038785922","properties":{"type":"garage","levels":1.0,"residential":false,"residents_est":0,"h3_10":"8a1e2e684127fff","h3_11":"8b1e2e684123fff"},"geometry":{"type":"Polygon","coordinates":[[[19.981421,50.067043],[19.981675,50.066758],[19.981744,50.066784],[19.98149,50.067069],[19.981421,50.067043]]]}},{"type":"Feature","id":"w1038785928","properties":{"type":"garage","levels":1.0,"residential":false,"residents_est":0,"h3_10":"8a1e2e6841a7fff","h3_11":"8b1e2e6841a1fff"},"geometry":{"type":"Polygon","coordinates":[[[19.979272,50.064542],[19.979315,50.064504],[19.979449,50.064562],[19.979405,50.064603],[19.979272,50.064542]]]}},{"type":"Feature","id":"w1038785939","properties":{"type":"garage","levels":1.0,"residential":false,"residents_est":0,"h3_10":"8a1e2e684127fff","h3_11":"8b1e2e684123fff"},"geometry":{"type":"Polygon","coordinates":[[[19.981644,50.066913],[19.981775,50.066769],[19.981896,50.066817],[19.981769,50.066959],[19.981644,50.066913]]]}},{"type":"Feature","id":"w1038785940","properties":{"type":"garage","levels":1.0,"residential":false,"residents_est":0,"h3_10":"8a1e2e684127fff","h3_11":"8b1e2e684123fff"},"geometry":{"type":"Polygon","coordinates":[[[19.981457,50.067122],[19.981644,50.066913],[19.981708,50.066937],[19.981521,50.067147],[19.981457,50.067122]]]}},{"type":"Feature","id":"w1038785941","properties":{"type":"outbuilding","levels":1.0,"residential":false,"residents_est":0,"h3_10":"8a1e2e6841affff","h3_11":"8b1e2e6841aefff"},"geometry":{"type":"Polygon","coordinates":[[[19.979447,50.064248],[19.979532,50.064175],[19.979664,50.064237],[19.979634,50.064299],[19.979548,50.064274],[19.979533,50.064288],[19.979447,50.064248]]]}},{"type":"Feature","id":"w1038785942","properties":{"type":"service","levels":1.0,"residential":false,"residents_est":0,"h3_10":"8a1e2e68412ffff","h3_11":"8b1e2e68412efff"},"geometry":{"type":"Polygon","coordinates":[[[19.98229,50.06681],[19.982311,50.066788],[19.982405,50.066824],[19.982384,50.066847],[19.98229,50.06681]]]}},{"type":"Feature","id":"w1038786167","properties":{"type":"garage","levels":1.0,"residential":false,"residents_est":0,"h3_10":"8a1e2e68418ffff","h3_11":"8b1e2e68418bfff"},"geometry":{"type":"Polygon","coordinates":[[[19.981319,50.062765],[19.981356,50.062753],[19.981353,50.062746],[19.981486,50.062702],[19.98149,50.062706],[19.981567,50.062682],[19.9816,50.062725],[19.981429,50.06278],[19.981436,50.062789],[19.981397,50.062802],[19.981389,50.062792],[19.981351,50.062805],[19.981319,50.062765]]]}},{"type":"Feature","id":"w1038786168","properties":{"type":"garage","levels":1.0,"residential":false,"residents_est":0,"h3_10":"8a1e2e684017fff","h3_11":"8b1e2e684016fff"},"geometry":{"type":"Polygon","coordinates":[[[19.982086,50.062774],[19.982184,50.062747],[19.982219,50.062796],[19.982125,50.062827],[19.982086,50.062774]]]}},{"type":"Feature","id":"w1038786236","properties":{"type":"garage","levels":1.0,"residential":false,"residents_est":0,"h3_10":"8a1e2e684017fff","h3_11":"8b1e2e684012fff"},"geometry":{"type":"Polygon","coordinates":[[[19.982298,50.062671],[19.982417,50.062643],[19.982448,50.062692],[19.982397,50.062705],[19.982418,50.062739],[19.98235,50.062756],[19.982298,50.062671]]]}},{"type":"Feature","id":"w1038786250","properties":{"type":"outbuilding","levels":1.0,"residential":false,"residents_est":0,"h3_10":"8a1e2e6840e7fff","h3_11":"8b1e2e6840e2fff"},"geometry":{"type":"Polygon","coordinates":[[[19.985733,50.061943],[19.985835,50.061911],[19.985882,50.061972],[19.98578,50.062004],[19.985733,50.061943]]]}},{"type":"Feature","id":"w1038786251","properties":{"type":"outbuilding","levels":1.0,"residential":false,"residents_est":0,"h3_10":"8a1e2e68405ffff","h3_11":"8b1e2e68405bfff"},"geometry":{"type":"Polygon","coordinates":[[[19.98971,50.061968],[19.989739,50.061922],[19.989853,50.061953],[19.989824,50.061999],[19.98971,50.061968]]]}},{"type":"Feature","id":"w1038786252","properties":{"type":"outbuilding","levels":1.0,"residential":false,"residents_est":0,"h3_10":"8a1e2e684057fff","h3_11":"8b1e2e684051fff"},"geometry":{"type":"Polygon","coordinates":[[[19.988256,50.062914],[19.988277,50.062905],[19.988256,50.062884],[19.988317,50.062859],[19.988394,50.062935],[19.988305,50.062972],[19.988256,50.062914]]]}},{"type":"Feature","id":"w1228927560","properties":{"type":"kindergarten","levels":2.0,"address":"Świtezianki 7","residential":false,"residents_est":0,"h3_10":"8a1e2e68419ffff","h3_11":"8b1e2e68419afff"},"geometry":{"type":"Polygon","coordinates":[[[19.978598,50.062151],[19.978615,50.062045],[19.978863,50.062062],[19.978855,50.062113],[19.978934,50.062119],[19.978903,50.062306],[19.979082,50.062319],[19.979085,50.0623],[19.979178,50.062307],[19.979156,50.062433],[19.978885,50.062414],[19.978874,50.062479],[19.97871,50.062468],[19.97876,50.062162],[19.978598,50.062151]]]}},{"type":"Feature","id":"w1228929661","properties":{"type":"school","address":"Półkole 11","residential":false,"residents_est":0,"h3_10":"8a1e2e68409ffff","h3_11":"8b1e2e68409dfff"},"geometry":{"type":"Polygon","coordinates":[[[19.981857,50.06],[19.982368,50.059989],[19.982368,50.059997],[19.982443,50.059996],[19.982443,50.059987],[19.982661,50.059983],[19.982668,50.060096],[19.982471,50.0601],[19.982473,50.060174],[19.982514,50.060174],[19.982522,50.060398],[19.982307,50.060401],[19.982306,50.060353],[19.982275,50.060353],[19.98227,50.060186],[19.982389,50.060184],[19.982387,50.060101],[19.981863,50.060113],[19.981857,50.06]]]}},{"type":"Feature","id":"w1294955866","properties":{"type":"service","residential":false,"residents_est":0,"h3_10":"8a1e2e68406ffff","h3_11":"8b1e2e68406dfff"},"geometry":{"type":"Polygon","coordinates":[[[19.990895,50.064893],[19.990914,50.064849],[19.99098,50.06486],[19.990962,50.064905],[19.990895,50.064893]]]}},{"type":"Feature","id":"w1294955867","properties":{"type":"service","residential":false,"residents_est":0,"h3_10":"8a1e2e684167fff","h3_11":"8b1e2e684162fff"},"geometry":{"type":"Polygon","coordinates":[[[19.985936,50.06702],[19.985969,50.067009],[19.986006,50.067056],[19.985973,50.067067],[19.985936,50.06702]]]}},{"type":"Feature","id":"w1294955868","properties":{"type":"service","residential":false,"residents_est":0,"h3_10":"8a1e2e684177fff","h3_11":"8b1e2e684170fff"},"geometry":{"type":"Polygon","coordinates":[[[19.984596,50.066464],[19.984672,50.066464],[19.984673,50.066514],[19.984597,50.066514],[19.984596,50.066464]]]}},{"type":"Feature","id":"w1295054288","properties":{"type":"service","residential":false,"residents_est":0,"h3_10":"8a1e2e684087fff","h3_11":"8b1e2e684083fff"},"geometry":{"type":"Polygon","coordinates":[[[19.981836,50.060638],[19.981851,50.060594],[19.981923,50.060604],[19.981908,50.060648],[19.981836,50.060638]]]}},{"type":"Feature","id":"w1342202614","properties":{"type":"yes","address":"Nizinna 3","residential":true,"residents_est":2,"h3_10":"8a1e2e684187fff","h3_11":"8b1e2e684186fff"},"geometry":{"type":"Polygon","coordinates":[[[19.978487,50.063757],[19.978611,50.063657],[19.978716,50.063692],[19.978581,50.063804],[19.978487,50.063757]]]}},{"type":"Feature","id":"w1470874350","properties":{"type":"yes","address":"Dąbska 21C","residential":true,"residents_est":57,"h3_10":"8a1e2e684157fff","h3_11":"8b1e2e684154fff"},"geometry":{"type":"Polygon","coordinates":[[[19.984092,50.065751],[19.984129,50.065743],[19.984123,50.065731],[19.984195,50.065717],[19.984201,50.065729],[19.984231,50.065723],[19.984226,50.065713],[19.984302,50.065698],[19.984308,50.065712],[19.984337,50.065706],[19.984332,50.065694],[19.984406,50.06568],[19.984412,50.065693],[19.984468,50.065682],[19.984479,50.065705],[19.984812,50.06564],[19.984803,50.065621],[19.984898,50.065603],[19.984892,50.06559],[19.985047,50.06556],[19.985053,50.065575],[19.985143,50.065557],[19.985155,50.065582],[19.985489,50.065519],[19.985476,50.065488],[19.985755,50.065496],[19.985861,50.065636],[19.98584,50.065645],[19.985851,50.065659],[19.985876,50.06565],[19.9859,50.06568],[19.985875,50.06569],[19.985902,50.065721],[19.985752,50.06577],[19.985613,50.065595],[19.985532,50.065609],[19.985537,50.06562],[19.985482,50.065631],[19.985485,50.065637],[19.985407,50.065652],[19.985413,50.065664],[19.985201,50.065706],[19.985179,50.065659],[19.985103,50.065674],[19.985109,50.065686],[19.984856,50.065736],[19.98486,50.065743],[19.984801,50.065755],[19.984804,50.065762],[19.98473,50.065777],[19.984735,50.065787],[19.984523,50.065828],[19.984502,50.065784],[19.984428,50.065798],[19.984433,50.065809],[19.984231,50.065847],[19.984117,50.065801],[19.984092,50.065751]]]}},{"type":"Feature","id":"w1495795572","properties":{"type":"yes","residential":true,"residents_est":1,"h3_10":"8a1e2e6841a7fff","h3_11":"8b1e2e6841a0fff"},"geometry":{"type":"Polygon","coordinates":[[[19.979026,50.064607],[19.979067,50.064574],[19.979179,50.064627],[19.979142,50.064661],[19.979026,50.064607]]]}},{"type":"Feature","id":"w1495795573","properties":{"type":"yes","address":"Kosynierów 23","residential":true,"residents_est":2,"h3_10":"8a1e2e6841a7fff","h3_11":"8b1e2e6841a1fff"},"geometry":{"type":"Polygon","coordinates":[[[19.979052,50.064739],[19.979142,50.064661],[19.979317,50.064743],[19.979252,50.064774],[19.979217,50.064761],[19.979205,50.064768],[19.979134,50.064736],[19.979102,50.064763],[19.979052,50.064739]]]}}]}