{"type":"FeatureCollection","features":[{"type":"Feature","id":"w232081383","properties":{"type":"yes","address":"Głogowiec 97","residential":true,"residents_est":4,"h3_10":"8a1e05b6a26ffff","h3_11":"8b1e05b6a26afff"},"geometry":{"type":"Polygon","coordinates":[[[19.828257,50.060719],[19.828263,50.060649],[19.828464,50.060656],[19.828459,50.060723],[19.828464,50.060723],[19.828448,50.060837],[19.828338,50.060833],[19.828342,50.060783],[19.828321,50.060782],[19.828326,50.060722],[19.828257,50.060719]]]}},{"type":"Feature","id":"w232081680","properties":{"type":"yes","address":"Głogowiec 103","residential":true,"residents_est":3,"h3_10":"8a1e05b6a26ffff","h3_11":"8b1e05b6a26dfff"},"geometry":{"type":"Polygon","coordinates":[[[19.829004,50.061389],[19.829014,50.061301],[19.829055,50.061302],[19.829059,50.061267],[19.829163,50.061272],[19.829161,50.061302],[19.829145,50.061309],[19.829143,50.061327],[19.829156,50.061336],[19.829149,50.061396],[19.829114,50.061395],[19.829112,50.061418],[19.829036,50.061414],[19.829039,50.06139],[19.829004,50.061389]]]}},{"type":"Feature","id":"w232081706","properties":{"type":"yes","address":"Rzepichy 40","residential":true,"residents_est":2,"h3_10":"8a1e05b6a24ffff","h3_11":"8b1e05b6a24afff"},"geometry":{"type":"Polygon","coordinates":[[[19.828729,50.059504],[19.828744,50.059503],[19.828754,50.059493],[19.828791,50.059498],[19.828861,50.059492],[19.82888,50.059577],[19.828863,50.059579],[19.82887,50.05961],[19.828772,50.059619],[19.828765,50.059588],[19.828747,50.059589],[19.828729,50.059504]]]}},{"type":"Feature","id":"w232081721","properties":{"type":"yes","address":"Głogowiec 101","residential":true,"residents_est":3,"h3_10":"8a1e05b6a26ffff","h3_11":"8b1e05b6a268fff"},"geometry":{"type":"Polygon","coordinates":[[[19.829035,50.060983],[19.829043,50.060906],[19.829054,50.060907],[19.82906,50.060856],[19.829193,50.060862],[19.829187,50.060989],[19.829149,50.060987],[19.829147,50.061006],[19.829046,50.061001],[19.829048,50.060983],[19.829035,50.060983]]]}},{"type":"Feature","id":"w232081760","properties":{"type":"detached","address":"Rzepichy 33c","residential":true,"residents_est":9,"h3_10":"8a1e05b6a24ffff","h3_11":"8b1e05b6a24bfff"},"geometry":{"type":"Polygon","coordinates":[[[19.829724,50.059422],[19.829833,50.059393],[19.829846,50.059411],[19.829959,50.05938],[19.829949,50.059365],[19.829994,50.059353],[19.830004,50.059369],[19.830078,50.05935],[19.830123,50.059427],[19.829984,50.059467],[19.82998,50.059463],[19.829912,50.05948],[19.829904,50.059467],[19.829838,50.059484],[19.829787,50.059466],[19.829724,50.059422]]]}},{"type":"Feature","id":"w232083193","properties":{"type":"yes","residential":true,"residents_est":1,"h3_10":"8a1e05b6a26ffff","h3_11":"8b1e05b6a268fff"},"geometry":{"type":"Polygon","coordinates":[[[19.829035,50.061145],[19.82904,50.061083],[19.829174,50.061088],[19.829169,50.06115],[19.829035,50.061145]]]}},{"type":"Feature","id":"w232083248","properties":{"type":"yes","residential":false,"residents_est":0,"h3_10":"8a1e05b6a25ffff","h3_11":"8b1e05b6a25bfff"},"geometry":{"type":"Polygon","coordinates":[[[19.828153,50.058609],[19.828281,50.058584],[19.828292,50.058607],[19.828272,50.058611],[19.828279,50.058624],[19.828177,50.058642],[19.828153,50.058609]]]}},{"type":"Feature","id":"w232083671","properties":{"type":"yes","address":"Rzepichy 36","residential":true,"residents_est":2,"h3_10":"8a1e05b6a24ffff","h3_11":"8b1e05b6a248fff"},"geometry":{"type":"Polygon","coordinates":[[[19.829379,50.059872],[19.829413,50.05987],[19.829422,50.059875],[19.829571,50.059864],[19.829594,50.059977],[19.829514,50.059983],[19.829505,50.059939],[19.829435,50.059944],[19.829431,50.059926],[19.829389,50.059926],[19.829379,50.059872]]]}},{"type":"Feature","id":"w232084337","properties":{"type":"house","address":"Rzepichy 40b","residential":true,"residents_est":3,"h3_10":"8a1e05b6a24ffff","h3_11":"8b1e05b6a24afff"},"geometry":{"type":"Polygon","coordinates":[[[19.829152,50.059438],[19.829319,50.059423],[19.829327,50.059458],[19.829302,50.05946],[19.82931,50.059492],[19.829168,50.059506],[19.829152,50.059438]]]}},{"type":"Feature","id":"w232084544","properties":{"type":"house","address":"Rzepichy 40a","residential":true,"residents_est":3,"h3_10":"8a1e05b6a24ffff","h3_11":"8b1e05b6a24afff"},"geometry":{"type":"Polygon","coordinates":[[[19.829168,50.059506],[19.82931,50.059492],[19.829317,50.059523],[19.829342,50.059521],[19.82935,50.059557],[19.829183,50.059573],[19.829168,50.059506]]]}},{"type":"Feature","id":"w232084742","properties":{"type":"yes","address":"Głogowiec 78","residential":true,"residents_est":3,"h3_10":"8a1e05b6a24ffff","h3_11":"8b1e05b6a24dfff"},"geometry":{"type":"Polygon","coordinates":[[[19.829245,50.06026],[19.829398,50.060256],[19.829404,50.060357],[19.829343,50.060358],[19.829344,50.060375],[19.829306,50.060376],[19.829305,50.060359],[19.829251,50.060361],[19.829245,50.06026]]]}},{"type":"Feature","id":"w232084771","properties":{"type":"yes","address":"Głogowiec 76","residential":true,"residents_est":4,"h3_10":"8a1e05b6a24ffff","h3_11":"8b1e05b6a24efff"},"geometry":{"type":"Polygon","coordinates":[[[19.828409,50.059913],[19.828499,50.059911],[19.828502,50.059974],[19.828669,50.05997],[19.828673,50.060046],[19.828416,50.060051],[19.828409,50.059913]]]}},{"type":"Feature","id":"w385302157","properties":{"type":"house","address":"Głogowiec 80","residential":true,"residents_est":6,"h3_10":"8a1e05b6a24ffff","h3_11":"8b1e05b6a24dfff"},"geometry":{"type":"Polygon","coordinates":[[[19.829534,50.060311],[19.829674,50.060292],[19.829687,50.060331],[19.829701,50.060337],[19.829706,50.060352],[19.829696,50.060362],[19.829709,50.060401],[19.829641,50.06041],[19.829652,50.060447],[19.829562,50.060459],[19.829539,50.060384],[19.829556,50.060381],[19.829534,50.060311]]]}},{"type":"Feature","id":"w663807568","properties":{"type":"house","address":"Głogowiec 74","residential":true,"residents_est":6,"h3_10":"8a1e05b6a247fff","h3_11":"8b1e05b6a243fff"},"geometry":{"type":"Polygon","coordinates":[[[19.827834,50.059785],[19.827871,50.059701],[19.828089,50.059696],[19.828051,50.05978],[19.828038,50.059781],[19.828039,50.0598],[19.827944,50.059801],[19.827942,50.059783],[19.827834,50.059785]]]}},{"type":"Feature","id":"w663807574","properties":{"type":"house","address":"Głogowiec 99d","residential":true,"residents_est":6,"h3_10":"8a1e05b6a26ffff","h3_11":"8b1e05b6a268fff"},"geometry":{"type":"Polygon","coordinates":[[[19.82855,50.061062],[19.82857,50.060921],[19.82873,50.06093],[19.82871,50.061068],[19.82855,50.061062]]]}},{"type":"Feature","id":"w663807576","properties":{"type":"house","address":"Głogowiec 99c","residential":true,"residents_est":6,"h3_10":"8a1e05b6a26ffff","h3_11":"8b1e05b6a268fff"},"geometry":{"type":"Polygon","coordinates":[[[19.82871,50.061068],[19.82873,50.06093],[19.82889,50.060939],[19.828871,50.06108],[19.82871,50.061068]]]}},{"type":"Feature","id":"w717877789","properties":{"type":"yes","residential":false,"residents_est":0,"h3_10":"8a1e05b6a24ffff","h3_11":"8b1e05b6a24cfff"},"geometry":{"type":"Polygon","coordinates":[[[19.82885,50.060227],[19.828852,50.060181],[19.828923,50.060182],[19.828921,50.060229],[19.82885,50.060227]]]}},{"type":"Feature","id":"w717877790","properties":{"type":"house","address":"Rzepichy 32A","residential":true,"residents_est":5,"h3_10":"8a1e05b6a26ffff","h3_11":"8b1e05b6a269fff"},"geometry":{"type":"Polygon","coordinates":[[[19.829847,50.061071],[19.82986,50.061016],[19.82985,50.061015],[19.829873,50.060924],[19.829997,50.060937],[19.829975,50.061028],[19.829964,50.061027],[19.82995,50.061082],[19.829847,50.061071]]]}},{"type":"Feature","id":"w717877791","properties":{"type":"yes","residential":false,"residents_est":0,"h3_10":"8a1e05b6a26ffff","h3_11":"8b1e05b6a26efff"},"geometry":{"type":"Polygon","coordinates":[[[19.828338,50.060964],[19.828344,50.06093],[19.828453,50.060938],[19.828449,50.06097],[19.828338,50.060964]]]}},{"type":"Feature","id":"w894256180","properties":{"type":"farm_auxiliary","levels":1.0,"residential":false,"residents_est":0,"h3_10":"8a1e05b6a24ffff","h3_11":"8b1e05b6a24cfff"},"geometry":{"type":"Polygon","coordinates":[[[19.828934,50.060241],[19.828937,50.060183],[19.829024,50.060184],[19.829022,50.060243],[19.828934,50.060241]]]}},{"type":"Feature","id":"w894268016","properties":{"type":"yes","address":"Głogowiec 99F","residential":true,"residents_est":2,"h3_10":"8a1e05b6a26ffff","h3_11":"8b1e05b6a26cfff"},"geometry":{"type":"Polygon","coordinates":[[[19.828514,50.061448],[19.828526,50.061357],[19.82867,50.061365],[19.828658,50.061456],[19.828514,50.061448]]]}},{"type":"Feature","id":"w894268017","properties":{"type":"yes","address":"Głogowiec 99E","residential":true,"residents_est":2,"h3_10":"8a1e05b6a26ffff","h3_11":"8b1e05b6a26cfff"},"geometry":{"type":"Polygon","coordinates":[[[19.828658,50.061456],[19.82867,50.061365],[19.828813,50.061373],[19.828802,50.061464],[19.828658,50.061456]]]}},{"type":"Feature","id":"w894268018","properties":{"type":"yes","address":"Głogowiec 95A","residential":true,"residents_est":4,"h3_10":"8a1e05b6a247fff","h3_11":"8b1e05b6a240fff"},"geometry":{"type":"Polygon","coordinates":[[[19.827655,50.060267],[19.827672,50.060087],[19.827805,50.060093],[19.827787,50.060272],[19.827655,50.060267]]]}},{"type":"Feature","id":"w894268019","properties":{"type":"yes","address":"Głogowiec 95B","residential":true,"residents_est":4,"h3_10":"8a1e05b6a247fff","h3_11":"8b1e05b6a245fff"},"geometry":{"type":"Polygon","coordinates":[[[19.827602,50.060853],[19.827621,50.060674],[19.827753,50.06068],[19.827735,50.060859],[19.827602,50.060853]]]}},{"type":"Feature","id":"w894268020","properties":{"type":"yes","address":"Głogowiec 95C","residential":true,"residents_est":4,"h3_10":"8a1e05b6a267fff","h3_11":"8b1e05b6a261fff"},"geometry":{"type":"Polygon","coordinates":[[[19.827548,50.061524],[19.827579,50.061255],[19.827686,50.06126],[19.827654,50.061529],[19.827548,50.061524]]]}},{"type":"Feature","id":"w894268021","properties":{"type":"yes","address":"Głogowiec 95D","residential":true,"residents_est":4,"h3_10":"8a1e05b6a267fff","h3_11":"8b1e05b6a265fff"},"geometry":{"type":"Polygon","coordinates":[[[19.827488,50.062024],[19.82752,50.061755],[19.827626,50.061761],[19.827595,50.062029],[19.827488,50.062024]]]}},{"type":"Feature","id":"w1013464863","properties":{"type":"construction","address":"Głogowiec 95E","residential":false,"residents_est":0,"h3_10":"8a1e05b6a247fff","h3_11":"8b1e05b6a241fff"},"geometry":{"type":"Polygon","coordinates":[[[19.828011,50.060454],[19.828018,50.060364],[19.828135,50.060368],[19.828126,50.060476],[19.828035,50.060473],[19.828036,50.060454],[19.828011,50.060454]]]}},{"type":"Feature","id":"w1167077361","properties":{"type":"yes","address":"Zakamycze 78A","residential":true,"residents_est":1,"h3_10":"8a1e05b6a2cffff","h3_11":"8b1e05b6a2cbfff"},"geometry":{"type":"Polygon","coordinates":[[[19.827279,50.056906],[19.827318,50.056821],[19.827431,50.056842],[19.827392,50.056928],[19.827279,50.056906]]]}},{"type":"Feature","id":"w1167077362","properties":{"type":"construction","address":"Zakamycze 78B","residential":false,"residents_est":0,"h3_10":"8a1e05b6a2cffff","h3_11":"8b1e05b6a2cbfff"},"geometry":{"type":"Polygon","coordinates":[[[19.827166,50.057153],[19.827205,50.057067],[19.827318,50.057088],[19.82728,50.057174],[19.827166,50.057153]]]}},{"type":"Feature","id":"w1167077363","properties":{"type":"construction","address":"Zakamycze 78C","residential":false,"residents_est":0,"h3_10":"8a1e05b6a2cffff","h3_11":"8b1e05b6a2c9fff"},"geometry":{"type":"Polygon","coordinates":[[[19.827062,50.057392],[19.827101,50.057306],[19.827214,50.057328],[19.827175,50.057413],[19.827062,50.057392]]]}},{"type":"Feature","id":"w1206161426","properties":{"type":"yes","residential":true,"residents_est":3,"h3_10":"8a1e05b6a25ffff","h3_11":"8b1e05b6a25cfff"},"geometry":{"type":"Polygon","coordinates":[[[19.827537,50.05961],[19.827594,50.059514],[19.827652,50.059528],[19.827636,50.059556],[19.827736,50.059581],[19.827663,50.059704],[19.827579,50.059683],[19.827612,50.059628],[19.827537,50.05961]]]}},{"type":"Feature","id":"w1352937210","properties":{"type":"yes","address":"Głogowiec 21D","residential":true,"residents_est":2,"h3_10":"8a1e05b6a34ffff","h3_11":"8b1e05b6a34dfff"},"geometry":{"type":"Polygon","coordinates":[[[19.827056,50.062787],[19.827096,50.062637],[19.827178,50.062646],[19.827138,50.062796],[19.827056,50.062787]]]}},{"type":"Feature","id":"w1352937211","properties":{"type":"yes","address":"Głogowiec 21C","residential":true,"residents_est":2,"h3_10":"8a1e05b6a36ffff","h3_11":"8b1e05b6a36bfff"},"geometry":{"type":"Polygon","coordinates":[[[19.826938,50.063294],[19.826977,50.06314],[19.827063,50.063149],[19.827024,50.063303],[19.826938,50.063294]]]}}]}