{"type":"FeatureCollection","features":[{"type":"Feature","id":"w54531843","properties":{"type":"industrial","name":"Cegielnia Zesławice","residential":false,"residents_est":0,"h3_10":"8a1e2e6126dffff","h3_11":"8b1e2e6126dcfff"},"geometry":{"type":"Polygon","coordinates":[[[20.041545,50.106924],[20.041574,50.106917],[20.041549,50.106875],[20.041604,50.106862],[20.041559,50.106787],[20.041668,50.10676],[20.041867,50.107095],[20.042164,50.107022],[20.04216,50.107014],[20.042319,50.106974],[20.042226,50.106822],[20.042087,50.10683],[20.042024,50.106822],[20.041942,50.106801],[20.041891,50.10678],[20.041813,50.106734],[20.041757,50.106678],[20.041727,50.106602],[20.041729,50.106541],[20.041751,50.106482],[20.041798,50.106425],[20.041839,50.106395],[20.041904,50.106359],[20.04198,50.106334],[20.042071,50.106319],[20.042155,50.106319],[20.042257,50.106332],[20.042339,50.106357],[20.042398,50.106387],[20.042479,50.106454],[20.042518,50.106527],[20.04252,50.10661],[20.042506,50.106647],[20.04247,50.106701],[20.042396,50.106763],[20.042309,50.106801],[20.042402,50.106954],[20.042864,50.106845],[20.042763,50.106675],[20.04288,50.106646],[20.043011,50.106868],[20.042981,50.106875],[20.042987,50.106885],[20.043017,50.106878],[20.043021,50.106885],[20.04299,50.106893],[20.043021,50.106946],[20.043052,50.106938],[20.043072,50.106972],[20.04297,50.106997],[20.042919,50.10691],[20.042619,50.106984],[20.042696,50.107118],[20.042285,50.107225],[20.042207,50.107093],[20.041801,50.107193],[20.041772,50.107144],[20.041688,50.107165],[20.041545,50.106924]]]}},{"type":"Feature","id":"w54531855","properties":{"type":"yes","address":"Gustawa Morcinka 9","residential":true,"residents_est":2,"h3_10":"8a1e2e6126cffff","h3_11":"8b1e2e6126c9fff"},"geometry":{"type":"Polygon","coordinates":[[[20.044402,50.106813],[20.044545,50.106778],[20.044716,50.107064],[20.044573,50.107099],[20.044402,50.106813]]]}},{"type":"Feature","id":"w102048927","properties":{"type":"yes","residential":true,"residents_est":0,"h3_10":"8a1e2e6126dffff","h3_11":"8b1e2e6126d8fff"},"geometry":{"type":"Polygon","coordinates":[[[20.042716,50.106271],[20.042726,50.106218],[20.043052,50.106245],[20.043041,50.106297],[20.042716,50.106271]]]}},{"type":"Feature","id":"w102048930","properties":{"type":"garage","levels":1.0,"residential":false,"residents_est":0,"h3_10":"8a1e2e61265ffff","h3_11":"8b1e2e61265bfff"},"geometry":{"type":"Polygon","coordinates":[[[20.045112,50.108469],[20.045197,50.108449],[20.045213,50.108475],[20.045128,50.108495],[20.045112,50.108469]]]}},{"type":"Feature","id":"w102048933","properties":{"type":"garage","levels":1.0,"residential":false,"residents_est":0,"h3_10":"8a1e2e61265ffff","h3_11":"8b1e2e61265afff"},"geometry":{"type":"Polygon","coordinates":[[[20.044822,50.10844],[20.044906,50.10842],[20.04492,50.108444],[20.044837,50.108466],[20.044822,50.10844]]]}},{"type":"Feature","id":"w102048940","properties":{"type":"yes","residential":true,"residents_est":5,"h3_10":"8a1e2e61264ffff","h3_11":"8b1e2e61264efff"},"geometry":{"type":"Polygon","coordinates":[[[20.045527,50.109733],[20.045896,50.109365],[20.045963,50.109392],[20.045983,50.109374],[20.046076,50.109415],[20.045676,50.10982],[20.045578,50.109779],[20.045595,50.109761],[20.045527,50.109733]]]}},{"type":"Feature","id":"w102048945","properties":{"type":"yes","residential":true,"residents_est":3,"h3_10":"8a1e2e6126f7fff","h3_11":"8b1e2e6126f0fff"},"geometry":{"type":"Polygon","coordinates":[[[20.040235,50.107787],[20.040341,50.107727],[20.040708,50.107996],[20.040602,50.108056],[20.040235,50.107787]]]}},{"type":"Feature","id":"w102048946","properties":{"type":"yes","levels":3.0,"address":"Gustawa Morcinka 5","residential":true,"residents_est":2,"h3_10":"8a1e2e6126cffff","h3_11":"8b1e2e6126c8fff"},"geometry":{"type":"Polygon","coordinates":[[[20.04396,50.106924],[20.044128,50.106882],[20.0443,50.107167],[20.04413,50.107208],[20.04396,50.106924]]]}},{"type":"Feature","id":"w114862020","properties":{"type":"yes","address":"Gustawa Morcinka 3A","residential":true,"residents_est":0,"h3_10":"8a1e2e6126d7fff","h3_11":"8b1e2e6126d3fff"},"geometry":{"type":"Polygon","coordinates":[[[20.040712,50.106322],[20.040737,50.106253],[20.040898,50.106274],[20.040875,50.106344],[20.040712,50.106322]]]}},{"type":"Feature","id":"w301687386","properties":{"type":"yes","residential":true,"residents_est":2,"h3_10":"8a1e2e61264ffff","h3_11":"8b1e2e612648fff"},"geometry":{"type":"Polygon","coordinates":[[[20.046518,50.109781],[20.046774,50.109405],[20.04686,50.109428],[20.046604,50.109803],[20.046518,50.109781]]]}},{"type":"Feature","id":"w338036623","properties":{"type":"yes","residential":true,"residents_est":1,"h3_10":"8a1e2e6126cffff","h3_11":"8b1e2e6126cafff"},"geometry":{"type":"Polygon","coordinates":[[[20.043342,50.106717],[20.043402,50.106685],[20.043472,50.106738],[20.043411,50.106771],[20.043342,50.106717]]]}},{"type":"Feature","id":"w338036668","properties":{"type":"yes","residential":true,"residents_est":0,"h3_10":"8a1e2e6126dffff","h3_11":"8b1e2e6126d9fff"},"geometry":{"type":"Polygon","coordinates":[[[20.043016,50.106431],[20.043064,50.10638],[20.043214,50.10644],[20.043165,50.10649],[20.043016,50.106431]]]}},{"type":"Feature","id":"w338036675","properties":{"type":"yes","residential":true,"residents_est":0,"h3_10":"8a1e2e6126f7fff","h3_11":"8b1e2e6126f0fff"},"geometry":{"type":"Polygon","coordinates":[[[20.040112,50.107706],[20.040242,50.107632],[20.040355,50.107715],[20.040226,50.107789],[20.040112,50.107706]]]}},{"type":"Feature","id":"w338036776","properties":{"type":"garages","residential":false,"residents_est":0,"h3_10":"8a1e2e61264ffff","h3_11":"8b1e2e61264cfff"},"geometry":{"type":"Polygon","coordinates":[[[20.045729,50.109872],[20.04577,50.10983],[20.045854,50.109866],[20.045863,50.109856],[20.046052,50.109935],[20.046002,50.109987],[20.045729,50.109872]]]}},{"type":"Feature","id":"w338036806","properties":{"type":"yes","residential":true,"residents_est":0,"h3_10":"8a1e2e6127a7fff","h3_11":"8b1e2e6127a5fff"},"geometry":{"type":"Polygon","coordinates":[[[20.034636,50.111497],[20.034678,50.111421],[20.034797,50.111448],[20.034755,50.111524],[20.034636,50.111497]]]}},{"type":"Feature","id":"w338036850","properties":{"type":"yes","residential":true,"residents_est":0,"h3_10":"8a1e2e6127a7fff","h3_11":"8b1e2e6127a1fff"},"geometry":{"type":"Polygon","coordinates":[[[20.034787,50.111041],[20.034826,50.110959],[20.034949,50.110984],[20.03491,50.111065],[20.034787,50.111041]]]}},{"type":"Feature","id":"w338036851","properties":{"type":"yes","residential":true,"residents_est":0,"h3_10":"8a1e2e61264ffff","h3_11":"8b1e2e61264afff"},"geometry":{"type":"Polygon","coordinates":[[[20.046166,50.109266],[20.046309,50.109142],[20.046361,50.109163],[20.046231,50.109291],[20.046166,50.109266]]]}},{"type":"Feature","id":"w338037157","properties":{"type":"industrial","residential":false,"residents_est":0,"h3_10":"8a1e2e6126f7fff","h3_11":"8b1e2e6126f3fff"},"geometry":{"type":"Polygon","coordinates":[[[20.040845,50.107476],[20.040862,50.107452],[20.040906,50.107441],[20.040951,50.107455],[20.040966,50.10748],[20.040945,50.107503],[20.040899,50.107516],[20.040863,50.107505],[20.040845,50.107476]]]}},{"type":"Feature","id":"w338037178","properties":{"type":"garages","residential":false,"residents_est":0,"h3_10":"8a1e2e61264ffff","h3_11":"8b1e2e61264cfff"},"geometry":{"type":"Polygon","coordinates":[[[20.04532,50.109873],[20.045369,50.109826],[20.046005,50.110093],[20.046087,50.110019],[20.046173,50.110057],[20.046069,50.110152],[20.046017,50.110128],[20.045989,50.110155],[20.04532,50.109873]]]}},{"type":"Feature","id":"w339009259","properties":{"type":"yes","residential":false,"residents_est":0,"h3_10":"8a1e2e61264ffff","h3_11":"8b1e2e61264afff"},"geometry":{"type":"Polygon","coordinates":[[[20.046081,50.109282],[20.046124,50.109245],[20.046168,50.109263],[20.046127,50.109301],[20.046081,50.109282]]]}},{"type":"Feature","id":"w706306551","properties":{"type":"yes","residential":true,"residents_est":1,"h3_10":"8a1e2e6126d7fff","h3_11":"8b1e2e6126d0fff"},"geometry":{"type":"Polygon","coordinates":[[[20.040916,50.1066],[20.040983,50.106525],[20.041156,50.106593],[20.041124,50.106629],[20.041142,50.106636],[20.041115,50.106667],[20.040916,50.1066]]]}},{"type":"Feature","id":"w706306552","properties":{"type":"yes","residential":true,"residents_est":0,"h3_10":"8a1e2e6126d7fff","h3_11":"8b1e2e6126d0fff"},"geometry":{"type":"Polygon","coordinates":[[[20.040774,50.106784],[20.040815,50.106738],[20.040853,50.106751],[20.040893,50.106706],[20.040972,50.106735],[20.040933,50.10678],[20.040942,50.106784],[20.040901,50.106831],[20.040891,50.106827],[20.040856,50.106867],[20.040776,50.106838],[20.040812,50.106798],[20.040774,50.106784]]]}},{"type":"Feature","id":"w706306553","properties":{"type":"yes","residential":true,"residents_est":1,"h3_10":"8a1e2e6126d7fff","h3_11":"8b1e2e6126d4fff"},"geometry":{"type":"Polygon","coordinates":[[[20.040585,50.107046],[20.040609,50.107018],[20.040601,50.107015],[20.040624,50.106988],[20.040597,50.106978],[20.040651,50.106917],[20.040699,50.106934],[20.040707,50.106925],[20.040749,50.10694],[20.040741,50.106949],[20.040781,50.106964],[20.040704,50.107052],[20.040695,50.107049],[20.040671,50.107077],[20.040585,50.107046]]]}},{"type":"Feature","id":"w706306554","properties":{"type":"yes","residential":true,"residents_est":0,"h3_10":"8a1e2e6126d7fff","h3_11":"8b1e2e6126d4fff"},"geometry":{"type":"Polygon","coordinates":[[[20.040392,50.107212],[20.040435,50.107163],[20.040518,50.107192],[20.040476,50.107241],[20.040468,50.107243],[20.040392,50.107212]]]}},{"type":"Feature","id":"w706306555","properties":{"type":"yes","residential":true,"residents_est":0,"h3_10":"8a1e2e6126d7fff","h3_11":"8b1e2e6126d4fff"},"geometry":{"type":"Polygon","coordinates":[[[20.040316,50.107301],[20.04035,50.107261],[20.040319,50.10725],[20.040361,50.107201],[20.040485,50.107245],[20.040443,50.107294],[20.040433,50.107291],[20.040399,50.107331],[20.040316,50.107301]]]}},{"type":"Feature","id":"w725305996","properties":{"type":"yes","residential":false,"residents_est":0,"h3_10":"8a1e2e6127a7fff","h3_11":"8b1e2e6127a3fff"},"geometry":{"type":"Polygon","coordinates":[[[20.034833,50.110805],[20.034855,50.110756],[20.03492,50.110768],[20.034899,50.110817],[20.034833,50.110805]]]}},{"type":"Feature","id":"w1047828348","properties":{"type":"outbuilding","levels":1.0,"residential":false,"residents_est":0,"h3_10":"8a1e2e61264ffff","h3_11":"8b1e2e612648fff"},"geometry":{"type":"Polygon","coordinates":[[[20.046487,50.109831],[20.046518,50.109781],[20.046604,50.109803],[20.046573,50.109853],[20.046487,50.109831]]]}},{"type":"Feature","id":"w1219567363","properties":{"type":"apartments","address":"Gustawa Morcinka 13D","residential":true,"residents_est":11,"h3_10":"8a1e2e61265ffff","h3_11":"8b1e2e61265afff"},"geometry":{"type":"Polygon","coordinates":[[[20.044326,50.108317],[20.044599,50.108249],[20.044759,50.108516],[20.044635,50.108546],[20.044628,50.108534],[20.044599,50.108541],[20.044607,50.108554],[20.04445,50.108593],[20.044431,50.10856],[20.044449,50.108555],[20.044439,50.108537],[20.044431,50.108539],[20.044412,50.108507],[20.044431,50.108502],[20.04442,50.108484],[20.044412,50.108486],[20.044394,50.108454],[20.044413,50.10845],[20.044402,50.10843],[20.044395,50.108432],[20.044326,50.108317]]]}},{"type":"Feature","id":"w1219567364","properties":{"type":"apartments","address":"Gustawa Morcinka 13C","residential":true,"residents_est":11,"h3_10":"8a1e2e6126effff","h3_11":"8b1e2e6126e9fff"},"geometry":{"type":"Polygon","coordinates":[[[20.044095,50.107936],[20.04437,50.107868],[20.04453,50.108134],[20.044404,50.108165],[20.044397,50.108153],[20.044368,50.10816],[20.044376,50.108172],[20.044221,50.108211],[20.044201,50.108178],[20.044221,50.108173],[20.04421,50.108155],[20.044202,50.108157],[20.044183,50.108125],[20.044202,50.10812],[20.044191,50.108102],[20.044184,50.108104],[20.044166,50.108073],[20.044185,50.108068],[20.044173,50.108049],[20.044164,50.108051],[20.044095,50.107936]]]}},{"type":"Feature","id":"w1341580563","properties":{"type":"apartments","address":"Gustawa Morcinka 13E","residential":true,"residents_est":11,"h3_10":"8a1e2e61265ffff","h3_11":"8b1e2e612658fff"},"geometry":{"type":"Polygon","coordinates":[[[20.044554,50.108699],[20.044829,50.108631],[20.044988,50.108897],[20.044862,50.108928],[20.044854,50.108916],[20.044826,50.108923],[20.044834,50.108935],[20.044679,50.108974],[20.044659,50.108942],[20.044678,50.108937],[20.044667,50.108919],[20.04466,50.10892],[20.044642,50.108889],[20.04466,50.108884],[20.044648,50.108864],[20.04464,50.108866],[20.044623,50.108839],[20.044644,50.108834],[20.044633,50.108815],[20.044624,50.108817],[20.044554,50.108699]]]}},{"type":"Feature","id":"w1413366269","properties":{"type":"garage","levels":1.0,"residential":false,"residents_est":0,"h3_10":"8a1e2e61265ffff","h3_11":"8b1e2e61265bfff"},"geometry":{"type":"Polygon","coordinates":[[[20.045158,50.108545],[20.045241,50.108526],[20.045256,50.108551],[20.045173,50.10857],[20.045158,50.108545]]]}},{"type":"Feature","id":"w1413366270","properties":{"type":"garage","levels":1.0,"residential":false,"residents_est":0,"h3_10":"8a1e2e61265ffff","h3_11":"8b1e2e61265bfff"},"geometry":{"type":"Polygon","coordinates":[[[20.045202,50.108621],[20.045284,50.108602],[20.045299,50.108628],[20.045218,50.108647],[20.045202,50.108621]]]}},{"type":"Feature","id":"w1413366271","properties":{"type":"garage","levels":1.0,"residential":false,"residents_est":0,"h3_10":"8a1e2e61265ffff","h3_11":"8b1e2e61265bfff"},"geometry":{"type":"Polygon","coordinates":[[[20.045187,50.108596],[20.04527,50.108576],[20.045284,50.108602],[20.045202,50.108621],[20.045187,50.108596]]]}},{"type":"Feature","id":"w1413366272","properties":{"type":"garage","levels":1.0,"residential":false,"residents_est":0,"h3_10":"8a1e2e61265ffff","h3_11":"8b1e2e61265bfff"},"geometry":{"type":"Polygon","coordinates":[[[20.045173,50.10857],[20.045256,50.108551],[20.04527,50.108576],[20.045187,50.108596],[20.045173,50.10857]]]}},{"type":"Feature","id":"w1413366273","properties":{"type":"garage","levels":1.0,"residential":false,"residents_est":0,"h3_10":"8a1e2e61265ffff","h3_11":"8b1e2e61265bfff"},"geometry":{"type":"Polygon","coordinates":[[[20.045143,50.10852],[20.045227,50.1085],[20.045241,50.108526],[20.045158,50.108545],[20.045143,50.10852]]]}},{"type":"Feature","id":"w1413366274","properties":{"type":"garage","levels":1.0,"residential":false,"residents_est":0,"h3_10":"8a1e2e61265ffff","h3_11":"8b1e2e61265bfff"},"geometry":{"type":"Polygon","coordinates":[[[20.045128,50.108495],[20.045213,50.108475],[20.045227,50.1085],[20.045143,50.10852],[20.045128,50.108495]]]}},{"type":"Feature","id":"w1413366275","properties":{"type":"garage","levels":1.0,"residential":false,"residents_est":0,"h3_10":"8a1e2e61265ffff","h3_11":"8b1e2e61265afff"},"geometry":{"type":"Polygon","coordinates":[[[20.044911,50.108592],[20.044995,50.10857],[20.04501,50.108595],[20.044926,50.108617],[20.044911,50.108592]]]}},{"type":"Feature","id":"w1413366276","properties":{"type":"garage","levels":1.0,"residential":false,"residents_est":0,"h3_10":"8a1e2e61265ffff","h3_11":"8b1e2e61265afff"},"geometry":{"type":"Polygon","coordinates":[[[20.044926,50.108617],[20.04501,50.108595],[20.045024,50.10862],[20.044941,50.108642],[20.044926,50.108617]]]}},{"type":"Feature","id":"w1413366277","properties":{"type":"garage","levels":1.0,"residential":false,"residents_est":0,"h3_10":"8a1e2e61265ffff","h3_11":"8b1e2e612658fff"},"geometry":{"type":"Polygon","coordinates":[[[20.045015,50.108768],[20.045099,50.108747],[20.045114,50.108773],[20.045031,50.108795],[20.045015,50.108768]]]}},{"type":"Feature","id":"w1413366278","properties":{"type":"garage","levels":1.0,"residential":false,"residents_est":0,"h3_10":"8a1e2e61265ffff","h3_11":"8b1e2e612658fff"},"geometry":{"type":"Polygon","coordinates":[[[20.045,50.108743],[20.045084,50.108721],[20.045099,50.108747],[20.045015,50.108768],[20.045,50.108743]]]}},{"type":"Feature","id":"w1413366279","properties":{"type":"garage","levels":1.0,"residential":false,"residents_est":0,"h3_10":"8a1e2e61265ffff","h3_11":"8b1e2e612658fff"},"geometry":{"type":"Polygon","coordinates":[[[20.044985,50.108717],[20.045069,50.108696],[20.045084,50.108721],[20.045,50.108743],[20.044985,50.108717]]]}},{"type":"Feature","id":"w1413366280","properties":{"type":"garage","levels":1.0,"residential":false,"residents_est":0,"h3_10":"8a1e2e61265ffff","h3_11":"8b1e2e61265afff"},"geometry":{"type":"Polygon","coordinates":[[[20.04497,50.108692],[20.045054,50.108671],[20.045069,50.108696],[20.044985,50.108717],[20.04497,50.108692]]]}},{"type":"Feature","id":"w1413366281","properties":{"type":"garage","levels":1.0,"residential":false,"residents_est":0,"h3_10":"8a1e2e61265ffff","h3_11":"8b1e2e61265afff"},"geometry":{"type":"Polygon","coordinates":[[[20.044956,50.108667],[20.045039,50.108645],[20.045054,50.108671],[20.04497,50.108692],[20.044956,50.108667]]]}},{"type":"Feature","id":"w1413366282","properties":{"type":"garage","levels":1.0,"residential":false,"residents_est":0,"h3_10":"8a1e2e61265ffff","h3_11":"8b1e2e61265afff"},"geometry":{"type":"Polygon","coordinates":[[[20.044941,50.108642],[20.045024,50.10862],[20.045039,50.108645],[20.044956,50.108667],[20.044941,50.108642]]]}},{"type":"Feature","id":"w1413366283","properties":{"type":"garage","levels":1.0,"residential":false,"residents_est":0,"h3_10":"8a1e2e61265ffff","h3_11":"8b1e2e61265afff"},"geometry":{"type":"Polygon","coordinates":[[[20.044897,50.108567],[20.04498,50.108545],[20.044995,50.10857],[20.044911,50.108592],[20.044897,50.108567]]]}},{"type":"Feature","id":"w1413366284","properties":{"type":"garage","levels":1.0,"residential":false,"residents_est":0,"h3_10":"8a1e2e61265ffff","h3_11":"8b1e2e61265afff"},"geometry":{"type":"Polygon","coordinates":[[[20.044882,50.108542],[20.044965,50.10852],[20.04498,50.108545],[20.044897,50.108567],[20.044882,50.108542]]]}},{"type":"Feature","id":"w1413366285","properties":{"type":"garage","levels":1.0,"residential":false,"residents_est":0,"h3_10":"8a1e2e61265ffff","h3_11":"8b1e2e61265afff"},"geometry":{"type":"Polygon","coordinates":[[[20.044867,50.108517],[20.04495,50.108495],[20.044965,50.10852],[20.044882,50.108542],[20.044867,50.108517]]]}},{"type":"Feature","id":"w1413366286","properties":{"type":"garage","levels":1.0,"residential":false,"residents_est":0,"h3_10":"8a1e2e61265ffff","h3_11":"8b1e2e61265afff"},"geometry":{"type":"Polygon","coordinates":[[[20.044852,50.108491],[20.044935,50.108469],[20.04495,50.108495],[20.044867,50.108517],[20.044852,50.108491]]]}},{"type":"Feature","id":"w1413366287","properties":{"type":"garage","levels":1.0,"residential":false,"residents_est":0,"h3_10":"8a1e2e61265ffff","h3_11":"8b1e2e61265afff"},"geometry":{"type":"Polygon","coordinates":[[[20.044837,50.108466],[20.04492,50.108444],[20.044935,50.108469],[20.044852,50.108491],[20.044837,50.108466]]]}},{"type":"Feature","id":"w1413366288","properties":{"type":"apartments","address":"Gustawa Morcinka 13K","residential":true,"residents_est":7,"h3_10":"8a1e2e612647fff","h3_11":"8b1e2e612643fff"},"geometry":{"type":"Polygon","coordinates":[[[20.044966,50.109734],[20.045174,50.109525],[20.045358,50.1096],[20.045162,50.109798],[20.045088,50.109768],[20.045076,50.109779],[20.044966,50.109734]]]}},{"type":"Feature","id":"w1413366289","properties":{"type":"apartments","address":"Gustawa Morcinka 13G","residential":true,"residents_est":7,"h3_10":"8a1e2e61265ffff","h3_11":"8b1e2e612658fff"},"geometry":{"type":"Polygon","coordinates":[[[20.045173,50.108882],[20.045381,50.108673],[20.045566,50.108748],[20.045369,50.108947],[20.045295,50.108916],[20.045283,50.108928],[20.045173,50.108882]]]}},{"type":"Feature","id":"w1413366290","properties":{"type":"apartments","address":"Gustawa Morcinka 13H","residential":true,"residents_est":7,"h3_10":"8a1e2e61265ffff","h3_11":"8b1e2e612659fff"},"geometry":{"type":"Polygon","coordinates":[[[20.045627,50.109069],[20.045835,50.10886],[20.046018,50.108935],[20.045822,50.109133],[20.045748,50.109102],[20.045736,50.109114],[20.045627,50.109069]]]}},{"type":"Feature","id":"w1413366291","properties":{"type":"apartments","address":"Gustawa Morcinka 13J","residential":true,"residents_est":7,"h3_10":"8a1e2e61265ffff","h3_11":"8b1e2e61265dfff"},"geometry":{"type":"Polygon","coordinates":[[[20.045241,50.109372],[20.045449,50.109163],[20.045633,50.109239],[20.045437,50.109436],[20.045362,50.109405],[20.045351,50.109417],[20.045241,50.109372]]]}},{"type":"Feature","id":"w1413366292","properties":{"type":"apartments","address":"Gustawa Morcinka 13F","residential":true,"residents_est":7,"h3_10":"8a1e2e61265ffff","h3_11":"8b1e2e61265cfff"},"geometry":{"type":"Polygon","coordinates":[[[20.044709,50.10935],[20.044917,50.109141],[20.045101,50.109216],[20.044905,50.109414],[20.04483,50.109383],[20.044819,50.109394],[20.044709,50.10935]]]}},{"type":"Feature","id":"w1458346805","properties":{"type":"construction","residential":false,"residents_est":0,"h3_10":"8a1e2e612647fff","h3_11":"8b1e2e612642fff"},"geometry":{"type":"Polygon","coordinates":[[[20.043509,50.109488],[20.043817,50.10931],[20.043828,50.109317],[20.044281,50.109204],[20.044541,50.109631],[20.044451,50.109654],[20.044508,50.109747],[20.044473,50.109762],[20.044865,50.110044],[20.044494,50.110258],[20.04416,50.110019],[20.044213,50.109989],[20.043919,50.109779],[20.043868,50.109809],[20.043609,50.109625],[20.043658,50.109594],[20.043509,50.109488]]]}},{"type":"Feature","id":"w1458346806","properties":{"type":"service","levels":1.0,"residential":false,"residents_est":0,"h3_10":"8a1e2e61265ffff","h3_11":"8b1e2e61265efff"},"geometry":{"type":"Polygon","coordinates":[[[20.044499,50.109083],[20.04456,50.109068],[20.044583,50.109106],[20.044522,50.109121],[20.044499,50.109083]]]}},{"type":"Feature","id":"w1458346807","properties":{"type":"service","levels":1.0,"residential":false,"residents_est":0,"h3_10":"8a1e2e612647fff","h3_11":"8b1e2e612640fff"},"geometry":{"type":"Polygon","coordinates":[[[20.044857,50.109922],[20.044891,50.109913],[20.044923,50.109963],[20.044889,50.109972],[20.044857,50.109922]]]}}]}