{"type":"FeatureCollection","features":[{"type":"Feature","id":"w37636276","properties":{"type":"residential","levels":5.0,"address":"Jana Kurczaba 4","residential":true,"residents_est":114,"h3_10":"8a1e2e69c167fff","h3_11":"8b1e2e69c164fff"},"geometry":{"type":"Polygon","coordinates":[[[20.001743,50.01367],[20.001873,50.013636],[20.001879,50.013646],[20.002091,50.013591],[20.002105,50.013582],[20.002126,50.013583],[20.002205,50.013563],[20.002225,50.013595],[20.002213,50.013598],[20.002224,50.013615],[20.002236,50.013612],[20.002257,50.013645],[20.002215,50.013656],[20.00222,50.013664],[20.002171,50.013677],[20.002166,50.013669],[20.002089,50.013689],[20.002095,50.013699],[20.002052,50.01371],[20.002046,50.0137],[20.002018,50.013707],[20.002024,50.013717],[20.001981,50.013728],[20.001975,50.013719],[20.001931,50.01373],[20.001937,50.013739],[20.00192,50.013744],[20.001939,50.013774],[20.001953,50.01377],[20.001968,50.013795],[20.001951,50.013799],[20.001957,50.013809],[20.00183,50.013841],[20.001789,50.013774],[20.001849,50.013758],[20.001837,50.013738],[20.001793,50.01375],[20.001743,50.01367]]]}},{"type":"Feature","id":"w37639655","properties":{"type":"residential","address":"Jana Kurczaba 10","residential":true,"residents_est":80,"h3_10":"8a1e2e69c16ffff","h3_11":"8b1e2e69c16cfff"},"geometry":{"type":"Polygon","coordinates":[[[20.003751,50.013243],[20.003766,50.013239],[20.003761,50.01323],[20.003889,50.013198],[20.00393,50.013267],[20.003946,50.013276],[20.003944,50.01329],[20.003987,50.013361],[20.004016,50.013354],[20.004058,50.013424],[20.004073,50.013433],[20.004071,50.013446],[20.004114,50.013517],[20.003968,50.013554],[20.003946,50.013517],[20.003963,50.013513],[20.003939,50.013472],[20.003909,50.013423],[20.003892,50.013427],[20.003877,50.013401],[20.003895,50.013396],[20.003888,50.013385],[20.003858,50.013393],[20.003854,50.013386],[20.00384,50.013389],[20.003826,50.013367],[20.00384,50.013363],[20.003783,50.013267],[20.003768,50.013271],[20.003751,50.013243]]]}},{"type":"Feature","id":"r172473","properties":{"type":"office","address":"Wielicka 267","name":"Pawilon Administracyjny","residential":false,"residents_est":0,"h3_10":"8a1e2e69c047fff","h3_11":"8b1e2e69c043fff"},"geometry":{"type":"Polygon","coordinates":[[[20.005315,50.009284],[20.005624,50.009214],[20.005614,50.009196],[20.00563,50.009192],[20.005657,50.009187],[20.005667,50.009205],[20.005736,50.009188],[20.005879,50.009452],[20.005455,50.009546],[20.005315,50.009284]],[[20.005529,50.009368],[20.00556,50.009424],[20.005715,50.009389],[20.005685,50.009333],[20.005529,50.009368]]]}},{"type":"Feature","id":"w37672213","properties":{"type":"hospital","name":"Pawilon nr 2","residential":false,"residents_est":0,"h3_10":"8a1e2e69c04ffff","h3_11":"8b1e2e69c04afff"},"geometry":{"type":"Polygon","coordinates":[[[20.006714,50.008864],[20.006874,50.008828],[20.006884,50.008856],[20.006891,50.008859],[20.006886,50.008861],[20.006911,50.008907],[20.006919,50.00891],[20.006914,50.008912],[20.006938,50.008957],[20.006946,50.008961],[20.00694,50.008962],[20.007178,50.009392],[20.007022,50.009428],[20.00679,50.008996],[20.006782,50.008992],[20.006788,50.00899],[20.006763,50.008945],[20.006757,50.008946],[20.00676,50.008939],[20.006736,50.008894],[20.00673,50.008895],[20.006733,50.008889],[20.006722,50.008868],[20.006714,50.008864]]]}},{"type":"Feature","id":"w37672214","properties":{"type":"hospital","name":"Pawilon nr 1","residential":false,"residents_est":0,"h3_10":"8a1e2e69c04ffff","h3_11":"8b1e2e69c04efff"},"geometry":{"type":"Polygon","coordinates":[[[20.006045,50.009152],[20.006204,50.009117],[20.006503,50.009679],[20.006344,50.009714],[20.006045,50.009152]]]}},{"type":"Feature","id":"w37672215","properties":{"type":"hospital","name":"Pawilon nr 3","residential":false,"residents_est":0,"h3_10":"8a1e2e69c05ffff","h3_11":"8b1e2e69c058fff"},"geometry":{"type":"Polygon","coordinates":[[[20.005211,50.008438],[20.005402,50.008397],[20.00542,50.008436],[20.005398,50.008441],[20.005688,50.009009],[20.005424,50.009065],[20.005391,50.009003],[20.005497,50.008981],[20.005211,50.008438]]]}},{"type":"Feature","id":"w37672216","properties":{"type":"hospital","name":"Pawilon nr 4","residential":false,"residents_est":0,"h3_10":"8a1e2e69c05ffff","h3_11":"8b1e2e69c059fff"},"geometry":{"type":"Polygon","coordinates":[[[20.005922,50.008201],[20.006082,50.008167],[20.006079,50.008172],[20.00609,50.008194],[20.006095,50.008193],[20.006093,50.008199],[20.006116,50.008245],[20.006121,50.008244],[20.006119,50.00825],[20.006142,50.008296],[20.006147,50.008295],[20.006145,50.008301],[20.006168,50.008348],[20.006175,50.00835],[20.00617,50.008352],[20.006189,50.008377],[20.006184,50.008378],[20.006207,50.008424],[20.006212,50.008423],[20.00621,50.008429],[20.006233,50.008476],[20.006238,50.008475],[20.006259,50.008528],[20.006264,50.008527],[20.006261,50.008531],[20.006272,50.008553],[20.00628,50.008557],[20.006275,50.008558],[20.006298,50.008605],[20.006307,50.008608],[20.006365,50.008733],[20.006372,50.008736],[20.006349,50.008742],[20.006397,50.008835],[20.006344,50.008846],[20.00633,50.008821],[20.006289,50.00883],[20.006252,50.008763],[20.006211,50.008771],[20.006209,50.008767],[20.006215,50.008766],[20.006204,50.008744],[20.006188,50.008726],[20.006193,50.008725],[20.00617,50.008689],[20.006151,50.008641],[20.006143,50.008637],[20.006148,50.008636],[20.006076,50.008509],[20.006059,50.008462],[20.006054,50.008463],[20.006056,50.008457],[20.006012,50.008383],[20.006018,50.008379],[20.005994,50.008332],[20.005989,50.008333],[20.005992,50.008328],[20.005968,50.008281],[20.005963,50.008282],[20.005942,50.00823],[20.005937,50.008231],[20.005929,50.008204],[20.005922,50.008201]]]}},{"type":"Feature","id":"w37695497","properties":{"type":"residential","levels":5.0,"address":"Jana Kurczaba 8","residential":true,"residents_est":193,"h3_10":"8a1e2e69c167fff","h3_11":"8b1e2e69c160fff"},"geometry":{"type":"Polygon","coordinates":[[[20.002396,50.013445],[20.002532,50.013407],[20.002537,50.013414],[20.002646,50.013386],[20.002745,50.01336],[20.002759,50.013351],[20.002781,50.013353],[20.002996,50.0133],[20.002992,50.013293],[20.00312,50.013262],[20.003167,50.01334],[20.003122,50.013351],[20.003134,50.01337],[20.003196,50.013355],[20.003238,50.013426],[20.003106,50.013459],[20.0031,50.01345],[20.003084,50.013454],[20.003068,50.013428],[20.003084,50.013424],[20.003065,50.013393],[20.00305,50.013397],[20.003043,50.013386],[20.002995,50.013398],[20.003002,50.013409],[20.002961,50.013419],[20.002954,50.013408],[20.002923,50.013416],[20.002931,50.013428],[20.002888,50.013438],[20.00288,50.013426],[20.002742,50.01346],[20.002749,50.013472],[20.002703,50.013483],[20.002697,50.013471],[20.00267,50.013478],[20.002676,50.013489],[20.002634,50.013499],[20.002629,50.013488],[20.002579,50.013498],[20.002585,50.013511],[20.00257,50.013515],[20.002588,50.013544],[20.002603,50.013541],[20.002618,50.013567],[20.002603,50.01357],[20.002608,50.013579],[20.002477,50.013612],[20.002435,50.013542],[20.002496,50.013526],[20.002485,50.013506],[20.002439,50.013518],[20.002396,50.013445]]]}},{"type":"Feature","id":"w37729686","properties":{"type":"hospital","name":"Magazyn Techniczny","residential":false,"residents_est":0,"h3_10":"8a1e2e69c15ffff","h3_11":"8b1e2e69c15afff"},"geometry":{"type":"Polygon","coordinates":[[[20.002849,50.010751],[20.003154,50.010648],[20.003358,50.010897],[20.00335,50.010895],[20.003055,50.010996],[20.003058,50.011],[20.003053,50.011002],[20.002849,50.010751]]]}},{"type":"Feature","id":"w37729687","properties":{"type":"hospital","residential":false,"residents_est":0,"h3_10":"8a1e2e69c02ffff","h3_11":"8b1e2e69c029fff"},"geometry":{"type":"Polygon","coordinates":[[[20.00225,50.010687],[20.00293,50.010458],[20.003017,50.010565],[20.003011,50.010568],[20.003007,50.010562],[20.002342,50.010786],[20.002349,50.010795],[20.002341,50.010798],[20.00225,50.010687]]]}},{"type":"Feature","id":"w154995637","properties":{"type":"yes","residential":true,"residents_est":5,"h3_10":"8a1e2e69c1b7fff","h3_11":"8b1e2e69c1b6fff"},"geometry":{"type":"Polygon","coordinates":[[[19.993179,50.010168],[19.993298,50.010119],[19.993367,50.010189],[19.993249,50.010238],[19.993179,50.010168]]]}},{"type":"Feature","id":"w154995657","properties":{"type":"detached","address":"Obronna 7","residential":true,"residents_est":13,"h3_10":"8a1e2e69c1b7fff","h3_11":"8b1e2e69c1b6fff"},"geometry":{"type":"Polygon","coordinates":[[[19.992775,50.010115],[19.992953,50.010042],[19.993018,50.010109],[19.992843,50.010182],[19.992775,50.010115]]]}},{"type":"Feature","id":"w160333422","properties":{"type":"yes","residential":true,"residents_est":3,"h3_10":"8a1e2e69c1b7fff","h3_11":"8b1e2e69c1b4fff"},"geometry":{"type":"Polygon","coordinates":[[[19.993129,50.010525],[19.993301,50.010463],[19.993327,50.010493],[19.993155,50.010555],[19.993129,50.010525]]]}},{"type":"Feature","id":"w160333705","properties":{"type":"yes","residential":true,"residents_est":2,"h3_10":"8a1e2e69c1b7fff","h3_11":"8b1e2e69c1b4fff"},"geometry":{"type":"Polygon","coordinates":[[[19.993312,50.010342],[19.993403,50.010309],[19.993442,50.010353],[19.993351,50.010386],[19.993312,50.010342]]]}},{"type":"Feature","id":"w160333795","properties":{"type":"yes","residential":true,"residents_est":6,"h3_10":"8a1e2e69c1b7fff","h3_11":"8b1e2e69c1b4fff"},"geometry":{"type":"Polygon","coordinates":[[[19.993092,50.010323],[19.993206,50.010278],[19.993214,50.010287],[19.993235,50.010278],[19.993226,50.010269],[19.993259,50.010256],[19.993268,50.010265],[19.993317,50.010246],[19.993355,50.010286],[19.993139,50.010372],[19.993092,50.010323]]]}},{"type":"Feature","id":"w170996063","properties":{"type":"service","residential":false,"residents_est":0,"h3_10":"8a1e2e69c127fff","h3_11":"8b1e2e69c123fff"},"geometry":{"type":"Polygon","coordinates":[[[19.998239,50.012975],[19.99832,50.012968],[19.998356,50.013127],[19.998276,50.013135],[19.998239,50.012975]]]}},{"type":"Feature","id":"w180805136","properties":{"type":"yes","residential":true,"residents_est":33,"h3_10":"8a1e2e69c10ffff","h3_11":"8b1e2e69c10efff"},"geometry":{"type":"Polygon","coordinates":[[[19.998828,50.011677],[19.999129,50.011645],[19.999163,50.011777],[19.998867,50.011812],[19.998828,50.011677]]]}},{"type":"Feature","id":"w338093750","properties":{"type":"apartments","address":"Jana Kurczaba 10","residential":true,"residents_est":114,"h3_10":"8a1e2e69c16ffff","h3_11":"8b1e2e69c16efff"},"geometry":{"type":"Polygon","coordinates":[[[20.003319,50.013154],[20.0034,50.013134],[20.003415,50.013123],[20.003439,50.013125],[20.003651,50.013072],[20.003647,50.013064],[20.003776,50.013033],[20.003823,50.013111],[20.003784,50.013121],[20.003797,50.013142],[20.003848,50.013129],[20.003889,50.013198],[20.003761,50.01323],[20.003755,50.01322],[20.00374,50.013224],[20.003725,50.013198],[20.003739,50.013194],[20.003721,50.013164],[20.003706,50.013167],[20.003699,50.013155],[20.00365,50.013167],[20.003657,50.013178],[20.003618,50.013188],[20.003611,50.013177],[20.003576,50.013185],[20.003582,50.013196],[20.003544,50.013205],[20.003538,50.013195],[20.003461,50.013214],[20.003467,50.013225],[20.003417,50.013238],[20.00341,50.013226],[20.003369,50.013237],[20.00335,50.013205],[20.003363,50.013202],[20.003352,50.013185],[20.003339,50.013188],[20.003319,50.013154]]]}},{"type":"Feature","id":"w377354303","properties":{"type":"public","levels":2.0,"address":"Macieja Jakubowskiego 9","name":"Dom Ronalda McDonalda","residential":false,"residents_est":0,"h3_10":"8a1e2e69c077fff","h3_11":"8b1e2e69c076fff"},"geometry":{"type":"Polygon","coordinates":[[[20.002312,50.009955],[20.002432,50.009916],[20.002446,50.009936],[20.002537,50.009907],[20.002493,50.009849],[20.002656,50.009797],[20.00282,50.010007],[20.0027,50.010045],[20.002686,50.010026],[20.002596,50.010055],[20.002639,50.010112],[20.002475,50.010165],[20.002312,50.009955]]]}},{"type":"Feature","id":"w377435221","properties":{"type":"yes","residential":true,"residents_est":9,"h3_10":"8a1e2e69c0effff","h3_11":"8b1e2e69c0e9fff"},"geometry":{"type":"Polygon","coordinates":[[[20.004484,50.007828],[20.004516,50.007777],[20.004886,50.007876],[20.004854,50.007927],[20.004484,50.007828]]]}},{"type":"Feature","id":"w504399169","properties":{"type":"service","residential":false,"residents_est":0,"h3_10":"8a1e2e69c10ffff","h3_11":"8b1e2e69c10afff"},"geometry":{"type":"Polygon","coordinates":[[[19.999043,50.011566],[19.999062,50.011564],[19.999055,50.011536],[19.999146,50.011526],[19.999162,50.011584],[19.999117,50.011589],[19.99912,50.011602],[19.999054,50.011609],[19.999043,50.011566]]]}},{"type":"Feature","id":"w504399171","properties":{"type":"yes","residential":true,"residents_est":2,"h3_10":"8a1e2e69c11ffff","h3_11":"8b1e2e69c11dfff"},"geometry":{"type":"Polygon","coordinates":[[[19.998808,50.01158],[19.998888,50.011571],[19.998907,50.01164],[19.998827,50.011649],[19.998808,50.01158]]]}},{"type":"Feature","id":"w504399172","properties":{"type":"yes","residential":true,"residents_est":12,"h3_10":"8a1e2e69c077fff","h3_11":"8b1e2e69c074fff"},"geometry":{"type":"Polygon","coordinates":[[[20.00293,50.010458],[20.003106,50.010398],[20.003145,50.010445],[20.003174,50.010435],[20.00324,50.010516],[20.003091,50.010567],[20.003068,50.010537],[20.00301,50.010556],[20.00293,50.010458]]]}},{"type":"Feature","id":"w504399174","properties":{"type":"yes","residential":true,"residents_est":2,"h3_10":"8a1e2e69c15ffff","h3_11":"8b1e2e69c159fff"},"geometry":{"type":"Polygon","coordinates":[[[20.003658,50.011127],[20.003674,50.011057],[20.003747,50.011064],[20.00373,50.011134],[20.003658,50.011127]]]}},{"type":"Feature","id":"w504399175","properties":{"type":"yes","residential":true,"residents_est":3,"h3_10":"8a1e2e69c15ffff","h3_11":"8b1e2e69c158fff"},"geometry":{"type":"Polygon","coordinates":[[[20.003226,50.011155],[20.003351,50.011112],[20.0034,50.011172],[20.003392,50.011175],[20.003382,50.011163],[20.003269,50.011201],[20.00328,50.011215],[20.003276,50.011216],[20.003226,50.011155]]]}},{"type":"Feature","id":"w504399176","properties":{"type":"yes","residential":true,"residents_est":7,"h3_10":"8a1e2e69c157fff","h3_11":"8b1e2e69c153fff"},"geometry":{"type":"Polygon","coordinates":[[[20.001651,50.011035],[20.001803,50.010985],[20.001873,50.011071],[20.001721,50.011122],[20.001651,50.011035]]]}},{"type":"Feature","id":"w504399178","properties":{"type":"service","residential":false,"residents_est":0,"h3_10":"8a1e2e69c157fff","h3_11":"8b1e2e69c153fff"},"geometry":{"type":"Polygon","coordinates":[[[20.001512,50.011081],[20.001651,50.011035],[20.001721,50.011122],[20.001582,50.011168],[20.001512,50.011081]]]}},{"type":"Feature","id":"w504399179","properties":{"type":"yes","residential":true,"residents_est":10,"h3_10":"8a1e2e69c157fff","h3_11":"8b1e2e69c152fff"},"geometry":{"type":"Polygon","coordinates":[[[20.001286,50.011156],[20.001512,50.011081],[20.001582,50.011168],[20.001356,50.011243],[20.001286,50.011156]]]}},{"type":"Feature","id":"w504401540","properties":{"type":"roof","residential":false,"residents_est":0,"h3_10":"8a1e2e69c177fff","h3_11":"8b1e2e69c170fff"},"geometry":{"type":"Polygon","coordinates":[[[20.001325,50.012568],[20.001417,50.012536],[20.001344,50.012448],[20.00144,50.012415],[20.001584,50.012588],[20.001395,50.012653],[20.001325,50.012568]]]}},{"type":"Feature","id":"w507097684","properties":{"type":"roof","residential":false,"residents_est":0,"h3_10":"8a1e2e69c127fff","h3_11":"8b1e2e69c123fff"},"geometry":{"type":"Polygon","coordinates":[[[19.997756,50.013076],[19.997849,50.013042],[19.997986,50.013205],[19.997894,50.013237],[19.997756,50.013076]]]}},{"type":"Feature","id":"w534118918","properties":{"type":"yes","name":"M","residential":true,"residents_est":67,"h3_10":"8a1e2e69c0c7fff","h3_11":"8b1e2e69c0c1fff"},"geometry":{"type":"Polygon","coordinates":[[[20.003143,50.006972],[20.003449,50.00687],[20.003624,50.007086],[20.003318,50.007188],[20.003143,50.006972]]]}},{"type":"Feature","id":"w534118919","properties":{"type":"hospital","name":"Budynek L","residential":false,"residents_est":0,"h3_10":"8a1e2e69c0c7fff","h3_11":"8b1e2e69c0c4fff"},"geometry":{"type":"Polygon","coordinates":[[[20.001984,50.00736],[20.002891,50.007057],[20.003067,50.007275],[20.002157,50.007579],[20.001984,50.00736]]]}},{"type":"Feature","id":"w534118921","properties":{"type":"parking","residential":false,"residents_est":0,"h3_10":"8a1e2e69c0e7fff","h3_11":"8b1e2e69c0e3fff"},"geometry":{"type":"Polygon","coordinates":[[[20.002291,50.007739],[20.002353,50.007718],[20.002325,50.007683],[20.00313,50.007414],[20.003158,50.007449],[20.003221,50.007428],[20.003482,50.007751],[20.003418,50.007772],[20.003446,50.007807],[20.002641,50.008076],[20.002613,50.008041],[20.002549,50.008062],[20.002446,50.007934],[20.0024,50.007948],[20.002347,50.007884],[20.002392,50.007868],[20.002291,50.007739]]]}},{"type":"Feature","id":"w534118923","properties":{"type":"hospital","name":"Budynek J","residential":false,"residents_est":0,"h3_10":"8a1e2e69c0affff","h3_11":"8b1e2e69c0a8fff"},"geometry":{"type":"Polygon","coordinates":[[[19.998801,50.007801],[19.999259,50.007648],[19.999326,50.007731],[19.999345,50.007724],[19.999387,50.007776],[19.999367,50.007783],[19.999435,50.007865],[19.998978,50.008019],[19.998801,50.007801]]]}},{"type":"Feature","id":"r9058701","properties":{"type":"hospital","address":"Macieja Jakubowskiego 2","residential":false,"residents_est":0,"h3_10":"8a1e2e69c01ffff","h3_11":"8b1e2e69c018fff"},"geometry":{"type":"Polygon","coordinates":[[[19.999196,50.008553],[19.999205,50.00855],[19.999228,50.008578],[19.999385,50.008525],[19.999202,50.008299],[19.99972,50.008125],[20.000233,50.008761],[20.000517,50.008665],[20.000055,50.008092],[20.000394,50.007978],[20.000856,50.008551],[20.001141,50.008456],[20.000678,50.007883],[20.001017,50.007769],[20.00148,50.008342],[20.001748,50.008252],[20.001607,50.008078],[20.001624,50.008072],[20.001303,50.007674],[20.001641,50.00756],[20.001963,50.007959],[20.00198,50.007953],[20.002174,50.008193],[20.002157,50.008199],[20.002234,50.008294],[20.00227,50.008282],[20.002408,50.008454],[20.002434,50.008446],[20.002456,50.008474],[20.002395,50.008494],[20.002608,50.008757],[20.001645,50.00908],[20.001225,50.008559],[20.00094,50.008655],[20.001361,50.009176],[20.000731,50.009387],[20.000685,50.00933],[20.000263,50.009471],[19.999938,50.009068],[19.999848,50.009098],[19.999534,50.008708],[19.999366,50.008764],[19.999196,50.008553]],[[20.000317,50.008863],[20.000452,50.009033],[20.000737,50.008938],[20.000601,50.008769],[20.000317,50.008863]],[[20.001564,50.008445],[20.00186,50.008814],[20.002146,50.008718],[20.00185,50.00835],[20.001564,50.008445]]]}},{"type":"Feature","id":"w685975028","properties":{"type":"yes","residential":true,"residents_est":6,"h3_10":"8a1e2e69c1b7fff","h3_11":"8b1e2e69c1b6fff"},"geometry":{"type":"Polygon","coordinates":[[[19.993045,50.010109],[19.993091,50.010091],[19.993074,50.010073],[19.993174,50.010031],[19.993248,50.010106],[19.993102,50.010167],[19.993045,50.010109]]]}},{"type":"Feature","id":"w702310922","properties":{"type":"service","residential":false,"residents_est":0,"h3_10":"8a1e2e69c0c7fff","h3_11":"8b1e2e69c0c6fff"},"geometry":{"type":"Polygon","coordinates":[[[20.001848,50.007085],[20.002018,50.007027],[20.002028,50.007015],[20.002086,50.007014],[20.002122,50.00706],[20.002113,50.007071],[20.002113,50.007095],[20.002076,50.007098],[20.001904,50.007155],[20.001848,50.007085]]]}},{"type":"Feature","id":"w702310923","properties":{"type":"service","residential":false,"residents_est":0,"h3_10":"8a1e2e69c0f7fff","h3_11":"8b1e2e69c0f6fff"},"geometry":{"type":"Polygon","coordinates":[[[20.000028,50.007599],[20.000173,50.007549],[20.000227,50.007615],[20.000082,50.007665],[20.000028,50.007599]]]}},{"type":"Feature","id":"w702310924","properties":{"type":"service","residential":false,"residents_est":0,"h3_10":"8a1e2e69c0f7fff","h3_11":"8b1e2e69c0f6fff"},"geometry":{"type":"Polygon","coordinates":[[[20.00035,50.007471],[20.000878,50.007294],[20.000943,50.007375],[20.000415,50.007552],[20.00035,50.007471]]]}},{"type":"Feature","id":"w703147420","properties":{"type":"yes","residential":true,"residents_est":3,"h3_10":"8a1e2e69c1b7fff","h3_11":"8b1e2e69c1b4fff"},"geometry":{"type":"Polygon","coordinates":[[[19.993009,50.010321],[19.993067,50.010298],[19.993139,50.010372],[19.993078,50.010397],[19.993009,50.010321]]]}},{"type":"Feature","id":"w703147423","properties":{"type":"yes","residential":false,"residents_est":0,"h3_10":"8a1e2e69c1b7fff","h3_11":"8b1e2e69c1b4fff"},"geometry":{"type":"Polygon","coordinates":[[[19.993167,50.010579],[19.993247,50.01055],[19.993273,50.010579],[19.993192,50.010608],[19.993167,50.010579]]]}},{"type":"Feature","id":"w703147590","properties":{"type":"yes","residential":true,"residents_est":2,"h3_10":"8a1e2e69c04ffff","h3_11":"8b1e2e69c04cfff"},"geometry":{"type":"Polygon","coordinates":[[[20.006393,50.009704],[20.006484,50.009684],[20.006511,50.009738],[20.006422,50.009756],[20.006393,50.009704]]]}},{"type":"Feature","id":"w703147591","properties":{"type":"yes","residential":true,"residents_est":2,"h3_10":"8a1e2e69c04ffff","h3_11":"8b1e2e69c048fff"},"geometry":{"type":"Polygon","coordinates":[[[20.007064,50.009419],[20.007154,50.009398],[20.007184,50.009453],[20.007094,50.009474],[20.007064,50.009419]]]}},{"type":"Feature","id":"w703147592","properties":{"type":"hospital","name":"Pracownia Diagnostyki Obrazowej","residential":false,"residents_est":0,"h3_10":"8a1e2e69c05ffff","h3_11":"8b1e2e69c059fff"},"geometry":{"type":"Polygon","coordinates":[[[20.00634,50.008681],[20.006436,50.008662],[20.006411,50.008611],[20.006573,50.008576],[20.006627,50.008681],[20.006464,50.008716],[20.00645,50.008692],[20.006355,50.008712],[20.00634,50.008681]]]}},{"type":"Feature","id":"w705042861","properties":{"type":"yes","residential":true,"residents_est":2,"h3_10":"8a1e2e69c02ffff","h3_11":"8b1e2e69c02dfff"},"geometry":{"type":"Polygon","coordinates":[[[20.001914,50.010988],[20.002007,50.010956],[20.002049,50.011007],[20.001956,50.011039],[20.001914,50.010988]]]}},{"type":"Feature","id":"w705042864","properties":{"type":"yes","residential":false,"residents_est":0,"h3_10":"8a1e2e69c0effff","h3_11":"8b1e2e69c0e8fff"},"geometry":{"type":"Polygon","coordinates":[[[20.00441,50.007986],[20.004424,50.007942],[20.00449,50.007951],[20.004476,50.007995],[20.00441,50.007986]]]}},{"type":"Feature","id":"w705042865","properties":{"type":"yes","residential":true,"residents_est":4,"h3_10":"8a1e2e69c0effff","h3_11":"8b1e2e69c0e9fff"},"geometry":{"type":"Polygon","coordinates":[[[20.004627,50.007806],[20.004654,50.007764],[20.004869,50.007818],[20.00484,50.007863],[20.004627,50.007806]]]}},{"type":"Feature","id":"w705042866","properties":{"type":"guardhouse","residential":false,"residents_est":0,"h3_10":"8a1e2e69c057fff","h3_11":"8b1e2e69c051fff"},"geometry":{"type":"Polygon","coordinates":[[[20.004463,50.009029],[20.004524,50.009],[20.004547,50.00902],[20.004538,50.009024],[20.004561,50.009044],[20.004517,50.009065],[20.004463,50.009029]]]}},{"type":"Feature","id":"w717474319","properties":{"type":"yes","residential":false,"residents_est":0,"h3_10":"8a1e2e69c15ffff","h3_11":"8b1e2e69c15dfff"},"geometry":{"type":"Polygon","coordinates":[[[20.003441,50.011636],[20.003525,50.011606],[20.003553,50.011637],[20.003469,50.011667],[20.003441,50.011636]]]}},{"type":"Feature","id":"w717474320","properties":{"type":"yes","residential":false,"residents_est":0,"h3_10":"8a1e2e69c15ffff","h3_11":"8b1e2e69c15dfff"},"geometry":{"type":"Polygon","coordinates":[[[20.003594,50.011388],[20.003669,50.011362],[20.003698,50.011397],[20.003623,50.011422],[20.003594,50.011388]]]}},{"type":"Feature","id":"w717474321","properties":{"type":"shed","residential":false,"residents_est":0,"h3_10":"8a1e2e69c15ffff","h3_11":"8b1e2e69c15cfff"},"geometry":{"type":"Polygon","coordinates":[[[20.002865,50.011705],[20.002889,50.011687],[20.002929,50.011692],[20.002939,50.011713],[20.002918,50.011731],[20.002879,50.011727],[20.002865,50.011705]]]}},{"type":"Feature","id":"w717474334","properties":{"type":"roof","residential":false,"residents_est":0,"h3_10":"8a1e2e69c10ffff","h3_11":"8b1e2e69c108fff"},"geometry":{"type":"Polygon","coordinates":[[[19.999843,50.012043],[19.999928,50.012014],[20.000006,50.012106],[19.999922,50.012135],[19.999843,50.012043]]]}},{"type":"Feature","id":"w911299568","properties":{"type":"yes","name":"Fort 50 \"Prokocim\"","residential":true,"residents_est":267,"h3_10":"8a1e2e69c1affff","h3_11":"8b1e2e69c1a8fff"},"geometry":{"type":"Polygon","coordinates":[[[19.996578,50.009959],[19.996584,50.009931],[19.99662,50.009906],[19.996659,50.009902],[19.996717,50.009911],[19.99677,50.00993],[19.997372,50.010336],[19.997309,50.010919],[19.997287,50.010956],[19.997249,50.010979],[19.997155,50.01099],[19.997109,50.010971],[19.997089,50.010944],[19.996991,50.010412],[19.996589,50.009983],[19.996578,50.009959]]]}},{"type":"Feature","id":"w940457205","properties":{"type":"yes","residential":true,"residents_est":28,"h3_10":"8a1e2e69c0f7fff","h3_11":"8b1e2e69c0f3fff"},"geometry":{"type":"Polygon","coordinates":[[[20.000965,50.007249],[20.001247,50.007158],[20.001324,50.007257],[20.001042,50.007347],[20.000965,50.007249]]]}},{"type":"Feature","id":"w940457206","properties":{"type":"yes","residential":true,"residents_est":2,"h3_10":"8a1e2e69c0c7fff","h3_11":"8b1e2e69c0c6fff"},"geometry":{"type":"Polygon","coordinates":[[[20.00211,50.007083],[20.002122,50.00706],[20.002137,50.007052],[20.002174,50.007047],[20.002207,50.007059],[20.002222,50.007082],[20.00221,50.007105],[20.002166,50.007119],[20.002121,50.007105],[20.00211,50.007083]]]}},{"type":"Feature","id":"w940457207","properties":{"type":"yes","residential":true,"residents_est":6,"h3_10":"8a1e2e69c0c7fff","h3_11":"8b1e2e69c0c6fff"},"geometry":{"type":"Polygon","coordinates":[[[20.001968,50.00696],[20.001988,50.006926],[20.002036,50.006908],[20.002091,50.006911],[20.002114,50.006921],[20.002141,50.006953],[20.00214,50.006972],[20.00213,50.00699],[20.002112,50.007005],[20.002057,50.007018],[20.002003,50.007007],[20.001983,50.006994],[20.001971,50.006977],[20.001968,50.00696]]]}},{"type":"Feature","id":"w1134010383","properties":{"type":"yes","residential":true,"residents_est":4,"h3_10":"8a1e2e69c1a7fff","h3_11":"8b1e2e69c1a5fff"},"geometry":{"type":"Polygon","coordinates":[[[19.995433,50.011345],[19.995555,50.011301],[19.995603,50.011357],[19.995482,50.011401],[19.995433,50.011345]]]}},{"type":"Feature","id":"w1176051935","properties":{"type":"hospital","name":"Pawilon nr 5A","residential":false,"residents_est":0,"h3_10":"8a1e2e69c04ffff","h3_11":"8b1e2e69c04bfff"},"geometry":{"type":"Polygon","coordinates":[[[20.007285,50.008716],[20.007473,50.008674],[20.00749,50.008705],[20.007511,50.008701],[20.007536,50.008745],[20.007509,50.008751],[20.007664,50.009036],[20.007953,50.008972],[20.007962,50.008969],[20.007952,50.008951],[20.008019,50.008936],[20.00803,50.008955],[20.008123,50.008935],[20.008186,50.009051],[20.007545,50.009194],[20.007285,50.008716]]]}},{"type":"Feature","id":"w1176322247","properties":{"type":"yes","residential":true,"residents_est":3,"h3_10":"8a1e2e69c05ffff","h3_11":"8b1e2e69c059fff"},"geometry":{"type":"Polygon","coordinates":[[[20.006014,50.008569],[20.006061,50.008558],[20.006068,50.008571],[20.006107,50.008561],[20.006135,50.008613],[20.006093,50.008621],[20.006099,50.008633],[20.006039,50.008646],[20.006014,50.008569]]]}},{"type":"Feature","id":"w1180704427","properties":{"type":"yes","residential":false,"residents_est":0,"h3_10":"8a1e2e69c0affff","h3_11":"8b1e2e69c0abfff"},"geometry":{"type":"Polygon","coordinates":[[[19.999548,50.007625],[19.999625,50.007598],[19.999658,50.007637],[19.999582,50.007664],[19.999548,50.007625]]]}},{"type":"Feature","id":"w1197781479","properties":{"type":"warehouse","levels":1.0,"residential":false,"residents_est":0,"h3_10":"8a1e2e69c1b7fff","h3_11":"8b1e2e69c1b0fff"},"geometry":{"type":"Polygon","coordinates":[[[19.993351,50.010245],[19.993462,50.010198],[19.993384,50.010121],[19.993502,50.010072],[19.993614,50.010184],[19.993385,50.010279],[19.993351,50.010245]]]}},{"type":"Feature","id":"w1301546135","properties":{"type":"yes","residential":false,"residents_est":0,"h3_10":"8a1e2e69c167fff","h3_11":"8b1e2e69c165fff"},"geometry":{"type":"Polygon","coordinates":[[[20.002941,50.013657],[20.002997,50.013644],[20.003035,50.013708],[20.00298,50.013721],[20.002941,50.013657]]]}},{"type":"Feature","id":"w1395713168","properties":{"type":"office","address":"Marii Orwid 11","name":"Administracja Szpitala Uniwersyteckiego","residential":false,"residents_est":0,"h3_10":"8a1e2e69c077fff","h3_11":"8b1e2e69c073fff"},"geometry":{"type":"Polygon","coordinates":[[[20.003358,50.009631],[20.00368,50.009521],[20.003866,50.009744],[20.003851,50.009749],[20.00386,50.009762],[20.003876,50.009757],[20.003963,50.009862],[20.003941,50.00987],[20.003991,50.00993],[20.004013,50.009922],[20.004063,50.009984],[20.003741,50.010094],[20.00369,50.010033],[20.003715,50.010025],[20.003665,50.009963],[20.003639,50.009972],[20.003579,50.009899],[20.003603,50.00989],[20.003578,50.009859],[20.003554,50.00983],[20.003529,50.009839],[20.003358,50.009631]]]}},{"type":"Feature","id":"w1473318904","properties":{"type":"construction","address":"Medyczna 6","residential":false,"residents_est":0,"h3_10":"8a1e2e69c137fff","h3_11":"8b1e2e69c136fff"},"geometry":{"type":"Polygon","coordinates":[[[19.994632,50.012691],[19.995031,50.012556],[19.994999,50.012517],[19.995252,50.012431],[19.99521,50.01238],[19.99534,50.012336],[19.996119,50.01216],[19.996293,50.012478],[19.995303,50.012702],[19.994926,50.012829],[19.9949,50.012798],[19.994758,50.012846],[19.994632,50.012691]]]}},{"type":"Feature","id":"r7367991","properties":{"type":"hospital","address":"Wielicka 265","residential":false,"residents_est":0,"h3_10":"8a1e2e69c157fff","h3_11":"8b1e2e69c154fff"},"geometry":{"type":"Polygon","coordinates":[[[19.999366,50.01224],[19.999375,50.012229],[19.999462,50.012197],[19.999525,50.012273],[19.999758,50.012192],[19.999762,50.012165],[19.99978,50.012153],[19.999827,50.012149],[19.999851,50.01216],[20.000191,50.012045],[20.000213,50.012052],[20.000237,50.012082],[20.000289,50.012064],[20.000271,50.012026],[20.000277,50.011996],[20.000309,50.011961],[20.000348,50.011942],[20.000391,50.011931],[20.000446,50.011931],[20.000493,50.011944],[20.000516,50.011957],[20.000539,50.011982],[20.000765,50.011909],[20.000648,50.011767],[20.000598,50.011769],[20.000491,50.011751],[20.00042,50.011718],[20.000375,50.011677],[20.000348,50.011626],[20.000345,50.011603],[20.00035,50.011562],[20.000363,50.011535],[20.000395,50.011496],[20.000417,50.011479],[20.000495,50.011442],[20.00047,50.011412],[20.000388,50.01144],[20.000325,50.011363],[20.000304,50.01137],[20.000277,50.011337],[20.000508,50.01126],[20.000597,50.011369],[20.000515,50.011397],[20.000543,50.011431],[20.00063,50.011425],[20.000693,50.011433],[20.000688,50.011448],[20.000754,50.01147],[20.000801,50.011499],[20.00084,50.011543],[20.000855,50.011595],[20.000845,50.011642],[20.000821,50.011677],[20.000843,50.011687],[20.000816,50.01171],[20.000829,50.011726],[20.001136,50.011617],[20.000986,50.011435],[20.000937,50.011453],[20.000873,50.011375],[20.000921,50.011359],[20.000828,50.011247],[20.000774,50.011265],[20.000522,50.010976],[20.000443,50.011006],[20.000111,50.0106],[20.000297,50.010537],[20.000327,50.010572],[20.000411,50.010543],[20.000384,50.010513],[20.000538,50.01046],[20.000564,50.010491],[20.000653,50.010461],[20.000628,50.010431],[20.000779,50.010379],[20.000805,50.010411],[20.000897,50.01038],[20.000871,50.010347],[20.001021,50.010295],[20.001047,50.010325],[20.001137,50.010295],[20.001111,50.010264],[20.001338,50.010184],[20.001385,50.01024],[20.00146,50.010216],[20.001698,50.010505],[20.001625,50.010531],[20.001671,50.010589],[20.001445,50.010668],[20.001418,50.010635],[20.001328,50.010666],[20.001355,50.010698],[20.001203,50.010751],[20.001172,50.010715],[20.001089,50.010745],[20.001368,50.011088],[20.001215,50.011142],[20.001173,50.011094],[20.00093,50.011176],[20.001241,50.011555],[20.001223,50.011561],[20.001263,50.011611],[20.001282,50.011605],[20.001287,50.011611],[20.000852,50.011753],[20.000929,50.011847],[20.001647,50.011601],[20.001644,50.011598],[20.001652,50.011595],[20.001696,50.011648],[20.001748,50.011632],[20.001585,50.011431],[20.001823,50.01135],[20.001987,50.011551],[20.00213,50.011505],[20.002112,50.011483],[20.002043,50.011507],[20.001868,50.011294],[20.002318,50.011139],[20.002493,50.011352],[20.002351,50.0114],[20.002423,50.011488],[20.002644,50.011413],[20.002747,50.011537],[20.002446,50.01164],[20.002522,50.011731],[20.002596,50.011739],[20.002626,50.011753],[20.002658,50.011783],[20.002667,50.011809],[20.002663,50.011832],[20.002648,50.011856],[20.002604,50.011883],[20.00254,50.011895],[20.002472,50.011882],[20.002446,50.011869],[20.002412,50.011825],[20.002411,50.011803],[20.002441,50.011759],[20.002364,50.011668],[20.001864,50.011841],[20.001902,50.011887],[20.002005,50.011852],[20.002244,50.012144],[20.002081,50.012199],[20.002105,50.012228],[20.002051,50.012247],[20.002026,50.012218],[20.001864,50.012273],[20.001625,50.01198],[20.001705,50.011952],[20.001673,50.011909],[20.001465,50.011981],[20.001731,50.01231],[20.001058,50.012545],[20.001071,50.012561],[20.000836,50.012641],[20.000776,50.012569],[20.000822,50.012554],[20.000783,50.012507],[20.000963,50.012446],[20.000886,50.012351],[20.00093,50.012336],[20.000805,50.012185],[20.000404,50.012322],[20.000764,50.01277],[20.00093,50.012716],[20.000949,50.01274],[20.001103,50.012689],[20.001273,50.012893],[20.001096,50.012953],[20.001061,50.012909],[20.001069,50.012905],[20.001026,50.012854],[20.000983,50.012856],[20.000969,50.012884],[20.000918,50.012901],[20.000879,50.012894],[20.00084,50.012864],[20.000095,50.013113],[20.000092,50.013109],[20.000097,50.013107],[20.000009,50.012999],[19.999963,50.013015],[19.999991,50.013049],[19.999987,50.013068],[19.999964,50.013079],[19.999924,50.013075],[19.999859,50.012995],[19.999928,50.012971],[19.999946,50.012994],[19.999993,50.012978],[19.99981,50.012754],[19.999685,50.012792],[19.99969,50.01279],[19.999645,50.012736],[19.999642,50.012724],[19.999655,50.012712],[19.999699,50.012704],[19.999714,50.012714],[19.999739,50.012747],[19.999788,50.012731],[19.999436,50.012304],[19.999489,50.012284],[19.999467,50.012257],[19.99941,50.012275],[19.999375,50.012266],[19.999366,50.012253],[19.999366,50.01224]],[[20.000351,50.010603],[20.000581,50.01088],[20.000664,50.010852],[20.000436,50.010573],[20.000351,50.010603]],[[20.000589,50.010522],[20.000805,50.010779],[20.000895,50.010747],[20.000869,50.010715],[20.001019,50.010664],[20.001048,50.010697],[20.001133,50.010667],[20.000918,50.010407],[20.000829,50.010438],[20.000876,50.010496],[20.000727,50.010548],[20.00068,50.010491],[20.000589,50.010522]],[[20.000609,50.010907],[20.000825,50.011171],[20.001146,50.011064],[20.000927,50.010796],[20.000837,50.010828],[20.000864,50.010861],[20.000715,50.010913],[20.000688,50.010881],[20.000609,50.010907]],[[20.000658,50.011992],[20.000782,50.012142],[20.00092,50.012098],[20.000791,50.011943],[20.000658,50.011992]],[[20.000848,50.012171],[20.000973,50.012321],[20.000984,50.012319],[20.001046,50.012394],[20.001035,50.012398],[20.001051,50.012417],[20.001154,50.012381],[20.000947,50.012132],[20.000848,50.012171]],[[20.001064,50.010347],[20.001298,50.010629],[20.001391,50.010598],[20.001159,50.010317],[20.001064,50.010347]],[[20.001738,50.011697],[20.001756,50.011719],[20.001815,50.011698],[20.001794,50.011675],[20.001738,50.011697]],[[20.001996,50.011589],[20.002026,50.011626],[20.002181,50.011568],[20.00215,50.011529],[20.001996,50.011589]]]}},{"type":"Feature","id":"w1493119859","properties":{"type":"retail","address":"Obronna 7","name":"Schangri","residential":false,"residents_est":0,"h3_10":"8a1e2e69c1b7fff","h3_11":"8b1e2e69c1b0fff"},"geometry":{"type":"Polygon","coordinates":[[[19.993297,50.010108],[19.993347,50.010088],[19.993414,50.010173],[19.99338,50.010181],[19.993297,50.010108]]]}},{"type":"Feature","id":"w1506838315","properties":{"type":"retail","address":"Marii Orwid 2","name":"KFC","residential":false,"residents_est":0,"h3_10":"8a1e2e69c14ffff","h3_11":"8b1e2e69c14afff"},"geometry":{"type":"Polygon","coordinates":[[[20.003915,50.011547],[20.00406,50.011496],[20.004191,50.011654],[20.004068,50.011697],[20.004047,50.011673],[20.004026,50.01168],[20.003915,50.011547]]]}},{"type":"Feature","id":"w1540213204","properties":{"type":"school","levels":1.0,"residential":false,"residents_est":0,"h3_10":"8a1e2e69c14ffff","h3_11":"8b1e2e69c14efff"},"geometry":{"type":"Polygon","coordinates":[[[20.0041,50.011801],[20.004137,50.011788],[20.004178,50.011836],[20.00414,50.011848],[20.0041,50.011801]]]}}]}